{"version": 0.6, "generator": "Overpass API 0.7.61.5 4133829e", "osm3s": {"timestamp_osm_base": "2023-10-31T20:36:15Z", "copyright": "The data included in this document is from www.openstreetmap.org. The data is made available under ODbL."}, "elements": [{"type": "node", "id": 367980979, "lat": 38.2681282, "lon": -77.4485648, "tags": {"addr:state": "VA", "aeroway": "helipad", "ele": "25", "gnis:county_name": "Spotsylvania", "gnis:feature_id": "2331925", "gnis:import_uuid": "57871b70-0100-4405-bb30-88b2e001a944", "gnis:reviewed": "no", "name": "AirCare 2 Base 2", "source": "USGS Geonames"}}, {"type": "node", "id": 368379713, "lat": 38.8595569, "lon": -77.0055314, "tags": {"addr:state": "DC", "aeroway": "helipad", "ele": "2", "gnis:county_name": "District of Columbia", "gnis:created": "02/01/1993", "gnis:feature_id": "530995", "gnis:feature_type": "Airport", "name": "Bolling Field"}}, {"type": "node", "id": 368379716, "lat": 38.9103894, "lon": -77.0066428, "tags": {"addr:state": "DC", "aeroway": "helipad", "ele": "22", "gnis:county_name": "District of Columbia", "gnis:created": "09/01/1994", "gnis:feature_id": "531858", "gnis:feature_type": "Airport", "name": "Metropolitan Complex Heliport"}}, {"type": "node", "id": 368379744, "lat": 38.9420553, "lon": -77.0794223, "tags": {"addr:state": "DC", "aeroway": "helipad", "ele": "110", "gnis:county_name": "District of Columbia", "gnis:created": "09/01/1994", "gnis:feature_id": "532042", "gnis:feature_type": "Airport", "name": "National Presbyterian Church Heliport"}}, {"type": "node", "id": 368381052, "lat": 39.6529724, "lon": -79.9574661, "tags": {"addr:state": "WV", "aeroway": "helipad", "ele": "336", "gnis:county_name": "Monongalia", "gnis:created": "09/01/1992", "gnis:feature_id": "1558821", "gnis:feature_type": "Airport", "name": "University Hospital Heliport", "source": "Bing", "wikidata": "Q61726772"}}, {"type": "node", "id": 368381215, "lat": 39.1482373, "lon": -75.5034393, "tags": {"addr:state": "DE", "aeroway": "helipad", "ele": "9", "gnis:county_name": "Kent", "gnis:created": "07/01/1982", "gnis:feature_id": "217226", "gnis:feature_type": "Airport", "lit": "yes", "name": "DelDOT Helistop", "operator": "State of Delaware", "ref": "0N5", "surface": "concrete", "wikidata": "Q61671728"}}, {"type": "node", "id": 368381244, "lat": 39.758446, "lon": -75.5996482, "tags": {"addr:state": "DE", "aeroway": "helipad", "ele": "48", "fixme": "unable to verify if this still exists here", "gnis:county_name": "New Castle", "gnis:created": "07/01/1982", "gnis:feature_id": "217249", "gnis:feature_type": "Airport", "name": "Old Du Pont Airport Helistop"}}, {"type": "node", "id": 368381245, "lat": 39.7526252, "lon": -75.6081289, "tags": {"addr:state": "DE", "aeroway": "helipad", "ele": "48", "fixme": "unable to verify if this still exists here", "gnis:county_name": "New Castle", "gnis:created": "07/01/1982", "gnis:feature_id": "217248", "gnis:feature_type": "Airport", "name": "Chestnut Run Helistop"}}, {"type": "node", "id": 368381251, "lat": 39.1937365, "lon": -75.5440585, "tags": {"addr:state": "DE", "aeroway": "helipad", "ele": "12", "gnis:county_name": "Kent", "gnis:created": "07/01/1982", "gnis:feature_id": "217898", "gnis:feature_type": "Airport", "name": "Delaware State Police Academy Heliport"}}, {"type": "node", "id": 368395621, "lat": 39.9070585, "lon": -74.9718368, "tags": {"addr:state": "NJ", "aeroway": "helipad", "ele": "17", "gnis:county_name": "Camden", "gnis:created": "09/08/1979", "gnis:feature_id": "882332", "gnis:feature_type": "Airport", "name": "A M Rodgers Construction Company", "wikidata": "Q34630223"}}, {"type": "node", "id": 368395656, "lat": 39.6381739, "lon": -75.4085296, "tags": {"addr:state": "NJ", "aeroway": "helipad", "ele": "9", "gnis:county_name": "Salem", "gnis:created": "09/08/1979", "gnis:feature_id": "882344", "gnis:feature_type": "Airport", "name": "Halltown", "wikidata": "Q35262353"}}, {"type": "node", "id": 368395682, "lat": 39.5824814, "lon": -74.9496275, "tags": {"addr:state": "NJ", "aeroway": "helipad", "ele": "36", "gnis:county_name": "Gloucester", "gnis:created": "09/08/1979", "gnis:feature_id": "882367", "gnis:feature_type": "Airport", "name": "Sandor Farms Airstrip", "wikidata": "Q35298641"}}, {"type": "node", "id": 368395755, "lat": 39.7531671, "lon": -75.1412083, "tags": {"addr:state": "NJ", "aeroway": "heliport", "ele": "26", "faa": "27NJ", "fixme": "is this the right location? FAA data shows this as being by Lambs Road and Woodbury-Glassboro Road", "gnis:county_name": "Gloucester", "gnis:created": "09/08/1979", "gnis:feature_id": "882373", "gnis:feature_type": "Airport", "name": "Pitman", "wikidata": "Q35289589"}}, {"type": "node", "id": 368395776, "lat": 39.6648397, "lon": -75.2526922, "tags": {"addr:state": "NJ", "aeroway": "helipad", "ele": "42", "gnis:county_name": "Salem", "gnis:created": "07/01/1981", "gnis:feature_id": "883196", "gnis:feature_type": "Airport", "name": "Steward", "wikidata": "Q35306834"}}, {"type": "node", "id": 368395807, "lat": 39.9047388, "lon": -74.2339637, "tags": {"addr:state": "NJ", "aeroway": "helipad", "ele": "13", "faa": "0NJ1", "gnis:county_name": "Ocean", "gnis:created": "08/01/1994", "gnis:feature_id": "884657", "gnis:feature_type": "Airport", "lit": "no", "name": "Berkeley Township Police Heliport", "surface": "asphalt", "wikidata": "Q61675584"}}, {"type": "node", "id": 368395887, "lat": 39.4842871, "lon": -74.8812866, "tags": {"addr:state": "NJ", "aeroway": "helipad", "ele": "27", "gnis:county_name": "Atlantic", "gnis:created": "08/01/1994", "gnis:feature_id": "884686", "gnis:feature_type": "Airport", "name": "J L Gentile Heliport", "wikidata": "Q61675611"}}, {"type": "node", "id": 368395898, "lat": 39.1067828, "lon": -74.8073922, "tags": {"addr:state": "NJ", "aeroway": "helipad", "ele": "3", "gnis:county_name": "Cape May", "gnis:created": "08/01/1994", "gnis:feature_id": "884695", "gnis:feature_type": "Airport", "name": "Stone Harbor Golf Club Heliport", "wikidata": "Q61675623"}}, {"type": "node", "id": 368395899, "lat": 38.9453934, "lon": -74.8823954, "tags": {"addr:state": "NJ", "aeroway": "helipad", "ele": "0", "gnis:county_name": "Cape May", "gnis:created": "08/01/1994", "gnis:feature_id": "884694", "gnis:feature_type": "Airport", "name": "Cape May County Gas Heliport"}}, {"type": "node", "id": 368395959, "lat": 39.7862268, "lon": -75.3490796, "tags": {"addr:state": "NJ", "aeroway": "helipad", "ele": "8", "gnis:county_name": "Gloucester", "gnis:created": "08/01/1994", "gnis:feature_id": "884677", "gnis:feature_type": "Airport", "name": "Logan Plant Heliport"}}, {"type": "node", "id": 368395978, "lat": 39.6974347, "lon": -75.4952908, "tags": {"addr:state": "NJ", "aeroway": "helipad", "ele": "2", "gnis:county_name": "Salem", "gnis:created": "08/01/1994", "gnis:feature_id": "884716", "gnis:feature_type": "Airport", "name": "Deepwater Heliport", "wikidata": "Q61675635"}}, {"type": "node", "id": 368395981, "lat": 39.6817289, "lon": -75.5078185, "tags": {"addr:state": "NJ", "aeroway": "helipad", "ele": "0", "gnis:county_name": "Salem", "gnis:created": "08/01/1994", "gnis:feature_id": "884715", "gnis:feature_type": "Airport", "name": "Deepwater Station Heliport"}}, {"type": "node", "id": 368395988, "lat": 39.4929606, "lon": -74.6108663, "tags": {"addr:state": "NJ", "aeroway": "helipad", "ele": "21", "gnis:county_name": "Atlantic", "gnis:created": "08/01/1994", "gnis:feature_id": "884707", "gnis:feature_type": "Airport", "name": "Germania Heliport", "wikidata": "Q61675630"}}, {"type": "node", "id": 368395995, "lat": 39.8809506, "lon": -74.994339, "tags": {"addr:state": "NJ", "aeroway": "helipad", "ele": "23", "gnis:county_name": "Camden", "gnis:created": "08/01/1994", "gnis:feature_id": "884700", "gnis:feature_type": "Airport", "name": "Caputo Helistop", "wikidata": "Q34961261"}}, {"type": "node", "id": 368396012, "lat": 39.8398035, "lon": -74.1771009, "tags": {"aeroway": "helipad", "faa": "66NJ", "gnis:feature_id": "884746", "name": "Forked River Heliport", "surface": "grass", "wikidata": "Q61675659"}}, {"type": "node", "id": 368396027, "lat": 39.595199, "lon": -74.8147784, "tags": {"addr:state": "NJ", "aeroway": "helipad", "ele": "18", "gnis:county_name": "Atlantic", "gnis:created": "08/01/1994", "gnis:feature_id": "884744", "gnis:feature_type": "Airport", "name": "Folsom Airport"}}, {"type": "node", "id": 368396054, "lat": 39.6356763, "lon": -74.7484991, "tags": {"addr:state": "NJ", "aeroway": "helipad", "ele": "18", "gnis:county_name": "Atlantic", "gnis:created": "08/01/1994", "gnis:feature_id": "884775", "gnis:feature_type": "Airport", "name": "Bertino Heliport", "wikidata": "Q61675688"}}, {"type": "node", "id": 368396055, "lat": 39.5970124, "lon": -74.8958563, "tags": {"addr:state": "NJ", "aeroway": "helipad", "ele": "27", "gnis:county_name": "Gloucester", "gnis:created": "08/01/1994", "gnis:feature_id": "884774", "gnis:feature_type": "Airport", "name": "Piney Hollow Airfield"}}, {"type": "node", "id": 368396068, "lat": 39.6992905, "lon": -74.233756, "tags": {"addr:state": "NJ", "aeroway": "helipad", "ele": "3", "gnis:county_name": "Ocean", "gnis:created": "08/01/1994", "gnis:feature_id": "884822", "gnis:feature_type": "Airport", "name": "WJRZ Radio Heliport", "wikidata": "Q61675727"}}, {"type": "node", "id": 368396071, "lat": 39.8015067, "lon": -74.7590541, "tags": {"addr:state": "NJ", "aeroway": "helipad", "ele": "25", "gnis:county_name": "Burlington", "gnis:created": "08/01/1994", "gnis:feature_id": "884826", "gnis:feature_type": "Airport", "name": "Indian Mills Heliport", "wikidata": "Q61675729"}}, {"type": "node", "id": 368396073, "lat": 39.9578955, "lon": -74.7679432, "tags": {"addr:state": "NJ", "aeroway": "helipad", "ele": "15", "gnis:county_name": "Burlington", "gnis:created": "08/01/1994", "gnis:feature_id": "884818", "gnis:feature_type": "Airport", "name": "Eayrestown Helistop", "wikidata": "Q34964712"}}, {"type": "node", "id": 368396134, "lat": 39.339104, "lon": -74.5695398, "tags": {"addr:state": "NJ", "aeroway": "helipad", "ele": "1", "gnis:county_name": "Atlantic", "gnis:created": "08/01/1994", "gnis:feature_id": "884808", "gnis:feature_type": "Airport", "name": "Sans Souci Estate Helistop", "wikidata": "Q35298847"}}, {"type": "node", "id": 368396150, "lat": 39.8900739, "lon": -74.5815289, "tags": {"aeroway": "helipad", "faa": "NJ62", "gnis:feature_id": "884864", "name": "LZ 1 NLDC Heliport", "surface": "grass", "wikidata": "Q61675757"}}, {"type": "node", "id": 368396211, "lat": 39.9720594, "lon": -74.919056, "tags": {"addr:state": "NJ", "aeroway": "helipad", "ele": "21", "gnis:county_name": "Burlington", "gnis:created": "08/01/1994", "gnis:feature_id": "884832", "gnis:feature_type": "Airport", "name": "Griffin Associates Heliport"}}, {"type": "node", "id": 368396231, "lat": 39.9560928, "lon": -74.9197121, "tags": {"addr:state": "NJ", "aeroway": "helipad", "ele": "12", "gnis:county_name": "Burlington", "gnis:created": "08/01/1994", "gnis:feature_id": "884842", "gnis:feature_type": "Airport", "name": "New Jersey Turnpike Authority Heliport", "wikidata": "Q61675744"}}, {"type": "node", "id": 368396288, "lat": 39.561502, "lon": -75.4785371, "tags": {"addr:state": "NJ", "aeroway": "helipad", "ele": "2", "gnis:county_name": "Salem", "gnis:created": "08/01/1994", "gnis:feature_id": "884924", "gnis:feature_type": "Airport", "name": "Southern Training Center Heliport", "wikidata": "Q61675811"}}, {"type": "node", "id": 368396316, "lat": 39.9998681, "lon": -74.080626, "tags": {"addr:state": "NJ", "aeroway": "helipad", "ele": "1", "gnis:county_name": "Ocean", "gnis:created": "08/01/1994", "gnis:feature_id": "884951", "gnis:feature_type": "Airport", "name": "Middle Sedge Island Heliport", "wikidata": "Q61675832"}}, {"type": "node", "id": 368396354, "lat": 39.8584508, "lon": -75.0651739, "tags": {"addr:state": "NJ", "aeroway": "helipad", "ele": "18", "gnis:county_name": "Camden", "gnis:created": "08/01/1994", "gnis:feature_id": "884919", "gnis:feature_type": "Airport", "name": "Holiday Inn Stop Heliport"}}, {"type": "node", "id": 368396369, "lat": 39.6465039, "lon": -75.3038007, "tags": {"addr:state": "NJ", "aeroway": "helipad", "ele": "18", "gnis:county_name": "Salem", "gnis:created": "08/01/1994", "gnis:feature_id": "884990", "gnis:feature_type": "Airport", "name": "A M Classics Heliport"}}, {"type": "node", "id": 368396389, "lat": 39.4951162, "lon": -75.0301802, "tags": {"addr:state": "NJ", "aeroway": "helipad", "ele": "32", "gnis:county_name": "Cumberland", "gnis:created": "08/01/1994", "gnis:feature_id": "884964", "gnis:feature_type": "Airport", "name": "Vineland Veterans Home Heliport", "wikidata": "Q61675847"}}, {"type": "node", "id": 368396390, "lat": 39.5240789, "lon": -75.0450914, "tags": {"addr:state": "NJ", "aeroway": "helipad", "ele": "24", "gnis:county_name": "Cumberland", "gnis:created": "08/01/1994", "gnis:feature_id": "884963", "gnis:feature_type": "Airport", "name": "Kroelinger Airport"}}, {"type": "node", "id": 368396411, "lat": 39.7431795, "lon": -74.724889, "tags": {"addr:state": "NJ", "aeroway": "helipad", "ele": "15", "gnis:county_name": "Burlington", "gnis:created": "08/01/1994", "gnis:feature_id": "884955", "gnis:feature_type": "Airport", "name": "Atsion Helistop", "wikidata": "Q34956771"}}, {"type": "node", "id": 368396423, "lat": 39.7390094, "lon": -74.9662824, "tags": {"addr:state": "NJ", "aeroway": "helipad", "ele": "42", "gnis:county_name": "Camden", "gnis:created": "08/01/1994", "gnis:feature_id": "884985", "gnis:feature_type": "Airport", "name": "New Freedom Switching Station Heliport", "wikidata": "Q61675869"}}, {"type": "node", "id": 368944017, "lat": 38.8480114, "lon": -77.0772001, "tags": {"addr:state": "VA", "aeroway": "helipad", "ele": "19", "gnis:county_name": "Arlington", "gnis:created": "09/01/1992", "gnis:feature_id": "1480216", "gnis:feature_type": "Airport", "name": "National Hospital for Orthopadecis-Rehabilitation Heliport"}}, {"type": "node", "id": 368944445, "lat": 37.9059154, "lon": -76.2904785, "tags": {"addr:state": "VA", "aeroway": "helipad", "ele": "3", "gnis:county_name": "Northumberland", "gnis:created": "09/01/1992", "gnis:feature_id": "1480239", "gnis:feature_type": "Airport", "name": "Federhart-Ophelia Stolport", "wikidata": "Q49746195"}}, {"type": "node", "id": 368944522, "lat": 38.8738385, "lon": -77.2409256, "tags": {"addr:state": "VA", "aeroway": "helipad", "ele": "91", "gnis:county_name": "Fairfax", "gnis:created": "09/01/1992", "gnis:feature_id": "1480245", "gnis:feature_type": "Airport", "name": "Roubin and Janeiro Incorporated Heliport"}}, {"type": "node", "id": 368944612, "lat": 36.7887593, "lon": -76.2263269, "tags": {"addr:state": "VA", "aeroway": "helipad", "ele": "6", "gnis:county_name": "Chesapeake (city)", "gnis:created": "09/01/1992", "gnis:feature_id": "1480223", "gnis:feature_type": "Airport", "name": "Armada-Hoffler Business Center Heliport", "wikidata": "Q61725322"}}, {"type": "node", "id": 368944650, "lat": 37.3548251, "lon": -77.4170712, "tags": {"addr:state": "VA", "aeroway": "helipad", "ele": "51", "gnis:county_name": "Chesterfield", "gnis:created": "09/01/1992", "gnis:feature_id": "1480224", "gnis:feature_type": "Airport", "name": "Fire Station Number 14 Heliport"}}, {"type": "node", "id": 368945289, "lat": 37.3608716, "lon": -78.8687359, "tags": {"addr:state": "VA", "aeroway": "helipad", "ele": "254", "faa": "38VA", "gnis:county_name": "Appomattox", "gnis:created": "09/01/1992", "gnis:feature_id": "1498580", "gnis:feature_type": "Airport", "lit": "no", "name": "State Police Division Three Heliport", "surface": "grass", "wikidata": "Q61725261"}}, {"type": "node", "id": 368945520, "lat": 36.8702861, "lon": -78.707948, "tags": {"addr:state": "VA", "aeroway": "helipad", "ele": "133", "gnis:county_name": "Halifax", "gnis:created": "09/01/1992", "gnis:feature_id": "1498635", "gnis:feature_type": "Airport", "name": "Clover Project Landing Zone Heliport"}}, {"type": "node", "id": 368945740, "lat": 38.0406936, "lon": -78.7561321, "tags": {"addr:state": "VA", "aeroway": "helipad", "ele": "206", "gnis:county_name": "Albemarle", "gnis:created": "09/01/1992", "gnis:feature_id": "1498646", "gnis:feature_type": "Airport", "name": "Mirador Heliport", "wikidata": "Q61725343"}}, {"type": "node", "id": 368946100, "lat": 37.9654177, "lon": -77.7774923, "tags": {"addr:state": "VA", "aeroway": "helipad", "ele": "105", "gnis:county_name": "Louisa", "gnis:created": "09/01/1992", "gnis:feature_id": "1498610", "gnis:feature_type": "Airport", "name": "Mostly Harmless Heliport"}}, {"type": "node", "id": 368946174, "lat": 37.3098595, "lon": -76.0157672, "tags": {"addr:state": "VA", "aeroway": "helipad", "ele": "1", "gnis:county_name": "Northampton", "gnis:created": "09/01/1992", "gnis:feature_id": "1498615", "gnis:feature_type": "Airport", "name": "Point Farm Heliport", "wikidata": "Q61725307"}}, {"type": "node", "id": 368946485, "lat": 37.1037539, "lon": -79.3011349, "tags": {"addr:state": "VA", "aeroway": "helipad", "ele": "162", "gnis:county_name": "Pittsylvania", "gnis:created": "09/01/1992", "gnis:feature_id": "1498701", "gnis:feature_type": "Airport", "name": "English Heliport", "wikidata": "Q61725432"}}, {"type": "node", "id": 368946612, "lat": 39.1195564, "lon": -77.5667918, "tags": {"addr:state": "VA", "aeroway": "helipad", "ele": "111", "gnis:county_name": "Loudoun", "gnis:created": "09/01/1992", "gnis:feature_id": "1498712", "gnis:feature_type": "Airport", "name": "INOVA Cornwall Hospital Helipad"}}, {"type": "node", "id": 368946655, "lat": 37.756808, "lon": -78.8958557, "tags": {"addr:state": "VA", "aeroway": "helipad", "ele": "233", "gnis:county_name": "Nelson", "gnis:created": "09/01/1992", "gnis:feature_id": "1498716", "gnis:feature_type": "Airport", "name": "Stevens Helicopters Heliport", "wikidata": "Q61725450"}}, {"type": "node", "id": 368946662, "lat": 38.7537266, "lon": -77.4797112, "tags": {"addr:state": "VA", "aeroway": "helipad", "ele": "85", "gnis:county_name": "Prince William", "gnis:created": "09/01/1992", "gnis:feature_id": "1498724", "gnis:feature_type": "Airport", "name": "Prince William Fire Heliport"}}, {"type": "node", "id": 368946847, "lat": 36.6993172, "lon": -76.9382944, "tags": {"addr:state": "VA", "aeroway": "helipad", "ele": "9", "gnis:county_name": "Southampton", "gnis:created": "09/01/1992", "gnis:feature_id": "1498674", "gnis:feature_type": "Airport", "name": "Southampton Memorial Hospital Heliport"}}, {"type": "node", "id": 368946936, "lat": 37.4197956, "lon": -76.5429002, "tags": {"addr:state": "VA", "aeroway": "helipad", "ele": "18", "gnis:county_name": "Gloucester", "gnis:created": "09/01/1992", "gnis:feature_id": "1498682", "gnis:feature_type": "Airport", "name": "Riverside Middle Peninsula Hospital Heliport"}}, {"type": "node", "id": 368947048, "lat": 38.3098533, "lon": -77.9313853, "tags": {"addr:state": "VA", "aeroway": "helipad", "ele": "120", "gnis:county_name": "Orange", "gnis:created": "09/01/1992", "gnis:feature_id": "1498769", "gnis:feature_type": "Airport", "name": "Atlantic Research Corp Heliport"}}, {"type": "node", "id": 368947254, "lat": 37.21625, "lon": -77.3975886, "tags": {"addr:state": "VA", "aeroway": "helipad", "disused:aeroway": "helipad", "ele": "39", "gnis:county_name": "Prince George", "gnis:created": "09/01/1992", "gnis:feature_id": "1498773", "gnis:feature_type": "Airport", "name": "SRMC Heliport"}}, {"type": "node", "id": 368947313, "lat": 38.9370552, "lon": -77.8191613, "tags": {"addr:state": "VA", "aeroway": "helipad", "ele": "162", "gnis:county_name": "Fauquier", "gnis:created": "09/01/1992", "gnis:feature_id": "1498733", "gnis:feature_type": "Airport", "name": "Evergreen Heliport", "wikidata": "Q61725472"}}, {"type": "node", "id": 368947383, "lat": 38.7535223, "lon": -77.4971222, "tags": {"addr:state": "VA", "aeroway": "helipad", "ele": "73", "gnis:county_name": "Prince William", "gnis:created": "09/01/1992", "gnis:feature_id": "1498725", "gnis:feature_type": "Airport", "name": "IBM Building 110 Heliport"}}, {"type": "node", "id": 368947396, "lat": 38.7597458, "lon": -77.5068722, "tags": {"addr:state": "VA", "aeroway": "helipad", "ele": "69", "gnis:county_name": "Prince William", "gnis:created": "09/01/1992", "gnis:feature_id": "1498727", "gnis:feature_type": "Airport", "name": "IBM Building 250 Heliport"}}, {"type": "node", "id": 368947448, "lat": 38.0456935, "lon": -77.7813813, "tags": {"addr:state": "VA", "aeroway": "helipad", "ele": "76", "gnis:county_name": "Louisa", "gnis:created": "09/01/1992", "gnis:feature_id": "1498750", "gnis:feature_type": "Airport", "name": "Caton South Heliport", "wikidata": "Q61725484"}}, {"type": "node", "id": 368947568, "lat": 38.9723318, "lon": -77.8580507, "tags": {"addr:state": "VA", "aeroway": "helipad", "ele": "151", "gnis:county_name": "Fauquier", "gnis:created": "09/01/1992", "gnis:feature_id": "1498830", "gnis:feature_type": "Airport", "name": "Heronwood Heliport"}}, {"type": "node", "id": 368947775, "lat": 38.7511104, "lon": -77.6714173, "tags": {"addr:state": "VA", "aeroway": "helipad", "ele": "119", "gnis:county_name": "Fauquier", "gnis:created": "09/01/1992", "gnis:feature_id": "1498841", "gnis:feature_type": "Airport", "historic": "aeroway", "name": "Vint Hills Farm Station Heliport"}}, {"type": "node", "id": 368947909, "lat": 37.763196, "lon": -78.9789136, "tags": {"addr:state": "VA", "aeroway": "helipad", "ele": "225", "gnis:county_name": "Nelson", "gnis:created": "09/01/1992", "gnis:feature_id": "1498804", "gnis:feature_type": "Airport", "name": "Roseland Rescue Squad Heliport", "wikidata": "Q61725565"}}, {"type": "node", "id": 368947992, "lat": 38.5195683, "lon": -77.5735978, "tags": {"addr:state": "VA", "aeroway": "helipad", "ele": "102", "gnis:county_name": "Fauquier", "gnis:created": "09/01/1992", "gnis:feature_id": "1498814", "gnis:feature_type": "Airport", "name": "Beaver Lodge Estate Heliport", "wikidata": "Q61725577"}}, {"type": "node", "id": 368948015, "lat": 36.7182456, "lon": -78.9090806, "tags": {"addr:state": "VA", "aeroway": "helipad", "disused:aeroway": "helipad", "ele": "144", "gnis:county_name": "Halifax", "gnis:created": "09/01/1992", "gnis:feature_id": "1498816", "gnis:feature_type": "Airport", "lit": "yes", "name": "South Boston Medical Heliport", "surface": "concrete", "wikidata": "Q61725580"}}, {"type": "node", "id": 368948198, "lat": 38.8238886, "lon": -77.2830489, "tags": {"addr:state": "VA", "aeroway": "helipad", "ele": "122", "faa": "13VA", "gnis:county_name": "Fairfax", "gnis:created": "09/01/1992", "gnis:feature_id": "1502181", "gnis:feature_type": "Airport", "lit": "yes", "name": "7th Division State Police Headquarters Heliport", "surface": "asphalt", "wikidata": "Q61725367"}}, {"type": "node", "id": 368948388, "lat": 36.8652714, "lon": -76.0343627, "tags": {"addr:state": "VA", "aeroway": "helipad", "ele": "5", "gnis:county_name": "Virginia Beach (city)", "gnis:created": "09/01/1992", "gnis:feature_id": "1501673", "gnis:feature_type": "Airport", "name": "Lynnhaven Heliport"}}, {"type": "node", "id": 368990425, "lat": 39.9870359, "lon": -77.4097075, "tags": {"addr:state": "PA", "aeroway": "helipad", "ele": "625", "gnis:county_name": "Adams", "gnis:created": "11/01/1989", "gnis:feature_id": "1206249", "gnis:feature_type": "Airport", "name": "Big Flat Heliport"}}, {"type": "node", "id": 368990945, "lat": 39.8417435, "lon": -79.9581116, "tags": {"addr:state": "PA", "aeroway": "helipad", "ele": "362", "gnis:county_name": "Greene", "gnis:created": "08/30/1990", "gnis:feature_id": "1213707", "gnis:feature_type": "Airport", "name": "Lee Norse Number Five Heliport"}}, {"type": "node", "id": 368990951, "lat": 39.8592794, "lon": -75.3196324, "tags": {"addr:state": "PA", "aeroway": "helipad", "ele": "3", "gnis:county_name": "Delaware", "gnis:created": "08/30/1990", "gnis:feature_id": "1213708", "gnis:feature_type": "Airport", "name": "Boeing-Vertol Company Center Three South Heliport"}}, {"type": "node", "id": 368990982, "lat": 39.8664653, "lon": -79.9506103, "tags": {"addr:state": "PA", "aeroway": "helipad", "ele": "335", "gnis:county_name": "Greene", "gnis:created": "08/30/1990", "gnis:feature_id": "1213709", "gnis:feature_type": "Airport", "name": "Gallatin Fuel Heliport", "wikidata": "Q61712432"}}, {"type": "node", "id": 369002683, "lat": 39.1657637, "lon": -76.6453944, "tags": {"addr:state": "MD", "aeroway": "helipad", "ele": "24", "gnis:county_name": "Anne Arundel", "gnis:created": "09/01/1992", "gnis:feature_id": "595294", "gnis:feature_type": "Airport", "name": "Maryland State Police - Barrack P Heliport", "operator": "Maryland State Police", "surface": "grass"}}, {"type": "node", "id": 369002704, "lat": 39.6417628, "lon": -77.749716, "tags": {"addr:state": "MD", "aeroway": "helipad", "ele": "194", "gnis:county_name": "Washington", "gnis:created": "09/01/1992", "gnis:feature_id": "595297", "gnis:feature_type": "Airport", "name": "Craig Company Heliport", "wikidata": "Q61673037"}}, {"type": "node", "id": 369002725, "lat": 39.53224, "lon": -76.1028851, "tags": {"addr:state": "MD", "aeroway": "helipad", "ele": "13", "gnis:county_name": "Harford", "gnis:created": "09/01/1992", "gnis:feature_id": "595300", "gnis:feature_type": "Airport", "name": "Gregory May Heliport", "wikidata": "Q61673041"}}, {"type": "node", "id": 369002737, "lat": 39.5490097, "lon": -76.5633505, "tags": {"access": "private", "addr:city": "Monkton", "addr:country": "US", "addr:housenumber": "15507", "addr:postcode": "21111", "addr:state": "MD", "addr:street": "Manor Road", "aeroway": "helipad", "designation": "MD40", "ele": "189", "gnis:county_name": "Baltimore", "gnis:created": "09/01/1992", "gnis:feature_id": "595305", "gnis:feature_type": "Airport", "name": "MRS Bozman Heliport", "wikidata": "Q61673045"}}, {"type": "node", "id": 369002748, "lat": 39.1026101, "lon": -76.4302375, "tags": {"addr:state": "MD", "aeroway": "helipad", "ele": "9", "gnis:county_name": "Anne Arundel", "gnis:created": "09/01/1992", "gnis:feature_id": "595280", "gnis:feature_type": "Airport", "name": "C W Martin Heliport"}}, {"type": "node", "id": 369002762, "lat": 39.4084355, "lon": -77.3860961, "tags": {"addr:state": "MD", "aeroway": "helipad", "ele": "97", "gnis:county_name": "Frederick", "gnis:created": "09/01/1992", "gnis:feature_id": "595289", "gnis:feature_type": "Airport", "name": "Grimes Properties Heliport"}}, {"type": "node", "id": 369002772, "lat": 39.1451093, "lon": -76.5013508, "tags": {"addr:state": "MD", "aeroway": "helipad", "ele": "10", "gnis:county_name": "Anne Arundel", "gnis:created": "09/01/1992", "gnis:feature_id": "595292", "gnis:feature_type": "Airport", "name": "Tar Cove Heliport", "wikidata": "Q61673033"}}, {"type": "node", "id": 369002843, "lat": 39.3990732, "lon": -76.588167, "tags": {"addr:state": "MD", "aeroway": "helipad", "ele": "144", "faa": "MD13", "gnis:county_name": "Baltimore", "gnis:created": "09/01/1992", "gnis:feature_id": "595672", "gnis:feature_type": "Airport", "name": "Black and Decker Parking Lot Number 2 Heliport", "wikidata": "Q61673126"}}, {"type": "node", "id": 369002850, "lat": 39.2528869, "lon": -76.0843917, "tags": {"addr:state": "MD", "aeroway": "helipad", "ele": "19", "gnis:county_name": "Kent", "gnis:created": "09/01/1992", "gnis:feature_id": "595675", "gnis:feature_type": "Airport", "name": "Nuodex Incorporated Heliport", "wikidata": "Q61673141"}}, {"type": "node", "id": 369002856, "lat": 39.0464981, "lon": -76.9835873, "tags": {"addr:state": "MD", "aeroway": "helipad", "ele": "112", "gnis:county_name": "Montgomery", "gnis:created": "09/01/1992", "gnis:feature_id": "595671", "gnis:feature_type": "Airport", "name": "Dow Jones and Company Incorporated Heliport"}}, {"type": "node", "id": 369002865, "lat": 39.3178885, "lon": -76.0638361, "tags": {"addr:state": "MD", "aeroway": "helipad", "ele": "20", "gnis:county_name": "Kent", "gnis:created": "09/01/1992", "gnis:feature_id": "595663", "gnis:feature_type": "Airport", "name": "Kent and Queen Annes Hospital Heliport"}}, {"type": "node", "id": 369002912, "lat": 39.6538793, "lon": -77.1834913, "tags": {"addr:state": "MD", "aeroway": "helipad", "ele": "145", "gnis:county_name": "Carroll", "gnis:created": "09/01/1992", "gnis:feature_id": "595353", "gnis:feature_type": "Airport", "name": "Evapco Heliport"}}, {"type": "node", "id": 369002920, "lat": 39.4112171, "lon": -76.7163618, "tags": {"addr:state": "MD", "aeroway": "helipad", "ele": "101", "faa": "MD68", "gnis:county_name": "Baltimore", "gnis:created": "09/01/1992", "gnis:feature_id": "595349", "gnis:feature_type": "Airport", "name": "Berg's Field Heliport", "wikidata": "Q61673111"}}, {"type": "node", "id": 369002996, "lat": 38.3115039, "lon": -75.1204629, "tags": {"addr:state": "MD", "aeroway": "heliport", "ele": "1", "gnis:county_name": "Worcester", "gnis:created": "09/01/1992", "gnis:feature_id": "595331", "gnis:feature_type": "Airport", "name": "Hoopers Heliport"}}, {"type": "node", "id": 369003445, "lat": 39.087053, "lon": -76.8971962, "tags": {"addr:state": "MD", "aeroway": "helipad", "ele": "100", "gnis:county_name": "Prince George's", "gnis:created": "09/01/1992", "gnis:feature_id": "598342", "gnis:feature_type": "Airport", "name": "Citizens Bank Headquarters Heliport", "wikidata": "Q61673053"}}, {"type": "node", "id": 369003483, "lat": 38.8064963, "lon": -76.7391583, "tags": {"addr:state": "MD", "aeroway": "helipad", "ele": "3", "gnis:county_name": "Prince George's", "gnis:created": "09/01/1992", "gnis:feature_id": "598360", "gnis:feature_type": "Airport", "name": "Marlboro Heliport"}}, {"type": "node", "id": 369003507, "lat": 38.9092806, "lon": -76.1196677, "tags": {"addr:state": "MD", "aeroway": "helipad", "ele": "14", "gnis:county_name": "Queen Anne's", "gnis:created": "09/01/1992", "gnis:feature_id": "598351", "gnis:feature_type": "Airport", "name": "The Aspen Institute Heliport", "wikidata": "Q61673098"}}, {"type": "node", "id": 369028745, "lat": 35.357925, "lon": -79.8894495, "tags": {"addr:city": "Troy", "addr:housenumber": "402", "addr:postcode": "27371", "addr:state": "NC", "addr:street": "East Main Street", "aeroway": "helipad", "faa": "NC62", "gnis:feature_id": "997916", "name": "Birds Nest Heliport", "ref": "NC62", "surface": "concrete", "wikidata": "Q34961603"}}, {"type": "node", "id": 369029423, "lat": 35.7829855, "lon": -78.6411427, "tags": {"addr:state": "NC", "aeroway": "helipad", "ele": "102", "gnis:county_name": "Wake", "gnis:created": "01/01/2000", "gnis:feature_type": "Airport", "name": "Administration Building Helispot Airport", "wikidata": "Q34955729"}}, {"type": "node", "id": 440970728, "lat": 39.4449105, "lon": -75.0605736, "tags": {"aeroway": "helipad"}}, {"type": "node", "id": 807917254, "lat": 38.4364886, "lon": -76.4455162, "tags": {"aeroway": "helipad"}}, {"type": "node", "id": 832083038, "lat": 38.5868009, "lon": -75.2355069, "tags": {"aeroway": "helipad"}}, {"type": "node", "id": 914054958, "lat": 39.7630878, "lon": -74.1070423, "tags": {"aeroway": "helipad"}}, {"type": "node", "id": 919250039, "lat": 39.3166746, "lon": -76.4064111, "tags": {"aeroway": "helipad"}}, {"type": "node", "id": 966473920, "lat": 39.3316202, "lon": -76.4267112, "tags": {"aeroway": "helipad", "name": "Baltimore City Police Aviation"}}, {"type": "node", "id": 971358530, "lat": 37.1378758, "lon": -76.6048481, "tags": {"aeroway": "helipad"}}, {"type": "node", "id": 971358533, "lat": 37.1364859, "lon": -76.602697, "tags": {"aeroway": "helipad", "name": "Compass Rose"}}, {"type": "node", "id": 1042133534, "lat": 39.8158989, "lon": -74.2039032, "tags": {"aeroway": "helipad", "name": "Oyster Creek Generating Station Heliport", "source": "ourairports.com", "wikidata": "Q61675660"}}, {"type": "node", "id": 1042133600, "lat": 39.9668007, "lon": -75.6496964, "tags": {"aeroway": "helipad", "name": "Black Swan Farm Heliport", "source": "ourairports.com"}}, {"type": "node", "id": 1042133615, "lat": 39.9248009, "lon": -75.6960983, "tags": {"aeroway": "helipad", "faa": "5PA7", "name": "Indian Sleep Farm Heliport", "wikidata": "Q61712806"}}, {"type": "node", "id": 1042133975, "lat": 35.9364376, "lon": -77.5500889, "tags": {"aeroway": "helipad", "lit": "no", "name": "Tarboro-Edgecombe County Heliport", "operator": "Sprint Carolina Telephone", "ref": "5NC6", "source": "ourairports.com", "surface": "concrete"}}, {"type": "node", "id": 1042133978, "lat": 35.0526853, "lon": -78.8908075, "tags": {"aeroway": "helipad", "faa": "5NC9", "lit": "no", "name": "Sprint/Carolina Telephone Heliport", "ref": "5NC9", "surface": "concrete"}}, {"type": "node", "id": 1042134195, "lat": 36.5109962, "lon": -77.8916419, "tags": {"aeroway": "helipad", "lit": "no", "name": "Bethany South Heliport", "ref": "72NC", "source": "ourairports.com", "surface": "wood"}}, {"type": "node", "id": 1042135507, "lat": 39.8853989, "lon": -79.5074997, "tags": {"aeroway": "helipad", "name": "Ohioport Heliport", "source": "ourairports.com", "wikidata": "Q61712581"}}, {"type": "node", "id": 1042135513, "lat": 39.8577995, "lon": -75.6964035, "tags": {"aeroway": "helipad", "name": "Marlboro Corporate Park Heliport", "source": "ourairports.com", "wikidata": "Q61712349"}}, {"type": "node", "id": 1042142296, "lat": 37.6441994, "lon": -76.3952026, "tags": {"aeroway": "helipad", "name": "White Stone Family Practice Heliport", "source": "ourairports.com", "wikidata": "Q61725629"}}, {"type": "node", "id": 1042142297, "lat": 37.4237688, "lon": -77.4484133, "tags": {"aeroway": "helipad", "name": "Defense Supply Center Richmond Heliport", "operator": "US Army", "ref": "VG17", "source": "ourairports.com", "surface": "asphalt", "wikidata": "Q61725540"}}, {"type": "node", "id": 1042142301, "lat": 37.2524986, "lon": -76.4722977, "tags": {"aeroway": "helipad", "name": "Dickerson Port Heliport", "source": "ourairports.com"}}, {"type": "node", "id": 1042142335, "lat": 37.611722, "lon": -77.646333, "tags": {"aeroway": "helipad", "name": "Federal Reserve Heliport", "source": "ourairports.com", "wikidata": "Q61725541"}}, {"type": "node", "id": 1042142613, "lat": 39.8246994, "lon": -76.6299973, "tags": {"aeroway": "helipad", "name": "Hagan Heliport", "source": "ourairports.com", "wikidata": "Q61712855"}}, {"type": "node", "id": 1042142619, "lat": 39.9439011, "lon": -76.7423019, "tags": {"aeroway": "helipad", "name": "York Hospital Alternate Heliport", "source": "ourairports.com"}}, {"type": "node", "id": 1042142634, "lat": 39.9878867, "lon": -75.4910356, "tags": {"aeroway": "helipad", "faa": "7PS2", "name": "Braehead Heliport", "wikidata": "Q61712853"}}, {"type": "node", "id": 1042142674, "lat": 37.273611, "lon": -75.971944, "tags": {"aeroway": "helipad", "lit": "no", "name": "Airduce Heliport", "source": "ourairports.com", "wikidata": "Q61725319"}}, {"type": "node", "id": 1042142752, "lat": 38.953096, "lon": -77.1523066, "tags": {"aeroway": "helipad", "name": "CIA Headquarters Heliport", "ref": "84VA", "source": "ourairports.com;ForeFlight", "wikidata": "Q61725439"}}, {"type": "node", "id": 1042143105, "lat": 39.0373001, "lon": -78.3692017, "tags": {"aeroway": "helipad", "name": "White Ox Heliport", "source": "ourairports.com"}}, {"type": "node", "id": 1042143187, "lat": 35.2146478, "lon": -77.1182423, "tags": {"aeroway": "helipad", "lit": "no", "name": "Streets Ferry Heliport", "operator": "International Paper", "ref": "99NC", "source": "ourairports.com", "surface": "concrete"}}, {"type": "node", "id": 1042143292, "lat": 34.3593061, "lon": -77.8609627, "tags": {"aeroway": "helipad", "lit": "yes", "name": "210 Investors Heliport", "ref": "9NR9", "source": "ourairports.com", "surface": "concrete"}}, {"type": "node", "id": 1042145567, "lat": 38.9584007, "lon": -77.0886002, "tags": {"aeroway": "helipad", "name": "Steuart Office Pad Heliport", "source": "ourairports.com"}}, {"type": "node", "id": 1042145569, "lat": 38.9369097, "lon": -77.1105625, "tags": {"aeroway": "helipad", "faa": "DC52", "lit": "yes", "name": "Sibley Memorial Hospital Heliport", "operator": "Sibley Memorial Hospital", "ref": "DC52", "source": "ourairports.com;airnav.com", "surface": "asphalt", "wikidata": "Q61671718"}}, {"type": "node", "id": 1042145641, "lat": 39.2168007, "lon": -75.5830002, "tags": {"aeroway": "helipad", "name": "Del-Mar Ford Heliport", "source": "ourairports.com"}}, {"type": "node", "id": 1042145645, "lat": 39.1114998, "lon": -75.5055008, "tags": {"aeroway": "helipad", "name": "Elliott Heliport", "ref": "DE24", "source": "ourairports.com", "surface": "grass", "wikidata": "Q61671731"}}, {"type": "node", "id": 1042145656, "lat": 39.7667007, "lon": -75.5832977, "tags": {"aeroway": "helipad", "name": "Greenville Heliport", "source": "ourairports.com"}}, {"type": "node", "id": 1042147584, "lat": 39.928299, "lon": -74.7621994, "tags": {"aeroway": "helipad", "name": "Warren Hopely Heliport", "source": "ourairports.com", "wikidata": "Q61675845"}}, {"type": "node", "id": 1042147629, "lat": 39.7285995, "lon": -74.8366013, "tags": {"aeroway": "helipad", "name": "Breezy Acres Farm Heliport", "source": "ourairports.com", "wikidata": "Q61675854"}}, {"type": "node", "id": 1042147635, "lat": 39.2412771, "lon": -74.9513163, "tags": {"aeroway": "helipad", "faa": "JY32", "lit": "yes", "name": "Bayside State Prison Heliport", "source": "ourairports.com", "surface": "concrete", "wikidata": "Q61675717"}}, {"type": "node", "id": 1042149508, "lat": 39.0500984, "lon": -76.8905029, "tags": {"aeroway": "helipad", "name": "Beltsville Shop Heliport", "source": "ourairports.com"}}, {"type": "node", "id": 1042149510, "lat": 38.5564995, "lon": -76.6927032, "tags": {"aeroway": "helipad", "name": "Chalk Point Generating Station Heliport", "source": "ourairports.com"}}, {"type": "node", "id": 1042149537, "lat": 39.1292542, "lon": -77.0241089, "tags": {"aeroway": "helipad", "faa": "MD58", "lit": "yes", "name": "Montgomery County Police Norwood Heliport", "source": "ourairports.com", "surface": "concrete", "wikidata": "Q61673084"}}, {"type": "node", "id": 1042149553, "lat": 39.7001127, "lon": -77.500552, "tags": {"aeroway": "helipad", "name": "Fort Ritchie Heliport", "source": "ourairports.com"}}, {"type": "node", "id": 1042150257, "lat": 39.3798953, "lon": -74.4267386, "tags": {"aeroway": "helipad", "name": "Golden Nugget Heliport", "source": "ourairports.com"}}, {"type": "node", "id": 1042151164, "lat": 39.8671989, "lon": -75.9336014, "tags": {"aeroway": "helipad", "name": "Mike's Heliport", "source": "ourairports.com", "wikidata": "Q61712172"}}, {"type": "node", "id": 1042153014, "lat": 37.6474991, "lon": -76.4329987, "tags": {"aeroway": "helipad", "name": "Nichols Heliport", "source": "ourairports.com", "wikidata": "Q61725627"}}, {"type": "node", "id": 1042153201, "lat": 36.5655559, "lon": -79.2067266, "tags": {"aeroway": "helipad", "name": "O'Gara Tech Training Facility Heliport", "source": "ourairports.com", "wikidata": "Q61725353"}}, {"type": "node", "id": 1042153209, "lat": 37.3648987, "lon": -79.9005966, "tags": {"aeroway": "helipad", "name": "Summit Heliport", "source": "ourairports.com", "wikidata": "Q61725558"}}, {"type": "node", "id": 1042153212, "lat": 37.0715523, "lon": -76.8744659, "tags": {"aeroway": "helipad", "name": "White Oak Farm Heliport", "source": "ourairports.com", "wikidata": "Q61725592"}}, {"type": "node", "id": 1042153292, "lat": 36.7144012, "lon": -76.8266983, "tags": {"aeroway": "helipad", "name": "Carrsville Vol Fire Dept Heliport", "source": "ourairports.com", "wikidata": "Q61725391"}}, {"type": "node", "id": 1190345141, "lat": 39.7117008, "lon": -77.9737172, "tags": {"aeroway": "helipad"}}, {"type": "node", "id": 1235215756, "lat": 39.681627, "lon": -75.6158853, "tags": {"aeroway": "helipad"}}, {"type": "node", "id": 1348834041, "lat": 39.65399, "lon": -79.9557763, "tags": {"aeroway": "helipad", "source": "Bing", "wikidata": "Q61726773"}}, {"type": "node", "id": 1352159641, "lat": 39.1426699, "lon": -78.1455402, "tags": {"aeroway": "helipad"}}, {"type": "node", "id": 1711731269, "lat": 39.9902282, "lon": -75.5780757, "tags": {"aeroway": "helipad"}}, {"type": "node", "id": 1804660141, "lat": 39.134279, "lon": -77.6503254, "tags": {"aeroway": "helipad"}}, {"type": "node", "id": 2058684154, "lat": 39.3149202, "lon": -76.7634226, "tags": {"aeroway": "helipad"}}, {"type": "node", "id": 2377448010, "lat": 39.8129332, "lon": -75.4096525, "tags": {"aeroway": "helipad"}}, {"type": "node", "id": 2467229825, "lat": 39.5304153, "lon": -75.8132645, "tags": {"aeroway": "helipad", "fixme": "does this exist"}}, {"type": "node", "id": 2574650505, "lat": 39.6314176, "lon": -74.772782, "tags": {"aeroway": "helipad"}}, {"type": "node", "id": 2904367763, "lat": 39.2326922, "lon": -76.5800612, "tags": {"aeroway": "helipad"}}, {"type": "node", "id": 3264464578, "lat": 35.6606684, "lon": -76.5817641, "tags": {"access": "forestry", "aeroway": "helipad", "surface": "grass"}}, {"type": "node", "id": 3279648261, "lat": 39.8237935, "lon": -79.9202252, "tags": {"aeroway": "helipad"}}, {"type": "node", "id": 3625911587, "lat": 39.6460571, "lon": -77.4687779, "tags": {"aeroway": "helipad"}}, {"type": "node", "id": 3768781166, "lat": 39.5160062, "lon": -76.5559558, "tags": {"aeroway": "helipad"}}, {"type": "node", "id": 3919720021, "lat": 38.7149166, "lon": -77.1826038, "tags": {"aeroway": "helipad", "name": "#2"}}, {"type": "node", "id": 3919720022, "lat": 38.7147576, "lon": -77.1824053, "tags": {"aeroway": "helipad", "name": "#1"}}, {"type": "node", "id": 3919720023, "lat": 38.7161598, "lon": -77.1847817, "tags": {"aeroway": "helipad", "name": "#3"}}, {"type": "node", "id": 3919720024, "lat": 38.7157621, "lon": -77.1842238, "tags": {"aeroway": "helipad", "name": "#4"}}, {"type": "node", "id": 3919720025, "lat": 38.7160133, "lon": -77.1849802, "tags": {"aeroway": "helipad", "name": "#5"}}, {"type": "node", "id": 3919720026, "lat": 38.7155905, "lon": -77.1844062, "tags": {"aeroway": "helipad", "name": "#6"}}, {"type": "node", "id": 3919720027, "lat": 38.71585, "lon": -77.185168, "tags": {"aeroway": "helipad", "name": "#7"}}, {"type": "node", "id": 3919720028, "lat": 38.7154273, "lon": -77.1845994, "tags": {"aeroway": "helipad", "name": "#8"}}, {"type": "node", "id": 3919720029, "lat": 38.7157035, "lon": -77.1853557, "tags": {"aeroway": "helipad", "name": "#9"}}, {"type": "node", "id": 3919720030, "lat": 38.7157663, "lon": -77.1838269, "tags": {"aeroway": "helipad", "name": "#12"}}, {"type": "node", "id": 3919720031, "lat": 38.7152892, "lon": -77.1844116, "tags": {"aeroway": "helipad", "name": "#18"}}, {"type": "node", "id": 3919720032, "lat": 38.7156031, "lon": -77.18402, "tags": {"aeroway": "helipad", "name": "#14"}}, {"type": "node", "id": 3919720033, "lat": 38.7154357, "lon": -77.1842185, "tags": {"aeroway": "helipad", "name": "#16"}}, {"type": "node", "id": 3919720034, "lat": 38.7164779, "lon": -77.1848086, "tags": {"aeroway": "helipad", "name": "#11"}}, {"type": "node", "id": 3919720035, "lat": 38.7158375, "lon": -77.185565, "tags": {"aeroway": "helipad", "name": "#19"}}, {"type": "node", "id": 3919720036, "lat": 38.7159965, "lon": -77.1853718, "tags": {"aeroway": "helipad", "name": "#17"}}, {"type": "node", "id": 3919720037, "lat": 38.7161556, "lon": -77.1851894, "tags": {"aeroway": "helipad", "name": "#15"}}, {"type": "node", "id": 3919720038, "lat": 38.716323, "lon": -77.184991, "tags": {"aeroway": "helipad", "name": "#13"}}, {"type": "node", "id": 3919720051, "lat": 38.7163314, "lon": -77.184602, "tags": {"aeroway": "helipad", "name": "#1"}}, {"type": "node", "id": 3919720052, "lat": 38.7159066, "lon": -77.1840334, "tags": {"aeroway": "helipad", "name": "#2"}}, {"type": "node", "id": 4126295744, "lat": 35.8620811, "lon": -76.7296979, "tags": {"access": "private", "aeroway": "helipad", "closest_town": "Plymouth, North Carolina", "faa": "0NC3", "length": "70 ft", "name": "Washington County Hospital Heliport", "ref": "0NC3", "source": "FAA", "source:date": "2017-01-05", "surface": "grass", "variation": "9 W 1985", "width": "70'", "wikidata": "Q61670155"}}, {"type": "node", "id": 4249635824, "lat": 36.0460726, "lon": -79.4752318, "tags": {"aeroway": "helipad"}}, {"type": "node", "id": 4365600137, "lat": 36.1029473, "lon": -76.3253533, "tags": {"aeroway": "helipad"}}, {"type": "node", "id": 4475587709, "lat": 38.7471134, "lon": -76.8772477, "tags": {"aeroway": "helipad"}}, {"type": "node", "id": 4586109851, "lat": 38.3143991, "lon": -76.5504477, "tags": {"aeroway": "helipad"}}, {"type": "node", "id": 4739128576, "lat": 39.4195548, "lon": -75.0421456, "tags": {"aeroway": "helipad"}}, {"type": "node", "id": 5166006424, "lat": 38.3607145, "lon": -76.4014095, "tags": {"aeroway": "helipad"}}, {"type": "node", "id": 5320830767, "lat": 39.3607196, "lon": -74.4215426, "tags": {"aeroway": "helipad"}}, {"type": "node", "id": 5567650790, "lat": 37.0334121, "lon": -77.9299458, "tags": {"access": "no", "aeroway": "helipad"}}, {"type": "node", "id": 5707039677, "lat": 38.4618222, "lon": -77.8478835, "tags": {"aeroway": "helipad"}}, {"type": "node", "id": 5709383849, "lat": 39.479635, "lon": -74.5392579, "tags": {"aeroway": "helipad"}}, {"type": "node", "id": 5779516307, "lat": 39.6543821, "lon": -74.7939588, "tags": {"aeroway": "helipad"}}, {"type": "node", "id": 5840488556, "lat": 38.2166285, "lon": -77.495604, "tags": {"aeroway": "helipad"}}, {"type": "node", "id": 6489560190, "lat": 36.4338149, "lon": -79.9954492, "tags": {"aeroway": "helipad", "description": "Emergency landing area for helicopters.", "source": "I saw an emergency helicopter take off from here with an injured person with my own eyes", "surface": "grass"}}, {"type": "node", "id": 6584316621, "lat": 39.8585317, "lon": -75.3195347, "tags": {"aeroway": "helipad"}}, {"type": "node", "id": 6584316622, "lat": 39.8587753, "lon": -75.3189123, "tags": {"aeroway": "helipad"}}, {"type": "node", "id": 6584316623, "lat": 39.8586594, "lon": -75.3201417, "tags": {"aeroway": "helipad"}}, {"type": "node", "id": 6875284010, "lat": 39.9483769, "lon": -75.1303301, "tags": {"aeroway": "helipad", "lit": "yes"}}, {"type": "node", "id": 6913944075, "lat": 39.98321, "lon": -76.7686865, "tags": {"aeroway": "helipad"}}, {"type": "node", "id": 6978391461, "lat": 37.1336748, "lon": -76.6087468, "tags": {"aeroway": "helipad"}}, {"type": "node", "id": 6981859077, "lat": 37.8724113, "lon": -75.4417682, "tags": {"aeroway": "helipad"}}, {"type": "node", "id": 7058577293, "lat": 39.6229693, "lon": -77.6861782, "tags": {"aeroway": "helipad"}}, {"type": "node", "id": 7078465918, "lat": 33.9280953, "lon": -78.0203627, "tags": {"aeroway": "helipad", "lit": "yes", "name": "Dosher Heliport", "ref": "11NR", "surface": "asphalt", "wikidata": "Q61670209"}}, {"type": "node", "id": 7508563809, "lat": 39.44931, "lon": -74.5638772, "tags": {"aeroway": "helipad", "name": "USCG"}}, {"type": "node", "id": 7508563812, "lat": 39.4488509, "lon": -74.5627507, "tags": {"aeroway": "helipad", "name": "USCG"}}, {"type": "node", "id": 7508563813, "lat": 39.4490011, "lon": -74.5631262, "tags": {"aeroway": "helipad", "name": "USCG"}}, {"type": "node", "id": 7508563816, "lat": 39.4491548, "lon": -74.563486, "tags": {"aeroway": "helipad", "name": "USCG"}}, {"type": "node", "id": 7699096495, "lat": 38.846249, "lon": -77.0462201, "tags": {"aeroway": "helipad", "description": "The Coast Guard National Capitol Region Air Defense Facility intercepts low and slow flying aircraft encroaching a 30-mile radius of the Capital. Intercepted aircraft are then escorted out of the area.", "name": "USCG", "source_ref": "https://coastguard.dodlive.mil/2015/04/protecting-our-skies-coast-guard-unit-recognized-with-prestigious-award/"}}, {"type": "node", "id": 7699096496, "lat": 38.8460657, "lon": -77.0459579, "tags": {"aeroway": "helipad", "description": "The Coast Guard National Capitol Region Air Defense Facility intercepts low and slow flying aircraft encroaching a 30-mile radius of the Capital. Intercepted aircraft are then escorted out of the area.", "name": "USCG", "source_ref": "https://coastguard.dodlive.mil/2015/04/protecting-our-skies-coast-guard-unit-recognized-with-prestigious-award/"}}, {"type": "node", "id": 7699096497, "lat": 38.8461973, "lon": -77.0457219, "tags": {"aeroway": "helipad", "description": "The Coast Guard National Capitol Region Air Defense Facility intercepts low and slow flying aircraft encroaching a 30-mile radius of the Capital. Intercepted aircraft are then escorted out of the area.", "name": "USCG", "source_ref": "https://coastguard.dodlive.mil/2015/04/protecting-our-skies-coast-guard-unit-recognized-with-prestigious-award/"}}, {"type": "node", "id": 7836394705, "lat": 39.1835951, "lon": -75.5247741, "tags": {"aeroway": "helipad", "lit": "yes", "name": "Dover Downs Helistop", "ref": "DE03", "surface": "grass", "wikidata": "Q35252918"}}, {"type": "node", "id": 7989155366, "lat": 36.7903504, "lon": -75.9661707, "tags": {"aeroway": "helipad", "name": "LZ Alfa Heliport", "operator": "US Navy", "ref": "VA38", "surface": "asphalt", "wikidata": "Q61725603"}}, {"type": "node", "id": 7989155369, "lat": 37.2416883, "lon": -77.3425, "tags": {"aeroway": "helipad", "lit": "no", "name": "Fort Gregg-Adams Heliport #1 (Headquarters)", "operator": "US Army", "ref": "VA35", "surface": "grass", "wikidata": "Q61725389"}}, {"type": "node", "id": 8038496835, "lat": 35.3168326, "lon": -76.7015635, "tags": {"aeroway": "helipad", "lit": "no", "name": "Paradox Heliport", "ref": "NC47", "surface": "concrete"}}, {"type": "node", "id": 8038496850, "lat": 35.5502424, "lon": -76.6238119, "tags": {"aeroway": "helipad", "lit": "yes", "ref": "H1", "surface": "concrete"}}, {"type": "node", "id": 8038574497, "lat": 34.3263249, "lon": -77.8965481, "tags": {"aeroway": "helipad", "lit": "yes", "name": "New Hanover County Sheriff's Office Heliport", "operator": "New Hanover County Sheriff", "ref": "25NR", "surface": "concrete"}}, {"type": "node", "id": 8038574713, "lat": 35.5823699, "lon": -78.7196651, "tags": {"aeroway": "helipad", "name": "Dupree Willow Heliport", "ref": "84NR", "surface": "grass"}}, {"type": "node", "id": 8038574768, "lat": 35.5922081, "lon": -77.3773612, "tags": {"aeroway": "helipad", "lit": "no", "name": "McGee 02 Heliport", "ref": "02NR", "surface": "grass"}}, {"type": "node", "id": 8038574776, "lat": 36.1855514, "lon": -76.280814, "tags": {"addr:city": "Hertford", "addr:housenumber": "173", "addr:postcode": "27944", "addr:state": "NC", "addr:street": "Atkins Way", "aeroway": "helipad", "lit": "no", "name": "Isbell Heliport", "ref": "21NC", "surface": "concrete"}}, {"type": "node", "id": 8038574788, "lat": 34.7756997, "lon": -77.3922305, "tags": {"aeroway": "helipad", "lit": "no", "name": "McGee 04 Heliport", "ref": "04NR", "surface": "concrete"}}, {"type": "node", "id": 8038574791, "lat": 36.0720116, "lon": -75.6937161, "tags": {"aeroway": "helipad", "fixme": "Exact location? FAA estimate", "lit": "no", "name": "Kitty Hawk One Heliport", "ref": "NR01", "surface": "wood"}}, {"type": "node", "id": 8038574807, "lat": 36.5289439, "lon": -79.3016718, "tags": {"aeroway": "helipad", "name": "Futuristics Heliport", "ref": "4NC1", "surface": "grass"}}, {"type": "node", "id": 8038574838, "lat": 36.021593, "lon": -78.5167897, "tags": {"aeroway": "helipad", "lit": "yes", "name": "Sprint/Midatlantic Telecom Heliport", "ref": "11NC", "surface": "concrete"}}, {"type": "node", "id": 8038574872, "lat": 35.8128314, "lon": -78.610352, "tags": {"aeroway": "helipad", "lit": "no", "name": "Raleigh Heliport", "ref": "96NC", "surface": "asphalt"}}, {"type": "node", "id": 8038575045, "lat": 36.438015, "lon": -76.6082436, "tags": {"aeroway": "helipad", "name": "Sunbury Fire Department Heliport", "ref": "40NC", "surface": "grass"}}, {"type": "node", "id": 8038575093, "lat": 34.1962846, "lon": -77.9199035, "tags": {"aeroway": "helipad", "lit": "no", "name": "McGee 01 Heliport", "ref": "01NR", "surface": "grass"}}, {"type": "node", "id": 8183891184, "lat": 33.6689065, "lon": -78.9715169, "tags": {"aeroway": "helipad"}}, {"type": "node", "id": 8251072695, "lat": 39.9662142, "lon": -75.4546191, "tags": {"aeroway": "helipad", "faa": "36PN", "lit": "no", "name": "US Army Reserve Center Heliport", "surface": "grass", "wikidata": "Q61712223"}}, {"type": "node", "id": 8256402969, "lat": 39.9965, "lon": -75.2181667, "tags": {"aeroway": "helipad", "faa": "9PA6", "lit": "no", "name": "State Police Area Six Heliport", "surface": "grass", "wikidata": "Q61712629"}}, {"type": "node", "id": 8256762112, "lat": 38.8687233, "lon": -77.0081785, "tags": {"aeroway": "helipad", "ref": "H1"}}, {"type": "node", "id": 8484128699, "lat": 39.211978, "lon": -77.8148934, "tags": {"aeroway": "helipad"}}, {"type": "node", "id": 8754734981, "lat": 38.8730982, "lon": -77.0773633, "tags": {"aeroway": "helipad", "name": "Hatfield Landing Zone"}}, {"type": "node", "id": 8891368615, "lat": 37.080761, "lon": -77.9558677, "tags": {"aeroway": "helipad", "surface": "asphalt"}}, {"type": "node", "id": 9379588668, "lat": 35.8546686, "lon": -75.8618193, "tags": {"aeroway": "helipad"}}, {"type": "node", "id": 9496525167, "lat": 39.7843067, "lon": -77.2567653, "tags": {"aeroway": "helipad"}}, {"type": "node", "id": 9496525168, "lat": 39.7838665, "lon": -77.2570167, "tags": {"aeroway": "helipad"}}, {"type": "node", "id": 9496525169, "lat": 39.7840851, "lon": -77.2568928, "tags": {"aeroway": "helipad"}}, {"type": "node", "id": 9496525170, "lat": 39.7841917, "lon": -77.25683, "tags": {"aeroway": "helipad"}}, {"type": "node", "id": 9496525171, "lat": 39.7839687, "lon": -77.2569575, "tags": {"aeroway": "helipad"}}, {"type": "node", "id": 9496525172, "lat": 39.7846021, "lon": -77.256538, "tags": {"aeroway": "helipad"}}, {"type": "node", "id": 9496525173, "lat": 39.7843763, "lon": -77.2566711, "tags": {"aeroway": "helipad"}}, {"type": "node", "id": 9496525174, "lat": 39.7845041, "lon": -77.2565972, "tags": {"aeroway": "helipad"}}, {"type": "node", "id": 9673239305, "lat": 38.9995657, "lon": -77.5976647, "tags": {"aeroway": "helipad"}}, {"type": "node", "id": 9936310112, "lat": 39.6141593, "lon": -76.4895161, "tags": {"aeroway": "helipad"}}, {"type": "node", "id": 9960709251, "lat": 32.7917071, "lon": -79.9058979, "tags": {"aeroway": "helipad", "operator": "Fly In Helicopters", "website": "http://www.flyinhelicopters.com/"}}, {"type": "node", "id": 10111243688, "lat": 38.9193349, "lon": -78.1545646, "tags": {"aeroway": "helipad"}}, {"type": "node", "id": 10295070765, "lat": 36.0450099, "lon": -79.474018, "tags": {"aeroway": "helipad"}}, {"type": "node", "id": 10295070770, "lat": 36.0458915, "lon": -79.4752558, "tags": {"aeroway": "helipad"}}, {"type": "node", "id": 10782821155, "lat": 39.0766802, "lon": -79.1275209, "tags": {"aeroway": "helipad"}}, {"type": "node", "id": 10795784670, "lat": 39.9009505, "lon": -79.744556, "tags": {"aeroway": "helipad", "lit": "no", "name": "Uniontown Hospital Helicopter Landing Zone", "operator": "Uniontown Hospital", "surface": "asphalt"}}, {"type": "node", "id": 10833016153, "lat": 39.8237935, "lon": -79.9202252, "tags": {"aeroway": "helipad"}}, {"type": "node", "id": 10833016168, "lat": 39.9616152, "lon": -79.0391363, "tags": {"aeroway": "helipad"}}, {"type": "node", "id": 10833016446, "lat": 39.65399, "lon": -79.9557763, "tags": {"aeroway": "helipad", "source": "Bing", "wikidata": "Q61726773"}}, {"type": "node", "id": 10833016447, "lat": 39.8853989, "lon": -79.5074997, "tags": {"aeroway": "helipad", "name": "Ohioport Heliport", "source": "ourairports.com", "wikidata": "Q61712581"}}, {"type": "node", "id": 10833016462, "lat": 39.8664653, "lon": -79.9506103, "tags": {"addr:state": "PA", "aeroway": "helipad", "ele": "335", "gnis:county_name": "Greene", "gnis:created": "08/30/1990", "gnis:feature_id": "1213709", "gnis:feature_type": "Airport", "name": "Gallatin Fuel Heliport", "wikidata": "Q61712432"}}, {"type": "node", "id": 10833016463, "lat": 39.8417435, "lon": -79.9581116, "tags": {"addr:state": "PA", "aeroway": "helipad", "ele": "362", "gnis:county_name": "Greene", "gnis:created": "08/30/1990", "gnis:feature_id": "1213707", "gnis:feature_type": "Airport", "name": "Lee Norse Number Five Heliport"}}, {"type": "node", "id": 10833016468, "lat": 39.652938, "lon": -79.9576409, "tags": {"addr:state": "WV", "aeroway": "helipad", "ele": "336", "gnis:county_name": "Monongalia", "gnis:created": "09/01/1992", "gnis:feature_id": "1558821", "gnis:feature_type": "Airport", "name": "University Hospital Heliport", "source": "Bing", "wikidata": "Q61726772"}}, {"type": "node", "id": 10934075762, "lat": 36.9423072, "lon": -79.0461503, "tags": {"aeroway": "helipad", "lit": "yes", "surface": "concrete"}}, {"type": "node", "id": 10945167417, "lat": 34.5844508, "lon": -77.2751111, "tags": {"aeroway": "helipad", "name": "TLZ Falcon"}}, {"type": "way", "id": 39354610, "center": {"lat": 38.3108687, "lon": -77.485088}, "nodes": [471533031, 471533033, 471533035, 471533036, 471533031], "tags": {"aeroway": "helipad"}}, {"type": "way", "id": 45830773, "center": {"lat": 38.7660459, "lon": -77.4879604}, "nodes": [583331765, 583331766, 583331767, 3779874913, 3779874909, 583331765], "tags": {"aeroway": "helipad", "faa": "27VA", "name": "Novant Health UVA Prince William Medical Center Heliport", "surface": "concrete", "wikidata": "Q61725463"}}, {"type": "way", "id": 47004010, "center": {"lat": 38.9996233, "lon": -77.0956631}, "nodes": [599697840, 599697843, 599697844, 599697845, 599697847, 599697840], "tags": {"aeroway": "helipad", "lit": "no", "name": "Walter Reed National Medical Center Heliport", "operator": "US Navy", "ref": "60MD", "surface": "concrete", "wikidata": "Q61672973"}}, {"type": "way", "id": 52136451, "center": {"lat": 39.3265799, "lon": -76.4202901}, "nodes": [664328200, 919250038, 919250221, 664328202, 919250222, 664328203, 919250223, 664328204, 919250224, 664328205, 919250225, 664328206, 919250226, 664328207, 664328208, 919250227, 664328209, 919250228, 664328210, 919250229, 664328200], "tags": {"aeroway": "helipad"}}, {"type": "way", "id": 52291775, "center": {"lat": 38.868612, "lon": -77.0084112}, "nodes": [665441651, 665441652, 665441650, 665441637, 665441636, 665441642, 665441640, 665441641, 665441638, 665441639, 665441653, 665441603, 665441607, 665441648, 665441647, 665441649, 665441644, 665441643, 665441645, 665441646, 665441651], "tags": {"addr:city": "Washington", "addr:housenumber": "1724", "addr:postcode": "20003", "addr:state": "DC", "addr:street": "South Capitol Street", "aeroway": "heliport", "dc-gis:pubdate": "2009-06-12", "dcgis:capturedate": "2008/05/30", "dcgis:featurecode": "1070", "dcgis:gis_id": "322257", "faa": "09W", "name": "South Capitol Street Heliport", "operator": "South Capitol Street Heliport", "operator:type": "private", "phone": "+1-202-484-8616", "wikidata": "Q61671719"}}, {"type": "way", "id": 79658276, "center": {"lat": 38.9628242, "lon": -77.3639577}, "nodes": [929555466, 929555468, 929555470, 929555473, 929555466], "tags": {"aeroway": "helipad", "faa": "43VA", "name": "Reston Hospital Center Heliport", "rooftop": "yes", "surface": "metal", "wikidata": "Q61725535"}}, {"type": "way", "id": 82288058, "center": {"lat": 39.4765515, "lon": -76.6547604}, "nodes": [958293252, 958293437, 958293762, 958294612, 958293252], "tags": {"aeroway": "helipad"}}, {"type": "way", "id": 112599515, "center": {"lat": 39.1864851, "lon": -76.6606063}, "nodes": [1279448801, 1279447817, 960746170, 1279447210, 1279448801], "tags": {"aeroway": "helipad"}}, {"type": "way", "id": 113963170, "center": {"lat": 39.212508, "lon": -76.6735939}, "nodes": [369002659, 1291559042, 1291559947, 369002659], "tags": {"addr:state": "MD", "aeroway": "helipad", "ele": "53", "gnis:county_name": "Anne Arundel", "gnis:created": "09/01/1992", "gnis:feature_id": "595314", "gnis:feature_type": "Airport", "name": "Maritime Institute Heliport", "wikidata": "Q61673062"}}, {"type": "way", "id": 115346784, "center": {"lat": 39.0864335, "lon": -76.7623445}, "nodes": [1303611983, 1303610219, 1303612139, 1303611528, 1303611983], "tags": {"aeroway": "helipad"}}, {"type": "way", "id": 123466882, "center": {"lat": 33.6642749, "lon": -78.9217283}, "nodes": [1376835702, 1376835709, 1376835705, 1376835704, 1376835702], "tags": {"aeroway": "helipad"}}, {"type": "way", "id": 128227293, "center": {"lat": 35.105231, "lon": -75.9620211}, "nodes": [1417513189, 1417513140, 1417513177, 1417513077, 1417513189], "tags": {"aeroway": "helipad", "length": "30", "ref": "H1", "surface": "concrete", "width": "30"}}, {"type": "way", "id": 129394922, "center": {"lat": 39.4163679, "lon": -76.6797981}, "nodes": [1427673556, 9737594016, 1427673560, 1427673561, 1427673576, 1427673582, 1427673579, 1042133476, 1427673573, 1427673558, 8194604697, 1427673553, 1427673544, 1427673530, 1427673526, 1427673523, 1427673525, 1427673529, 1427673532, 1427673548, 1427673551, 1427673556], "tags": {"access": "private", "aeroway": "helipad", "ele": "95", "faa": "5MD1", "name": "Brooklandville Heliport", "source": "ourairports.com", "surface": "concrete", "wikidata": "Q61672977"}}, {"type": "way", "id": 132056517, "center": {"lat": 39.9870534, "lon": -75.4159214}, "nodes": [1453308705, 1453308768, 1453308747, 1453308735, 1453308764, 1453308723, 1453308750, 1042140752, 1453308743, 1453308715, 1453308724, 1453308719, 3095020727, 1453308716, 1453308758, 1453308706, 1453308712, 1453308759, 1453308705], "tags": {"aeroway": "helipad", "name": "SAP America Heliport", "source": "ourairports.com", "wikidata": "Q61712569"}}, {"type": "way", "id": 135427543, "center": {"lat": 39.5601793, "lon": -78.8404862}, "nodes": [1487458000, 1487457941, 1487458031, 1487458097, 1487458000], "tags": {"aeroway": "helipad", "source": "USGS Ortho"}}, {"type": "way", "id": 147078937, "center": {"lat": 39.2148174, "lon": -76.8869182}, "nodes": [369002453, 1602680290, 1602680228, 1602680647, 369002453], "tags": {"addr:state": "MD", "aeroway": "helipad", "gnis:county_name": "Howard", "gnis:created": "09/01/1992", "gnis:feature_id": "595261", "gnis:feature_type": "Airport", "name": "Howard County General Hospital Heliport", "wikidata": "Q61673002"}}, {"type": "way", "id": 156083374, "center": {"lat": 38.2825199, "lon": -76.4174567}, "nodes": [1683846779, 1683846748, 1683846775, 1683846802, 1683846779], "tags": {"aeroway": "helipad", "source": "USGS Ortho"}}, {"type": "way", "id": 159328459, "center": {"lat": 36.8855863, "lon": -76.4230568}, "nodes": [1714382700, 1714382962, 1714382987, 1714382920, 1714382700], "tags": {"aeroway": "helipad"}}, {"type": "way", "id": 161215837, "center": {"lat": 34.2962293, "lon": -79.907269}, "nodes": [1732026486, 1732026469, 1732026491, 1732026490, 1732026486], "tags": {"aeroway": "helipad"}}, {"type": "way", "id": 161974828, "center": {"lat": 34.197685, "lon": -79.7602798}, "nodes": [1739262004, 1739262102, 1739261911, 1739261956, 1739262004], "tags": {"aeroway": "helipad", "name": "Hospital Helipad"}}, {"type": "way", "id": 182737901, "center": {"lat": 39.4224818, "lon": -77.4149393}, "nodes": [1930969147, 1930969161, 1930969150, 1930969142, 1930969147], "tags": {"aeroway": "helipad", "faa": "7MD3", "name": "Frederick Memorial Hospital Heliport", "source": "ourairports.com", "wikidata": "Q61673028"}}, {"type": "way", "id": 183242128, "center": {"lat": 39.2913561, "lon": -76.5462634}, "nodes": [1493728532, 1936210277, 1936210280, 1936210258, 1493728532], "tags": {"access": "private", "aeroway": "helipad", "ele": "40", "emergency": "yes", "faa": "06MD", "lit": "yes", "name": "Johns Hopkins Bayview Medical Center", "operator": "Johns Hopkins Bayview Medical Center", "ref": "H1", "surface": "concrete", "wikidata": "Q61672959"}}, {"type": "way", "id": 184521373, "center": {"lat": 39.2705601, "lon": -76.6738303}, "nodes": [1950223372, 1950223410, 1950223406, 1950223446, 1950223330, 1950223372], "tags": {"aeroway": "helipad", "name": "Saint Agnes Hospital"}}, {"type": "way", "id": 191081790, "center": {"lat": 39.7345217, "lon": -77.4303422}, "nodes": [2016680812, 2016680748, 2016680849, 2016680715, 2016680812], "tags": {"access": "private", "aeroway": "helipad", "name": "Raven Rock Mountain Complex"}}, {"type": "way", "id": 195817081, "center": {"lat": 37.301885, "lon": -78.4028859}, "nodes": [2002170029, 2062339814, 2062339822, 2062339821, 2002170029], "tags": {"aeroway": "helipad", "faa": "VA77", "name": "Southside Community Hospital Heliport", "surface": "concrete", "wikidata": "Q61725376"}}, {"type": "way", "id": 197832743, "center": {"lat": 32.8222343, "lon": -79.8504047}, "nodes": [2080264849, 2080264856, 2080264860, 2080264850, 2080264845, 2080264854, 2080264853, 2080264848, 2080264859, 2080264847, 2080264846, 2080264861, 2080264863, 2080264858, 2080264851, 2080264857, 2080264855, 2080264844, 2043210182, 2080264849], "tags": {"aeroway": "helipad", "faa": "20SC", "lit": "no", "name": "East Cooper Medical Center Heliport", "surface": "concrete", "wikidata": "Q61724628"}}, {"type": "way", "id": 199291194, "center": {"lat": 39.2495289, "lon": -76.6123683}, "nodes": [2093033518, 2093033503, 2093033512, 2093033520, 2093033518], "tags": {"aeroway": "helipad"}}, {"type": "way", "id": 200334637, "center": {"lat": 35.7392676, "lon": -78.7828}, "nodes": [2103238471, 2103238460, 2103238467, 2103238475, 2103238471], "tags": {"aeroway": "helipad", "faa": "04NC", "lit": "no", "name": "Wakemed Cary Hospital Heliport", "ref": "04NC", "surface": "asphalt"}}, {"type": "way", "id": 202828034, "center": {"lat": 39.4295382, "lon": -76.5075609}, "nodes": [2127646136, 2127646129, 2127646128, 2127646133, 2127646136], "tags": {"aeroway": "helipad"}}, {"type": "way", "id": 204998201, "center": {"lat": 36.7655119, "lon": -75.9528156}, "nodes": [2149745328, 2149745331, 2149745335, 2149745333, 2149745328], "tags": {"aeroway": "helipad"}}, {"type": "way", "id": 209096499, "center": {"lat": 39.3519654, "lon": -76.6618896}, "nodes": [2193232804, 2193232776, 2193232779, 1042133477, 2193232804], "tags": {"aeroway": "helipad", "faa": "8MD3", "name": "Sinai Hospital Heliport", "rooftop": "yes", "wikidata": "Q61672964"}}, {"type": "way", "id": 209294788, "center": {"lat": 39.5184468, "lon": -76.3459892}, "nodes": [2195192408, 2195192406, 2195192405, 5976923478, 5970740468, 2195192407, 2195192408], "tags": {"access": "private", "aeroway": "helipad", "ele": "92", "faa": "03MD", "lit": "yes", "name": "Upper Chesapeake Medical Center Helipad", "surface": "concrete", "wikidata": "Q61672968"}}, {"type": "way", "id": 209698998, "center": {"lat": 39.3884264, "lon": -76.6108076}, "nodes": [2198976460, 2198976459, 2198976461, 2198976454, 2198976460], "tags": {"aeroway": "helipad", "ele": "157", "faa": "08MD", "name": "Saint Joseph Hospital Heliport", "wikidata": "Q61673129"}}, {"type": "way", "id": 224109302, "center": {"lat": 39.7386178, "lon": -75.0659494}, "nodes": [2329407306, 2329407307, 2329407308, 2329407309, 2329407306], "tags": {"aeroway": "helipad"}}, {"type": "way", "id": 224194184, "center": {"lat": 38.747993, "lon": -76.8768462}, "nodes": [2330180782, 2330180783, 2330180784, 2330180785, 2330180782], "tags": {"aeroway": "helipad"}}, {"type": "way", "id": 224256794, "center": {"lat": 39.8277742, "lon": -75.0062552}, "nodes": [2330754600, 2330754601, 2330754602, 2330754593, 2330754594, 2330754595, 2330754596, 2330754597, 2330754598, 2330754599, 2330754592, 2330754603, 2330754600], "tags": {"aeroway": "helipad"}}, {"type": "way", "id": 225095884, "center": {"lat": 38.9816922, "lon": -76.9261661}, "nodes": [2339199578, 2339199582, 2339199581, 2136398404, 2136398410, 2136398446, 2136398411, 2136398438, 2136398407, 2136398452, 2146506131, 2339199576, 2339199577, 2339199583, 2339199579, 2339199580, 2339199578], "tags": {"aeroway": "helipad"}}, {"type": "way", "id": 226940839, "center": {"lat": 37.0151572, "lon": -76.3016141}, "nodes": [2356802234, 2356802235, 2356802236, 2356802237, 2356802234], "tags": {"aeroway": "helipad", "faa": "VG35", "lit": "no", "name": "Walker Army Heliport", "source": "ourairports.com", "surface": "concrete", "wikidata": "Q61725390"}}, {"type": "way", "id": 228772174, "center": {"lat": 38.7402939, "lon": -77.0762443}, "nodes": [2374480127, 368945321, 2374480129, 2374480126, 2374480127], "tags": {"aeroway": "helipad", "faa": "VA82", "gnis:feature_id": "1498575", "name": "Mount Vernon Hospital Heliport", "surface": "concrete", "wikidata": "Q61725254"}}, {"type": "way", "id": 228995803, "center": {"lat": 35.7174112, "lon": -77.9443408}, "nodes": [2376377818, 2376377819, 2376377820, 2376377821, 2376377818], "tags": {"aeroway": "helipad", "lit": "no", "name": "Wilson Medical Center Heliport", "ref": "NR17", "surface": "concrete"}}, {"type": "way", "id": 233811602, "center": {"lat": 39.2957664, "lon": -77.8578262}, "nodes": [2421405537, 2421405538, 2421405539, 2421405540, 2421405537], "tags": {"aeroway": "helipad"}}, {"type": "way", "id": 234505944, "center": {"lat": 38.9857307, "lon": -77.0016244}, "nodes": [2427490440, 1042133970, 2427490442, 2427490443, 2427490440], "tags": {"aeroway": "helipad", "faa": "6MD9", "name": "Washington Adventist Hospital Heliport", "wikidata": "Q61673118"}}, {"type": "way", "id": 235773734, "center": {"lat": 39.0588659, "lon": -76.9573424}, "nodes": [2438412570, 2438412572, 2438412573, 2438412575, 2438412570], "tags": {"aeroway": "helipad"}}, {"type": "way", "id": 235987309, "center": {"lat": 39.0343897, "lon": -76.8367433}, "nodes": [2440621317, 2440621318, 2440621319, 2440621320, 2440621317], "tags": {"aeroway": "helipad"}}, {"type": "way", "id": 236026061, "center": {"lat": 37.5147442, "lon": -77.5273878}, "nodes": [2441020216, 2441020214, 2441020218, 2441020219, 2441020216], "tags": {"aeroway": "helipad", "faa": "6VA3", "gnis:feature_id": "1498797", "name": "Chippenham Hospital Heliport", "surface": "asphalt", "wikidata": "Q61725538"}}, {"type": "way", "id": 238271861, "center": {"lat": 38.8577176, "lon": -77.229944}, "nodes": [2461182598, 2461182599, 2461182600, 2461182601, 2461182598], "tags": {"aeroway": "helipad", "rooftop": "yes", "surface": "concrete"}}, {"type": "way", "id": 238393559, "center": {"lat": 39.2177085, "lon": -76.0640159}, "nodes": [8888276612, 2462389568, 2462389566, 2462389564, 2462389547, 2462389555, 2462389557, 2462389565, 2462389561, 2462389553, 2462389571, 2462389540, 2462389552, 2462389558, 2462389562, 2462389559, 2462389567, 2462389570, 2462389556, 8888276612], "tags": {"aeroway": "helipad"}}, {"type": "way", "id": 238522624, "center": {"lat": 38.7702538, "lon": -76.0769722}, "nodes": [369002813, 2463479710, 2463479709, 2463479691, 369002813], "tags": {"aeroway": "helipad", "faa": "MD29", "gnis:feature_id": "595274", "name": "Memorial Hospital Heliport", "rooftop": "yes", "wikidata": "Q61673014"}}, {"type": "way", "id": 238522699, "center": {"lat": 38.5725955, "lon": -76.0668907}, "nodes": [369002447, 2463480729, 2463480724, 2463480721, 369002447], "tags": {"aeroway": "helipad", "faa": "MD33", "gnis:feature_id": "595247", "name": "Dorchester General Hospital Heliport", "wikidata": "Q61672979"}}, {"type": "way", "id": 238522905, "center": {"lat": 38.528514, "lon": -76.9709703}, "nodes": [1042133969, 2463482981, 2463482984, 2463482985, 1042133969], "tags": {"aeroway": "helipad", "name": "University of Maryland Charles Regional Medical Center Heliport", "source": "ourairports.com"}}, {"type": "way", "id": 241988365, "center": {"lat": 38.7278323, "lon": -76.9921616}, "nodes": [2495608819, 1042149547, 2495608821, 2495608823, 2495608819], "tags": {"aeroway": "helipad", "faa": "MD72", "name": "Fort Washington Medical Center Heliport", "surface": "concrete", "wikidata": "Q61673026"}}, {"type": "way", "id": 251015300, "center": {"lat": 34.1855262, "lon": -79.3245278}, "nodes": [2573163631, 2573163618, 2573163526, 2573163595, 2573163631], "tags": {"aeroway": "helipad", "source": "Bing"}}, {"type": "way", "id": 252988807, "center": {"lat": 39.781302, "lon": -74.9221098}, "nodes": [2589847326, 2589847308, 2589847311, 2589847329, 2589847326], "tags": {"aeroway": "helipad", "faa": "5NJ9", "name": "West Jersey Hospital Heliport", "surface": "asphalt"}}, {"type": "way", "id": 252997408, "center": {"lat": 37.5613692, "lon": -77.4623824}, "nodes": [2589926535, 2589926536, 2589926537, 2589926538, 2589926535], "tags": {"aeroway": "helipad"}}, {"type": "way", "id": 258512857, "center": {"lat": 38.7129448, "lon": -77.8097231}, "nodes": [2638571427, 2638571430, 2638571376, 2638571378, 368947766, 2638571380, 2638571382, 2638571385, 2638571388, 2638571391, 2638571423, 2638571425, 2638571395, 2638571405, 2638571408, 2638571411, 2638571414, 2638571417, 2638571419, 2638571421, 2638571427], "tags": {"aeroway": "helipad", "faa": "8VA3", "gnis:feature_id": "1498840", "name": "Fauquier Hospital Emergency Transport Heliport", "surface": "asphalt", "wikidata": "Q61725616"}}, {"type": "way", "id": 258717618, "center": {"lat": 39.6469046, "lon": -78.732237}, "nodes": [2640517989, 2640517991, 1042149542, 2640517995, 2640517989], "tags": {"access": "private", "aeroway": "helipad", "ele": "675 ft", "faa": "MD65", "length": "48 ft", "name": "Western Maryland Health System Heliport", "operator": "Western Maryland Health System Inc", "surface": "concrete", "width": "48 ft", "wikidata": "Q61673005"}}, {"type": "way", "id": 261475475, "center": {"lat": 38.4144502, "lon": -77.4072829}, "nodes": [2670905679, 2670905681, 2670905683, 2670905639, 2670905641, 2670905643, 2670905645, 2670905647, 2670905649, 2670905673, 2670905675, 2670905677, 2670905651, 2670905653, 2670905655, 2670905658, 2670905660, 2670905662, 2670905664, 2670905679], "tags": {"aeroway": "helipad", "faa": "41VA", "name": "Stafford Hospital Heliport", "surface": "concrete", "wikidata": "Q61725585"}}, {"type": "way", "id": 261878149, "center": {"lat": 35.1444733, "lon": -79.0005274}, "nodes": [2674914326, 2674914327, 2674914325, 2674914324, 2674914326], "tags": {"aeroway": "helipad"}}, {"type": "way", "id": 264089681, "center": {"lat": 38.4053184, "lon": -78.8540526}, "nodes": [2697638884, 2697638900, 2697638892, 2697638875, 2697638884], "tags": {"aeroway": "helipad"}}, {"type": "way", "id": 264477071, "center": {"lat": 38.0955733, "lon": -78.9867164}, "nodes": [3418921298, 3418921299, 3418921300, 3418921301, 3418921302, 3418921303, 3418921304, 2701559970, 2701559978, 2701559983, 2701559985, 3418921295, 3418921296, 3418921297, 2701559984, 2701559980, 2701559967, 2701559960, 2701559961, 3418921298], "tags": {"aeroway": "helipad"}}, {"type": "way", "id": 272966165, "center": {"lat": 34.8971435, "lon": -76.8712329}, "nodes": [2778535282, 2778522884, 2778535285, 2778535291, 2778535287, 2778535289, 2778535282], "tags": {"aeroway": "helipad", "name": "Southeast VSTOL Pad 3"}}, {"type": "way", "id": 272966173, "center": {"lat": 34.904816, "lon": -76.8750793}, "nodes": [2778535485, 2778535487, 2778535489, 2778535491, 2778535483, 2778535485], "tags": {"aeroway": "helipad", "name": "Northeast VSTOL Pad 2"}}, {"type": "way", "id": 276437981, "center": {"lat": 34.0299488, "lon": -78.2605741}, "nodes": [2810335865, 2810335866, 2810335867, 2810335868, 8038575046, 2810335865], "tags": {"aeroway": "helipad", "lit": "no", "name": "Brunswick Community Hospital Helipad", "ref": "12NR", "surface": "concrete", "wikidata": "Q61670222"}}, {"type": "way", "id": 289322442, "center": {"lat": 38.560837, "lon": -76.5959577}, "nodes": [2928727538, 2928727539, 2928727540, 2928727522, 2928727523, 2928727524, 2928727525, 2928727526, 2928727527, 2928727534, 2928727535, 2928727536, 2928727537, 2928727528, 2928727529, 2928727530, 2928727531, 2928727532, 2928727533, 2928727538], "tags": {"aeroway": "helipad", "faa": "0MD9", "gnis:feature_id": "595335", "name": "Calvert Memorial Hospital Heliport", "ref": "0MD9", "surface": "concrete", "wikidata": "Q61673092"}}, {"type": "way", "id": 292593510, "center": {"lat": 32.7737559, "lon": -79.9456018}, "nodes": [2961282115, 2961282116, 2961282117, 2961282118, 2961282115], "tags": {"aeroway": "helipad", "name": "U.S. Coast Guard Sector Charleston"}}, {"type": "way", "id": 293728503, "center": {"lat": 35.7748227, "lon": -79.0412012}, "nodes": [2973184076, 2973184077, 2973184078, 2973184079, 2973184076], "tags": {"aeroway": "helipad"}}, {"type": "way", "id": 294038756, "center": {"lat": 38.5083162, "lon": -76.6431101}, "nodes": [2976093233, 2976093234, 2976093235, 2976093236, 2976093237, 2976093233], "tags": {"aeroway": "helipad"}}, {"type": "way", "id": 297828587, "center": {"lat": 37.064937, "lon": -76.4838411}, "nodes": [3017338405, 3017338406, 3017338407, 3017338408, 3017338405], "tags": {"aeroway": "helipad", "faa": "54VA", "name": "Riverside Hospital Heliport", "surface": "concrete", "wikidata": "Q61725498"}}, {"type": "way", "id": 297832941, "center": {"lat": 37.5482006, "lon": -77.4310675}, "nodes": [3017386012, 3017386013, 3017386014, 451094556, 3017386012], "tags": {"aeroway": "helipad", "name": "VCU Medical Center Heliport"}}, {"type": "way", "id": 298020204, "center": {"lat": 37.0629031, "lon": -76.4821137}, "nodes": [3019328845, 3019328846, 3019328847, 3019328848, 3019328845], "tags": {"aeroway": "helipad"}}, {"type": "way", "id": 301007167, "center": {"lat": 32.7869595, "lon": -79.9509026}, "nodes": [3051157877, 368395548, 3051157878, 3051157879, 3051157868, 3051157880, 3051157877], "tags": {"aeroway": "helipad", "faa": "SC71", "gnis:feature_id": "1251863", "lit": "yes", "name": "Medical University of South Carolina Heliport", "rooftop": "yes", "surface": "metal", "wikidata": "Q61724551"}}, {"type": "way", "id": 305799193, "center": {"lat": 37.6279651, "lon": -77.3850152}, "nodes": [3104726956, 3104726963, 3104726957, 3104726958, 3104726959, 3104726965, 3104726956], "tags": {"aeroway": "helipad"}}, {"type": "way", "id": 306779382, "center": {"lat": 35.7110541, "lon": -79.8158883}, "nodes": [1042134499, 3117708163, 3117708166, 3117708161, 1042134499], "tags": {"aeroway": "helipad", "faa": "NC74", "lit": "yes", "name": "Randolph Hospital Heliport", "ref": "NC74", "source": "Mapbox", "surface": "concrete"}}, {"type": "way", "id": 308101400, "center": {"lat": 37.534443, "lon": -77.4438867}, "nodes": [8933426640, 8933426641, 3133847212, 3133847204, 3133847205, 3133847206, 10164737307, 10164737308, 3133847213, 3133847209, 10164737306, 3133847217, 3133847214, 3133847211, 3133847218, 3133847220, 3133847210, 3133847208, 3133847219, 3133847207, 3133847216, 3133847215, 8933426640], "tags": {"aeroway": "helipad", "name": "Brown's Island Helipad"}}, {"type": "way", "id": 308432659, "center": {"lat": 38.2665702, "lon": -78.8178526}, "nodes": [3137190667, 3137190668, 3137190669, 3137190670, 3137190667], "tags": {"aeroway": "helipad"}}, {"type": "way", "id": 308675723, "center": {"lat": 37.1821741, "lon": -77.3607285}, "nodes": [3139428807, 3139428808, 3139428809, 3139428810, 3139428807], "tags": {"aeroway": "helipad"}}, {"type": "way", "id": 309332637, "center": {"lat": 36.8512063, "lon": -76.1915316}, "nodes": [3146671225, 3146671226, 3146671227, 3146671228, 3146671225], "tags": {"aeroway": "helipad", "faa": "VA15", "name": "Sentara Leigh Hospital Heliport", "surface": "concrete", "wikidata": "Q61725501"}}, {"type": "way", "id": 310596844, "center": {"lat": 38.9268198, "lon": -79.855481}, "nodes": [3160386709, 3160386710, 3160386711, 3160386712, 3160386713, 3160386714, 3160386715, 3160386697, 3160386698, 3160386701, 3160386702, 3160386703, 3160386704, 3160386705, 3160386706, 3160386707, 3160386708, 3160386699, 3160386700, 3160386709], "tags": {"aeroway": "helipad"}}, {"type": "way", "id": 311682285, "center": {"lat": 39.4397499, "lon": -76.3472089}, "nodes": [1862488395, 3174035811, 3174035812, 3174035815, 1862488395], "tags": {"aeroway": "helipad", "source": "Mapbox"}}, {"type": "way", "id": 312019765, "center": {"lat": 35.2899174, "lon": -77.5844117}, "nodes": [3178304545, 3178304546, 3178304547, 8038574789, 3178304548, 3178304545], "tags": {"aeroway": "helipad", "lit": "yes", "name": "Lenoir Memorial Hospital Heliport", "ref": "55NC", "surface": "concrete"}}, {"type": "way", "id": 315542487, "center": {"lat": 38.6629691, "lon": -78.4674648}, "nodes": [6300301860, 6300301858, 6300301857, 3216660798, 6300301856, 6300301855, 3216660799, 6300301854, 6300301853, 6300301852, 6300301859, 3216660800, 6300301851, 6300301850, 6300301849, 6300301848, 6300301847, 3216660797, 6300301846, 6300301845, 6300301860], "tags": {"aeroway": "helipad", "name": "Page Memorial Hospital Heliport", "source": "ourairports.com", "wikidata": "Q61725456"}}, {"type": "way", "id": 318167430, "center": {"lat": 35.2085356, "lon": -75.7047848}, "nodes": [3245612170, 3245612166, 3245612169, 3245612172, 3245612170], "tags": {"aeroway": "helipad", "name": "U.S. Coast Guard - Station Hatteras Inlet"}}, {"type": "way", "id": 318174234, "center": {"lat": 35.2180775, "lon": -75.6895566}, "nodes": [3245685970, 3245685953, 3245685938, 3245685948, 3245685970], "tags": {"access": "private", "aeroway": "helipad"}}, {"type": "way", "id": 318975800, "center": {"lat": 38.8748971, "lon": -77.0566699}, "nodes": [11125621971, 9390960772, 3656245291, 3253820733, 3656245294, 9390960774, 11125621971], "tags": {"aeroway": "helipad", "faa": "JPN", "iata": "JPN", "icao": "KJPN", "name": "Pentagon Army Heliport", "operator": "US Army", "source": "ourairports.com", "wikidata": "Q61671717"}}, {"type": "way", "id": 321210651, "center": {"lat": 37.1436543, "lon": -76.5108438}, "nodes": [3279423711, 3279423712, 368947108, 3279423713, 3279423714, 3279423711], "tags": {"aeroway": "helipad", "faa": "8VA8", "gnis:feature_id": "1498759", "name": "Mary Immaculate Hospital Heliport", "surface": "concrete", "wikidata": "Q61725496"}}, {"type": "way", "id": 321600412, "center": {"lat": 38.4015313, "lon": -79.9952034}, "nodes": [3283561867, 3283561868, 3283561869, 3283561872, 3283561870, 3283561867], "tags": {"aeroway": "helipad"}}, {"type": "way", "id": 323914924, "center": {"lat": 38.8844472, "lon": -77.3787205}, "nodes": [3306891762, 3306891763, 3306891764, 3306891765, 3306891766, 3306891767, 3306891768, 3306891769, 368946754, 3306891770, 3306891771, 3306891772, 3306891773, 3306891774, 3306891775, 3306891776, 3306891762], "tags": {"aeroway": "helipad", "faa": "74VA", "gnis:feature_id": "1498665", "name": "Inova Fair Oaks Hospital Heliport", "surface": "asphalt", "wikidata": "Q61725370"}}, {"type": "way", "id": 334264523, "center": {"lat": 39.9372954, "lon": -75.141105}, "nodes": [10678353278, 10678353275, 10678353276, 10678353283, 10679388061, 10678353277, 10678353284, 10678353278], "tags": {"aeroway": "helipad", "ele": "5", "gnis:feature_id": "1205118", "gnis:feature_type": "Airport", "lit": "yes", "name": "Penns Landing Pier 36 Heliport", "operator": "Philadelphia Port Corp.", "ref": "P72", "surface": "asphalt", "wikidata": "Q61712622"}}, {"type": "way", "id": 336600357, "center": {"lat": 39.2976497, "lon": -76.5928258}, "nodes": [3436381030, 3436381031, 3436381032, 3436381033, 3436381030], "tags": {"access": "private", "addr:state": "MD", "aeroway": "helipad", "area": "yes", "ele": "79", "faa": "0MD3", "gnis:county_name": "Baltimore", "gnis:created": "09/01/1992", "gnis:feature_id": "595239", "gnis:feature_type": "Airport", "name": "The Johns Hopkins Hospital Heliport", "operator": "Johns Hopkins Hospital", "wikidata": "Q74843844"}}, {"type": "way", "id": 337646627, "center": {"lat": 38.8326476, "lon": -79.3737379}, "nodes": [3447110108, 3447110103, 3447110104, 3470250912, 3447110105, 3447110109, 3447110108], "tags": {"access": "destination", "aeroway": "helipad"}}, {"type": "way", "id": 348812501, "center": {"lat": 36.0975679, "lon": -75.7141002}, "nodes": [3548906092, 3548906093, 3548906094, 3548906095, 3548906092], "tags": {"aeroway": "helipad"}}, {"type": "way", "id": 350203488, "center": {"lat": 39.9881419, "lon": -75.2596123}, "nodes": [3559529001, 3559528999, 3559528994, 3559528992, 3559528989, 3559528985, 3559528983, 3559528981, 3559528982, 3559528984, 3559528988, 3559528991, 3559528993, 3559528998, 3559529000, 3559529003, 3559529006, 3559529009, 3559529012, 3559529015, 3559529019, 3559529021, 3559529024, 3559529026, 3559529025, 3559529022, 3559529020, 3559529016, 3559529013, 3559529010, 3559529007, 3559529004, 3559529001], "tags": {"aeroway": "helipad", "faa": "9PA9", "gnis:feature_id": "1213721", "name": "Lankenau Medical Center", "source": "Bing", "surface": "asphalt", "wikidata": "Q61712618"}}, {"type": "way", "id": 352153413, "center": {"lat": 36.8086635, "lon": -76.0440788}, "nodes": [3579204337, 3579204336, 3579204333, 3579204334, 3579204337], "tags": {"aeroway": "helipad", "ref": "1"}}, {"type": "way", "id": 352153414, "center": {"lat": 36.8173945, "lon": -76.0342614}, "nodes": [3579204385, 3579204383, 3579204379, 3579204381, 3579204385], "tags": {"aeroway": "helipad", "ref": "2"}}, {"type": "way", "id": 353021346, "center": {"lat": 36.9402175, "lon": -76.2882345}, "nodes": [3588047931, 3588047864, 3588047773, 3588047848, 3588047931], "tags": {"aeroway": "helipad"}}, {"type": "way", "id": 353021347, "center": {"lat": 36.9384252, "lon": -76.2920189}, "nodes": [3588047603, 3588047598, 3588047599, 3588047604, 3588047603], "tags": {"aeroway": "helipad"}}, {"type": "way", "id": 353035014, "center": {"lat": 36.9475423, "lon": -76.2866924}, "nodes": [3588173393, 3588173296, 3588173264, 3588173353, 3588173393], "tags": {"aeroway": "helipad"}}, {"type": "way", "id": 353035015, "center": {"lat": 36.950235, "lon": -76.2778131}, "nodes": [3588175036, 3588175037, 3588175032, 3588175030, 3588175036], "tags": {"aeroway": "helipad"}}, {"type": "way", "id": 353035016, "center": {"lat": 36.9483398, "lon": -76.2940569}, "nodes": [3588173863, 3588173792, 3588173610, 3588173690, 3588173863], "tags": {"aeroway": "helipad"}}, {"type": "way", "id": 353035017, "center": {"lat": 36.9349029, "lon": -76.2925183}, "nodes": [3588172522, 3588172520, 3588172519, 3588172521, 3588172522], "tags": {"aeroway": "helipad"}}, {"type": "way", "id": 353035018, "center": {"lat": 36.9489654, "lon": -76.2824126}, "nodes": [3588174616, 3588174675, 3588174486, 3588174407, 3588174616], "tags": {"aeroway": "helipad"}}, {"type": "way", "id": 353035019, "center": {"lat": 36.9495919, "lon": -76.28015}, "nodes": [3588174940, 3588174962, 3588174885, 3588174857, 3588174940], "tags": {"aeroway": "helipad"}}, {"type": "way", "id": 353631064, "center": {"lat": 35.7850445, "lon": -78.589257}, "nodes": [3594414621, 3594414623, 3594414624, 3594414622, 3594414621], "tags": {"aeroway": "helipad", "name": "Wake Medical Center Heliport", "rooftop": "yes"}}, {"type": "way", "id": 353633725, "center": {"lat": 35.7319362, "lon": -78.6286788}, "nodes": [3594445386, 3594445388, 3594445387, 3594445385, 3594445386], "tags": {"aeroway": "helipad", "lit": "yes", "ref": "H1", "surface": "concrete"}}, {"type": "way", "id": 353635221, "center": {"lat": 35.7795931, "lon": -78.6740694}, "nodes": [3594473143, 3594473146, 3594473145, 3594473144, 3594473143], "tags": {"aeroway": "helipad", "name": "Sky-5 Heliport", "operator": "Capitol Broadcasting", "ref": "2NC3", "surface": "wood"}}, {"type": "way", "id": 353921070, "center": {"lat": 36.0191879, "lon": -75.7255479}, "nodes": [3597137129, 3597137130, 3597137131, 3597137132, 3597137129], "tags": {"aeroway": "helipad"}}, {"type": "way", "id": 359625862, "center": {"lat": 37.4756555, "lon": -75.8631242}, "nodes": [3643003265, 3643003235, 3643003227, 3643003255, 3643003265], "tags": {"aeroway": "helipad", "faa": "3VG6", "name": "Riverside Shore Memorial Hospital Heliport", "surface": "concrete", "wikidata": "Q61725509"}}, {"type": "way", "id": 361615643, "center": {"lat": 38.9906422, "lon": -76.5342436}, "nodes": [3660748904, 3660748892, 3660748901, 3660748925, 3660748904], "tags": {"aeroway": "helipad", "faa": "20MD", "name": "Anne Arundel Medical Center Heliport", "rooftop": "yes", "wikidata": "Q61672954"}}, {"type": "way", "id": 364268956, "center": {"lat": 37.3099199, "lon": -76.6429654}, "nodes": [3683219352, 3683219351, 3683219350, 3683219353, 3683219352], "tags": {"aeroway": "helipad"}}, {"type": "way", "id": 369195880, "center": {"lat": 38.6423518, "lon": -79.3284278}, "nodes": [3730052527, 3730052530, 3730052528, 3730052526, 3730052527], "tags": {"aeroway": "helipad", "source": "Bing"}}, {"type": "way", "id": 370754290, "center": {"lat": 36.9555528, "lon": -76.3053576}, "nodes": [3744440743, 3744440626, 3744440785, 3744440687, 3744440743], "tags": {"aeroway": "helipad", "area": "yes", "name": "H-3"}}, {"type": "way", "id": 370754294, "center": {"lat": 36.9543014, "lon": -76.3054435}, "nodes": [3744440763, 3744440791, 3744440636, 3744440644, 3744440763], "tags": {"aeroway": "helipad", "area": "yes"}}, {"type": "way", "id": 370754298, "center": {"lat": 36.9557642, "lon": -76.3016922}, "nodes": [3744440705, 3744440770, 3744440759, 3744440663, 3744440705], "tags": {"aeroway": "helipad", "area": "yes", "name": "H-2"}}, {"type": "way", "id": 370755045, "center": {"lat": 36.9534784, "lon": -76.3053744}, "nodes": [3744440018, 3744449544, 3744440011, 3744449529, 3744440018], "tags": {"aeroway": "helipad", "area": "yes"}}, {"type": "way", "id": 370755046, "center": {"lat": 36.9522711, "lon": -76.3043703}, "nodes": [3744440019, 3744440009, 3744449531, 3744449537, 3744440019], "tags": {"aeroway": "helipad", "area": "yes"}}, {"type": "way", "id": 374038035, "center": {"lat": 36.9486185, "lon": -76.2969781}, "nodes": [3774420736, 3774420737, 3774420738, 3774420739, 3774420736], "tags": {"aeroway": "helipad"}}, {"type": "way", "id": 374647004, "center": {"lat": 36.932006, "lon": -76.3019351}, "nodes": [3780420594, 3780420595, 3780420596, 3780420597, 3780420594], "tags": {"aeroway": "helipad"}}, {"type": "way", "id": 375082732, "center": {"lat": 36.8484075, "lon": -76.3137954}, "nodes": [3784719311, 3784719312, 3784719313, 3784719314, 3784719311], "tags": {"aeroway": "helipad", "name": "Naval Medical Center Helipad", "operator": "U.S. Navy", "ref": "KZ24", "source_ref": "https://www.lzcontrol.com/lzs/details.php?lz_id=155", "surface": "paved"}}, {"type": "way", "id": 377903023, "center": {"lat": 37.0631415, "lon": -76.4164645}, "nodes": [3813105483, 3813105484, 3813105485, 3813105486, 3813105483], "tags": {"aeroway": "helipad"}}, {"type": "way", "id": 383908673, "center": {"lat": 39.4362763, "lon": -77.4206479}, "nodes": [3872146889, 1042149518, 3872146884, 3872146885, 3872146889], "tags": {"aeroway": "helipad", "lit": "no", "name": "Fort Detrick Helipad Heliport", "operator": "US Army", "ref": "MD32", "source": "ourairports.com", "surface": "concrete", "wikidata": "Q61673025"}}, {"type": "way", "id": 384597886, "center": {"lat": 36.7455168, "lon": -76.2478737}, "nodes": [3879069578, 368948455, 3879069567, 3879069581, 3879069578], "tags": {"aeroway": "helipad", "faa": "11VA", "gnis:feature_id": "1501650", "name": "Chesapeake General Hospital Heliport", "surface": "concrete", "wikidata": "Q61725323"}}, {"type": "way", "id": 384881050, "center": {"lat": 39.9707669, "lon": -75.6033961}, "nodes": [3882357669, 3882357671, 3882357673, 3882357675, 3882357677, 3882357679, 3882357678, 3882357676, 3882357674, 3882357672, 3882357670, 3882357668, 3882357666, 3882357664, 3882357662, 3882357661, 3882357663, 3882357665, 3882357667, 3882357669], "tags": {"aeroway": "helipad", "faa": "3PS0", "name": "Chester County Hospital Heliport", "surface": "concrete", "wikidata": "Q61712832"}}, {"type": "way", "id": 387924541, "center": {"lat": 37.5371894, "lon": -78.4778857}, "nodes": [3911533786, 3911533788, 3911533789, 3911533790, 3911533786], "tags": {"aeroway": "helipad"}}, {"type": "way", "id": 391031564, "center": {"lat": 39.8469299, "lon": -74.9269949}, "nodes": [3941923722, 3941923723, 3941923724, 3941923725, 3941923722], "tags": {"aeroway": "helipad", "name": "Virtua-Voorhees Hospital Helipad", "ref": "85NJ", "wikidata": "Q61675848"}}, {"type": "way", "id": 394143594, "center": {"lat": 39.4128452, "lon": -79.4013217}, "nodes": [3971680133, 3971680118, 369003002, 3971680126, 3971680133], "tags": {"aeroway": "helipad", "faa": "3MD2", "gnis:feature_id": "595328", "name": "Garrett County Memorial Hospital Heliport", "surface": "asphalt", "wikidata": "Q61673079"}}, {"type": "way", "id": 398078590, "center": {"lat": 36.8617024, "lon": -76.3048174}, "nodes": [4008647111, 4008647112, 4008647113, 4008647114, 4008647111], "tags": {"aeroway": "helipad"}}, {"type": "way", "id": 398203584, "center": {"lat": 36.8854408, "lon": -76.3557304}, "nodes": [4009680983, 4009680984, 4009680985, 4009680986, 4009680983], "tags": {"aeroway": "helipad", "name": "U.S. Coast Guard - Base Portsmouth"}}, {"type": "way", "id": 401705789, "center": {"lat": 36.8297034, "lon": -76.2983442}, "nodes": [4041182292, 4041182293, 4041182294, 4041182295, 4041182292], "tags": {"aeroway": "helipad", "name": "WAVY TV 10"}}, {"type": "way", "id": 403967966, "center": {"lat": 36.8201445, "lon": -76.0241286}, "nodes": [4062579829, 4062579830, 4062579831, 4062579832, 4062579829], "tags": {"aeroway": "helipad", "ref": "4"}}, {"type": "way", "id": 403972197, "center": {"lat": 36.8254747, "lon": -76.0181846}, "nodes": [4062613586, 4062613587, 4062613588, 4062614189, 4062613586], "tags": {"aeroway": "helipad", "ref": "5"}}, {"type": "way", "id": 412193254, "center": {"lat": 36.7763518, "lon": -76.09951}, "nodes": [4137120378, 4137120379, 4137120380, 4137120381, 4137120364, 4137120365, 4137120366, 4137120367, 4137120368, 4137120374, 4137120375, 4137120376, 4137120377, 4137120363, 4137120369, 4137120370, 4137120371, 4137120372, 4137120373, 4137120378], "tags": {"aeroway": "helipad", "name": "Sentara Princess Anne Hospital"}}, {"type": "way", "id": 414287494, "center": {"lat": 36.8999489, "lon": -76.2801209}, "nodes": [4154593770, 4154593781, 4154593777, 4154593763, 4154593770], "tags": {"aeroway": "helipad"}}, {"type": "way", "id": 414434857, "center": {"lat": 36.5648851, "lon": -76.2559698}, "nodes": [4155782814, 4155782815, 4155782816, 4155782817, 4155782813, 4155782814], "tags": {"aeroway": "helipad", "name": "USCG", "parking": "surface"}}, {"type": "way", "id": 417322237, "center": {"lat": 39.2595331, "lon": -76.5662514}, "nodes": [4178821056, 4178821057, 4178821058, 4178821059, 4178821060, 4178821061, 4178821062, 4178821063, 4178821045, 4178821046, 4178821047, 4178821052, 4178821053, 4178821054, 4178821055, 4178821048, 4178821049, 4178821050, 4178821051, 4178821056], "tags": {"aeroway": "helipad"}}, {"type": "way", "id": 417746321, "center": {"lat": 37.4907461, "lon": -77.0102519}, "nodes": [4182373091, 4182373090, 4182373092, 4182373093, 4182373094, 4182373091], "tags": {"aeroway": "helipad"}}, {"type": "way", "id": 421326163, "center": {"lat": 39.5634618, "lon": -77.2959614}, "nodes": [4211038010, 4211038011, 4211038012, 4211038010], "tags": {"aeroway": "helipad"}}, {"type": "way", "id": 423007991, "center": {"lat": 37.935318, "lon": -78.9455427}, "nodes": [4227278730, 4227278731, 4227278732, 4227278733, 4227278730], "tags": {"aeroway": "helipad"}}, {"type": "way", "id": 423730587, "center": {"lat": 36.9877393, "lon": -77.9813716}, "nodes": [4232974019, 4232974020, 4232974021, 4232974022, 4232974019], "tags": {"aeroway": "helipad", "military": "yes", "name": "Landing Zone"}}, {"type": "way", "id": 424385220, "center": {"lat": 35.7954301, "lon": -75.5498458}, "nodes": [4238102503, 4238102496, 4238102500, 4238102508, 4238102503], "tags": {"aeroway": "helipad", "image": "https://www.facebook.com/uscoastguardstationoregoninlet/photos/a.963674650401403/2474483539320499/?type=3&theater", "name": "U.S. Coast Guard - Station Oregon Inlet"}}, {"type": "way", "id": 424394580, "center": {"lat": 33.8931501, "lon": -78.0330236}, "nodes": [4238212470, 4238212468, 3655582366, 4238212469, 4238212470], "tags": {"addr:city": "Oak Island", "addr:country": "US", "addr:housenumber": "300", "addr:postcode": "28465", "addr:state": "NC", "addr:street": "Caswell Beach Road", "aeroway": "helipad", "name": "U.S. Coast Guard - Station Oak Island"}}, {"type": "way", "id": 427272190, "center": {"lat": 34.058887, "lon": -78.898494}, "nodes": [4265048524, 368395659, 4265048530, 4265048531, 4265048524], "tags": {"aeroway": "helipad", "faa": "5SC5", "gnis:feature_id": "1251932", "lit": "yes", "name": "Loris Community Hospital Heliport", "surface": "concrete", "wikidata": "Q61724615"}}, {"type": "way", "id": 427928534, "center": {"lat": 37.2546694, "lon": -77.3271649}, "nodes": [4270914240, 4270914241, 4270914242, 4270914243, 4270914240], "tags": {"aeroway": "helipad", "lit": "yes", "name": "Fort Lee Heliport #3 (Quartermaster)", "operator": "US Army", "ref": "VA39", "surface": "concrete", "wikidata": "Q61725388"}}, {"type": "way", "id": 429407972, "center": {"lat": 37.0589383, "lon": -77.9710412}, "nodes": [4285408561, 4285408562, 4285408563, 4285408564, 4285408561], "tags": {"aeroway": "helipad"}}, {"type": "way", "id": 429782371, "center": {"lat": 35.3074689, "lon": -78.6361696}, "nodes": [1042134542, 4289653119, 8038574610, 4289653121, 4289653120, 1042134542], "tags": {"aeroway": "helipad", "faa": "NC96", "ref": "H1", "surface": "concrete"}}, {"type": "way", "id": 429785195, "center": {"lat": 35.4259612, "lon": -78.8094425}, "nodes": [4289707408, 4289707410, 4289707413, 4289707416, 4289707419, 4289707423, 4289707425, 4289707427, 4289707426, 4289707424, 4289707420, 4289707417, 4289707414, 4289707412, 4289707409, 4289707407, 4289707408], "tags": {"aeroway": "helipad", "faa": "42NR", "lit": "yes", "name": "Harnett Health Helipad", "ref": "42NR", "surface": "concrete"}}, {"type": "way", "id": 430129563, "center": {"lat": 35.4689356, "lon": -79.1862369}, "nodes": [4293932110, 4293932113, 4293932124, 4293932121, 4293932110], "tags": {"aeroway": "helipad"}}, {"type": "way", "id": 430817884, "center": {"lat": 39.3335673, "lon": -78.6975718}, "nodes": [4300893765, 4300893766, 4300893767, 4300893768, 4300893769, 4300893770, 4300893752, 4300893753, 4300893754, 4300893755, 4300893760, 4300893761, 4300893762, 4300893763, 4300893764, 4300893756, 4300893757, 4300893758, 4300893759, 4300893765], "tags": {"aeroway": "helipad", "faa": "85WV", "name": "Hampshire Memorial Hospital Heliport", "surface": "paved", "wikidata": "Q61726796"}}, {"type": "way", "id": 430895918, "center": {"lat": 36.0623298, "lon": -79.5028837}, "nodes": [1042143026, 4301574454, 4301574447, 4301574442, 1042143026], "tags": {"aeroway": "helipad", "lit": "yes", "name": "H1", "ref": "H1", "surface": "concrete"}}, {"type": "way", "id": 431767327, "center": {"lat": 36.3305637, "lon": -78.4502615}, "nodes": [8880259613, 4309858458, 4309858460, 4309858462, 4309858466, 4309858469, 4309858472, 4309858473, 4309858474, 8880259611, 8880259612, 1779232841, 4309858471, 4309858468, 4309858465, 4309858461, 4309858459, 4309858456, 4309858455, 8880259613], "tags": {"aeroway": "helipad", "faa": "0NC9", "name": "Maria Parham Health DLP Affiliate Heliport", "ref": "0NC9", "surface": "concrete", "wikidata": "Q61670006"}}, {"type": "way", "id": 432808533, "center": {"lat": 35.5156467, "lon": -78.3335081}, "nodes": [4317594915, 8038575010, 4317594916, 3456213546, 4317594918, 4317594915], "tags": {"aeroway": "helipad", "faa": "NC23", "ref": "H1", "surface": "concrete"}}, {"type": "way", "id": 434299704, "center": {"lat": 35.7382066, "lon": -78.8669871}, "nodes": [1970344886, 4324625460, 4324625459, 4324625458, 4324625464, 4324625466, 4324625468, 4324625470, 4324625473, 4324625474, 4324625477, 4324625479, 4324625480, 4324625481, 4324625482, 4324625483, 4324625484, 4324625478, 4324625475, 4324625476, 4324625471, 4324625469, 4324625467, 4324625465, 4324625463, 4324625462, 4324625461, 1970344886], "tags": {"aeroway": "helipad", "faa": "2NR4", "lit": "yes", "name": "Apex Healthplex Heliport", "operator": "WakeMed", "ref": "2NR4", "surface": "concrete"}}, {"type": "way", "id": 437388754, "center": {"lat": 38.8199578, "lon": -77.6413251}, "nodes": [4351948252, 4351948253, 4351948254, 4351948255, 4351948252], "tags": {"aeroway": "helipad", "faa": "45VA", "name": "Novant Health UVA Haymarket Medical Center Heliport", "surface": "concrete", "wikidata": "Q61725420"}}, {"type": "way", "id": 437701838, "center": {"lat": 36.6307888, "lon": -79.8512692}, "nodes": [4354982739, 4354982740, 4354982741, 4354982742, 4354982743, 4354982744, 4354982745, 4354982746, 4354982739], "tags": {"aeroway": "helipad"}}, {"type": "way", "id": 439637838, "center": {"lat": 36.2331163, "lon": -76.1333686}, "nodes": [4373115369, 4373115370, 4373115352, 4373115353, 4373115354, 4373115355, 4373115356, 4373115357, 4373115365, 4373115366, 4373115367, 4373115368, 4373115358, 4373115359, 4373115360, 4373115364, 4373115361, 4373115362, 4373115363, 4373115369], "tags": {"aeroway": "helipad"}}, {"type": "way", "id": 439875908, "center": {"lat": 38.8543263, "lon": -77.0133127}, "nodes": [4375535499, 4375536727, 812378402, 812378383, 4375536713, 4375535564, 4375535523, 4375536718, 4375535581, 4375535529, 4375535499], "tags": {"aeroway": "heliport", "barrier": "fence", "ele": "2", "name": "Anacostia Helicopter Facility"}}, {"type": "way", "id": 440070193, "center": {"lat": 38.8451307, "lon": -77.0144588}, "nodes": [4377739922, 4377739924, 2200324125, 4377739923, 4377739921, 4377739922], "tags": {"aeroway": "helipad", "ele": "5", "faa": "BOF", "iata": "BOF", "icao": "KBOF", "name": "Bolling Air Force Base Heliport", "surface": "asphalt"}}, {"type": "way", "id": 441085907, "center": {"lat": 39.0878862, "lon": -76.8822556}, "nodes": [1486533375, 4388491966, 4388491965, 4388491969, 1486533375], "tags": {"aeroway": "helipad"}}, {"type": "way", "id": 442582899, "center": {"lat": 35.6991764, "lon": -78.5951489}, "nodes": [4402587902, 4402587903, 4402587904, 4402587905, 4402587906, 4402587907, 4402587908, 4402587909, 4402587910, 4402587911, 4402587912, 4402587913, 4402587914, 4402587915, 4402587916, 4402587917, 4402587918, 4402587919, 4402587920, 4402587921, 4402587922, 4402587923, 4402587924, 4402587902], "tags": {"aeroway": "helipad", "name": "Wakemed Garner Healthplex Heliport", "surface": "concrete"}}, {"type": "way", "id": 443711878, "center": {"lat": 38.7722466, "lon": -75.1433205}, "nodes": [4412637790, 4412637786, 4412637791, 4412637794, 4412637790], "tags": {"aeroway": "helipad", "rooftop": "yes"}}, {"type": "way", "id": 443715748, "center": {"lat": 39.1513638, "lon": -75.5241442}, "nodes": [4412663021, 4412663019, 4412663020, 4412663022, 4412663021], "tags": {"aeroway": "helipad", "lit": "no", "name": "Bayhealth Medical Center Heliport", "operator": "Bayhealth Medical Center", "ref": "H1", "rooftop": "yes", "surface": "mats", "wikidata": "Q61671726"}}, {"type": "way", "id": 443818506, "center": {"lat": 38.3610527, "lon": -75.5991719}, "nodes": [4413602263, 4413602265, 4413602268, 4413602267, 4413602263], "tags": {"aeroway": "helipad"}}, {"type": "way", "id": 443818510, "center": {"lat": 38.3622933, "lon": -75.5972548}, "nodes": [4413602275, 369002858, 4413602271, 4413602272, 4413602275], "tags": {"aeroway": "helipad", "faa": "MD49", "name": "Peninsula Regional Medical Center Heliport", "wikidata": "Q61673106"}}, {"type": "way", "id": 443846472, "center": {"lat": 37.9974933, "lon": -75.8532162}, "nodes": [1042149528, 4413810025, 4413810026, 4413810027, 1042149528], "tags": {"aeroway": "helipad", "faa": "MD52", "name": "Mccready Memorial Hospital Heliport", "surface": "concrete", "wikidata": "Q61673004"}}, {"type": "way", "id": 443916651, "center": {"lat": 38.9675092, "lon": -76.1827655}, "nodes": [2462393481, 4414317324, 4414317326, 4414317329, 4414317331, 4414317334, 4414317336, 4414317338, 4414317339, 4414317337, 4414317335, 4414317332, 4414317330, 4414317327, 4414317325, 4414317322, 2462393481], "tags": {"access": "private", "aeroway": "helipad", "ele": "8", "faa": "50MD", "name": "Queen Anne E R Heliport", "wikidata": "Q61673035"}}, {"type": "way", "id": 444014270, "center": {"lat": 38.3014351, "lon": -76.636802}, "nodes": [1042149496, 4415171627, 4415171628, 4415171630, 4415171632, 4415171634, 4415171637, 4415171639, 4415171641, 4415171642, 4415171640, 4415171638, 4415171635, 4415171633, 4415171631, 4415171629, 1042149496], "tags": {"aeroway": "helipad", "faa": "MD02", "name": "St. Mary's Hospital East Heliport"}}, {"type": "way", "id": 444014271, "center": {"lat": 38.3020604, "lon": -76.6393073}, "nodes": [4415171649, 4415171651, 4415171652, 4415171655, 4415171657, 4415171659, 4415171661, 4415171662, 4415171660, 4415171658, 4415171656, 4415171654, 4415171653, 1042142560, 4415171650, 4415171648, 4415171649], "tags": {"aeroway": "helipad", "name": "St. Mary's Hospital Heliport"}}, {"type": "way", "id": 444051419, "center": {"lat": 39.0983722, "lon": -77.1976049}, "nodes": [4415554665, 369002930, 4415554668, 4415554666, 4415554665], "tags": {"aeroway": "helipad", "faa": "1MD7", "gnis:feature_id": "595342", "name": "Shady Grove Adventist Hospital Heliport", "surface": "concrete", "wikidata": "Q61673104"}}, {"type": "way", "id": 444138976, "center": {"lat": 38.9974853, "lon": -77.1099014}, "nodes": [4416331401, 4416331400, 4416331402, 4416331403, 4416331405, 4416331407, 4416331409, 4416331410, 4416331412, 4416331414, 4416331413, 4416331411, 4416331408, 4416331406, 4416331404, 1042133496, 4416331401], "tags": {"aeroway": "helipad", "faa": "5MD9", "name": "Suburban Heliport", "rooftop": "yes", "surface": "concrete", "wikidata": "Q61672972"}}, {"type": "way", "id": 444168743, "center": {"lat": 38.9306261, "lon": -76.9198583}, "nodes": [4416566728, 4416566727, 4416566729, 4416566730, 4416566728], "tags": {"aeroway": "helipad", "surface": "asphalt"}}, {"type": "way", "id": 444168745, "center": {"lat": 38.9304527, "lon": -76.9206114}, "nodes": [4416566724, 4416566725, 4416566726, 369003462, 4416566724], "tags": {"aeroway": "helipad", "faa": "1MD4", "rooftop": "yes", "surface": "concrete"}}, {"type": "way", "id": 444216737, "center": {"lat": 39.1365881, "lon": -76.6197976}, "nodes": [369002770, 4417033487, 4417033488, 4417033482, 369002770], "tags": {"aeroway": "helipad", "faa": "0MD0", "gnis:feature_id": "595293", "name": "Baltimore Washington Medical Center Heliport", "old_name": "North Arundel Hospital Heliport", "wikidata": "Q61673032"}}, {"type": "way", "id": 444298134, "center": {"lat": 39.3290346, "lon": -76.61468}, "nodes": [4417863819, 4417863818, 1808828438, 4417863817, 4417863819], "tags": {"access": "private", "aeroway": "helipad", "ele": "101", "faa": "44MD", "name": "Union Memorial Hospital Heliport", "rooftop": "yes", "surface": "concrete", "wikidata": "Q61672966"}}, {"type": "way", "id": 451882760, "center": {"lat": 36.9365039, "lon": -76.2903025}, "nodes": [4486875938, 4486875978, 4486875971, 4486875967, 4486875938], "tags": {"aeroway": "helipad"}}, {"type": "way", "id": 456602653, "center": {"lat": 39.5586895, "lon": -76.990649}, "nodes": [4528537052, 4528537053, 4528537054, 369002900, 4528537055, 4528537052], "tags": {"aeroway": "helipad", "faa": "MD76", "gnis:feature_id": "595360", "name": "Carroll Hospital Center Heliport", "rooftop": "yes", "surface": "aluminum", "wikidata": "Q61673136"}}, {"type": "way", "id": 460217432, "center": {"lat": 39.7510074, "lon": -77.5698334}, "nodes": [4558910527, 4558910525, 4558910524, 4558910523, 4558910522, 4558910526, 4558910521, 4558910520, 4558910519, 4558910518, 4558910517, 4558910528, 4558910516, 4558910515, 4558910514, 4558910513, 4558910527], "tags": {"aeroway": "helipad", "name": "Waynesboro Hospital Helipad", "surface": "asphalt"}}, {"type": "way", "id": 460363210, "center": {"lat": 38.7203578, "lon": -75.5882838}, "nodes": [4560342123, 4560342124, 4560342125, 4560342126, 4560342123], "tags": {"aeroway": "helipad", "name": "Delaware State Police"}}, {"type": "way", "id": 460388776, "center": {"lat": 38.6425698, "lon": -75.6033145}, "nodes": [4560589761, 4560589762, 4560589763, 4560589764, 4560589761], "tags": {"aeroway": "helipad", "name": "Nanticoke Hospital Helipad"}}, {"type": "way", "id": 460761251, "center": {"lat": 34.2042953, "lon": -77.9199457}, "nodes": [4563643570, 4563643571, 4563643572, 4563643573, 4563643555, 4563643556, 4563643557, 4563643558, 4563643559, 4563643566, 4563643567, 4563643568, 4563643569, 4563643560, 4563643561, 4563643562, 4563643563, 4563643564, 4563643565, 4563643570], "tags": {"aeroway": "helipad", "name": "New Hanover Regional Medical Center"}}, {"type": "way", "id": 460803629, "center": {"lat": 38.9073666, "lon": -75.431807}, "nodes": [4564087198, 4564087199, 4564087200, 4564087201, 4564087198], "tags": {"aeroway": "helipad"}}, {"type": "way", "id": 463315462, "center": {"lat": 39.642927, "lon": -78.2009997}, "nodes": [2248768924, 4585947613, 4585947612, 8880314457, 6097118902, 4585947611, 4585947610, 4585947615, 4585947609, 4585947608, 4585947607, 4585947606, 8880314456, 4585947614, 4585947605, 4585947604, 4585947603, 4585947602, 4585947601, 2248768924], "tags": {"aeroway": "helipad", "faa": "15WV", "name": "War Memorial Hospital Heliport", "surface": "concrete", "wikidata": "Q61726722"}}, {"type": "way", "id": 463320703, "center": {"lat": 39.4150552, "lon": -77.9131107}, "nodes": [4585997597, 4585997596, 368381046, 4585997595, 4585997597], "tags": {"aeroway": "helipad", "faa": "WV05", "gnis:feature_id": "1558814", "name": "Veterans Affairs Medical Center Heliport", "surface": "concrete", "wikidata": "Q74844464"}}, {"type": "way", "id": 463341521, "center": {"lat": 39.4103932, "lon": -79.003238}, "nodes": [4586176386, 4586176385, 4586176384, 4586176383, 4586176386], "tags": {"aeroway": "helipad", "faa": "1WV0", "name": "Potomac Valley Hospital Heliport", "surface": "concrete", "wikidata": "Q61726760"}}, {"type": "way", "id": 464233435, "center": {"lat": 39.9448178, "lon": -76.7182088}, "nodes": [4593716192, 4593716191, 4593716190, 4593716189, 4593716192], "tags": {"aeroway": "helipad", "faa": "94PN", "name": "Wellspan York Hospital Helipad", "surface": "concrete", "wikidata": "Q61712865"}}, {"type": "way", "id": 464307667, "center": {"lat": 38.9285736, "lon": -77.0170409}, "nodes": [4594340232, 4594340231, 4594340230, 4594340229, 4594340232], "tags": {"aeroway": "helipad", "faa": "DC08", "gnis:feature_id": "531856", "name": "WHC Helipad 2", "operator": "Washington Hospital Center", "ref": "H2", "surface": "concrete"}}, {"type": "way", "id": 464307668, "center": {"lat": 38.9288689, "lon": -77.0166504}, "nodes": [4594340235, 4594340234, 368379714, 4594340233, 4594340235], "tags": {"aeroway": "helipad", "faa": "DC08", "gnis:feature_id": "531856", "name": "WHC Helipad 1", "operator": "Washington Hospital Center", "ref": "H1", "rooftop": "yes", "surface": "concrete"}}, {"type": "way", "id": 464307670, "center": {"lat": 38.9276434, "lon": -77.0142103}, "nodes": [368379715, 4594340267, 4594340266, 4594340265, 368379715], "tags": {"aeroway": "helipad", "faa": "DC17", "gnis:feature_id": "531857", "name": "Children's Hospital Heliport", "operator": "Children's National Medical Center", "ref": "DC17", "rooftop": "yes", "surface": "concrete", "wikidata": "Q61671712"}}, {"type": "way", "id": 465318059, "center": {"lat": 39.295957, "lon": -76.5920353}, "nodes": [4603028081, 4603028080, 4603028079, 4603028078, 4603028081], "tags": {"access": "private", "aeroway": "helipad", "ele": "89", "faa": "17MD", "name": "Johns Hopkins Hospital Critical Care Tower Heliport", "operator": "Johns Hopkins Hospital", "wikidata": "Q61672960"}}, {"type": "way", "id": 466201019, "center": {"lat": 36.4936462, "lon": -79.73986}, "nodes": [4610628937, 4610628936, 4610628935, 4610628934, 4610628933, 4610628932, 1042142911, 4610628931, 4610628930, 4610628929, 4610628938, 4610628928, 4610628927, 4610628926, 4610628925, 4610628924, 4610628937], "tags": {"aeroway": "helipad", "faa": "8N0", "lit": "yes", "name": "Rockingham County Heliport", "operator": "Rockingham County", "ref": "8N0", "surface": "concrete"}}, {"type": "way", "id": 466269513, "center": {"lat": 35.0326083, "lon": -78.9320483}, "nodes": [4611120714, 4611120713, 8038574670, 4611120712, 4611120711, 8038574671, 4611120714], "tags": {"aeroway": "helipad", "lit": "yes", "ref": "H1", "surface": "concrete"}}, {"type": "way", "id": 466449253, "center": {"lat": 35.1153489, "lon": -77.0642688}, "nodes": [1042134467, 4612441692, 4612441691, 8038574840, 8038574841, 4612441690, 1042134467], "tags": {"aeroway": "helipad", "faa": "NC57", "lit": "yes", "old_name": "Craven Regional Medical Center Heliport", "ref": "H1", "surface": "concrete"}}, {"type": "way", "id": 466468677, "center": {"lat": 34.3374541, "lon": -78.6963848}, "nodes": [4612607881, 9053509901, 4612607880, 4612607879, 4612607878, 4612607881], "tags": {"aeroway": "helipad"}}, {"type": "way", "id": 466525883, "center": {"lat": 34.6226864, "lon": -78.6087381}, "nodes": [4613071660, 4613071659, 369027818, 4613071658, 4613071660], "tags": {"aeroway": "helipad", "faa": "NC94", "gnis:feature_id": "997854", "lit": "yes", "name": "Bladen County Hospital Airport", "surface": "concrete", "wikidata": "Q35247076"}}, {"type": "way", "id": 466535654, "center": {"lat": 35.0059111, "lon": -78.3241378}, "nodes": [369027679, 4613152843, 4613152842, 4613152841, 369027679], "tags": {"aeroway": "helipad", "faa": "NC85", "gnis:feature_id": "997873", "lit": "yes", "old_name": "Sampson Memorial Hospital Airport", "ref": "H1", "surface": "concrete"}}, {"type": "way", "id": 466573528, "center": {"lat": 34.5494797, "lon": -77.9196008}, "nodes": [4613474864, 4613474863, 4613474862, 4613474861, 4613474864], "tags": {"aeroway": "helipad"}}, {"type": "way", "id": 466690449, "center": {"lat": 34.9647595, "lon": -77.9608644}, "nodes": [4614335759, 4614335758, 4614335757, 4614335756, 4614335759], "tags": {"aeroway": "helipad", "lit": "yes", "name": "Duplin General Hospital Heliport", "ref": "23NC", "surface": "concrete"}}, {"type": "way", "id": 466945673, "center": {"lat": 35.6087046, "lon": -77.4032722}, "nodes": [8038574762, 8038574763, 8038574764, 8038574765, 8038574762], "tags": {"aeroway": "helipad", "lit": "yes", "ref": "H2", "rooftop": "yes", "surface": "concrete"}}, {"type": "way", "id": 466988149, "center": {"lat": 35.8392872, "lon": -77.0735188}, "nodes": [4616827507, 4616827506, 4616827505, 4616827504, 4616827507], "tags": {"aeroway": "helipad"}}, {"type": "way", "id": 467002905, "center": {"lat": 35.988661, "lon": -76.9292392}, "nodes": [4616970429, 1042142919, 4616970428, 4616970427, 4616970429], "tags": {"aeroway": "helipad", "faa": "8NC0", "lit": "yes", "name": "Bertie Memorial Hospital Heliport", "ref": "8NC0", "surface": "concrete", "wikidata": "Q61670258"}}, {"type": "way", "id": 467022081, "center": {"lat": 36.1282032, "lon": -77.4291805}, "nodes": [4617140460, 4617140459, 4617140458, 8038575002, 4617140457, 4617140460], "tags": {"aeroway": "helipad", "faa": "0NC6", "ref": "H1", "surface": "concrete", "wikidata": "Q61670195"}}, {"type": "way", "id": 467027287, "center": {"lat": 35.9222095, "lon": -77.5548124}, "nodes": [4617190528, 4617190524, 4617190523, 9320503239, 9320503240, 9320503241, 9320503242, 9320503243, 4617190522, 4617190521, 4617190527, 4617190520, 4617190519, 9320503236, 9320503237, 9320503238, 4617190517, 4617190516, 4617190514, 4617190528], "tags": {"aeroway": "helipad", "faa": "50NR", "name": "ECU Health Edgecombe Hospital Heliport", "ref": "H1", "surface": "concrete"}}, {"type": "way", "id": 467040268, "center": {"lat": 36.3264485, "lon": -78.5916982}, "nodes": [4617318405, 4617318402, 4617318401, 4617318400, 4617318399, 4617318398, 4617318404, 4617318397, 4617318396, 4617318395, 4617318394, 4617318403, 4617318393, 4617318392, 4617318391, 4617318390, 4617318405], "tags": {"aeroway": "helipad"}}, {"type": "way", "id": 467080391, "center": {"lat": 35.9045973, "lon": -79.0491099}, "nodes": [4617580894, 4617580893, 4617580892, 4617580891, 4617580894], "tags": {"aeroway": "helipad"}}, {"type": "way", "id": 467080392, "center": {"lat": 35.9043527, "lon": -79.0492297}, "nodes": [4617580898, 4617580897, 4617580896, 4617580895, 4617580898], "tags": {"aeroway": "helipad"}}, {"type": "way", "id": 467224173, "center": {"lat": 36.007274, "lon": -78.937518}, "nodes": [4618703961, 4618703960, 4618703959, 4618703958, 4618703961], "tags": {"aeroway": "helipad", "ref": "H2", "surface": "concrete"}}, {"type": "way", "id": 467224174, "center": {"lat": 36.0070417, "lon": -78.9373728}, "nodes": [4618703964, 4618703963, 4618703962, 319148681, 4618703964], "tags": {"aeroway": "helipad", "ref": "H1", "rooftop": "yes", "surface": "concrete"}}, {"type": "way", "id": 467553331, "center": {"lat": 32.7828948, "lon": -79.9487598}, "nodes": [4621603429, 4622570862, 4621603428, 4621603427, 4621603429], "tags": {"aeroway": "helipad", "rooftop": "yes", "surface": "concrete"}}, {"type": "way", "id": 467807476, "center": {"lat": 33.6601692, "lon": -79.8197526}, "nodes": [4624107859, 4624107858, 4624107857, 4624107856, 4624107859], "tags": {"aeroway": "helipad"}}, {"type": "way", "id": 467837785, "center": {"lat": 33.5603943, "lon": -79.0418235}, "nodes": [4624403163, 4624403160, 4624403159, 4624403158, 4624403157, 4624403156, 4624403162, 4624403155, 4624403154, 4624403153, 2724359802, 4624403161, 4624403152, 4624403151, 4624403150, 4624403149, 4624403163], "tags": {"aeroway": "helipad", "surface": "paved"}}, {"type": "way", "id": 467839470, "center": {"lat": 33.7597013, "lon": -78.8191582}, "nodes": [4624423705, 4624423702, 4624423701, 4624423700, 4624423699, 4624423698, 4624423704, 4624423697, 4624423696, 4624423695, 4624423694, 4624423703, 4624423693, 4624423692, 4624423691, 4624423690, 4624423705], "tags": {"aeroway": "helipad"}}, {"type": "way", "id": 470300717, "center": {"lat": 38.934825, "lon": -77.074823}, "nodes": [4645011140, 4645011141, 4645011142, 4645011143, 4645011140], "tags": {"addr:city": "Washington", "addr:housenumber": "3320", "addr:postcode": "20016", "addr:state": "DC", "addr:street": "Idaho Avenue Northwest", "aeroway": "helipad", "ele": "112", "gnis:county_name": "District of Columbia", "gnis:created": "09/01/1994", "gnis:feature_id": "532041", "gnis:feature_type": "Airport", "lit": "yes", "name": "MPD 2nd Heliport", "operator": "Metropolitan Police Department", "ref": "DC06", "surface": "concrete", "wikidata": "Q61671714"}}, {"type": "way", "id": 475299885, "center": {"lat": 39.9785964, "lon": -74.5841321}, "nodes": [4690629326, 4690629327, 4690629328, 4690629329, 4690629330, 4690629331, 4690629313, 4690629314, 4690629315, 4690629320, 4690629321, 4690629322, 4690629323, 4690629324, 4690629325, 4690629316, 4690629317, 4690629318, 4690629319, 4690629326], "tags": {"aeroway": "helipad", "faa": "NJ19", "name": "Deborah Heart & Lung Center", "surface": "concrete", "wikidata": "Q61675610"}}, {"type": "way", "id": 476454535, "center": {"lat": 39.9489749, "lon": -75.158681}, "nodes": [4700406172, 4700406173, 4700406174, 4700406175, 4700406172], "tags": {"aeroway": "helipad", "faa": "9PA8", "name": "Thomas Jefferson University Hospital Heliport", "rooftop": "yes", "surface": "asphalt", "wikidata": "Q61712631"}}, {"type": "way", "id": 476670498, "center": {"lat": 34.7527831, "lon": -79.4684927}, "nodes": [4701618444, 4701618445, 4701618446, 4701618447, 4701618444], "tags": {"aeroway": "helipad", "ref": "H1", "surface": "concrete"}}, {"type": "way", "id": 479981683, "center": {"lat": 39.0330628, "lon": -76.0182831}, "nodes": [4730101556, 4730101555, 4730101554, 4730101553, 4730101556], "tags": {"aeroway": "helipad", "name": "Maryland State Police Trooper 6"}}, {"type": "way", "id": 482324591, "center": {"lat": 39.9262915, "lon": -74.2972639}, "nodes": [4751728411, 4751728412, 4751728413, 4751728414, 4751728411], "tags": {"aeroway": "helipad"}}, {"type": "way", "id": 484275164, "center": {"lat": 38.4917815, "lon": -75.163325}, "nodes": [4770165091, 4770165092, 4770165093, 4770165094, 4770165091], "tags": {"aeroway": "helipad", "name": "Roxana Fire Company Helipad"}}, {"type": "way", "id": 484843470, "center": {"lat": 39.7208788, "lon": -74.2831015}, "nodes": [4775938967, 4775938964, 4775938963, 4775938962, 4775938961, 4775938966, 4775938960, 1042150286, 4775938959, 4775938958, 4775938965, 4775938957, 4775938956, 4775938955, 4775938954, 4775938953, 4775938967], "tags": {"aeroway": "helipad", "faa": "NJ89", "name": "Southern Ocean Medical Center Heliport", "surface": "paved", "wikidata": "Q61675726"}}, {"type": "way", "id": 484844710, "center": {"lat": 39.3590118, "lon": -74.4346273}, "nodes": [4775949163, 4775949162, 4775949161, 4775949160, 4775949163], "tags": {"aeroway": "helipad", "faa": "0NJ0", "official_name": "AtlantiCare Regional Medical Center Heliport \u21161", "ref": "1", "rooftop": "yes", "surface": "paved", "wikidata": "Q61675577"}}, {"type": "way", "id": 484847250, "center": {"lat": 39.3145693, "lon": -74.5931486}, "nodes": [1042142791, 4775967144, 4775967143, 4775967142, 1042142791], "tags": {"aeroway": "helipad", "faa": "87NJ", "name": "Shore Memorial Hospital Heliport", "rooftop": "yes", "surface": "concrete", "wikidata": "Q61675819"}}, {"type": "way", "id": 484916697, "center": {"lat": 39.4365636, "lon": -75.2211576}, "nodes": [4776643052, 4776643051, 1042142920, 4776643050, 4776643052], "tags": {"aeroway": "helipad", "faa": "8NJ4", "name": "South Jersey Hospital System Heliport", "surface": "asphalt", "wikidata": "Q61675605"}}, {"type": "way", "id": 484919659, "center": {"lat": 39.5891973, "lon": -75.1815261}, "nodes": [4776673989, 368396028, 4776673988, 4776673987, 4776673989], "tags": {"aeroway": "helipad", "faa": "42NJ", "gnis:feature_id": "884731", "name": "Elmer Community Hospital Heliport", "surface": "concrete", "wikidata": "Q61675645"}}, {"type": "way", "id": 484942383, "center": {"lat": 39.9409945, "lon": -75.1161792}, "nodes": [4776883947, 3669407521, 4776883946, 368395903, 4776883947], "tags": {"aeroway": "helipad", "faa": "NJ17", "gnis:feature_id": "884690", "name": "Cooper Medical Center Heliport", "rooftop": "yes", "wikidata": "Q61675616"}}, {"type": "way", "id": 490448456, "center": {"lat": 36.8374353, "lon": -76.3449902}, "nodes": [4826301831, 4826301832, 4826301833, 4826301834, 4826301831], "tags": {"aeroway": "helipad"}}, {"type": "way", "id": 497119160, "center": {"lat": 38.2916254, "lon": -76.4326311}, "nodes": [4887346827, 4887346828, 4887346826, 4887346825, 4887346827], "tags": {"aeroway": "helipad"}}, {"type": "way", "id": 502518609, "center": {"lat": 39.0633064, "lon": -77.8900677}, "nodes": [4929748424, 4929748425, 4929748426, 4929748427, 4929748424], "tags": {"aeroway": "helipad", "name": "Bluegrass Heliport", "ref": "M4", "wikidata": "Q61725287"}}, {"type": "way", "id": 502765543, "center": {"lat": 39.0596851, "lon": -77.8833168}, "nodes": [4931448007, 4931448008, 4931448009, 4931448010, 4931448011, 4931448007], "tags": {"aeroway": "helipad", "ref": "M1"}}, {"type": "way", "id": 502802503, "center": {"lat": 39.0623806, "lon": -77.8991748}, "nodes": [4931755050, 4931755051, 4931755052, 4931755053, 4931755050], "tags": {"aeroway": "helipad", "ref": "M7"}}, {"type": "way", "id": 506141703, "center": {"lat": 38.6383524, "lon": -77.2864995}, "nodes": [4959188299, 4959189526, 4959188286, 4959189523, 4959188299], "tags": {"aeroway": "helipad"}}, {"type": "way", "id": 515361221, "center": {"lat": 37.4174159, "lon": -79.1706596}, "nodes": [5033193586, 5033193584, 5033193583, 5033193582, 5033193581, 5033193585, 5033193580, 5033193579, 5033193578, 5033193577, 5033193576, 368948371, 5033193575, 5033193574, 5033193573, 5033193572, 5033193586], "tags": {"aeroway": "helipad", "faa": "50VA", "gnis:feature_id": "1501662", "name": "L G Hospital Heliport", "surface": "concrete", "wikidata": "Q61725457"}}, {"type": "way", "id": 515613360, "center": {"lat": 37.2511739, "lon": -79.9427836}, "nodes": [1042142331, 5035045421, 5035045220, 368947888, 5035045219, 5035045218, 5035045217, 5035045216, 1042142331], "tags": {"aeroway": "helipad", "faa": "VG62", "gnis:feature_id": "1498802", "name": "Carilion Roanoke Memorial Hospital Heliport", "rooftop": "yes", "surface": "metal", "wikidata": "Q61725557"}}, {"type": "way", "id": 515950444, "center": {"lat": 39.0743531, "lon": -77.4790983}, "nodes": [5037652091, 5037652089, 5037652088, 5037652087, 5037652086, 5037652085, 651137348, 5037652084, 5037652083, 5037652082, 5037652090, 5037652081, 5037652080, 5037652079, 5037652078, 5037652077, 5037652091], "tags": {"aeroway": "helipad", "faa": "34VA", "name": "Inova Loudoun Hospital Heliport", "surface": "concrete", "wikidata": "Q61725443"}}, {"type": "way", "id": 516253613, "center": {"lat": 38.822366, "lon": -77.1042667}, "nodes": [6518500109, 6518500110, 6518500111, 6518500112, 6518500113, 6518500114, 6518500115, 6518500116, 5040024215, 5040024214, 6518500102, 6518500117, 6518500103, 6518500104, 6518500105, 6518500106, 6518500107, 6518500108, 5040024213, 368948464, 6518500109], "tags": {"aeroway": "helipad", "faa": "9VA2", "gnis:feature_id": "1501649", "name": "Inova Alexandria Hospital Heliport", "surface": "asphalt", "wikidata": "Q61725253"}}, {"type": "way", "id": 516393894, "center": {"lat": 38.8573875, "lon": -77.2264172}, "nodes": [5041114636, 5041114635, 5041114634, 5041114633, 5041114636], "tags": {"aeroway": "helipad", "rooftop": "yes", "surface": "concrete"}}, {"type": "way", "id": 516393905, "center": {"lat": 38.8571347, "lon": -77.2278032}, "nodes": [5041115072, 368946746, 5041115071, 5041115070, 5041115072], "tags": {"aeroway": "helipad", "faa": "72VA", "gnis:feature_id": "1498664", "name": "Inova Fairfax Hospital Heliport", "ref": "H3", "rooftop": "yes", "surface": "metal", "wikidata": "Q61725371"}}, {"type": "way", "id": 516491079, "center": {"lat": 37.9018435, "lon": -76.8769621}, "nodes": [5041918944, 5041918943, 5041918942, 1042142312, 5041918944], "tags": {"aeroway": "helipad", "faa": "VG49", "name": "Tappahannock Hospital Heliport", "surface": "concrete", "wikidata": "Q61725594"}}, {"type": "way", "id": 516501601, "center": {"lat": 37.7018598, "lon": -76.3878997}, "nodes": [5042024988, 368946508, 5042024987, 5042024986, 5042024988], "tags": {"aeroway": "helipad", "faa": "49VA", "gnis:feature_id": "1498707", "name": "Rappahannock General Hospital Heliport", "surface": "concrete", "wikidata": "Q61725436"}}, {"type": "way", "id": 516514272, "center": {"lat": 36.8666929, "lon": -76.0235776}, "nodes": [5042117743, 10145036675, 368948435, 5042117742, 5042117741, 5042117743], "tags": {"aeroway": "helipad", "faa": "2VA7", "gnis:feature_id": "1501670", "name": "Virginia Beach General Hospital Heliport", "surface": "concrete", "wikidata": "Q61725606"}}, {"type": "way", "id": 516723437, "center": {"lat": 37.0562587, "lon": -76.3892018}, "nodes": [1508354379, 5043880761, 5043880760, 5043880759, 1508354379], "tags": {"aeroway": "helipad", "surface": "concrete"}}, {"type": "way", "id": 516733909, "center": {"lat": 37.2502997, "lon": -76.66893}, "nodes": [5043960487, 5043960486, 3725550994, 5043960485, 5043960487], "tags": {"aeroway": "helipad"}}, {"type": "way", "id": 516845338, "center": {"lat": 37.335443, "lon": -76.7406644}, "nodes": [5044879201, 3720798750, 5044879200, 5044879199, 5044879201], "tags": {"aeroway": "helipad", "faa": "2VG9", "name": "Sentara Williamsburg Regional Medical Center Heliport", "surface": "concrete", "wikidata": "Q61725632"}}, {"type": "way", "id": 516930724, "center": {"lat": 37.5397244, "lon": -77.4294632}, "nodes": [5045640164, 5045640163, 5045640162, 5045640161, 5045640164], "tags": {"aeroway": "helipad", "faa": "8VA0", "name": "Virginia Commonwealth University Health System Heliport", "rooftop": "yes", "surface": "metal", "wikidata": "Q61725552"}}, {"type": "way", "id": 517020492, "center": {"lat": 37.4960927, "lon": -77.4623131}, "nodes": [5046215443, 5046215442, 5046215441, 368947984, 5046215443], "tags": {"aeroway": "helipad", "faa": "0VA6", "gnis:feature_id": "1498796", "name": "McGuire Virginia Medical Center Heliport", "surface": "asphalt", "wikidata": "Q61725547"}}, {"type": "way", "id": 517063220, "center": {"lat": 37.5823895, "lon": -77.5135952}, "nodes": [5046602217, 5046602216, 5046602215, 5046602214, 5046602217], "tags": {"aeroway": "helipad", "faa": "37VA", "name": "Saint Mary's Hospital Heliport", "surface": "asphalt", "wikidata": "Q61725550"}}, {"type": "way", "id": 517063221, "center": {"lat": 37.6030821, "lon": -77.541462}, "nodes": [5046602432, 5046602430, 5046602429, 5046602428, 5046602427, 5046602426, 5046602431, 5046602425, 5046602424, 5046602423, 5046602422, 368947152, 5046602421, 5046602220, 5046602219, 5046602218, 5046602432], "tags": {"aeroway": "helipad", "faa": "60VA", "gnis:feature_id": "1498786", "name": "HDH Heliport", "surface": "concrete", "wikidata": "Q61725543"}}, {"type": "way", "id": 517073862, "center": {"lat": 37.3082727, "lon": -77.2901169}, "nodes": [5046684306, 5046684305, 5046684304, 5046684303, 5046684306], "tags": {"aeroway": "helipad"}}, {"type": "way", "id": 517084932, "center": {"lat": 36.7026392, "lon": -77.5369632}, "nodes": [5046771006, 368946724, 5046771005, 5046771004, 5046771006], "tags": {"aeroway": "helipad"}}, {"type": "way", "id": 517464446, "center": {"lat": 36.9932975, "lon": -79.8899885}, "nodes": [5049689434, 5049689433, 5049689432, 5049689431, 1042142307, 5049689430, 5049689429, 5049689428, 5049689434], "tags": {"aeroway": "helipad", "faa": "VG46", "name": "Franklin County Memorial Hospital Heliport", "surface": "concrete", "wikidata": "Q61725561"}}, {"type": "way", "id": 517465459, "center": {"lat": 36.6998866, "lon": -79.8663236}, "nodes": [368944570, 5049704031, 5049704030, 5049704029, 5049704028, 5049704027, 5049704033, 5049704026, 5049704025, 5049704024, 5049704032, 5049704023, 5049704022, 5049704021, 5049703520, 5049703519, 368944570], "tags": {"aeroway": "helipad", "faa": "40VA", "gnis:feature_id": "1480235", "name": "Martinsville-Henry County Memorial Hospital Heliport", "surface": "concrete", "wikidata": "Q61725476"}}, {"type": "way", "id": 517666054, "center": {"lat": 39.1954234, "lon": -78.1919861}, "nodes": [5051267440, 5051267438, 5051267437, 5051267436, 5051267435, 5051267434, 5051267439, 5051267433, 5051267432, 5051267431, 368948664, 5051267430, 5051267429, 5051267428, 5051267427, 5051267426, 5051267440], "tags": {"aeroway": "helipad", "faa": "2VA4", "gnis:feature_id": "1498854", "name": "Winchester Medical Center Heliport", "surface": "concrete", "wikidata": "Q61725634"}}, {"type": "way", "id": 517722469, "center": {"lat": 38.8687446, "lon": -78.5125192}, "nodes": [5051704747, 5051704744, 5051704743, 5051704742, 5051704746, 5051704741, 5051704740, 5051704739, 5051704738, 5051704737, 5051704736, 5051704745, 5051704735, 5051704734, 5051704733, 5051704732, 5051704747], "tags": {"aeroway": "helipad", "surface": "concrete"}}, {"type": "way", "id": 517722470, "center": {"lat": 38.8713495, "lon": -78.5133316}, "nodes": [5051704751, 5051704750, 1042153307, 5051704749, 5051704751], "tags": {"aeroway": "helipad", "faa": "VG14", "name": "Philip M Grabill Jr Memorial Heliport", "surface": "concrete", "wikidata": "Q61725641"}}, {"type": "way", "id": 517749691, "center": {"lat": 38.4546233, "lon": -78.0143195}, "nodes": [5051926031, 368945714, 5051926030, 5051926029, 5051926031], "tags": {"aeroway": "helipad", "faa": "VA29", "gnis:feature_id": "1498649", "name": "Novant Health UVA Culpeper Medical Center Heliport", "surface": "concrete", "wikidata": "Q61725347"}}, {"type": "way", "id": 517967840, "center": {"lat": 37.7793529, "lon": -79.4411597}, "nodes": [5053610905, 5053610903, 5053610902, 5053610901, 5053610900, 5053610904, 5053610899, 5053610898, 5053610897, 5053610896, 1042142994, 5053610895, 5053610894, 5053610893, 5053610892, 5053610891, 5053610905], "tags": {"aeroway": "helipad", "faa": "8VA7", "name": "Carilion Stonewall Jackson Hospital Heliport", "wikidata": "Q61725445"}}, {"type": "way", "id": 518020216, "center": {"lat": 37.7926309, "lon": -79.8809065}, "nodes": [5054061910, 5054061909, 368946625, 5054061908, 5054061910], "tags": {"aeroway": "helipad", "faa": "5VA1", "gnis:feature_id": "1498719", "name": "Alleghany Regional Hospital Heliport", "surface": "concrete", "wikidata": "Q61725455"}}, {"type": "way", "id": 523121024, "center": {"lat": 38.908751, "lon": -76.8668715}, "nodes": [5093473447, 5093473448, 5093473449, 5093473450, 5093473451, 5093473433, 5093473434, 5093473435, 5093473436, 5093473441, 5093473442, 5093473443, 5093473444, 5093473445, 5093473446, 5093473437, 5093473438, 5093473439, 5093473440, 5093473447], "tags": {"aeroway": "helipad"}}, {"type": "way", "id": 532063133, "center": {"lat": 39.5991918, "lon": -77.7643505}, "nodes": [5163836271, 1042142558, 5163836270, 5163836269, 5163836271], "tags": {"aeroway": "helipad", "name": "Allegheny Power-Hagerstown Corp Ctr Heliport", "source": "ourairports.com"}}, {"type": "way", "id": 532428824, "center": {"lat": 38.4026767, "lon": -76.3845478}, "nodes": [5166537630, 5166537629, 5166537655, 5166537628, 5166537627, 5166537662, 5166537630], "tags": {"aeroway": "helipad"}}, {"type": "way", "id": 539891139, "center": {"lat": 39.3584093, "lon": -74.4346382}, "nodes": [5223603805, 5223603806, 5223603807, 5223603808, 5223603805], "tags": {"aeroway": "helipad", "official_name": "AtlantiCare Regional Medical Center Heliport \u21162", "ref": "2"}}, {"type": "way", "id": 542282217, "center": {"lat": 36.3314501, "lon": -75.8135944}, "nodes": [5242916191, 5242916195, 5242916192, 5242916197, 5242916193, 5242916194, 5242916191], "tags": {"aeroway": "helipad", "name": "Corolla Fire Station Heliport", "ref": "NR99", "surface": "concrete", "wikidata": "Q61669913"}}, {"type": "way", "id": 544496454, "center": {"lat": 35.0219686, "lon": -79.1490035}, "nodes": [5263410796, 8038574868, 5263410797, 5263410798, 5263410799, 5263410796], "tags": {"aeroway": "helipad", "faa": "9NC6", "lit": "yes", "ref": "H1", "surface": "concrete"}}, {"type": "way", "id": 544913483, "center": {"lat": 39.4756656, "lon": -77.9794852}, "nodes": [5267032821, 5267032822, 5267032823, 5267032824, 5267032821], "tags": {"aeroway": "helipad", "name": "City Hospital Incorporated Heliport", "wikidata": "Q61726766"}}, {"type": "way", "id": 546095957, "center": {"lat": 38.8671589, "lon": -76.9920712}, "nodes": [5277494809, 5277494808, 5277494807, 5277494806, 5277494790, 8256402742, 5277494789, 5277494809], "tags": {"aeroway": "helipad", "faa": "DC03", "lit": "yes", "operator": "United States Park Police", "ref": "H2", "surface": "concrete"}}, {"type": "way", "id": 548259420, "center": {"lat": 35.9222906, "lon": -78.988029}, "nodes": [1042142720, 5296684726, 5296684727, 5296684728, 1042142720], "tags": {"aeroway": "helipad", "lit": "yes", "name": "Holly Green Heliport", "ref": "83NC", "source": "ourairports.com", "surface": "grass"}}, {"type": "way", "id": 548797308, "center": {"lat": 39.8997799, "lon": -74.9354317}, "nodes": [5301608411, 5301608408, 5301608409, 5301608410, 5301608411], "tags": {"aeroway": "helipad"}}, {"type": "way", "id": 554241229, "center": {"lat": 39.9330339, "lon": -77.6457334}, "nodes": [368990898, 5348976107, 5348976106, 5348976105, 5348976104, 5348976103, 5348976102, 5348976109, 5348976101, 5348976100, 5348976099, 5348976098, 5348976097, 5348976096, 5348976108, 5348976095, 5348976094, 5348976093, 5348976092, 5348976091, 368990898], "tags": {"aeroway": "helipad", "faa": "PA60", "gnis:feature_id": "1213714", "name": "Chambersburg Hospital Heliport", "surface": "asphalt", "wikidata": "Q61724456"}}, {"type": "way", "id": 554707966, "center": {"lat": 39.9667632, "lon": -76.6923008}, "nodes": [5353113754, 5353113753, 5353113752, 5353113751, 5353113754], "tags": {"aeroway": "helipad"}}, {"type": "way", "id": 555448871, "center": {"lat": 39.8225781, "lon": -75.8881219}, "nodes": [5358980417, 2096206653, 5358980416, 5358980415, 5358980417], "tags": {"aeroway": "helipad", "faa": "15PS", "name": "Jennersville Hospital Heliport", "source": "Personal Knowledge", "surface": "asphalt", "wikidata": "Q61712833"}}, {"type": "way", "id": 555771215, "center": {"lat": 39.9135912, "lon": -75.4317003}, "nodes": [1042134033, 5361635495, 5361635494, 5361635493, 1042134033], "tags": {"aeroway": "helipad", "faa": "6PS4c", "name": "Riddle Hospital Heliport", "surface": "concrete", "wikidata": "Q61712446"}}, {"type": "way", "id": 555775779, "center": {"lat": 39.8568571, "lon": -75.3688858}, "nodes": [5361660842, 5361660839, 5361660838, 1722450265, 5361660837, 5361660841, 5361660836, 5361660835, 5361660834, 5361660833, 5361660840, 1042135572, 5361660832, 5361660831, 5361660830, 5361660829, 5361660842], "tags": {"aeroway": "helipad", "faa": "PS65", "name": "Crozer-Chester Heliport", "surface": "concrete", "wikidata": "Q61712158"}}, {"type": "way", "id": 555962599, "center": {"lat": 39.9576184, "lon": -75.1638244}, "nodes": [5363376625, 5363376624, 5363376623, 3526051269, 5363376625], "tags": {"aeroway": "helipad", "faa": "1PS7", "name": "Hahnemann University Hospital Heliport", "rooftop": "yes", "surface": "concrete", "wikidata": "Q61712613"}}, {"type": "way", "id": 556040039, "center": {"lat": 39.9258632, "lon": -75.1702494}, "nodes": [5363966658, 4379394797, 5363966657, 5363966656, 5363966658], "tags": {"aeroway": "helipad", "name": "CHP Helipad", "rooftop": "yes"}}, {"type": "way", "id": 556111422, "center": {"lat": 39.9482194, "lon": -75.1938801}, "nodes": [5364574804, 5364574803, 5364574802, 5364574801, 5364574804], "tags": {"aeroway": "helipad", "faa": "9PN2", "name": "Children's Hospital of Philadelphia Heliport", "rooftop": "yes", "surface": "concrete", "wikidata": "Q61712610"}}, {"type": "way", "id": 556111429, "center": {"lat": 39.9584333, "lon": -75.1986351}, "nodes": [5364574961, 5364574960, 5364574959, 5364574958, 5364574961], "tags": {"aeroway": "helipad", "faa": "PA39", "name": "Penn Presbyterian Medical Center Heliport", "ref": "H2", "rooftop": "yes", "wikidata": "Q61724470"}}, {"type": "way", "id": 556111430, "center": {"lat": 39.9591867, "lon": -75.1976475}, "nodes": [5364574965, 5364574964, 5364574963, 5364574962, 5364574965], "tags": {"aeroway": "helipad", "faa": "PA39", "name": "Penn Presbyterian Medical Center Heliport", "ref": "H1", "rooftop": "yes", "wikidata": "Q61724470"}}, {"type": "way", "id": 564958724, "center": {"lat": 35.3484482, "lon": -75.5055988}, "nodes": [5442218040, 5442218041, 5442218042, 5442218060, 5442218043, 5442218040], "tags": {"access": "private", "aeroway": "helipad"}}, {"type": "way", "id": 565100318, "center": {"lat": 39.3940896, "lon": -76.291347}, "nodes": [5443281772, 5443281771, 5443281770, 5443281769, 5443281772], "tags": {"aeroway": "helipad", "name": "H1", "surface": "asphalt"}}, {"type": "way", "id": 567537433, "center": {"lat": 39.4766147, "lon": -76.1142988}, "nodes": [5462617947, 5462617946, 5462617945, 5462617944, 5462617947], "tags": {"aeroway": "helipad"}}, {"type": "way", "id": 568546412, "center": {"lat": 39.1780302, "lon": -76.5396565}, "nodes": [5469624002, 5469624001, 5469624000, 5469623999, 5469624002], "tags": {"aeroway": "helipad"}}, {"type": "way", "id": 574678342, "center": {"lat": 39.2875715, "lon": -76.6257466}, "nodes": [369002502, 5515699729, 5515699730, 5515699731, 369002502], "tags": {"aeroway": "helipad", "faa": "MD71", "gnis:feature_id": "595237", "name": "University of Maryland Shock Trauma Center Helipad", "rooftop": "yes", "surface": "aluminium", "wikidata": "Q61672967"}}, {"type": "way", "id": 574683238, "center": {"lat": 39.2903312, "lon": -76.6076791}, "nodes": [369002506, 5515726415, 5515726416, 5515726417, 5515726418, 5515726419, 5515726420, 5515726403, 5515726404, 5515726407, 5515726408, 5515726409, 5515726410, 5515726411, 5515726412, 5515726413, 5515726414, 5515726405, 5515726406, 369002506], "tags": {"access": "private", "addr:state": "MD", "aeroway": "helipad", "ele": "52", "faa": "MD10", "gnis:county_name": "Baltimore", "gnis:created": "09/01/1992", "gnis:feature_id": "595240", "gnis:feature_type": "Airport", "lit": "yes", "name": "Baltimore Police Department Heliport", "surface": "concrete", "wikidata": "Q61672956"}}, {"type": "way", "id": 582409505, "center": {"lat": 39.1547212, "lon": -77.0550122}, "nodes": [5570166538, 779136283, 5570166537, 5570166536, 5570166538], "tags": {"aeroway": "helipad", "faa": "18MD", "name": "Medstar Montgomery Medical Center Heliport", "surface": "concrete", "wikidata": "Q61673083"}}, {"type": "way", "id": 583831641, "center": {"lat": 39.7355201, "lon": -75.0651856}, "nodes": [5581569352, 5581569351, 5581569350, 5581569349, 5581569352], "tags": {"aeroway": "helipad", "rooftop": "yes"}}, {"type": "way", "id": 583993882, "center": {"lat": 36.3244628, "lon": -76.2168813}, "nodes": [1042134551, 5582873003, 5582873002, 5582873001, 8038574626, 1042134551], "tags": {"aeroway": "helipad", "faa": "NC98", "lit": "no", "ref": "H1", "surface": "concrete"}}, {"type": "way", "id": 583999519, "center": {"lat": 36.4320941, "lon": -77.6451377}, "nodes": [1042134436, 5582917445, 8038574928, 5582917444, 8038574927, 5582917443, 1042134436], "tags": {"aeroway": "helipad", "faa": "NC51", "lit": "yes", "name": "Halifax Regional Medical Center Heliport", "ref": "NC51", "surface": "concrete"}}, {"type": "way", "id": 584166639, "center": {"lat": 35.7860154, "lon": -78.5887108}, "nodes": [5584281674, 5584281670, 5584281669, 5584281668, 5584281667, 5584281666, 5584281673, 5584281665, 5584281664, 5584281663, 5584281672, 5584281662, 8038574893, 5584281661, 5584281660, 5584281671, 5584281659, 5584281658, 5584281657, 8038574873, 5584281656, 5584281674], "tags": {"aeroway": "helipad", "lit": "yes", "ref": "H1", "surface": "concrete"}}, {"type": "way", "id": 584803390, "center": {"lat": 32.877586, "lon": -79.7704954}, "nodes": [5589524264, 5589524263, 5589524262, 5589524261, 5589524264], "tags": {"aeroway": "helipad", "surface": "concrete"}}, {"type": "way", "id": 586611497, "center": {"lat": 38.8117845, "lon": -76.7453975}, "nodes": [5604408732, 5604408731, 5604408730, 5604408729, 5604408732], "tags": {"aeroway": "helipad"}}, {"type": "way", "id": 588814755, "center": {"lat": 39.9738667, "lon": -74.9171636}, "nodes": [5623291201, 5623291202, 5623291203, 5623291204, 5623291205, 5623291206, 5623291207, 5623291208, 5623291209, 5623291210, 5623291211, 5623291212, 5623291213, 5623291214, 5623291215, 5623291216, 5623291217, 5623291201], "tags": {"aeroway": "helipad"}}, {"type": "way", "id": 589916088, "center": {"lat": 35.5947152, "lon": -75.4699606}, "nodes": [5633016921, 5633016720, 5633016719, 5633016718, 5633016921], "tags": {"aeroway": "helipad", "lit": "yes", "name": "Rodanthe Dare County Heliport", "ref": "00NR", "surface": "concrete"}}, {"type": "way", "id": 591380574, "center": {"lat": 39.5922106, "lon": -75.4436939}, "nodes": [5645954106, 5645954105, 5645954104, 5645954103, 5645954106], "tags": {"aeroway": "helipad", "surface": "asphalt"}}, {"type": "way", "id": 591932900, "center": {"lat": 34.9014235, "lon": -79.7071374}, "nodes": [5650697027, 5650697024, 5650697023, 5650697022, 5650697026, 5650697021, 5650691620, 5650691619, 5650691618, 5650697025, 5650691617, 5650691616, 5650691615, 5650691614, 5650697027], "tags": {"aeroway": "helipad", "surface": "concrete"}}, {"type": "way", "id": 591934347, "center": {"lat": 35.2049934, "lon": -79.4582089}, "nodes": [5650707630, 5650707629, 5650707628, 5650707627, 5650707630], "tags": {"aeroway": "helipad", "faa": "0NC2", "name": "Moore Regional Hospital Heliport", "ref": "0NC2", "rooftop": "yes", "surface": "metal", "wikidata": "Q61670147"}}, {"type": "way", "id": 592105643, "center": {"lat": 35.7223664, "lon": -79.4216697}, "nodes": [5651793137, 5651793136, 5651793135, 5651793134, 5651793137], "tags": {"aeroway": "helipad", "surface": "concrete"}}, {"type": "way", "id": 595272421, "center": {"lat": 39.9381161, "lon": -78.0074148}, "nodes": [5673960882, 5673960879, 5673960878, 5673960877, 5673960876, 5673960875, 5673960881, 5673960874, 5673960873, 5673960872, 5673960871, 5673960870, 5673960880, 5673960869, 5673960868, 5673960867, 5673960866, 5673960865, 5673960864, 5673960863, 5673960882], "tags": {"aeroway": "helipad", "faa": "1PN4", "name": "Fulton County Medical Center Heliport", "surface": "concrete", "wikidata": "Q61712436"}}, {"type": "way", "id": 598227600, "center": {"lat": 39.4557006, "lon": -75.6839428}, "nodes": [5694036363, 5694036362, 5694036361, 5694036360, 5694036363], "tags": {"aeroway": "heliport", "name": "Christina Care Health System Heliport", "operator": "Christina Care Health Services", "operator:type": "private", "wikidata": "Q61671740"}}, {"type": "way", "id": 604007656, "center": {"lat": 37.3527109, "lon": -79.5175772}, "nodes": [5732189410, 5732189409, 5732189408, 368945040, 5732189410], "tags": {"aeroway": "helipad", "faa": "VA03", "gnis:feature_id": "1498590", "name": "Hospital Heliport", "surface": "concrete", "wikidata": "Q61725275"}}, {"type": "way", "id": 624981479, "center": {"lat": 39.4648579, "lon": -74.5659367}, "nodes": [5901030635, 5901030636, 5901030637, 5901030638, 5901030635], "tags": {"aeroway": "helipad"}}, {"type": "way", "id": 629695383, "center": {"lat": 39.2880658, "lon": -76.6257172}, "nodes": [5946678466, 5946678467, 5946678468, 5946678469, 5946678466], "tags": {"aeroway": "helipad"}}, {"type": "way", "id": 631729126, "center": {"lat": 35.632589, "lon": -77.3828392}, "nodes": [5965420496, 5965420495, 5965420494, 5965420493, 5965420496], "tags": {"aeroway": "helipad"}}, {"type": "way", "id": 641581249, "center": {"lat": 38.8663182, "lon": -77.0682285}, "nodes": [6041765793, 6041765794, 6041765795, 6041765796, 6041765793], "tags": {"aeroway": "helipad", "description": "Virginia State Police Helipad"}}, {"type": "way", "id": 641630576, "center": {"lat": 38.8350799, "lon": -76.9849109}, "nodes": [6042113315, 6042113316, 6042113298, 6042113299, 6042113300, 6042113301, 6042113302, 6042113303, 6042113311, 6042113312, 6042113313, 6042113314, 6042113304, 6042113305, 6042113306, 6042113307, 6042113308, 6042113309, 6042113310, 6042113315], "tags": {"aeroway": "helipad", "note": "Driveway doubles as helipad\n"}}, {"type": "way", "id": 662669624, "center": {"lat": 36.6641614, "lon": -76.3243654}, "nodes": [6203652281, 6203652279, 6203652278, 6203652280, 6203652281], "tags": {"aeroway": "helipad", "surface": "concrete"}}, {"type": "way", "id": 669238000, "center": {"lat": 35.8127305, "lon": -78.7123507}, "nodes": [6266889503, 6266889504, 6266889505, 6266889506, 6266889503], "tags": {"aeroway": "helipad"}}, {"type": "way", "id": 672589258, "center": {"lat": 39.2934487, "lon": -76.5428559}, "nodes": [6298462730, 6298462729, 6298462728, 6298462727, 6298462730], "tags": {"aeroway": "helipad"}}, {"type": "way", "id": 673015970, "center": {"lat": 38.0311891, "lon": -78.4981441}, "nodes": [6302587554, 6302587553, 6302587552, 6302587551, 6302587554], "tags": {"aeroway": "helipad", "building:part": "yes", "name": "University of Virginia Hospital Heliport", "wikidata": "Q61725316"}}, {"type": "way", "id": 681005212, "center": {"lat": 39.9938308, "lon": -75.7852208}, "nodes": [6377000319, 6377000320, 6377000321, 6377000322, 6377000323, 6377000324, 6377000325, 6377000326, 6377000308, 6377000309, 6377000312, 6377000313, 6377000314, 6377000315, 6377000316, 6377000317, 6377000318, 6377000310, 6377000311, 6377000319], "tags": {"aeroway": "helipad"}}, {"type": "way", "id": 687933641, "center": {"lat": 34.9080689, "lon": -76.8799924}, "nodes": [6449365334, 6449365335, 6449365293, 6449365336, 6449365337, 6449365338, 6449365334], "tags": {"aeroway": "helipad", "name": "North VSTOL Pad 1"}}, {"type": "way", "id": 687933644, "center": {"lat": 34.8941851, "lon": -76.8795056}, "nodes": [6449365344, 6449365291, 6449365345, 6449365346, 6449365347, 6449365344], "tags": {"aeroway": "helipad", "name": "South VSTOL Pad 4"}}, {"type": "way", "id": 693851693, "center": {"lat": 36.863375, "lon": -76.4502916}, "nodes": [6514434148, 6514434146, 6514434145, 6514434147, 6514434148], "tags": {"aeroway": "helipad"}}, {"type": "way", "id": 698105620, "center": {"lat": 39.9404713, "lon": -75.106678}, "nodes": [6556213544, 6556213541, 6556213542, 6556213543, 6556213544], "tags": {"aeroway": "helipad", "surface": "paved"}}, {"type": "way", "id": 703429263, "center": {"lat": 39.3464702, "lon": -79.6679305}, "nodes": [6610203925, 6605948036, 6605948037, 6610203924, 6610203925], "tags": {"aeroway": "helipad"}}, {"type": "way", "id": 703512871, "center": {"lat": 34.1591463, "lon": -79.7508981}, "nodes": [6606728228, 6606728229, 6606728230, 6606728231, 6606728228], "tags": {"aeroway": "helipad", "faa": "33SC", "lit": "yes", "name": "Triad Carolinas Hospital Heliport", "surface": "concrete", "wikidata": "Q61724575"}}, {"type": "way", "id": 703513400, "center": {"lat": 33.8659917, "lon": -78.6647297}, "nodes": [6606787451, 6606787452, 6606787453, 6606787454, 6606787451], "tags": {"aeroway": "helipad", "faa": "03SC", "lit": "yes", "name": "Seacoast Medical Center Heliport", "surface": "concrete", "wikidata": "Q61724614"}}, {"type": "way", "id": 710973168, "center": {"lat": 39.7843625, "lon": -77.2560117}, "nodes": [368990964, 6683895301, 6683895302, 6683895303, 368990964], "tags": {"addr:state": "PA", "aeroway": "helipad", "ele": "172", "gnis:county_name": "Adams", "gnis:created": "08/30/1990", "gnis:feature_id": "1213706", "gnis:feature_type": "Airport", "name": "Battlefield Heliport", "wikidata": "Q61724461"}}, {"type": "way", "id": 711549046, "center": {"lat": 39.8247456, "lon": -77.235866}, "nodes": [6689894306, 6689894307, 6689894308, 6689894309, 6689894310, 6689894311, 6689894312, 6689894313, 6689894314, 6689894315, 6689894316, 6689894317, 6689894318, 6689894319, 7319558562, 6689894320, 6689894321, 6689894322, 6689894323, 6689894324, 6689894306], "tags": {"aeroway": "helipad", "faa": "PA11", "name": "Gettysburg Hospital Heliport", "surface": "asphalt", "wikidata": "Q61712281"}}, {"type": "way", "id": 720600231, "center": {"lat": 39.2093439, "lon": -77.107669}, "nodes": [6762424630, 6762424627, 6762424628, 6762424629, 6762424630], "tags": {"aeroway": "helipad"}}, {"type": "way", "id": 724205585, "center": {"lat": 38.6327814, "lon": -75.1593712}, "nodes": [6791884268, 6791884269, 6791884270, 6791884271, 6791884268], "tags": {"aeroway": "helipad"}}, {"type": "way", "id": 730430661, "center": {"lat": 37.6962822, "lon": -75.7232508}, "nodes": [6842563870, 6842563871, 6842563872, 6842563873, 6842563870], "tags": {"aeroway": "helipad"}}, {"type": "way", "id": 741774524, "center": {"lat": 39.8493475, "lon": -77.1840019}, "nodes": [6943985130, 6943985131, 6943985132, 6943985133, 6943985130], "tags": {"aeroway": "helipad", "name": "Helicopter Applicators"}}, {"type": "way", "id": 742336576, "center": {"lat": 33.9533903, "lon": -78.0123976}, "nodes": [6949777411, 6949777410, 6949777409, 8038575017, 6949777408, 6949777411], "tags": {"aeroway": "helipad", "lit": "yes", "name": "Brunswick Nuclear Plant Helipad Heliport", "ref": "NR15", "surface": "concrete", "wikidata": "Q61670208"}}, {"type": "way", "id": 749302882, "center": {"lat": 39.9497948, "lon": -75.1930689}, "nodes": [7007051070, 7007051073, 635437052, 7007051071, 7007051070], "tags": {"aeroway": "helipad", "area": "yes", "name": "Penn 12-D43", "source": "Mapbox"}}, {"type": "way", "id": 749914346, "center": {"lat": 35.1308027, "lon": -78.9410863}, "nodes": [7012401362, 7012401361, 7012401360, 7012401359, 7012401358, 7012401357, 7012401356, 7012401362], "tags": {"aeroway": "helipad"}}, {"type": "way", "id": 749914347, "center": {"lat": 35.1306981, "lon": -78.942908}, "nodes": [7012401368, 7012401367, 7012401366, 7012401365, 7012401364, 7012401363, 7012401368], "tags": {"aeroway": "helipad"}}, {"type": "way", "id": 749914383, "center": {"lat": 35.125139, "lon": -78.9336896}, "nodes": [7012415612, 7012415611, 7012415610, 7012415609, 7012415608, 7012415607, 7012415612], "tags": {"aeroway": "helipad"}}, {"type": "way", "id": 758291776, "center": {"lat": 35.6709144, "lon": -75.8835013}, "nodes": [7081743430, 7081743431, 7081743432, 7081743433, 7081743430], "tags": {"aeroway": "helipad"}}, {"type": "way", "id": 758291777, "center": {"lat": 35.6707016, "lon": -75.8820537}, "nodes": [7081743434, 7081743435, 7081743436, 7081743437, 7081743434], "tags": {"aeroway": "helipad"}}, {"type": "way", "id": 760574695, "center": {"lat": 39.9682253, "lon": -74.255621}, "nodes": [7105172590, 7105172588, 7105172589, 7105172591, 7105172590], "tags": {"aeroway": "helipad"}}, {"type": "way", "id": 766384706, "center": {"lat": 39.3958369, "lon": -76.933622}, "nodes": [7157728340, 7157728341, 7157728342, 7157728343, 7157728344, 7157728345, 7157728327, 7157728328, 7157728329, 7157728333, 7157728334, 7157728335, 7157728336, 7157728337, 7157728338, 7157728339, 7157728330, 7157728331, 7157728332, 7157728340], "tags": {"aeroway": "helipad"}}, {"type": "way", "id": 771769034, "center": {"lat": 39.990195, "lon": -75.1303323}, "nodes": [7204868533, 7204834823, 7204868532, 7204868531, 7204834856, 7204868530, 7204868533], "tags": {"aeroway": "helipad"}}, {"type": "way", "id": 781122897, "center": {"lat": 39.761135, "lon": -77.2752622}, "nodes": [7293198051, 7293198052, 7293198053, 7293198054, 7293198055, 7293198056, 7293198057, 7293198058, 7293198059, 7293198060, 7293198061, 7293198062, 7293198063, 7293198064, 7293198065, 7293198066, 7293198067, 7293198068, 7293198069, 7293198051], "tags": {"addr:state": "PA", "aeroway": "helipad", "ele": "159", "gnis:county_name": "Adams", "gnis:created": "08/30/1990", "gnis:feature_id": "1213705", "gnis:feature_type": "Airport", "name": "Sheraton Inn-Gettysburg Heliport"}}, {"type": "way", "id": 781342697, "center": {"lat": 39.0064369, "lon": -77.0566468}, "nodes": [7294770536, 3604305566, 7294770537, 7294770538, 7294770536], "tags": {"aeroway": "helipad", "ele": "101", "gnis:feature_id": "594560", "name": "Walter Reed Forest Glen Heliport", "wikidata": "Q64786764"}}, {"type": "way", "id": 786968965, "center": {"lat": 39.356414, "lon": -74.4181935}, "nodes": [1042150262, 7357111625, 2384756953, 7357111626, 1042150262], "tags": {"aeroway": "helipad", "name": "Steel Pier Heliport", "operator": "Steel Pier, Atlantic City", "source": "ourairports.com"}}, {"type": "way", "id": 787798420, "center": {"lat": 37.5097294, "lon": -77.5939653}, "nodes": [7365269131, 7365269132, 7365269133, 7365269134, 7365269131], "tags": {"aeroway": "helipad"}}, {"type": "way", "id": 796325768, "center": {"lat": 39.4540358, "lon": -76.2092487}, "nodes": [7447416145, 7447416144, 7473716184, 7447416143, 7447416142, 7447416145], "tags": {"aeroway": "helipad", "ele": "11", "faa": "8MD1", "name": "Rite Aid Distribution Center Heliport", "source": "FAA", "surface": "paved", "wikidata": "Q61672952"}}, {"type": "way", "id": 799126758, "center": {"lat": 39.3358951, "lon": -76.5866712}, "nodes": [7473692469, 7473692470, 7473692471, 7473692472, 7473692469], "tags": {"aeroway": "helipad", "area": "yes", "ele": "68", "faa": "8MD2", "name": "Montebello Filtration Plant Heliport", "source": "ourairports.com;FAA", "wikidata": "Q61672963"}}, {"type": "way", "id": 799276635, "center": {"lat": 38.9828202, "lon": -74.8121986}, "nodes": [7475231352, 7475231351, 7475231350, 7475231349, 7475231352], "tags": {"aeroway": "helipad", "name": "East Coast Helicopter Tours", "source": "https://www.moreyspiers.com/rides/family/east-coast-helicopter-tours"}}, {"type": "way", "id": 799485418, "center": {"lat": 39.4029896, "lon": -76.5052438}, "nodes": [7477054964, 7477054965, 7477054966, 7477054967, 7477054964], "tags": {"addr:state": "MD", "aeroway": "helipad", "area": "yes", "ele": "94", "faa": "3MD7", "gnis:county_name": "Baltimore", "gnis:created": "09/01/1992", "gnis:feature_id": "595236", "gnis:feature_type": "Airport", "name": "Green Terrace Heliport", "wikidata": "Q61672958"}}, {"type": "way", "id": 815068071, "center": {"lat": 38.1135602, "lon": -77.2922736}, "nodes": [7613295081, 7613295082, 7613295083, 7613295084, 7613295081], "tags": {"aeroway": "helipad"}}, {"type": "way", "id": 815068072, "center": {"lat": 38.1130002, "lon": -77.2922327}, "nodes": [7613355385, 7613355386, 7613355387, 7613355388, 7613355385], "tags": {"aeroway": "helipad"}}, {"type": "way", "id": 815068073, "center": {"lat": 38.1124473, "lon": -77.2925705}, "nodes": [7613355389, 7613355390, 7613355391, 7613355392, 7613355389], "tags": {"aeroway": "helipad"}}, {"type": "way", "id": 815068074, "center": {"lat": 38.1124768, "lon": -77.2918839}, "nodes": [7613355393, 7613355394, 7613355395, 7613355396, 7613355393], "tags": {"aeroway": "helipad"}}, {"type": "way", "id": 815068075, "center": {"lat": 38.1118986, "lon": -77.2927047}, "nodes": [7613355397, 7613355398, 7613355399, 7613355400, 7613355397], "tags": {"aeroway": "helipad"}}, {"type": "way", "id": 815068076, "center": {"lat": 38.1119239, "lon": -77.2920074}, "nodes": [7613355401, 7613355402, 7613355403, 7613355404, 7613355401], "tags": {"aeroway": "helipad"}}, {"type": "way", "id": 815068077, "center": {"lat": 38.1119408, "lon": -77.2910847}, "nodes": [7613355405, 7613355406, 7613355407, 7613355408, 7613355405], "tags": {"aeroway": "helipad"}}, {"type": "way", "id": 815068078, "center": {"lat": 38.1113456, "lon": -77.2926725}, "nodes": [7613355409, 7613355410, 7613355411, 7613355412, 7613355409], "tags": {"aeroway": "helipad"}}, {"type": "way", "id": 815068079, "center": {"lat": 38.1113667, "lon": -77.2919698}, "nodes": [7613355413, 7613355414, 7613355415, 7613355416, 7613355413], "tags": {"aeroway": "helipad"}}, {"type": "way", "id": 815068080, "center": {"lat": 38.1107886, "lon": -77.2926403}, "nodes": [7613355417, 7613355418, 7613355419, 7613355420, 7613355417], "tags": {"aeroway": "helipad"}}, {"type": "way", "id": 815068081, "center": {"lat": 38.110835, "lon": -77.2919376}, "nodes": [7613355421, 7613355422, 7613355423, 7613355424, 7613355421], "tags": {"aeroway": "helipad"}}, {"type": "way", "id": 819548577, "center": {"lat": 39.8080494, "lon": -76.9823135}, "nodes": [7653372255, 7653372256, 7653372257, 7653372258, 7653372255], "tags": {"aeroway": "helipad", "description": "https://www.airnav.com/airport/37PN", "faa": "37PN", "name": "UPMC Hanover Hospital Heliport", "operator": "UPMC Hanover Hospital", "ref": "37PN", "surface": "concrete", "wikidata": "Q61712295"}}, {"type": "way", "id": 822148352, "center": {"lat": 39.3789467, "lon": -74.4230987}, "nodes": [7676514178, 7676514179, 7676514180, 7676514181, 7676514178], "tags": {"aeroway": "helipad", "name": "U.S. Coast Guard - Station Atlantic City"}}, {"type": "way", "id": 824617467, "center": {"lat": 39.9136292, "lon": -77.5521167}, "nodes": [7700015954, 7700015955, 7700015956, 7700015957, 7700015954], "tags": {"aeroway": "helipad"}}, {"type": "way", "id": 826343934, "center": {"lat": 38.8362906, "lon": -78.3064522}, "nodes": [3887610704, 7715321416, 7715321417, 7715321418, 3887610704], "tags": {"aeroway": "helipad"}}, {"type": "way", "id": 830619875, "center": {"lat": 36.6886352, "lon": -76.1401718}, "nodes": [7755501328, 7755501327, 7755501326, 7755501325, 7755501328], "tags": {"aeroway": "helipad", "ref": "3"}}, {"type": "way", "id": 830619876, "center": {"lat": 36.692868, "lon": -76.1358239}, "nodes": [7755501332, 7755501331, 7755501330, 7755501329, 7755501332], "tags": {"aeroway": "helipad", "ref": "2"}}, {"type": "way", "id": 830619877, "center": {"lat": 36.6971014, "lon": -76.1314747}, "nodes": [7755501336, 7755501334, 7755501333, 7755501335, 7755501336], "tags": {"aeroway": "helipad", "ref": "1"}}, {"type": "way", "id": 835948455, "center": {"lat": 38.900902, "lon": -77.0511145}, "nodes": [7802569842, 7802569843, 7802569844, 7802569845, 7802569842], "tags": {"aeroway": "helipad", "faa": "24DC", "name": "George Washington University Heliport", "operator": "George Washington University", "ref": "24DC", "surface": "mats"}}, {"type": "way", "id": 835948456, "center": {"lat": 38.9179068, "lon": -77.038121}, "nodes": [7802569846, 7802569847, 7802569848, 7802569849, 7802569846], "tags": {"aeroway": "helipad", "faa": "DC16", "lit": "yes", "name": "MPD 3rd District Heliport", "operator": "Metropolitan Police Department", "ref": "DC16", "surface": "concrete", "wikidata": "Q61671715"}}, {"type": "way", "id": 835948457, "center": {"lat": 38.9047, "lon": -77.0340027}, "nodes": [7802569852, 7802569853, 7802569854, 7802569855, 7802569852], "tags": {"aeroway": "helipad", "lit": "yes", "name": "Washington Post Heliport", "operator": "The Washington Post", "ref": "DC01", "surface": "asphalt", "wikidata": "Q61671722"}}, {"type": "way", "id": 835948458, "center": {"lat": 38.9286997, "lon": -77.0168756}, "nodes": [4594340232, 4594340231, 4594340230, 4594340235, 4594340233, 368379714, 4594340234, 4594340229, 4594340232], "tags": {"addr:city": "Washington", "addr:housenumber": "110", "addr:postcode": "20010", "addr:state": "DC", "addr:street": "Irving Street Northwest", "aeroway": "heliport", "faa": "DC08", "name": "WHC Heliport", "operator": "Washington Hospital Center", "operator:type": "private", "ref": "DC08", "wikidata": "Q61671723"}}, {"type": "way", "id": 839496660, "center": {"lat": 39.2715335, "lon": -76.5723959}, "nodes": [7833804576, 7833804577, 7833804578, 7833804579, 7833804580, 8194556170, 7833804581, 7833804582, 7833804583, 7833804584, 7833807985, 7833807986, 7833807987, 7833807988, 8194556171, 8194556172, 7833807989, 7833807990, 7833807991, 7833804576], "tags": {"aeroway": "helipad", "lit": "yes", "ref": "H1", "surface": "concrete"}}, {"type": "way", "id": 839785215, "center": {"lat": 39.0896149, "lon": -75.5566168}, "nodes": [7836394696, 7836394697, 7836394698, 7836394699, 7836394700, 7836394701, 7836394702, 7836394703, 7836394704, 7836394696], "tags": {"aeroway": "helipad", "lit": "no", "ref": "H1", "surface": "concrete"}}, {"type": "way", "id": 839785218, "center": {"lat": 39.4556824, "lon": -75.6839609}, "nodes": [7836394712, 7836394713, 7836394714, 7836394715, 7836394712], "tags": {"aeroway": "helipad", "lit": "yes", "ref": "H1", "surface": "concrete"}}, {"type": "way", "id": 839785219, "center": {"lat": 38.886731, "lon": -75.3910604}, "nodes": [7836394716, 7836394717, 7836394718, 7836394719, 7836394716], "tags": {"aeroway": "helipad", "lit": "yes", "name": "Bayhealth Medical Center Heliport", "operator": "Bayhealth Medical Center Sussex", "ref": "39DE", "surface": "concrete", "wikidata": "Q74841751"}}, {"type": "way", "id": 839785221, "center": {"lat": 39.6875208, "lon": -75.6670215}, "nodes": [7836394724, 7836394725, 7836394726, 7836394727, 7836394724], "tags": {"aeroway": "helipad", "lit": "no", "ref": "H2", "surface": "concrete"}}, {"type": "way", "id": 839785222, "center": {"lat": 39.6876597, "lon": -75.6671382}, "nodes": [7836394724, 7836394728, 7836394720, 7836394725, 7836394724], "tags": {"aeroway": "helipad", "lit": "no", "ref": "H3", "surface": "concrete"}}, {"type": "way", "id": 839785223, "center": {"lat": 39.6868009, "lon": -75.6667359}, "nodes": [7836394722, 7836394729, 7836394730, 7836394731, 7836394722], "tags": {"aeroway": "helipad", "lit": "yes", "ref": "H1", "surface": "concrete"}}, {"type": "way", "id": 839785224, "center": {"lat": 39.7809283, "lon": -75.5557175}, "nodes": [7836394732, 7836394733, 7836394734, 7836394735, 7836394732], "tags": {"aeroway": "helipad", "lit": "yes", "ref": "H1", "surface": "concrete"}}, {"type": "way", "id": 839785225, "center": {"lat": 39.7908473, "lon": -75.5477944}, "nodes": [7836394736, 7836394737, 7836394738, 7836394739, 7836394736], "tags": {"aeroway": "helipad", "lit": "no", "name": "Rollins Building Heliport", "ref": "DE16", "surface": "concrete", "wikidata": "Q35295972"}}, {"type": "way", "id": 839785227, "center": {"lat": 39.7457307, "lon": -75.5447769}, "nodes": [7836394744, 7836394745, 7836394746, 7836394747, 7836394744], "tags": {"aeroway": "helipad", "lit": "yes", "ref": "H1", "surface": "concrete"}}, {"type": "way", "id": 839785228, "center": {"lat": 39.7511246, "lon": -75.5502801}, "nodes": [7836394748, 7836394749, 7836394750, 7836394751, 7836394748], "tags": {"aeroway": "helipad", "lit": "yes", "name": "Wilmington Hospital Heliport", "operator": "Wilmington Hospital", "ref": "DE39", "surface": "concrete", "wikidata": "Q61671756"}}, {"type": "way", "id": 839913837, "center": {"lat": 38.021372, "lon": -78.4439275}, "nodes": [7837707980, 7837707960, 7837707972, 7837707961, 7837707979, 7837707962, 7837707978, 7837707963, 7837707977, 7837707964, 7837707976, 7837707965, 7837707975, 7837707966, 7837707974, 7837707967, 7837707973, 7837707956, 7837707983, 7837707957, 7837707982, 7837707958, 7837707981, 7837707959, 7837707980], "tags": {"aeroway": "helipad"}}, {"type": "way", "id": 852527995, "center": {"lat": 35.6509291, "lon": -79.6500137}, "nodes": [7952676061, 7952676062, 7952676063, 7952676064, 7952676061], "tags": {"aeroway": "helipad", "name": "H2"}}, {"type": "way", "id": 852527996, "center": {"lat": 35.6517753, "lon": -79.649566}, "nodes": [7952676065, 7952676066, 7952676067, 7952676068, 7952676065], "tags": {"aeroway": "helipad", "name": "H1"}}, {"type": "way", "id": 856882831, "center": {"lat": 38.7066296, "lon": -77.1449332}, "nodes": [7989155370, 7989155371, 7989155372, 7989155373, 7989155370], "tags": {"aeroway": "helipad", "lit": "no", "name": "Fort Belvoir Community Hospital Heliport", "operator": "US Army", "ref": "VG93", "surface": "concrete"}}, {"type": "way", "id": 857789465, "center": {"lat": 39.6642935, "lon": -79.9453257}, "nodes": [7997071638, 7997071639, 7997071640, 7997071641, 7997071642, 7997071643, 7997071638], "tags": {"aeroway": "helipad"}}, {"type": "way", "id": 862889207, "center": {"lat": 35.6302817, "lon": -78.5039072}, "nodes": [8038574567, 8038574568, 8038574569, 8038574570, 8038574567], "tags": {"aeroway": "helipad", "lit": "yes", "ref": "H1", "surface": "concrete"}}, {"type": "way", "id": 862889213, "center": {"lat": 36.516604, "lon": -75.8653407}, "nodes": [8038574598, 8038574599, 8038574600, 8038574601, 8038574598], "tags": {"aeroway": "helipad", "lit": "no", "ref": "H1", "surface": "concrete"}}, {"type": "way", "id": 862889219, "center": {"lat": 36.0690768, "lon": -76.6113075}, "nodes": [8038574615, 8038574616, 8038574617, 8038574621, 8038574618, 8038574615], "tags": {"aeroway": "helipad", "ref": "H1", "surface": "concrete"}}, {"type": "way", "id": 862889224, "center": {"lat": 34.7095344, "lon": -78.571197}, "nodes": [8038574628, 8038574629, 8038574637, 8038574634, 8038574635, 8038574628], "tags": {"aeroway": "helipad", "ref": "H1", "surface": "dirt"}}, {"type": "way", "id": 862889225, "center": {"lat": 34.7068931, "lon": -78.5655907}, "nodes": [8038574630, 8038574638, 8038574633, 8038574632, 8038574631, 8038574630], "tags": {"aeroway": "helipad", "ref": "H2", "surface": "dirt"}}, {"type": "way", "id": 862889229, "center": {"lat": 35.5083866, "lon": -76.0233287}, "nodes": [8038574644, 8038574645, 8038574646, 8038574647, 8038574648, 8038574644], "tags": {"aeroway": "helipad", "ref": "H1", "surface": "concrete"}}, {"type": "way", "id": 862889243, "center": {"lat": 35.0810564, "lon": -78.9456827}, "nodes": [8038574704, 8038574705, 8038574706, 8038574707, 8038574704], "tags": {"aeroway": "helipad", "lit": "yes", "ref": "H1", "surface": "concrete"}}, {"type": "way", "id": 862889247, "center": {"lat": 35.3989353, "lon": -77.9544475}, "nodes": [8038574719, 8038574720, 8038574721, 8038574722, 8038574719], "tags": {"aeroway": "helipad", "ref": "H1"}}, {"type": "way", "id": 862889249, "center": {"lat": 35.3999659, "lon": -77.9538328}, "nodes": [8880224427, 8038574734, 8038574730, 8880224429, 8880224428, 8880224427], "tags": {"aeroway": "helipad", "ref": "H2", "surface": "asphalt"}}, {"type": "way", "id": 862889251, "center": {"lat": 35.4016422, "lon": -77.9480341}, "nodes": [8038574735, 8038574736, 8038574737, 8038574738, 8038574735], "tags": {"aeroway": "helipad", "lit": "yes", "name": "Carolina Kidney Heliport", "ref": "5NC0", "surface": "metal"}}, {"type": "way", "id": 862889255, "center": {"lat": 35.6087398, "lon": -77.407167}, "nodes": [8038574754, 8038574760, 8038574761, 8038574755, 8038574756, 8038574757, 8038574754], "tags": {"aeroway": "helipad", "lit": "yes", "ref": "H1", "surface": "concrete"}}, {"type": "way", "id": 862889261, "center": {"lat": 34.7642748, "lon": -77.3858264}, "nodes": [8038574782, 8038574783, 8038574787, 8038574784, 8038574785, 8038574782], "tags": {"aeroway": "helipad", "lit": "yes", "ref": "H1", "surface": "asphalt"}}, {"type": "way", "id": 862889274, "center": {"lat": 35.9772267, "lon": -75.6479741}, "nodes": [8038574834, 8038574835, 8038574836, 8038574837, 8038574834], "tags": {"aeroway": "helipad", "name": "Outer Banks Heliport", "ref": "NC88", "surface": "concrete"}}, {"type": "way", "id": 862889279, "center": {"lat": 35.6376461, "lon": -78.959497}, "nodes": [9973495038, 9973495037, 8038574848, 9973570720, 9973495038], "tags": {"aeroway": "helipad", "faa": "22NR", "name": "Harris Nuclear Plant Heliport", "operator": "Duke Energy", "operator:type": "corporation"}}, {"type": "way", "id": 862889280, "center": {"lat": 35.637505, "lon": -78.9595692}, "nodes": [8038574850, 8038574851, 8038574854, 8038574852, 8038574853, 8038574850], "tags": {"aeroway": "helipad", "lit": "yes", "ref": "H1", "surface": "concrete"}}, {"type": "way", "id": 862889290, "center": {"lat": 35.9099318, "lon": -78.5976594}, "nodes": [8038574911, 8038574925, 8038574912, 8038574913, 8038574914, 8038574915, 8038574916, 8038574917, 8038574918, 8038574919, 8038574920, 8038574921, 8038574922, 8038574923, 8038574924, 8038574911], "tags": {"aeroway": "helipad", "lit": "yes", "ref": "H1", "surface": "concrete"}}, {"type": "way", "id": 862889294, "center": {"lat": 34.9292439, "lon": -79.7489576}, "nodes": [8038574930, 8038574931, 8038574932, 8038574933, 8038574930], "tags": {"aeroway": "helipad", "lit": "yes", "name": "Firsthealth Richmond Memorial Hospital Heliport", "ref": "92NR", "surface": "concrete"}}, {"type": "way", "id": 862889300, "center": {"lat": 35.9753938, "lon": -77.8506647}, "nodes": [8038574957, 8038574961, 8038574958, 8038574959, 8038574960, 8038574957], "tags": {"aeroway": "helipad", "lit": "yes", "ref": "N1", "surface": "concrete"}}, {"type": "way", "id": 862889306, "center": {"lat": 34.9509932, "lon": -78.5092432}, "nodes": [8038574979, 8038574980, 8038574978, 8038574981, 8038574982, 8038574979], "tags": {"aeroway": "helipad", "barrier": "fence", "ref": "H1", "surface": "concrete"}}, {"type": "way", "id": 862889315, "center": {"lat": 33.9500526, "lon": -78.0228359}, "nodes": [8038575013, 8038575014, 8038575015, 8038575016, 8038575013], "tags": {"aeroway": "helipad", "name": "Brunswick Media Center Heliport", "ref": "27NC", "surface": "grass", "wikidata": "Q61670207"}}, {"type": "way", "id": 862889327, "center": {"lat": 34.3165299, "lon": -77.7683241}, "nodes": [9961855161, 9961855162, 9961855163, 8038575072, 8038575073, 8038575074, 8038575075, 8038575076, 8038575077, 9961855157, 9961855158, 9961855159, 9961855160, 8038575078, 8038575079, 8038575080, 8038575081, 8038575082, 8038575083, 9961855161], "tags": {"aeroway": "heliport", "faa": "45NR", "name": "NHRMC-Ed North Heliport"}}, {"type": "way", "id": 862889328, "center": {"lat": 34.3165338, "lon": -77.7683267}, "nodes": [10153218552, 10153218553, 10153218554, 10153218555, 10153218556, 10153218557, 10153218558, 8038575084, 8038575085, 8038575086, 8038575087, 10153218549, 10153218550, 10153218551, 8038575088, 8038575089, 8038575090, 8038575091, 8038575092, 10153218552], "tags": {"aeroway": "helipad", "lit": "yes", "ref": "H1", "surface": "concrete"}}, {"type": "way", "id": 862889596, "center": {"lat": 35.9736211, "lon": -77.8530954}, "nodes": [8038570944, 8038570945, 2321155400, 8038570946, 8038570947, 8038570944], "tags": {"aeroway": "helipad", "ref": "H2", "surface": "concrete"}}, {"type": "way", "id": 871408370, "center": {"lat": 38.9297993, "lon": -78.1985189}, "nodes": [8116746117, 8116746118, 8116746119, 8116746120, 8116746121, 8116746122, 8116746123, 8116746124, 8116746125, 8116746126, 8116746127, 8116724509, 8116724512, 8116724513, 8116724514, 8116724515, 8116724516, 8116724510, 8116724511, 8116746117], "tags": {"aeroway": "helipad", "note": "In parking lot.", "operator": "Warren Memorial Hospital"}}, {"type": "way", "id": 871436552, "center": {"lat": 33.1947578, "lon": -79.9825627}, "nodes": [8116936896, 8116936897, 8116936898, 8116936899, 8116936900, 8116936901, 8116936902, 8116936903, 8116936904, 8116936905, 8116936906, 8116936888, 8116936891, 8116936892, 8116936893, 8116936894, 8116936895, 8116936889, 8116936890, 8116936896], "tags": {"aeroway": "helipad"}}, {"type": "way", "id": 871438067, "center": {"lat": 39.1825583, "lon": -77.24205}, "nodes": [3562476674, 8116883715, 8116883716, 8116955317, 8116955318, 3562476674], "tags": {"aeroway": "helipad"}}, {"type": "way", "id": 872803605, "center": {"lat": 39.1956201, "lon": -78.1918311}, "nodes": [8127555034, 8127555035, 8127555036, 8127555037, 8127555038, 8127555039, 8127555040, 8127555041, 8127555042, 8127555043, 8127555044, 8127555027, 8127555029, 8127555030, 8127555031, 8127555032, 8127555033, 2214149028, 8127555028, 8127555034], "tags": {"aeroway": "helipad"}}, {"type": "way", "id": 877620511, "center": {"lat": 36.9611606, "lon": -76.6344545}, "nodes": [8165483938, 8165483984, 8165483939, 8165483940, 8165483941, 8165483938], "tags": {"aeroway": "helipad"}}, {"type": "way", "id": 877850683, "center": {"lat": 34.7264761, "lon": -77.3569684}, "nodes": [8167600715, 8167600716, 8167615917, 8167615918, 8167600715], "tags": {"aeroway": "helipad"}}, {"type": "way", "id": 879763880, "center": {"lat": 33.7843893, "lon": -79.0013599}, "nodes": [8183949471, 8183949472, 8183949473, 8183949474, 8183949471], "tags": {"aeroway": "helipad"}}, {"type": "way", "id": 879765311, "center": {"lat": 35.8182801, "lon": -78.7041007}, "nodes": [8183907477, 8183907478, 8183907479, 8183907480, 8183907477], "tags": {"aeroway": "helipad"}}, {"type": "way", "id": 879765379, "center": {"lat": 36.4091972, "lon": -78.9855811}, "nodes": [8183956659, 8183956660, 8183956661, 8183956662, 8183956659], "tags": {"aeroway": "helipad"}}, {"type": "way", "id": 879779285, "center": {"lat": 36.8619194, "lon": -76.3033661}, "nodes": [8184084330, 8184084331, 8184084332, 8184084333, 8184084330], "tags": {"aeroway": "helipad"}}, {"type": "way", "id": 879779286, "center": {"lat": 36.8616229, "lon": -76.3036075}, "nodes": [8184084334, 8184084335, 8184084336, 8184084337, 8184084334], "tags": {"aeroway": "helipad"}}, {"type": "way", "id": 880048248, "center": {"lat": 36.7744338, "lon": -76.5811303}, "nodes": [8186191012, 8186191013, 8186191016, 8186191014, 8186191015, 8186191012], "tags": {"aeroway": "helipad", "name": "Sentara Obici Hospital Heliport", "source": "ourairports.com", "wikidata": "Q61725364"}}, {"type": "way", "id": 880048397, "center": {"lat": 35.9391698, "lon": -75.6179514}, "nodes": [8186219036, 8186219037, 8186219038, 8186219039, 8186219040, 8186219041, 8186219042, 8186219043, 8186219044, 8186219026, 8186219027, 8186219031, 8186219032, 8186219033, 8186219034, 8186219035, 8186219028, 8186219029, 8186219030, 8186219036], "tags": {"aeroway": "helipad"}}, {"type": "way", "id": 880048591, "center": {"lat": 38.3402148, "lon": -75.2105633}, "nodes": [8186211932, 8186211933, 8186211934, 8186211935, 8186211936, 8186211937, 8186211938, 8186211920, 8186211921, 8186211922, 8186211926, 8186211927, 8186211928, 8186211929, 8186211930, 8186211931, 8186211923, 8186211924, 8186211925, 8186211932], "tags": {"aeroway": "helipad"}}, {"type": "way", "id": 880048868, "center": {"lat": 39.0877826, "lon": -74.8167236}, "nodes": [8186188468, 8186188469, 8186188470, 8186188471, 8186188468], "tags": {"aeroway": "helipad"}}, {"type": "way", "id": 880059172, "center": {"lat": 39.4651254, "lon": -79.6763333}, "nodes": [8186307227, 8186307228, 8186307229, 8186307230, 8186307231, 8186307232, 8186307233, 8186307234, 8186295616, 8186307217, 8186307221, 8186307222, 8186307223, 8186307224, 8186307225, 8186307226, 8186307218, 8186307219, 8186307220, 8186307227], "tags": {"aeroway": "helipad"}}, {"type": "way", "id": 880059569, "center": {"lat": 39.8098264, "lon": -79.0241433}, "nodes": [8186303913, 8186303914, 8186303915, 8186303916, 8186303913], "tags": {"aeroway": "helipad"}}, {"type": "way", "id": 880687059, "center": {"lat": 32.7822568, "lon": -79.9515248}, "nodes": [8191306736, 8191306737, 8191306738, 8191306739, 8191306740, 8191306741, 8191306742, 8191306743, 8191306744, 8191306745, 8191306746, 8191306747, 8191306748, 8191306749, 8191306750, 8191306751, 8191306752, 8191306753, 8191306736], "tags": {"aeroway": "helipad", "faa": "SC80", "lit": "no", "name": "MUSC Shawn Jenkins Childrens Hospital Heliport", "surface": "metal"}}, {"type": "way", "id": 881053237, "center": {"lat": 39.2837717, "lon": -76.6027276}, "nodes": [8194581280, 8194581281, 8194581282, 8194581283, 8194581280], "tags": {"access": "private", "aeroway": "helipad", "ele": "30", "faa": "24MD", "name": "Marriott Parking Garage Rooftop Heliport", "surface": "asphalt", "wikidata": "Q61672962"}}, {"type": "way", "id": 887452774, "center": {"lat": 39.9634614, "lon": -75.0951072}, "nodes": [4089271032, 8251072645, 8251072646, 4089271027, 4089271032], "tags": {"aeroway": "helipad", "faa": "50NJ", "lit": "no", "name": "Express Marine Heliport", "surface": "concrete", "wikidata": "Q61675618"}}, {"type": "way", "id": 888038184, "center": {"lat": 38.866472, "lon": -76.9925401}, "nodes": [8256402738, 8256402739, 8256402745, 8256402740, 8256402741, 8256402738], "tags": {"aeroway": "helipad", "lit": "yes", "ref": "H1", "surface": "asphalt"}}, {"type": "way", "id": 907196829, "center": {"lat": 39.7939475, "lon": -77.2642343}, "nodes": [8424123231, 8424123232, 8424123233, 8424123234, 8424123231], "tags": {"aeroway": "helipad"}}, {"type": "way", "id": 907342160, "center": {"lat": 39.713991, "lon": -76.3512698}, "nodes": [8425554263, 8425554264, 8425554268, 8425554265, 8425554266, 8425554263], "tags": {"aeroway": "helipad", "name": "J.A. Hunt, M.D. Medi-Vac Pad", "surface": "concrete"}}, {"type": "way", "id": 913320895, "center": {"lat": 39.2119739, "lon": -77.814887}, "nodes": [8484128692, 8484128693, 8484128694, 8484128695, 8484128696, 8484128697, 8484128698, 8484128680, 8484128681, 8484128682, 8484128687, 8484128688, 8484128689, 8484128690, 8484128691, 8484128683, 8484128684, 8484128685, 8484128686, 8484128692], "tags": {"aeroway": "helipad", "description": "Helicopter landing site, Shannondale Dam", "lit": "no", "surface": "gravel"}}, {"type": "way", "id": 915496987, "center": {"lat": 36.1827636, "lon": -75.7567404}, "nodes": [8503908164, 8503908165, 8503908166, 8503908167, 8503908164], "tags": {"aeroway": "helipad"}}, {"type": "way", "id": 925600577, "center": {"lat": 37.055213, "lon": -78.6309234}, "nodes": [8590046234, 8590046235, 8590046236, 8590046237, 8590046234], "tags": {"aeroway": "helipad"}}, {"type": "way", "id": 926200568, "center": {"lat": 34.9749799, "lon": -79.6116523}, "nodes": [8595138456, 8595138457, 8595138458, 8595138459, 8595138456], "tags": {"aeroway": "helipad"}}, {"type": "way", "id": 930309887, "center": {"lat": 36.8397506, "lon": -78.5956282}, "nodes": [8626116233, 8626116234, 8626116235, 8626116236, 8626116233], "tags": {"aeroway": "helipad", "surface": "concrete"}}, {"type": "way", "id": 930336024, "center": {"lat": 37.0795575, "lon": -78.7472166}, "nodes": [8626287605, 8626287606, 8626287607, 8626287608, 8626287605], "tags": {"aeroway": "helipad"}}, {"type": "way", "id": 933936527, "center": {"lat": 37.5055332, "lon": -77.1878139}, "nodes": [8656118322, 8656118323, 8656118324, 8656118325, 8656118322], "tags": {"aeroway": "helipad"}}, {"type": "way", "id": 935137879, "center": {"lat": 39.6213401, "lon": -75.8374864}, "nodes": [8665792194, 8665792195, 8665792196, 8665792197, 8665792194], "tags": {"aeroway": "helipad", "name": "Singerly fire hall helipad"}}, {"type": "way", "id": 940539667, "center": {"lat": 38.956576, "lon": -78.7433386}, "nodes": [8710626140, 8710626141, 8710626142, 8710626143, 8710626144, 8710626145, 8710626146, 8710626147, 8710626148, 8710626149, 8710626131, 8710626134, 8710626135, 8710626136, 8710626137, 8710626138, 8710626139, 8710626132, 8710626133, 8710626140], "tags": {"aeroway": "helipad"}}, {"type": "way", "id": 943893704, "center": {"lat": 39.7140354, "lon": -75.1514543}, "nodes": [8739360240, 8739360241, 8739360242, 8739360243, 8739360244, 8739360240], "tags": {"aeroway": "helipad"}}, {"type": "way", "id": 952818516, "center": {"lat": 38.9023368, "lon": -76.8442544}, "nodes": [8819148998, 8819148999, 8819149000, 8819149001, 8819148998], "tags": {"aeroway": "helipad", "layer": "1"}}, {"type": "way", "id": 952818517, "center": {"lat": 38.9022732, "lon": -76.8446971}, "nodes": [8819149002, 8819149003, 8819149004, 8819149005, 8819149002], "tags": {"aeroway": "helipad", "layer": "1"}}, {"type": "way", "id": 989701380, "center": {"lat": 38.9403444, "lon": -77.5411484}, "nodes": [9146418151, 9146418150, 6907076948, 9146418149, 9146418151], "tags": {"aeroway": "helipad", "faa": "6VG4"}}, {"type": "way", "id": 1001219756, "center": {"lat": 38.1490776, "lon": -76.4337323}, "nodes": [9241636782, 9241636783, 9241636784, 9241636785, 9241636782], "tags": {"aeroway": "helipad"}}, {"type": "way", "id": 1016578872, "center": {"lat": 34.9257742, "lon": -77.7784472}, "nodes": [9376433979, 9376433978, 9376433977, 9376433976, 9376433979], "tags": {"aeroway": "helipad", "surface": "asphalt"}}, {"type": "way", "id": 1043532684, "center": {"lat": 39.604528, "lon": -77.7344856}, "nodes": [6178875164, 9604010217, 9604010218, 9604010219, 6178875164], "tags": {"aeroway": "helipad"}}, {"type": "way", "id": 1049203274, "center": {"lat": 38.4590803, "lon": -79.0257405}, "nodes": [9642141966, 9642141967, 9642141968, 9642141969, 9642141970, 9642141971, 9642141972, 9642141973, 9642141966], "tags": {"addr:city": "Dayon", "addr:housenumber": "2100", "addr:postcode": "22821", "addr:state": "VA", "addr:street": "Clover Hill Road", "aeroway": "helipad", "description": "Predesignated Landing Zone for Medical Helicopter.", "name": "Clover Hill Helipad", "operator": "Clover Hill Vol. Fire Co Inc.", "surface": "concrete"}}, {"type": "way", "id": 1049230600, "center": {"lat": 39.3758913, "lon": -74.5368201}, "nodes": [9642393172, 9642393173, 9642393174, 9642393198, 9642393175, 9642393172], "tags": {"addr:city": "Northfield", "addr:postcode": "08225", "addr:state": "NJ", "addr:street": "Route 9 & Dolphin Avenue", "aeroway": "helipad", "landuse": "military", "name": "Atlantic County Helistop", "phone": "+1.6092729311", "ref": "99NJ", "source": "ourairports.com;FAA", "wikidata": "Q61675771"}}, {"type": "way", "id": 1053410568, "center": {"lat": 38.0756965, "lon": -79.3933548}, "nodes": [9680816369, 9680816370, 9680816371, 9680816372, 9680816369], "tags": {"addr:city": "Craigsville", "addr:housenumber": "60", "addr:postcode": "24430", "addr:state": "VA", "addr:street": "Stillwater Village Street", "aeroway": "helipad", "name": "Old Stillwater Plant", "surface": "concrete"}}, {"type": "way", "id": 1069526350, "center": {"lat": 36.254865, "lon": -76.1731955}, "nodes": [9816704885, 9816704883, 4367182677, 9816704884, 9816704885], "tags": {"aeroway": "helipad", "ref": "H"}}, {"type": "way", "id": 1069526351, "center": {"lat": 36.2579349, "lon": -76.1666936}, "nodes": [9816704888, 4368008783, 9816704886, 9816704887, 9816704888], "tags": {"aeroway": "helipad", "ref": "2"}}, {"type": "way", "id": 1069526352, "center": {"lat": 36.2626426, "lon": -76.1758117}, "nodes": [4368009105, 9816704890, 9816704889, 9816704891, 4368009105], "tags": {"aeroway": "helipad", "ref": "3"}}, {"type": "way", "id": 1073953159, "center": {"lat": 37.2683815, "lon": -76.5740306}, "nodes": [368948745, 9851159518, 9851159519, 9851159520, 368948745], "tags": {"addr:state": "VA", "aeroway": "helipad", "ele": "9", "gnis:county_name": "York", "gnis:created": "09/01/1992", "gnis:feature_id": "1498863", "gnis:feature_type": "Airport", "icao": "KNCY", "landuse": "military", "military": "airfield", "name": "Naval Weapons Station-Yorktown Helipad", "wikidata": "Q61725645"}}, {"type": "way", "id": 1075155471, "center": {"lat": 37.5939919, "lon": -77.32974}, "nodes": [9860833728, 9860833729, 9860833730, 9860833731, 9860833728], "tags": {"aeroway": "helipad"}}, {"type": "way", "id": 1079836064, "center": {"lat": 39.9616236, "lon": -79.0391326}, "nodes": [2632837628, 9898027071, 9898027072, 9898027073, 2632837628], "tags": {"aeroway": "helipad"}}, {"type": "way", "id": 1083634541, "center": {"lat": 36.2486109, "lon": -75.8864822}, "nodes": [9930520782, 9930520783, 9930520784, 9930520790, 9930520785, 9930520782], "tags": {"aeroway": "helipad", "name": "Lower Currituck Helipad"}}, {"type": "way", "id": 1084091138, "center": {"lat": 37.287367, "lon": -77.27105}, "nodes": [9934369401, 9934369253, 9934369294, 368948527, 9934369401], "tags": {"addr:state": "VA", "aeroway": "helipad", "building": "yes", "ele": "13", "gnis:county_name": "Hopewell (city)", "gnis:created": "09/01/1992", "gnis:feature_id": "1501658", "gnis:feature_type": "Airport", "name": "Hopewell Heliport", "source": "microsoft/BuildingFootprints", "wikidata": "Q61725429"}}, {"type": "way", "id": 1084451559, "center": {"lat": 39.6945862, "lon": -77.3304269}, "nodes": [1722483285, 9937523991, 9937523992, 9937523993, 1722483285], "tags": {"aeroway": "helipad"}}, {"type": "way", "id": 1084496578, "center": {"lat": 37.5146169, "lon": -77.5259307}, "nodes": [7204674782, 9937974058, 9937974059, 9937974060, 7204674782], "tags": {"aeroway": "helipad", "location": "roof"}}, {"type": "way", "id": 1085750468, "center": {"lat": 39.724464, "lon": -77.4147397}, "nodes": [9948757343, 9948757342, 9948757341, 9948757340, 9948757343], "tags": {"aeroway": "helipad"}}, {"type": "way", "id": 1085750472, "center": {"lat": 39.7202532, "lon": -77.4045266}, "nodes": [9948757391, 9948757383, 9948757390, 9948757327, 9948757389, 9948757388, 9948757391], "tags": {"aeroway": "helipad"}}, {"type": "way", "id": 1085863287, "center": {"lat": 37.4596709, "lon": -75.877805}, "nodes": [9949731877, 9949731878, 9949731879, 9949731880, 9949731877], "tags": {"aeroway": "helipad"}}, {"type": "way", "id": 1089608498, "center": {"lat": 34.6745387, "lon": -77.3701534}, "nodes": [9981034153, 9981034154, 9981034155, 9981034156, 9981034153], "tags": {"aeroway": "helipad"}}, {"type": "way", "id": 1090908192, "center": {"lat": 37.2501947, "lon": -77.8212312}, "nodes": [9992073170, 9992073169, 368947336, 9992073168, 9992073170], "tags": {"addr:state": "VA", "aeroway": "helipad", "ele": "101", "gnis:county_name": "Amelia", "gnis:created": "09/01/1992", "gnis:feature_id": "1498730", "gnis:feature_type": "Airport", "name": "Mannboro Medical Center Heliport", "wikidata": "Q61725467"}}, {"type": "way", "id": 1091590000, "center": {"lat": 38.7129498, "lon": -77.8096991}, "nodes": [9997430423, 9997430400, 9997430401, 9997430402, 9997430403, 9997430404, 9997430405, 9997430406, 9997430407, 9997430422, 9997430408, 9997430409, 9997430410, 9997430411, 9997430412, 9997430413, 9997430414, 9997430421, 9997430415, 9997430416, 9997430417, 9997430418, 9997430419, 9997430420, 9997430423], "tags": {"aeroway": "helipad", "surface": "asphalt"}}, {"type": "way", "id": 1092624303, "center": {"lat": 35.3169787, "lon": -76.7015701}, "nodes": [10006480614, 10006480615, 10006480616, 10006522117, 10006522118, 10006522119, 10006522120, 10006522121, 10006480614], "tags": {"aeroway": "heliport", "name": "Paradox Heliport"}}, {"type": "way", "id": 1107168412, "center": {"lat": 33.1135041, "lon": -79.7803036}, "nodes": [10130890907, 10130890908, 10130890909, 10130890910, 10130890907], "tags": {"aeroway": "helipad"}}, {"type": "way", "id": 1107168413, "center": {"lat": 33.1132649, "lon": -79.7809825}, "nodes": [10130890911, 10130890912, 10130890913, 10130890914, 10130890911], "tags": {"aeroway": "helipad"}}, {"type": "way", "id": 1107168414, "center": {"lat": 33.113281, "lon": -79.7815491}, "nodes": [10130890915, 10130890916, 10130926417, 10130926418, 10130890915], "tags": {"aeroway": "helipad"}}, {"type": "way", "id": 1110094535, "center": {"lat": 39.7630975, "lon": -74.107045}, "nodes": [10155387845, 10155387846, 10155387847, 10155387848, 10155387845], "tags": {"aeroway": "helipad"}}, {"type": "way", "id": 1111602061, "center": {"lat": 36.819741, "lon": -76.0316427}, "nodes": [10169927558, 10169927556, 10169927555, 10169927557, 10169927558], "tags": {"aeroway": "helipad", "ref": "3"}}, {"type": "way", "id": 1113414782, "center": {"lat": 38.910365, "lon": -77.0776871}, "nodes": [10186507535, 10186507536, 10186507537, 10186507538, 10186507535], "tags": {"aeroway": "helipad", "faa": "DC09", "lit": "no", "name": "Georgetown University Hospital Helistop", "operator": "Georgetown University", "ref": "DC09", "surface": "asphalt", "wikidata": "Q61671713"}}, {"type": "way", "id": 1114702068, "center": {"lat": 34.5919134, "lon": -77.4022059}, "nodes": [10195132048, 10195132050, 10195132051, 10195132052, 10195132053, 10195132054, 10195132055, 10195132056, 10195132057, 10195132058, 10195132041, 10195132042, 162595058, 10195132043, 10195132044, 10195132045, 4766125379, 10195132046, 10195132047, 10195132048], "tags": {"aeroway": "heliport", "name": "LHD Deck"}}, {"type": "way", "id": 1126465418, "center": {"lat": 36.805913, "lon": -76.7318314}, "nodes": [1042141253, 10300419612, 10300375893, 10300375894, 10300375895, 1042141253], "tags": {"aeroway": "helipad", "name": "Windsor Heliport", "ref": "79VA", "source": "ourairports.com", "wikidata": "Q61725636"}}, {"type": "way", "id": 1149565417, "center": {"lat": 39.8640263, "lon": -77.1547189}, "nodes": [10694233021, 10694233022, 10694233023, 10694233024, 10694233021], "tags": {"aeroway": "helipad", "name": "WellFlight 2-8", "surface": "concrete"}}, {"type": "way", "id": 1150221510, "center": {"lat": 38.0309634, "lon": -78.4973007}, "nodes": [10699983757, 10699983758, 10699983759, 10699983760, 10699983757], "tags": {"aeroway": "helipad", "building:part": "yes", "name": "University of Virginia Hospital Heliport"}}, {"type": "way", "id": 1158072042, "center": {"lat": 38.2780594, "lon": -76.4232854}, "nodes": [10769965218, 10769965216, 1366214707, 10769965217, 10769965218], "tags": {"aeroway": "helipad"}}, {"type": "way", "id": 1158072057, "center": {"lat": 38.2887167, "lon": -76.4075819}, "nodes": [10769965372, 10769965371, 10769965370, 1365461203, 10769965372], "tags": {"aeroway": "helipad"}}, {"type": "way", "id": 1158072058, "center": {"lat": 38.2771574, "lon": -76.4048472}, "nodes": [10769965375, 1365530845, 10769965373, 10769965374, 10769965375], "tags": {"aeroway": "helipad"}}, {"type": "way", "id": 1158072059, "center": {"lat": 38.2799916, "lon": -76.4338969}, "nodes": [10769965378, 1365461193, 10769965376, 10769965377, 10769965378], "tags": {"aeroway": "helipad"}}, {"type": "way", "id": 1158342599, "center": {"lat": 38.2827806, "lon": -76.4229787}, "nodes": [10772432242, 10772432240, 1365461196, 10772432241, 10772432242], "tags": {"aeroway": "helipad"}}, {"type": "way", "id": 1158342600, "center": {"lat": 38.2905548, "lon": -76.4215676}, "nodes": [10772432245, 10772432243, 1365461206, 10772432244, 10772432245], "tags": {"aeroway": "helipad"}}, {"type": "way", "id": 1160796451, "center": {"lat": 33.2847848, "lon": -79.6931063}, "nodes": [10796236501, 10796236502, 10796236503, 10796236504, 10796236501], "tags": {"aeroway": "helipad"}}, {"type": "way", "id": 1164770543, "center": {"lat": 39.0010542, "lon": -79.1364031}, "nodes": [10833015931, 10833015930, 10833015929, 10833015928, 10833015931], "tags": {"aeroway": "helipad"}}, {"type": "way", "id": 1181053536, "center": {"lat": 37.9479477, "lon": -78.49633}, "nodes": [368946325, 10968537588, 10968537589, 10968537590, 368946325], "tags": {"addr:state": "VA", "aeroway": "helipad", "ele": "182", "gnis:county_name": "Albemarle", "gnis:created": "09/01/1992", "gnis:feature_id": "1498622", "gnis:feature_type": "Airport", "name": "Albemarle Farms Heliport"}}, {"type": "way", "id": 1189504029, "center": {"lat": 35.8060421, "lon": -78.7131593}, "nodes": [11045383250, 11045383251, 11045383252, 11045383253, 11045383250], "tags": {"aeroway": "helipad"}}, {"type": "way", "id": 1192511753, "center": {"lat": 33.7198468, "lon": -78.8945126}, "nodes": [11070091938, 11070091939, 11070091940, 11070091941, 11070091938], "tags": {"aeroway": "helipad", "surface": "concrete"}}, {"type": "way", "id": 1192511754, "center": {"lat": 33.7200313, "lon": -78.8947879}, "nodes": [11070091942, 11070091975, 11070091951, 11070091952, 11070091943, 11070091944, 11069946392, 11069946394, 11069946393, 11069946391, 11069946390, 11070091945, 11070091946, 11070091947, 11070091948, 8443602463, 11070091920, 11070091921, 8443602464, 11070091949, 11070091953, 11070091942], "tags": {"aeroway": "heliport", "area": "yes", "barrier": "fence"}}, {"type": "way", "id": 1192511755, "center": {"lat": 33.7200167, "lon": -78.8946691}, "nodes": [11070091954, 11070091955, 11070091956, 11070091957, 11070091954], "tags": {"aeroway": "helipad", "surface": "concrete"}}, {"type": "way", "id": 1192511756, "center": {"lat": 33.720185, "lon": -78.8948257}, "nodes": [11070091958, 11070091959, 11070091960, 11070091961, 11070091958], "tags": {"aeroway": "helipad", "surface": "concrete"}}, {"type": "way", "id": 1192511757, "center": {"lat": 33.7203566, "lon": -78.8949822}, "nodes": [11070091962, 11070091963, 11070091964, 11070091965, 11070091962], "tags": {"aeroway": "helipad", "surface": "concrete"}}, {"type": "way", "id": 1192511758, "center": {"lat": 33.7196744, "lon": -78.8943571}, "nodes": [11070091966, 11070091967, 11070091968, 11070091969, 11070091966], "tags": {"aeroway": "helipad", "surface": "concrete"}}, {"type": "way", "id": 1192961145, "center": {"lat": 38.1923097, "lon": -79.0132453}, "nodes": [11073533610, 11073533609, 11073533611, 11073533612, 11073533610], "tags": {"aeroway": "helipad"}}, {"type": "way", "id": 1213493743, "center": {"lat": 39.920022, "lon": -75.1961378}, "nodes": [11242731340, 11242731339, 11242731338, 4545369494, 11242731340], "tags": {"aeroway": "helipad", "ele": "10", "faa": "56PN", "name": "Atlantic Refining & Marketing Corp Heliport", "surface": "asphalt"}}, {"type": "way", "id": 1213494422, "center": {"lat": 39.9015683, "lon": -75.1613392}, "nodes": [11242732368, 11242732356, 11242732367, 11242732355, 11242732366, 11242732365, 11242732354, 11242732364, 11242732353, 11242732363, 11242732362, 11242732361, 11242732360, 11242732359, 11242732358, 11242732357, 11242732368], "tags": {"aeroway": "helipad", "name": "Sports Complex North Lot Heliport", "ref": "PA78", "surface": "asphalt"}}, {"type": "way", "id": 1213495159, "center": {"lat": 39.9535965, "lon": -75.1502352}, "nodes": [11242743132, 368990904, 11242743131, 11242743130, 11242743132], "tags": {"addr:state": "PA", "aeroway": "helipad", "ele": "91", "gnis:county_name": "Philadelphia", "gnis:created": "08/30/1990", "gnis:feature_id": "1213713", "gnis:feature_type": "Airport", "name": "S & C 8th & Market Helistop", "ref": "9PA4"}}, {"type": "way", "id": 1213499519, "center": {"lat": 39.9548386, "lon": -75.1781992}, "nodes": [11242778945, 11242778944, 368989162, 11242778943, 11242778945], "tags": {"addr:state": "PA", "aeroway": "helipad", "ele": "34", "faa": "05PA", "name": "Peco Mob Heliport"}}, {"type": "way", "id": 1213670254, "center": {"lat": 39.9909792, "lon": -75.5793312}, "nodes": [11244316942, 11244316941, 11244316940, 11244316939, 11244316938, 1957076133, 11244316937, 11244303136, 11244303135, 11244303134, 11244303133, 11244303132, 11244316942], "tags": {"aeroway": "helipad"}}, {"type": "way", "id": 1213670255, "center": {"lat": 39.9914484, "lon": -75.5783342}, "nodes": [11244316953, 11244316952, 11244316951, 11244316950, 11244316949, 1957076143, 11244316948, 11244316947, 11244316946, 11244316945, 11244316944, 11244316943, 11244316953], "tags": {"aeroway": "helipad"}}, {"type": "way", "id": 1214698249, "center": {"lat": 39.9784602, "lon": -75.8801826}, "nodes": [11254226606, 11254226605, 1042135362, 11254226604, 11254226603, 11254226602, 11254226601, 11254226600, 11254226599, 11254226598, 11254226597, 11254226606], "tags": {"addr:city": "Coatesville", "addr:housenumber": "110", "addr:postcode": "19320", "addr:state": "PA", "addr:street": "East Stewart Huston Drive", "aeroway": "heliport", "faa": "PN34", "name": "Piasecki Heliplex Heliport", "wikidata": "Q61712171"}}, {"type": "way", "id": 1214698250, "center": {"lat": 39.9787382, "lon": -75.8799392}, "nodes": [11254226615, 11254226614, 11254226613, 11254226612, 11254226615], "tags": {"aeroway": "helipad"}}, {"type": "way", "id": 1215646250, "center": {"lat": 36.5856761, "lon": -79.4089398}, "nodes": [11263392730, 11263392731, 11263392732, 11263392733, 11263392730], "tags": {"aeroway": "helipad"}}]}