{"version": 0.6, "generator": "Overpass API 0.7.61.5 4133829e", "osm3s": {"timestamp_osm_base": "2023-10-31T20:37:15Z", "copyright": "The data included in this document is from www.openstreetmap.org. The data is made available under ODbL."}, "elements": [{"type": "node", "id": 47758764, "lat": 46.0065272, "lon": -122.3498603, "tags": {"aeroway": "helipad", "ele": "158", "name": "The Mountain Airpark", "source_ref": "geonames.usgs.gov"}}, {"type": "node", "id": 274475224, "lat": 49.1540949, "lon": -121.9440649, "tags": {"aeroway": "helipad"}}, {"type": "node", "id": 309718155, "lat": 44.2809745, "lon": -120.9012018, "tags": {"aeroway": "helipad", "created_by": "Potlatch 0.10f", "name": "BLM Heliport"}}, {"type": "node", "id": 369013935, "lat": 45.5887287, "lon": -122.6539853, "tags": {"aeroway": "helipad", "name": "Hessel Tractor Heliport", "ref": "3OR3", "source_ref": "geonames.usgs.gov,www.airnav.com/airport/3OR3", "wikidata": "Q3274527"}}, {"type": "node", "id": 369013952, "lat": 45.4958253, "lon": -122.6474383, "tags": {"aeroway": "helipad", "name": "PGE Service Center Airstrip", "wikidata": "Q7119162"}}, {"type": "node", "id": 369033376, "lat": 47.3141498, "lon": -122.259407, "tags": {"addr:state": "WA", "aeroway": "helipad", "ele": "133", "faa": "60WA", "gnis:county_name": "King", "gnis:created": "03/01/1990", "gnis:feature_id": "1533670", "gnis:feature_type": "Airport", "lit": "no", "name": "J. J. H. Heliport", "ref": "H1", "source_ref": "geonames.usgs.gov", "surface": "asphalt", "wikidata": "Q61725818"}}, {"type": "node", "id": 369033382, "lat": 47.3171948, "lon": -122.2256534, "tags": {"addr:state": "WA", "aeroway": "helipad", "ele": "23", "gnis:county_name": "King", "gnis:created": "03/01/1990", "gnis:feature_id": "1533667", "gnis:feature_type": "Airport", "name": "Auburn Fire Department Heliport", "source_ref": "geonames.usgs.gov"}}, {"type": "node", "id": 369033466, "lat": 47.4361004, "lon": -120.2796144, "tags": {"addr:city": "East Wenatchee", "addr:housenumber": "1939", "addr:postcode": "98802", "addr:state": "WA", "addr:street": "Valley View Boulevard", "aeroway": "helipad", "ele": "321", "faa": "0WA4", "gnis:county_name": "Grant", "gnis:created": "03/01/1990", "gnis:feature_id": "1533743", "gnis:feature_type": "Airport", "lit": "yes", "name": "Macon Heliport", "old_name": "Hansen Heliport", "source_ref": "geonames.usgs.gov", "surface": "asphalt", "wikidata": "Q61725905"}}, {"type": "node", "id": 369033491, "lat": 48.2642759, "lon": -121.591791, "tags": {"addr:state": "WA", "aeroway": "helipad", "ele": "156", "faa": "72WA", "gnis:county_name": "Snohomish", "gnis:created": "03/01/1990", "gnis:feature_id": "1533731", "gnis:feature_type": "Airport", "lit": "no", "name": "Hiline Heliport", "source_ref": "geonames.usgs.gov", "surface": "grass", "wikidata": "Q61725895"}}, {"type": "node", "id": 369033501, "lat": 46.0537215, "lon": -122.301208, "tags": {"addr:state": "WA", "aeroway": "helipad", "ele": "181", "faa": "WN52", "gnis:county_name": "Cowlitz", "gnis:created": "03/01/1990", "gnis:feature_id": "1533723", "gnis:feature_type": "Airport", "name": "Cougar Heliport", "source_ref": "geonames.usgs.gov", "wikidata": "Q61725887"}}, {"type": "node", "id": 369033597, "lat": 47.1492626, "lon": -122.870139, "tags": {"addr:state": "WA", "aeroway": "helipad", "ele": "31", "faa": "WN12", "gnis:county_name": "Thurston", "gnis:created": "03/01/1990", "gnis:feature_id": "1533862", "gnis:feature_type": "Airport", "lit": "no", "name": "Fishtrap Heliport", "source_ref": "geonames.usgs.gov", "surface": "concrete", "wikidata": "Q61726046"}}, {"type": "node", "id": 369033641, "lat": 46.554471, "lon": -122.8538388, "tags": {"addr:state": "WA", "aeroway": "helipad", "ele": "156", "faa": "5WA6", "gnis:county_name": "Lewis", "gnis:created": "03/01/1990", "gnis:feature_id": "1533848", "gnis:feature_type": "Airport", "lit": "no", "name": "Foster Heliport", "source_ref": "geonames.usgs.gov", "surface": "concrete", "wikidata": "Q61726028"}}, {"type": "node", "id": 369033826, "lat": 48.0967566, "lon": -123.482687, "tags": {"addr:state": "WA", "aeroway": "helipad", "ele": "177", "faa": "7WA1", "fixme": "Location incorrect?", "gnis:county_name": "Clallam", "gnis:created": "03/01/1990", "gnis:feature_id": "1533892", "gnis:feature_type": "Airport", "lit": "yes", "name": "Eclipse Heliport", "source_ref": "geonames.usgs.gov", "surface": "asphalt", "wikidata": "Q61726069"}}, {"type": "node", "id": 369033831, "lat": 48.1106471, "lon": -123.323794, "tags": {"addr:state": "WA", "aeroway": "helipad", "ele": "43", "faa": "WN37", "gnis:county_name": "Clallam", "gnis:created": "03/01/1990", "gnis:feature_id": "1533889", "gnis:feature_type": "Airport", "lit": "no", "name": "McLaughlin Heliport", "old_name": "Thompson Heliport", "source_ref": "geonames.usgs.gov", "surface": "grass", "wikidata": "Q61726071"}}, {"type": "node", "id": 369033897, "lat": 47.3312082, "lon": -122.601519, "tags": {"addr:state": "WA", "aeroway": "helipad", "ele": "89", "gnis:county_name": "Pierce", "gnis:created": "03/01/1990", "gnis:feature_id": "1533781", "gnis:feature_type": "Airport", "name": "Telephone Utilities Heliport", "source_ref": "geonames.usgs.gov"}}, {"type": "node", "id": 369033948, "lat": 47.7156542, "lon": -122.179013, "tags": {"aeroway": "helipad", "faa": "3WA8", "gnis:feature_id": "1533809", "lit": "yes", "name": "Evergreen Hospital Heliport", "surface": "grass", "wikidata": "Q61725983"}}, {"type": "node", "id": 369034246, "lat": 45.6681723, "lon": -122.643708, "tags": {"addr:state": "WA", "aeroway": "helipad", "ele": "75", "faa": "WN38", "fixme": "Location incorrect?", "gnis:county_name": "Clark", "gnis:created": "03/01/1990", "gnis:feature_id": "1534009", "gnis:feature_type": "Airport", "lit": "no", "name": "Ross Complex Heliport", "source_ref": "geonames.usgs.gov", "surface": "concrete", "wikidata": "Q61726198"}}, {"type": "node", "id": 369034300, "lat": 47.428154, "lon": -122.4440161, "tags": {"addr:state": "WA", "aeroway": "helipad", "ele": "93", "gnis:county_name": "King", "gnis:created": "03/01/1990", "gnis:feature_id": "1534015", "gnis:feature_type": "Airport", "name": "Therkelsen Heliport", "source_ref": "geonames.usgs.gov"}}, {"type": "node", "id": 369034407, "lat": 47.6853769, "lon": -122.135678, "tags": {"addr:state": "WA", "aeroway": "helipad", "ele": "10", "faa": "81WA", "gnis:county_name": "King", "gnis:created": "03/01/1990", "gnis:feature_id": "1533913", "gnis:feature_type": "Airport", "name": "Jobe Skis Plant 1 Heliport", "source_ref": "geonames.usgs.gov", "surface": "asphalt", "wikidata": "Q61726096"}}, {"type": "node", "id": 369034419, "lat": 47.5003233, "lon": -122.215107, "tags": {"addr:state": "WA", "aeroway": "helipad", "ele": "9", "faa": "8WA2", "gnis:county_name": "King", "gnis:created": "03/01/1990", "gnis:feature_id": "1533916", "gnis:feature_type": "Airport", "lit": "no", "name": "Boeing Renton Ramp Site Nr 2 Heliport", "operator": "Boeing", "source_ref": "geonames.usgs.gov", "surface": "concrete", "wikidata": "Q61726099"}}, {"type": "node", "id": 369034529, "lat": 47.6520691, "lon": -122.323167, "tags": {"access": "private", "addr:state": "WA", "aeroway": "helipad", "ele": "5", "faa": "WN22", "gnis:county_name": "King", "gnis:created": "03/01/1990", "gnis:feature_id": "1533940", "gnis:feature_type": "Airport", "lit": "no", "name": "Lake Union Heliport", "source_ref": "geonames.usgs.gov", "surface": "metal", "wikidata": "Q29841779"}}, {"type": "node", "id": 369034918, "lat": 46.6091093, "lon": -120.6143928, "tags": {"addr:city": "Yakima", "addr:housenumber": "611", "addr:postcode": "98902", "addr:state": "WA", "addr:street": "North 80th Avenue", "aeroway": "helipad", "ele": "477", "faa": "46WA", "gnis:county_name": "Yakima", "gnis:created": "03/01/1990", "gnis:feature_id": "1534048", "gnis:feature_type": "Airport", "lit": "no", "name": "Don Williams Private Heliport", "source_ref": "geonames.usgs.gov", "surface": "grass", "wikidata": "Q61726231"}}, {"type": "node", "id": 369034936, "lat": 47.7719947, "lon": -122.146557, "tags": {"addr:state": "WA", "aeroway": "helipad", "ele": "19", "faa": "43WA", "gnis:county_name": "King", "gnis:created": "03/01/1990", "gnis:feature_id": "1534042", "gnis:feature_type": "Airport", "lit": "no", "name": "Wilson Heliport", "source_ref": "geonames.usgs.gov", "surface": "gravel", "wikidata": "Q61726229"}}, {"type": "node", "id": 369034944, "lat": 47.7078745, "lon": -122.524024, "tags": {"addr:city": "Bainbridge Island", "addr:housenumber": "1574", "addr:postcode": "98110", "addr:state": "WA", "addr:street": "Euclid Avenue Northeast", "aeroway": "helipad", "ele": "19", "faa": "WN79", "gnis:county_name": "Kitsap", "gnis:created": "03/01/1990", "gnis:feature_id": "1534040", "gnis:feature_type": "Airport", "lit": "no", "name": "Haley Heliport", "source_ref": "geonames.usgs.gov", "surface": "wood", "wikidata": "Q61726227"}}, {"type": "node", "id": 369034994, "lat": 46.2260273, "lon": -121.1362309, "tags": {"addr:state": "WA", "aeroway": "helipad", "ele": "1548", "faa": "40WA", "gnis:county_name": "Yakima", "gnis:created": "03/01/1990", "gnis:feature_id": "1534035", "gnis:feature_type": "Airport", "lit": "no", "name": "Signal Peak Lookout Heliport", "operator": "Yakima Nation", "source_ref": "geonames.usgs.gov", "surface": "concrete", "wikidata": "Q61726222"}}, {"type": "node", "id": 369035125, "lat": 47.5741591, "lon": -122.5483143, "tags": {"addr:state": "WA", "aeroway": "helipad", "ele": "4", "gnis:county_name": "Kitsap", "gnis:created": "05/01/1992", "gnis:feature_id": "1534184", "gnis:feature_type": "Airport", "name": "Manchester Laboratory Heliport", "source_ref": "geonames.usgs.gov"}}, {"type": "node", "id": 369169269, "lat": 40.893599, "lon": -121.6513632, "tags": {"access": "private", "addr:state": "CA", "aeroway": "helipad", "ele": "951", "gnis:county_name": "Shasta", "gnis:created": "03/01/1994", "gnis:feature_id": "1653294", "gnis:feature_type": "Airport", "name": "Burney Service Center Heliport", "source_ref": "geonames.usgs.gov"}}, {"type": "node", "id": 369170071, "lat": 40.1329463, "lon": -120.9310669, "tags": {"addr:state": "CA", "aeroway": "helipad", "ele": "1137", "gnis:county_name": "Plumas", "gnis:created": "03/01/1994", "gnis:feature_id": "1653497", "gnis:feature_type": "Airport", "name": "Indian Valley Hospital Heliport", "source_ref": "geonames.usgs.gov"}}, {"type": "node", "id": 369170508, "lat": 40.5218914, "lon": -122.3046045, "tags": {"addr:state": "CA", "aeroway": "helipad", "ele": "153", "gnis:county_name": "Shasta", "gnis:created": "03/01/1994", "gnis:feature_id": "1653865", "gnis:feature_type": "Airport", "name": "American Display Heliport", "source_ref": "geonames.usgs.gov"}}, {"type": "node", "id": 371885852, "lat": 45.4450102, "lon": -122.7738821, "tags": {"aeroway": "helipad"}}, {"type": "node", "id": 386266883, "lat": 46.1159297, "lon": -123.931349, "tags": {"aeroway": "helipad", "closest_town": "Warrenton, Oregon", "ele": "10", "faa": "15OR", "lit": "no", "name": "Camp Rilea Heliport", "operator": "Oregon National Guard", "source": "wikipedia", "surface": "grass", "type": "military", "wikidata": "Q3274410", "wikipedia": "en:Camp Rilea Heliport"}}, {"type": "node", "id": 387981384, "lat": 42.2056911, "lon": -122.63359, "tags": {"aerodrome:type": "private", "aeroway": "helipad", "closest_town": "Ashland, Oregon", "ele": "640", "faa": "65OR", "name": "Timberland Shop Heliport", "operator": "T.L. Forest Products Inc.", "source": "wikipedia", "type": "private"}}, {"type": "node", "id": 401793813, "lat": 47.4710238, "lon": -120.334467, "tags": {"aeroway": "helipad"}}, {"type": "node", "id": 405080181, "lat": 47.0875473, "lon": -122.581392, "tags": {"aeroway": "helipad", "name": "H6"}}, {"type": "node", "id": 405080182, "lat": 47.0869754, "lon": -122.5849219, "tags": {"aeroway": "helipad"}}, {"type": "node", "id": 405080192, "lat": 47.071422, "lon": -122.575969, "tags": {"aeroway": "helipad", "name": "H12"}}, {"type": "node", "id": 405080194, "lat": 47.0732583, "lon": -122.576577, "tags": {"aeroway": "helipad", "name": "H11"}}, {"type": "node", "id": 405080195, "lat": 47.0753216, "lon": -122.577269, "tags": {"aeroway": "helipad", "name": "H10"}}, {"type": "node", "id": 405080196, "lat": 47.0768298, "lon": -122.5777212, "tags": {"aeroway": "helipad", "name": "H9"}}, {"type": "node", "id": 405080199, "lat": 47.0794531, "lon": -122.578658, "tags": {"aeroway": "helipad", "name": "H8"}}, {"type": "node", "id": 405080201, "lat": 47.0827841, "lon": -122.579762, "tags": {"aeroway": "helipad", "name": "H7"}}, {"type": "node", "id": 427655186, "lat": 42.7125417, "lon": -120.5606011, "tags": {"aeroway": "helipad"}}, {"type": "node", "id": 427666772, "lat": 43.2369227, "lon": -120.6732896, "tags": {"aeroway": "helipad"}}, {"type": "node", "id": 457002114, "lat": 48.8397945, "lon": -123.2963402, "tags": {"aeroway": "helipad"}}, {"type": "node", "id": 648922564, "lat": 48.0563065, "lon": -122.8082575, "tags": {"aeroway": "helipad", "source": "yahoo_wms"}}, {"type": "node", "id": 888406957, "lat": 49.3116867, "lon": -122.5052646, "tags": {"aeroway": "helipad"}}, {"type": "node", "id": 968355304, "lat": 49.2263543, "lon": -122.890214, "tags": {"aeroway": "helipad"}}, {"type": "node", "id": 1034548691, "lat": 47.5571549, "lon": -122.3425866, "tags": {"aeroway": "helipad", "source": "bing"}}, {"type": "node", "id": 1042018786, "lat": 43.5283671, "lon": -123.5460639, "tags": {"addr:housenumber": "Douglas County Emergency Landing Zone 17", "aeroway": "helipad", "name": "Umpqua Riverfront RV Heliport", "source": "ourairports.com", "wikidata": "Q5435544"}}, {"type": "node", "id": 1042133731, "lat": 44.3216991, "lon": -121.1944556, "tags": {"aeroway": "helipad", "name": "Cinder Butte Heliport", "source": "ourairports.com", "wikidata": "Q3274286"}}, {"type": "node", "id": 1042133733, "lat": 48.1533369, "lon": -122.2339176, "tags": {"aeroway": "helipad", "faa": "62WA", "lit": "no", "name": "Lakewood Heliport", "source": "ourairports.com", "surface": "concrete", "wikidata": "Q61725812"}}, {"type": "node", "id": 1042133820, "lat": 43.0984001, "lon": -123.4280014, "tags": {"aeroway": "helipad", "name": "Winston-Dillard Fire District Station Nr 2 Heliport", "source": "ourairports.com"}}, {"type": "node", "id": 1042133912, "lat": 41.3305016, "lon": -120.0970001, "tags": {"aeroway": "helipad", "name": "White Pine Heliport", "source": "ourairports.com"}}, {"type": "node", "id": 1042134055, "lat": 49.3769464, "lon": -121.4233593, "tags": {"aeroway": "helipad", "name": "Hope (Fraser Canyon Hospital) Heliport", "source": "ourairports.com"}}, {"type": "node", "id": 1042134059, "lat": 49.1199607, "lon": -123.0472679, "tags": {"aeroway": "helipad", "name": "Delta (North) Heliport", "source": "ourairports.com"}}, {"type": "node", "id": 1042134063, "lat": 49.1327536, "lon": -122.3436152, "tags": {"aeroway": "helipad", "name": "Mission (Public Safety) Heliport", "source": "ourairports.com"}}, {"type": "node", "id": 1042134067, "lat": 48.5314944, "lon": -124.458148, "tags": {"aeroway": "helipad", "name": "San Juan Point (Coast Guard) Heliport", "ref": "CBJ9"}}, {"type": "node", "id": 1042134069, "lat": 49.2488637, "lon": -124.7831218, "tags": {"aeroway": "helipad", "name": "Port Alberni (West Coast General Hospital) Heliport"}}, {"type": "node", "id": 1042134080, "lat": 49.2898172, "lon": -124.9390957, "tags": {"aeroway": "helipad", "name": "Port Alberni/Sproat Lake Tanker Base Heliport"}}, {"type": "node", "id": 1042134087, "lat": 45.6497993, "lon": -122.200996, "tags": {"aeroway": "helipad", "faa": "6WA1", "lit": "no", "name": "Sampson Heliport", "source": "ourairports.com", "surface": "grass", "wikidata": "Q61725854"}}, {"type": "node", "id": 1042134089, "lat": 47.3370816, "lon": -122.5792446, "tags": {"addr:city": "Gig Harbor", "addr:housenumber": "8702", "addr:postcode": "98332", "addr:state": "WA", "addr:street": "Goodman Drive Northwest", "aeroway": "helipad", "faa": "6WA8", "lit": "no", "name": "East Gig Harbor Heliport", "source": "ourairports.com", "surface": "gravel", "wikidata": "Q61725941"}}, {"type": "node", "id": 1042134111, "lat": 49.2608795, "lon": -123.0280688, "tags": {"aeroway": "helipad", "name": "Vancouver (Vancouver Film Studios) Heliport", "source": "ourairports.com"}}, {"type": "node", "id": 1042134125, "lat": 49.1087808, "lon": -122.4800518, "tags": {"aeroway": "helipad", "name": "Aldergrove (Hicks) Heliport", "source": "ourairports.com"}}, {"type": "node", "id": 1042134150, "lat": 49.1848666, "lon": -123.9890834, "tags": {"aeroway": "helipad", "name": "Nanaimo (West Coast) Heliport"}}, {"type": "node", "id": 1042135241, "lat": 43.6644599, "lon": -121.5075829, "tags": {"aeroway": "helipad", "name": "La Pine Heliport", "source": "ourairports.com", "wikidata": "Q6464419"}}, {"type": "node", "id": 1042142341, "lat": 48.0419998, "lon": -122.225997, "tags": {"aeroway": "helipad", "faa": "WA43", "lit": "no", "name": "Janes Heliport", "source": "ourairports.com", "surface": "concrete", "wikidata": "Q61726003"}}, {"type": "node", "id": 1042142347, "lat": 47.3522034, "lon": -122.625137, "tags": {"aeroway": "helipad", "faa": "WA50", "lit": "yes", "name": "Fire District 5 EMS Heliport", "source": "ourairports.com", "surface": "asphalt", "wikidata": "Q61725942"}}, {"type": "node", "id": 1042142358, "lat": 46.0980988, "lon": -122.9660034, "tags": {"aeroway": "helipad", "name": "Longview Bridge Medical Emergency Heliport", "source": "ourairports.com"}}, {"type": "node", "id": 1042142362, "lat": 43.5547981, "lon": -122.6819992, "tags": {"aeroway": "helipad", "name": "Washington National Guard - Sinclair Hgts Heliport", "source": "ourairports.com"}}, {"type": "node", "id": 1042142769, "lat": 45.5300177, "lon": -122.8823945, "tags": {"aeroway": "helipad", "name": "Amber Glen Business Center Hp Heliport", "source": "ourairports.com"}}, {"type": "node", "id": 1042142951, "lat": 42.3580025, "lon": -122.5118492, "tags": {"aerodrome:type": "private", "aeroway": "helipad", "name": "Light Valley Tree Farm Heliport", "source": "ourairports.com"}}, {"type": "node", "id": 1042143007, "lat": 47.972222, "lon": -122.696667, "tags": {"aeroway": "helipad", "faa": "8WN4", "lit": "no", "name": "Johnson Heliport", "source": "ourairports.com", "surface": "gravel", "wikidata": "Q61726074"}}, {"type": "node", "id": 1042143048, "lat": 45.3364983, "lon": -122.6650009, "tags": {"aeroway": "helipad", "name": "Falcon Point Heliport", "source": "ourairports.com"}}, {"type": "node", "id": 1042143064, "lat": 44.3123626, "lon": -121.0044113, "tags": {"aeroway": "helipad", "name": "Robeck Landing Heliport", "source": "ourairports.com"}}, {"type": "node", "id": 1042143147, "lat": 46.6754439, "lon": -120.5060129, "tags": {"aeroway": "helipad", "faa": "98WA", "lit": "no", "name": "Zirkle Fruit Company Heliport", "source": "ourairports.com", "surface": "concrete", "wikidata": "Q61726132"}}, {"type": "node", "id": 1042143298, "lat": 45.6031725, "lon": -123.078905, "tags": {"aeroway": "helipad", "name": "Fishback Heliport", "source": "ourairports.com", "wikidata": "Q61724403"}}, {"type": "node", "id": 1042144429, "lat": 48.8625593, "lon": -123.508722, "tags": {"aeroway": "helipad", "lit": "yes", "name": "Ganges (Lady Minto/Gulf Islands Hospital) Heliport", "operator": "BC Ambulance Service", "surface": "concrete"}}, {"type": "node", "id": 1042144893, "lat": 48.8332012, "lon": -123.5039883, "tags": {"aeroway": "helipad", "name": "Mount Belcher Heliport"}}, {"type": "node", "id": 1042144993, "lat": 40.5982869, "lon": -122.332305, "tags": {"aeroway": "helipad", "name": "The McConnell Foundation Heliport", "source": "ourairports.com"}}, {"type": "node", "id": 1042145309, "lat": 49.0110459, "lon": -122.6722133, "tags": {"aeroway": "helipad", "name": "Langley (Russell Farm) Heliport", "source": "ourairports.com"}}, {"type": "node", "id": 1042150782, "lat": 43.974783, "lon": -124.094067, "tags": {"aeroway": "helipad", "name": "Pier 126 Heliport", "source": "ourairports.com"}}, {"type": "node", "id": 1042150792, "lat": 43.0233251, "lon": -123.281302, "tags": {"aeroway": "helipad", "name": "Myrtle Creek Municipal Heliport", "source": "ourairports.com", "wikidata": "Q1528920"}}, {"type": "node", "id": 1042150937, "lat": 43.2154007, "lon": -123.3570023, "tags": {"aeroway": "helipad", "name": "Douglas Community Hospital Heliport", "source": "ourairports.com"}}, {"type": "node", "id": 1042150954, "lat": 44.146801, "lon": -121.3710022, "tags": {"aeroway": "helipad", "name": "Horseman Heliport", "source": "ourairports.com", "wikidata": "Q3207594"}}, {"type": "node", "id": 1042150977, "lat": 46.103199, "lon": -122.987999, "tags": {"aeroway": "helipad", "name": "Rainier Heliport", "source": "ourairports.com", "wikidata": "Q428415"}}, {"type": "node", "id": 1042152900, "lat": 42.1242981, "lon": -121.4580002, "tags": {"aeroway": "helipad", "name": "Juniper Hills Airport", "source": "ourairports.com"}}, {"type": "node", "id": 1042153326, "lat": 48.9874209, "lon": -122.288122, "tags": {"aeroway": "helipad", "faa": "WA03", "lit": "no", "name": "Tristan Heliport", "source": "ourairports.com", "surface": "grass", "wikidata": "Q61726175"}}, {"type": "node", "id": 1042153332, "lat": 47.3018013, "lon": -122.1430384, "tags": {"addr:city": "Auburn", "addr:housenumber": "14910", "addr:postcode": "98002", "addr:state": "WA", "addr:street": "Southeast Lake Holm Road", "aeroway": "helipad", "faa": "WA06", "lit": "no", "name": "Don Johnson Home Heliport", "source": "ourairports.com", "surface": "concrete", "wikidata": "Q61725817"}}, {"type": "node", "id": 1042153343, "lat": 47.682043, "lon": -122.148456, "tags": {"aeroway": "helipad", "faa": "WA19", "lit": "no", "name": "Berkley Structures Heliport", "source": "ourairports.com", "surface": "asphalt", "wikidata": "Q61726094"}}, {"type": "node", "id": 1042153356, "lat": 46.9749985, "lon": -122.7900009, "tags": {"aeroway": "helipad", "name": "Stonehedge Heliport", "source": "ourairports.com"}}, {"type": "node", "id": 1042153357, "lat": 48.5858002, "lon": -122.920997, "tags": {"aeroway": "helipad", "faa": "WA33", "lit": "yes", "name": "Shaw Island Trust Heliport", "source": "ourairports.com", "surface": "grass", "wikidata": "Q61726141"}}, {"type": "node", "id": 1052502046, "lat": 49.6210885, "lon": -122.6525042, "tags": {"aeroway": "helipad"}}, {"type": "node", "id": 1071888248, "lat": 49.6839065, "lon": -123.173124, "tags": {"aeroway": "helipad"}}, {"type": "node", "id": 1071902718, "lat": 49.6970507, "lon": -123.1418789, "tags": {"aeroway": "helipad"}}, {"type": "node", "id": 1076416614, "lat": 49.1809553, "lon": -123.1550056, "tags": {"aeroway": "helipad"}}, {"type": "node", "id": 1076416619, "lat": 49.1810664, "lon": -123.1841194, "tags": {"aeroway": "helipad", "name": "Canadian Coast Guard Hovercraft Base"}}, {"type": "node", "id": 1076416674, "lat": 49.1813001, "lon": -123.1586022, "tags": {"aeroway": "helipad"}}, {"type": "node", "id": 1076416686, "lat": 49.1811626, "lon": -123.157492, "tags": {"aeroway": "helipad"}}, {"type": "node", "id": 1093420732, "lat": 49.166088, "lon": -122.545055, "tags": {"aeroway": "helipad"}}, {"type": "node", "id": 1093436795, "lat": 49.165932, "lon": -122.5440734, "tags": {"aeroway": "helipad"}}, {"type": "node", "id": 1102893145, "lat": 49.3600766, "lon": -123.1070532, "tags": {"aeroway": "helipad"}}, {"type": "node", "id": 1148617247, "lat": 49.2692003, "lon": -122.9333344, "tags": {"aeroway": "helipad"}}, {"type": "node", "id": 1171654072, "lat": 49.2879909, "lon": -122.3388579, "tags": {"aeroway": "helipad"}}, {"type": "node", "id": 1180140937, "lat": 49.2546093, "lon": -122.9351751, "tags": {"aeroway": "helipad", "name": "Global TV Helipad"}}, {"type": "node", "id": 1315846052, "lat": 49.6643765, "lon": -123.2566505, "tags": {"aeroway": "helipad"}}, {"type": "node", "id": 1315846165, "lat": 49.664446, "lon": -123.2564708, "tags": {"aeroway": "helipad"}}, {"type": "node", "id": 1370542450, "lat": 48.8083082, "lon": -123.1850347, "tags": {"aeroway": "helipad", "source": "local knowledge"}}, {"type": "node", "id": 1371725939, "lat": 49.3599575, "lon": -123.155184, "tags": {"aeroway": "helipad", "note": "Rescue Helipad", "operator": "NSR", "surface": "wood"}}, {"type": "node", "id": 1513955137, "lat": 49.1937071, "lon": -122.9190391, "tags": {"aeroway": "helipad"}}, {"type": "node", "id": 1587495689, "lat": 45.5512862, "lon": -122.3947839, "tags": {"aeroway": "helipad"}}, {"type": "node", "id": 1587495720, "lat": 45.551525, "lon": -122.3974442, "tags": {"aeroway": "helipad"}}, {"type": "node", "id": 1587495986, "lat": 45.5523503, "lon": -122.3947594, "tags": {"aeroway": "helipad"}}, {"type": "node", "id": 1588761988, "lat": 45.5328204, "lon": -122.6672216, "tags": {"aeroway": "helipad", "layer": "1"}}, {"type": "node", "id": 1663991555, "lat": 48.4603195, "lon": -123.3763113, "tags": {"aeroway": "helipad"}}, {"type": "node", "id": 1754307274, "lat": 40.6687361, "lon": -121.4196923, "tags": {"aeroway": "helipad"}}, {"type": "node", "id": 1850996899, "lat": 49.4165154, "lon": -123.2352086, "tags": {"aeroway": "helipad"}}, {"type": "node", "id": 1895372744, "lat": 48.7454082, "lon": -123.5414501, "tags": {"aeroway": "helipad", "note": "Emergency use only"}}, {"type": "node", "id": 1899462689, "lat": 47.71096, "lon": -121.340828, "tags": {"aeroway": "helipad", "lit": "no", "name": "Skykomish LZ", "surface": "grass"}}, {"type": "node", "id": 1976334988, "lat": 49.2155262, "lon": -122.8276421, "tags": {"aeroway": "helipad"}}, {"type": "node", "id": 1976342642, "lat": 49.2153583, "lon": -122.8409139, "tags": {"aeroway": "helipad"}}, {"type": "node", "id": 1998036764, "lat": 48.4593928, "lon": -123.5633649, "tags": {"aeroway": "helipad"}}, {"type": "node", "id": 2045669928, "lat": 49.0797183, "lon": -123.0073999, "tags": {"aeroway": "helipad"}}, {"type": "node", "id": 2090830506, "lat": 43.5267742, "lon": -121.9479081, "tags": {"aeroway": "helipad"}}, {"type": "node", "id": 2094660229, "lat": 40.7192205, "lon": -123.9286505, "tags": {"aeroway": "helipad"}}, {"type": "node", "id": 2095147453, "lat": 48.547078, "lon": -122.6259001, "tags": {"aeroway": "helipad"}}, {"type": "node", "id": 2367667001, "lat": 43.4109085, "lon": -124.2418011, "tags": {"aeroway": "helipad"}}, {"type": "node", "id": 2367667002, "lat": 43.4109128, "lon": -124.2415464, "tags": {"aeroway": "helipad"}}, {"type": "node", "id": 2393491802, "lat": 49.0797216, "lon": -123.0077581, "tags": {"aeroway": "helipad"}}, {"type": "node", "id": 2418098960, "lat": 46.1514606, "lon": -123.7951683, "tags": {"aeroway": "helipad", "source": "Bing"}}, {"type": "node", "id": 2420210666, "lat": 46.9726829, "lon": -122.8952234, "tags": {"aeroway": "helipad"}}, {"type": "node", "id": 2512551106, "lat": 49.2474803, "lon": -122.973838, "tags": {"aeroway": "helipad", "maxweight": "4000 lbs"}}, {"type": "node", "id": 2535931564, "lat": 48.6877343, "lon": -123.4094505, "tags": {"aeroway": "helipad", "surface": "asphalt"}}, {"type": "node", "id": 2580382271, "lat": 48.879683, "lon": -123.6525118, "tags": {"aeroway": "helipad"}}, {"type": "node", "id": 2580382276, "lat": 48.879739, "lon": -123.6521689, "tags": {"aeroway": "helipad"}}, {"type": "node", "id": 2616899292, "lat": 48.60886, "lon": -124.0822037, "tags": {"aeroway": "helipad"}}, {"type": "node", "id": 2621883550, "lat": 48.5240488, "lon": -124.1386968, "tags": {"aeroway": "helipad"}}, {"type": "node", "id": 2698037514, "lat": 42.4052957, "lon": -122.9480652, "tags": {"aerodrome:type": "private", "aeroway": "helipad"}}, {"type": "node", "id": 2835034898, "lat": 44.0228043, "lon": -121.4824284, "tags": {"aeroway": "helipad", "name": "Helicopter Pad", "tourism": "information"}}, {"type": "node", "id": 2859270405, "lat": 43.6595105, "lon": -121.0341179, "tags": {"aeroway": "helipad", "name": "USFS Helispot"}}, {"type": "node", "id": 2917692854, "lat": 48.5236, "lon": -123.0264076, "tags": {"aeroway": "helipad", "name": "EMS"}}, {"type": "node", "id": 3048268238, "lat": 42.5079293, "lon": -123.3841843, "tags": {"aeroway": "helipad", "name": "USDA-FS Operations Area"}}, {"type": "node", "id": 3048271339, "lat": 42.5063789, "lon": -123.3824701, "tags": {"aeroway": "helipad", "name": "Interagency Fire Center Helipad"}}, {"type": "node", "id": 3113967756, "lat": 46.009144, "lon": -122.8496277, "tags": {"aeroway": "helipad"}}, {"type": "node", "id": 3245268351, "lat": 49.9507448, "lon": -125.267999, "tags": {"aeroway": "helipad", "ref": "H1"}}, {"type": "node", "id": 3245268941, "lat": 49.9520346, "lon": -125.2707291, "tags": {"aeroway": "helipad", "ref": "H2"}}, {"type": "node", "id": 3245463583, "lat": 49.2667076, "lon": -124.1494842, "tags": {"aeroway": "helipad"}}, {"type": "node", "id": 3245463584, "lat": 49.2667915, "lon": -124.1498003, "tags": {"aeroway": "helipad"}}, {"type": "node", "id": 3246637481, "lat": 49.7529955, "lon": -126.0548725, "tags": {"addr:housenumber": "500", "addr:street": "Western Drive", "aeroway": "helipad", "name": "Heliport"}}, {"type": "node", "id": 3246637482, "lat": 48.8466767, "lon": -123.2841889, "tags": {"aeroway": "helipad", "name": "Mayne Island (Medical Emergency) Heliport"}}, {"type": "node", "id": 3246637483, "lat": 49.3071779, "lon": -124.4133715, "tags": {"aeroway": "helipad", "name": "Qualicum Beach (Aerosmith Heli Service) Heliport"}}, {"type": "node", "id": 3383957726, "lat": 42.4847438, "lon": -122.8629965, "tags": {"aeroway": "helipad"}}, {"type": "node", "id": 3470754930, "lat": 48.1745323, "lon": -122.3531233, "tags": {"aeroway": "helipad"}}, {"type": "node", "id": 3536553202, "lat": 42.9306017, "lon": -122.950828, "tags": {"aeroway": "helipad"}}, {"type": "node", "id": 3635686079, "lat": 48.784299, "lon": -123.0449698, "tags": {"aeroway": "helipad"}}, {"type": "node", "id": 3648103535, "lat": 48.4204449, "lon": -124.044349, "tags": {"aeroway": "helipad"}}, {"type": "node", "id": 3660762756, "lat": 49.2629754, "lon": -124.7903434, "tags": {"aeroway": "helipad", "name": "Coulson Group Heliport", "source": "Bing"}}, {"type": "node", "id": 3663758272, "lat": 47.3277376, "lon": -122.8365096, "tags": {"aeroway": "helipad"}}, {"type": "node", "id": 3779079816, "lat": 49.9989432, "lon": -125.1959049, "tags": {"aeroway": "helipad"}}, {"type": "node", "id": 3923011427, "lat": 41.5562343, "lon": -122.8538456, "tags": {"aeroway": "helipad"}}, {"type": "node", "id": 3923011428, "lat": 41.5559218, "lon": -122.8538208, "tags": {"aeroway": "helipad"}}, {"type": "node", "id": 3949439482, "lat": 47.6841065, "lon": -122.1414052, "tags": {"aeroway": "helipad"}}, {"type": "node", "id": 3969278323, "lat": 47.6432991, "lon": -122.521508, "tags": {"aeroway": "helipad", "faa": "2WA4", "lit": "yes", "name": "Bainbridge Island Fire Department Heliport", "operator": "Bainbridge Island Fire Department", "ref": "H1", "surface": "asphalt", "wikidata": "Q61725821"}}, {"type": "node", "id": 4092755895, "lat": 49.1512658, "lon": -121.9461863, "tags": {"aeroway": "helipad"}}, {"type": "node", "id": 4188335292, "lat": 48.7927549, "lon": -123.2859556, "tags": {"aeroway": "helipad"}}, {"type": "node", "id": 4234672191, "lat": 49.9233394, "lon": -126.6547942, "tags": {"aeroway": "helipad"}}, {"type": "node", "id": 4286299641, "lat": 44.2227551, "lon": -121.0993782, "tags": {"aeroway": "helipad"}}, {"type": "node", "id": 4395581591, "lat": 49.3904619, "lon": -122.943054, "tags": {"aeroway": "helipad", "lit": "no", "name": "Emergency Helipad", "surface": "gravel"}}, {"type": "node", "id": 4498723173, "lat": 49.1823984, "lon": -123.1766368, "tags": {"aeroway": "helipad"}}, {"type": "node", "id": 4498723561, "lat": 49.1825588, "lon": -123.1768371, "tags": {"aeroway": "helipad"}}, {"type": "node", "id": 4498740751, "lat": 49.1770978, "lon": -123.1675937, "tags": {"aeroway": "helipad"}}, {"type": "node", "id": 4498744617, "lat": 49.1841418, "lon": -123.1769658, "tags": {"aeroway": "helipad"}}, {"type": "node", "id": 4498749823, "lat": 49.1841101, "lon": -123.176691, "tags": {"aeroway": "helipad"}}, {"type": "node", "id": 4498751292, "lat": 49.1839872, "lon": -123.1769855, "tags": {"aeroway": "helipad"}}, {"type": "node", "id": 4525918589, "lat": 43.8121932, "lon": -120.5999755, "tags": {"aeroway": "helipad"}}, {"type": "node", "id": 4526341225, "lat": 43.1257246, "lon": -121.0473969, "tags": {"aeroway": "helipad"}}, {"type": "node", "id": 4944040626, "lat": 45.7201198, "lon": -120.698023, "tags": {"aeroway": "helipad", "source": "Bing"}}, {"type": "node", "id": 4951814308, "lat": 47.0561598, "lon": -123.259685, "tags": {"aeroway": "helipad", "faa": "4WA7", "lit": "yes", "name": "Mark Reed Hospital Heliport", "surface": "concrete", "wikidata": "Q61726009"}}, {"type": "node", "id": 4954295842, "lat": 49.718684, "lon": -124.9012256, "tags": {"aeroway": "helipad"}}, {"type": "node", "id": 4954295843, "lat": 49.7136404, "lon": -124.8990712, "tags": {"aeroway": "helipad"}}, {"type": "node", "id": 4954295844, "lat": 49.7092191, "lon": -124.901907, "tags": {"aeroway": "helipad"}}, {"type": "node", "id": 4957841961, "lat": 49.6810822, "lon": -124.9827767, "tags": {"aeroway": "helipad"}}, {"type": "node", "id": 5003251857, "lat": 49.923403, "lon": -126.6552589, "tags": {"aeroway": "helipad"}}, {"type": "node", "id": 5065005162, "lat": 47.6061228, "lon": -122.33384, "tags": {"aeroway": "helipad", "faa": "WA54", "lit": "yes", "name": "1001 Fourth Avenue Plaza Heliport", "surface": "concrete", "wikidata": "Q61726118"}}, {"type": "node", "id": 5185058240, "lat": 49.1817672, "lon": -123.1667965, "tags": {"aeroway": "helipad"}}, {"type": "node", "id": 5185058241, "lat": 49.1817458, "lon": -123.1662595, "tags": {"aeroway": "helipad"}}, {"type": "node", "id": 5185058242, "lat": 49.1827094, "lon": -123.1770347, "tags": {"aeroway": "helipad"}}, {"type": "node", "id": 5185058243, "lat": 49.1828619, "lon": -123.1772264, "tags": {"aeroway": "helipad"}}, {"type": "node", "id": 5185058244, "lat": 49.1830281, "lon": -123.1774057, "tags": {"aeroway": "helipad"}}, {"type": "node", "id": 5349555130, "lat": 49.742655, "lon": -124.1786574, "tags": {"aeroway": "helipad", "emergency": "landing_site"}}, {"type": "node", "id": 5368758818, "lat": 49.2433464, "lon": -124.6829072, "tags": {"aeroway": "helipad"}}, {"type": "node", "id": 5595487015, "lat": 47.5402203, "lon": -121.811666, "tags": {"aeroway": "helipad"}}, {"type": "node", "id": 5639659711, "lat": 48.0884007, "lon": -123.1108979, "tags": {"aeroway": "helipad", "faa": "3WA9", "lit": "yes", "name": "Sequim EMS Heliport", "surface": "concrete", "wikidata": "Q61726140"}}, {"type": "node", "id": 5794649443, "lat": 49.0794004, "lon": -123.0173862, "tags": {"aeroway": "helipad"}}, {"type": "node", "id": 5794649444, "lat": 49.0793756, "lon": -123.01772, "tags": {"aeroway": "helipad"}}, {"type": "node", "id": 5794649445, "lat": 49.0794103, "lon": -123.018069, "tags": {"aeroway": "helipad"}}, {"type": "node", "id": 5960559586, "lat": 49.0803186, "lon": -123.0199132, "tags": {"aeroway": "helipad"}}, {"type": "node", "id": 6134349013, "lat": 49.7123187, "lon": -124.9693638, "tags": {"aeroway": "helipad", "name": "Comox Valley Hospital Heliport"}}, {"type": "node", "id": 6291930129, "lat": 49.782434, "lon": -123.1603016, "tags": {"aeroway": "helipad"}}, {"type": "node", "id": 6564188976, "lat": 44.621609, "lon": -122.0445831, "tags": {"aeroway": "helipad"}}, {"type": "node", "id": 6720158414, "lat": 49.7866934, "lon": -123.2481639, "tags": {"aeroway": "helipad", "name": "Helipad"}}, {"type": "node", "id": 7080516628, "lat": 43.2602178, "lon": -122.4137181, "tags": {"aeroway": "helipad"}}, {"type": "node", "id": 7377577876, "lat": 48.8663604, "lon": -123.6412825, "tags": {"aeroway": "helipad"}}, {"type": "node", "id": 7811782176, "lat": 45.5170187, "lon": -123.089456, "tags": {"aeroway": "helipad", "description": "possible unmarked helipad", "fixme": "needs to be confirmed", "source": "Bing"}}, {"type": "node", "id": 7813464950, "lat": 48.4018097, "lon": -123.5727623, "tags": {"aeroway": "helipad"}}, {"type": "node", "id": 7911774551, "lat": 41.8369809, "lon": -124.3752818, "tags": {"access": "private", "aeroway": "helipad", "name": "St. George Reef Lighthouse Helipad"}}, {"type": "node", "id": 7966730468, "lat": 48.556447, "lon": -124.4145453, "tags": {"aeroway": "helipad", "surface": "concrete"}}, {"type": "node", "id": 8014709388, "lat": 40.9765158, "lon": -124.1126752, "tags": {"aeroway": "helipad", "name": "USCG"}}, {"type": "node", "id": 8014709389, "lat": 40.9760492, "lon": -124.1127867, "tags": {"aeroway": "helipad", "name": "USCG"}}, {"type": "node", "id": 8014709390, "lat": 40.9756183, "lon": -124.1128897, "tags": {"aeroway": "helipad", "name": "USCG"}}, {"type": "node", "id": 8014709391, "lat": 40.9755843, "lon": -124.1126365, "tags": {"aeroway": "helipad", "name": "USCG"}}, {"type": "node", "id": 8051730947, "lat": 40.3766762, "lon": -120.575645, "tags": {"aeroway": "helipad"}}, {"type": "node", "id": 8082799896, "lat": 40.5521882, "lon": -124.1267613, "tags": {"aeroway": "helipad"}}, {"type": "node", "id": 8250885247, "lat": 47.2931299, "lon": -122.2457728, "tags": {"aeroway": "helipad", "faa": "WA86", "lit": "no", "name": "Boeing-Auburn Complex Heliport", "operator": "Boeing", "surface": "asphalt", "wikidata": "Q61725816"}}, {"type": "node", "id": 8250885268, "lat": 47.6531648, "lon": -122.9250089, "tags": {"aeroway": "helipad", "faa": "WA05", "lit": "no", "name": "Cormorant Heliport", "surface": "grass", "wikidata": "Q61725845"}}, {"type": "node", "id": 8250885273, "lat": 48.9524933, "lon": -122.8182741, "tags": {"addr:city": "Blaine", "addr:housenumber": "8515", "addr:postcode": "98230", "addr:state": "WA", "addr:street": "Semiahmoo Drive", "aeroway": "helipad", "faa": "0WN6", "lit": "no", "name": "L-Z Blue Thunder Heliport", "surface": "grass", "wikidata": "Q61725841"}}, {"type": "node", "id": 8250885274, "lat": 47.3344502, "lon": -122.0169658, "tags": {"aeroway": "helipad", "faa": "WA94", "fixme": "Is this location right? From FAA estimated data.", "lit": "no", "name": "Washington Air Museum Heliport", "surface": "grass", "wikidata": "Q61725839"}}, {"type": "node", "id": 8250885275, "lat": 48.8521764, "lon": -122.3303646, "tags": {"addr:city": "Bellingham", "addr:housenumber": "5844", "addr:postcode": "98226", "addr:state": "WA", "addr:street": "Sand Road", "aeroway": "helipad", "faa": "58WT", "lit": "no", "name": "Goshen Heliport", "surface": "grass", "wikidata": "Q61725831"}}, {"type": "node", "id": 8250885276, "lat": 47.6253118, "lon": -122.170489, "tags": {"aeroway": "helipad", "faa": "64WA", "lit": "no", "name": "Everett I Heliport", "surface": "asphalt", "wikidata": "Q61725826"}}, {"type": "node", "id": 8250885277, "lat": 47.6236176, "lon": -122.1673971, "tags": {"addr:city": "Bellevue", "addr:housenumber": "1457", "addr:postcode": "98005", "addr:state": "WA", "addr:street": "130th Avenue Northeast", "aeroway": "helipad", "faa": "WN71", "lit": "no", "name": "Evans Heliport", "surface": "asphalt", "wikidata": "Q61725825"}}, {"type": "node", "id": 8250885278, "lat": 47.6741988, "lon": -122.0740776, "tags": {"aeroway": "helipad", "faa": "WN91", "lit": "no", "name": "Evans Heliport", "surface": "concrete", "wikidata": "Q74844439"}}, {"type": "node", "id": 8250885279, "lat": 47.3686671, "lon": -122.069017, "tags": {"aeroway": "helipad", "faa": "WA75", "lit": "no", "name": "Flying O Ranch Heliport", "surface": "grass", "wikidata": "Q61725892"}}, {"type": "node", "id": 8250885282, "lat": 47.5127174, "lon": -120.4884422, "tags": {"addr:state": "WA", "aeroway": "helipad", "ele": "239", "gnis:county_name": "Chelan", "gnis:created": "03/01/1990", "gnis:feature_id": "1533701", "gnis:feature_type": "Airport", "lit": "no", "name": "Cascade Heliport", "source_ref": "geonames.usgs.gov", "surface": "asphalt", "wikidata": "Q61725855"}}, {"type": "node", "id": 8419766785, "lat": 47.1981818, "lon": -121.9891735, "tags": {"aeroway": "helipad", "faa": "WA27", "lit": "no", "name": "Tom Matson Enumclaw Heliport", "surface": "asphalt", "wikidata": "Q61725920"}}, {"type": "node", "id": 8419766786, "lat": 47.8032844, "lon": -122.3348161, "tags": {"aeroway": "helipad", "faa": "0WA6", "lit": "no", "name": "Swedish Edmonds Heliport", "surface": "asphalt", "wikidata": "Q61725908"}}, {"type": "node", "id": 8419766791, "lat": 47.9791083, "lon": -122.1852531, "tags": {"aeroway": "helipad", "faa": "1WA3", "lit": "no", "name": "Calkins Equipment Company Heliport", "surface": "asphalt", "wikidata": "Q61725922"}}, {"type": "node", "id": 8419766796, "lat": 47.0597401, "lon": -122.2939312, "tags": {"aeroway": "helipad", "faa": "8WA1", "lit": "no", "name": "Lone Star Pad 1 Heliport", "surface": "gravel"}}, {"type": "node", "id": 8419766804, "lat": 47.5151571, "lon": -121.826026, "tags": {"aeroway": "helipad", "faa": "8WA8", "lit": "yes", "name": "Snoqualmie Valley Hospital Emergency Room Heliport", "surface": "asphalt", "wikidata": "Q61725981"}}, {"type": "node", "id": 8419766805, "lat": 47.4098836, "lon": -122.2294971, "tags": {"aeroway": "helipad", "faa": "3WA7", "lit": "no", "name": "Kent Benaroya Heliport", "operator": "Boeing", "surface": "grass", "wikidata": "Q61725979"}}, {"type": "node", "id": 8419766806, "lat": 47.5596028, "lon": -122.0793342, "tags": {"aeroway": "helipad", "faa": "92WA", "lit": "no", "name": "Conner Heliport", "surface": "metal"}}, {"type": "node", "id": 8419766807, "lat": 47.5373411, "lon": -122.0604641, "tags": {"aeroway": "helipad", "faa": "WA71", "lit": "no", "name": "Kelly Ranch Heliport", "surface": "asphalt", "wikidata": "Q61725967"}}, {"type": "node", "id": 8419766808, "lat": 48.3798349, "lon": -122.2899646, "tags": {"aeroway": "helipad", "lit": "no", "ref": "H1", "surface": "concrete"}}, {"type": "node", "id": 8419766809, "lat": 48.380103, "lon": -122.2893784, "tags": {"aeroway": "helipad", "lit": "no", "ref": "H2", "surface": "grass"}}, {"type": "node", "id": 8419766810, "lat": 47.9824833, "lon": -122.0378833, "tags": {"addr:city": "Snohomish", "addr:housenumber": "1422", "addr:postcode": "98290", "addr:state": "WA", "addr:street": "145th Avenue Southeast", "aeroway": "helipad", "faa": "0WA0", "lit": "no", "name": "Streamline Heliport", "operator": "Streamline Aviation, LLC", "surface": "concrete", "wikidata": "Q61726001"}}, {"type": "node", "id": 8419766811, "lat": 48.0244763, "lon": -122.057889, "tags": {"aeroway": "helipad", "faa": "WA11", "lit": "no", "name": "Hartford Industrial Heliport", "surface": "concrete"}}, {"type": "node", "id": 8419766812, "lat": 48.0385981, "lon": -122.0610859, "tags": {"aeroway": "helipad", "faa": "WA31", "lit": "yes", "name": "Reoh1 Heliport", "surface": "concrete", "wikidata": "Q61725990"}}, {"type": "node", "id": 8419773253, "lat": 47.0829104, "lon": -122.3470025, "tags": {"aeroway": "helipad", "faa": "32WA", "lit": "yes", "name": "BCAG-Frederickson Heliport", "operator": "Boeing", "surface": "concrete", "wikidata": "Q61726083"}}, {"type": "node", "id": 8419773257, "lat": 47.518022, "lon": -122.2104768, "tags": {"addr:city": "Renton", "addr:housenumber": "3001", "addr:postcode": "98065", "addr:state": "WA", "addr:street": "Mountain View Avenue North", "aeroway": "helipad", "faa": "01WT", "lit": "no", "name": "Odyssey Heliport", "surface": "concrete", "wikidata": "Q61726100"}}, {"type": "node", "id": 8419773258, "lat": 47.6890875, "lon": -122.1373462, "tags": {"aeroway": "helipad", "faa": "WA8", "lit": "no", "name": "South Cove Heliport", "surface": "asphalt", "wikidata": "Q61726097"}}, {"type": "node", "id": 8419773259, "lat": 47.6424473, "lon": -122.083691, "tags": {"aeroway": "helipad", "faa": "1WA1", "lit": "yes", "name": "Weber Point Heliport", "surface": "concrete", "wikidata": "Q61726098"}}, {"type": "node", "id": 8419773260, "lat": 47.9275708, "lon": -122.8522348, "tags": {"aeroway": "helipad", "faa": "WA58", "lit": "no", "name": "Neptune Spear Heliport", "surface": "grass"}}, {"type": "node", "id": 8419773261, "lat": 47.9274016, "lon": -122.8549953, "tags": {"aeroway": "helipad", "faa": "WA56", "lit": "no", "name": "Blackheart Heliport", "surface": "dirt"}}, {"type": "node", "id": 8419773262, "lat": 47.9263265, "lon": -122.8531861, "tags": {"aeroway": "helipad", "faa": "WA17", "name": "Millionaire Heliport", "surface": "grass"}}, {"type": "node", "id": 8419773264, "lat": 47.5367532, "lon": -122.3133913, "tags": {"aeroway": "helipad", "faa": "9WA0", "lit": "no", "name": "Boeing Plant 2 Heliport", "surface": "concrete", "wikidata": "Q61726119"}}, {"type": "node", "id": 8419773265, "lat": 47.58492, "lon": -122.3268058, "tags": {"aeroway": "helipad", "faa": "WN39", "fixme": "Location incorrect?", "lit": "no", "name": "Park 90 Heliport", "surface": "concrete", "wikidata": "Q61726126"}}, {"type": "node", "id": 8419773266, "lat": 47.6196321, "lon": -122.360171, "tags": {"aeroway": "helipad", "faa": "WA55", "lit": "no", "name": "Elliott Park Heliport", "surface": "concrete", "wikidata": "Q61726122"}}, {"type": "node", "id": 8419773267, "lat": 47.6081335, "lon": -122.3322593, "tags": {"aeroway": "helipad", "faa": "9WA6", "fixme": "Location incorrect?", "lit": "no", "name": "Puget Sound Plaza Heliport", "surface": "concrete", "wikidata": "Q61726127"}}, {"type": "node", "id": 8419773269, "lat": 47.6626674, "lon": -122.2834062, "tags": {"aeroway": "helipad", "faa": "0WA8", "lit": "no", "name": "Childrens Hospital Emergency Heliport", "surface": "concrete", "wikidata": "Q61726121"}}, {"type": "node", "id": 8419773279, "lat": 47.8681428, "lon": -121.7527864, "tags": {"aeroway": "helipad", "faa": "17WA", "lit": "no", "name": "Roesler Timber Company Heliport", "surface": "concrete", "wikidata": "Q61726170"}}, {"type": "node", "id": 8419773280, "lat": 48.0458448, "lon": -122.879744, "tags": {"aeroway": "helipad", "faa": "WA60", "lit": "no", "name": "Fort Discovery Heliport", "surface": "grass", "wikidata": "Q61726136"}}, {"type": "node", "id": 8419773281, "lat": 47.2616721, "lon": -122.4361719, "tags": {"aeroway": "helipad", "faa": "29WA", "fixme": "Location incorrect?", "lit": "yes", "name": "Crossings Heliport", "surface": "metal", "wikidata": "Q61726176"}}, {"type": "node", "id": 8419773282, "lat": 47.4390404, "lon": -122.2475081, "tags": {"aeroway": "helipad", "faa": "54WA", "fixme": "Location incorrect?", "lit": "no", "name": "Tukwila Operations Center Heliport", "operator": "First Interstate Bank of Washinton", "surface": "asphalt", "wikidata": "Q61726191"}}, {"type": "node", "id": 8419773283, "lat": 47.7842949, "lon": -122.142692, "tags": {"aeroway": "helipad", "faa": "47WA", "fixme": "Location incorrect?", "lit": "no", "name": "Fitz Pad One Heliport", "surface": "gravel", "wikidata": "Q61726228"}}, {"type": "node", "id": 8419773284, "lat": 45.5708508, "lon": -122.3425691, "tags": {"aeroway": "helipad", "faa": "34WA", "lit": "no", "name": "Orbit Heliport", "operator": "Orbit Industries", "surface": "asphalt", "wikidata": "Q61726211"}}, {"type": "node", "id": 8419773290, "lat": 47.4048377, "lon": -122.4906453, "tags": {"aeroway": "helipad", "faa": "WN96", "lit": "yes", "name": "Misty Isle Farms Heliport", "surface": "concrete", "wikidata": "Q61726202"}}, {"type": "node", "id": 8530043031, "lat": 40.5395525, "lon": -121.577288, "tags": {"aeroway": "helipad"}}, {"type": "node", "id": 8579427947, "lat": 49.9536359, "lon": -125.2716237, "tags": {"aeroway": "helipad", "ref": "H2"}}, {"type": "node", "id": 8579427948, "lat": 49.9537572, "lon": -125.2718094, "tags": {"aeroway": "helipad", "ref": "H2"}}, {"type": "node", "id": 8579851238, "lat": 49.1035785, "lon": -122.6348263, "tags": {"aeroway": "helipad"}}, {"type": "node", "id": 8579851268, "lat": 49.0979911, "lon": -122.6255237, "tags": {"aeroway": "helipad"}}, {"type": "node", "id": 8579868833, "lat": 49.0974548, "lon": -122.625651, "tags": {"aeroway": "helipad"}}, {"type": "node", "id": 8579868834, "lat": 49.097392, "lon": -122.625834, "tags": {"aeroway": "helipad"}}, {"type": "node", "id": 8579868835, "lat": 49.0973077, "lon": -122.6256725, "tags": {"aeroway": "helipad"}}, {"type": "node", "id": 8605027495, "lat": 44.9079643, "lon": -123.0064031, "tags": {"aeroway": "helipad"}}, {"type": "node", "id": 8605027505, "lat": 44.9079643, "lon": -123.0060684, "tags": {"aeroway": "helipad"}}, {"type": "node", "id": 8818913085, "lat": 45.3105082, "lon": -121.4230844, "tags": {"aeroway": "helipad", "surface": "ground"}}, {"type": "node", "id": 8892110230, "lat": 42.565505, "lon": -124.3889543, "tags": {"access": "private", "aeroway": "helipad", "source": "Oregon Imagery 2018"}}, {"type": "node", "id": 8893329642, "lat": 40.6592547, "lon": -122.4878609, "tags": {"aeroway": "helipad"}}, {"type": "node", "id": 9025581223, "lat": 48.7084261, "lon": -123.4188212, "tags": {"aeroway": "helipad"}}, {"type": "node", "id": 9146204751, "lat": 40.7685591, "lon": -120.724578, "tags": {"aeroway": "helipad"}}, {"type": "node", "id": 9157408177, "lat": 49.16622, "lon": -122.546177, "tags": {"aeroway": "helipad"}}, {"type": "node", "id": 9186512435, "lat": 47.540046, "lon": -120.5197156, "tags": {"aeroway": "helipad"}}, {"type": "node", "id": 9217191715, "lat": 46.4434705, "lon": -120.3401541, "tags": {"aeroway": "helipad"}}, {"type": "node", "id": 9217191716, "lat": 46.4435537, "lon": -120.340323, "tags": {"aeroway": "helipad"}}, {"type": "node", "id": 9530911761, "lat": 49.785875, "lon": -123.2504177, "tags": {"aeroway": "helipad", "lit": "no", "surface": "unpaved"}}, {"type": "node", "id": 9603974355, "lat": 49.2822167, "lon": -124.2519466, "tags": {"aeroway": "helipad"}}, {"type": "node", "id": 9641890358, "lat": 40.4334728, "lon": -121.8747138, "tags": {"aeroway": "helipad", "name": "Manton Cal Fire"}}, {"type": "node", "id": 9690732159, "lat": 40.6763594, "lon": -121.4279064, "tags": {"aeroway": "helipad", "name": "Old Station Volunteer Fire Company #12 Helipad", "source": "aerial imagery"}}, {"type": "node", "id": 9690752700, "lat": 40.8060591, "lon": -121.5143914, "tags": {"aeroway": "helipad", "source": "aerial imagery"}}, {"type": "node", "id": 9950255207, "lat": 49.085064, "lon": -122.6853045, "tags": {"aeroway": "helipad"}}, {"type": "node", "id": 9956856774, "lat": 44.9141844, "lon": -123.002192, "tags": {"aeroway": "helipad"}}, {"type": "node", "id": 10019152637, "lat": 40.6684102, "lon": -121.4193365, "tags": {"aeroway": "helipad"}}, {"type": "node", "id": 10019152638, "lat": 40.6690161, "lon": -121.4201794, "tags": {"aeroway": "helipad"}}, {"type": "node", "id": 10110423472, "lat": 45.6011897, "lon": -122.7760892, "tags": {"aeroway": "helipad"}}, {"type": "node", "id": 10992900454, "lat": 42.5776314, "lon": -121.8939596, "tags": {"aeroway": "helipad"}}, {"type": "node", "id": 10992900455, "lat": 42.5780343, "lon": -121.8940643, "tags": {"aeroway": "helipad"}}, {"type": "node", "id": 11281865554, "lat": 47.4983951, "lon": -120.8333471, "tags": {"access": "private", "aeroway": "helipad", "operator": "Icicle-Peshastin Irrigation District"}}, {"type": "node", "id": 11285176238, "lat": 45.5462665, "lon": -122.3928381, "tags": {"aeroway": "helipad"}}, {"type": "node", "id": 11285176239, "lat": 45.5462616, "lon": -122.3926977, "tags": {"aeroway": "helipad"}}, {"type": "node", "id": 11285176240, "lat": 45.546261, "lon": -122.3925362, "tags": {"aeroway": "helipad"}}, {"type": "node", "id": 11285176241, "lat": 45.5462677, "lon": -122.3923958, "tags": {"aeroway": "helipad"}}, {"type": "node", "id": 11285176242, "lat": 45.5462898, "lon": -122.3922159, "tags": {"aeroway": "helipad"}}, {"type": "node", "id": 11285176243, "lat": 45.5463728, "lon": -122.392137, "tags": {"aeroway": "helipad"}}, {"type": "node", "id": 11285176244, "lat": 45.5464558, "lon": -122.3920396, "tags": {"aeroway": "helipad"}}, {"type": "node", "id": 11287758064, "lat": 45.5512865, "lon": -122.3956933, "tags": {"aeroway": "helipad"}}, {"type": "node", "id": 11287758065, "lat": 45.5524245, "lon": -122.3930358, "tags": {"aeroway": "helipad"}}, {"type": "way", "id": 31658645, "center": {"lat": 45.5109344, "lon": -122.7740642}, "nodes": [354269596, 361604827, 361604815, 361604807, 354269597, 3711574378, 361604793, 361604786, 766249768, 354269598, 766249769, 361604779, 766249770, 361604858, 354269599, 361604844, 361604767, 766249771, 354269596], "tags": {"aeroway": "helipad", "ele": "136", "faa": "53OR", "name": "Providence Saint Vincent Hospital Heliport", "ref": "53OR", "surface": "concrete", "wikidata": "Q7592093"}}, {"type": "way", "id": 35115538, "center": {"lat": 48.2534457, "lon": -121.6084587}, "nodes": [411928593, 411928594, 411928595, 411928596, 411928593], "tags": {"access": "private", "aeroway": "helipad", "faa": "WA40", "lit": "no", "name": "Darrington Clinic EMS Heliport", "old_name": "Cascade Valley Darrington Clinic Helipad", "surface": "asphalt", "wikidata": "Q61725894"}}, {"type": "way", "id": 51221376, "center": {"lat": 47.109822, "lon": -122.5570871}, "nodes": [653724010, 653724025, 653724042, 653724058, 653724073, 653724010], "tags": {"addr:state": "WA", "aeroway": "helipad", "ele": "86", "faa": "1WA8", "gnis:county_name": "Pierce", "gnis:created": "03/01/1990", "gnis:feature_id": "1533773", "gnis:feature_type": "Airport", "landuse": "military", "name": "Madigan Hospital Heliport", "operator": "US Army", "source_ref": "geonames.usgs.gov", "surface": "concrete", "wikidata": "Q61725935"}}, {"type": "way", "id": 51254668, "center": {"lat": 47.5935753, "lon": -122.688386}, "nodes": [654015203, 654015204, 654015205, 654015206, 654015207, 654015203], "tags": {"aeroway": "helipad", "source": "yahoo_wms"}}, {"type": "way", "id": 52461325, "center": {"lat": 48.0543197, "lon": -122.739177}, "nodes": [666968410, 666968411, 666968412, 666968413, 666968410], "tags": {"aeroway": "helipad", "source": "yahoo"}}, {"type": "way", "id": 69539824, "center": {"lat": 49.0979858, "lon": -122.625498}, "nodes": [3011365860, 832301554, 832301673, 1999579155, 5404043225, 832301540, 1999579168, 5404043226, 832301607, 832301705, 832301587, 3011365859, 832301689, 832301701, 832301570, 832301685, 832301548, 832301530, 832301617, 832301515, 832301597, 3011365860], "tags": {"aeroway": "helipad", "name": "CYNJ Helipad 2"}}, {"type": "way", "id": 69539828, "center": {"lat": 49.0980297, "lon": -122.6297393}, "nodes": [832301564, 3011365861, 832301682, 3011365862, 832301683, 3011365863, 832301523, 3011365864, 832301690, 3011365865, 832301715, 832301674, 832301619, 3011365866, 832301521, 3011365867, 832301603, 3011365868, 832301706, 3011365869, 5226870573, 832301584, 832301598, 3011365870, 832301647, 3011365871, 832301576, 3011365872, 832301695, 3011365873, 832301564], "tags": {"aeroway": "helipad", "name": "CYNJ Helipad 1"}}, {"type": "way", "id": 87496384, "center": {"lat": 49.3789698, "lon": -123.0818749}, "nodes": [1017788245, 1017788755, 1017788728, 1017787998, 1017788115, 1017788245], "tags": {"aeroway": "helipad"}}, {"type": "way", "id": 88316967, "center": {"lat": 49.2618956, "lon": -123.1244032}, "nodes": [1025822975, 1025822832, 1025822847, 1025822963, 1025822975], "tags": {"aeroway": "helipad", "layer": "1", "name": "Vancouver (General Hospital) Heliport", "name_1": "Vancouver General Hospital Heliport", "operator": "Vancouver General Hospital", "ref": "CBK4", "source": "Name from Deleted Node http://www.openstreetmap.org/browse/node/1042134068 thanks Bcrosby", "surface": "paved"}}, {"type": "way", "id": 91512904, "center": {"lat": 47.1961467, "lon": -122.6613734}, "nodes": [1062827147, 1062827226, 1062827281, 1062827107, 1062827147], "tags": {"aeroway": "helipad", "faa": "WA92", "name": "McNeil Island Emergency Pad Heliport", "operator": "McNeil Island Correctional Center", "source": "ourairports.com", "surface": "asphalt", "wikidata": "Q61726172"}}, {"type": "way", "id": 91693891, "center": {"lat": 47.226591, "lon": -123.1141064}, "nodes": [1065653453, 1065653556, 1065653230, 1065653434, 1065653453], "tags": {"aeroway": "helipad", "faa": "9WA8", "gnis:feature_id": "1533958", "lit": "no", "name": "Mason General Hospital Heliport", "surface": "concrete", "wikidata": "Q61726143"}}, {"type": "way", "id": 122928462, "center": {"lat": 44.0595531, "lon": -123.1189391}, "nodes": [1372079609, 1372079603, 1372079529, 1372079547, 1372079609], "tags": {"aeroway": "helipad", "operator": "Eugene Springfield Fire Department", "ref": "H1"}}, {"type": "way", "id": 126172550, "center": {"lat": 44.6044326, "lon": -123.2518711}, "nodes": [1399426751, 1399426756, 10115337384, 1399426754, 1399426752, 10115337383, 1399426753, 1399426750, 1399426740, 1399426744, 10115337382, 1399426748, 1399426747, 1399426741, 1399426745, 10115337381, 1399426749, 1399426757, 10115337380, 1399426743, 1399426742, 10115337379, 1399426755, 10115337378, 1399426746, 1399426751], "tags": {"aeroway": "helipad", "faa": "OR55", "name": "Good Samaritan Hospital Heliport", "surface": "concrete", "wikidata": "Q3913698"}}, {"type": "way", "id": 128407247, "center": {"lat": 49.2865711, "lon": -123.1064935}, "nodes": [514069354, 514069359, 514069362, 514069364, 3248657615, 3248657616, 3248657617, 11278281731, 3248657618, 1419221323, 1419221322, 2515680194, 9821262224, 1419221331, 2515680216, 39631566, 39638177, 11278281730, 3248657613, 3248657614, 514069354], "tags": {"aeroway": "heliport", "icao": "CBC7", "name": "Vancouver Heliport"}}, {"type": "way", "id": 128407250, "center": {"lat": 49.2869137, "lon": -123.106606}, "nodes": [1419221472, 1419221476, 1419221490, 1419221493, 1419221494, 1419221492, 1419221488, 1419221475, 1419221473, 1419221471, 1419221469, 1419221465, 1419221460, 1419221444, 1419221437, 1419221432, 1419221426, 1419221425, 1419221428, 1419221434, 1419221439, 1419221462, 1419221467, 1419221468, 1419221470, 1419221472], "tags": {"aeroway": "helipad", "ref": "4", "source": "Bing"}}, {"type": "way", "id": 128407253, "center": {"lat": 49.2866533, "lon": -123.1057057}, "nodes": [1419221382, 1419221385, 1419221384, 1419221380, 1419221375, 1419221373, 1419221372, 1419221369, 1419221363, 1419221359, 1419221351, 1419221347, 1419221348, 1419221349, 1419221352, 1419221361, 1419221365, 1419221367, 1419221370, 1419221374, 1419221376, 1419221378, 1419221382], "tags": {"aeroway": "helipad", "ref": "1", "source": "Bing"}}, {"type": "way", "id": 128407254, "center": {"lat": 49.2868131, "lon": -123.105597}, "nodes": [1419221446, 1419221441, 1419221430, 1419221415, 1419221414, 1419221409, 1419221405, 1419221403, 1419221401, 1419221398, 1419221394, 1419221391, 1419221387, 1419221389, 1419221392, 1419221396, 1419221402, 1419221404, 1419221406, 1419221408, 1419221412, 1419221424, 1419221446], "tags": {"aeroway": "helipad", "ref": "2", "source": "Bing"}}, {"type": "way", "id": 128407255, "center": {"lat": 49.2870614, "lon": -123.1064861}, "nodes": [1419221536, 1419221541, 1419221538, 1419221535, 1419221530, 1419221524, 1419221523, 1419221521, 1419221518, 1419221516, 1419221512, 1419221501, 1419221499, 1419221497, 1419221495, 1419221496, 1419221498, 1419221500, 1419221514, 1419221517, 1419221519, 1419221520, 1419221522, 1419221525, 1419221531, 1419221533, 1419221536], "tags": {"aeroway": "helipad", "ref": "3", "source": "Bing"}}, {"type": "way", "id": 137776545, "center": {"lat": 49.4719235, "lon": -124.6843522}, "nodes": [1510981368, 3772796513, 1510981344, 1510981236, 1510981325, 1510981368], "tags": {"aeroway": "helipad"}}, {"type": "way", "id": 144958711, "center": {"lat": 45.5250204, "lon": -122.6706952}, "nodes": [1584348530, 1586072324, 1584348524, 1586072285, 1584348517, 1586072234, 7833713418, 1584348500, 1586072217, 1584348498, 1586072215, 1584348499, 1586072218, 1584348503, 1586072256, 1584348521, 1586072300, 1584348527, 1586072329, 1584348532, 1586072368, 1584348569, 1586072410, 1584348577, 1586072425, 1584348585, 1586072427, 1584348580, 1586072412, 1584348571, 1586072396, 1584348567, 1586072366, 1584348530], "tags": {"access": "yes", "aeroway": "helipad", "closest_town": "Portland, Oregon", "ele": "23", "faa": "61J", "lit": "yes", "ref": "H1", "surface": "concrete", "type": "public"}}, {"type": "way", "id": 145332051, "center": {"lat": 45.5524441, "lon": -122.3930431}, "nodes": [1587496105, 1587496106, 1587496104, 1587496094, 1587496076, 1587496046, 1587496010, 1587496000, 1587495994, 1587495990, 1587495995, 1587496005, 1587496042, 1587496056, 1587496082, 11289496483, 1587496103, 1587496105], "tags": {"aeroway": "helipad"}}, {"type": "way", "id": 148286198, "center": {"lat": 49.3393264, "lon": -124.395741}, "nodes": [1613893962, 1613893963, 1613893961, 1613893957, 1613893953, 1613893951, 1613893949, 1613893945, 1613893944, 1613893938, 1613893933, 1613893930, 1613893922, 1613893919, 1613893920, 1613893927, 1613893932, 1613893935, 1613893939, 1613893943, 1613893946, 1613893948, 1613893950, 1613893952, 1613893956, 1613893960, 1613893962], "tags": {"aeroway": "helipad"}}, {"type": "way", "id": 148485041, "center": {"lat": 45.6239805, "lon": -122.657556}, "nodes": [1615799274, 11113182504, 1615799270, 1615799267, 1615799271, 11113199105, 1615799275, 11113199106, 1615799286, 11113199107, 1615799294, 1615799300, 1615799304, 1615799306, 1615799309, 11113182501, 1615799296, 1615799308, 1615799303, 11113182502, 1615799299, 11113182503, 1615799293, 1615799282, 1615799274], "tags": {"aeroway": "helipad"}}, {"type": "way", "id": 157489755, "center": {"lat": 48.4481301, "lon": -123.4541512}, "nodes": [1697180920, 1697180903, 1697180622, 1697180854, 1697180864, 1697180920], "tags": {"aeroway": "helipad"}}, {"type": "way", "id": 160662323, "center": {"lat": 45.4572888, "lon": -123.8550147}, "nodes": [1727007739, 1727007740, 1727007741, 1727007749, 1727007748, 1727007747, 1727007739], "tags": {"access": "private", "aeroway": "helipad", "faa": "6OR3", "gnis:feature_id": "1154049", "name": "Tillamook Regional Medical Center Heliport", "old_name": "Tillamook County General Hospital Heliport", "ref": "6OR3", "surface": "paved", "wikidata": "Q7802244"}}, {"type": "way", "id": 163789029, "center": {"lat": 47.2962342, "lon": -122.2992004}, "nodes": [1754670461, 1754670368, 1754670566, 1754670360, 1754670331, 1754670364, 1754670510, 1754670332, 1754670542, 1754670395, 1754670639, 1754670496, 1754670598, 1754670328, 1754670501, 1754670641, 1754670438, 1754670548, 1754670384, 1754670454, 1754670461], "tags": {"aeroway": "helipad", "ref": "H2"}}, {"type": "way", "id": 163789040, "center": {"lat": 47.2963936, "lon": -122.2990252}, "nodes": [1754670559, 1754670369, 1754670597, 1754670343, 1754670471, 1754670618, 1754670653, 1754670511, 1754670635, 1754670591, 1754670627, 1754670377, 1754670509, 1754670327, 369033380, 1754670443, 1754670422, 1754670415, 1754670365, 1754670314, 1754670559], "tags": {"addr:state": "WA", "aeroway": "helipad", "ele": "120", "gnis:county_name": "King", "gnis:created": "03/01/1990", "gnis:feature_id": "1533669", "gnis:feature_type": "Airport", "lit": "no", "ref": "H1", "source_ref": "geonames.usgs.gov", "surface": "asphalt"}}, {"type": "way", "id": 163857392, "center": {"lat": 45.720209, "lon": -122.6495372}, "nodes": [1755253190, 1755253188, 1755253186, 1755253184, 1755253182, 1755253180, 1755253177, 1755253175, 1755253170, 1755253167, 1755253165, 1755253163, 1755253161, 1755253159, 1755253155, 1755253153, 1755253149, 1755253146, 1755253145, 1755253147, 1755253152, 1755253154, 1755253158, 1755253160, 1755253162, 1755253164, 1755253166, 1755253168, 1755253174, 1755253176, 1755253179, 1755253181, 1755253183, 1755253185, 1755253187, 1755253189, 1755253191, 1755253192, 1755253190], "tags": {"aeroway": "helipad", "faa": "1WA0", "lit": "yes", "name": "Legacy Salmon Creek Hospital Heliport", "surface": "concrete", "wikidata": "Q61726196"}}, {"type": "way", "id": 169019362, "center": {"lat": 48.4182433, "lon": -123.3871999}, "nodes": [1801943497, 1801943493, 1801943488, 1801943484, 1801943479, 1801943474, 1801943467, 1801943462, 1801943458, 1801943446, 1801943440, 1801943434, 1801943429, 1801943424, 1801943421, 1801943419, 1801943423, 1801943425, 1801943430, 1801943433, 1801943436, 1801943442, 1801943449, 1801943459, 1801943464, 1801943469, 1801943476, 1801943480, 1801943485, 1801943490, 1801943496, 1801943498, 1801943500, 1801943499, 1801943497], "tags": {"aeroway": "helipad", "name": "Pad 4"}}, {"type": "way", "id": 169025297, "center": {"lat": 48.4232068, "lon": -123.3875259}, "nodes": [1802006668, 1802006655, 1802006634, 1802006650, 1802006668], "tags": {"aeroway": "helipad", "name": "Victoria Harbour (Shoal Point)", "ref": "CBZ7"}}, {"type": "way", "id": 170993109, "center": {"lat": 49.4762082, "lon": -123.7484839}, "nodes": [7477492366, 7477492367, 7477492368, 7477492369, 7477492370, 11040431092, 7477492371, 7477492372, 7477492373, 1820981542, 1820981544, 7477492359, 7477492360, 7477492361, 7477492362, 7477492363, 7477492364, 7477492365, 1820981545, 1820981543, 7477492366], "tags": {"aeroway": "helipad", "name": "Sechelt Hospital Heliport", "name_1": "Sechelt (St. Mary's Hospital) Heliport", "name_2": "Sh\u00edsh\u00e1lh Hospital Heliport", "old_name": "St. Mary's Hospital Heliport", "ref": "CBP4", "surface": "paved"}}, {"type": "way", "id": 174802972, "center": {"lat": 49.2717326, "lon": -124.1450519}, "nodes": [1854609382, 1854609381, 1854609380, 1854609383, 1883386811, 1854609382], "tags": {"aeroway": "helipad"}}, {"type": "way", "id": 182081951, "center": {"lat": 41.4855779, "lon": -120.5637893}, "nodes": [1924182235, 1924331894, 1924182182, 1924182163, 1924331929, 1924182235], "tags": {"aeroway": "helipad"}}, {"type": "way", "id": 189315818, "center": {"lat": 49.1002232, "lon": -122.626163}, "nodes": [1999579100, 1999579145, 1999579230, 1999579192, 1999579111, 1999579273, 1999579109, 1999579117, 1999579110, 1999579166, 1999579212, 1999579271, 1999579162, 1999579270, 1999579119, 1999579084, 1999579160, 1999579090, 1999579100], "tags": {"aeroway": "helipad", "name": "CYNJ Fueling Helipad 1"}}, {"type": "way", "id": 189315823, "center": {"lat": 49.0999887, "lon": -122.626346}, "nodes": [1999579101, 1999579161, 1999579208, 1999579093, 1999579152, 1999579174, 1999579169, 1999579134, 1999579272, 1999579144, 1999579154, 1999579172, 1999579214, 1999579276, 1999579243, 1999579264, 1999579157, 1999579260, 1999579216, 1999579101], "tags": {"aeroway": "helipad", "name": "CYNJ Fueling Helipad 4"}}, {"type": "way", "id": 189315826, "center": {"lat": 49.1000914, "lon": -122.626413}, "nodes": [1999579250, 1999579095, 1999579249, 1999579165, 1999579164, 1999579182, 1999579104, 1999579123, 1999579113, 1999579103, 1999579139, 1999579277, 1999579236, 1999579085, 1999579122, 1999579226, 1999579198, 1999579131, 1999579250], "tags": {"aeroway": "helipad", "name": "CYNJ Fueling Helipad 3"}}, {"type": "way", "id": 189315829, "center": {"lat": 49.100197, "lon": -122.6263444}, "nodes": [1999579124, 1999579097, 1999579196, 1999579116, 1999579087, 1999579194, 1999579188, 1999579143, 1999579210, 1999579158, 1999579127, 1999579118, 1999579106, 1999579096, 1999579129, 1999579126, 1999579142, 1999579108, 1999579124], "tags": {"aeroway": "helipad", "name": "CYNJ Fueling Helipad 2"}}, {"type": "way", "id": 189315830, "center": {"lat": 49.0973041, "lon": -122.6277928}, "nodes": [1999579156, 1999579133, 1999579136, 1999579269, 1999579247, 1999579186, 1999579257, 1999579175, 1999579105, 1999579148, 1999579088, 1999579130, 1999579206, 1999579171, 1999579114, 1999579190, 1999579089, 1999579258, 1999579156], "tags": {"aeroway": "helipad", "name": "CYNJ Repair Helipad 3"}}, {"type": "way", "id": 189315831, "center": {"lat": 49.0971878, "lon": -122.6261195}, "nodes": [1999579254, 1999579252, 1999579228, 1999579255, 1999579099, 1999579274, 1999579262, 1999579115, 1999579184, 1999579121, 1999579098, 1999579234, 1999579238, 1999579170, 1999579107, 1999579102, 1999579149, 2131406946, 1999579254], "tags": {"aeroway": "helipad", "name": "CYNJ Repair Helipad 1"}}, {"type": "way", "id": 189315832, "center": {"lat": 49.097198, "lon": -122.6258443}, "nodes": [1999579232, 1999579201, 1999579086, 1999579125, 1999579163, 1999579112, 1999579128, 1999579120, 1999579241, 1999579140, 1999579159, 1999579167, 1999579151, 1999579094, 1999579146, 1999579138, 1999579275, 1999579222, 1999579232], "tags": {"aeroway": "helipad", "name": "CYNJ Repair Helipad 2"}}, {"type": "way", "id": 189316054, "center": {"lat": 49.1035774, "lon": -122.6348225}, "nodes": [1999580767, 1999580769, 1999580768, 1999580784, 1999580778, 1999580774, 1999580762, 1999580770, 1999580786, 1999580765, 1999580780, 1999580764, 1999580772, 1999580771, 1999580756, 1999580758, 1999580788, 1999580782, 1999580767], "tags": {"aeroway": "helipad"}}, {"type": "way", "id": 193161559, "center": {"lat": 48.3704687, "lon": -124.5981069}, "nodes": [47043059, 2036767912, 2036767572, 8175418182, 2036767806, 2036767593, 47043059], "tags": {"aeroway": "helipad", "faa": "EBY", "icao": "KEBY", "image": "https://www.dvidshub.net/image/5304726/mh-65-dolphin-helicopter-aircrew-transfers-patients-royal-canadian-aircrew", "landuse": "military", "lit": "yes", "name": "US Coast Guard Station Neah Bay Heliport", "operator": "US Coast Guard", "surface": "asphalt", "wikidata": "Q61726030"}}, {"type": "way", "id": 195059342, "center": {"lat": 49.2868822, "lon": -123.1061063}, "nodes": [2055576759, 2055576766, 2055576775, 2055576788, 2055576759], "tags": {"aeroway": "helipad", "source": "Bing"}}, {"type": "way", "id": 198565314, "center": {"lat": 42.5794166, "lon": -121.8801056}, "nodes": [2086913908, 4529281452, 4529281453, 4529281454, 2086913905, 2086913901, 2086913897, 2086913894, 2086913896, 2086913900, 4529281455, 4529281456, 4529281457, 4529281458, 4529281459, 2086913902, 2086913904, 2086913906, 2086913907, 2086913908], "tags": {"aeroway": "helipad"}}, {"type": "way", "id": 199367324, "center": {"lat": 49.2941588, "lon": -124.08453}, "nodes": [2093716644, 2093716649, 2093716646, 2093716642, 2093716644], "tags": {"aeroway": "helipad"}}, {"type": "way", "id": 220054634, "center": {"lat": 48.7862212, "lon": -123.721386}, "nodes": [2291719623, 2291719617, 2291719598, 2291719605, 2291719623], "tags": {"aeroway": "helipad", "name": "Duncan (Cowichan District Hospital) Heliport", "source": "Bing"}}, {"type": "way", "id": 234494765, "center": {"lat": 48.3919568, "lon": -124.7366679}, "nodes": [2427376605, 2427376508, 2427376542, 2427376457, 2427376445, 2427376577, 2427376605], "tags": {"aeroway": "helipad", "name": "Cape Flattery Light Station"}}, {"type": "way", "id": 256644106, "center": {"lat": 48.2414334, "lon": -124.2901373}, "nodes": [2622852389, 2622852178, 2622852213, 2622852133, 8929720461, 2622852389], "tags": {"aeroway": "helipad"}}, {"type": "way", "id": 266902932, "center": {"lat": 47.6581108, "lon": -122.298386}, "nodes": [2723994310, 2723994312, 2723994281, 2723994284, 2723994286, 2723994288, 2723994290, 2723994292, 2723994305, 2723994306, 2723994307, 2723994308, 2723994294, 2723994296, 2723994298, 2723994300, 2723994302, 2723994303, 2723994304, 2723994310], "tags": {"addr:city": "Seattle", "addr:housenumber": "2701", "addr:postcode": "98195", "addr:street": "Northeast Clark Road", "aeroway": "helipad", "faa": "WT22", "lit": "yes", "name": "Graves Field Heliport", "source": "King County GIS;data.seattle.gov", "surface": "asphalt", "wikidata": "Q61726123"}}, {"type": "way", "id": 270276446, "center": {"lat": 48.2130885, "lon": -122.6856041}, "nodes": [2753192187, 2753192185, 2753192184, 2753192186, 2753192187], "tags": {"aeroway": "helipad", "faa": "01WN", "lit": "yes", "name": "WhidbeyHealth Medical Center Heliport", "name_1": "Whidbey General Hospital Heliport", "surface": "asphalt", "wikidata": "Q61725891"}}, {"type": "way", "id": 275855563, "center": {"lat": 47.6195592, "lon": -122.348664}, "nodes": [2805168610, 2805168611, 2805168612, 2805168613, 2805168614, 2805168615, 2805168616, 2805168617, 2805168399, 2805168400, 2805168601, 2805168605, 2805168606, 2805168607, 2805168608, 2805168609, 2805168602, 2805168603, 2805168604, 2805168610], "tags": {"aeroway": "helipad", "faa": "8WA9", "fixme": "Possibly also KOMO TV Heliport (WN16)? WN16 FAA listed GPS coords. are close but not over a helipad.", "lit": "yes", "name": "Broadcast House Helistop", "surface": "metal", "wikidata": "Q61726120"}}, {"type": "way", "id": 281458854, "center": {"lat": 45.7027028, "lon": -121.5296262}, "nodes": [2854124563, 9642028502, 2854124564, 2854124565, 2854124566, 2854124563], "tags": {"aeroway": "helipad", "name": "Hood River Fire Dept Heliport"}}, {"type": "way", "id": 286014532, "center": {"lat": 47.5439351, "lon": -122.3114265}, "nodes": [2896518758, 2896518759, 2896518760, 2896518761, 2896518762, 2896518763, 2896518745, 2896518746, 2896518747, 2896518748, 2896518753, 2896518754, 2896518755, 2896518756, 2896518757, 2896518749, 2896518750, 2896518751, 2896518752, 2896518758], "tags": {"aeroway": "helipad"}}, {"type": "way", "id": 286014533, "center": {"lat": 47.5438441, "lon": -122.311597}, "nodes": [2896518778, 2896518779, 2896518780, 2896518781, 2896518782, 2896518764, 2896518765, 2896518766, 2896518771, 2896518772, 2896518773, 2896518774, 2896518775, 2896518776, 2896518777, 2896518767, 2896518768, 2896518769, 2896518770, 2896518778], "tags": {"aeroway": "helipad"}}, {"type": "way", "id": 286014534, "center": {"lat": 47.5440244, "lon": -122.3116955}, "nodes": [2896518795, 2896518796, 2896518797, 2896518798, 2896518799, 2896518800, 2896519301, 2896518783, 2896518784, 2896518785, 2896518790, 2896518791, 2896518792, 2896518793, 2896518794, 2896518786, 2896518787, 2896518788, 2896518789, 2896518795], "tags": {"aeroway": "helipad"}}, {"type": "way", "id": 293945056, "center": {"lat": 49.0361578, "lon": -122.3140476}, "nodes": [2975219040, 2975219041, 2975219042, 2975219043, 2975219044, 2975219045, 2975219046, 2975218428, 2975218429, 2975218432, 2975219033, 2975219034, 2975219035, 2975219036, 2975219037, 2975219038, 2975219039, 2975218430, 2975218431, 2975219040], "tags": {"aeroway": "helipad", "name": "Abbotsford (Regional Hospital & Cancer Centre) Heliport", "name_1": "Abbotsford Heliport", "name_2": "Regional Hospital & Cancer Centre Heliport", "ref": "CAB5", "source": "ourairports.com", "surface": "paved"}}, {"type": "way", "id": 294908242, "center": {"lat": 48.5249125, "lon": -122.9123983}, "nodes": [2985537915, 2985537916, 2985537917, 2985537918, 2985537915], "tags": {"aeroway": "helipad", "faa": "03WT", "lit": "yes", "name": "Lopez Medical Clinic Heliport", "surface": "concrete", "wikidata": "Q61725999"}}, {"type": "way", "id": 303538539, "center": {"lat": 48.6119603, "lon": -124.7518931}, "nodes": [3079092631, 3079092632, 3079092847, 3079092833, 3079092834, 3079092631], "tags": {"aeroway": "helipad"}}, {"type": "way", "id": 305357577, "center": {"lat": 45.5270378, "lon": -122.6437902}, "nodes": [3099722152, 3099722153, 3099722154, 3099722155, 3099722152], "tags": {"aeroway": "helipad", "name": "KATU Helipad"}}, {"type": "way", "id": 307401369, "center": {"lat": 48.774559, "lon": -122.4739751}, "nodes": [7477641722, 7477641723, 7477641724, 7477641725, 3125378671, 3125378672, 3125378673, 3125378674, 3125378675, 7477641718, 7477641719, 7477641720, 7477641721, 3125378676, 3125378677, 3125378678, 3125378679, 3125378680, 3125378681, 7477641722], "tags": {"aeroway": "helipad", "faa": "WN73", "lit": "yes", "name": "Saint Joseph Hospital Campus Heliport", "surface": "asphalt", "wikidata": "Q61725832"}}, {"type": "way", "id": 311038418, "center": {"lat": 48.4247565, "lon": -123.2258002}, "nodes": [3165741124, 3165741125, 3165741126, 3165741127, 3165741124], "tags": {"aeroway": "helipad"}}, {"type": "way", "id": 314805804, "center": {"lat": 48.4342965, "lon": -123.3251566}, "nodes": [5020969791, 5020969792, 5020969793, 5020969794, 5020969795, 5020969796, 3208507305, 5020969784, 3208507306, 5020969785, 5020969786, 5020969787, 5020969788, 5020969789, 5020969790, 5020969782, 3208507307, 5020969783, 3208507308, 5020969791], "tags": {"aeroway": "helipad", "name": "Victoria (Royal Jubilee Hospital) Heliport", "ref": "CBK8", "surface": "paved"}}, {"type": "way", "id": 319682977, "center": {"lat": 44.7530862, "lon": -121.2748279}, "nodes": [3261400382, 3261400383, 3261400384, 3261400385, 3261400386, 3261400387, 3261400388, 3261400370, 3261400371, 3261400372, 3261400377, 3261400378, 3261400379, 3261400380, 3261400381, 3261400373, 3261400374, 3261400375, 3261400376, 3261400382], "tags": {"aeroway": "helipad"}}, {"type": "way", "id": 320294483, "center": {"lat": 44.3105979, "lon": -120.8447844}, "nodes": [3267981811, 5933166803, 3267981812, 3267981813, 3267981814, 3267981811], "tags": {"aeroway": "helipad"}}, {"type": "way", "id": 325827481, "center": {"lat": 48.7221672, "lon": -125.0970952}, "nodes": [3324406979, 3324406980, 3324406981, 3324406982, 3324406979], "tags": {"aeroway": "helipad"}}, {"type": "way", "id": 330417742, "center": {"lat": 45.4991294, "lon": -122.68541}, "nodes": [705250940, 3373773881, 3373773879, 3373773877, 3373773878, 3373773880, 3373773883, 3373773890, 3373773894, 3373773899, 3373773901, 3373773904, 3373773902, 3373773900, 3373773895, 3373773891, 705250940], "tags": {"aeroway": "helipad"}}, {"type": "way", "id": 330417743, "center": {"lat": 45.4991648, "lon": -122.6851638}, "nodes": [705250941, 3373773888, 3373773885, 3373773884, 3373773886, 3373773889, 3373773893, 3373773898, 3373773905, 3373773907, 3373773910, 3373773911, 3373773909, 3373773906, 3373773903, 3373773896, 705250941], "tags": {"aeroway": "helipad"}}, {"type": "way", "id": 330417886, "center": {"lat": 45.4953183, "lon": -122.6877417}, "nodes": [369014684, 3373773420, 3373773418, 3373773416, 3373773415, 3373773417, 3373773419, 3373773422, 3373773423, 3373773426, 3373773428, 3373773430, 3373773431, 3373773429, 3373773427, 3373773424, 369014684], "tags": {"aeroway": "helipad", "name": "Oregon Health & Science University Heliport", "wikidata": "Q7101211"}}, {"type": "way", "id": 335851320, "center": {"lat": 43.1257244, "lon": -121.0473922}, "nodes": [3429635985, 3429635986, 3429635987, 3429635988, 3429635989, 3429635990, 3429635991, 3429635973, 3429635974, 3429635975, 3429635980, 3429635981, 3429635982, 3429635983, 3429635984, 3429635976, 3429635977, 3429635978, 3429635979, 3429635985], "tags": {"aeroway": "helipad"}}, {"type": "way", "id": 356086455, "center": {"lat": 43.6734982, "lon": -121.5036896}, "nodes": [3615730311, 3615730312, 3615730313, 3615730314, 3615730311], "tags": {"aeroway": "helipad"}}, {"type": "way", "id": 358915742, "center": {"lat": 47.461508, "lon": -122.2361056}, "nodes": [3637326321, 3637326322, 3637326323, 3637326324, 3637326325, 3637326326, 3637326327, 3637326309, 3637326310, 3637326313, 3637326314, 3637326315, 3637326316, 3637326317, 3637326318, 3637326319, 3637326320, 3637326311, 3637326312, 3637326321], "tags": {"aeroway": "helipad"}}, {"type": "way", "id": 361812735, "center": {"lat": 47.2094576, "lon": -121.9877763}, "nodes": [5639654945, 5639654946, 5639654947, 5639654948, 5639654949, 5639654950, 5639654951, 5639654952, 3662377032, 3662377033, 5639654938, 5639654939, 5639654940, 5639654941, 5639654942, 5639654943, 5639654944, 3662377034, 3662377035, 5639654945], "tags": {"aeroway": "helipad"}}, {"type": "way", "id": 361812744, "center": {"lat": 47.2082178, "lon": -121.9805506}, "nodes": [3662377070, 3662377071, 3662377072, 3662377073, 3662377070], "tags": {"aeroway": "helipad"}}, {"type": "way", "id": 362475733, "center": {"lat": 47.6452719, "lon": -122.33724}, "nodes": [3667766957, 3667766958, 3667766960, 3667766963, 3667766966, 3667766969, 3667766972, 401458193, 3667766975, 3667766974, 3667766973, 3667766970, 3667766967, 3667766964, 3667766961, 3667766959, 3667766957], "tags": {"aeroway": "helipad", "name": "Seattle Police Harbor Patrol Helipad"}}, {"type": "way", "id": 364583891, "center": {"lat": 49.1116652, "lon": -125.9242112}, "nodes": [3686201676, 3686201685, 3686201710, 3686201678, 3686201706, 3686201689, 3686201681, 3686201684, 3686201693, 3686201695, 3686201709, 3686201705, 3686201675, 3686201686, 3686201691, 3686201687, 3686201690, 3686201674, 3686201676], "tags": {"aeroway": "helipad", "source": "Bing"}}, {"type": "way", "id": 369212580, "center": {"lat": 46.188258, "lon": -123.8197464}, "nodes": [7477714306, 7477714307, 7477714308, 7477714309, 7477714310, 3730210611, 3730210609, 3730210603, 3730210600, 3730210591, 7477714302, 7477714303, 7477714304, 7477714305, 3730210588, 3730210590, 3730210598, 3730210602, 3730210608, 7477714306], "tags": {"addr:city": "Astoria", "addr:state": "OR", "aeroway": "helipad", "closest_town": "Astoria, Oregon", "ele": "7", "faa": "OG03", "name": "Columbia Memorial Hospital Heliport", "operator": "Columbia Memorial Hospital", "ref": "OG03", "source": "wikipedia", "surface": "paved", "type": "private", "wikidata": "Q1657233", "wikipedia": "en:Columbia Memorial Hospital Heliport"}}, {"type": "way", "id": 373550410, "center": {"lat": 49.6749469, "lon": -123.3181867}, "nodes": [3769884855, 3769884854, 3769884850, 3769884852, 3769884855], "tags": {"aeroway": "helipad", "surface": "wood"}}, {"type": "way", "id": 373854462, "center": {"lat": 48.7873386, "lon": -125.2159803}, "nodes": [3772796506, 3772796503, 3772796504, 3772796505, 3772796507, 3772796506], "tags": {"aeroway": "helipad"}}, {"type": "way", "id": 374388992, "center": {"lat": 49.382646, "lon": -126.5443888}, "nodes": [3777734657, 3777734156, 3777734658, 3777734659, 3777734660, 3777734657], "tags": {"aeroway": "helipad"}}, {"type": "way", "id": 374515537, "center": {"lat": 49.5922328, "lon": -126.6163281}, "nodes": [3779123915, 3779123917, 3779123921, 3779123916, 3779123915], "tags": {"aeroway": "helipad"}}, {"type": "way", "id": 374651002, "center": {"lat": 48.9219955, "lon": -125.541482}, "nodes": [3780452776, 3780452774, 3780452775, 3780452777, 3780452776], "tags": {"aeroway": "helipad"}}, {"type": "way", "id": 374651003, "center": {"lat": 48.9223962, "lon": -125.5416295}, "nodes": [3780452791, 3780452787, 3780452790, 3780452804, 3780452791], "tags": {"aeroway": "helipad"}}, {"type": "way", "id": 374651004, "center": {"lat": 48.2983993, "lon": -123.5321383}, "nodes": [3780452132, 3780452128, 3780452125, 3780452127, 3780452132], "tags": {"aeroway": "helipad"}}, {"type": "way", "id": 374771481, "center": {"lat": 48.1811854, "lon": -123.1107809}, "nodes": [3781462276, 3781462275, 3781462273, 3781462274, 3781462276], "tags": {"aeroway": "helipad", "name": "New Dungeness Light Station", "operator": "U.S. Coast Guard", "ref": "96S", "source_ref": "https://www.faa.gov/documentLibrary/media/Order/LID.pdf"}}, {"type": "way", "id": 375433258, "center": {"lat": 45.6230517, "lon": -122.5799224}, "nodes": [3788007635, 3788007644, 3788007647, 3788007650, 3788007653, 3788007651, 3788007648, 3788007645, 3788007636, 3788007631, 3788007627, 3788007622, 3788007620, 3788007621, 3788007626, 3788007630, 3788007635], "tags": {"aeroway": "helipad", "alt_name": "St. Joseph Community Hospital Heliport", "faa": "WN67 / 21WA", "lit": "yes", "name": "Southwest Washington Medical Center Heliport", "note": "Double listed; alternative FAA registration is under St. Joseph Community Hospital Heliport (21WA).", "source": "survey;bing", "surface": "concrete", "wikidata": "Q61726199"}}, {"type": "way", "id": 376778587, "center": {"lat": 48.1154787, "lon": -123.4133626}, "nodes": [3801663885, 3801663886, 3801663887, 3935236915, 3801663888, 3935236859, 3801663889, 3935236805, 3801663890, 3935236774, 3801663891, 3935236765, 3801663892, 3935236782, 3801663893, 3935236832, 3801663894, 3801663895, 3801663896, 3801663885], "tags": {"aeroway": "helipad", "faa": "26WA", "lit": "no", "name": "Olympic Medical Center Heliport", "old_faa": "3WA9", "operator": "Olympic Medical Center", "surface": "asphalt", "wikidata": "Q61726072"}}, {"type": "way", "id": 381171271, "center": {"lat": 45.5279883, "lon": -122.6120372}, "nodes": [3844122288, 3844122289, 3844122290, 3844122291, 3844122292, 3844122293, 3844122294, 3844122295, 3844122296, 3844122297, 3844122298, 3844122299, 3844122300, 3844122301, 3844122302, 3844122303, 3844122304, 3844122305, 3844122306, 3844122307, 3844122308, 3844122309, 3844122310, 3844122311, 3844122312, 3844122313, 3844122314, 3844122315, 3844122316, 3844122317, 3844122288], "tags": {"access": "emergency", "aeroway": "helipad", "faa": "34OR", "name": "Providence Portland Medical Center Heliport", "rooftop": "yes", "surface": "concrete", "wikidata": "Q7252451", "wikipedia": "en:Providence Medical Center Heliport"}}, {"type": "way", "id": 382772074, "center": {"lat": 45.5142046, "lon": -122.6760753}, "nodes": [3859910936, 3859910938, 3859910940, 3859910942, 3859910944, 3859910946, 3859910948, 3859910950, 3859910949, 3859910947, 3859910945, 3859910943, 3859910941, 3859910939, 3859910937, 2005707565, 3859910936], "tags": {"aeroway": "helipad"}}, {"type": "way", "id": 383209792, "center": {"lat": 46.1303755, "lon": -122.9402891}, "nodes": [3864250062, 3864250060, 3864250036, 3864250042, 3864250062], "tags": {"aeroway": "helipad", "faa": "4WA3", "layer": "1", "lit": "yes", "location": "roof", "name": "St. John's Medical Center Heliport", "source": "Bing", "surface": "concrete", "wikidata": "Q61725996"}}, {"type": "way", "id": 388937631, "center": {"lat": 44.9862981, "lon": -123.9941328}, "nodes": [3921142159, 3921142161, 3921142156, 3921142155, 3921142159], "tags": {"aeroway": "helipad", "faa": "OR93", "gnis:feature_id": "1154020", "name": "North Lincoln Hospital Heliport", "ref": "OR93", "surface": "concrete", "wikidata": "Q7055953", "wikipedia": "en:North Lincoln Hospital Heliport"}}, {"type": "way", "id": 391951551, "center": {"lat": 47.6215574, "lon": -122.1877994}, "nodes": [3952216742, 3952216749, 3952216743, 3952216747, 3952216742], "tags": {"aeroway": "helipad", "faa": "1WT6", "lit": "yes", "name": "Overlake Hospital EMS Heliport", "surface": "concrete", "wikidata": "Q61725827"}}, {"type": "way", "id": 392218924, "center": {"lat": 44.1262922, "lon": -123.2242629}, "nodes": [3954734209, 3954734210, 3954734211, 3954734212, 3954734209], "tags": {"aeroway": "helipad"}}, {"type": "way", "id": 397182258, "center": {"lat": 46.3266535, "lon": -122.4897227}, "nodes": [4000030629, 4000030636, 4000030638, 4000030641, 4000030635, 4000030628, 4000030620, 4000030617, 4000030614, 4000030613, 4000030618, 4000030623, 4000030627, 4000030629], "tags": {"aeroway": "helipad"}}, {"type": "way", "id": 398569206, "center": {"lat": 45.3083822, "lon": -122.9369373}, "nodes": [4013181263, 4013181273, 4013181271, 1042150775, 4013181263], "tags": {"aeroway": "helipad", "name": "Providence Newberg Medical Center Heliport", "source": "ourairports.com", "wikidata": "Q7252457"}}, {"type": "way", "id": 401088474, "center": {"lat": 45.5162582, "lon": -122.6748199}, "nodes": [4035506830, 4035506829, 4035506831, 4035506833, 4035506835, 4035506838, 4035506841, 4035506844, 4035506846, 4035506847, 4035506845, 4035506843, 4035506840, 4035506837, 4035506834, 4035506832, 4035506830], "tags": {"access": "private", "aeroway": "helipad", "name": "World Trade Center Heliport", "wikidata": "Q8036338"}}, {"type": "way", "id": 403329267, "center": {"lat": 45.5430032, "lon": -122.6705526}, "nodes": [4056844312, 4056844313, 4056844305, 4056844304, 4056844312], "tags": {"aeroway": "helipad", "faa": "7OR5", "name": "Legacy Emanuel Hospital Heliport", "ref": "H1", "surface": "concrete", "wikidata": "Q5369080"}}, {"type": "way", "id": 403329270, "center": {"lat": 45.5444685, "lon": -122.671549}, "nodes": [4056844468, 4056844443, 4056844444, 4056844447, 4056844452, 4056844459, 4056844469, 4056844476, 4056844483, 4056844487, 369014551, 4056844486, 4056844482, 4056844475, 4056844468], "tags": {"aeroway": "helipad", "faa": "7OR5", "name": "Legacy Emanuel Hospital Heliport", "ref": "H2", "surface": "concrete"}}, {"type": "way", "id": 405661655, "center": {"lat": 44.7296534, "lon": -122.1791958}, "nodes": [4078212631, 4078212632, 4078212633, 4078212634, 4078212635, 4078212636, 4078212637, 4078212638, 4078212639, 4078212640, 4078212641, 4078212623, 4078212626, 4078212627, 4078212628, 4078212629, 4078212630, 4078212624, 4078212625, 4078212631], "tags": {"aeroway": "helipad"}}, {"type": "way", "id": 415850255, "center": {"lat": 49.2488571, "lon": -124.7831125}, "nodes": [4167967816, 4167967828, 4167967824, 4167967829, 4167967830, 4167967827, 4167967831, 4167967823, 4167967822, 4167967825, 4167967820, 4167967821, 4167967818, 4167967817, 4167967826, 4167967819, 4167967815, 4167967816], "tags": {"aeroway": "helipad"}}, {"type": "way", "id": 416675664, "center": {"lat": 49.2473054, "lon": -124.799855}, "nodes": [4174066945, 4174066932, 4174066940, 4174066941, 4174066934, 4174066944, 4174066949, 4174066947, 4174066936, 4174066938, 4174066948, 4174066937, 4174066933, 4174066942, 4174066943, 4174066935, 4174066950, 4174066939, 4174066946, 4174066945], "tags": {"aeroway": "helipad"}}, {"type": "way", "id": 418121271, "center": {"lat": 45.377959, "lon": -122.7397742}, "nodes": [369014103, 4185720627, 4185720633, 4185720637, 4185720641, 4185720649, 4185720652, 4185720658, 4185720659, 4185720653, 4185720650, 4185720642, 4185720638, 4185720634, 4185720629, 4185720625, 369014103], "tags": {"aeroway": "helipad", "name": "Legacy Meridian Park Hospital Heliport"}}, {"type": "way", "id": 418341509, "center": {"lat": 48.7818816, "lon": -123.2815696}, "nodes": [4187743223, 4187743221, 4187743219, 4187743217, 4187743215, 4187743213, 4187743211, 4187743210, 4187743212, 4187743214, 4187743216, 4187743218, 4187743220, 4187743222, 4187743223], "tags": {"aeroway": "helipad"}}, {"type": "way", "id": 418989741, "center": {"lat": 49.2988771, "lon": -121.740801}, "nodes": [4191886277, 4191886278, 4191886279, 4191886280, 4191886277], "tags": {"aeroway": "helipad"}}, {"type": "way", "id": 422890160, "center": {"lat": 45.9890237, "lon": -123.9130207}, "nodes": [8880270524, 4226162645, 4226162647, 4226162650, 4226162655, 4226162660, 4226162665, 4226162668, 4226162669, 8880270522, 8880270523, 4226162670, 2456391008, 4226162666, 4226162662, 4226162656, 4226162651, 4226162649, 4226162646, 8880270524], "tags": {"aeroway": "helipad", "faa": "0OR0", "name": "Providence Seaside Hospital Heliport", "ref": "0OR0", "surface": "paved", "wikidata": "Q7252443"}}, {"type": "way", "id": 422890190, "center": {"lat": 45.9735188, "lon": -123.9262049}, "nodes": [4226162130, 4226162131, 4226162134, 4226162136, 4226162138, 4226162140, 4226162142, 4226162141, 4226162139, 4226162137, 4226162135, 4226162133, 4226162132, 4226162130], "tags": {"aeroway": "helipad", "name": "Seaside Helicopters"}}, {"type": "way", "id": 423985696, "center": {"lat": 45.5543603, "lon": -123.9160069}, "nodes": [4234825626, 4234825621, 4234825613, 4234825605, 4001284075, 4234825609, 4234825617, 8148703209, 4234825625, 4234825626], "tags": {"access": "permit", "aeroway": "helipad", "fee": "no", "name": "U.S. Coast Guard Staion Tillamook Bay", "operator": "U.S. Coast Guard", "ref": "USCG HELIPAD", "surface": "asphalt"}}, {"type": "way", "id": 431622658, "center": {"lat": 47.9317956, "lon": -122.2631611}, "nodes": [4308536445, 4308536446, 4308536447, 4308536448, 4308536445], "tags": {"aeroway": "helipad", "faa": "WA82", "lit": "no", "name": "The Boeing Company Heliport", "surface": "concrete", "wikidata": "Q61725929"}}, {"type": "way", "id": 432847289, "center": {"lat": 47.986439, "lon": -122.2242895}, "nodes": [4317992450, 4317992451, 4317992452, 4317992453, 4317992450], "tags": {"aeroway": "helipad", "faa": "0WA9", "landuse": "military", "lit": "no", "name": "Naval Station Everett Heliport", "operator": "US Navy", "surface": "concrete", "wikidata": "Q61725927"}}, {"type": "way", "id": 435976970, "center": {"lat": 45.5197177, "lon": -122.9798206}, "nodes": [4338671166, 4338671169, 4338671171, 4338671175, 4338671182, 4338671185, 4338671187, 4338671290, 4338671291, 4338671289, 4338671186, 4338671183, 4338671181, 4338671174, 1042150764, 4338671168, 4338671166], "tags": {"aeroway": "helipad", "faa": "OG46", "name": "Tuality Hospital Heliport", "surface": "concrete", "wikidata": "Q10860231"}}, {"type": "way", "id": 437042289, "center": {"lat": 49.3442295, "lon": -123.3883464}, "nodes": [4348753002, 4348753003, 4348753004, 4348753005, 4348753002], "tags": {"aeroway": "helipad"}}, {"type": "way", "id": 437499502, "center": {"lat": 40.4072719, "lon": -120.5070085}, "nodes": [4353147301, 4353147299, 4353147297, 4353147298, 4353147300, 4353147302, 4353147304, 4353147306, 4353147309, 4353147311, 4353147313, 4353147315, 4353147318, 4353147320, 4353147322, 4353147324, 4353147326, 4353147328, 4353147330, 4353147329, 4353147327, 4353147325, 4353147323, 4353147321, 4353147319, 4353147316, 4353147314, 4353147312, 4353147310, 4353147307, 4353147305, 4353147303, 4353147301], "tags": {"aeroway": "helipad", "source": "Bing"}}, {"type": "way", "id": 438257033, "center": {"lat": 45.4140268, "lon": -122.5584377}, "nodes": [3881261167, 4359936722, 4359936723, 4359936728, 3881261167], "tags": {"aeroway": "helipad"}}, {"type": "way", "id": 438338474, "center": {"lat": 44.638532, "lon": -121.1202791}, "nodes": [4360727269, 4360727273, 4360727272, 4360727268, 1042150740, 4360727259, 4360727260, 4360727263, 4360727269], "tags": {"aeroway": "helipad", "faa": "OG35", "name": "Mountain View Hospital Heliport", "surface": "asphalt", "wikidata": "Q3886841"}}, {"type": "way", "id": 438355163, "center": {"lat": 44.0683672, "lon": -121.267621}, "nodes": [369017033, 4360891779, 4360891766, 4360891771, 4360891785, 4360891796, 369017033], "tags": {"aeroway": "helipad", "faa": "54OR", "gnis:feature_id": "1154045", "name": "Saint Charles Medical Center Heliport", "surface": "paved", "wikidata": "Q7587525"}}, {"type": "way", "id": 441563676, "center": {"lat": 48.4781567, "lon": -122.7133825}, "nodes": [4393077901, 4393077904, 4393077903, 4393077900, 4393077901], "tags": {"aeroway": "helipad"}}, {"type": "way", "id": 448070441, "center": {"lat": 48.4809894, "lon": -123.3948136}, "nodes": [4451221253, 4451221248, 4451221247, 4451221251, 4451221254, 4451221263, 4451221271, 4451221264, 4451221253], "tags": {"aeroway": "helipad", "layer": "1"}}, {"type": "way", "id": 448898106, "center": {"lat": 49.1895509, "lon": -124.752304}, "nodes": [4458700651, 4458700649, 4458700648, 4458700650, 4458700651], "tags": {"aeroway": "helipad", "name": "Helicopter Pad"}}, {"type": "way", "id": 450027902, "center": {"lat": 45.5132171, "lon": -122.558602}, "nodes": [4469471344, 4469471346, 4469471350, 4469471353, 4469471357, 4469471360, 4469471363, 369014178, 4469471364, 4469471361, 4469471359, 4469471354, 4469471351, 4469471347, 4469471345, 4469471342, 4469471344], "tags": {"aeroway": "helipad", "faa": "9OR5", "location": "roof", "name": "Portland Adventist Medical Center Heliport", "wikidata": "Q7231868"}}, {"type": "way", "id": 450691659, "center": {"lat": 42.1703249, "lon": -121.73777}, "nodes": [4476135905, 4476135906, 6405269093, 4476135907, 4476135908, 6405269092, 4476135905], "tags": {"aeroway": "helipad"}}, {"type": "way", "id": 450691660, "center": {"lat": 42.1703164, "lon": -121.7371195}, "nodes": [4476135909, 4476135910, 6405269131, 4476135911, 4476135912, 6405269130, 4476135909], "tags": {"aeroway": "helipad"}}, {"type": "way", "id": 450691661, "center": {"lat": 42.1703037, "lon": -121.7364673}, "nodes": [4476135913, 4476135914, 6405266462, 4476135915, 4476135916, 6405266461, 4476135913], "tags": {"aeroway": "helipad"}}, {"type": "way", "id": 450691662, "center": {"lat": 42.1698791, "lon": -121.7359263}, "nodes": [4476135917, 4476135889, 4476135918, 4476135919, 4476135920, 4476135917], "tags": {"aeroway": "helipad"}}, {"type": "way", "id": 456374433, "center": {"lat": 43.1256189, "lon": -121.0476771}, "nodes": [369018146, 4526341252, 4526340914, 4526341244, 369018146], "tags": {"addr:state": "OR", "aeroway": "helipad", "ele": "1330", "gnis:county_name": "Lake", "gnis:created": "05/22/1986", "gnis:feature_id": "1637949", "gnis:feature_type": "Airport", "name": "Red and White Airport", "source_ref": "geonames.usgs.gov", "wikidata": "Q49749934"}}, {"type": "way", "id": 458188499, "center": {"lat": 47.6999388, "lon": -122.7036947}, "nodes": [4542268431, 4542268432, 4542268433, 4542268434, 4542268431], "tags": {"aeroway": "helipad", "faa": "9WA9", "landuse": "military", "lit": "no", "name": "Naval Submarine Base Bangor Heliport", "operator": "US Navy", "surface": "asphalt", "wikidata": "Q61726145"}}, {"type": "way", "id": 459039151, "center": {"lat": 42.1806045, "lon": -120.351184}, "nodes": [4533975438, 4549596289, 4549595088, 4549595087, 4533975438], "tags": {"aeroway": "helipad", "faa": "90OR", "name": "Lake District Hospital Heliport", "surface": "concrete", "wikidata": "Q6475626"}}, {"type": "way", "id": 459041336, "center": {"lat": 42.252767, "lon": -121.7861985}, "nodes": [4549610380, 4549610379, 369014143, 4549610378, 4549610380], "tags": {"aeroway": "helipad", "faa": "9OR3", "gnis:feature_id": "1131637", "name": "Sky Lakes Medical Center Heliport", "old_name": "Merle West Medical Center Helipad", "surface": "concrete", "wikidata": "Q7537385"}}, {"type": "way", "id": 459052457, "center": {"lat": 44.2889897, "lon": -121.1687718}, "nodes": [4549713927, 4549713926, 369017210, 4549713925, 4549713927], "tags": {"aeroway": "helipad", "gnis:feature_id": "1158829", "name": "Central Oregon District Hospital Helipad"}}, {"type": "way", "id": 459093886, "center": {"lat": 42.3179872, "lon": -122.8317375}, "nodes": [4550120908, 4550120907, 369014425, 4550120906, 4550120908], "tags": {"aeroway": "helipad", "faa": "OR99", "gnis:feature_id": "1131699", "name": "Rogue Valley Memorial Hospital Heliport", "surface": "concrete", "wikidata": "Q10860236"}}, {"type": "way", "id": 459093887, "center": {"lat": 42.3388378, "lon": -122.8627624}, "nodes": [4550120930, 369014180, 4550120929, 5735663747, 4550120928, 4550120930], "tags": {"aeroway": "helipad", "faa": "0OR0", "gnis:feature_id": "1131693", "name": "Providence Hospital Heliport", "surface": "asphalt", "wikidata": "Q7252443"}}, {"type": "way", "id": 459207311, "center": {"lat": 44.0460473, "lon": -123.0817862}, "nodes": [9024049718, 4551119111, 4551119110, 369014368, 9024049718], "tags": {"aeroway": "helipad", "faa": "OR69", "gnis:feature_id": "1131707", "lit": "yes", "name": "Peace Health Sacred Heart Medical Center University District Heliport", "operator": "PeaceHealth", "rooftop": "yes", "surface": "concrete", "wikidata": "Q7397236"}}, {"type": "way", "id": 459208050, "center": {"lat": 44.0536297, "lon": -123.0036387}, "nodes": [369017581, 4551163261, 4551163260, 4551163259, 369017581], "tags": {"aeroway": "helipad", "faa": "41OR", "gnis:feature_id": "1638160", "maxweight": "12000 lbs", "name": "McKenzie-Willamette Medical Center Heliport", "rooftop": "yes", "surface": "concrete", "wikidata": "Q61724438"}}, {"type": "way", "id": 459210329, "center": {"lat": 44.5514141, "lon": -122.908252}, "nodes": [4551179293, 4551179292, 4551179291, 5023449673, 4551179293], "tags": {"aeroway": "helipad", "faa": "8OR1", "gnis:feature_id": "1131621", "name": "Lebanon Hospital Heliport", "source": "Bing", "surface": "asphalt", "wikidata": "Q6511104"}}, {"type": "way", "id": 459218529, "center": {"lat": 44.8058069, "lon": -122.7844397}, "nodes": [4551243704, 4551243703, 369014382, 4551243702, 4551243704], "tags": {"aeroway": "helipad", "faa": "5OR7", "gnis:feature_id": "1131709", "name": "Santiam Memorial Hospital Helistop", "source": "Bing", "surface": "grass", "wikidata": "Q7420406"}}, {"type": "way", "id": 459235508, "center": {"lat": 45.1989899, "lon": -123.166352}, "nodes": [4551381093, 4551381091, 4551381090, 4551381089, 4551380888, 4551381092, 4551380887, 4551380886, 4551380885, 4551380884, 1042150749, 4551380883, 4551380882, 4551380881, 4551380880, 4551380879, 4551381093], "tags": {"aeroway": "helipad", "faa": "OG38", "name": "Willamette Valley Medical Center Heliport", "old_name": "Valley Medical Center Heliport", "surface": "concrete", "wikidata": "Q7912134"}}, {"type": "way", "id": 459474051, "center": {"lat": 47.703598, "lon": -122.7148038}, "nodes": [4553209632, 4553209633, 4553209634, 4553209635, 4553209632], "tags": {"aeroway": "helipad"}}, {"type": "way", "id": 459518143, "center": {"lat": 48.975649, "lon": -122.7213223}, "nodes": [4553461824, 4553461825, 4553461823, 1042142414, 4553461824], "tags": {"aeroway": "helipad", "faa": "WT34", "lit": "no", "name": "Blaine Sectors Hqs Heliport", "operator": "US Border Patrol", "source": "ourairports.com", "surface": "concrete", "wikidata": "Q61725840"}}, {"type": "way", "id": 467824231, "center": {"lat": 49.2438421, "lon": -123.1270947}, "nodes": [4624271666, 4624271667, 4624271668, 4624271669, 4624271670, 4624271671, 4624271672, 4624271654, 4624271655, 4624271656, 4624271661, 4624271662, 4624271663, 4624271664, 4624271665, 4624271657, 4624271658, 4624271659, 4624271660, 4624271666], "tags": {"aeroway": "helipad", "name": "Vancouver (Children & Women's Health Centre) Heliport", "ref": "CAK7"}}, {"type": "way", "id": 477239634, "center": {"lat": 43.3558065, "lon": -121.0563858}, "nodes": [4706266134, 4706266135, 4706266136, 4706266137, 4706266134], "tags": {"aeroway": "helipad"}}, {"type": "way", "id": 481224428, "center": {"lat": 48.3450646, "lon": -122.6630607}, "nodes": [4741595230, 4741595229, 4741595228, 4741595227, 4741595230], "tags": {"aeroway": "helipad"}}, {"type": "way", "id": 481224448, "center": {"lat": 48.3501683, "lon": -122.6697479}, "nodes": [4741595539, 4741595538, 4741595537, 4741595536, 4741595539], "tags": {"aeroway": "helipad"}}, {"type": "way", "id": 484971696, "center": {"lat": 45.7222316, "lon": -121.4714953}, "nodes": [4777190677, 4777190676, 4777190675, 4011892236, 4777190677], "tags": {"aeroway": "helipad", "faa": "44WA", "lit": "yes", "name": "Skyline Hospital EMS Heliport", "surface": "asphalt", "wikidata": "Q61726220"}}, {"type": "way", "id": 484985442, "center": {"lat": 46.7116251, "lon": -122.9857322}, "nodes": [4777324869, 4777324868, 4777324867, 4777324866, 4777324869], "tags": {"aeroway": "helipad", "faa": "2WA7", "lit": "yes", "name": "Providence Centralia Hospital Heliport", "source": "Esri beta", "surface": "concrete", "wikidata": "Q61725860"}}, {"type": "way", "id": 484986745, "center": {"lat": 46.3118482, "lon": -124.0423195}, "nodes": [4777342307, 4777342306, 369035042, 4777342305, 4777342307], "tags": {"aeroway": "helipad", "faa": "7WA9", "gnis:feature_id": "1534188", "lit": "no", "name": "Ocean Beach Hospital Heliport", "surface": "asphalt", "wikidata": "Q61725964"}}, {"type": "way", "id": 484990209, "center": {"lat": 46.6631572, "lon": -123.8117517}, "nodes": [4777378630, 4777378629, 369034067, 4777378628, 4777378630], "tags": {"aeroway": "helipad", "faa": "01WA", "gnis:feature_id": "1533963", "lit": "no", "name": "Willapa Harbor Heliport", "surface": "concrete", "wikidata": "Q61726150"}}, {"type": "way", "id": 484992149, "center": {"lat": 46.979894, "lon": -123.8470828}, "nodes": [4777394226, 1042142405, 4777394225, 4777394224, 4777394226], "tags": {"aeroway": "helipad", "faa": "WT00", "lit": "yes", "name": "Grays Harbor Community Hospital Heliport", "rooftop": "yes", "surface": "concrete", "wikidata": "Q61725799"}}, {"type": "way", "id": 485000915, "center": {"lat": 47.9464577, "lon": -124.3941863}, "nodes": [4777483568, 4777483567, 4777483566, 4777483565, 4777483568], "tags": {"aeroway": "helipad", "faa": "53WT", "lit": "yes", "name": "Forks Community Hospital Heliport", "surface": "asphalt", "wikidata": "Q61725934"}}, {"type": "way", "id": 485030348, "center": {"lat": 47.999567, "lon": -122.2059579}, "nodes": [369033904, 4777869428, 4777869427, 4777869426, 369033904], "tags": {"aeroway": "helipad", "faa": "1WA5", "gnis:feature_id": "1533767", "lit": "no", "name": "General Hospital of Everett Heliport", "rooftop": "yes", "surface": "concrete", "wikidata": "Q61725923"}}, {"type": "way", "id": 485031473, "center": {"lat": 47.9757689, "lon": -122.2172433}, "nodes": [5639654889, 5639654890, 5639654891, 5639654892, 5639654893, 5639654894, 5639654895, 4777880058, 4777880057, 5639654881, 5639654882, 5639654883, 5639654884, 5639654885, 5639654886, 5639654887, 5639654888, 4777880056, 369033900, 5639654889], "tags": {"aeroway": "helipad", "faa": "1WA4", "gnis:feature_id": "1533766", "lit": "no", "name": "Providence Hospital Heliport", "rooftop": "yes", "surface": "concrete", "wikidata": "Q61725928"}}, {"type": "way", "id": 485226627, "center": {"lat": 47.0520848, "lon": -122.8473965}, "nodes": [4780045937, 4780045936, 2127556239, 4780045935, 4780045937], "tags": {"aeroway": "helipad", "faa": "8WA4", "lit": "yes", "name": "Providence St. Peter Hospital Heliport", "rooftop": "yes", "surface": "paved"}}, {"type": "way", "id": 485234707, "center": {"lat": 47.2445604, "lon": -122.4475851}, "nodes": [369034201, 4780147692, 4780147691, 4780147690, 369034201], "tags": {"aeroway": "helipad", "faa": "WN50", "gnis:feature_id": "1533991", "lit": "no", "name": "Saint Joseph Hospital Heliport", "rooftop": "yes", "surface": "concrete", "wikidata": "Q61726178"}}, {"type": "way", "id": 485243706, "center": {"lat": 47.1786059, "lon": -122.2897568}, "nodes": [4780226645, 4780226644, 369034377, 4780226643, 4780226645], "tags": {"aeroway": "helipad", "faa": "7WA8", "gnis:feature_id": "1533906", "lit": "yes", "name": "Multi Care Health System Good Samaritan Hospital Heliport", "rooftop": "yes", "surface": "concrete", "wikidata": "Q61726084"}}, {"type": "way", "id": 485328212, "center": {"lat": 46.987669, "lon": -120.5378382}, "nodes": [1042142709, 4781040811, 4781040810, 4781040809, 1042142709], "tags": {"aeroway": "helipad", "faa": "82WA", "lit": "yes", "name": "Kittitas Valley Healthcare Heliport", "rooftop": "yes", "surface": "concrete", "wikidata": "Q61725913"}}, {"type": "way", "id": 485335929, "center": {"lat": 46.5940679, "lon": -120.5466515}, "nodes": [4781106564, 4781106563, 369034922, 4781106562, 4781106564], "tags": {"aeroway": "helipad", "faa": "45WA", "gnis:feature_id": "1534047", "lit": "no", "name": "Yakima Valley Memorial Hospital Heliport", "surface": "asphalt", "wikidata": "Q61726238"}}, {"type": "way", "id": 485335945, "center": {"lat": 46.5961979, "lon": -120.5222347}, "nodes": [4781106592, 4781106591, 4781106590, 369034911, 4781106592], "tags": {"aeroway": "helipad", "faa": "99WA", "gnis:feature_id": "1534049", "lit": "yes", "name": "Providence Medical Plaza Heliport", "rooftop": "yes", "surface": "concrete", "wikidata": "Q61726232"}}, {"type": "way", "id": 485510933, "center": {"lat": 47.4071746, "lon": -120.3212208}, "nodes": [4782942692, 391023595, 4782942691, 4782942690, 4782942692], "tags": {"aeroway": "helipad", "faa": "41WA", "lit": "yes", "name": "Central Washington Hospital Heliport", "rooftop": "yes", "surface": "metal", "wikidata": "Q61726217"}}, {"type": "way", "id": 488860913, "center": {"lat": 47.2637856, "lon": -122.248553}, "nodes": [4811480991, 4811480992, 4811480993, 4811480994, 4811480991], "tags": {"aeroway": "helipad"}}, {"type": "way", "id": 496245681, "center": {"lat": 45.5158916, "lon": -122.4064369}, "nodes": [4879554258, 4879554257, 4879554256, 4879554255, 4879554254, 4879554253, 4879554252, 4879554251, 472229019, 4879554250, 4879554249, 4879554248, 4879554247, 4879554246, 4879554245, 4879554244, 4879554258], "tags": {"aeroway": "helipad", "faa": "56OR", "name": "Legacy Mount Hood Medical Center Heliport", "surface": "concrete", "wikidata": "Q3886068", "wikipedia": "en:Mount Hood Medical Center Heliport"}}, {"type": "way", "id": 503054196, "center": {"lat": 40.5851311, "lon": -122.3879216}, "nodes": [4934066997, 4934066998, 4934066999, 4934067000, 4934066997], "tags": {"aeroway": "helipad", "faa": "11CN", "name": "Shasta Regional Medical Center Heliport", "private": "yes", "ref": "H2", "rooftop": "yes", "surface": "concrete", "wikidata": "Q74833915"}}, {"type": "way", "id": 503054197, "center": {"lat": 40.5722476, "lon": -122.3966372}, "nodes": [4934067014, 4934067015, 4934067016, 4934067017, 4934067018, 4934067019, 4934067001, 4934067002, 4934067009, 4934067003, 4934067010, 4934067011, 4934067012, 4934067013, 4934067008, 4934067004, 10800952345, 4934067007, 4934067005, 4934067006, 4934067014], "tags": {"aeroway": "helipad", "ele": "204"}}, {"type": "way", "id": 520246100, "center": {"lat": 40.5860131, "lon": -122.3876609}, "nodes": [5071070819, 5071070820, 5071071121, 5071071122, 5071070819], "tags": {"aeroway": "helipad", "faa": "11CN", "name": "Shasta Regional Medical Center Heliport", "ref": "H1", "rooftop": "yes", "surface": "concrete", "wikidata": "Q74833915"}}, {"type": "way", "id": 523989038, "center": {"lat": 40.5268188, "lon": -121.4852609}, "nodes": [5100005367, 5100005362, 5100005330, 5100005460, 5100005367], "tags": {"aeroway": "helipad", "area": "yes", "source": "Bing"}}, {"type": "way", "id": 540112239, "center": {"lat": 49.294364, "lon": -123.1234446}, "nodes": [5225784752, 5225784753, 5225784754, 5225784755, 5225784752], "tags": {"access": "no", "aeroway": "helipad"}}, {"type": "way", "id": 541790427, "center": {"lat": 48.834808, "lon": -125.1367865}, "nodes": [5238682176, 5238682177, 5238682178, 5238682179, 5238682176], "tags": {"aeroway": "helipad"}}, {"type": "way", "id": 545461621, "center": {"lat": 47.9361964, "lon": -122.2672204}, "nodes": [5271832360, 5271832361, 5271832362, 5271832363, 5271832360], "tags": {"aeroway": "helipad"}}, {"type": "way", "id": 548031513, "center": {"lat": 47.0824976, "lon": -122.5833661}, "nodes": [5294792040, 5294792041, 5294792042, 5294792043, 5294792040], "tags": {"aeroway": "helipad", "name": "H3"}}, {"type": "way", "id": 548031514, "center": {"lat": 47.0843797, "lon": -122.5839923}, "nodes": [5294792044, 5294792045, 5294792046, 5294792047, 5294792044], "tags": {"aeroway": "helipad", "name": "H2"}}, {"type": "way", "id": 548031517, "center": {"lat": 47.0798659, "lon": -122.5822588}, "nodes": [5294792057, 5294792058, 5294792059, 5294792060, 5294792057], "tags": {"aeroway": "helipad", "name": "H4"}}, {"type": "way", "id": 548485755, "center": {"lat": 47.0303661, "lon": -122.5560414}, "nodes": [3235645246, 5298729827, 5298729828, 5298729829, 3235645246], "tags": {"access": "private", "aeroway": "helipad"}}, {"type": "way", "id": 559404357, "center": {"lat": 46.9041552, "lon": -124.1035119}, "nodes": [5395468671, 5395468672, 5395468673, 5395468674, 5395468671], "tags": {"aeroway": "helipad", "name": "U.S. Coast Guard - Station Grays Harbor"}}, {"type": "way", "id": 577535329, "center": {"lat": 40.4374899, "lon": -120.6287337}, "nodes": [5536343595, 5536343593, 5536343592, 5536343591, 5536343590, 5536343589, 5536343594, 5536343588, 5536343587, 5536343586, 5536343585, 5536343584, 5536343583, 1042143165, 5536343582, 5536343581, 5536343580, 5536343579, 5536343595], "tags": {"aeroway": "helipad", "faa": "99CN", "name": "Banner Lassen Medical Center Heliport", "source": "ourairports.com", "surface": "concrete"}}, {"type": "way", "id": 577545837, "center": {"lat": 41.3186211, "lon": -122.3200616}, "nodes": [3155694827, 5536427036, 5536427035, 5536427034, 5536427033, 5536427032, 5536427031, 5536427038, 5536427030, 5536427029, 5536427028, 5536427027, 5536427026, 5536427025, 5536427024, 5536427037, 5536427023, 5536427022, 5536427021, 5536425620, 5536425619, 5536425618, 3155694827], "tags": {"aeroway": "helipad", "name": "Mercy Medical Center of Mount Shasta Heliport", "surface": "concrete"}}, {"type": "way", "id": 577560857, "center": {"lat": 40.8952915, "lon": -124.0909614}, "nodes": [5536533631, 5536533630, 5536533629, 3155703394, 7889150274, 5536533631], "tags": {"aeroway": "helipad", "faa": "MRCH", "fixme": "FAA?", "name": "Mad River Community Hospital Heliport", "note": "Elev: 0\u2019 AGL MSL: 34\u2019 Wind Sock: Yes, lighted Design Helicopter: Bell 222 Max Rotor: 42\u2019 Diameter 1. The Northwest 2:1 Transitional Surface is penetrated by 2 antenna towers, which are lighted with red obstruction lights.", "phone": "+1 707 826 8264", "ref": "MRCH", "ref:ourairports": "US-0301", "surface": "asphalt"}}, {"type": "way", "id": 577590329, "center": {"lat": 40.7848357, "lon": -124.143243}, "nodes": [5536779195, 5536779194, 5536779193, 3155711613, 5536779195], "tags": {"aeroway": "helipad", "name": "Saint Joseph Hospital Heliport", "note": "Design Helicopter: Bell 47, Eurocopter AS-350 A-Star, Agusta A-109 1. Trees penetrate the North 2:1 Transitional Surface.", "phone": "+1 707 445 8121", "surface": "asphalt"}}, {"type": "way", "id": 577730460, "center": {"lat": 40.1486535, "lon": -122.2205508}, "nodes": [5537752626, 5537752623, 5537752622, 5537752621, 5537752620, 5537752619, 5537752618, 5537752617, 5537752625, 5537752616, 5537752615, 5537752614, 5537752613, 5537752612, 5537752611, 5537752624, 5537752610, 5537752609, 5537752608, 5537752607, 5537752606, 5537752605, 5537752626], "tags": {"aeroway": "helipad", "surface": "asphalt"}}, {"type": "way", "id": 579501527, "center": {"lat": 49.1547215, "lon": -125.9080894}, "nodes": [5549771501, 1042134076, 5549771500, 5549771499, 5549771501], "tags": {"aeroway": "helipad", "name": "Tofino Lifeboat Station Heliport"}}, {"type": "way", "id": 584452664, "center": {"lat": 44.6284998, "lon": -124.0604548}, "nodes": [5586744266, 369014213, 5586744265, 5586744264, 5586744266], "tags": {"aeroway": "helipad", "faa": "8OR9", "gnis:feature_id": "1131679", "name": "Pacific Communities Hospital Heliport", "ref": "8OR9", "surface": "asphalt", "wikidata": "Q61724425"}}, {"type": "way", "id": 584459047, "center": {"lat": 43.694115, "lon": -124.1368614}, "nodes": [5586805002, 5586804999, 5586804998, 5586804997, 5586804996, 5586804995, 5586804994, 5586804993, 5586805001, 5586804992, 5586804991, 5586804990, 5586804989, 5586804988, 1042141243, 5586805000, 5586804987, 5586804986, 5586804985, 5586804984, 5586804983, 5586804982, 5586805002], "tags": {"aeroway": "helipad", "faa": "79OR", "name": "Lower Umpqua Hospital Heliport", "name_1": "Cruse Memorial Heliport", "old_name": "Cruse Memorial Hospital Heliport", "ref": "79OR", "surface": "concrete", "wikidata": "Q1656426"}}, {"type": "way", "id": 584462985, "center": {"lat": 44.0812778, "lon": -123.0264691}, "nodes": [5586830403, 5586830402, 5586830401, 5586830400, 5586830399, 5586830398, 5586830397, 5586830396, 5586830403], "tags": {"aeroway": "helipad", "faa": "OG64", "lit": "yes", "maxrotordiameter": "54'", "maxweight": "22000 lbs", "name": "Sacred Heart Medical Center at RiverBend Heliport", "ref": "OG64", "rooftop": "yes", "surface": "metal", "wikidata": "Q61724439"}}, {"type": "way", "id": 590632502, "center": {"lat": 49.1608382, "lon": -123.9231884}, "nodes": [5638790600, 5638790598, 5638790597, 5638790596, 5638790595, 5638790594, 5638790593, 5638790592, 5638790591, 5638790590, 5638790589, 5638790599, 5638790588, 5638790587, 5638790586, 5638790585, 5638790584, 5638790583, 5638790582, 5638790581, 5638790580, 5638790579, 5638790600], "tags": {"aeroway": "helipad", "operator": "HeliJet"}}, {"type": "way", "id": 591113443, "center": {"lat": 47.6177009, "lon": -122.3503865}, "nodes": [5643044195, 5643044196, 5643044197, 5643044198, 5643044195], "tags": {"aeroway": "helipad", "name": "Kiro TV Helipad"}}, {"type": "way", "id": 594647943, "center": {"lat": 44.9327385, "lon": -123.0338043}, "nodes": [5669811517, 5669811516, 5669811515, 5669811514, 5669811517], "tags": {"aeroway": "helipad", "ele": "88", "faa": "OG37", "name": "Salem Hospital Heliport", "rooftop": "yes", "surface": "metal", "wikidata": "Q7404126", "wikipedia": "en:Salem Hospital Heliport"}}, {"type": "way", "id": 594663829, "center": {"lat": 43.3829793, "lon": -124.2321081}, "nodes": [5669927676, 5669927674, 5669927673, 5669927672, 5669927671, 5669927670, 1934564801, 5669927669, 5669927668, 5669927667, 5669927666, 5669927665, 5669927675, 5669927664, 5669927663, 5669927662, 5669927661, 5669927660, 5669927676], "tags": {"aeroway": "helipad", "faa": "OR49", "name": "Bay Area Hospital Heliport", "ref": "OR49", "surface": "paved", "wikidata": "Q2264687"}}, {"type": "way", "id": 602274769, "center": {"lat": 44.2973162, "lon": -120.8256751}, "nodes": [5721399201, 5721399202, 5721399203, 5721399204, 5721399206, 5721399201], "tags": {"aeroway": "helipad", "name": "Saint Charles Hospital Prineville Helipad"}}, {"type": "way", "id": 606401681, "center": {"lat": 42.4250912, "lon": -122.8782604}, "nodes": [5749474172, 5749474173, 5749474174, 5749474175, 5749474172], "tags": {"aeroway": "helipad"}}, {"type": "way", "id": 606600813, "center": {"lat": 42.3917718, "lon": -122.8574694}, "nodes": [5750959437, 5750959438, 5750959439, 5750959440, 5750959437], "tags": {"aeroway": "helipad"}}, {"type": "way", "id": 606600814, "center": {"lat": 42.391773, "lon": -122.8571198}, "nodes": [5750959441, 5750959442, 5750959443, 5750959444, 5750959441], "tags": {"aeroway": "helipad"}}, {"type": "way", "id": 607807104, "center": {"lat": 44.128836, "lon": -123.2089252}, "nodes": [5759500198, 5759500199, 11093210497, 5759500200, 5759500201, 5759500198], "tags": {"aeroway": "helipad"}}, {"type": "way", "id": 608003312, "center": {"lat": 47.6028049, "lon": -122.3246616}, "nodes": [5760999791, 5760999792, 5760999793, 5760999794, 5760999795, 5760999796, 5760999797, 1115816554, 5760999780, 5760999783, 5760999784, 5760999785, 5760999786, 5760999787, 5760999788, 5760999789, 5760999790, 5760999781, 5760999782, 5760999791], "tags": {"access": "emergency", "aeroway": "helipad", "faa": "WA53", "lit": "yes", "name": "Pad 3", "source": "bing", "surface": "concrete"}}, {"type": "way", "id": 615721116, "center": {"lat": 40.5211228, "lon": -122.2916464}, "nodes": [5822082161, 5822082176, 5822082177, 5822082178, 5822082179, 5822082180, 5822082181, 5822082182, 5822082183, 5822082184, 5822082185, 5822082186, 5822082187, 5822082188, 5822082189, 5822082190, 5822082191, 5822082192, 5822082193, 5822082194, 5822082195, 5822082196, 5822082197, 5822082198, 5822082161], "tags": {"aeroway": "helipad"}}, {"type": "way", "id": 618066622, "center": {"lat": 47.0063088, "lon": -123.3921829}, "nodes": [5639640185, 5639640181, 5842254413, 5842254412, 5842254411, 5639640185], "tags": {"aeroway": "helipad", "faa": "3WA6", "lit": "no", "name": "Summit Pacific Medical Center Heliport", "surface": "concrete"}}, {"type": "way", "id": 620935801, "center": {"lat": 48.7078249, "lon": -122.9095303}, "nodes": [5866129986, 5866129987, 5866129988, 5866129989, 5866129986], "tags": {"access": "emergency", "aeroway": "helipad"}}, {"type": "way", "id": 651626646, "center": {"lat": 45.2544894, "lon": -122.767272}, "nodes": [6110139415, 6110139416, 6110139424, 6110139417, 6110139418, 6110139415], "tags": {"aeroway": "helipad"}}, {"type": "way", "id": 651626647, "center": {"lat": 45.2543326, "lon": -122.7674639}, "nodes": [6110139419, 6110139420, 6110139421, 6110139422, 6110139423, 6110139419], "tags": {"aeroway": "helipad"}}, {"type": "way", "id": 663682061, "center": {"lat": 43.8031907, "lon": -123.0393801}, "nodes": [6212055733, 6212055734, 6212055735, 6212055736, 6212055733], "tags": {"aeroway": "helipad"}}, {"type": "way", "id": 677412761, "center": {"lat": 45.6802852, "lon": -123.1886054}, "nodes": [6342894158, 6342894155, 6342894156, 6342894157, 6342894158], "tags": {"aeroway": "helipad"}}, {"type": "way", "id": 679365740, "center": {"lat": 46.7916904, "lon": -120.151527}, "nodes": [6361578335, 6361578336, 6361578337, 6361578338, 6361578335], "tags": {"aeroway": "helipad"}}, {"type": "way", "id": 679365741, "center": {"lat": 46.7914357, "lon": -120.1513931}, "nodes": [6361578339, 6361578340, 6361578341, 6361578342, 6361578339], "tags": {"aeroway": "helipad"}}, {"type": "way", "id": 679365742, "center": {"lat": 46.7911849, "lon": -120.1512479}, "nodes": [6361578343, 6361578344, 6361578345, 6361578346, 6361578343], "tags": {"aeroway": "helipad"}}, {"type": "way", "id": 679365743, "center": {"lat": 46.7909332, "lon": -120.151109}, "nodes": [6361578347, 6361578348, 6361578349, 6361578350, 6361578347], "tags": {"aeroway": "helipad"}}, {"type": "way", "id": 679365744, "center": {"lat": 46.7906803, "lon": -120.1509717}, "nodes": [6361578351, 6361578352, 6361578353, 6361578354, 6361578351], "tags": {"aeroway": "helipad"}}, {"type": "way", "id": 679365745, "center": {"lat": 46.7904209, "lon": -120.1508264}, "nodes": [6361578355, 6361578356, 6361578357, 6361578358, 6361578355], "tags": {"aeroway": "helipad"}}, {"type": "way", "id": 679365746, "center": {"lat": 46.7901713, "lon": -120.1506859}, "nodes": [6361578359, 6361578360, 6361578361, 6361578362, 6361578359], "tags": {"aeroway": "helipad"}}, {"type": "way", "id": 679365747, "center": {"lat": 46.7899161, "lon": -120.1505486}, "nodes": [6361578363, 6361578364, 6361578365, 6361578366, 6361578363], "tags": {"aeroway": "helipad"}}, {"type": "way", "id": 679365748, "center": {"lat": 46.7896546, "lon": -120.1504097}, "nodes": [6361578367, 6361578368, 6361578369, 6361578370, 6361578367], "tags": {"aeroway": "helipad"}}, {"type": "way", "id": 679365749, "center": {"lat": 46.7893941, "lon": -120.150266}, "nodes": [6361578371, 6361578372, 6361578373, 6361578374, 6361578371], "tags": {"aeroway": "helipad"}}, {"type": "way", "id": 680057027, "center": {"lat": 45.5512982, "lon": -122.3956924}, "nodes": [6367506247, 6367506248, 11285176296, 6367506249, 6367506250, 6367506247], "tags": {"aeroway": "helipad"}}, {"type": "way", "id": 683748453, "center": {"lat": 47.4175483, "lon": -122.463454}, "nodes": [6404780725, 6404780726, 6404780727, 6404780728, 6404780729, 6404780739, 6404780740, 6404780741, 6404780742, 6404780724, 6404780730, 6404780731, 6404780732, 6404780733, 6404780735, 6404780736, 6404780737, 6404780738, 6404780734, 6404780725], "tags": {"aeroway": "helipad"}}, {"type": "way", "id": 689222122, "center": {"lat": 49.7966007, "lon": -123.311156}, "nodes": [6465632051, 6465632052, 6465632053, 6465632054, 6465632051], "tags": {"aeroway": "helipad"}}, {"type": "way", "id": 691287340, "center": {"lat": 41.1233113, "lon": -121.1352709}, "nodes": [6486602521, 6486602522, 6486602523, 6486602524, 6486602521], "tags": {"aeroway": "helipad", "name": "CalFire Bieber Helitack Base"}}, {"type": "way", "id": 691546557, "center": {"lat": 41.1311458, "lon": -121.1291112}, "nodes": [6489538896, 6496189586, 6489538897, 6489538898, 6489538899, 6489538896], "tags": {"aeroway": "helipad"}}, {"type": "way", "id": 696466391, "center": {"lat": 47.6748925, "lon": -124.4850513}, "nodes": [6540404255, 6540404254, 6540404253, 6540404252, 6540404255], "tags": {"aeroway": "helipad"}}, {"type": "way", "id": 697276048, "center": {"lat": 49.2090349, "lon": -123.8092688}, "nodes": [6548872044, 6548872043, 6548872042, 6548872044], "tags": {"aeroway": "helipad"}}, {"type": "way", "id": 706473943, "center": {"lat": 47.4418131, "lon": -122.2144701}, "nodes": [369034423, 6638580959, 6638580960, 6638580961, 369034423], "tags": {"addr:state": "WA", "aeroway": "helipad", "ele": "30", "faa": "8WA3", "gnis:county_name": "King", "gnis:created": "03/01/1990", "gnis:feature_id": "1533917", "gnis:feature_type": "Airport", "lit": "yes", "name": "Valley Medical Center Heliport", "source_ref": "geonames.usgs.gov", "surface": "asphalt", "wikidata": "Q61726102"}}, {"type": "way", "id": 707825309, "center": {"lat": 46.0319068, "lon": -123.36922}, "nodes": [6650974450, 6650974451, 6650974452, 6650974453, 6650974450], "tags": {"aeroway": "helipad"}}, {"type": "way", "id": 718034929, "center": {"lat": 47.6853464, "lon": -122.1071291}, "nodes": [6743324605, 6743324606, 6743324607, 6743324608, 6743324609, 6743324610, 6743324611, 6743324612, 6743324594, 6743324595, 6743324598, 6743324599, 6743324600, 6743324601, 6743324602, 6743324603, 6743324604, 6743324596, 6743324597, 6743324605], "tags": {"access": "no", "aeroway": "helipad", "lit": "no", "surface": "concrete"}}, {"type": "way", "id": 733710603, "center": {"lat": 49.2006936, "lon": -122.6620765}, "nodes": [6871892969, 6871892970, 6871892971, 6871892972, 6871892969], "tags": {"aeroway": "helipad"}}, {"type": "way", "id": 735377011, "center": {"lat": 47.5021468, "lon": -122.2038439}, "nodes": [6887617884, 6887624185, 6887624186, 6887624187, 6887617884], "tags": {"aeroway": "helipad"}}, {"type": "way", "id": 739464526, "center": {"lat": 44.3014957, "lon": -121.5431065}, "nodes": [1155039130, 6923712599, 6923712598, 1155039083, 1155039130], "tags": {"aeroway": "helipad"}}, {"type": "way", "id": 742045293, "center": {"lat": 45.4360586, "lon": -122.5107889}, "nodes": [6946559562, 6946559563, 6946559564, 6946559565, 6946559566, 6946559548, 6946559549, 6946559550, 6946559551, 6946559556, 6946559557, 6946559558, 6946559559, 6946559560, 6946559561, 6946559552, 6946559553, 6946559554, 6946559555, 6946559562], "tags": {"access": "private", "aeroway": "helipad"}}, {"type": "way", "id": 744755781, "center": {"lat": 47.2828875, "lon": -122.2454802}, "nodes": [6970251016, 6970251017, 6970251018, 6970251019, 6970251016], "tags": {"aeroway": "helipad"}}, {"type": "way", "id": 745948964, "center": {"lat": 48.4956819, "lon": -122.2776266}, "nodes": [6981180907, 6981180906, 6981180905, 6981180902, 6981180904, 6981180907], "tags": {"aeroway": "helipad", "operator": "PeaceHealth United General Medical Center", "source": "Esri 2019", "surface": "asphalt"}}, {"type": "way", "id": 751432353, "center": {"lat": 49.1511053, "lon": -125.9091074}, "nodes": [7024717598, 7024717599, 7024717600, 7024717601, 7024717602, 7024717603, 7024717604, 7024717605, 7024717606, 7024717607, 7024717608, 7024717590, 7024717593, 7024717594, 7024717595, 7024717596, 7024717597, 7024717591, 7024717592, 7024717598], "tags": {"aeroway": "helipad"}}, {"type": "way", "id": 752836764, "center": {"lat": 49.851434, "lon": -124.5173611}, "nodes": [1042134219, 7034452576, 7034452577, 7034452578, 7034452579, 7034452580, 7034452581, 7034452582, 7034452583, 7034452584, 7034516285, 7034452568, 7034452571, 7034452572, 7034452573, 7034452574, 7034452575, 7034452569, 7034452570, 1042134219], "tags": {"aeroway": "helipad", "name": "Powell River (Hospital) Heliport", "source": "ourairports.com"}}, {"type": "way", "id": 755071788, "center": {"lat": 49.7079593, "lon": -124.8858642}, "nodes": [7053537488, 7053537489, 7053537490, 7053537491, 7053537488], "tags": {"aeroway": "helipad"}}, {"type": "way", "id": 756076509, "center": {"lat": 44.6325006, "lon": -123.117401}, "nodes": [5184875962, 7061676512, 7061676513, 7061676514, 7061676515, 7061676498, 7061676499, 7061676506, 7061676500, 7061676507, 7061676508, 7061676509, 7061676510, 7061676511, 7061676501, 7061676502, 7061676503, 7061676504, 7061676505, 5184875962], "tags": {"aeroway": "helipad", "operator": "Samaritan Albany General Hospital"}}, {"type": "way", "id": 758539441, "center": {"lat": 49.1857616, "lon": -123.9717861}, "nodes": [1042134065, 7084060214, 7084060215, 7084060216, 1042134065], "tags": {"aeroway": "helipad", "name": "Nanaimo (Regional General Hospital) Heliport", "name_1": "Regional General Hospital Heliport", "name_2": "Nanaimo Heliport", "ref": "CBG5", "surface": "paved"}}, {"type": "way", "id": 786300378, "center": {"lat": 42.6078734, "lon": -122.8145765}, "nodes": [7351947547, 7351947548, 7351947549, 7351947550, 7351947551, 7351947533, 7351947534, 7351947535, 7351947536, 7351947541, 7351947542, 7351947543, 7351947544, 7351947545, 7351947546, 7351947537, 7351947538, 7351947539, 7351947540, 7351947547], "tags": {"aerodrome:type": "private", "aeroway": "helipad"}}, {"type": "way", "id": 789684152, "center": {"lat": 48.918369, "lon": -123.7106172}, "nodes": [7383244150, 7383244149, 7383244148, 7383244147, 7383244150], "tags": {"aeroway": "helipad"}}, {"type": "way", "id": 791198312, "center": {"lat": 44.0584236, "lon": -123.1190091}, "nodes": [7396547075, 7396547076, 7396547077, 7396547078, 7396557629, 7396547075], "tags": {"aeroway": "helipad", "operator": "Eugene Springfield Fire Department"}}, {"type": "way", "id": 791558060, "center": {"lat": 48.418068, "lon": -122.3244381}, "nodes": [7399898580, 7399898581, 7399898582, 7399898583, 7399898580], "tags": {"aeroway": "helipad", "area": "yes"}}, {"type": "way", "id": 793338032, "center": {"lat": 45.2197966, "lon": -122.5876509}, "nodes": [427712336, 7418240426, 7418240427, 7418240428, 7418240429, 7418240430, 7418240413, 7418240414, 7418240415, 7418240420, 7418240421, 7418240422, 7418240423, 7418240424, 7418240425, 7418240416, 7418240417, 7418240418, 7418240419, 427712336], "tags": {"aeroway": "helipad"}}, {"type": "way", "id": 797710068, "center": {"lat": 47.2596828, "lon": -122.4520134}, "nodes": [7460730695, 7460730694, 7460730693, 7460730692, 7460730695], "tags": {"aeroway": "helipad", "faa": "31WA", "layer": "2", "lit": "yes", "location": "roof", "name": "Mary Bridge Heliport", "operator": "MultiCare Tacoma General Hospital", "source": "Bing", "surface": "metal", "wikidata": "Q61726177"}}, {"type": "way", "id": 799533498, "center": {"lat": 49.1758997, "lon": -122.8437465}, "nodes": [7477565931, 7477565932, 7477565933, 7477565934, 7477565931], "tags": {"aeroway": "helipad", "layer": "1", "name": "Surrey Memorial Hospital Heliport", "operator": "Surrey Memorial Hospital", "ref": "CVS3", "surface": "paved"}}, {"type": "way", "id": 799537678, "center": {"lat": 48.871523, "lon": -123.3208909}, "nodes": [7477601562, 7477601563, 7477601564, 7477601565, 7477601566, 7477601567, 7477601568, 7477601550, 7477601551, 7477601554, 7477601555, 7477601556, 7477601557, 7477601558, 7477601559, 7477601560, 7477601561, 7477601552, 7477601553, 7477601562], "tags": {"aeroway": "helipad", "name": "Galiano Health Care Centre Helipad", "ref": "no", "surface": "paved"}}, {"type": "way", "id": 799538105, "center": {"lat": 48.5026657, "lon": -122.6147376}, "nodes": [7477622498, 7477622499, 7477622500, 7477622501, 7477622498], "tags": {"aeroway": "helipad", "faa": "WA02", "lit": "no", "name": "The Island Hospital Heliport", "surface": "asphalt", "wikidata": "Q61725809"}}, {"type": "way", "id": 799539678, "center": {"lat": 48.1062584, "lon": -122.7887094}, "nodes": [7477623280, 7477623281, 7477623282, 7477623283, 7477623280], "tags": {"aeroway": "helipad", "faa": "7WA2", "layer": "1", "lit": "no", "name": "Jefferson Healthcare Hospital Heliport", "surface": "asphalt", "wikidata": "Q61726077"}}, {"type": "way", "id": 799545511, "center": {"lat": 48.4680934, "lon": -123.4322661}, "nodes": [7477707739, 7477707740, 7477707741, 7477707742, 7477707743, 7477707725, 7477707726, 7477707727, 7477707731, 7477707732, 7477707733, 7477707734, 7477707735, 7477707736, 7477707737, 7477707738, 7477707728, 7477707729, 7477707730, 7477707739], "tags": {"aeroway": "helipad", "name": "Victoria (General Hospital) Heliport", "ref": "CBW7", "surface": "paved"}}, {"type": "way", "id": 799556692, "center": {"lat": 43.1800651, "lon": -124.1799641}, "nodes": [7477842864, 7477842865, 7477842866, 7477842867, 7477842864], "tags": {"aeroway": "helipad", "faa": "CVH", "fixme": "FAA?", "name": "Coquille Valley Hospital Heliport", "ref": "CVH", "surface": "paved", "wikidata": "Q3206812", "wikipedia": "en:Hollister Municipal Airport"}}, {"type": "way", "id": 799558334, "center": {"lat": 42.4111234, "lon": -124.4184526}, "nodes": [7477873640, 7477873641, 7477873642, 7477873643, 7477873640], "tags": {"aeroway": "helipad", "faa": "CGH", "fixme": "FAA?", "name": "Curry General Hospital Heliport", "ref": "CGH"}}, {"type": "way", "id": 800792545, "center": {"lat": 48.69938, "lon": -123.5925404}, "nodes": [7490071393, 7490071392, 7490071391, 7490071390, 7490071389, 7490071388, 7490071387, 7490071386, 7490071393], "tags": {"aeroway": "helipad", "ref": "1"}}, {"type": "way", "id": 800792546, "center": {"lat": 48.6993986, "lon": -123.592968}, "nodes": [7490071401, 7490071400, 7490071399, 7490071398, 7490071397, 7490071396, 7490071395, 7490071394, 7490071401], "tags": {"aeroway": "helipad", "ref": "2"}}, {"type": "way", "id": 821164485, "center": {"lat": 49.309546, "lon": -123.081197}, "nodes": [7667276990, 7667276991, 7667276992, 7667276993, 7667276990], "tags": {"aeroway": "helipad", "surface": "wood"}}, {"type": "way", "id": 836989671, "center": {"lat": 48.1883174, "lon": -122.1169497}, "nodes": [1042134090, 7811617023, 7811617024, 7811617025, 1042134090], "tags": {"aeroway": "helipad", "faa": "6WA9", "lit": "yes", "name": "Cascade Valley Hospital Heliport", "source": "ourairports.com;Bing", "surface": "concrete", "wikidata": "Q61725811"}}, {"type": "way", "id": 838633812, "center": {"lat": 45.3560803, "lon": -122.5860358}, "nodes": [369013812, 7826646980, 7826646981, 7826646982, 369013812], "tags": {"aeroway": "helipad", "faa": "1OR9", "fixme": "Metro imagery shows construction here with helipad temporarily moved to parking lot - where is it now?", "name": "Willamette Falls Community Hospital Heliport", "surface": "grass", "wikidata": "Q10860233"}}, {"type": "way", "id": 838636707, "center": {"lat": 45.0039345, "lon": -122.7905401}, "nodes": [7826690420, 7826690421, 7826690422, 7826690404, 7826690405, 7826690406, 7826690407, 7826690408, 7826690409, 7826690417, 7826690418, 7826690419, 7826690410, 7826690411, 7826690412, 7826690413, 7826690414, 7826690415, 7826690416, 7826690420], "tags": {"aeroway": "helipad", "description": "Helipad shares space with automobile parking", "source": "Esri beta", "surface": "asphalt"}}, {"type": "way", "id": 839464093, "center": {"lat": 45.8198535, "lon": -120.8120339}, "nodes": [7833521096, 7833521097, 7833521098, 7833521099, 7833521096], "tags": {"aeroway": "helipad", "location": "roof", "operator": "Klickitat Valley Hospital", "source": "Esri 2018"}}, {"type": "way", "id": 839464699, "center": {"lat": 45.5872365, "lon": -121.1638499}, "nodes": [7833514627, 7833514628, 7833514629, 7833514611, 7833514612, 7833514613, 7833514614, 7833514615, 7833514616, 7833514623, 7833514624, 7833514625, 7833514626, 7833514617, 7833514618, 7833514619, 7833514620, 7833514621, 7833514622, 7833514627], "tags": {"aeroway": "helipad", "source": "Esri 2019", "surface": "concrete"}}, {"type": "way", "id": 840002735, "center": {"lat": 49.16048, "lon": -123.9232617}, "nodes": [7838491084, 7838503085, 7838503086, 7838503087, 7838503088, 9784123946, 9784123945, 9784123944, 9784123943, 7838503089, 9784123942, 9784123941, 9784123940, 7838503090, 9784123939, 7838503091, 7838503092, 9784123938, 9784123937, 7838503093, 7838503094, 7838491084], "tags": {"aeroway": "heliport", "icao": "CDH5", "name": "Nanaimo Harbour Heliport"}}, {"type": "way", "id": 852266004, "center": {"lat": 43.2428837, "lon": -123.3666645}, "nodes": [7949757912, 7949757913, 7949757914, 7949757915, 7949757912], "tags": {"aeroway": "helipad", "source": "Bing 2019"}}, {"type": "way", "id": 852266888, "center": {"lat": 40.7389913, "lon": -122.9397777}, "nodes": [7949781444, 7949781445, 7949781446, 7949781447, 7949781444], "tags": {"aeroway": "helipad", "source": "Esri beta", "surface": "asphalt"}}, {"type": "way", "id": 867063974, "center": {"lat": 46.9190934, "lon": -122.3171281}, "nodes": [8082135918, 8082135917, 8082103616, 8082103615, 8082135918], "tags": {"aeroway": "helipad"}}, {"type": "way", "id": 875737221, "center": {"lat": 46.2775253, "lon": -124.043304}, "nodes": [8151085014, 8151085015, 8151085016, 8151085017, 8151085014], "tags": {"aeroway": "helipad", "name": "U.S. Coast Guard - Station Cape Disappointment"}}, {"type": "way", "id": 876311337, "center": {"lat": 46.2571587, "lon": -120.7532099}, "nodes": [8155863822, 8155863823, 8155863824, 8155863825, 8155863822], "tags": {"aeroway": "helipad", "lit": "no", "ref": "H28", "surface": "unpaved"}}, {"type": "way", "id": 886051107, "center": {"lat": 48.5309483, "lon": -121.7586737}, "nodes": [8238974206, 8238974207, 8238974208, 8238974209, 8238974206], "tags": {"aeroway": "helipad", "lit": "no", "note": "Emergency use only.", "ref": "H1", "surface": "concrete"}}, {"type": "way", "id": 887069579, "center": {"lat": 47.4550553, "lon": -122.4772134}, "nodes": [8248632036, 8248632037, 8248632038, 8248632039, 8248632040, 8248632041, 8248632042, 8248632043, 8248632036], "tags": {"aeroway": "helipad", "lit": "yes", "note": "For medivac/emergency use only.", "ref": "H1", "surface": "grass"}}, {"type": "way", "id": 887433280, "center": {"lat": 47.3328803, "lon": -122.2228099}, "nodes": [8250885252, 8250885253, 8250885254, 8250885255, 8250885256, 8250885257, 8250885258, 8250885259, 8250885252], "tags": {"aeroway": "helipad", "faa": "WA28", "lit": "no", "name": "Private Helicopter Pad", "note": "Yes, that is the official FAA registered name.", "surface": "asphalt", "wikidata": "Q61725819"}}, {"type": "way", "id": 887433284, "center": {"lat": 47.5539037, "lon": -122.6824665}, "nodes": [8250885270, 8250885271, 6294594553, 8250885272, 8250885270], "tags": {"aeroway": "helipad", "lit": "no", "ref": "H1", "surface": "asphalt"}}, {"type": "way", "id": 887681181, "center": {"lat": 40.2876261, "lon": -121.2454111}, "nodes": [8253142710, 8253142711, 8253142712, 8253142713, 8253142710], "tags": {"aeroway": "helipad", "lit": "no", "ref": "H1", "surface": "concrete"}}, {"type": "way", "id": 887681182, "center": {"lat": 40.2877773, "lon": -121.2448222}, "nodes": [8253142714, 8253142715, 8253142716, 8253146617, 8253142714], "tags": {"aeroway": "helipad", "lit": "no", "ref": "H2", "surface": "concrete"}}, {"type": "way", "id": 888038168, "center": {"lat": 40.8851212, "lon": -121.669353}, "nodes": [8256402654, 9555197235, 8256402655, 8256402656, 8256402657, 9555197228, 8256402654], "tags": {"aeroway": "helipad", "faa": "CA01", "lit": "yes", "name": "Burney Sheriff's Station Heliport", "surface": "concrete", "wikidata": "Q74832901"}}, {"type": "way", "id": 895026248, "center": {"lat": 47.1412798, "lon": -121.9345039}, "nodes": [8319522924, 8319522925, 8319522926, 8319522927, 8319522924], "tags": {"aeroway": "helipad", "emergency": "landing_site"}}, {"type": "way", "id": 906725687, "center": {"lat": 46.7297534, "lon": -121.8567386}, "nodes": [8419766781, 8419766782, 8419766783, 8419766784, 8419766781], "tags": {"aeroway": "helipad", "faa": "7WA7", "lit": "no", "name": "Kautz Creek Helibase", "surface": "asphalt"}}, {"type": "way", "id": 906725688, "center": {"lat": 48.7137628, "lon": -121.141171}, "nodes": [8419766787, 8419766788, 8419766789, 8419766790, 8419766787], "tags": {"aeroway": "helipad", "faa": "WT70", "lit": "yes", "name": "Diablo Heliport", "surface": "concrete", "wikidata": "Q61725902"}}, {"type": "way", "id": 906725689, "center": {"lat": 47.1449355, "lon": -121.6362506}, "nodes": [8419766792, 8419766793, 8419766794, 8419766795, 8419766792], "tags": {"aeroway": "helipad", "faa": "2WA0", "lit": "yes", "name": "PCFD #26 Heliport", "surface": "concrete", "wikidata": "Q61725954"}}, {"type": "way", "id": 906725692, "center": {"lat": 46.9653075, "lon": -122.8915138}, "nodes": [8419773218, 8419773219, 8419773222, 8419773220, 8419773221, 8419773218], "tags": {"aeroway": "helipad", "lit": "yes", "ref": "H1", "surface": "concrete"}}, {"type": "way", "id": 924401056, "center": {"lat": 49.9520557, "lon": -125.2707194}, "nodes": [8579427918, 8579427919, 8579427920, 8579427921, 8579427922, 8579427923, 8579427924, 8579427925, 8579427907, 8579427908, 8579427911, 8579427912, 8579427913, 8579427914, 8579427915, 8579427916, 8579427917, 8579427909, 8579427910, 8579427918], "tags": {"aeroway": "helipad"}}, {"type": "way", "id": 924401057, "center": {"lat": 49.9507501, "lon": -125.2679957}, "nodes": [8579427937, 8579427938, 8579427939, 8579427940, 8579427941, 8579427942, 8579427943, 8579427944, 8579427926, 8579427927, 8579427930, 8579427931, 8579427932, 8579427933, 8579427934, 8579427935, 8579427936, 8579427928, 8579427929, 8579427937], "tags": {"aeroway": "helipad"}}, {"type": "way", "id": 924401058, "center": {"lat": 49.9536876, "lon": -125.2717175}, "nodes": [3245269040, 8579427945, 8579427946, 3245269028, 3245269040], "tags": {"aeroway": "helipad"}}, {"type": "way", "id": 924454284, "center": {"lat": 49.0973912, "lon": -122.6258341}, "nodes": [8579851287, 8579851288, 8579851289, 8579851290, 8579851291, 8579851292, 8579851293, 8579851294, 8579851276, 8579851277, 8579851280, 8579851281, 8579851282, 8579851283, 8579851284, 8579851285, 8579851286, 8579851278, 8579851279, 8579851287], "tags": {"aeroway": "helipad"}}, {"type": "way", "id": 924454285, "center": {"lat": 49.0974533, "lon": -122.6256498}, "nodes": [8579851295, 8579851296, 8579851297, 8579851298, 8579851299, 8579851300, 8579851301, 8579851302, 8579851303, 8579851304, 8579851305, 8579851306, 8579851307, 8579851308, 8579851309, 8579851310, 8579851311, 8579851312, 8579851313, 8579851295], "tags": {"aeroway": "helipad"}}, {"type": "way", "id": 924454286, "center": {"lat": 49.0973094, "lon": -122.6256725}, "nodes": [8579851314, 8579851315, 8579851316, 8579868817, 8579868818, 8579868819, 8579868820, 8579868821, 8579868822, 8579868823, 8579868824, 8579868825, 8579868826, 8579868827, 8579868828, 8579868829, 8579868830, 8579868831, 8579868832, 8579851314], "tags": {"aeroway": "helipad"}}, {"type": "way", "id": 930695889, "center": {"lat": 49.1828975, "lon": -123.1669215}, "nodes": [1076416612, 10798890673, 8629479595, 8629479596, 1076416612], "tags": {"aeroway": "helipad", "ref": "Helipad B"}}, {"type": "way", "id": 930695890, "center": {"lat": 49.1812499, "lon": -123.1545294}, "nodes": [724728919, 8629479627, 8629479628, 8629479629, 8629479630, 8629479631, 8629479632, 8629479633, 8629479615, 8629479616, 8629479619, 8629479620, 8629479621, 8629479622, 8629479623, 8629479624, 8629479625, 8629479617, 8629479618, 724728919], "tags": {"aeroway": "helipad", "ref": "Helipad C"}}, {"type": "way", "id": 932644951, "center": {"lat": 49.3631431, "lon": -122.4719879}, "nodes": [8645280062, 8645280063, 8645280064, 8645280065, 8645280062], "tags": {"aeroway": "helipad"}}, {"type": "way", "id": 939182553, "center": {"lat": 49.3776709, "lon": -123.277204}, "nodes": [8700182976, 8700182977, 8700182978, 8700182979, 8700182976], "tags": {"aeroway": "helipad"}}, {"type": "way", "id": 945921734, "center": {"lat": 42.7399974, "lon": -124.5082805}, "nodes": [8756913623, 8756913624, 8756913625, 8756913626, 8756913623], "tags": {"aeroway": "helipad", "description": "Built in 1934 of wood, in the 1960s the wood was replaced with the current concrete marker. The pad was imprinted with a number code and was used as a helicopter landing pad and for aerial site identification by the Coast Guard.", "disused": "yes", "heritage": "2", "heritage:operator": "nrhp", "heritage:website": "https://www.nps.gov/subjects/nationalregister/index.htm", "historic": "maritime", "nrhp:criteria": "A, C", "nrhp:inscription_date": "1998-05-29", "protection_title": "Port Orford Heads State Park", "ref:nrhp": "98000606", "source_ref": "https://catalog.archives.gov/id/77849112"}}, {"type": "way", "id": 951301470, "center": {"lat": 44.9120055, "lon": -123.0015368}, "nodes": [8605027484, 8805346540, 8805346541, 8805346542, 8605027484], "tags": {"aeroway": "helipad"}}, {"type": "way", "id": 960973702, "center": {"lat": 46.2942886, "lon": -122.0699658}, "nodes": [8889593816, 8889596617, 8889596618, 8889596619, 8889593816], "tags": {"aeroway": "helipad"}}, {"type": "way", "id": 985411270, "center": {"lat": 49.1003085, "lon": -122.6268211}, "nodes": [9109931203, 9109931204, 9109931205, 9109931206, 9109931207, 9109931208, 9109931209, 9109931210, 9109931192, 9109931193, 9109931196, 9109931197, 9109931198, 9109931199, 9109931200, 9109931201, 9109931202, 9109931194, 9109931195, 9109931203], "tags": {"aeroway": "helipad"}}, {"type": "way", "id": 989261502, "center": {"lat": 41.1223562, "lon": -121.1362493}, "nodes": [9143436069, 9143436070, 9143436071, 9143436072, 9143436069], "tags": {"aeroway": "helipad"}}, {"type": "way", "id": 995999460, "center": {"lat": 43.8625339, "lon": -123.2438679}, "nodes": [9196957953, 9196957954, 9196957955, 2640327522, 9196957956, 9196957953], "tags": {"aeroway": "helipad"}}, {"type": "way", "id": 996810745, "center": {"lat": 46.1478639, "lon": -122.1807218}, "nodes": [9204157666, 9204157667, 9204157668, 9204157669, 9204157666], "tags": {"aeroway": "helipad"}}, {"type": "way", "id": 1015184512, "center": {"lat": 42.1876798, "lon": -122.6626332}, "nodes": [9364894543, 9364894544, 9364894545, 9364894546, 9364894547, 9364894529, 9364894530, 9364894531, 9364894532, 9364894538, 9364894539, 9364894540, 9364894541, 9364894542, 9364894533, 9364894534, 9364894535, 9364894536, 9364894537, 9364894543], "tags": {"aeroway": "helipad"}}, {"type": "way", "id": 1016080284, "center": {"lat": 45.5950588, "lon": -121.1164934}, "nodes": [9372224407, 9372224408, 9372224409, 9372224410, 9372224411, 9372224393, 9372224394, 9372224395, 9372224396, 9372224397, 9372224404, 9372224405, 9372224406, 9372224398, 9372224399, 9372224400, 9372224401, 9372224402, 9372224403, 9372224407], "tags": {"access": "private", "aeroway": "helipad"}}, {"type": "way", "id": 1026525562, "center": {"lat": 49.3659993, "lon": -123.2637987}, "nodes": [9464476788, 9464476789, 9464476790, 9464476791, 9464476788], "tags": {"aeroway": "helipad", "lit": "no", "name": "Old Helipad", "surface": "wood"}}, {"type": "way", "id": 1027495774, "center": {"lat": 41.4851776, "lon": -120.5648998}, "nodes": [9472545558, 9472545559, 9472545560, 9472545561, 9472545562, 9472545563, 9472545564, 9472545565, 9472545547, 9472545548, 9472545551, 9472545552, 9472545553, 9472545554, 9472545555, 9472545556, 9472545557, 9472545549, 9472545550, 9472545558], "tags": {"aeroway": "helipad"}}, {"type": "way", "id": 1027495775, "center": {"lat": 41.4852012, "lon": -120.5641654}, "nodes": [9472545577, 9472545578, 9472545579, 9472545580, 9472545581, 9472545582, 9472545583, 9472545584, 9472545566, 9472545567, 9472545570, 9472545571, 9472545572, 9472545573, 9472545574, 9472545575, 9472545576, 9472545568, 9472545569, 9472545577], "tags": {"aeroway": "helipad"}}, {"type": "way", "id": 1027495776, "center": {"lat": 41.4849513, "lon": -120.5638537}, "nodes": [9472545596, 9472545597, 9472545598, 9472545599, 9472545600, 9472545601, 9472545602, 9472545603, 9472545585, 9472545586, 9472545589, 9472545590, 9472545591, 9472545592, 9472545593, 9472545594, 9472545595, 9472545587, 9472545588, 9472545596], "tags": {"aeroway": "helipad"}}, {"type": "way", "id": 1027495777, "center": {"lat": 41.4847154, "lon": -120.5641823}, "nodes": [9472545615, 9472545616, 9472545617, 9472545618, 9472545619, 9472545620, 9472545621, 9472545622, 9472545604, 9472545605, 9472545608, 9472545609, 9472545610, 9472545611, 9472545612, 9472545613, 9472545614, 9472545606, 9472545607, 9472545615], "tags": {"aeroway": "helipad"}}, {"type": "way", "id": 1027495778, "center": {"lat": 41.4844774, "lon": -120.5645143}, "nodes": [9472545634, 9472545635, 9472545636, 9472545637, 9472545638, 9472545639, 9472545640, 9472545641, 9472545623, 9472545624, 9472545627, 9472545628, 9472545629, 9472545630, 9472545631, 9472545632, 9472545633, 9472545625, 9472545626, 9472545634], "tags": {"aeroway": "helipad"}}, {"type": "way", "id": 1027495779, "center": {"lat": 41.4846777, "lon": -120.5651932}, "nodes": [9472545653, 9472545654, 9472545655, 9472545656, 9472545657, 9472545658, 9472545659, 9472545660, 9472545642, 9472545643, 9472545646, 9472545647, 9472545648, 9472545649, 9472545650, 9472545651, 9472545652, 9472545644, 9472545645, 9472545653], "tags": {"aeroway": "helipad"}}, {"type": "way", "id": 1030303853, "center": {"lat": 46.2787713, "lon": -122.2165358}, "nodes": [9497505071, 9497505072, 9497505073, 9497505074, 9497505071], "tags": {"aeroway": "helipad"}}, {"type": "way", "id": 1031044950, "center": {"lat": 48.6719284, "lon": -121.2521976}, "nodes": [9503782654, 9503782653, 9503782652, 1042153358, 9503782654], "tags": {"aeroway": "helipad", "faa": "WA34", "lit": "yes", "name": "Newhalem Office Heliport", "surface": "concrete", "wikidata": "Q61726032"}}, {"type": "way", "id": 1033063431, "center": {"lat": 41.6781332, "lon": -121.267742}, "nodes": [9517935712, 9517935713, 9517935714, 9517935715, 9517935712], "tags": {"aeroway": "helipad"}}, {"type": "way", "id": 1053471548, "center": {"lat": 49.4293151, "lon": -123.0636156}, "nodes": [9681343167, 9681343168, 9681343169, 9681343170, 9681343167], "tags": {"aeroway": "helipad", "description": "Wooden landing bad in poor condition", "lit": "no"}}, {"type": "way", "id": 1054137273, "center": {"lat": 49.4028821, "lon": -122.858887}, "nodes": [9687353222, 9687353223, 9687353224, 9687353225, 9687353221, 9687353222], "tags": {"aeroway": "helipad", "bridge": "boardwalk", "highway": "path", "material": "wood", "surface": "wood"}}, {"type": "way", "id": 1054549248, "center": {"lat": 49.2916531, "lon": -122.7921591}, "nodes": [9690758885, 9690758886, 9690758887, 9690758888, 9690758889, 9690758890, 9690758891, 9690758892, 9690758893, 9690758894, 9690758895, 9690758896, 9690758897, 9690758898, 9690758899, 9690758900, 9690758901, 9690758902, 9690758903, 9690758885], "tags": {"aeroway": "helipad"}}, {"type": "way", "id": 1057377863, "center": {"lat": 49.4569949, "lon": -122.9933809}, "nodes": [9715727043, 9715727044, 9715727045, 9715727046, 9715727043], "tags": {"access": "private", "aeroway": "helipad", "lit": "no", "operator": "Metro Vancouver", "surface": "wood"}}, {"type": "way", "id": 1059085543, "center": {"lat": 49.3789641, "lon": -123.3882385}, "nodes": [9731200639, 9731200640, 9731200641, 9731200642, 9731200639], "tags": {"aeroway": "helipad", "lit": "no", "surface": "wood"}}, {"type": "way", "id": 1059085544, "center": {"lat": 49.3794666, "lon": -123.3885583}, "nodes": [9731200643, 9731200644, 9731200645, 9731200646, 9731200643], "tags": {"aeroway": "helipad", "lit": "no", "surface": "wood"}}, {"type": "way", "id": 1062402117, "center": {"lat": 48.591459, "lon": -122.2592252}, "nodes": [9760148909, 8419773263, 9760148908, 9760148907, 9760148909], "tags": {"aeroway": "helipad", "faa": "WA47", "lit": "no", "name": "The Time Portal Heliport", "surface": "metal", "wikidata": "Q61726130"}}, {"type": "way", "id": 1071441026, "center": {"lat": 42.2772779, "lon": -123.6158279}, "nodes": [9832326780, 9832326781, 9832326782, 9832326783, 9832326780], "tags": {"aeroway": "helipad"}}, {"type": "way", "id": 1080118207, "center": {"lat": 49.2927712, "lon": -121.2886094}, "nodes": [9900520279, 9900520280, 9900520281, 9900520282, 9900520279], "tags": {"aeroway": "helipad"}}, {"type": "way", "id": 1081006275, "center": {"lat": 44.3874434, "lon": -123.0572605}, "nodes": [9908232480, 9908232481, 9908232482, 9908232483, 9908232480], "tags": {"aeroway": "helipad", "surface": "asphalt"}}, {"type": "way", "id": 1081328889, "center": {"lat": 49.9335054, "lon": -123.2361364}, "nodes": [9911011973, 9911011974, 9911011975, 9911011976, 9911011973], "tags": {"aeroway": "helipad", "lit": "no", "surface": "wood"}}, {"type": "way", "id": 1082193274, "center": {"lat": 49.1787659, "lon": -123.8357725}, "nodes": [9917985529, 10616248666, 9917985421, 9917985422, 10616248664, 9917985423, 9917985424, 10616248665, 9917985425, 9917985426, 9917985408, 9917985409, 9917985412, 9917985413, 9917985414, 9917985415, 9917985416, 9917985417, 9917985418, 9917985419, 9917985410, 9917985411, 10616248618, 9917985529], "tags": {"aeroway": "helipad", "lit": "yes"}}, {"type": "way", "id": 1086614006, "center": {"lat": 49.3712197, "lon": -122.3131046}, "nodes": [9956390156, 9956390157, 9956390158, 9956390159, 9956390156], "tags": {"aeroway": "helipad", "building": "yes"}}, {"type": "way", "id": 1088304938, "center": {"lat": 49.1039535, "lon": -121.4214756}, "nodes": [9971159419, 9971159420, 9971159421, 9971159422, 9971159419], "tags": {"aeroway": "helipad"}}, {"type": "way", "id": 1089014047, "center": {"lat": 49.4294871, "lon": -122.3539021}, "nodes": [9976574471, 9976574472, 9976574473, 9976574474, 9976574471], "tags": {"aeroway": "helipad"}}, {"type": "way", "id": 1090803808, "center": {"lat": 49.4667002, "lon": -123.0086739}, "nodes": [9991063001, 9991063002, 9991063003, 9991063004, 9991063001], "tags": {"aeroway": "helipad", "lit": "no", "surface": "wood"}}, {"type": "way", "id": 1092770140, "center": {"lat": 49.4633449, "lon": -123.5303066}, "nodes": [10007686591, 10007686592, 10007686593, 10007686594, 10007686591], "tags": {"aeroway": "helipad", "surface": "wood"}}, {"type": "way", "id": 1093046140, "center": {"lat": 49.3238858, "lon": -122.9202831}, "nodes": [10010503896, 10010503897, 10010503898, 10010503899, 10010503896], "tags": {"aeroway": "helipad", "lit": "no", "surface": "wood"}}, {"type": "way", "id": 1098447812, "center": {"lat": 47.6029945, "lon": -122.3248709}, "nodes": [10057622626, 10057622627, 10057622628, 10057622629, 10057622630, 10057622631, 10057622632, 10057622633, 10057622634, 10057622635, 10057622636, 10057622637, 10057622638, 10057622639, 10057622640, 10057622641, 10057622642, 10057622643, 10057622644, 10057622626], "tags": {"access": "emergency", "aeroway": "helipad", "faa": "WA53", "lit": "yes", "name": "Pad 2", "source": "bing", "surface": "concrete"}}, {"type": "way", "id": 1098447813, "center": {"lat": 47.6031475, "lon": -122.3250475}, "nodes": [10057622645, 10057622646, 10057622647, 10057622648, 10057622649, 10057622650, 10057622651, 10057622652, 10057622653, 10057622654, 10057622655, 10057622656, 10057622657, 10057622658, 10057622659, 10057622660, 10057622661, 10057622662, 10057622663, 10057622645], "tags": {"access": "emergency", "aeroway": "helipad", "faa": "WA53", "lit": "yes", "name": "Pad 1", "source": "bing", "surface": "concrete"}}, {"type": "way", "id": 1101586984, "center": {"lat": 47.527024, "lon": -122.3023387}, "nodes": [10080845636, 10080845637, 10080845638, 10080845639, 10080845640, 10080845641, 10080845642, 10080845643, 10080845644, 10080845645, 10080845646, 10080845636], "tags": {"aeroway": "helipad"}}, {"type": "way", "id": 1101586985, "center": {"lat": 47.5268543, "lon": -122.3022046}, "nodes": [10080845647, 10080845648, 10080845649, 10080845650, 10080845651, 10080845652, 10080845653, 10080845654, 10080845655, 10080845656, 10080845657, 10080845658, 10080845659, 10080845660, 10080845661, 10080845662, 10080845647], "tags": {"aeroway": "helipad"}}, {"type": "way", "id": 1103072611, "center": {"lat": 49.6478525, "lon": -123.2092594}, "nodes": [10094443395, 10094443396, 10094443397, 10094443398, 10094443395], "tags": {"aeroway": "helipad"}}, {"type": "way", "id": 1103343904, "center": {"lat": 49.4478778, "lon": -122.8564118}, "nodes": [10096676894, 10096676895, 10096676896, 10096676897, 10096676894], "tags": {"aeroway": "helipad"}}, {"type": "way", "id": 1103343905, "center": {"lat": 49.4414413, "lon": -122.8537777}, "nodes": [10096676898, 10096676899, 10096676900, 10096676901, 10096676898], "tags": {"aeroway": "helipad"}}, {"type": "way", "id": 1103343906, "center": {"lat": 49.4354489, "lon": -122.8515589}, "nodes": [10096676902, 10096676903, 10096676904, 10096676905, 10096676902], "tags": {"aeroway": "helipad"}}, {"type": "way", "id": 1103343907, "center": {"lat": 49.4173648, "lon": -122.8550934}, "nodes": [10096676906, 10096676907, 10096676908, 10096676909, 10096676906], "tags": {"aeroway": "helipad"}}, {"type": "way", "id": 1103343908, "center": {"lat": 49.4121698, "lon": -122.8541221}, "nodes": [10096676910, 10096676911, 10096676912, 10096676913, 10096676910], "tags": {"aeroway": "helipad"}}, {"type": "way", "id": 1103343909, "center": {"lat": 49.3912135, "lon": -122.8607608}, "nodes": [10096676915, 10096676916, 10096678517, 10096678518, 10096676915], "tags": {"aeroway": "helipad"}}, {"type": "way", "id": 1103343911, "center": {"lat": 49.4549728, "lon": -122.8600899}, "nodes": [10096678568, 10096678569, 10096678570, 10096678571, 10096678568], "tags": {"aeroway": "helipad"}}, {"type": "way", "id": 1103343912, "center": {"lat": 49.4644286, "lon": -122.8742183}, "nodes": [10096678573, 10096678574, 10096678575, 10096678576, 10096678573], "tags": {"aeroway": "helipad"}}, {"type": "way", "id": 1103343913, "center": {"lat": 49.4653613, "lon": -122.8752891}, "nodes": [10096678577, 10096678578, 10096678579, 10096678580, 10096678577], "tags": {"aeroway": "helipad"}}, {"type": "way", "id": 1103343914, "center": {"lat": 49.4654143, "lon": -122.8753078}, "nodes": [10096678581, 10096678582, 10096678583, 10096678584, 10096678581], "tags": {"aeroway": "helipad"}}, {"type": "way", "id": 1103343915, "center": {"lat": 49.4670658, "lon": -122.8769964}, "nodes": [10096678585, 10096678586, 10096678587, 10096678588, 10096678585], "tags": {"aeroway": "helipad"}}, {"type": "way", "id": 1104899640, "center": {"lat": 49.5389354, "lon": -123.3042832}, "nodes": [10110895943, 10110895944, 10110895945, 10110895946, 10110895943], "tags": {"aeroway": "helipad", "lit": "no", "operator": "Blackcomb Helicopters Limited Partnership", "operator:phone": "+16049381700", "operator:website": "https://blackcombhelicopters.com/", "surface": "wood"}}, {"type": "way", "id": 1105014072, "center": {"lat": 40.0810658, "lon": -121.5527153}, "nodes": [10111838346, 10111838347, 10111838348, 10111838349, 10111838346], "tags": {"aeroway": "helipad"}}, {"type": "way", "id": 1105022983, "center": {"lat": 40.8088297, "lon": -121.9362565}, "nodes": [10111928607, 10111928608, 10111928609, 10111928610, 10111928607], "tags": {"aeroway": "helipad"}}, {"type": "way", "id": 1105023733, "center": {"lat": 40.5148385, "lon": -121.9981011}, "nodes": [10111911003, 10111911004, 10111911005, 10111911006, 10111911003], "tags": {"aeroway": "helipad"}}, {"type": "way", "id": 1105023734, "center": {"lat": 40.5148106, "lon": -121.997658}, "nodes": [10111911007, 10111911008, 10111911009, 10111911010, 10111911007], "tags": {"aeroway": "helipad"}}, {"type": "way", "id": 1110137408, "center": {"lat": 49.5341138, "lon": -123.2184013}, "nodes": [10155742385, 10155742386, 10155742387, 10155742388, 10155742385], "tags": {"aeroway": "helipad", "ele": "1280", "lit": "no", "operator": "Ministry of Transportation and Infrastructure", "surface": "wood"}}, {"type": "way", "id": 1112404059, "center": {"lat": 42.9340327, "lon": -123.0399435}, "nodes": [10177410029, 10177410030, 10177410031, 10177410032, 10177410029], "tags": {"aeroway": "helipad"}}, {"type": "way", "id": 1116267435, "center": {"lat": 49.2118423, "lon": -122.7019109}, "nodes": [10209577879, 10209577880, 10209577881, 10209577882, 10209577883, 10209577884, 10209577885, 10209577886, 10209577887, 10209577888, 10209577889, 10209577890, 10209577891, 10209577892, 10209577893, 10209577894, 10209577895, 10209577896, 10209577897, 10209577898, 10209577899, 10209577900, 10209577901, 10209577902, 10209577879], "tags": {"aeroway": "helipad"}}, {"type": "way", "id": 1116267436, "center": {"lat": 49.2118197, "lon": -122.7016105}, "nodes": [10209577919, 10209577920, 10209577921, 10209577903, 10209577904, 10209577905, 10209577906, 10209577907, 10209577908, 10209577909, 10209577918, 10209577910, 10209577911, 10209577912, 10209577913, 10209577914, 10209577915, 10209577916, 10209577917, 10209577919], "tags": {"aeroway": "helipad"}}, {"type": "way", "id": 1116267437, "center": {"lat": 49.2117913, "lon": -122.7012713}, "nodes": [10209577922, 10209577923, 10209577924, 10209577925, 10209577926, 10209577927, 10209577928, 10209577929, 10209577930, 10209577931, 10209577932, 10209577933, 10209577934, 10209577935, 10209577936, 10209577937, 10209577938, 10209577939, 10209577940, 10209577922], "tags": {"aeroway": "helipad"}}, {"type": "way", "id": 1121094611, "center": {"lat": 47.1953691, "lon": -120.9491173}, "nodes": [10254096886, 10254096887, 10254096888, 10254096889, 10254096886], "tags": {"aeroway": "helipad"}}, {"type": "way", "id": 1132968788, "center": {"lat": 49.2938499, "lon": -122.913426}, "nodes": [9380309905, 10563390912, 10563390913, 10563390914, 9380309905], "tags": {"aeroway": "helipad"}}, {"type": "way", "id": 1135584116, "center": {"lat": 49.2266427, "lon": -122.8922501}, "nodes": [10585492349, 10585492350, 10585492351, 10585492352, 10585492349], "tags": {"aeroway": "helipad"}}, {"type": "way", "id": 1150060156, "center": {"lat": 48.751113, "lon": -123.6317478}, "nodes": [10698550577, 10698550578, 10698550579, 10698550580, 10698550581, 10698550582, 10698550583, 10698550565, 10698550566, 10698550569, 10698550570, 10698550571, 10698550572, 10698550573, 10698550574, 10698550575, 10698550576, 10698550567, 10698550568, 10698550577], "tags": {"aeroway": "helipad"}}, {"type": "way", "id": 1153951002, "center": {"lat": 49.4090132, "lon": -123.2176895}, "nodes": [10732063236, 10732063237, 10732063238, 10732063239, 10732063236], "tags": {"access": "emergency", "aeroway": "helipad", "description": "Restricted access emergency helipad used by search & rescue groups.", "lit": "no", "operator": "North Shore Search & Rescue", "surface": "wood"}}, {"type": "way", "id": 1157079756, "center": {"lat": 49.3070191, "lon": -123.0744491}, "nodes": [10760184765, 10760184766, 10760184767, 10760184768, 10760184765], "tags": {"aeroway": "helipad"}}, {"type": "way", "id": 1160826045, "center": {"lat": 49.1830414, "lon": -123.1744204}, "nodes": [1076416642, 10796710871, 10796710872, 10796710873, 10796710874, 10796710875, 10796710876, 10796710877, 10796710861, 10796710862, 10796710865, 10796710866, 10796710867, 10796710868, 10796710869, 10796710859, 10796710870, 10796710863, 10796710864, 1076416642], "tags": {"aeroway": "helipad"}}, {"type": "way", "id": 1161024212, "center": {"lat": 49.1805284, "lon": -123.1557284}, "nodes": [1076416650, 10798827726, 10798827727, 10798827728, 10798827729, 10798827730, 10798827731, 10798827714, 10798827715, 10798827718, 10798827719, 10798827720, 10798827721, 10798827722, 10798827723, 10798827724, 10798827725, 10798827716, 10798827717, 1076416650], "tags": {"aeroway": "helipad"}}, {"type": "way", "id": 1161024213, "center": {"lat": 49.1805643, "lon": -123.1553414}, "nodes": [10798827732, 10798827733, 10798827734, 10798827735, 10798827736, 10798827737, 10798827738, 10798827739, 10798827740, 10798827741, 10798827742, 10798827743, 10798827744, 10798827745, 10798827746, 10798827747, 10798827748, 10798827749, 10798827750, 10798827732], "tags": {"aeroway": "helipad"}}, {"type": "way", "id": 1161024214, "center": {"lat": 49.1807675, "lon": -123.1551653}, "nodes": [1076416603, 10798827762, 10798827763, 10798827764, 10798827765, 10798827766, 10798827767, 10798827768, 10798827751, 10798827752, 10798827755, 10798827756, 10798827757, 10798827758, 10798827759, 10798827760, 10798827761, 10798827753, 10798827754, 1076416603], "tags": {"aeroway": "helipad"}}, {"type": "way", "id": 1161024215, "center": {"lat": 49.1809593, "lon": -123.1550358}, "nodes": [10798827769, 10798827770, 10798827771, 10798827772, 10798827773, 10798827774, 10798827775, 10798827776, 10798827777, 10798827778, 10798827779, 10798827780, 10798827781, 10798827782, 10798827783, 10798827784, 10798827785, 10798827786, 10798827787, 10798827769], "tags": {"aeroway": "helipad"}}, {"type": "way", "id": 1163675333, "center": {"lat": 49.5357918, "lon": -123.0507846}, "nodes": [10822401743, 10822401744, 10822401745, 10822401746, 10822401743], "tags": {"aeroway": "helipad"}}, {"type": "way", "id": 1163675335, "center": {"lat": 49.4547225, "lon": -123.031514}, "nodes": [10822401766, 10822401767, 10822401768, 10822401769, 10822401766], "tags": {"aeroway": "helipad"}}, {"type": "way", "id": 1163675336, "center": {"lat": 49.4574269, "lon": -122.994625}, "nodes": [10822401775, 10822401776, 10822401777, 10822401778, 10822401775], "tags": {"aeroway": "helipad"}}, {"type": "way", "id": 1171074919, "center": {"lat": 47.5604231, "lon": -120.6718834}, "nodes": [10882831032, 10882831033, 10882831034, 10882831035, 10882831032], "tags": {"aeroway": "helipad"}}, {"type": "way", "id": 1180302701, "center": {"lat": 49.3236912, "lon": -121.7524426}, "nodes": [10962292431, 10962292432, 10962292433, 10962292434, 10962292431], "tags": {"aeroway": "helipad"}}, {"type": "way", "id": 1186058994, "center": {"lat": 49.6798426, "lon": -123.1449903}, "nodes": [5835735464, 11016586807, 11016586808, 11016586809, 5835735464], "tags": {"aeroway": "helipad", "name": "Emergency Helipad", "operator": "BC Parks"}}, {"type": "way", "id": 1191956314, "center": {"lat": 49.2327569, "lon": -121.5798121}, "nodes": [11066072682, 11066072683, 11066072684, 11066072685, 11066072682], "tags": {"aeroway": "helipad"}}, {"type": "way", "id": 1200024546, "center": {"lat": 41.2199883, "lon": -122.8982678}, "nodes": [11128968283, 11128968282, 11128968281, 11128968280, 11128968279, 11128968278, 11128968277, 11128968276, 11128968275, 11128968283], "tags": {"aeroway": "helipad", "surface": "gravel"}}, {"type": "way", "id": 1210100448, "center": {"lat": 45.2562567, "lon": -122.7665598}, "nodes": [11210606779, 11210606780, 11210606781, 11210606782, 11210606779], "tags": {"aeroway": "helipad"}}, {"type": "way", "id": 1210100451, "center": {"lat": 45.2588888, "lon": -122.7663761}, "nodes": [11210606797, 11210606798, 11210606804, 11210606799, 11210606800, 11210606797], "tags": {"aeroway": "helipad"}}, {"type": "way", "id": 1210100452, "center": {"lat": 45.2586176, "lon": -122.7664444}, "nodes": [11210606801, 11210606802, 11210606808, 11210606803, 11210606804, 11210606798, 11210606801], "tags": {"aeroway": "helipad"}}, {"type": "way", "id": 1210100453, "center": {"lat": 45.2583491, "lon": -122.7665134}, "nodes": [11210606805, 11210606806, 11210606807, 11210606808, 11210606802, 11210606805], "tags": {"aeroway": "helipad"}}, {"type": "way", "id": 1210100460, "center": {"lat": 45.2428475, "lon": -122.7648348}, "nodes": [11210606840, 11210606841, 11210606842, 11210606843, 11210606840], "tags": {"aeroway": "helipad"}}, {"type": "way", "id": 1210100461, "center": {"lat": 45.2431232, "lon": -122.7648305}, "nodes": [11210606844, 11210606845, 11210606846, 11210606847, 11210606844], "tags": {"aeroway": "helipad"}}, {"type": "way", "id": 1210100462, "center": {"lat": 45.2433914, "lon": -122.7648262}, "nodes": [11210606848, 11210606849, 11210606850, 11210606851, 11210606848], "tags": {"aeroway": "helipad"}}, {"type": "way", "id": 1210100463, "center": {"lat": 45.2433929, "lon": -122.7641329}, "nodes": [11210606852, 11210606853, 11210606854, 11210606855, 11210606852], "tags": {"aeroway": "helipad"}}, {"type": "way", "id": 1210100464, "center": {"lat": 45.2431187, "lon": -122.7641308}, "nodes": [11210606856, 11210606857, 11210606858, 11210606859, 11210606856], "tags": {"aeroway": "helipad"}}, {"type": "way", "id": 1210100465, "center": {"lat": 45.242846, "lon": -122.7641308}, "nodes": [11210606860, 11210606861, 11210606862, 11210606863, 11210606860], "tags": {"aeroway": "helipad"}}, {"type": "way", "id": 1210100466, "center": {"lat": 45.242846, "lon": -122.7635103}, "nodes": [11210606864, 11210606865, 11210606866, 11210606867, 11210606864], "tags": {"aeroway": "helipad"}}, {"type": "way", "id": 1210100467, "center": {"lat": 45.2437183, "lon": -122.7644817}, "nodes": [11210606868, 11210606869, 11210606870, 11210606871, 11210606868], "tags": {"aeroway": "helipad"}}, {"type": "way", "id": 1210111000, "center": {"lat": 44.2603661, "lon": -121.1408182}, "nodes": [11210672700, 11210672701, 11210672702, 11210672703, 11210672700], "tags": {"aeroway": "helipad"}}, {"type": "way", "id": 1210171119, "center": {"lat": 47.3276551, "lon": -122.2254191}, "nodes": [11211226296, 11211226297, 11211226298, 11211226299, 11211226296], "tags": {"aeroway": "helipad"}}, {"type": "way", "id": 1210171120, "center": {"lat": 47.3276719, "lon": -122.2252143}, "nodes": [11211226300, 11211226301, 11211226302, 11211226303, 11211226300], "tags": {"aeroway": "helipad"}}, {"type": "way", "id": 1210171121, "center": {"lat": 47.3276747, "lon": -122.2250152}, "nodes": [11211226304, 11211226305, 11211226306, 11211226307, 11211226304], "tags": {"aeroway": "helipad"}}, {"type": "way", "id": 1210171122, "center": {"lat": 47.3276766, "lon": -122.2248211}, "nodes": [11211226308, 11211226309, 11211226310, 11211226311, 11211226308], "tags": {"aeroway": "helipad"}}, {"type": "way", "id": 1210171123, "center": {"lat": 47.3276789, "lon": -122.2246477}, "nodes": [11211226312, 11211226313, 11211226314, 11211226315, 11211226312], "tags": {"aeroway": "helipad"}}, {"type": "way", "id": 1210171124, "center": {"lat": 47.3276811, "lon": -122.2244694}, "nodes": [11211226316, 11211226317, 11211226318, 11211226319, 11211226316], "tags": {"aeroway": "helipad"}}, {"type": "way", "id": 1210960377, "center": {"lat": 47.4436628, "lon": -122.3582994}, "nodes": [11219654127, 11219654126, 11219654128, 11219654129, 11219654130, 11219654127], "tags": {"access": "private", "aeroway": "helipad"}}, {"type": "way", "id": 1212178444, "center": {"lat": 40.7873338, "lon": -122.8043322}, "nodes": [11230555677, 11230555676, 11230555675, 11230555674, 11230555673, 11230555677], "tags": {"aeroway": "helipad"}}, {"type": "way", "id": 1212178445, "center": {"lat": 40.7869012, "lon": -122.8044235}, "nodes": [11230555682, 11230555681, 11230555680, 11230555679, 11230555678, 11230555682], "tags": {"aeroway": "helipad"}}, {"type": "way", "id": 1217914474, "center": {"lat": 45.5506529, "lon": -122.3907514}, "nodes": [11289496488, 11287757609, 11289496505, 11285176013, 11289496490, 11289496488], "tags": {"aeroway": "helipad"}}, {"type": "way", "id": 1217942788, "center": {"lat": 49.1012063, "lon": -122.6263191}, "nodes": [11285423157, 11285423158, 11285423159, 11285423160, 11285423161, 11285423162, 11285423163, 11285423164, 11285423146, 11285423147, 11285423150, 11285423151, 11285423152, 11285423153, 11285423154, 11285423155, 11285423156, 11285423148, 11285423149, 11285423157], "tags": {"aeroway": "helipad"}}, {"type": "way", "id": 1217942789, "center": {"lat": 49.1009725, "lon": -122.626323}, "nodes": [11285466076, 11285466077, 11285466078, 11285466079, 11285466080, 11285466081, 11285466082, 11285466083, 11285423165, 11285423166, 11285466069, 11285466070, 11285466071, 11285466072, 11285466073, 11285466074, 11285466075, 11285423167, 11285423168, 11285466076], "tags": {"aeroway": "helipad"}}, {"type": "way", "id": 1217942790, "center": {"lat": 49.0987103, "lon": -122.6287377}, "nodes": [11285466099, 11285466100, 11285466101, 11285466102, 11285466084, 11285466085, 11285466086, 11285466091, 11285466092, 11285466093, 11285466094, 11285466095, 11285466096, 11285466103, 11285466097, 11285466098, 11285466087, 11285466088, 11285466089, 11285466090, 11285466099], "tags": {"aeroway": "helipad"}}, {"type": "way", "id": 1218790803, "center": {"lat": 49.0979983, "lon": -122.6255241}, "nodes": [11293295832, 11293295833, 11293295834, 11293295835, 11293295836, 11293295837, 11293295838, 11293295839, 11293295840, 11293295841, 11293295842, 11293295825, 11293295827, 11293295828, 11293295829, 11293295830, 11293295831, 11293295824, 11293295826, 11293295832], "tags": {"aeroway": "helipad"}}, {"type": "relation", "id": 2250991, "center": {"lat": 48.4180312, "lon": -123.387432}, "members": [{"type": "way", "ref": 169019411, "role": "outer"}, {"type": "way", "ref": 169019418, "role": "outer"}], "tags": {"aeroway": "helipad", "name": "Pad 1", "type": "multipolygon"}}, {"type": "relation", "id": 2250992, "center": {"lat": 48.4182398, "lon": -123.3876011}, "members": [{"type": "way", "ref": 169019423, "role": "outer"}, {"type": "way", "ref": 169019447, "role": "outer"}], "tags": {"aeroway": "helipad", "name": "Pad 2", "type": "multipolygon"}}, {"type": "relation", "id": 2250993, "center": {"lat": 48.4178016, "lon": -123.3878011}, "members": [{"type": "way", "ref": 169019426, "role": "outer"}, {"type": "way", "ref": 169019440, "role": "outer"}], "tags": {"aeroway": "helipad", "name": "Pad 3", "type": "multipolygon"}}, {"type": "relation", "id": 2250994, "center": {"lat": 48.4180418, "lon": -123.3874605}, "members": [{"type": "way", "ref": 169019419, "role": "outer"}, {"type": "way", "ref": 169019405, "role": "outer"}, {"type": "way", "ref": 169019433, "role": "outer"}, {"type": "way", "ref": 103976239, "role": "outer"}, {"type": "way", "ref": 169019407, "role": "outer"}, {"type": "way", "ref": 437702212, "role": "outer"}, {"type": "way", "ref": 169019415, "role": "outer"}], "tags": {"aeroway": "heliport", "icao": "CBF7", "name": "Victoria Harbour (Camel Point) Heliport", "type": "multipolygon"}}, {"type": "relation", "id": 2250998, "center": {"lat": 48.418071, "lon": -123.3880184}, "members": [{"type": "way", "ref": 169019424, "role": "outer"}, {"type": "way", "ref": 169019403, "role": "outer"}], "tags": {"aeroway": "helipad", "type": "multipolygon"}}, {"type": "relation", "id": 6266129, "center": {"lat": 48.6460677, "lon": -123.4333397}, "members": [{"type": "way", "ref": 421582041, "role": "outer"}, {"type": "way", "ref": 200257895, "role": "outer"}, {"type": "way", "ref": 421582161, "role": "outer"}, {"type": "way", "ref": 421582444, "role": "outer"}], "tags": {"aeroway": "helipad", "type": "multipolygon"}}, {"type": "relation", "id": 8552714, "center": {"lat": 47.0431117, "lon": -122.9509947}, "members": [{"type": "way", "ref": 618748870, "role": "outer"}], "tags": {"aeroway": "helipad", "faa": "WN58", "gnis:feature_id": "1533863", "lit": "no", "name": "Capital Medical Center Heliport", "old_name": "Black Hills Community Hospital Heliport", "surface": "concrete", "type": "multipolygon"}}]}