{"version": 0.6, "generator": "Overpass API 0.7.61.5 4133829e", "osm3s": {"timestamp_osm_base": "2023-10-31T20:43:15Z", "copyright": "The data included in this document is from www.openstreetmap.org. The data is made available under ODbL."}, "elements": [{"type": "node", "id": 1042134005, "lat": 68.1466675, "lon": -53.2000008, "tags": {"aeroway": "helipad", "icao": "BGIG", "name": "Iginniarfik", "name:da": "Iginniarfik Helistop", "name:en": "Iginniarfik Heliport", "operator": "Mittarfeqarfiit", "source": "ourairports.com", "wikidata": "Q3085821", "wikipedia": "da:Iginniarfik Helistop"}}, {"type": "node", "id": 1042134010, "lat": 68.6323091, "lon": -51.8346948, "tags": {"aeroway": "helipad", "iata": "QJI", "icao": "BGIT", "name": "Ikamiut", "name:da": "Ikamiut Helistop", "name:en": "Ikamiut Heliport", "operator": "Mittarfeqarfiit", "source": "ourairports.com", "surface": "gravel", "wikidata": "Q3085913", "wikipedia": "da:Ikamiut Helistop"}}, {"type": "node", "id": 1042134019, "lat": 68.2482986, "lon": -52.8800011, "tags": {"aeroway": "helipad", "name": "Niaqornaarsuk Heliport", "source": "ourairports.com"}}, {"type": "node", "id": 1997055968, "lat": 65.4171379, "lon": -52.8908917, "tags": {"aeroway": "helipad"}}, {"type": "node", "id": 2049649002, "lat": 67.9400469, "lon": -53.6227976, "tags": {"aeroway": "helipad", "iata": "QGQ", "icao": "BGAT", "name": "Attu Helistop", "name:da": "Attu Helistop", "name:en": "Attu Heliport", "operator": "Mittarfeqarfiit", "surface": "grass", "wikidata": "Q2902914", "wikipedia": "da:Attu Helistop"}}, {"type": "node", "id": 2051281018, "lat": 68.2483333, "lon": -52.88, "tags": {"aeroway": "helipad", "icao": "BGNK", "name": "Niaqornaarsuk", "name:da": "Niaqornaarsuk Helistop", "name:en": "Niaqornaarsuk Heliport", "operator": "Mittarfeqarfiit", "wikidata": "Q4993127", "wikipedia": "da:Niaqornaarsuk Helistop"}}, {"type": "node", "id": 5799664073, "lat": 66.9409361, "lon": -53.6539811, "tags": {"aeroway": "helipad", "fixme": "Please check with local knowledge whether helicopters actually land on this area."}}, {"type": "way", "id": 194459560, "center": {"lat": 68.7443464, "lon": -52.3402002}, "nodes": [2049649532, 2049649530, 2049649528, 2049649526, 2049649524, 2049649523, 2049649525, 2049649527, 2049649529, 2049649531, 2049649533, 2049649535, 2049649537, 2049649538, 2049649536, 2049649534, 2049649532], "tags": {"aeroway": "helipad", "iata": "QCU", "icao": "BGAK", "name": "Akunnaaq", "name:da": "Akunnaaq Helistop", "name:en": "Akunnaaq Heliport", "operator": "Mittarfeqarfiit", "source": "ourairports.com", "wikidata": "Q11295440", "wikipedia": "da:Akunnaaq Helistop"}}, {"type": "way", "id": 194459568, "center": {"lat": 68.1408847, "lon": -53.4414505}, "nodes": [2049649515, 2049649513, 2049649511, 2049649512, 2049649514, 2049649516, 2049649518, 2049649520, 2049649522, 2049649521, 2049649519, 2049649517, 2049649515], "tags": {"aeroway": "helipad", "iata": "QRY", "icao": "BGIK", "name": "Ikerasaarsuk", "name:da": "Ikerasaarsuk Helistop", "name:en": "Ikerassaarsuk Heliport", "operator": "Mittarfeqarfiit", "source": "ourairports.com", "surface": "gravel", "wikidata": "Q3085900", "wikipedia": "da:Ikerasaarsuk Helistop"}}, {"type": "way", "id": 194623391, "center": {"lat": 68.312668, "lon": -53.4601823}, "nodes": [2051284597, 2051284603, 2051284615, 2051284601, 2051284597], "tags": {"aeroway": "helipad", "iata": "QPW", "icao": "BGKA", "name": "Kangaatsiaq", "name:da": "Kangaatsiaq Helistop", "name:en": "Kangaatsiaq Heliport", "operator": "Mittarfeqarfiit", "source": "ourairports.com", "wikipedia": "da:Kangaatsiaq Helistop"}}, {"type": "way", "id": 223605997, "center": {"lat": 68.3079539, "lon": -53.4593356}, "nodes": [2324871170, 2324871063, 2324870956, 2324870900, 2324871170], "tags": {"aeroway": "helipad"}}, {"type": "way", "id": 333364876, "center": {"lat": 69.9994487, "lon": -51.3037396}, "nodes": [3404769307, 3404769308, 3404769309, 3404769310, 3404769311, 3404769312, 3404769294, 3404769295, 3404769296, 3404769297, 3404769303, 3404769304, 3404769305, 3404769306, 3404769298, 3404769299, 3404769300, 3404769301, 3404769302, 3404769307], "tags": {"aeroway": "helipad", "iata": "PQT", "icao": "BGQE", "name": "Qeqertaq", "name:da": "Qeqertaq Helistop", "name:en": "Qeqertaq Heliport", "operator": "Mittarfeqarfiit", "ref": "QQT", "source": "ourairports.com", "surface": "gravel", "wikidata": "Q4993138", "wikipedia": "da:Qeqertaq Helistop"}}, {"type": "way", "id": 333367330, "center": {"lat": 69.082295, "lon": -51.108251}, "nodes": [3404790704, 3404790705, 3404790706, 3404790707, 3404790704], "tags": {"aeroway": "helipad", "area": "yes", "iata": "XIQ", "icao": "BGIL", "name": "Ilimanaq", "name:da": "Ilimanaq Helistop", "name:en": "Ilimanaq Heliport", "operator": "Mittarfeqarfiit", "source": "ourairports.com", "surface": "grass", "wikidata": "Q3085801", "wikipedia": "da:Ilimanaq Helistop"}}, {"type": "way", "id": 351277392, "center": {"lat": 68.6977916, "lon": -52.8408486}, "nodes": [3570458493, 3570458499, 3570458494, 3570458495, 3570458496, 3570458493], "tags": {"aeroway": "helipad", "owner": "Tele Greenland"}}, {"type": "way", "id": 716033054, "center": {"lat": 69.2511901, "lon": -53.5147852}, "nodes": [1042134003, 6728843178, 6728843177, 6728843176, 1042134003], "tags": {"aeroway": "helipad", "iata": "JGO", "icao": "BGGN", "name": "Qeqertarsuaq", "name:da": "Qeqertarsuaq Heliport", "name:en": "Qeqertarsuaq Heliport", "operator": "Mittarfeqarfiit", "source": "ourairports.com", "surface": "asphalt", "wikidata": "Q4992232", "wikipedia": "da:Qeqertarsuaq Heliport"}}, {"type": "way", "id": 763449684, "center": {"lat": 68.8228532, "lon": -51.1734636}, "nodes": [7133790576, 7133790581, 7133852988, 7133790580, 7133790577, 7133790578, 7133790579, 7133790576], "tags": {"aeroway": "helipad", "iata": "JCH", "icao": "BGCH", "name": "Qasigiannguit", "name:da": "Qasigiannguit Heliport", "name:en": "Qasigiannguit Heliport", "operator": "Mittarfeqarfiit", "source": "ourairports.com", "surface": "concrete", "wikidata": "Q4993139", "wikipedia": "da:Qasigiannguit Heliport"}}, {"type": "way", "id": 767666893, "center": {"lat": 68.8558099, "lon": -53.1185094}, "nodes": [7167446457, 8928790150, 7167446458, 7167446459, 7167446460, 7167446457], "tags": {"aeroway": "helipad"}}, {"type": "way", "id": 767666918, "center": {"lat": 68.8579276, "lon": -53.1232717}, "nodes": [7167446578, 7167446579, 7167446580, 7167446581, 7167446582, 7167446583, 7167446584, 7167446585, 7167446586, 7167446587, 7167446588, 7167446578], "tags": {"aeroway": "helipad", "ele": "5.5", "iata": "QJE", "icao": "BGKT", "name": "Kitsissuarsuit Helistop", "name:da": "Kitsissuarsuit Helistop", "name:en": "Kitsissuarsuit Heliport", "operator": "Mittarfeqarfiit", "source": "ourairports.com", "surface": "gravel", "wikidata": "Q1351118", "wikipedia": "da:Kitsissuarsuit Helistop"}}, {"type": "way", "id": 768560709, "center": {"lat": 68.7450587, "lon": -52.32114}, "nodes": [7175201272, 7175201273, 7175201274, 7175201275, 7175201272], "tags": {"aeroway": "helipad"}}, {"type": "way", "id": 770406289, "center": {"lat": 68.3082617, "lon": -53.4586969}, "nodes": [7191481803, 7191481804, 7191481805, 7191481806, 7191481803], "tags": {"aeroway": "helipad"}}, {"type": "way", "id": 894493205, "center": {"lat": 68.1458908, "lon": -53.1692443}, "nodes": [8314020002, 8188459107, 8314020003, 8314020004, 8314020005, 8314020002], "tags": {"aeroway": "helipad", "iata": "QFI", "icao": "BGIG", "name": "Iginniarfik Heliport", "operator": "Mittarfeqarfiit", "source": "http://www.kds.com/", "surface": "gravel", "wikidata": "Q3085821", "wikipedia": "en:Iginniarfik Heliport"}}, {"type": "way", "id": 894493207, "center": {"lat": 68.2391284, "lon": -52.843092}, "nodes": [8314067117, 8314067118, 8314067119, 8314067120, 8314067121, 8314067122, 8314067123, 8314067124, 8314067125, 8314067126, 8314067127, 8314067128, 8314067129, 8314067130, 8314067117], "tags": {"aeroway": "helipad", "iata": "QMK", "icao": "BGNK", "name": "Niaqornaarsuk Heliport", "operator": "Mittarfeqarfiit", "surface": "grass", "wikidata": "Q4993127", "wikipedia": "en:Niaqornaarsuk Heliport"}}]}