{"version": 0.6, "generator": "Overpass API 0.7.61.5 4133829e", "osm3s": {"timestamp_osm_base": "2023-10-31T20:44:20Z", "copyright": "The data included in this document is from www.openstreetmap.org. The data is made available under ODbL."}, "elements": [{"type": "node", "id": 1042134016, "lat": 72.381064, "lon": -55.5364918, "tags": {"aeroway": "helipad", "iata": "KGQ", "icao": "BGKS", "name": "Kangersuatsiaq", "name:da": "Kangersuatsiaq Helistop", "name:en": "Kangersuatsiaq Heliport", "operator": "Mittarfeqarfiit", "source": "ourairports.com", "wikidata": "Q4993149", "wikipedia": "da:Kangersuatsiaq Helistop"}}, {"type": "node", "id": 1042134046, "lat": 70.8087253, "lon": -51.6270253, "tags": {"aeroway": "helipad", "iata": "SAE", "icao": "BGST", "name": "Saattut", "name:da": "Saattut Helistop", "name:en": "Saattut Heliport", "note": "Moved according to new location known from the official map NunaGIS from Greenland Survey Asiaq", "operator": "Mittarfeqarfiit", "source": "ourairports.com; NunaGIS", "surface": "stone", "wikidata": "Q2065052", "wikipedia": "da:Saattut Helistop"}}, {"type": "node", "id": 1042144336, "lat": 70.0552979, "lon": -51.8833008, "tags": {"aeroway": "helipad", "name": "Attu Heliport", "source": "ourairports.com"}}, {"type": "way", "id": 182917004, "center": {"lat": 72.8870446, "lon": -55.5962154}, "nodes": [1932722499, 1932722549, 9392595288, 1932722472, 1932722509, 1932722499], "tags": {"aeroway": "helipad", "ele": "12.8", "iata": "AOQ", "icao": "BGAG", "name": "Aappilattoq", "name:da": "Aappilattoq Helistop", "name:en": "Aappilattoq Heliport", "operator": "Mittarfeqarfiit", "source": "ourairports.com", "surface": "gravel", "wikidata": "Q3029774", "wikipedia": "da:Aappilattoq Helistop (Upernavik)"}}, {"type": "way", "id": 183201321, "center": {"lat": 72.1527613, "lon": -55.5311042}, "nodes": [1935678194, 1935677996, 1935677977, 1935678259, 1935678194], "tags": {"aeroway": "helipad", "iata": "UPK", "icao": "BGKL", "name": "Upernavik Kujalleq", "name:en": "Upernavik Kujalleq Heliport", "operator": "Mittarfeqarfiit", "ref": "UPK", "source": "ourairports.com", "surface": "gravel", "wikidata": "Q4993124", "wikipedia": "en:Upernavik Kujalleq Heliport"}}, {"type": "way", "id": 189061216, "center": {"lat": 70.6803831, "lon": -52.1116433}, "nodes": [1997056261, 1997056259, 1997056257, 1997056255, 1997056253, 1997056249, 1997056251, 1997056263, 1997056261], "tags": {"aeroway": "helipad", "iata": "UMD", "icao": "BGUM", "name": "Uummannaq", "name:da": "Uummannaq Helistop", "name:en": "Uummannaq Heliport", "name:lt": "Umanakas", "operator": "Mittarfeqarfiit", "source": "ourairports.com", "surface": "asphalt", "wikidata": "Q4993160", "wikipedia": "da:Uummannaq Helistop"}}, {"type": "way", "id": 194459570, "center": {"lat": 74.5794296, "lon": -57.2354182}, "nodes": [2049651371, 2049651368, 2049651380, 2049651383, 3717744046, 2049651371], "tags": {"aeroway": "helipad", "iata": "KHQ", "icao": "BGKQ", "name": "Kullorsuaq", "name:da": "Kullorsuaq Helistop", "name:en": "Kullorsuaq Heliport", "operator": "Mittarfeqarfiit", "source": "ourairports.com", "surface": "gravel", "wikidata": "Q4993141", "wikipedia": "da:Kullorsuaq Helistop"}}, {"type": "way", "id": 194459571, "center": {"lat": 74.1098576, "lon": -57.0651036}, "nodes": [2049650537, 2049650568, 2049650562, 2049650527, 9396949093, 2049650537], "tags": {"aeroway": "helipad", "iata": "NSQ", "icao": "BGNU", "name": "Nuussuaq", "name:da": "Nuussuaq Helistop", "name:en": "Nuussuaq Heliport", "operator": "Mittarfeqarfiit", "source": "ourairports.com", "surface": "gravel", "wikidata": "Q3016560", "wikipedia": "da:Nuussuaq Helistop"}}, {"type": "way", "id": 194459573, "center": {"lat": 73.3730837, "lon": -56.0602856}, "nodes": [2049650363, 2049650356, 9397626253, 2049650355, 2049650362, 2049650363], "tags": {"aeroway": "helipad", "iata": "TQA", "icao": "BGTA", "name": "Tasiusaq", "name:da": "Tasiusaq Helistop", "name:en": "Tasiusaq Heliport", "name:kl": "Tasiusaq", "operator": "Mittarfeqarfiit", "source": "ourairports.com", "surface": "asphalt", "wikidata": "Q62220", "wikipedia": "da:Tasiusaq Helistop (Qaasuitsup)"}}, {"type": "way", "id": 194623392, "center": {"lat": 71.0512536, "lon": -51.8842686}, "nodes": [2051286665, 2051286668, 2051286674, 2051286671, 2051286665], "tags": {"aeroway": "helipad", "iata": "JUK", "icao": "BGUT", "name": "Ukkusissat", "name:da": "Ukkusissat Helistop", "name:en": "Ukkusissat Heliport", "operator": "Mittarfeqarfiit", "source": "ourairports.com", "surface": "stone", "wikidata": "Q4993134", "wikipedia": "da:Ukkusissat Helistop"}}, {"type": "way", "id": 197857446, "center": {"lat": 70.0114365, "lon": -51.932124}, "nodes": [2080556098, 2080556101, 2080556061, 1042134045, 2080556098], "tags": {"aeroway": "helipad", "barrier": "fence", "iata": "QUP", "icao": "BGSQ", "name": "Saqqaq", "name:da": "Saqqaq Helistop", "name:en": "Saqqaq Heliport", "operator": "Mittarfeqarfiit", "ref": "QUP", "source": "ourairports.com", "surface": "gravel", "wikidata": "Q4993129", "wikipedia": "da:Saqqaq Helistop"}}, {"type": "way", "id": 362177269, "center": {"lat": 70.7890036, "lon": -53.6560937}, "nodes": [3665334356, 3665334357, 3665334358, 3665334359, 3665334341, 3665334342, 3665334343, 3665334344, 3665334345, 3665334351, 3665334352, 3665334353, 3665334354, 3665334355, 3665334346, 3665334347, 3665334348, 3665334349, 3665334350, 3665334356], "tags": {"aeroway": "helipad", "iata": "NIQ", "icao": "BGNT", "name": "Niaqornat", "name:da": "Niaqornat Helistop", "name:en": "Niaqornat Heliport", "operator": "Mittarfeqarfiit", "source": "ourairports.com", "surface": "stone", "wikidata": "Q4993132", "wikipedia": "da:Niaqornat Helistop"}}, {"type": "way", "id": 362186736, "center": {"lat": 70.6835292, "lon": -52.1370141}, "nodes": [3665392581, 3665392582, 3665392578, 3665392583, 3665392581], "tags": {"aeroway": "helipad", "owner": "Tele Greenland"}}, {"type": "way", "id": 363241242, "center": {"lat": 70.4981292, "lon": -51.3031492}, "nodes": [3674221896, 3674221897, 3674221898, 3674221899, 3674221900, 3674221901, 3674221902, 3674221903, 3674221904, 3674221905, 3674221906, 3674221907, 3674221908, 3674221909, 3674221910, 3674221911, 3674221912, 3674221913, 3674221918, 3674221914, 3674221915, 3674221916, 3674221917, 3674221896], "tags": {"aeroway": "helipad", "iata": "IKE", "icao": "BGIA", "name": "Ikerasak", "name:da": "Ikerasak Helistop", "name:en": "Ikerasak Heliport", "source": "ourairports.com", "surface": "gravel", "wikidata": "Q3085791", "wikipedia": "en:Ikerasak Heliport"}}, {"type": "way", "id": 363536313, "center": {"lat": 71.2397552, "lon": -53.5554822}, "nodes": [3677033585, 3677033586, 3677033587, 3677033588, 3677033589, 3677033590, 3677033591, 3677033592, 3677033593, 3677033594, 3677033595, 3677033596, 3677033597, 3677033598, 3677033599, 3677033600, 3677033585], "tags": {"aeroway": "helipad", "iata": "IOT", "icao": "BGLL", "name": "Illorsuit", "name:da": "Illorsuit Helistop", "name:en": "Illorsuit Heliport", "operator": "Mittarfeqarfiit", "ref": "ILL", "source": "ourairports.com", "surface": "gravel", "wikidata": "Q3085810", "wikipedia": "da:Illorsuit Helistop"}}, {"type": "way", "id": 367904341, "center": {"lat": 74.5780573, "lon": -57.2268253}, "nodes": [3717747957, 3717747958, 3717747959, 3717747960, 3717747957], "tags": {"aeroway": "helipad", "historic": "yes"}}, {"type": "way", "id": 369704505, "center": {"lat": 73.2024234, "lon": -56.0112154}, "nodes": [3734746796, 3734746797, 3734746798, 3734746799, 3734746800, 3734746782, 3734746783, 3734746784, 3734746785, 3734746790, 3734746791, 3734746792, 3734746793, 3734746794, 3734746795, 3734746786, 3734746787, 3734746788, 3734746789, 3734746796], "tags": {"aeroway": "helipad", "iata": "IUI", "icao": "BGIN", "name": "Innaarsuit", "name:da": "Innaarsuit Helistop", "name:en": "Innaarsuit Heliport", "name:kl": "Innaarsuit", "operator": "Mittarfeqarfiit", "source": "ourairports.com", "surface": "gravel", "wikidata": "Q3016580", "wikipedia": "da:Innaarsuit Helistop"}}, {"type": "way", "id": 894493206, "center": {"lat": 71.5387527, "lon": -53.2050553}, "nodes": [8314020006, 8314020007, 8314020008, 8314020009, 8314020010, 8314020011, 8314020012, 8314020013, 8314020014, 8314020015, 8314020016, 8314020006], "tags": {"aeroway": "helipad", "iata": "JUU", "icao": "BGNQ", "name": "Nuugaatsiaq", "name:da": "Nuugaatsiaq Helistop", "name:en": "Nuugaatsiaq Heliport", "name:kl": "Nuugaatsiaq", "operator": "Mittarfeqarfiit", "source": "ourairports.com", "surface": "grass", "wikidata": "Q3016571", "wikipedia": "da:Nuugaatsiaq Helistop"}}, {"type": "way", "id": 980954238, "center": {"lat": 72.7921822, "lon": -56.1500456}, "nodes": [9074082631, 9074082632, 9403434842, 1000694892, 9403434843, 9074082633, 9074082634, 9074082631], "tags": {"aeroway": "helipad"}}]}