{"version": 0.6, "generator": "Overpass API 0.7.61.5 4133829e", "osm3s": {"timestamp_osm_base": "2023-10-31T20:50:30Z", "copyright": "The data included in this document is from www.openstreetmap.org. The data is made available under ODbL."}, "elements": [{"type": "node", "id": 1930037145, "lat": -3.0735748, "lon": -59.9613937, "tags": {"alt_name": "SPA da Crian\u00e7a", "amenity": "hospital", "name": "Hospital Jo\u00e3ozinho"}}, {"type": "node", "id": 1993232033, "lat": -1.4671177, "lon": -56.3760895, "tags": {"addr:city": "Porto Trombetas", "addr:postcode": "68275-000", "addr:street": "Rua Rio Amazonas", "addr:suburb": "Centro", "amenity": "hospital", "emergency": "yes", "healthcare": "hospital", "name": "Hospital de Porto Trombetas", "operator:ref:vatin": "BR04932216000146", "ref:CNES": "6312314", "ref:vatin": "BR04547278000215"}}, {"type": "node", "id": 2089247168, "lat": -3.0139414, "lon": -59.9908558, "tags": {"amenity": "hospital", "healthcare": "hospital", "name": "SPA Galil\u00e9ia"}}, {"type": "node", "id": 2326224416, "lat": -0.0094691, "lon": -51.0887938, "tags": {"amenity": "hospital", "healthcare": "hospital"}}, {"type": "node", "id": 2346907484, "lat": -2.5670116, "lon": -57.8724281, "tags": {"amenity": "hospital", "name": "Hospital Rosa Fabiano Falabella"}}, {"type": "node", "id": 2402553489, "lat": -7.8319585, "lon": -50.0366707, "tags": {"amenity": "hospital"}}, {"type": "node", "id": 2889223898, "lat": -2.0061346, "lon": -54.0723931, "tags": {"addr:city": "Monte Alegre", "addr:housenumber": "1833", "addr:postcode": "68220-000", "addr:street": "Passagem Tenente Pedro Nunes", "addr:suburb": "Centro", "amenity": "hospital", "healthcare": "hospital", "name": "Hospital Municipal de Monte Alegre", "operator:ref:vatin": "BR04838496000128", "phone": "+55 93 533 2263", "ref:CNES": "2652706"}}, {"type": "node", "id": 2942553420, "lat": -3.0328262, "lon": -59.9635186, "tags": {"amenity": "hospital", "emergency": "yes", "name": "Maternidade Dona Nazira Daou"}}, {"type": "node", "id": 3005664827, "lat": -3.0198521, "lon": -59.9931763, "tags": {"amenity": "hospital", "healthcare": "hospital", "name": "Cl\u00ednica e Hospital S\u00e3o Sebasti\u00e3o"}}, {"type": "node", "id": 3016946206, "lat": -3.1371366, "lon": -59.9947945, "tags": {"amenity": "hospital", "emergency": "no", "healthcare": "hospital", "name": "Policl\u00ednica Doutor Ant\u00f4nio Reis", "operator": "Sistema \u00danico de Sa\u00fade", "operator:short": "SUS", "operator:wikidata": "Q7531056", "operator:wikipedia": "pt:Sistema \u00danico de Sa\u00fade"}}, {"type": "node", "id": 3048029854, "lat": -2.9680082, "lon": -59.994992, "tags": {"amenity": "hospital", "name": "UBS"}}, {"type": "node", "id": 3580970250, "lat": -2.6263657, "lon": -56.7286637, "tags": {"amenity": "hospital", "name": "Centro de Sa\u00fade Doutor Todda"}}, {"type": "node", "id": 4193510639, "lat": -3.1268739, "lon": -58.1560195, "tags": {"amenity": "hospital"}}, {"type": "node", "id": 4790876621, "lat": -4.2733225, "lon": -55.9843862, "tags": {"addr:street": "Rua Nova de Santana", "amenity": "hospital", "name": "Hospital Dom Bosco", "opening_hours": "24/7"}}, {"type": "node", "id": 4790876721, "lat": -4.2719019, "lon": -55.9821819, "tags": {"addr:street": "Rua Nova de Santana", "amenity": "hospital", "name": "Hospital Santo Ant\u00f4nio", "name:en": "Hospital Santo Antonio", "opening_hours": "24/7"}}, {"type": "node", "id": 4881039715, "lat": -2.4507324, "lon": -54.7413184, "tags": {"amenity": "hospital", "name": "Posto 24 hrs Santar\u00e9mzinho"}}, {"type": "node", "id": 4881039716, "lat": -2.5030036, "lon": -54.9543378, "tags": {"amenity": "hospital", "name": "Posto 24 Hrs Alter do Ch\u00e3o"}}, {"type": "node", "id": 5146293571, "lat": -1.8881669, "lon": -55.1186722, "tags": {"amenity": "hospital"}}, {"type": "node", "id": 5978936785, "lat": -3.2090536, "lon": -52.2242901, "tags": {"addr:city": "Altamira", "addr:street": "Rua Uberl\u00e2ndia", "addr:suburb": "Uirapuru", "amenity": "hospital", "healthcare": "hospital", "name": "UPA24h"}}, {"type": "node", "id": 6214426486, "lat": -1.4070673, "lon": -51.6481945, "tags": {"addr:postcode": "68300-000", "addr:street": "Travessa Ant\u00f4nia Neves", "addr:suburb": "Centro", "amenity": "hospital", "emergency": "no", "healthcare": "hospital", "name": "Hospital Municipal Jaime Aben-Athar", "operator:ref:vatin": "BR04876397000130", "phone": "+55 91 3692 1430", "ref:CNES": "2313057"}}, {"type": "node", "id": 6366436670, "lat": -3.1368248, "lon": -58.4436158, "tags": {"amenity": "hospital", "healthcare": "hospital", "name": "Jos\u00e9 Mendes"}}, {"type": "node", "id": 6384949379, "lat": -9.9518135, "lon": -54.9161635, "tags": {"amenity": "hospital", "healthcare": "hospital", "name": "Hospital Municipal Nossa Senhora do Ros\u00e1rio", "operator": "Secretaria Municipal de Sa\u00fade de Guarant\u00e3 do Norte"}}, {"type": "node", "id": 6384949636, "lat": -9.9516841, "lon": -54.8970754, "tags": {"amenity": "hospital", "healthcare": "hospital", "healthcare:speciality": "general;gynaecology;paediatrics;orthopaedics;clinic", "name": "Hospital Jardim Vit\u00f3ria"}}, {"type": "node", "id": 6397065781, "lat": -3.1306126, "lon": -59.9949788, "tags": {"amenity": "hospital", "healthcare": "hospital", "name": "UBS Jo\u00e3o Valente"}}, {"type": "node", "id": 6397065782, "lat": -3.1302082, "lon": -59.9980178, "tags": {"amenity": "hospital", "healthcare": "hospital", "name": "UBS 21"}}, {"type": "node", "id": 6475583359, "lat": -7.0365694, "lon": -55.4184627, "tags": {"amenity": "hospital", "healthcare": "hospital"}}, {"type": "node", "id": 6486605341, "lat": -2.8905396, "lon": -52.0125066, "tags": {"amenity": "hospital", "healthcare": "hospital", "name": "Hospital Municipal de Vit\u00f3ria do Xingu"}}, {"type": "node", "id": 6849023186, "lat": -3.1962736, "lon": -59.8264937, "tags": {"amenity": "hospital", "healthcare": "hospital", "name": "Unidade B\u00e1sica de Sa\u00fade"}}, {"type": "node", "id": 7221200453, "lat": -3.0139673, "lon": -59.9911239, "tags": {"addr:city": "Manaus", "addr:housenumber": "630", "addr:postcode": "69093-000", "addr:street": "Avenida Sama\u00fama", "addr:suburb": "Monte das Oliveiras", "amenity": "hospital", "email": "mat_amarreiro@saude.am.gov.br", "healthcare": "hospital", "name": "Maternidade Azilda da Silva Marreiro", "operator:ref:vatin": "BR00697295000105", "phone": "+55 92 3643 5500", "ref:CNES": "3004104", "ref:vatin": "BR00697295009900"}}, {"type": "node", "id": 7644496897, "lat": -1.8043609, "lon": -53.4811632, "tags": {"amenity": "hospital", "emergency": "yes", "healthcare": "hospital", "healthcare:speciality": "general", "name": "Edif\u00edcio do Hospital Wilson Ribeiro"}}, {"type": "node", "id": 9203682240, "lat": -2.6795935, "lon": -54.6500252, "tags": {"addr:city": "Mojui dos campos", "addr:postcode": "68129000", "addr:street": "Travessa Ant\u00f4nio Valfredo", "addr:suburb": "Alto Alegre", "amenity": "hospital", "emergency": "yes", "healthcare": "hospital", "name": "Hospital municipal"}}, {"type": "node", "id": 9617294064, "lat": -6.7493644, "lon": -51.070825, "tags": {"amenity": "hospital", "healthcare": "hospital", "name": "Hospital Municipal"}}, {"type": "node", "id": 9915193535, "lat": -3.1439805, "lon": -59.9899886, "tags": {"amenity": "hospital", "healthcare": "hospital", "name": "Hospital de Aeron\u00e1utica de Manaus - HAMN"}}, {"type": "node", "id": 10263559409, "lat": -7.189601, "lon": -59.8866289, "tags": {"addr:postcode": "69265-000", "addr:street": "Avenida Amazonas", "amenity": "hospital", "opening_hours": "24/7", "phone": "09733891219"}}, {"type": "way", "id": 156572587, "center": {"lat": -6.0630304, "lon": -50.0738477}, "nodes": [1688040982, 1688041011, 1688041026, 1688041084, 1688040998, 1688041006, 1688041094, 1688041086, 1688040982], "tags": {"amenity": "hospital", "emergency": "yes", "name": "Hospital Yutaka Takeda"}}, {"type": "way", "id": 182630780, "center": {"lat": -3.0768867, "lon": -59.9568994}, "nodes": [1930029151, 7697918262, 1930029161, 7697918261, 1930029159, 7221200451, 7679412599, 7679412600, 7679412601, 7679412602, 1930029154, 7679412598, 1930029166, 1930029156, 1930029149, 7679412597, 7679412596, 7519257404, 1930029168, 1930029158, 7679412603, 1930029163, 7679412604, 7679412605, 7679412606, 7679412607, 7679412608, 7679412609, 7679412610, 7679412611, 7679412612, 1930029153, 1930029164, 1930029151], "tags": {"addr:city": "Manaus", "addr:housenumber": "S/N", "addr:postcode": "69083-000", "addr:street": "Avenida Alameda Cosme Ferreira", "addr:suburb": "Aleixo", "alt_name": "MATERNIDADE DE REFER\u00caNCIA ANA BRAGA", "amenity": "hospital", "healthcare": "hospital", "name": "Maternidade Ana Braga", "operator:ref:vatin": "BR00697295000105", "phone": "+55 92 3647 4200", "ref:CNES": "3151794", "ref:vatin": "BR00697295007967"}}, {"type": "way", "id": 194334620, "center": {"lat": -4.0989908, "lon": -54.9094767}, "nodes": [2048546047, 2048546046, 2048546045, 2048546048, 2048546047], "tags": {"amenity": "hospital", "name": "Hospital Municipal"}}, {"type": "way", "id": 198839721, "center": {"lat": -3.0138793, "lon": -59.9904559}, "nodes": [3005476640, 3005476637, 2089247160, 2089247162, 3005476647, 3005476643, 2090396774, 2090396770, 2090396780, 2090396778, 3005476645, 3005476648, 2089247176, 2089247170, 3005476642, 3005476641, 2089247185, 2089247191, 2089247189, 2089247190, 3005476640], "tags": {"amenity": "hospital", "building": "yes", "healthcare": "hospital"}}, {"type": "way", "id": 223611060, "center": {"lat": -0.006308, "lon": -51.0814905}, "nodes": [2324926203, 2324926201, 2324926205, 2324926202, 2324926203], "tags": {"amenity": "hospital", "healthcare": "hospital", "name": "Hospital Sarah Kubitschek"}}, {"type": "way", "id": 247285058, "center": {"lat": -0.909441, "lon": -52.4270141}, "nodes": [2541978949, 2541978950, 2541978953, 2541978966, 2541978949], "tags": {"amenity": "hospital", "building": "yes", "emergency": "yes", "source": "Conhecimento local"}}, {"type": "way", "id": 250209911, "center": {"lat": -2.4518956, "lon": -54.715561}, "nodes": [2566955931, 7401781100, 9037993363, 7401781101, 7401781102, 4899554622, 9037993362, 9037993366, 7401781104, 7401781103, 7401781105, 2566955932, 8954917589, 7401781107, 7401781106, 7401781108, 2574769929, 2574769928, 8939510154, 9037964783, 8974613207, 8939510153, 8939510152, 9048178716, 9048178701, 9048178704, 2566955934, 9037964767, 9037964766, 2566955931], "tags": {"addr:city": "Santar\u00e9m", "addr:housenumber": "2100", "addr:street": "Avenida S\u00e9rgio Heinn", "amenity": "hospital", "emergency": "yes", "healthcare": "hospital", "name": "Hospital Regional do Baixo Amazonas", "name:en": "Baixo Amazonas Regional Hospital", "opening_hours": "Mo-Fr", "operator": "Governo do Estado do Par\u00e1", "operator:type": "private", "phone": "+55 93 2101-0700"}}, {"type": "way", "id": 252670078, "center": {"lat": -4.2580627, "lon": -55.9911438}, "nodes": [2587089089, 2587089092, 2587089094, 2587089096, 2587089089], "tags": {"amenity": "hospital", "building": "hospital", "name": "Hospital Menino Jesus"}}, {"type": "way", "id": 282047156, "center": {"lat": -4.2743209, "lon": -55.9881178}, "nodes": [2859932848, 2859932849, 2859932850, 2859932851, 2859932848], "tags": {"amenity": "hospital", "healthcare": "hospital", "name": "Hospital Regional do Tapaj\u00f3s"}}, {"type": "way", "id": 290758297, "center": {"lat": -3.0328697, "lon": -59.9238612}, "nodes": [2942585257, 2942585252, 2942585249, 2942585240, 9857659431, 9857659430, 2942585248, 2942585257], "tags": {"amenity": "hospital", "emergency": "no", "name": "UBS Dr. Jos\u00e9 Avelino Pereira"}}, {"type": "way", "id": 291802879, "center": {"lat": -3.0268537, "lon": -59.9236983}, "nodes": [2953124687, 2953124693, 2953124700, 2953124699, 2953124687], "tags": {"amenity": "hospital"}}, {"type": "way", "id": 296920107, "center": {"lat": -6.6421853, "lon": -51.9921789}, "nodes": [3007274219, 3007274220, 3007274221, 3007274222, 3007274223, 3007274224, 3007274219], "tags": {"addr:street": "Avenida Rio Xingu", "amenity": "hospital", "name": "Hospital Municipal Orzeu Jonas Guida"}}, {"type": "way", "id": 297645847, "center": {"lat": -3.1368508, "lon": -59.9842046}, "nodes": [3015379767, 3015378828, 3015379757, 3015379738, 3015379750, 3015378815, 3015378802, 3015378771, 3015379767], "tags": {"amenity": "hospital"}}, {"type": "way", "id": 297645849, "center": {"lat": -3.1381217, "lon": -59.9847065}, "nodes": [3015378774, 3015378768, 3015378800, 3015378767, 3015378772, 3015378769, 3015378786, 3015379756, 3015378774], "tags": {"amenity": "hospital"}}, {"type": "way", "id": 344003536, "center": {"lat": -5.5562515, "lon": -52.6731032}, "nodes": [3507754328, 3507754329, 3507754330, 3507754331, 3507754332, 3507754333, 3507754334, 3507754335, 3507754336, 3507754337, 3507754338, 3507754339, 3507754328], "tags": {"amenity": "hospital", "description": "Enfermaria da aldeia.", "healthcare": "hospital"}}, {"type": "way", "id": 352334454, "center": {"lat": -2.6340724, "lon": -56.7451935}, "nodes": [3580982787, 3580982788, 3580982789, 3580982790, 3580982787], "tags": {"amenity": "hospital", "name": "Hospital Padre Colombo"}}, {"type": "way", "id": 358398281, "center": {"lat": -2.6213816, "lon": -56.7269484}, "nodes": [3633220456, 3633220458, 11174656968, 11174656967, 11174656965, 11174656966, 3633220454, 3633220452, 3633220450, 11174656969, 5654863410, 5654863409, 3633220456], "tags": {"amenity": "hospital", "healthcare": "hospital", "name": "Hospital Regional Jofre Cohen"}}, {"type": "way", "id": 365612727, "center": {"lat": -2.6996151, "lon": -59.700341}, "nodes": [3696172428, 5815956753, 5815956754, 3696172437, 5815956755, 5815956756, 3696172435, 3696172426, 3696172428], "tags": {"amenity": "hospital"}}, {"type": "way", "id": 372418288, "center": {"lat": -1.9347884, "lon": -50.8150865}, "nodes": [3759779438, 3759779441, 3759779443, 3759779442, 3759779434, 3759779438], "tags": {"amenity": "hospital"}}, {"type": "way", "id": 419733332, "center": {"lat": -1.9081826, "lon": -55.521638}, "nodes": [4197387174, 4197387175, 4197387176, 4197387177, 4197387174], "tags": {"amenity": "hospital", "name": "UBS Jofre Cohen"}}, {"type": "way", "id": 420316264, "center": {"lat": -1.9157945, "lon": -55.5144682}, "nodes": [4202554340, 4202554341, 4202554342, 4202554343, 4202554340], "tags": {"amenity": "hospital", "healthcare": "hospital", "name": "Hospital Dom Floriano", "operator": "Sistema \u00danico de Sa\u00fade", "operator:short": "SUS", "operator:wikidata": "Q7531056"}}, {"type": "way", "id": 421371884, "center": {"lat": -3.0673941, "lon": -59.9459726}, "nodes": [4211395761, 4211395760, 4211395759, 630911693, 4915115450, 630911712, 4915115451, 630911647, 4211403844, 4211395761], "tags": {"amenity": "hospital", "emergency": "no", "name": "Comandante Telles"}}, {"type": "way", "id": 422272397, "center": {"lat": -1.8996013, "lon": -50.2090965}, "nodes": [4220175172, 4220175173, 9015630171, 9015630172, 9015630173, 9015630174, 9015630175, 9015630176, 9015630183, 9015630170, 9015630181, 9015630182, 9015630180, 9015630179, 9015630178, 9015630177, 4220175174, 4220175175, 9015630169, 9015630167, 9015630168, 9015630166, 9015630165, 9015630164, 9015630162, 9015630163, 4220175172], "tags": {"addr:postcode": "68475-000", "addr:street": "Avenida Fernando Guilhon", "addr:suburb": "Centro", "amenity": "hospital", "emergency": "yes", "healthcare": "hospital", "healthcare:speciality": "general", "name": "Hospital Municipal de Bagre", "phone": "+55 91 3606 1295", "ref": "CNES-7773250"}}, {"type": "way", "id": 485358403, "center": {"lat": -1.8402058, "lon": -55.640491}, "nodes": [4781315832, 4781315833, 4781315834, 4781315835, 4781315832], "tags": {"amenity": "hospital", "name": "Unidade B\u00e1sica de Sa\u00fade"}}, {"type": "way", "id": 485391235, "center": {"lat": -1.8710144, "lon": -55.5749398}, "nodes": [4781620174, 4781620175, 4781620176, 4781620177, 4781620174], "tags": {"amenity": "hospital"}}, {"type": "way", "id": 496388766, "center": {"lat": -2.4477382, "lon": -54.7022496}, "nodes": [2393888368, 1305209614, 1546666856, 4881039706, 4881039707, 4881039708, 2393888368], "tags": {"amenity": "hospital", "healthcare": "hospital", "name": "UPA Santar\u00e9m", "operator": "PMS"}}, {"type": "way", "id": 515942758, "center": {"lat": -3.118658, "lon": -51.7397313}, "nodes": [5037595038, 5037595040, 5037595048, 5037595047, 5037595051, 5037595054, 5037595072, 5037595019, 5037595018, 5037595332, 5037595330, 5037595328, 5037595327, 5037595333, 5037595334, 5037595343, 5037595342, 5037595329, 5037595331, 5037595326, 5037595325, 5037595049, 5037595050, 5037595046, 5037595043, 5037595038], "tags": {"amenity": "hospital", "building": "yes", "healthcare": "hospital", "name": "Eas Vila Belo Monte"}}, {"type": "way", "id": 529820774, "center": {"lat": -1.8881349, "lon": -55.118584}, "nodes": [5146293553, 5146293554, 5146293555, 5146293556, 5146293557, 5146293558, 5146293559, 5146293560, 5146293561, 5146293562, 5146293563, 5146293564, 5146293565, 5146293566, 5146293567, 5146293568, 5146293569, 5146293570, 5146293553], "tags": {"amenity": "hospital"}}, {"type": "way", "id": 532392010, "center": {"lat": -3.1766996, "lon": -52.2164937}, "nodes": [5166257929, 5166257930, 5166257931, 5166257932, 5166257929], "tags": {"addr:city": "ALTAMIRA", "addr:housenumber": "R. P", "addr:street": "R. O", "addr:suburb": "JATOBA", "amenity": "hospital", "healthcare": "hospital", "name": "Unidade de Familia Jatob\u00e1"}}, {"type": "way", "id": 532394699, "center": {"lat": -3.1864022, "lon": -52.206277}, "nodes": [5166279992, 5166279993, 5166279994, 5166279995, 5166279992], "tags": {"amenity": "hospital", "healthcare": "hospital", "name": "HOSPITAL GERAL ALTAMIRA"}}, {"type": "way", "id": 532407381, "center": {"lat": -3.1876596, "lon": -52.2094194}, "nodes": [5166362451, 5166362452, 5166362453, 5166362454, 5166362451], "tags": {"amenity": "hospital", "healthcare": "hospital", "name": "POSTO DE SA\u00daDE MULTIR\u00c3O"}}, {"type": "way", "id": 546716035, "center": {"lat": -3.0053412, "lon": -59.9786376}, "nodes": [5283066904, 5283090476, 5283090477, 5283090478, 5283090479, 5283090480, 5283066904], "tags": {"addr:city": "Manaus", "addr:street": "Avenida Margarita", "addr:suburb": "Nova Cidade", "amenity": "hospital", "healthcare": "hospital", "name": "Policl\u00ednica Jo\u00e3o dos Santos Braga"}}, {"type": "way", "id": 589714021, "center": {"lat": -3.210152, "lon": -52.2172243}, "nodes": [5773719855, 8430341751, 5773719859, 5773719860, 8430339194, 5631396730, 5631396731, 7020870718, 7020870717, 5773719652, 5773719651, 8430341759, 8430341762, 8430341761, 8430341760, 8430341763, 8430341766, 8430341765, 8430341764, 8430341757, 8430341758, 5773719857, 8430341753, 5773719855], "tags": {"amenity": "hospital", "colour": "#b7ab95", "healthcare": "hospital", "name": "Hospital Santo Agostinho"}}, {"type": "way", "id": 589715854, "center": {"lat": -3.2077121, "lon": -52.2080325}, "nodes": [6560504862, 5735272950, 5735272955, 5735272957, 6560504861, 6560504862], "tags": {"amenity": "hospital", "healthcare": "hospital", "name": "Hospital Municipal S\u00e3o Rafael"}}, {"type": "way", "id": 607037827, "center": {"lat": -4.2747639, "lon": -55.9899818}, "nodes": [5753865510, 5753865511, 5753865512, 5753865513, 5753865514, 5753865515, 5753865510], "tags": {"amenity": "hospital", "healthcare": "hospital", "name": "SAMU"}}, {"type": "way", "id": 607037828, "center": {"lat": -4.274788, "lon": -55.9893761}, "nodes": [5753865516, 5753865517, 5753865518, 5753865519, 5753865520, 5753866421, 5753866422, 5753866423, 5753866424, 5753866425, 5753866426, 5753866427, 5753866428, 5753866429, 5753866430, 5753866431, 5753866432, 5753866433, 5753865516], "tags": {"amenity": "hospital", "healthcare": "hospital", "name": "Hospital municipal de Itaituba"}}, {"type": "way", "id": 628777832, "center": {"lat": -1.8043211, "lon": -53.481183}, "nodes": [5936543790, 5936543791, 5936543792, 5936543793, 5936543790], "tags": {"amenity": "hospital", "healthcare": "hospital", "name": "Hospital Municipal Wilson Ribeiro"}}, {"type": "way", "id": 630309735, "center": {"lat": -9.8759397, "lon": -56.087986}, "nodes": [5952072815, 5952072816, 5952072817, 5952072818, 5952072815], "tags": {"amenity": "hospital", "healthcare": "hospital"}}, {"type": "way", "id": 630730895, "center": {"lat": -9.8834631, "lon": -56.0882098}, "nodes": [5955076762, 5955076763, 5955076764, 5955076765, 5955076766, 5955076767, 5955076768, 5955076769, 5955076770, 5955076771, 5955076777, 5955076778, 5955076779, 5955076776, 5955076775, 5955076774, 5955076773, 5955076772, 5955076762], "tags": {"amenity": "hospital", "healthcare": "hospital", "name": "Hospital Regional Albert Sabin"}}, {"type": "way", "id": 681389714, "center": {"lat": -1.6819868, "lon": -50.4795544}, "nodes": [6380959495, 6380959496, 6380959497, 6380959498, 6380959499, 6380959500, 6380959501, 6380959495], "tags": {"addr:city": "Breves", "addr:postcode": "68800000", "addr:street": "Avenida Bar\u00e3o do Rio Branco", "addr:suburb": "Centro", "amenity": "hospital", "healthcare": "hospital", "healthcare:speciality": "general;paediatrics;ophthalmology;orthopaedics;cardiology;emergency", "name": "Hospital Regional do Maraj\u00f3 - Breves"}}, {"type": "way", "id": 681794164, "center": {"lat": -9.9520264, "lon": -54.9162439}, "nodes": [6384949375, 6384949376, 6384949377, 6384949378, 6384949375], "tags": {"amenity": "hospital", "emergency": "yes", "healthcare": "hospital", "healthcare:speciality": "general", "name": "Hospital Municipal Nossa Senhora do Ros\u00e1rio", "operator": "Secretaria Municipal de Sa\u00fade de Guarant\u00e3 do Norte", "wheelchair": "yes"}}, {"type": "way", "id": 681794171, "center": {"lat": -9.9516744, "lon": -54.8970168}, "nodes": [6384949637, 6384949638, 6384949639, 6384949640, 6384949641, 6384949642, 6384949643, 6384949637], "tags": {"amenity": "hospital", "emergency": "yes", "healthcare": "hospital", "healthcare:speciality": "general;paediatrics;cardiology;ophthalmology;otolaryngology;surgery;emergency;orthopaedics;maternity"}}, {"type": "way", "id": 682061173, "center": {"lat": -3.3887935, "lon": -57.7088397}, "nodes": [6387290034, 6387290035, 6387290036, 6387290037, 6387290034], "tags": {"amenity": "hospital", "healthcare": "hospital"}}, {"type": "way", "id": 682475697, "center": {"lat": -1.6893142, "lon": -50.4821068}, "nodes": [6391398256, 6391398257, 6391398258, 6391398259, 6391398256], "tags": {"addr:city": "Breves", "addr:postcode": "68800000", "addr:street": "Rua Wilson Fraz\u00e3o", "addr:suburb": "centro", "amenity": "hospital", "emergency": "yes", "healthcare": "hospital", "healthcare:speciality": "general", "name": "Area do Hospital", "operator": "Prefeitura"}}, {"type": "way", "id": 684128607, "center": {"lat": -0.0005912, "lon": -51.0828783}, "nodes": [6408964151, 6408964152, 6408964153, 6408964154, 6408964151], "tags": {"amenity": "hospital", "healthcare": "hospital", "name": "Hospital Universit\u00e1rio (UNIFAP)", "operator": "EBISERH"}}, {"type": "way", "id": 688919856, "center": {"lat": -9.8844191, "lon": -56.0850667}, "nodes": [6462038506, 6462038507, 6462038508, 6462038509, 6462038506], "tags": {"amenity": "hospital", "healthcare": "hospital", "name": "Hospital Geral"}}, {"type": "way", "id": 702579954, "center": {"lat": -3.1364899, "lon": -59.9847578}, "nodes": [4498700808, 1746270774, 6597870017, 6597870018, 3998391275, 3998391278, 6597870019, 3998391279, 3998391286, 6597870020, 4498700808], "tags": {"amenity": "hospital", "emergency": "yes", "healthcare": "hospital", "name": "Hospital Adventista de Manaus"}}, {"type": "way", "id": 741755009, "center": {"lat": -1.7663545, "lon": -55.8678976}, "nodes": [6943774323, 6943774324, 6943774325, 6943774326, 6943774327, 6943774328, 6943774329, 6943809889, 6943774330, 6943774323], "tags": {"amenity": "hospital", "healthcare": "hospital"}}, {"type": "way", "id": 741755010, "center": {"lat": -1.7757306, "lon": -55.8620098}, "nodes": [6943774331, 6943774332, 6943774333, 6943774334, 6943774335, 6943774336, 6943774337, 6943774338, 6943774339, 6943774340, 6943774341, 6943774342, 6943774343, 6943774344, 6943774345, 6943774346, 6943774331], "tags": {"amenity": "hospital", "healthcare": "hospital", "name": "Upa 24 hrs"}}, {"type": "way", "id": 741755011, "center": {"lat": -1.7768043, "lon": -55.861924}, "nodes": [6943809586, 6943809587, 6943809589, 10700756676, 10700756679, 10700756677, 10700756678, 6943809592, 6943809591, 6943809588, 6943809586], "tags": {"amenity": "hospital", "healthcare": "hospital", "name": "Hospital Municipal"}}, {"type": "way", "id": 1031869281, "center": {"lat": -4.2728952, "lon": -55.9966224}, "nodes": [9509452133, 9509452132, 9509452131, 9509452130, 9509452133], "tags": {"amenity": "hospital", "name": "Unidade B\u00e1sica de Sa\u00fade", "operator": "Prefeitura Municipal"}}, {"type": "way", "id": 1072240589, "center": {"lat": -3.0382662, "lon": -59.94173}, "nodes": [9838328690, 9838328689, 9838328688, 9838328687, 9838294214, 2942610671, 9838294215, 9838328690], "tags": {"addr:city": "Manaus", "addr:housenumber": "S/N", "addr:postcode": "69088-245", "addr:street": "Avenida Autaz Mirim", "addr:suburb": "Jorge Teixeira", "amenity": "hospital", "email": "ps_plataoaraujo@saude.am.gov.br", "emergency": "yes", "healthcare": "hospital", "healthcare:speciality": "general;trauma", "mapillary": "3910143379099216", "name": "Pronto Socorro Doutor Arist\u00f3teles Plat\u00e3o Bezerra de Ara\u00fajo", "operator": "estado do Amazonas", "operator:ref:vatin": "BR00697295000105", "operator:type": "public", "phone": "+55 92 3647 4101", "ref:vatin": "BR00697295009072"}}, {"type": "way", "id": 1072257196, "center": {"lat": -3.0766883, "lon": -59.9576658}, "nodes": [9838421745, 9838421744, 7221200451, 1930029159, 9838440420, 9838421743, 9838421742, 7519208920, 9838421741, 9838421740, 1930033768, 9838421739, 9838421738, 7519208919, 9838421737, 9838421736, 9838421735, 9838421734, 9838421733, 9838421732, 9838421745], "tags": {"amenity": "hospital", "name": "CAIC"}}, {"type": "way", "id": 1074754381, "center": {"lat": -3.0753214, "lon": -59.9376922}, "nodes": [9857678040, 2944639517, 2944639515, 9857678039, 2944627297, 9857678040], "tags": {"amenity": "hospital", "emergency": "no", "name": "U.S.A Dr. Alfredo Campos"}}, {"type": "way", "id": 1077030399, "center": {"lat": -3.0235182, "lon": -59.9333945}, "nodes": [9875850703, 9875850702, 2957111467, 9875850701, 9875850700, 9875850703], "tags": {"amenity": "hospital", "name": "Policl\u00ednica Municipal Enfermeira Ana Ferreira"}}, {"type": "way", "id": 1077589339, "center": {"lat": -3.0147229, "lon": -59.9901843}, "nodes": [9880231946, 3005486145, 9880237944, 9880237943, 9880231945, 1387908525, 7542391197, 9880231944, 9880231943, 9880231946], "tags": {"amenity": "hospital", "healthcare": "hospital", "name": "Servi\u00e7o de Pronto Atendimento Eliameme Rodrigues Mady"}}, {"type": "way", "id": 1077878026, "center": {"lat": -3.0179329, "lon": -59.9280495}, "nodes": [9882521664, 2962883211, 9882521663, 9882521662, 9882521661, 9882521664], "tags": {"amenity": "hospital", "building": "yes", "name": "Unidade B\u00e1sica de Sa\u00fade da Familia L01"}}, {"type": "way", "id": 1079387454, "center": {"lat": -3.0324543, "lon": -59.9636449}, "nodes": [9894591010, 9894591009, 9894591008, 9894591007, 9894591006, 9894591005, 9894591004, 9894591003, 9894591002, 9894590985, 9894591001, 9894590987, 9894590986, 9894591000, 9894590999, 9894590988, 9894590998, 9894590997, 7888152001, 9894590996, 9894590989, 595348032, 9894590990, 9894590995, 9894590991, 9894590994, 2942553419, 9894590993, 9894590992, 9894591010], "tags": {"amenity": "hospital", "emergency": "yes", "name": "Hospital Universit\u00e1rio Francisca Mendes"}}, {"type": "way", "id": 1080518372, "center": {"lat": -3.0739431, "lon": -59.9619681}, "nodes": [2640107056, 1739275589, 9909327170, 9903950451, 9903950450, 9903950449, 9903950448, 9903950447, 9903950446, 595301992, 595301993, 595301994, 595301995, 595301996, 595301997, 595301998, 9903950445, 9903950444, 9903950440, 9903950443, 9903950442, 2640107056], "tags": {"addr:city": "Manaus", "addr:housenumber": "3937", "addr:postcode": "69083-000", "addr:street": "Avenida Alameda Cosme Ferreira", "addr:suburb": "S\u00e3o Jos\u00e9 I", "amenity": "hospital", "email": "hpsjl@hpsjoaolucio.am.gov.br", "healthcare": "hospital", "healthcare:speciality": "general;trauma", "name": "Hospital P S Dr Jo\u00e3o L\u00facio P Machado", "operator": "Secretaria de Sa\u00fade do Estado do Amazonas", "operator:type": "government", "phone": "+55 92 3249 9412", "ref:CNES": "2019574", "ref:vatin": "BR09634524000109"}}, {"type": "way", "id": 1082141087, "center": {"lat": -3.135412, "lon": -60.0001393}, "nodes": [9917524761, 9917524762, 9917524763, 9917524764, 9917524761], "tags": {"amenity": "hospital", "healthcare": "hospital", "name": "UBS Morro da Liberdade"}}, {"type": "way", "id": 1105846311, "center": {"lat": -7.3103381, "lon": -50.0434614}, "nodes": [10119234470, 10119234471, 10119234472, 10119234473, 10119234470], "tags": {"amenity": "hospital", "healthcare": "hospital", "name": "CL\u00cdNICA BELLA PL\u00c1STICA"}}, {"type": "way", "id": 1106655689, "center": {"lat": -7.3101139, "lon": -50.0490361}, "nodes": [10126672061, 10126672062, 10126672063, 10126672064, 10126672061], "tags": {"amenity": "hospital", "healthcare": "hospital", "name": "hospital municipal de rio maria"}}, {"type": "way", "id": 1139133350, "center": {"lat": -0.8418834, "lon": -52.5211988}, "nodes": [10617590837, 10617590838, 10617590839, 10617590840, 10617590841, 10617590837], "tags": {"amenity": "hospital", "healthcare": "hospital", "name": "Hospital Estadual de Laranjal do Jari"}}, {"type": "way", "id": 1147507303, "center": {"lat": -0.0452792, "lon": -51.1647831}, "nodes": [10677469741, 10677469742, 10677469743, 10677469744, 10677469745, 10677469746, 10677469747, 10677469748, 10677469749, 10677469750, 10677469751, 10677469752, 10677469753, 10677469754, 10677469741], "tags": {"amenity": "hospital", "healthcare": "hospital", "name": "Hospital Estadual de Santana"}}, {"type": "way", "id": 1163783861, "center": {"lat": -0.0408709, "lon": -51.0998656}, "nodes": [10823482244, 10823482245, 10823482246, 10823482247, 10823482244], "tags": {"amenity": "hospital", "healthcare": "hospital", "name": "Hospital Veterin\u00e1rio de Macap\u00e1"}}, {"type": "way", "id": 1184568213, "center": {"lat": -4.7066516, "lon": -55.9909977}, "nodes": [11002570218, 11002570217, 11002570216, 11002570215, 11002570218], "tags": {"addr:city": "Trair\u00e3o", "addr:country": "BR", "addr:housenumber": "145", "addr:state": "Par\u00e1", "addr:street": "Travessa Doutor Carlos Furtado", "addr:suburb": "Industrial", "amenity": "hospital", "name": "Hospital Municipal de Trair\u00e3o", "operator": "Prefeitura Municipal de Trair\u00e3o", "postal_code": "68198-000", "ref:CNES": "2620006", "source": "IBGE; DataSUS"}}, {"type": "way", "id": 1202300741, "center": {"lat": -3.7401239, "lon": -53.7316888}, "nodes": [11146163362, 11146163377, 11146163376, 11146163375, 11146163374, 11146163363, 11146163364, 11146163373, 11146163372, 11146163371, 11146163370, 11146163365, 11146163369, 11146163368, 11146163367, 11146163366, 11146163362], "tags": {"amenity": "hospital", "healthcare": "hospital"}}, {"type": "relation", "id": 11083451, "center": {"lat": -3.2102584, "lon": -52.2135706}, "members": [{"type": "way", "ref": 801824530, "role": "outer"}, {"type": "way", "ref": 801824526, "role": "outer"}, {"type": "way", "ref": 801824525, "role": "outer"}, {"type": "way", "ref": 589714006, "role": "outer"}, {"type": "way", "ref": 801824524, "role": "outer"}, {"type": "way", "ref": 801824528, "role": "outer"}, {"type": "way", "ref": 801824527, "role": "outer"}, {"type": "way", "ref": 801824533, "role": "outer"}, {"type": "way", "ref": 801824531, "role": "outer"}], "tags": {"amenity": "hospital", "healthcare": "hospital", "name": "Hospital Regional", "type": "multipolygon"}}, {"type": "relation", "id": 14345218, "center": {"lat": -1.5289275, "lon": -52.5816779}, "members": [{"type": "way", "ref": 1077761778, "role": "outer"}, {"type": "way", "ref": 1077761776, "role": "outer"}], "tags": {"amenity": "hospital", "healthcare": "hospital", "name": "Hospital Municipal de Almeirim", "operator": "Sistema \u00danico de Sa\u00fade", "operator:short": "SUS", "operator:wikidata": "Q7531056", "type": "multipolygon"}}]}