{"version": 0.6, "generator": "Overpass API 0.7.61.5 4133829e", "osm3s": {"timestamp_osm_base": "2023-10-31T20:51:35Z", "copyright": "The data included in this document is from www.openstreetmap.org. The data is made available under ODbL."}, "elements": [{"type": "node", "id": 1723679083, "lat": -5.7972966, "lon": 132.6805055, "tags": {"amenity": "hospital", "name": "Pustu Wab"}}, {"type": "node", "id": 1967884518, "lat": -0.7611281, "lon": 133.5546926, "tags": {"amenity": "hospital", "name": "Pustu", "note": "03-MAR-11 13:18:40"}}, {"type": "node", "id": 3196816469, "lat": -5.5397, "lon": 138.13532, "tags": {"amenity": "hospital", "building": "hospital", "name": "RSUD Agats"}}, {"type": "node", "id": 4597535789, "lat": -5.6478087, "lon": 132.7354853, "tags": {"amenity": "hospital"}}, {"type": "node", "id": 5594969439, "lat": -2.9289402, "lon": 132.2961022, "tags": {"amenity": "hospital", "name": "RSUD Fakfak"}}, {"type": "node", "id": 5747433274, "lat": -4.8591973, "lon": 139.4925461, "tags": {"amenity": "hospital", "healthcare": "hospital", "name": "UGD - RSUD Dekai", "name:en": "Emergency Room - Dekai Public Hospital"}}, {"type": "node", "id": 5765687136, "lat": -3.6700787, "lon": 133.7628848, "tags": {"amenity": "hospital", "healthcare": "hospital", "name": "PUSKESMAS KOTA"}}, {"type": "node", "id": 5765716898, "lat": -3.6422402, "lon": 133.7458829, "tags": {"amenity": "hospital", "healthcare": "hospital", "name": "BALAI PENGOBATAN ST. MARTINUS"}}, {"type": "node", "id": 5780700715, "lat": -3.6076145, "lon": 133.7287871, "tags": {"amenity": "hospital", "healthcare": "hospital", "name": "Rumah Sakit Umum Daerah"}}, {"type": "node", "id": 5813713258, "lat": -3.02134, "lon": 134.8128227, "tags": {"amenity": "hospital", "name:en": "PUSKESMAS"}}, {"type": "node", "id": 6244177485, "lat": -5.788229, "lon": 134.2115943, "tags": {"addr:city": "Dobo", "addr:postcode": "97662", "addr:street": "Jl. Cenderawasih", "amenity": "hospital", "emergency": "yes", "healthcare": "hospital", "healthcare:speciality": "radiology;pathology;general;internal", "name": "RSUD Cenderawasih Dobo"}}, {"type": "node", "id": 6817514376, "lat": -3.0973456, "lon": 130.4748774, "tags": {"amenity": "hospital", "name": "RSUD BULA"}}, {"type": "node", "id": 7626093016, "lat": -4.5195785, "lon": 136.8871077, "tags": {"amenity": "hospital", "healthcare": "hospital"}}, {"type": "node", "id": 10600266817, "lat": -5.6599309, "lon": 132.648796, "tags": {"amenity": "hospital", "name": "Public Health Center"}}, {"type": "node", "id": 10783584451, "lat": -2.207832, "lon": 136.4437149, "tags": {"amenity": "hospital", "healthcare": "hospital", "name": "Puskesmas Urei Faisei"}}, {"type": "node", "id": 11091576771, "lat": -5.7599008, "lon": 134.2368359, "tags": {"amenity": "hospital", "healthcare": "hospital", "name": "Puskesmas Dobo"}}, {"type": "way", "id": 183947448, "center": {"lat": -0.8626169, "lon": 134.0630335}, "nodes": [1943873149, 1943873160, 1943873161, 1943873157, 1943873149], "tags": {"amenity": "hospital", "building": "yes", "name": "Puskesmas Sanggeng"}}, {"type": "way", "id": 214902179, "center": {"lat": -1.3135563, "lon": 134.2404925}, "nodes": [2243573893, 2243573962, 2243574066, 2243573983, 2243573893], "tags": {"amenity": "hospital", "emergency": "yes", "healthcare": "hospital", "name": "Rumah Sakit Oransbari"}}, {"type": "way", "id": 215275395, "center": {"lat": -0.8831888, "lon": 133.8239576}, "nodes": [2246740640, 10613755955, 10613755956, 10613755957, 2246742451, 10613755958, 10613755959, 10613755960, 10613755961, 2246741452, 2246740640], "tags": {"amenity": "hospital", "building": "yes", "name": "Balai Pengobatan Santa Maria"}}, {"type": "way", "id": 512178558, "center": {"lat": -0.872482, "lon": 134.0459532}, "nodes": [5008581245, 5008581244, 5008581243, 5008581242, 5008581245], "tags": {"amenity": "hospital", "healthcare": "hospital"}}, {"type": "way", "id": 527118596, "center": {"lat": -0.4112123, "lon": 130.8354173}, "nodes": [5125122309, 5125122308, 5125122307, 5125122302, 5125122301, 5125122300, 8040265680, 5125122299, 5125122298, 8040265775, 5125122297, 8040265699, 5125122313, 5125122312, 8040265777, 5125122311, 5125122310, 5125122309], "tags": {"addr:city": "Waisai", "addr:country": "ID", "addr:district": "Raja Ampat", "addr:postcode": "98482", "addr:province": "Papua Barat", "amenity": "hospital", "healthcare": "hospital", "name": "RSUD Raja Ampat", "name:en": "Regional Public Hospital Raja Ampat"}}, {"type": "way", "id": 583999108, "center": {"lat": -4.1026581, "lon": 138.9504524}, "nodes": [5582915036, 5594979206, 5582915037, 5582915038, 10216809572, 1679932992, 5582915040, 5582915036], "tags": {"amenity": "hospital", "emergency": "yes", "healthcare": "hospital", "name": "RSUD Wamena", "name:en": "Wamena Public Hospital", "official_name": "Rumah Sakit Umum Daerah Jayawijaya", "source": "GPS;local knowledge"}}, {"type": "way", "id": 606104704, "center": {"lat": -4.8590495, "lon": 139.4930463}, "nodes": [5747433270, 5747433261, 9468655739, 8232157245, 8322241755, 5747433272, 5747433273, 8322241756, 5747433270], "tags": {"amenity": "hospital", "healthcare": "hospital", "name": "RSUD Dekai", "name:en": "Dekai Regional Public Hospital"}}, {"type": "way", "id": 659304740, "center": {"lat": -2.9285892, "lon": 132.2962488}, "nodes": [6172855432, 6172855431, 6175402446, 6172855430, 6172855429, 6172855428, 6183527945, 6183527946, 6183527947, 6172855427, 6172855426, 6183527803, 6172855425, 6172855424, 6172855423, 6183527949, 6183527948, 6172855422, 6172855432], "tags": {"amenity": "hospital", "healthcare": "hospital", "landuse": "commercial", "name": "RSUD Fakfak"}}, {"type": "way", "id": 702554400, "center": {"lat": -0.8726001, "lon": 134.0631808}, "nodes": [5366795987, 6597575554, 5021382242, 5021382238, 6597575555, 3306747422, 5366795987], "tags": {"addr:city": "Manokwari", "addr:postcode": "98312", "addr:street": "Jalan Serma Suwandi", "amenity": "hospital", "healthcare": "hospital", "name": "Rumah Sakit Angkatan Laut Dr. Azhar Zahir"}}, {"type": "way", "id": 787327381, "center": {"lat": -0.8697307, "lon": 131.2469083}, "nodes": [7361041790, 4972352597, 4972352598, 4972352593, 4972352595, 8245389779, 8245389778, 7361041791, 7361041785, 7361041786, 8245536276, 8245536251, 7361041788, 4972353251, 7361041789, 7361041790], "tags": {"addr:city": "Kota Sorong", "addr:housenumber": "780000", "addr:postcode": "98411", "addr:street": "Jl. Kesehatan", "amenity": "hospital", "description": "Rumah Sakit Rujukan Covid 19 di papua barat", "emergency": "yes", "healthcare": "hospital", "healthcare:speciality": "general", "name": "RUMAH SAKIT KABUPATEN SORONG", "operator": "pemerintah Kota sorong", "operator:type": "government"}}, {"type": "way", "id": 787341228, "center": {"lat": -0.8779575, "lon": 133.832336}, "nodes": [7361593482, 7361593483, 7361593484, 7361597085, 7361593482], "tags": {"addr:city": "Manokwari", "addr:postcode": "98356", "amenity": "hospital", "barrier": "fence", "emergency": "yes", "healthcare": "hospital", "healthcare:speciality": "general", "name": "Puskesmas Prafi"}}, {"type": "way", "id": 788164954, "center": {"lat": -7.9739631, "lon": 131.3081896}, "nodes": [7368957678, 7368957679, 7368957680, 7368957681, 7368957682, 7368957683, 7368957684, 7368963285, 7368963286, 7368963287, 7368963288, 7368963289, 7368963290, 7368963291, 7368963292, 7368963293, 7368963294, 7368963295, 7368963296, 7368963297, 7368963298, 9467448367, 7368963299, 7368963300, 7368957678], "tags": {"addr:city": "Kabupaten Maluku Tenggara Barat, Maluku", "addr:street": "JL. Ir. Soekarno", "amenity": "hospital", "emergency": "yes", "healthcare": "hospital", "name": "RSUD Dr. P.P Magretti Saumlaki", "phone": "(0918) 21113"}}, {"type": "way", "id": 788329592, "center": {"lat": -3.3429513, "lon": 135.5296107}, "nodes": [7370523071, 7370523072, 7370523073, 7370523074, 7370523071], "tags": {"addr:city": "Nabire", "addr:postcode": "98816", "addr:street": "Jalan RE Marthadinata", "amenity": "hospital", "healthcare": "hospital", "healthcare:speciality": "general", "name": "RSUD Nabire", "operator": "Dinas Kesehatan Kabupaten Nabire", "operator:type": "government"}}, {"type": "way", "id": 788618752, "center": {"lat": -0.8711803, "lon": 134.0789122}, "nodes": [7372965203, 7372965204, 9485452843, 7372965205, 9485452844, 9485452845, 7372965206, 9470351551, 9470351553, 9470351552, 7372965207, 7372965208, 7372965209, 7372965210, 7372965211, 9485452870, 9485452871, 7372965212, 7372965213, 7372965214, 10613578312, 7372965215, 7372965203], "tags": {"addr:city": "Manokwari", "addr:housenumber": "1", "addr:postcode": "98312", "addr:street": "Jalan Siliwangi", "amenity": "hospital", "emergency": "yes", "healthcare": "hospital", "healthcare:speciality": "general", "name": "Rumah Sakit Umum Daerah Manokwari", "operator:type": "government"}}, {"type": "way", "id": 989249479, "center": {"lat": -3.9292404, "lon": 136.377675}, "nodes": [9143404392, 9143413725, 9143404393, 9143404394, 9143404395, 9143404396, 9143404397, 9143404398, 9143404399, 9143404392], "tags": {"amenity": "hospital", "name": "Puskesmas Enarotali"}}, {"type": "way", "id": 989799495, "center": {"lat": -3.8128049, "lon": 136.4795927}, "nodes": [9147440164, 9147440165, 9147440166, 9147440167, 9147440164], "tags": {"amenity": "hospital", "building": "hospital", "name": "Puskesmas Komopa"}}, {"type": "way", "id": 990192309, "center": {"lat": -3.9509189, "lon": 136.430697}, "nodes": [9150327073, 9150327045, 9150327046, 9150327047, 9150327048, 9150327049, 9150327050, 9150327051, 9150327052, 9150327053, 9152626274, 9150327054, 9152626275, 9150327133, 9150327055, 9150327056, 9150327057, 9150327058, 9150327059, 9150327060, 9150327061, 9150327062, 9150327063, 9150327064, 9150327065, 9150327066, 9150327067, 9150327068, 9150327069, 9150327070, 9150327071, 9150327072, 9150327073], "tags": {"amenity": "hospital", "healthcare": "hospital", "name": "RSUD Paniai"}}, {"type": "way", "id": 990612489, "center": {"lat": -4.5266852, "lon": 136.8355927}, "nodes": [9153482094, 9153482093, 1248767754, 9153482092, 9153482094], "tags": {"amenity": "hospital", "name": "Rumah Sakit Mitra Masyarakat", "operator": "Yayasan Caritas Timika Papua", "website": "https://rsmitramasyarakat.com/"}}, {"type": "way", "id": 1029453749, "center": {"lat": -4.4017255, "lon": 136.8638557}, "nodes": [9491130162, 9491130163, 9491130164, 9491130165, 9491130166, 9491130167, 9491130168, 9491130169, 9491130170, 9491130162], "tags": {"amenity": "hospital", "healthcare": "hospital", "name": "Kuala Kencana Hospital"}}, {"type": "way", "id": 1112725715, "center": {"lat": -1.1772769, "lon": 136.0610568}, "nodes": [10180835110, 10180835111, 10180835112, 10180835113, 10180835110], "tags": {"amenity": "hospital", "healthcare": "hospital", "name": "Rumah Sakit TNI AL Dr Raden Gandhi Biak", "operator": "TNI AL", "operator:type": "public"}}, {"type": "way", "id": 1112725716, "center": {"lat": -1.1775005, "lon": 136.0608585}, "nodes": [10180835114, 10180835115, 10180835116, 10180924217, 10180924218, 10180924219, 10180924220, 10180924221, 10180924222, 10180924223, 10180924224, 10180924225, 10180924226, 10180924227, 10180924228, 10180924229, 10180924230, 10180924231, 10180924232, 10180924233, 10180924234, 10180924235, 10180924236, 10180924237, 10180924238, 10180924239, 10180924240, 10180924241, 10180924242, 10180924243, 10180924244, 10180924245, 10180924246, 10180924247, 10180924248, 10180924249, 10180924250, 10180924251, 10180924252, 10180924253, 10180924254, 10180924255, 10180924256, 10180924257, 10180924258, 10180835114], "tags": {"amenity": "hospital", "healthcare": "hospital", "name": "Rumah Sakit TNI AL Dr Raden Gandhi Biak", "operator": "TNI AL", "operator:type": "public"}}, {"type": "way", "id": 1164608674, "center": {"lat": -3.4752157, "lon": 134.0068629}, "nodes": [10831386219, 10831386216, 10831386217, 10831386218, 10831386219], "tags": {"amenity": "hospital", "building": "yes", "name": "Puskesmas Pembantu"}}, {"type": "way", "id": 1167672978, "center": {"lat": -2.7036398, "lon": 132.2035638}, "nodes": [10859734835, 10859734834, 10859734833, 10859734832, 10859734831, 10859734830, 10859734829, 10859734828, 10859734835], "tags": {"amenity": "hospital", "name": "Puskesmas Degen"}}, {"type": "way", "id": 1172654267, "center": {"lat": -2.0895724, "lon": 133.6613342}, "nodes": [10895496149, 10895496148, 10895496147, 10895496146, 10895496149], "tags": {"amenity": "hospital", "name": "Puskesmas Manimeri"}}, {"type": "relation", "id": 7625769, "center": {"lat": -0.8781202, "lon": 131.2601318}, "members": [{"type": "way", "ref": 529823499, "role": "outer"}, {"type": "way", "ref": 507799946, "role": "inner"}, {"type": "way", "ref": 507799945, "role": "inner"}, {"type": "way", "ref": 507799944, "role": "inner"}, {"type": "way", "ref": 507799947, "role": "inner"}], "tags": {"amenity": "hospital", "type": "multipolygon"}}, {"type": "relation", "id": 7626145, "center": {"lat": -0.8831337, "lon": 131.2748304}, "members": [{"type": "way", "ref": 529868328, "role": "outer"}, {"type": "way", "ref": 508003006, "role": "inner"}, {"type": "way", "ref": 508003003, "role": "inner"}, {"type": "way", "ref": 508003000, "role": "inner"}, {"type": "way", "ref": 508003002, "role": "inner"}, {"type": "way", "ref": 508003001, "role": "inner"}], "tags": {"addr:full": "Jl. Ahmad Yani RT 5/RW 3", "amenity": "hospital", "name": "RS TNI AL", "operator:type": "government", "type": "multipolygon"}}, {"type": "relation", "id": 7628757, "center": {"lat": -0.9028139, "lon": 131.3216804}, "members": [{"type": "way", "ref": 530178270, "role": "outer"}, {"type": "way", "ref": 508865104, "role": "inner"}, {"type": "way", "ref": 508865103, "role": "inner"}], "tags": {"addr:full": "Jl Sele Be Solu RT 01/RW 001", "amenity": "hospital", "name": "Rumah Sakit Sele Be Solu", "type": "multipolygon"}}]}