{"version": 0.6, "generator": "Overpass API 0.7.61.5 4133829e", "osm3s": {"timestamp_osm_base": "2023-10-31T20:51:35Z", "copyright": "The data included in this document is from www.openstreetmap.org. The data is made available under ODbL."}, "elements": [{"type": "node", "id": 1286233091, "lat": -5.4079805, "lon": 122.6290839, "tags": {"amenity": "hospital", "building": "yes", "building:levels": "1", "building:material": "brick", "building:structure": "confined_masonry", "building:use": "government", "designation": "Lowu-Lowu", "emergency": "no", "name": "Puskesmas Lowu-Lowu", "roof:material": "zink;asbestos", "toilet": "WC Pribadi (Dalam)", "water_source": "well"}}, {"type": "node", "id": 1314024777, "lat": -8.5542693, "lon": 125.594351, "tags": {"amenity": "hospital", "name": "National Laboratory"}}, {"type": "node", "id": 1358983655, "lat": -4.7921988, "lon": 123.0906601, "tags": {"amenity": "hospital", "name": "Puskesmas Pembantu"}}, {"type": "node", "id": 1362228728, "lat": -5.4667697, "lon": 122.6081543, "tags": {"amenity": "hospital", "healthcare": "hospital", "name": "Rumah Sakit Bakhti Medika"}}, {"type": "node", "id": 1453634668, "lat": -9.0255949, "lon": 125.9157999, "tags": {"amenity": "hospital"}}, {"type": "node", "id": 1620234325, "lat": -1.7604127, "lon": 120.6445247, "tags": {"amenity": "hospital"}}, {"type": "node", "id": 1632683067, "lat": -4.748086, "lon": 123.1769009, "tags": {"amenity": "hospital", "name": "Puskesmas Pembantu"}}, {"type": "node", "id": 1692911980, "lat": -9.8472151, "lon": 124.5490451, "tags": {"addr:city": "Kie", "addr:country": "ID", "amenity": "hospital", "emergency": "no", "health_facility:access": "public", "health_facility:type": "hospital", "medical_system:western": "yes", "name": "Puskesmas Kie", "operator": "subdistrict"}}, {"type": "node", "id": 1694286807, "lat": -9.9326747, "lon": 123.8552519, "tags": {"amenity": "hospital", "name": "Puskesmas Fatuleu Tengah"}}, {"type": "node", "id": 1734933521, "lat": -5.3243157, "lon": 122.664661, "tags": {"amenity": "hospital", "building": "yes", "building:levels": "1", "building:material": "brick", "building:structure": "tembok tampa penguat beton pertulang", "name": "Pustu Palabusa", "roof:material": "zink", "toilets": "WC pribadi (dalam rumah)", "water_source": "river"}}, {"type": "node", "id": 1738690222, "lat": -5.39767, "lon": 122.6552766, "tags": {"amenity": "hospital", "bathroom": "Public Wc /Wc Umum", "building": "yes", "building:levels": "1", "building:material": "brick", "building:structure": "confined_masonry", "building:use": "public facilities /Fasilitas Umum", "emergency": "no", "healthcare": "hospital", "name": "Pustu Kantalai", "roof:material": "zink;asbestos", "water_source": "others /lain-lain"}}, {"type": "node", "id": 1740757454, "lat": -5.430565, "lon": 122.6501001, "tags": {"amenity": "hospital", "name": "Posyandu"}}, {"type": "node", "id": 1764756133, "lat": -5.3909815, "lon": 122.6295356, "tags": {"amenity": "hospital", "bathroom": "private wc (in house) /wc pribadi (dalam rumah)", "building": "greenhouse", "building:levels": "1", "building:material": "brick", "building:structure": "reinforced_masonry", "building:use": "public facilities /fasilitas umum", "name": "Pustu Kalia-Lia", "roof:material": "zink;asbestos", "water_source": "PDMA/Fasilitas milik pemerintah"}}, {"type": "node", "id": 1768318784, "lat": -5.3966326, "lon": 122.6553748, "tags": {"amenity": "hospital", "healthcare": "hospital"}}, {"type": "node", "id": 1771576711, "lat": -5.5205076, "lon": 122.4901477, "tags": {"amenity": "hospital", "emergency": "no", "name": "Pustu", "source": "Bing"}}, {"type": "node", "id": 1775973739, "lat": -5.3905338, "lon": 122.6307601, "tags": {"amenity": "hospital", "bathroom": "private wc (in house) /wc pribadi (dalam rumah)", "building": "yes", "building:levels": "1", "building:material": "brick", "building:structure": "confined_masonry", "building:use": "public facilities /fasilitas umum", "name": "Pustu Kantalai", "roof:material": "zink;asbestos", "water_source": "PDMA/Fasilitas milik pemerintah"}}, {"type": "node", "id": 1776701678, "lat": -5.3427643, "lon": 122.7037089, "tags": {"amenity": "hospital", "bathroom": "WC Pribadi (dalam rumah)", "building": "yes", "building:levels": "1", "building:material": "brick", "building:structure": "confined_masonry", "building:use": "public facilities/fasilitas umum", "healthcare": "hospital", "name": "poskesdes", "roof:material": "tin", "water_source": "river"}}, {"type": "node", "id": 1776905134, "lat": -5.3549911, "lon": 122.6497349, "tags": {"amenity": "hospital", "building": "yes", "building:levels": "1", "building:material": "brick", "building:structure": "rangka beton bertulang", "name": "Polindes Kolagana", "roof:material": "zink", "toilets": "WC dalam rumah", "water_source": "river"}}, {"type": "node", "id": 1777614867, "lat": -8.6829941, "lon": 125.3410217, "tags": {"amenity": "hospital", "name": "Acomano", "source": "ICIST/GERTiL"}}, {"type": "node", "id": 1777614871, "lat": -8.8708937, "lon": 125.179679, "tags": {"amenity": "hospital", "name": "Centro de Sa\u00fade Adabaisalala", "source": "ICIST/GERTiL"}}, {"type": "node", "id": 1777614876, "lat": -8.5473307, "lon": 126.6004782, "tags": {"amenity": "hospital", "name": "Centro de Sa\u00fade Afaca", "source": "ICIST/GERTiL"}}, {"type": "node", "id": 1777614880, "lat": -8.6886052, "lon": 126.6699325, "tags": {"amenity": "hospital", "healthcare": "hospital", "name": "Centro de Sa\u00fade Afalocai", "source": "ICIST/GERTiL"}}, {"type": "node", "id": 1777614881, "lat": -8.7770912, "lon": 126.5622082, "tags": {"amenity": "hospital", "name": "Centro de Sa\u00fade Afaloicai", "source": "ICIST/GERTiL"}}, {"type": "node", "id": 1777614884, "lat": -8.7580191, "lon": 125.2056292, "tags": {"amenity": "hospital", "name": "Asulao-Sare", "source": "ICIST/GERTiL"}}, {"type": "node", "id": 1777614885, "lat": -8.7849798, "lon": 125.1015566, "tags": {"amenity": "hospital", "healthcare": "hospital", "name": "Atabai", "source": "ICIST/GERTiL"}}, {"type": "node", "id": 1777614888, "lat": -8.9252133, "lon": 125.3972962, "tags": {"amenity": "hospital", "name": "Centro de Sa\u00fade Atsabe", "source": "ICIST/GERTiL"}}, {"type": "node", "id": 1777614892, "lat": -8.4568407, "lon": 126.8885794, "tags": {"amenity": "hospital", "healthcare": "hospital", "name": "Centro de Sa\u00fade Baduro", "source": "ICIST/GERTiL"}}, {"type": "node", "id": 1777614896, "lat": -8.6284293, "lon": 126.6533272, "tags": {"amenity": "hospital", "healthcare": "hospital", "name": "Centro de Sa\u00fade Baguia", "source": "ICIST/GERTiL"}}, {"type": "node", "id": 1777614899, "lat": -8.9691229, "lon": 125.0413282, "tags": {"amenity": "hospital", "name": "Centro de Sa\u00fade Balib\u00f3", "source": "ICIST/GERTiL"}}, {"type": "node", "id": 1777614903, "lat": -8.8481746, "lon": 126.0638382, "tags": {"amenity": "hospital", "name": "Centro de Sa\u00fade Barique", "source": "ICIST/GERTiL"}}, {"type": "node", "id": 1777614907, "lat": -8.9522512, "lon": 124.9769484, "tags": {"amenity": "hospital", "healthcare": "hospital", "name": "Centro de Sa\u00fade Batugade", "source": "ICIST/GERTiL"}}, {"type": "node", "id": 1777614911, "lat": -9.250075, "lon": 125.0039442, "tags": {"amenity": "hospital", "name": "Centro de Sa\u00fade Belulik Lette", "source": "ICIST/GERTiL"}}, {"type": "node", "id": 1777614913, "lat": -8.7212504, "lon": 125.6787847, "tags": {"amenity": "hospital", "name": "Bereleu", "source": "ICIST/GERTiL"}}, {"type": "node", "id": 1777614914, "lat": -9.1645128, "lon": 125.7294736, "tags": {"amenity": "hospital", "healthcare": "hospital", "name": "Centtro de Sa\u00fade Betano", "source": "ICIST/GERTiL"}}, {"type": "node", "id": 1777614915, "lat": -8.7916044, "lon": 125.2473701, "tags": {"amenity": "hospital", "name": "Centro de Sa\u00fade Bilimao", "source": "ICIST/GERTiL"}}, {"type": "node", "id": 1777614916, "lat": -9.0310369, "lon": 125.3252274, "tags": {"amenity": "hospital", "name": "Centro de Sa\u00fade Bobonaro", "source": "ICIST/GERTiL"}}, {"type": "node", "id": 1777614917, "lat": -8.9119971, "lon": 126.2810126, "tags": {"amenity": "hospital", "name": "Centro de Sa\u00fade Buikarim", "source": "ICIST/GERTiL"}}, {"type": "node", "id": 1777614922, "lat": -9.134252, "lon": 125.5444349, "tags": {"amenity": "hospital", "name": "Cassa", "source": "ICIST/GERTiL"}}, {"type": "node", "id": 1777614932, "lat": -9.0280457, "lon": 125.9957252, "tags": {"amenity": "hospital", "healthcare": "hospital", "name": "Centro de Sa\u00fade Clacuc", "source": "ICIST/GERTiL"}}, {"type": "node", "id": 1777614933, "lat": -8.831003, "lon": 125.3750044, "tags": {"amenity": "hospital", "name": "Centro de Sa\u00fade Coliate Leot", "source": "ICIST/GERTiL"}}, {"type": "node", "id": 1777614935, "lat": -8.6757123, "lon": 125.9913061, "tags": {"amenity": "hospital", "healthcare": "hospital", "name": "Centro de Sa\u00fade Cribas", "source": "ICIST/GERTiL"}}, {"type": "node", "id": 1777614940, "lat": -9.0815648, "lon": 125.6874907, "tags": {"amenity": "hospital", "healthcare": "hospital", "name": "Daisua", "source": "ICIST/GERTiL"}}, {"type": "node", "id": 1777614944, "lat": -8.6574213, "lon": 125.3579108, "tags": {"amenity": "hospital", "name": "Darulete", "source": "ICIST/GERTiL"}}, {"type": "node", "id": 1777614945, "lat": -8.838813, "lon": 126.2087985, "tags": {"amenity": "hospital", "name": "Centro de Sa\u00fade Dilor", "source": "ICIST/GERTiL"}}, {"type": "node", "id": 1777614946, "lat": -8.8563686, "lon": 125.475838, "tags": {"amenity": "hospital", "name": "Centro de Sa\u00fade Ducurai", "source": "ICIST/GERTiL"}}, {"type": "node", "id": 1777614947, "lat": -8.7536657, "lon": 125.3960096, "tags": {"amenity": "hospital", "name": "Centro de Sa\u00fade Ermera", "source": "ICIST/GERTiL"}}, {"type": "node", "id": 1777614952, "lat": -8.8008188, "lon": 125.4271164, "tags": {"amenity": "hospital", "name": "Centro de Sa\u00fade Estado", "source": "ICIST/GERTiL"}}, {"type": "node", "id": 1777614955, "lat": -8.6351541, "lon": 125.5263186, "tags": {"amenity": "hospital", "name": "Centro de Sa\u00fade Fatisi", "source": "ICIST/GERTiL"}}, {"type": "node", "id": 1777614959, "lat": -8.7588973, "lon": 125.3552035, "tags": {"amenity": "hospital", "name": "Centro de sa\u00fade Fatobolu", "source": "ICIST/GERTiL"}}, {"type": "node", "id": 1777614962, "lat": -8.7503142, "lon": 125.3240529, "tags": {"amenity": "hospital", "name": "Fatubessi", "source": "ICIST/GERTiL"}}, {"type": "node", "id": 1777614966, "lat": -8.6252466, "lon": 125.38273, "tags": {"amenity": "hospital", "name": "Centro de sa\u00fade Fatumasi", "source": "ICIST/GERTiL"}}, {"type": "node", "id": 1777614969, "lat": -8.6629645, "lon": 125.7305899, "tags": {"amenity": "hospital", "name": "Faturasa", "source": "ICIST/GERTiL"}}, {"type": "node", "id": 1777614973, "lat": -9.283084, "lon": 125.0883034, "tags": {"amenity": "hospital", "name": "Centro de Sa\u00fade Fohoren", "source": "ICIST/GERTiL"}}, {"type": "node", "id": 1777614976, "lat": -9.153192, "lon": 125.3658472, "tags": {"amenity": "hospital", "name": "Centro de Sa\u00fade Gala", "source": "ICIST/GERTiL"}}, {"type": "node", "id": 1777614977, "lat": -8.892641, "lon": 125.2884823, "tags": {"amenity": "hospital", "name": "Centro de Sa\u00fade Genulai", "source": "ICIST/GERTiL"}}, {"type": "node", "id": 1777614978, "lat": -9.1200488, "lon": 125.2126293, "tags": {"amenity": "hospital", "name": "Gildapil", "source": "ICIST/GERTiL"}}, {"type": "node", "id": 1777614979, "lat": -8.7253939, "lon": 125.4367821, "tags": {"amenity": "hospital", "name": "Centro de Sa\u00fade Gleno", "source": "ICIST/GERTiL"}}, {"type": "node", "id": 1777614980, "lat": -8.7284274, "lon": 125.1532091, "tags": {"amenity": "hospital", "name": "Centro de Sa\u00fade Guico", "source": "ICIST/GERTiL"}}, {"type": "node", "id": 1777614982, "lat": -8.8116976, "lon": 125.3186928, "tags": {"amenity": "hospital", "name": "Centro de Sa\u00fade Hat\u00f3lia", "source": "ICIST/GERTiL"}}, {"type": "node", "id": 1777614990, "lat": -8.8940001, "lon": 125.5194523, "tags": {"amenity": "hospital", "name": "Centro de Sa\u00fade Hatu Builico", "source": "ICIST/GERTiL"}}, {"type": "node", "id": 1777614999, "lat": -8.6413773, "lon": 125.3212015, "tags": {"amenity": "hospital", "name": "Hatukesi", "source": "ICIST/GERTiL"}}, {"type": "node", "id": 1777615003, "lat": -9.0038061, "lon": 125.3703948, "tags": {"amenity": "hospital", "name": "Centro de Sa\u00fade Hauba", "source": "ICIST/GERTiL"}}, {"type": "node", "id": 1777615008, "lat": -8.6070917, "lon": 125.7631696, "tags": {"amenity": "hospital", "name": "Hohoroi", "source": "ICIST/GERTiL"}}, {"type": "node", "id": 1777615009, "lat": -8.9364203, "lon": 125.6304324, "tags": {"amenity": "hospital", "healthcare": "hospital", "name": "Holarua", "source": "ICIST/GERTiL"}}, {"type": "node", "id": 1777615011, "lat": -8.9642454, "lon": 126.2693022, "tags": {"amenity": "hospital", "name": "Centro de Sa\u00fade Klaralek", "source": "ICIST/GERTiL"}}, {"type": "node", "id": 1777615024, "lat": -8.4742791, "lon": 126.5969901, "tags": {"amenity": "hospital", "healthcare": "hospital", "name": "Centro de Sa\u00fade Laga", "source": "ICIST/GERTiL"}}, {"type": "node", "id": 1777615028, "lat": -8.5541346, "lon": 125.9206308, "tags": {"amenity": "hospital", "healthcare": "hospital", "name": "Lakumesac", "source": "ICIST/GERTiL"}}, {"type": "node", "id": 1777615035, "lat": -8.6564297, "lon": 126.7269875, "tags": {"amenity": "hospital", "name": "Centro de Sa\u00fade Larasolai", "source": "ICIST/GERTiL"}}, {"type": "node", "id": 1777615036, "lat": -8.5679782, "lon": 126.6843925, "tags": {"amenity": "hospital", "name": "Centro de Sa\u00fade Lavateri", "source": "ICIST/GERTiL"}}, {"type": "node", "id": 1777615037, "lat": -8.864605, "lon": 125.3184177, "tags": {"amenity": "hospital", "healthcare": "hospital", "name": "Lemeia Craic", "source": "ICIST/GERTiL"}}, {"type": "node", "id": 1777615038, "lat": -8.678781, "lon": 125.3719678, "tags": {"amenity": "hospital", "name": "Leorema", "source": "ICIST/GERTiL"}}, {"type": "node", "id": 1777615041, "lat": -8.7394657, "lon": 126.2794067, "tags": {"amenity": "hospital", "name": "Centro de Sa\u00fade Lia Ruka", "source": "ICIST/GERTiL"}}, {"type": "node", "id": 1777615043, "lat": -8.8296508, "lon": 125.7439049, "tags": {"amenity": "hospital", "name": "Liurai", "source": "ICIST/GERTiL"}}, {"type": "node", "id": 1777615065, "lat": -9.0201112, "lon": 125.7908712, "tags": {"amenity": "hospital", "name": "Mahaquidan", "source": "ICIST/GERTiL"}}, {"type": "node", "id": 1777615066, "lat": -8.9888843, "lon": 125.2180001, "tags": {"amenity": "hospital", "name": "Centro de Sa\u00fade Maliana", "source": "ICIST/GERTiL"}}, {"type": "node", "id": 1777615069, "lat": -8.9358294, "lon": 125.961478, "tags": {"amenity": "hospital", "name": "Manehat", "source": "ICIST/GERTiL"}}, {"type": "node", "id": 1777615071, "lat": -8.8015343, "lon": 125.9236297, "tags": {"amenity": "hospital", "name": "Manelima", "source": "ICIST/GERTiL"}}, {"type": "node", "id": 1777615072, "lat": -8.5552009, "lon": 125.9104235, "tags": {"amenity": "hospital", "healthcare": "hospital", "name": "Mantane", "source": "ICIST/GERTiL"}}, {"type": "node", "id": 1777615073, "lat": -8.8822511, "lon": 125.2096207, "tags": {"amenity": "hospital", "name": "Centro de Sa\u00fade Marco", "source": "ICIST/GERTiL"}}, {"type": "node", "id": 1777615074, "lat": -8.6123832, "lon": 125.2055969, "tags": {"amenity": "hospital", "name": "Centro de Sa\u00fade Maubara", "source": "ICIST/GERTiL"}}, {"type": "node", "id": 1777615080, "lat": -8.6567137, "lon": 125.2094463, "tags": {"amenity": "hospital", "name": "Centro de Sa\u00fade Maubara-Lisa", "source": "ICIST/GERTiL"}}, {"type": "node", "id": 1777615083, "lat": -8.8007114, "lon": 125.6659375, "tags": {"amenity": "hospital", "name": "Centro de Sa\u00fade Maulau", "source": "ICIST/GERTiL"}}, {"type": "node", "id": 1777615084, "lat": -8.6707768, "lon": 125.6567962, "tags": {"amenity": "hospital", "name": "Maumeta", "source": "ICIST/GERTiL"}}, {"type": "node", "id": 1777615085, "lat": -8.7484932, "lon": 125.5155242, "tags": {"amenity": "hospital", "name": "Centro de Sa\u00fade Maurussa", "source": "ICIST/GERTiL"}}, {"type": "node", "id": 1777615092, "lat": -8.3588091, "lon": 126.9340398, "tags": {"amenity": "hospital", "healthcare": "hospital", "name": "Centro de Sa\u00fade Moro", "source": "ICIST/GERTiL"}}, {"type": "node", "id": 1777615096, "lat": -8.9902764, "lon": 125.3233641, "tags": {"amenity": "hospital", "name": "Morobo", "source": "ICIST/GERTiL"}}, {"type": "node", "id": 1777615103, "lat": -8.5964158, "lon": 125.4031442, "tags": {"amenity": "hospital", "name": "Motaulun", "source": "ICIST/GERTiL"}}, {"type": "node", "id": 1777615104, "lat": -8.7145085, "lon": 125.6480319, "tags": {"amenity": "hospital", "name": "Nameleso", "source": "ICIST/GERTiL"}}, {"type": "node", "id": 1777615105, "lat": -9.2254293, "lon": 125.2138867, "tags": {"amenity": "hospital", "name": "Olpilat", "source": "ICIST/GERTiL"}}, {"type": "node", "id": 1777615110, "lat": -8.7487625, "lon": 125.9090235, "tags": {"amenity": "hospital", "name": "Orlalan", "source": "ICIST/GERTiL"}}, {"type": "node", "id": 1777615114, "lat": -8.7535649, "lon": 126.4427017, "tags": {"amenity": "hospital", "name": "Centro de Sa\u00fade Ossu Rua", "source": "ICIST/GERTiL"}}, {"type": "node", "id": 1777615120, "lat": -8.5997164, "lon": 126.5590402, "tags": {"amenity": "hospital", "healthcare": "hospital", "name": "Centro de Sa\u00fade Quelicai", "source": "ICIST/GERTiL"}}, {"type": "node", "id": 1777615128, "lat": -8.9700997, "lon": 125.2938645, "tags": {"amenity": "hospital", "name": "Centro de Sa\u00fade Raheu", "source": "ICIST/GERTiL"}}, {"type": "node", "id": 1777615129, "lat": -8.6760287, "lon": 125.4207544, "tags": {"amenity": "hospital", "healthcare": "hospital", "name": "Centro de S\u00e1ude Railako", "source": "ICIST/GERTiL"}}, {"type": "node", "id": 1777615132, "lat": -8.8142386, "lon": 125.1560735, "tags": {"amenity": "hospital", "name": "Centro de Sa\u00fade Rairoco", "source": "ICIST/GERTiL"}}, {"type": "node", "id": 1777615134, "lat": -8.9368764, "lon": 126.1542395, "tags": {"amenity": "hospital", "name": "Centro de Sa\u00fade SP 3", "source": "ICIST/GERTiL"}}, {"type": "node", "id": 1777615136, "lat": -8.5186424, "lon": 126.6913025, "tags": {"amenity": "hospital", "healthcare": "hospital", "name": "Centro de Sa\u00fade Sagatate", "source": "ICIST/GERTiL"}}, {"type": "node", "id": 1777615138, "lat": -9.0094036, "lon": 125.6480913, "tags": {"amenity": "hospital", "healthcare": "hospital", "name": "Centro de Sa\u00fade Same", "source": "ICIST/GERTiL"}}, {"type": "node", "id": 1777615148, "lat": -8.8592772, "lon": 125.9388177, "tags": {"amenity": "hospital", "name": "Centro de Sa\u00fade Samoro", "source": "ICIST/GERTiL"}}, {"type": "node", "id": 1777615152, "lat": -8.7095809, "lon": 125.5222932, "tags": {"amenity": "hospital", "name": "Centro de Sa\u00fade Seloi Kraik", "source": "ICIST/GERTiL"}}, {"type": "node", "id": 1777615156, "lat": -9.0850668, "lon": 125.3334734, "tags": {"amenity": "hospital", "name": "Centro de Sa\u00fade Sibuni", "source": "ICIST/GERTiL"}}, {"type": "node", "id": 1777615159, "lat": -9.1017261, "lon": 125.7819988, "tags": {"amenity": "hospital", "name": "Taitudak", "source": "ICIST/GERTiL"}}, {"type": "node", "id": 1777615160, "lat": -9.2003663, "lon": 125.1798599, "tags": {"amenity": "hospital", "name": "Centro de Sa\u00fade Taroman", "source": "ICIST/GERTiL"}}, {"type": "node", "id": 1777615162, "lat": -8.3937817, "lon": 127.255486, "tags": {"amenity": "hospital", "name": "Centro de Sa\u00fade Tutuala", "source": "ICIST/GERTiL"}}, {"type": "node", "id": 1777615163, "lat": -8.9859539, "lon": 125.6932345, "tags": {"amenity": "hospital", "name": "Tutuluro", "source": "ICIST/GERTiL"}}, {"type": "node", "id": 1777615167, "lat": -8.7394102, "lon": 126.4601286, "tags": {"amenity": "hospital", "name": "Centro de Sa\u00fade Uai Bobo", "source": "ICIST/GERTiL"}}, {"type": "node", "id": 1777615168, "lat": -8.7483566, "lon": 126.6969161, "tags": {"amenity": "hospital", "name": "Centro de Sa\u00fade Uato Carb", "source": "ICIST/GERTiL"}}, {"type": "node", "id": 1777615169, "lat": -8.8220654, "lon": 126.5327476, "tags": {"amenity": "hospital", "name": "Centro de Sa\u00fade Uatolari", "source": "ICIST/GERTiL"}}, {"type": "node", "id": 1777615173, "lat": -8.5714794, "lon": 126.3363067, "tags": {"amenity": "hospital", "name": "Centro de Sa\u00fade Uatulari", "source": "ICIST/GERTiL"}}, {"type": "node", "id": 1777615176, "lat": -8.5738722, "lon": 125.4564405, "tags": {"amenity": "hospital", "healthcare": "hospital", "name": "Ulmera", "source": "ICIST/GERTiL"}}, {"type": "node", "id": 1777615184, "lat": -8.9767856, "lon": 126.0438182, "tags": {"amenity": "hospital", "healthcare": "hospital", "name": "Centro de Sa\u00fade Umaboco", "source": "ICIST/GERTiL"}}, {"type": "node", "id": 1777615185, "lat": -8.6425142, "lon": 126.379395, "tags": {"amenity": "hospital", "healthcare": "hospital", "name": "Centro de Sa\u00fade Venilale", "source": "ICIST/GERTiL"}}, {"type": "node", "id": 1777615195, "lat": -8.5117301, "lon": 126.2121687, "tags": {"amenity": "hospital", "healthcare": "hospital", "name": "Vermasse", "source": "ICIST/GERTiL"}}, {"type": "node", "id": 1777615196, "lat": -8.854292, "lon": 126.3660546, "tags": {"amenity": "hospital", "healthcare": "hospital", "name": "Viqueque", "source": "ICIST/GERTiL"}}, {"type": "node", "id": 1777615197, "lat": -9.1566985, "lon": 125.4501199, "tags": {"amenity": "hospital", "name": "Zumalai", "source": "ICIST/GERTiL"}}, {"type": "node", "id": 1779996418, "lat": -5.4081361, "lon": 122.6289103, "tags": {"amenity": "hospital", "building": "yes", "building:levels": "1", "building:use": "Kesehatan", "dispensing": "no", "name": "Posyandu", "roof:material": "zink;asbestos", "toilets": "wc pribadi(luar rumah)"}}, {"type": "node", "id": 1811387236, "lat": -8.6247069, "lon": 120.0504871, "tags": {"addr:city": "Rekas", "addr:housename": "Puskesmas Rekas", "amenity": "hospital", "designation": "Puskesmas", "dispensing": "yes", "emergency": "no", "name": "Puskesmas Rekas", "source": "Bing"}}, {"type": "node", "id": 1812324715, "lat": -8.7074566, "lon": 120.1692807, "tags": {"amenity": "hospital", "name": "Puskesmas Lembor"}}, {"type": "node", "id": 1845092359, "lat": -8.6093318, "lon": 120.4430262, "tags": {"amenity": "hospital", "designation": "Puskesmas Pembantu", "emergency": "no", "name": "Puskesmas Pembantu Taga", "source": "Bing"}}, {"type": "node", "id": 1845132373, "lat": -8.5903496, "lon": 120.375188, "tags": {"amenity": "hospital", "designation": "Rumah Sakit", "emergency": "yes", "name": "RS St.Rafael-Cancar", "source": "Bing"}}, {"type": "node", "id": 1998371153, "lat": -2.5225482, "lon": 121.352567, "tags": {"amenity": "hospital", "emergency": "yes", "name": "PUSKESMAS PLUS"}}, {"type": "node", "id": 2099306357, "lat": -5.4062554, "lon": 122.6243863, "tags": {"amenity": "hospital", "building": "yes", "clinic:type_id": "puskesdes", "name": "Polindes Kolese"}}, {"type": "node", "id": 2172833158, "lat": -9.7802957, "lon": 120.2649379, "tags": {"amenity": "hospital", "name": "Pustu Maradamundi"}}, {"type": "node", "id": 2172833159, "lat": -9.7743564, "lon": 120.246044, "tags": {"amenity": "hospital", "name": "Pustu"}}, {"type": "node", "id": 2240534883, "lat": -9.8232793, "lon": 120.2497584, "tags": {"amenity": "hospital", "name": "Puskesmas Kambata Mapambuhang"}}, {"type": "node", "id": 2282808899, "lat": -8.5847617, "lon": 120.0468549, "tags": {"amenity": "hospital", "designation": "Puskesmas Pembantu", "emergency": "no", "name": "Pustu Noa", "source": "Bing"}}, {"type": "node", "id": 2286678343, "lat": -9.693611, "lon": 120.0622358, "tags": {"amenity": "hospital", "name": "Pustu Makamenggit"}}, {"type": "node", "id": 2330333169, "lat": -9.9360246, "lon": 120.2461885, "tags": {"amenity": "hospital", "name": "Polindes Mahu"}}, {"type": "node", "id": 2337767716, "lat": -5.4198711, "lon": 122.6518916, "tags": {"amenity": "hospital", "clinic:type_id": "puskesmas", "healthcare": "hospital", "name": "Puskesmas Lakologou"}}, {"type": "node", "id": 2344844715, "lat": -5.3982603, "lon": 122.673931, "tags": {"amenity": "hospital", "healthcare": "hospital", "name": "Polindes Waliabuku"}}, {"type": "node", "id": 2345096693, "lat": -5.3942572, "lon": 122.6786965, "tags": {"amenity": "hospital", "healthcare": "hospital", "name": "Poskesdes Waliabuku"}}, {"type": "node", "id": 2620518432, "lat": -8.8311033, "lon": 121.6687718, "tags": {"addr:city": "Ende", "addr:housename": "Belakang RSU Ende", "amenity": "hospital", "emergency": "no", "name": "drg Maria O.B. Riwu", "opening_hours": "17:00 - 19:00"}}, {"type": "node", "id": 2629436993, "lat": -8.8331379, "lon": 121.668248, "tags": {"amenity": "hospital", "name": "RSUD Ende"}}, {"type": "node", "id": 2828277446, "lat": -8.4331295, "lon": 123.1633635, "tags": {"amenity": "hospital", "name": "Puskesmas Lamakera"}}, {"type": "node", "id": 2879718359, "lat": -3.9988865, "lon": 122.5204229, "tags": {"amenity": "hospital", "healthcare": "hospital"}}, {"type": "node", "id": 2997593818, "lat": -9.6492248, "lon": 120.2628639, "tags": {"amenity": "hospital", "healthcare": "hospital", "name": "Puskesmas Waingapu"}}, {"type": "node", "id": 3036351674, "lat": -8.3157292, "lon": 123.0152054, "tags": {"amenity": "hospital", "building": "hospital", "name": "RSUD Larantuka"}}, {"type": "node", "id": 3037104767, "lat": -5.4582802, "lon": 122.6128199, "tags": {"amenity": "hospital", "healthcare": "hospital", "name": "RS Bhayangkari"}}, {"type": "node", "id": 3052748877, "lat": -4.5288802, "lon": 129.8984664, "tags": {"amenity": "hospital", "emergency": "yes", "is_in:country": "Indonesia", "is_in:state": "Maluku", "name": "hospital"}}, {"type": "node", "id": 3116448422, "lat": -4.795346, "lon": 122.0582246, "tags": {"amenity": "hospital", "name": "RSUD Bombana"}}, {"type": "node", "id": 3253091464, "lat": -5.7764165, "lon": 123.8953581, "tags": {"amenity": "hospital", "emergency": "yes", "name": "Wakatobi Medical Room", "note": "Defibrillator available on the outside of the building.", "operator": "Wakatobi Resort"}}, {"type": "node", "id": 4038329074, "lat": -4.990867, "lon": 122.7921759, "tags": {"amenity": "hospital", "emergency": "yes", "name": "Puskesmas Pembantu Ds. Mataindaha"}}, {"type": "node", "id": 4188634590, "lat": -9.2118308, "lon": 124.3381287, "tags": {"amenity": "hospital", "healthcare": "hospital", "name": "Centro de Sa\u00fade Enf. Domingos da Costa Kiu Maunteko"}}, {"type": "node", "id": 4209198680, "lat": -4.1384776, "lon": 120.032695, "tags": {"amenity": "hospital", "name": "Klinik Prima Husada"}}, {"type": "node", "id": 4677039938, "lat": -8.2306926, "lon": 123.7141375, "tags": {"amenity": "hospital", "name": "Puskesmas"}}, {"type": "node", "id": 4822958019, "lat": -8.6176185, "lon": 120.4671426, "tags": {"amenity": "hospital"}}, {"type": "node", "id": 4989131940, "lat": -4.9563913, "lon": 122.4268073, "tags": {"addr:city": "Wakobalu Agung", "addr:postcode": "93664", "addr:street": "Poros SPA", "amenity": "hospital", "name": "Puskesmas Kabangka", "operator": "Pemerintah"}}, {"type": "node", "id": 5225733660, "lat": -8.6311976, "lon": 125.7308006, "tags": {"amenity": "hospital", "healthcare": "hospital", "name": "Centru Saude Tulataqeu"}}, {"type": "node", "id": 5395107821, "lat": -8.5544028, "lon": 125.5680697, "tags": {"amenity": "hospital", "healthcare": "hospital", "name": "Stanford medical center"}}, {"type": "node", "id": 5529612065, "lat": -8.3907292, "lon": 123.4090365, "tags": {"addr:city": "Waikomo", "addr:postcode": "86261", "addr:street": "Jl. R.S. Bukit Kel. Lewoleba Barat", "amenity": "hospital", "emergency": "yes", "healthcare": "hospital", "name": "Rumah Sakit Bukit", "operator": "Keuskupan Larantuka"}}, {"type": "node", "id": 5568149521, "lat": -9.2037191, "lon": 124.3732396, "tags": {"amenity": "hospital", "name": "Hospital Referal de O\u00e9-Cusse"}}, {"type": "node", "id": 5593434713, "lat": -8.6036656, "lon": 126.6656881, "tags": {"amenity": "hospital", "healthcare": "hospital", "name": "Postu Saude Suco Samalari"}}, {"type": "node", "id": 5717171587, "lat": -5.4002054, "lon": 122.6670326, "tags": {"amenity": "hospital", "bathroom": "WC Pribadi (Dalam rumah)", "building": "yes", "building:levels": "1", "building:material": "brick", "building:structure": "reinforced_masonry", "building:use": "public facilities/Fasilitas Umum", "healthcare": "hospital", "name": "Puskesmas Bungi", "roof:material": "zink;asbestos", "water_source": "Lain-lain"}}, {"type": "node", "id": 5768792762, "lat": -8.7258928, "lon": 121.9947222, "tags": {"amenity": "hospital", "hazard_prone": "no", "name": "RS Mini Masebewa"}}, {"type": "node", "id": 6880159184, "lat": -8.6538616, "lon": 126.5346664, "tags": {"addr:city": "Baucau", "addr:postcode": "3345", "addr:street": "Estrada", "amenity": "hospital", "emergency": "yes", "healthcare": "hospital", "healthcare:speciality": "general", "name": "CENTRO SAUDE DE LAISOROLAI"}}, {"type": "node", "id": 7005482537, "lat": -2.8121668, "lon": 120.4326389, "tags": {"addr:postcode": "92953", "addr:street": "Jalan Poros Tokke", "amenity": "hospital", "emergency": "yes", "healthcare": "hospital", "name": "Poskesdes Desa Tokke"}}, {"type": "node", "id": 7103600236, "lat": -8.4636209, "lon": 126.4604131, "tags": {"amenity": "hospital", "healthcare": "hospital", "name": "Hospital Referal Baucau"}}, {"type": "node", "id": 7175082772, "lat": -0.6344536, "lon": 127.5259728, "tags": {"amenity": "hospital", "healthcare": "hospital", "name": "Rumah Sakit Marabose"}}, {"type": "node", "id": 7183396868, "lat": -8.707712, "lon": 120.1684682, "tags": {"amenity": "hospital", "name": "Puskemas Wae Nakeng"}}, {"type": "node", "id": 7362238881, "lat": -1.9724578, "lon": 121.337201, "tags": {"amenity": "hospital", "healthcare": "hospital", "name": "RSU Kolonodale"}}, {"type": "node", "id": 7362541759, "lat": -0.9344846, "lon": 122.8220594, "tags": {"amenity": "hospital", "healthcare": "hospital", "name": "RSUD Kab. Banggal Luwuk"}}, {"type": "node", "id": 7398764024, "lat": -0.9334816, "lon": 122.8234893, "tags": {"amenity": "hospital", "healthcare": "hospital"}}, {"type": "node", "id": 7432029137, "lat": -4.5385028, "lon": 120.3299113, "tags": {"addr:city": "Watampone", "addr:postcode": "92712", "addr:street": "Manurunge, Tanete Riattang, Kabupaten Bone, Sulawesi Selatan", "amenity": "hospital", "emergency": "yes", "healthcare": "hospital", "healthcare:speciality": "clinic", "name": "Klinik Ayu Medika", "phone": "+6248125760"}}, {"type": "node", "id": 7495009759, "lat": -3.9696742, "lon": 122.5746643, "tags": {"amenity": "hospital", "healthcare": "hospital", "name": "RUMAH SAKIT SANTA ANNA"}}, {"type": "node", "id": 7729975932, "lat": -8.7256786, "lon": 125.5655011, "tags": {"addr:city": "Malere", "addr:street": "Estrada Aileu - D\u00edli", "amenity": "hospital", "emergency": "yes", "healthcare": "hospital", "healthcare:speciality": "general", "name": "Sentru Saude Munisipiu Aileu", "operator": "Governu", "operator:type": "government"}}, {"type": "node", "id": 7729975938, "lat": -8.7348625, "lon": 125.5632346, "tags": {"addr:city": "Kabasfatin", "addr:street": "Kabasfatin-uma sanulu", "amenity": "hospital", "healthcare": "hospital", "healthcare:speciality": "general", "name": "Klinika Uma Ita Nian", "operator": "Marry knoll", "operator:type": "community"}}, {"type": "node", "id": 7880677881, "lat": -1.2827187, "lon": 122.553843, "tags": {"amenity": "hospital", "healthcare": "hospital", "name": "Puskesmas Batui"}}, {"type": "node", "id": 7939282441, "lat": -4.5409941, "lon": 120.334281, "tags": {"addr:city": "Watampone", "addr:postcode": "92712", "addr:street": "TA, Tanete Riattang, Kabupaten Bone, Sulawesi Selatan", "amenity": "hospital", "healthcare": "hospital", "name": "Klinik Madani", "phone": "+6248128634"}}, {"type": "node", "id": 7939282464, "lat": -4.541987, "lon": 120.3391943, "tags": {"addr:city": "Watampone", "addr:postcode": "92712", "addr:street": "Jl. Yos Sudarso, Manurunge, Tanete Riattang, Kabupaten Bone, Sulawesi Selatan", "amenity": "hospital", "healthcare": "hospital", "healthcare:speciality": "clinic", "name": "Klinik Hapsah"}}, {"type": "node", "id": 7941205150, "lat": -1.3396526, "lon": 122.5003479, "tags": {"amenity": "hospital", "healthcare": "hospital", "name": "Polindes Desa"}}, {"type": "node", "id": 8008936194, "lat": -3.6292771, "lon": 120.9829165, "tags": {"amenity": "hospital", "healthcare": "hospital"}}, {"type": "node", "id": 8480114206, "lat": -8.3786046, "lon": 123.4121188, "tags": {"amenity": "hospital", "emergency": "yes", "healthcare": "hospital", "healthcare:speciality": "general", "name": "Rumah Sakit St. Damian"}}, {"type": "node", "id": 8904720654, "lat": -2.6116203, "lon": 120.5701216, "tags": {"addr:city": "Desa Patila", "addr:postcode": "92967", "addr:street": "Jl. Poros Masamba Tomoni", "amenity": "hospital", "healthcare": "hospital", "name": "PUSKESMAS TANA LILI"}}, {"type": "node", "id": 8978552273, "lat": -3.970304, "lon": 122.5847015, "tags": {"amenity": "hospital", "healthcare": "hospital", "name": "Puskesmas Kandai"}}, {"type": "node", "id": 9045425781, "lat": -3.0263652, "lon": 120.2091926, "tags": {"amenity": "hospital", "healthcare": "hospital", "name": "Puskesmas Wara Selatan"}}, {"type": "node", "id": 9070661022, "lat": -2.5830231, "lon": 120.8021064, "tags": {"amenity": "hospital", "healthcare": "hospital", "name": "RSUD I LAGALIGO"}}, {"type": "node", "id": 9838376537, "lat": -3.977844, "lon": 122.5270875, "tags": {"amenity": "hospital", "healthcare": "hospital", "name": "RSU Aliyah II"}}, {"type": "node", "id": 9872631614, "lat": -4.0789307, "lon": 121.6102844, "tags": {"amenity": "hospital", "healthcare": "hospital", "name": "RSU Kolaka"}}, {"type": "node", "id": 9880229500, "lat": -4.0535496, "lon": 121.5963333, "tags": {"amenity": "hospital", "healthcare": "hospital", "name": "RS Benyamin Guluh"}}, {"type": "node", "id": 9882697170, "lat": -9.3456937, "lon": 125.2706873, "tags": {"amenity": "hospital", "healthcare": "hospital", "name": "Sentru Saude de Suku", "operator": "Governo Ministro Saude", "operator:type": "government"}}, {"type": "node", "id": 9892534713, "lat": -4.0185759, "lon": 122.499927, "tags": {"amenity": "hospital", "healthcare": "hospital", "name": "RS Hermina Kendari"}}, {"type": "node", "id": 9899032500, "lat": -3.9985717, "lon": 122.5470268, "tags": {"amenity": "hospital", "healthcare": "hospital", "name": "RSU Aliyah 1"}}, {"type": "node", "id": 10160788321, "lat": -8.6755377, "lon": 125.991444, "tags": {"amenity": "hospital", "healthcare": "hospital"}}, {"type": "node", "id": 10268897443, "lat": -8.8338722, "lon": 125.5986946, "tags": {"addr:city": "Maubisse", "amenity": "hospital", "description": "Hospital Referal Maubisse", "emergency": "yes", "healthcare": "hospital", "healthcare:speciality": "general", "name": "Hospital Referal Maubisse", "source": "osm notes"}}, {"type": "node", "id": 10816045714, "lat": -8.5622494, "lon": 126.8227679, "tags": {"amenity": "hospital", "healthcare": "hospital", "name": "Semiterio de  Hamatebar"}}, {"type": "node", "id": 10816045715, "lat": -8.5636512, "lon": 126.8207664, "tags": {"amenity": "hospital", "healthcare": "hospital", "name": "Rua semiterio de Layomar"}}, {"type": "node", "id": 10816045716, "lat": -8.5657878, "lon": 126.8195772, "tags": {"amenity": "hospital", "healthcare": "hospital", "name": "Semiterio de Hianafa"}}, {"type": "node", "id": 10816045741, "lat": -8.5731494, "lon": 126.8018865, "tags": {"amenity": "hospital", "healthcare": "hospital", "name": "Semiterio de Hai- hopan"}}, {"type": "node", "id": 10821970484, "lat": -8.5658519, "lon": 126.8158374, "tags": {"amenity": "hospital", "healthcare": "hospital", "name": "Calvario de Estasaun Baricafa"}}, {"type": "node", "id": 10901309677, "lat": -5.4703911, "lon": 122.5864621, "tags": {"amenity": "hospital", "emergency": "yes", "healthcare": "hospital", "name": "RS. Bhakti Husada"}}, {"type": "node", "id": 11036660905, "lat": -5.7760952, "lon": 123.9318165, "tags": {"addr:postcode": "93797", "amenity": "hospital", "name": "Puskesamas Usuku", "name:en": "Indonesia", "name:hi": "Puskesmas Usuku"}}, {"type": "node", "id": 11046274742, "lat": -2.5935626, "lon": 120.4638608, "tags": {"amenity": "hospital", "name": "RS Hikmah Sukamaju"}}, {"type": "node", "id": 11075029463, "lat": -8.3755171, "lon": 126.8901592, "tags": {"amenity": "hospital", "healthcare": "hospital", "name": "Ponte Veukoco"}}, {"type": "way", "id": 121774415, "center": {"lat": -5.4829867, "lon": 122.5925886}, "nodes": [1362228715, 7373930727, 7472074653, 1362228492, 7373930743, 7472074656, 7472074631, 1362228567, 1362228673, 1362228415, 1500717008, 1362228715], "tags": {"addr:city": "Baubau", "addr:housenumber": "93724", "addr:postcode": "93724", "amenity": "hospital", "barrier": "fence", "emergency": "yes", "healthcare": "hospital", "healthcare:speciality": "general", "name": "RSUD Kota Baubau"}}, {"type": "way", "id": 150022912, "center": {"lat": -8.8360669, "lon": 125.5981933}, "nodes": [1629629271, 1629629047, 1629629155, 1629629203, 1629629463, 1629629414, 1629629362, 1629629140, 1629629271], "tags": {"amenity": "hospital", "building": "yes", "healthcare": "hospital", "name": "Centro de Sa\u00fade Maubisse", "source": "ICIST/GERTiL"}}, {"type": "way", "id": 150299355, "center": {"lat": -4.5118745, "lon": 122.8855138}, "nodes": [1632311406, 1632311412, 1632311408, 9495676374, 1632311405, 1632311406], "tags": {"amenity": "hospital", "healthcare": "hospital", "name": "Puskesmas Labaraga"}}, {"type": "way", "id": 166307930, "center": {"lat": -8.6034719, "lon": 125.5937949}, "nodes": [1777615200, 1777615202, 1777615206, 1777615207, 1777615209, 1777615205, 1777615203, 1777615201, 1777615204, 1777615199, 1777615198, 1777615200], "tags": {"amenity": "hospital", "building": "yes", "name": "Kotalau", "source": "ICIST/GERTiL"}}, {"type": "way", "id": 166307931, "center": {"lat": -8.6215566, "lon": 125.7228189}, "nodes": [1777615232, 1777615230, 1777615229, 1777615231, 1777615232], "tags": {"amenity": "hospital", "building": "yes", "name": "Tulatakeu", "source": "ICIST/GERTiL"}}, {"type": "way", "id": 166308072, "center": {"lat": -9.3952575, "lon": 125.1656809}, "nodes": [1777627744, 1777627747, 1777627734, 1777627728, 1777627744], "tags": {"amenity": "hospital", "building": "yes", "emergency": "no", "name": "Centro Sa\u00fade Salele", "source": "ICIST/GERTiL"}}, {"type": "way", "id": 166624957, "center": {"lat": -8.8241583, "lon": 125.7069361}, "nodes": [1780620314, 1780620285, 1780620282, 1780620311, 1780620314], "tags": {"amenity": "hospital", "building": "yes", "healthcare": "hospital", "name": "Centro de Sa\u00fade Caimau", "source": "ICIST/GERTiL"}}, {"type": "way", "id": 166628410, "center": {"lat": -8.9091778, "lon": 125.5849206}, "nodes": [1780655306, 1780655300, 1780655299, 1780655305, 1780655306], "tags": {"amenity": "hospital", "building": "yes", "healthcare": "hospital", "name": "Centro de Sa\u00fade Hautio", "source": "ICIST/GERTiL"}}, {"type": "way", "id": 166971859, "center": {"lat": -8.597874, "lon": 125.3317268}, "nodes": [1783611735, 1783611736, 1783611738, 1783611737, 1783611742, 1783611743, 1783611745, 1783611744, 1783611741, 1783611740, 1783611739, 1783611732, 1783611734, 1783611733, 1783611735], "tags": {"amenity": "hospital", "building": "yes", "name": "Centro de Sa\u00fade Liqui\u00e7\u00e1"}}, {"type": "way", "id": 166971861, "center": {"lat": -8.5979014, "lon": 125.3317597}, "nodes": [1783611742, 1783611737, 1783611738, 1783611743, 1783611742], "tags": {"amenity": "hospital", "building": "yes"}}, {"type": "way", "id": 166989948, "center": {"lat": -9.1264911, "lon": 125.5914272}, "nodes": [1783796496, 1783796490, 1783796492, 1783796494, 1783796500, 1783796506, 1783796504, 1783796501, 1783796498, 1783796496], "tags": {"amenity": "hospital", "building": "yes", "healthcare": "hospital", "name": "Centro de Sa\u00fade Hatu-Udo"}}, {"type": "way", "id": 167143717, "center": {"lat": -8.3991308, "lon": 127.1890126}, "nodes": [1785457453, 1785457452, 1785457449, 1785457451, 1785457453], "tags": {"amenity": "hospital", "building": "yes", "healthcare": "hospital", "healthcare:speciality": "general", "name": "Centro de Sa\u00fade Mehara", "operator:type": "public", "source": "ICIST/GERTiL"}}, {"type": "way", "id": 167365445, "center": {"lat": -8.5549841, "lon": 125.592879}, "nodes": [1787626099, 1787625993, 1787625956, 1787630823, 1787626066, 1787626099], "tags": {"amenity": "hospital", "building": "yes", "name": "Hospital de D\u00edli"}}, {"type": "way", "id": 169051684, "center": {"lat": -8.8460706, "lon": 125.3910396}, "nodes": [1802249389, 1802249391, 1802249364, 1802249360, 1802249374, 1802249389], "tags": {"amenity": "hospital", "building": "yes", "name": "Centro de Sa\u00fade Hatugau", "source": "ICIST/GERTiL"}}, {"type": "way", "id": 169784879, "center": {"lat": -9.2038666, "lon": 124.3733328}, "nodes": [1809447530, 1809447532, 1809447512, 1809447510, 1809447507, 1809447506, 1809447498, 1809447500, 1809447486, 1809447485, 1809447484, 1809447483, 1809447488, 1809447487, 1809447490, 1809447491, 1809447496, 1809447497, 1809447504, 1809447495, 1809447489, 1809447508, 1809447518, 11160727575, 11100511626, 11100511627, 11100511628, 11100511629, 11100511630, 11100511631, 11100511632, 11100511633, 11100511634, 11100511635, 11160727577, 11100511637, 11100511638, 11100511639, 11100511640, 11100511641, 11100511642, 11100511643, 11100511644, 11100511645, 11100511646, 11100511647, 11100511648, 11160727572, 11160727573, 11100511649, 11100511650, 11100511651, 11100511652, 11100511653, 11100511620, 11100511621, 11100511622, 11100511623, 11160727574, 11100511595, 1809447523, 1809447524, 1809447530], "tags": {"addr:full": "Pante Macassar, Costa", "amenity": "hospital", "building": "yes", "building:condition": "good", "building:levels": "1", "building:material": "cement_block", "building:state_of_the_house": "permanent", "capacity:persons": "300-500", "evacuation_centre": "yes", "healthcare": "hospital", "min_height": "0.3", "name": "Ospital Referal", "operator:type": "public", "roof:material": "metal", "toilets:wheelchair": "yes", "wheelchair:description": "ramp"}}, {"type": "way", "id": 169954799, "center": {"lat": -5.4357067, "lon": 122.6272484}, "nodes": [1811013056, 1811013063, 1811013067, 1811013057, 1811013056], "tags": {"amenity": "hospital", "clinic:type_id": "puskesmas", "healthcare": "hospital", "name": "Puskesmas Liwuto"}}, {"type": "way", "id": 170486624, "center": {"lat": -8.8360174, "lon": 125.431058}, "nodes": [1816308273, 1816308142, 1816308119, 1816308160, 1816308193, 1816308263, 1816308273], "tags": {"amenity": "hospital", "building": "yes", "name": "Centro de Sa\u00fade Letefoho", "source": "ICIST/GERTiL"}}, {"type": "way", "id": 173746106, "center": {"lat": -8.6179786, "lon": 120.4671569}, "nodes": [1845092353, 7873424909, 1845092327, 1845092340, 1845092328, 5665771173, 1845092341, 5665771175, 5665771174, 1845092355, 1845092362, 7357495780, 2090454531, 1845092338, 1845092361, 1845092363, 1845092336, 1845092353], "tags": {"amenity": "hospital", "designation": "Rumah Sakit", "emergency": "yes", "name": "RSUD Ruteng", "source": "Bing"}}, {"type": "way", "id": 173819009, "center": {"lat": -5.4624576, "lon": 122.6021675}, "nodes": [1845787796, 9470255240, 1845788892, 1845788104, 9470255221, 9470255222, 9470255220, 1845788209, 1845787796], "tags": {"amenity": "hospital", "healthcare": "hospital", "name": "RSU Murhum"}}, {"type": "way", "id": 174297575, "center": {"lat": -9.4585974, "lon": 120.045669}, "nodes": [1849818959, 1849818949, 1849818947, 1849818957, 1849818959], "tags": {"amenity": "hospital", "building": "yes", "name": "Pustu Praibakul"}}, {"type": "way", "id": 174424350, "center": {"lat": -9.8135312, "lon": 120.2644224}, "nodes": [1851209381, 1851209379, 1851209385, 1851209389, 1851209381], "tags": {"amenity": "hospital", "building": "yes", "clinic:type_id": "pustu", "name": "Pustu Maimbidi", "operator": "Posyandu Tanganan I"}}, {"type": "way", "id": 174499713, "center": {"lat": -9.6936202, "lon": 120.0622332}, "nodes": [1851732792, 1851732784, 1851732783, 1851732791, 1851732792], "tags": {"amenity": "hospital", "building": "hospital", "name": "Pustu"}}, {"type": "way", "id": 180790392, "center": {"lat": -3.6960099, "lon": 128.1817023}, "nodes": [1912549335, 1912549363, 1912549370, 1912549395, 1912549366, 1912549329, 1912549335], "tags": {"amenity": "hospital", "healthcare": "hospital", "name": "Rumah Sakit Sumber Hidup (GPM"}}, {"type": "way", "id": 185391484, "center": {"lat": -5.6094034, "lon": 122.5994683}, "nodes": [1959915783, 9504282960, 9504282964, 9504282965, 9504282961, 9504282962, 9504282966, 9504282967, 9504282963, 1959915788, 1959915778, 1959915768, 1959915773, 1959915775, 1959915784, 1959915779, 9504282956, 9504282959, 9504282958, 9504282954, 9504282957, 9504282955, 1959915783], "tags": {"amenity": "hospital", "building": "yes", "healthcare": "hospital"}}, {"type": "way", "id": 189315483, "center": {"lat": -8.5849025, "lon": 120.0465574}, "nodes": [1999576293, 10613525585, 10613525586, 1999576300, 1999576288, 1999576295, 1999576293], "tags": {"amenity": "hospital", "designation": "Polindes", "emergency": "no", "source": "Bing"}}, {"type": "way", "id": 189632850, "center": {"lat": -9.6662996, "lon": 120.2463564}, "nodes": [5195632983, 5195632982, 5195632981, 5195632980, 5195632979, 5195632978, 5195632977, 5195632976, 5195632975, 5195632974, 5195632973, 5195632972, 5195632971, 5195632970, 5195632969, 5195632968, 5195632967, 5195632966, 5195632965, 5195632964, 5195632963, 5195632962, 5195632961, 5195632960, 5195632959, 5195632958, 5195632957, 5195632956, 5195632955, 5195632954, 5195632983], "tags": {"addr:city": "Waingapu", "addr:country": "ID", "addr:district": "Kabupaten Sumba Timur", "addr:housenumber": "54", "addr:province": "Provinsi Nusa Tenggara Timur", "addr:street": "Jalan Adam Malik", "addr:subdistrict": "Kecamatan Kota Waingapu", "addr:suburb": "Kelurahan Kambajawa", "amenity": "hospital", "emergency": "yes", "healthcare": "hospital", "name": "RSUD Umbu Rara Meha", "phone": "+62 0387 61302"}}, {"type": "way", "id": 199427032, "center": {"lat": -2.525916, "lon": 121.3610054}, "nodes": [2094286988, 2094287001, 2094287003, 2094286990, 2094286988], "tags": {"access:roof": "no", "amenity": "hospital", "building:levels": "1", "building:structure": "reinforced_masonry", "emergency": "yes", "healthcare": "hospital", "name": "PT VALE Hospital", "operator:type": "private"}}, {"type": "way", "id": 201064842, "center": {"lat": -4.1489594, "lon": 120.0407446}, "nodes": [2110239510, 9503924933, 9503924928, 2110239499, 9503924927, 2110239476, 9503924926, 9503924939, 2110239475, 2110239452, 2110239458, 9503924940, 2110239463, 2110239462, 2110239469, 2110239497, 2110239500, 2110239506, 2110239554, 9503924923, 9503924925, 9503924924, 2110239555, 2110239553, 2110239552, 2110239546, 2110239525, 2110239510], "tags": {"amenity": "hospital", "healthcare": "hospital", "name": "Rumah Sakit Lamaddukkelleng Sengkang"}}, {"type": "way", "id": 210245022, "center": {"lat": -9.9905075, "lon": 120.3238795}, "nodes": [2203385600, 2203385599, 2203385601, 2203385602, 2203385600], "tags": {"amenity": "hospital", "building": "yes", "name": "Pustu Laimuda"}}, {"type": "way", "id": 214051388, "center": {"lat": -9.8232874, "lon": 120.249753}, "nodes": [2236759226, 2236759228, 2236759233, 2236759231, 2236759226], "tags": {"amenity": "hospital", "building": "yes", "name": "Puskesmas Kabata Mapambuhang"}}, {"type": "way", "id": 215183523, "center": {"lat": -9.4585954, "lon": 120.0488948}, "nodes": [2245949594, 2245949592, 2245949602, 2245949604, 2245949594], "tags": {"amenity": "hospital", "building": "yes", "name": "Polindes Praibakul"}}, {"type": "way", "id": 215514462, "center": {"lat": -9.4498419, "lon": 120.0518791}, "nodes": [2249744189, 2249744188, 2249876053, 2249744192, 2249744193, 2249744189], "tags": {"admin_level": "4", "amenity": "hospital", "healthcare": "hospital"}}, {"type": "way", "id": 223444533, "center": {"lat": -6.3842588, "lon": 120.4741815}, "nodes": [2323420130, 2323420132, 2323420141, 2323420138, 2323420130], "tags": {"amenity": "hospital", "healthcare": "hospital", "name": "Puskesmas Lowa"}}, {"type": "way", "id": 223489492, "center": {"lat": -5.254215, "lon": 122.5737507}, "nodes": [2323880744, 2323880741, 2323880745, 2323880747, 2323880744], "tags": {"addr:street": "Jalan Poros Wamengkoli - Mawasangka", "amenity": "hospital", "healthcare": "hospital", "name": "Puskesmas Kec. Gu"}}, {"type": "way", "id": 225753760, "center": {"lat": -5.3976408, "lon": 122.6742728}, "nodes": [2345094989, 2345094985, 2345094991, 2345094992, 2345094989], "tags": {"amenity": "hospital", "bathroom": "WC Pribadi (Dalam rumah)", "building": "yes", "building:levels": "1", "building:material": "brick", "building:structure": "concrete_frame_cement_blocks", "building:use": "public facilities/fasilitas umum", "healthcare": "hospital", "name": "Puskesmas", "roof:material": "zink", "water_source": "river"}}, {"type": "way", "id": 228829190, "center": {"lat": -9.7123706, "lon": 120.0263362}, "nodes": [2374923258, 2374923261, 2374923265, 2374923263, 2374923269, 2374923271, 2374923278, 2374923275, 2374923273, 2374923258], "tags": {"amenity": "hospital", "name": "Puskesmas Nggaha Ori Angu"}}, {"type": "way", "id": 275280723, "center": {"lat": -5.5513417, "lon": 120.2013414}, "nodes": [2799182387, 2799182388, 2799182389, 2799182390, 2799182387], "tags": {"addr:city": "Bulukumba", "addr:postcode": "92512", "addr:street": "Jl. Jend. Ahmad Yani", "amenity": "hospital", "emergency": "no", "name": "PUSKESMAS Caile"}}, {"type": "way", "id": 277295149, "center": {"lat": -8.4610179, "lon": 120.4613592}, "nodes": [2818298301, 2818298302, 2818298303, 2818298304, 2818298301], "tags": {"amenity": "hospital"}}, {"type": "way", "id": 287434912, "center": {"lat": -8.3785671, "lon": 123.4120933}, "nodes": [2910386674, 2910386654, 2910386655, 2910386644, 2910386645, 2910386657, 2910386656, 2910386691, 2910386692, 2910388204, 2910388203, 2910386690, 2910386688, 2910386673, 2910386674], "tags": {"amenity": "hospital", "emergency": "yes", "healthcare": "hospital", "healthcare:speciality": "general", "name": "Rumah Sakit St. Damian"}}, {"type": "way", "id": 291217923, "center": {"lat": -0.6632344, "lon": 127.2643537}, "nodes": [2946324613, 2946324593, 2946324598, 2946324618, 2946324613], "tags": {"amenity": "hospital", "building": "yes", "name": "Puskesmas Desa Pelita"}}, {"type": "way", "id": 321772743, "center": {"lat": -4.7954065, "lon": 122.0582312}, "nodes": [3285380509, 3285380511, 3285380521, 3285380553, 9494168272, 9494168273, 3285380683, 3285380681, 3285380678, 3285380672, 3285380558, 3285380540, 3285380509], "tags": {"amenity": "hospital", "healthcare": "hospital", "name": "Rumah Sakit Umum Daerah Bombana"}}, {"type": "way", "id": 384771587, "center": {"lat": -8.8333791, "lon": 121.6682208}, "nodes": [3881255322, 3881255323, 3881255324, 3881255325, 3881255326, 3881255327, 3881255328, 3881255329, 3881255322], "tags": {"addr:city": "Ende", "addr:postcode": "86319", "addr:street": "Jl.Prof Dr.Mz . Yohanes", "amenity": "hospital", "building:levels": "2", "description": "@Rumah Sakit Rujukan Covid-19 di Kabupaten Ende,NTT", "healthcare": "hospital", "healthcare:speciality": "general", "name": "RSUD Ende,NTT", "operator": "Goverment Kabupaten Ende", "operator:type": "government"}}, {"type": "way", "id": 384771588, "center": {"lat": -8.8333025, "lon": 121.6678613}, "nodes": [3881255322, 3881255330, 3881255339, 3881255331, 3881255332, 3881255329, 3881255322], "tags": {"amenity": "hospital", "healthcare": "hospital"}}, {"type": "way", "id": 384771594, "center": {"lat": -8.8329285, "lon": 121.6682116}, "nodes": [3881255355, 3881255356, 3881255457, 3881255458, 3881255355], "tags": {"amenity": "hospital", "healthcare": "hospital", "name": "RSUD Kabupaten Ende"}}, {"type": "way", "id": 426510367, "center": {"lat": -3.70097, "lon": 128.1776334}, "nodes": [4258007818, 4258007819, 4258007827, 4258007830, 4258007831, 4258007832, 4258007833, 4258007834, 4258007837, 4258007841, 4258007847, 4258007859, 4258007868, 4258007879, 4258007892, 4258007891, 4258007888, 4258007885, 4258007883, 4258007881, 6836446457, 4258007876, 4258007875, 4258007874, 4258007872, 4258007871, 4258007870, 4258007867, 4258007858, 4258007848, 4258007840, 4258007835, 4258007829, 4258007826, 4258007817, 4258007818], "tags": {"access:roof": "no", "addr:full": "Jalan dr. Tamaella", "amenity": "hospital", "building:roof": "tin", "building:structure": "reinforced_masonry", "building:walls": "brick", "healthcare": "hospital", "name": "RUMAH SAKIT TENTARA", "operator:type": "government"}}, {"type": "way", "id": 426695575, "center": {"lat": -3.708686, "lon": 128.1655447}, "nodes": [4259649489, 4259649490, 4259649498, 4259649504, 4259649521, 4259649520, 4259649519, 4259649516, 4259649507, 4259649506, 4259649502, 4259649499, 7366597174, 4259649497, 4259649496, 4259649492, 4259649489], "tags": {"addr:city": "Benteng, Nusaniwe, Kel Benteng, Nusaniwe, Kota Ambon, Maluku", "addr:street": "Jl. Dr. Kayadoe", "amenity": "hospital", "healthcare": "hospital", "name": "RSUD Haulussy", "operator:type": "government", "phone": "(0911) 344871", "source": "bing", "website": "https://rsudhaulussymaluku.com/"}}, {"type": "way", "id": 452483914, "center": {"lat": -6.1373427, "lon": 120.462158}, "nodes": [4492760107, 4492814123, 4492814124, 4492760106, 4492760105, 4492760104, 4492760103, 4492760102, 4492760101, 4492760100, 4492760107], "tags": {"amenity": "hospital", "building": "hospital", "name": "Ruangan Operasi", "operator": "RSUD Selayar"}}, {"type": "way", "id": 452483916, "center": {"lat": -6.1374445, "lon": 120.4624521}, "nodes": [4492760111, 4492760110, 4492760109, 4492760108, 4492760111], "tags": {"amenity": "hospital", "building": "hospital", "operator": "RSUD Selayar"}}, {"type": "way", "id": 452483917, "center": {"lat": -6.1365279, "lon": 120.462156}, "nodes": [4492760127, 4492760126, 4492760125, 4492760124, 4492760123, 4492760122, 4492760121, 4492760120, 4492760119, 4492760118, 4492760117, 4492760116, 4492760115, 4492760114, 4492760113, 4492760112, 4492760127], "tags": {"amenity": "hospital", "building": "hospital", "name": "Gedung Perawatan Jeruk", "operator": "RSUD Selayar"}}, {"type": "way", "id": 452489418, "center": {"lat": -6.1362226, "lon": 120.4621707}, "nodes": [4492813025, 4492813024, 4492813023, 4492813022, 4492813021, 4492813020, 4492813019, 4492813018, 4492813025], "tags": {"amenity": "hospital", "building": "yes", "building:use": "Rawat Inap", "name": "Rawat Inap", "operator": "RSUD Selayar"}}, {"type": "way", "id": 452489421, "center": {"lat": -6.1363524, "lon": 120.4625604}, "nodes": [4492813033, 4492813032, 4492813031, 4492813030, 4492813029, 4492814127, 4492813028, 4492813027, 4492813026, 4492813033], "tags": {"amenity": "hospital", "building": "hospital", "name": "Ruang Perawatan Melinjo", "operator": "RSUD Selayar"}}, {"type": "way", "id": 452489427, "center": {"lat": -6.1367623, "lon": 120.4615793}, "nodes": [4492813050, 4492813049, 4492813048, 4492813047, 4492813046, 4492813055, 4492814137, 4492814138, 4492814142, 4492814143, 4492813052, 4492813051, 4492813050], "tags": {"amenity": "hospital", "building": "hospital", "name": "Rawat Jalan dan Apotik", "operator": "RSUD Selayar"}}, {"type": "way", "id": 452489430, "center": {"lat": -6.1370187, "lon": 120.4619222}, "nodes": [4492813067, 4492814149, 4492814150, 4492813066, 4492813065, 4492813064, 4492813063, 4492813062, 4492813061, 4492813060, 4492813059, 4492813058, 4492813057, 4492813056, 4492813067], "tags": {"amenity": "hospital", "building": "yes", "building:levels": "1", "building:roof": "tile", "building:structure": "confined_masonry", "building:use": "medical", "building:walls": "brick", "name": "Laboratorium", "operator": "RSUD Selayar"}}, {"type": "way", "id": 452489432, "center": {"lat": -6.1372794, "lon": 120.4616329}, "nodes": [4492813071, 4492813070, 4492813069, 4492813068, 4492813071], "tags": {"amenity": "hospital", "building": "yes", "operator": "RSUD Selayar"}}, {"type": "way", "id": 452489434, "center": {"lat": -6.137365, "lon": 120.461952}, "nodes": [4492813079, 4492813078, 4492813077, 4492813076, 4492813075, 4492813074, 4492813073, 4492813072, 4492813079], "tags": {"amenity": "hospital", "building": "hospital", "name": "Radiologi", "operator": "RSUD Selayar"}}, {"type": "way", "id": 452489437, "center": {"lat": -6.137142, "lon": 120.4617085}, "nodes": [4492814091, 4492814090, 4492814089, 4492813088, 4492813087, 4492814145, 4492814146, 4492813086, 4492814092, 4492814093, 4492813085, 4492813084, 4492813083, 4492813082, 4492813081, 4492813080, 5546815200, 5546815199, 4492814091], "tags": {"amenity": "hospital", "building": "yes", "building:levels": "1", "building:roof": "tile", "building:structure": "reinforced_masonry", "building:use": "medical", "building:walls": "brick", "name": "Eks UGD", "operator": "RSUD Selayar"}}, {"type": "way", "id": 452489441, "center": {"lat": -6.1368929, "lon": 120.4624873}, "nodes": [4492814101, 4492814100, 4492814099, 4492814098, 4492814097, 4492814096, 4492814095, 4492814094, 4492814101], "tags": {"amenity": "hospital", "building": "hospital", "highway": "services", "name": "Perwatan Anak", "operator": "RSUD Selayar"}}, {"type": "way", "id": 452489444, "center": {"lat": -6.1367817, "lon": 120.4620595}, "nodes": [4492814109, 4492814108, 4492814107, 4492814106, 4492814105, 4492814155, 4492814156, 4492814104, 4492814103, 4492814102, 4492814109], "tags": {"amenity": "hospital", "building": "hospital", "name": "Ruang Bersalin", "operator": "RSUD Selayar"}}, {"type": "way", "id": 481191701, "center": {"lat": -8.3157079, "lon": 123.0151104}, "nodes": [9494115451, 9494115452, 9494115453, 4741289765, 4741289763, 4741289755, 4741289753, 4741289756, 4741289752, 4741289750, 4741289747, 4741289746, 4741289745, 9494115456, 9494115457, 9494115460, 9494115459, 9494115458, 4741289744, 4741289748, 4741289749, 4741289754, 4741289751, 9494115454, 9494115455, 9494115451], "tags": {"amenity": "hospital", "healthcare": "hospital", "name": "Rumah Sakit Umum Daerah dr. Hendrikus Fernandez Larantuka"}}, {"type": "way", "id": 499238097, "center": {"lat": -8.5581516, "lon": 125.5641767}, "nodes": [4905417889, 4905417890, 6313653703, 6313653704, 4905417891, 6313653702, 6313653701, 4905417892, 4905417889], "tags": {"amenity": "hospital", "emergency": "no", "healthcare": "hospital", "name": "Bairo Pite Clinic Lanud"}}, {"type": "way", "id": 501327314, "center": {"lat": -3.3058496, "lon": 128.9575967}, "nodes": [4921698062, 4921698063, 4921698066, 4104230321, 4921698067, 4921698068, 4921698062], "tags": {"addr:city": "Masohi", "addr:street": "Jln. Abdulah Soulisa", "amenity": "hospital", "emergency": "yes", "healthcare": "hospital", "name": "RSU KOTA MASOHI"}}, {"type": "way", "id": 527394448, "center": {"lat": -8.4798878, "lon": 126.4472053}, "nodes": [5127403360, 5127403361, 5127403362, 5127403363, 5127403360], "tags": {"addr:full": "Rua Nova Hospital Baucau", "amenity": "hospital", "capacity:persons": "300-500", "evacuation_centre": "yes", "name": "Hospital de Refer\u00eancia de Baucau", "operator:type": "public", "toilets:wheelchair": "yes wheelchair:description = rampa wheelchair:description = handrail wheelchair:description = 90 cm door"}}, {"type": "way", "id": 529477254, "center": {"lat": -1.3824351, "lon": 120.7598738}, "nodes": [5143224090, 9491245469, 9491245468, 5143224091, 5143224092, 5143224093, 5143224094, 5143224095, 5143224096, 5143224097, 5143224098, 9491245470, 5143224099, 5143224090], "tags": {"addr:city": "Poso", "amenity": "hospital", "emergency": "yes", "healthcare": "hospital", "name": "Rumah Sakit Umum Daerah Poso", "operator": "Pemerintah Daerah Kabupaten Poso", "wikidata": "Q31173146", "wikipedia": "id:Rumah Sakit Umum Daerah Poso"}}, {"type": "way", "id": 545467869, "center": {"lat": -3.9625007, "lon": 122.536568}, "nodes": [5271889849, 5271889850, 5271889851, 5271889852, 5271889853, 5271889854, 5271889855, 5271889856, 5271889857, 5271889858, 5271889859, 5271889860, 5271889861, 5271889863, 5271889862, 5271889849], "tags": {"amenity": "hospital", "building": "house", "healthcare": "hospital", "name": "RS PMI Kendari"}}, {"type": "way", "id": 546026051, "center": {"lat": -9.1074917, "lon": 124.8832382}, "nodes": [5277040855, 5277040854, 5277040853, 9470920829, 9470920830, 9470920831, 9470920832, 9470920833, 5277040852, 5277040855], "tags": {"addr:full": "Jalan Piere Tendean", "amenity": "hospital", "healthcare": "hospital", "name": "Rumah Sakit Tentara Atambua", "operator:type": "government", "source": "survey"}}, {"type": "way", "id": 546262211, "center": {"lat": -9.0985155, "lon": 124.8971005}, "nodes": [9491157092, 5279062668, 5279062667, 5279062666, 5279062665, 5279062664, 5279062663, 5279062662, 5279062661, 5279062660, 5279062659, 9491193489, 5279062658, 9491193488, 9491157092], "tags": {"addr:full": "Jalan Dr. Soetomo No. 2", "amenity": "hospital", "healthcare": "hospital", "name": "RSUD Mgr. Gabriel Manek Atambua", "operator:type": "government", "source": "survey"}}, {"type": "way", "id": 546478154, "center": {"lat": -9.275864, "lon": 124.8779849}, "nodes": [5281127205, 5281127204, 5281127203, 5281127202, 5281127201, 5281127200, 5281127199, 5281127198, 5281127197, 5281127196, 5281127195, 5281127194, 5281127205], "tags": {"addr:full": "Jalan Paroki Roh Kudus Halilulik - Atambua", "amenity": "hospital", "name": "Rumah Sakit Katolik Marianum Halilulik", "operator:type": "private", "source": "survey"}}, {"type": "way", "id": 548653736, "center": {"lat": -8.994596, "lon": 125.5071766}, "nodes": [5300290938, 5300290939, 5300290940, 5300290941, 5300290938], "tags": {"amenity": "hospital", "healthcare": "hospital", "name": "Hospital municipal de Ainaro"}}, {"type": "way", "id": 586989988, "center": {"lat": -3.958022, "lon": 122.5048125}, "nodes": [5607604746, 5607604747, 5607604748, 5607604749, 5607604750, 5607604751, 5607604752, 5607604753, 5607604746], "tags": {"amenity": "hospital", "building": "yes", "healthcare": "hospital", "name": "Rumah Sakit Jiwa Kendari"}}, {"type": "way", "id": 587973942, "center": {"lat": -3.9694824, "lon": 122.5231151}, "nodes": [5616347692, 5616347693, 5616347694, 5616347695, 5616347692], "tags": {"amenity": "hospital", "healthcare": "hospital", "name": "RS Permata Bunda"}}, {"type": "way", "id": 588448666, "center": {"lat": -4.0216442, "lon": 122.5024677}, "nodes": [5620213401, 5620213402, 5620213403, 5620213404, 5620213405, 5620213406, 5620213407, 5620213401], "tags": {"amenity": "hospital", "building": "yes", "healthcare": "hospital", "name": "RS Hati Mulia"}}, {"type": "way", "id": 594379754, "center": {"lat": -2.5555157, "lon": 120.3342416}, "nodes": [7842063484, 7841713113, 7732777530, 7841713112, 7841713111, 7842063479, 7842063480, 7842063481, 7842063482, 7842063483, 7842063484], "tags": {"amenity": "hospital", "name": "RSUD Masamba"}}, {"type": "way", "id": 605854283, "center": {"lat": -3.9694775, "lon": 122.5161226}, "nodes": [5745327249, 5745327245, 5745327254, 5745327253, 5745327246, 5745327258, 5745327255, 5745327256, 5745327257, 5745327247, 5745327252, 5745327248, 5745327251, 5745327250, 5745327249], "tags": {"amenity": "hospital", "building": "yes", "healthcare": "hospital", "name": "RSAD DR R Ismoyo"}}, {"type": "way", "id": 678032007, "center": {"lat": -8.5551726, "lon": 125.9104106}, "nodes": [6348579984, 6348579983, 6348579982, 6348579981, 6348579984], "tags": {"addr:full": "Mantane", "amenity": "hospital", "building": "yes", "building:condition": "good", "building:levels": "1", "building:material": "cement_block", "capacity:persons": "50-100", "evacuation_centre": "yes", "min_height": "0.5", "name": "Centro Saude Comunitaria", "operator:type": "public", "roof:material": "metal", "toilets:wheelchair": "yes"}}, {"type": "way", "id": 699577657, "center": {"lat": -4.0356161, "lon": 122.4810432}, "nodes": [6569463992, 9488795876, 9488795883, 9488795878, 9488795882, 9488795881, 9488795880, 9488795879, 9488795877, 9488795875, 6569463991, 6569463990, 6569463989, 6569463992], "tags": {"amenity": "hospital", "healthcare": "hospital", "name": "RSU DEWI SARTIKA"}}, {"type": "way", "id": 699577664, "center": {"lat": -4.0333129, "lon": 122.4917279}, "nodes": [6569464030, 9506811443, 9506811444, 6569464029, 7401496709, 6569464028, 6965428163, 5397774532, 7320837188, 6569464034, 6569464032, 9506811440, 9506811441, 9506811442, 6569464030], "tags": {"addr:city": "Kendari", "addr:full": "Jalan Kapten Piere Tendean, Watubangga, Baruga, Kota Kendari, Sulawesi Tenggara 93116", "amenity": "hospital", "healthcare": "hospital", "name": "Rumah Sakit Umum Daerah Bahteramas", "operator:type": "government"}}, {"type": "way", "id": 718066470, "center": {"lat": -3.6694653, "lon": 128.1960669}, "nodes": [6743560894, 6743560895, 6743560896, 6743560897, 6743560894], "tags": {"amenity": "hospital", "area": "yes", "building": "hospital", "healthcare": "hospital", "name": "Rumah Sakit Siloam", "start_date": "2016", "wikidata": "Q19731706", "wikipedia": "id:Rumah Sakit Siloam"}}, {"type": "way", "id": 731135333, "center": {"lat": -8.6524195, "lon": 120.6578527}, "nodes": [6848142204, 6848142205, 6848142206, 6848142207, 6848142204], "tags": {"amenity": "hospital", "building": "hospital", "healthcare": "hospital"}}, {"type": "way", "id": 731135334, "center": {"lat": -8.6523528, "lon": 120.6579565}, "nodes": [6848142208, 6848142209, 6848142210, 6848142211, 6848142208], "tags": {"amenity": "hospital", "healthcare": "hospital"}}, {"type": "way", "id": 747217275, "center": {"lat": -1.3396548, "lon": 122.5003487}, "nodes": [6991735960, 6991735961, 6991735962, 6991735963, 6991735960], "tags": {"amenity": "hospital", "healthcare": "hospital", "name": "Polindes Desa"}}, {"type": "way", "id": 782893765, "center": {"lat": -5.5508821, "lon": 120.1910401}, "nodes": [7311102405, 7311102404, 7311102403, 7311102402, 7311102401, 7311102399, 7311102400, 7311102405], "tags": {"addr:city": "Bulukumba", "addr:full": "Jalan Serikaya, Caile, Ujung Bulu", "amenity": "hospital", "emergency": "yes", "healthcare": "hospital", "name": "RSUD H. Andi Sulthan Daeng Radja", "operator:type": "government"}}, {"type": "way", "id": 783776685, "center": {"lat": -2.4785412, "lon": 121.932798}, "nodes": [7320828444, 7320828443, 7320828442, 7320828441, 7320828440, 7320828439, 7320828438, 7320828444], "tags": {"addr:city": "Kota Palu", "addr:full": "Jalan Trans Sulawesi, Bahomohoni, Palu Utara, Kota Palu, Sulawesi Tengah 94973", "amenity": "hospital", "healthcare": "hospital", "name": "RSUD Morowali", "operator:type": "government"}}, {"type": "way", "id": 787430067, "center": {"lat": -1.9724926, "lon": 121.3366673}, "nodes": [7362238876, 9506803872, 7362238877, 7362238878, 9506803886, 7362238879, 7362238880, 7362238876], "tags": {"amenity": "hospital", "healthcare": "hospital", "name": "RSU Kolonodale"}}, {"type": "way", "id": 788342889, "center": {"lat": -3.9894994, "lon": 122.5324877}, "nodes": [7370655001, 7370655002, 7370655003, 7370655004, 7370655005, 7370655006, 7370655007, 7370655008, 7370655009, 7370655010, 7370655011, 7370655012, 7370655013, 7370655014, 7370655015, 7370655016, 7370655017, 1426716201, 1426714617, 7370655018, 7370655019, 7370655020, 7370655021, 7370655022, 7370655001], "tags": {"addr:city": "Kendari", "addr:housenumber": "39", "addr:street": "Jl. Brigjen Z.A Sugianto", "amenity": "hospital", "email": "rsudabunawaskdi@yahoo.co.id", "emergency": "yes", "healthcare": "hospital", "name": "RSUD KOTA KENDARI", "phone": "+62822 9253 6768", "website": "https://rsud.kendarikota.go.id/"}}, {"type": "way", "id": 788495004, "center": {"lat": -3.6616044, "lon": 128.1862062}, "nodes": [7371843923, 9468703000, 9468703001, 9468703003, 9468703002, 9468703005, 9468703004, 7371843924, 9468703006, 9468703007, 9468703008, 9468703009, 7371843925, 9468703010, 9468703011, 9468703012, 9468703013, 7371843926, 9468703014, 7371843923], "tags": {"addr:city": "Wailela, Desa Rumah Tiga Kecamatan Teluk Ambon", "amenity": "hospital", "healthcare": "hospital", "name": "RSUP Dr Johannes Leimena"}}, {"type": "way", "id": 791260859, "center": {"lat": -8.8325395, "lon": 121.6684008}, "nodes": [7397142036, 7397142037, 7397142038, 7397142039, 6625560673, 7397142040, 7397142041, 7397142042, 7397142043, 7397142044, 6625560709, 7397142045, 7397142046, 7397142047, 7397142048, 7397142049, 7397142050, 7397142051, 7397142052, 7397142053, 7397142036], "tags": {"addr:city": "Ende", "addr:postcode": "86319", "addr:street": "JL Prof DR.Mz.Yohanes", "amenity": "hospital", "description": "@Rumah Sakit Rujukan Covid-19 di Kabupaten Ende,Nusa Tenggara Timur", "healthcare": "hospital", "healthcare:speciality": "general", "name": "RSUD Ende,Kabupaten Ende,NTT", "operator": "Pemerintah Kabupaten Ende", "operator:type": "government"}}, {"type": "way", "id": 791434982, "center": {"lat": -0.934005, "lon": 122.8219716}, "nodes": [7362542430, 7362542409, 7362542398, 7362541772, 7398764023, 7362542450, 7362542430], "tags": {"addr:city": "LUWUK", "addr:housenumber": "No.14", "addr:street": "Imam Bonjol KM 3", "amenity": "hospital", "email": "rsud.luwuk@gmail.com", "fax": "0461-21820", "healthcare": "hospital", "name": "RSUD KAB BANGGAI LUWUK"}}, {"type": "way", "id": 808263355, "center": {"lat": -5.3434481, "lon": 122.2672788}, "nodes": [7558044455, 7558044454, 7558044453, 7558044452, 7558044451, 7558044450, 7558044455], "tags": {"amenity": "hospital", "name": "Puskesmas Wakambangura"}}, {"type": "way", "id": 808399532, "center": {"lat": -5.304577, "lon": 122.3034887}, "nodes": [7559337504, 7559337503, 7559337502, 7559337501, 7559337504], "tags": {"amenity": "hospital", "name": "Puskesmas Mawasangka"}}, {"type": "way", "id": 808982103, "center": {"lat": -5.1943249, "lon": 122.310757}, "nodes": [7564445096, 7564445095, 7564445094, 7564445093, 7564445096], "tags": {"amenity": "hospital", "healthcare": "hospital", "name": "Puskesmas Kanapa-napa"}}, {"type": "way", "id": 828015270, "center": {"lat": -8.7250939, "lon": 125.5717778}, "nodes": [7729975334, 7729975335, 7729975336, 7729975337, 7729975334], "tags": {"addr:city": "Aissirimou", "addr:street": "Aissirimou-Aitohularan", "amenity": "hospital", "emergency": "yes", "healthcare": "hospital", "healthcare:speciality": "general", "name": "Saude Munisipiu Aileu", "operator:type": "government"}}, {"type": "way", "id": 838283063, "center": {"lat": -8.8984762, "lon": 120.9901542}, "nodes": [7823668411, 7823668412, 7823668413, 7823668414, 7823668411], "tags": {"amenity": "hospital", "emergency": "no", "healthcare": "clinic", "name": "Puskesmas Watumanu"}}, {"type": "way", "id": 840423398, "center": {"lat": -2.55509, "lon": 120.3080593}, "nodes": [7842216638, 7842216637, 7842216636, 7842216635, 7842216634, 7842216633, 7842216632, 7842216638], "tags": {"amenity": "hospital", "name": "RS Hikmah Masamba"}}, {"type": "way", "id": 847095718, "center": {"lat": -0.8130757, "lon": 120.1732817}, "nodes": [7904533652, 7904533651, 7904533650, 7904533649, 7904533648, 7904533647, 7904533646, 7904533645, 7904533644, 7993868228, 7993868227, 7993868226, 7993868225, 7904533643, 7993868224, 7993868223, 7904533642, 7993868222, 7904533641, 7904533640, 7904533639, 7904533652], "tags": {"addr:city": "Masigi", "addr:housenumber": "214", "addr:postcode": "94471", "addr:street": "Jl. Sis Aljufrie", "amenity": "hospital", "healthcare": "hospital", "name": "RSU Daerah Anuntaloko"}}, {"type": "way", "id": 854941975, "center": {"lat": -4.5410648, "lon": 120.3342908}, "nodes": [7973461850, 7973461851, 7973461852, 7973461853, 7973461854, 7973461855, 7973461856, 7973461857, 7973461850], "tags": {"amenity": "hospital", "healthcare": "hospital"}}, {"type": "way", "id": 854953943, "center": {"lat": -4.5420185, "lon": 120.3391965}, "nodes": [7973553538, 7973553539, 7973553540, 7973553541, 7973553542, 7973553543, 7973553538], "tags": {"amenity": "hospital", "healthcare": "hospital"}}, {"type": "way", "id": 896454106, "center": {"lat": -3.3680106, "lon": 120.356149}, "nodes": [8333325825, 8333325826, 8333325827, 8333325828, 8333325829, 8333325830, 8333325831, 8333325832, 8333325833, 8333325834, 8333325825], "tags": {"amenity": "hospital", "healthcare": "hospital", "name": "RSUD Batara Guru"}}, {"type": "way", "id": 1026457282, "center": {"lat": -5.5811123, "lon": 122.7396528}, "nodes": [9463647995, 9463647996, 9463647997, 9463647998, 9463647995], "tags": {"amenity": "hospital", "healthcare": "hospital"}}, {"type": "way", "id": 1026578430, "center": {"lat": -8.3592684, "lon": 123.4612846}, "nodes": [9464946471, 9464946472, 9464946473, 9464946474, 9464946475, 9464946476, 9464946477, 9464946478, 9464946481, 9464946482, 9464946479, 9464946480, 9464946471], "tags": {"amenity": "hospital", "healthcare": "hospital", "healthcare:speciality": "general", "name": "Rumah Sakit Umum Daerah Lewoleba"}}, {"type": "way", "id": 1026616998, "center": {"lat": -5.4199253, "lon": 122.6518829}, "nodes": [9465310500, 9465310501, 9465310502, 9465310503, 9465310504, 9465310505, 9465310500], "tags": {"amenity": "hospital", "healthcare": "hospital", "name": "Puskesmas Lakologou"}}, {"type": "way", "id": 1027039435, "center": {"lat": -9.825295, "lon": 124.4650917}, "nodes": [9468735366, 9468735367, 9468735368, 9468735369, 9468735370, 9468735366], "tags": {"amenity": "hospital", "healthcare": "hospital", "name": "Puskesmas Niki-niki"}}, {"type": "way", "id": 1028346481, "center": {"lat": -2.9964015, "lon": 120.1946787}, "nodes": [9480851441, 9480851442, 9480851443, 9480851444, 9480851441], "tags": {"amenity": "hospital", "healthcare": "hospital", "name": "RSUD dr. Palemmai Tandi"}}, {"type": "way", "id": 1028346495, "center": {"lat": -2.9950258, "lon": 120.1866164}, "nodes": [9480851512, 9480851516, 9480851517, 9480851515, 9480851512], "tags": {"amenity": "hospital", "healthcare": "hospital", "name": "RS Bintang Laut"}}, {"type": "way", "id": 1031100323, "center": {"lat": -5.2801297, "lon": 122.2923319}, "nodes": [1828646995, 1828646963, 1828646948, 9504255974, 9504255973, 1828647025, 1828646995], "tags": {"amenity": "hospital", "healthcare": "hospital", "name": "Puskesmas Mawasangka"}}, {"type": "way", "id": 1031103140, "center": {"lat": -5.6094274, "lon": 122.5994774}, "nodes": [9504282968, 9504282969, 9504282970, 9504282971, 9504282972, 9504282982, 9504282981, 9504282980, 9504282979, 9504282968], "tags": {"amenity": "hospital", "healthcare": "hospital", "name": "Puskesmas Batauga"}}, {"type": "way", "id": 1065387424, "center": {"lat": -3.068864, "lon": 120.2321158}, "nodes": [9784330229, 9784330230, 9784330231, 9784330232, 9784330233, 9784330234, 9784330229], "tags": {"amenity": "hospital", "healthcare": "hospital"}}, {"type": "way", "id": 1066623009, "center": {"lat": -9.1276449, "lon": 124.8952137}, "nodes": [9794226494, 9794226495, 9794226496, 9794226497, 9794226498, 9794226499, 9794226500, 9794226501, 9794226494], "tags": {"amenity": "hospital", "healthcare": "hospital"}}, {"type": "way", "id": 1075043858, "center": {"lat": -9.7926174, "lon": 123.9401584}, "nodes": [9859936285, 9859936286, 9859936287, 9859936288, 9859936289, 9859936290, 9859936291, 9859936292, 9859936285], "tags": {"amenity": "hospital", "healthcare": "hospital", "name": "PUSKESMAS HUABUNIF"}}, {"type": "way", "id": 1075043871, "center": {"lat": -9.792464, "lon": 123.9403653}, "nodes": [9859936377, 9859936378, 9859936379, 9859936380, 9859936381, 9859936382, 9859936383, 9859936384, 9859936385, 9859936386, 9859936387, 9859936388, 9859936389, 9859936390, 9859936391, 9859936392, 9859936377], "tags": {"amenity": "hospital", "healthcare": "hospital", "name": "LINGKUNAG PUSKESMAS BUAHUNIF"}}, {"type": "way", "id": 1078105101, "center": {"lat": -9.3285087, "lon": 125.2809144}, "nodes": [9884298966, 9884298967, 9884298968, 9884298969, 9884298966], "tags": {"amenity": "hospital", "healthcare": "hospital", "name": "Sentru Saude Audian", "operator": "Chatolic", "operator:type": "private"}}, {"type": "way", "id": 1083361354, "center": {"lat": -8.4579723, "lon": 126.4474735}, "nodes": [9928296985, 9928296986, 9928296987, 9928296988, 9928296989, 9928296990, 9928296991, 9928296992, 9947328076, 9947328075, 9947328074, 9947328077, 9928296985], "tags": {"amenity": "hospital", "healthcare": "hospital", "name": "Ria-Mare Hospital"}}, {"type": "way", "id": 1083419627, "center": {"lat": -9.1660168, "lon": 125.2668236}, "nodes": [9928674944, 9928674945, 9928674946, 9928674947, 9928674948, 9928674949, 9928674950, 9928674951, 9928674952, 9928674953, 9928674954, 9928674955, 9928674956, 9928674957, 9928674958, 9928674959, 9928674960, 9928674961, 9928674962, 9928674963, 9928674944], "tags": {"amenity": "hospital", "building": "health_post", "name": "Centro de sa\u00fade Opa", "source": "ICIST/GERTiL"}}, {"type": "way", "id": 1084173347, "center": {"lat": -8.7168357, "lon": 125.5886687}, "nodes": [9935093296, 9935093297, 9935093298, 9935093299, 9935093300, 9935093301, 9935093296], "tags": {"access:disabled": "yes", "addr:full": "Saburia, aileu villa", "amenity": "hospital", "building:levels": "1", "capacity:persons": "< 50", "evacuation_centre": "yes", "healthcare": "hospital", "name": "Posto saude suku saburia", "operator:type": "government", "toilets:wheelchair": "yes", "wheelchair:description": "90 cm door"}}, {"type": "way", "id": 1084174133, "center": {"lat": -8.7255645, "lon": 125.5654723}, "nodes": [9935087866, 9935087867, 9935087868, 9935087869, 9935087870, 1784807847, 1784807850, 9935087871, 9935087872, 9935087873, 9935087874, 9935087866], "tags": {"addr:full": "Seloi Malere, Aileu Villa", "amenity": "hospital", "building:levels": "1", "capacity:persons": "200-300toilets:wheelchair = yes", "evacuation_centre": "yes", "healthcare": "hospital", "name": "Centro Saude Municipio Aileu", "operator:type": "public", "wheelchair:description": "90 cm door"}}, {"type": "way", "id": 1084242426, "center": {"lat": -8.4792637, "lon": 126.4478439}, "nodes": [9935653929, 9935653930, 9935653931, 9935653932, 9935653933, 9935653934, 9935653935, 9935653936, 9935653937, 9935653938, 9935653939, 9935653940, 9935653941, 9935653942, 9935653943, 9935653944, 9935653945, 9935653946, 9935653947, 9935653948, 9935653949, 9935653950, 9935653951, 9935653952, 9935653953, 9935653954, 9935653955, 9935653956, 9935653965, 9935653957, 9935653958, 9935653959, 9935653960, 9935653961, 9935653962, 9935653966, 9935653967, 9935653963, 9935653964, 9935653929], "tags": {"addr:full": "Rua Nova Hospital Baucau", "amenity": "hospital", "building": "yes", "building:levels": "1", "capacity:persons": "500 - 1000", "evacuation_centre": "yes", "name": "Hospital de Refer\u00eancia de Baucau", "operator:type": "public", "toilets:wheelchair": "yes wheelchair:description = rampa wheelchair:description = handrail wheelchair:description = 90 cm door"}}, {"type": "way", "id": 1084389654, "center": {"lat": -8.5379065, "lon": 126.1649543}, "nodes": [9936977790, 9936977791, 9936977792, 9936977793, 9936977794, 9936977795, 9936977796, 9936977797, 9936977790], "tags": {"addr:full": "Rua, estrada Nasional Laleia Vemasse, Baucau", "amenity": "hospital", "capacity:persons": "50-100", "evacuation_centre": "yes", "healthcare": "hospital", "name": "Sentru Saude de Laleia", "operator:type": "public", "toilets:wheelchair": "yes", "wheelchair:description": "90 cm door"}}, {"type": "way", "id": 1084959358, "center": {"lat": -8.4634907, "lon": 126.4600056}, "nodes": [9941445146, 9941445147, 9941445148, 9941445149, 9941445150, 9941445151, 9941445152, 9941445146], "tags": {"addr:full": "Rua Tirilolo, Estrada Baucau Vila-Antiga", "amenity": "hospital", "capacity:persons": "200-300", "evacuation_centre": "yes", "name": "Ospital Referal Baucau", "operator:type": "public", "toilets:wheelchair": "yes", "wheelchair:description": "90 cm door"}}, {"type": "way", "id": 1108378403, "center": {"lat": -8.5134722, "lon": 126.0141805}, "nodes": [10141349720, 10141349721, 10141349722, 10141349723, 10141349724, 10141349725, 10141349726, 10141349727, 10141349720], "tags": {"addr:full": "Ailili", "amenity": "hospital", "building": "yes", "building:condition": "good", "building:levels": "1", "building:material": "cement_block", "building:state_of_the_house": "permanent", "capacity:persons": "<50", "evacuation_centre": "no", "healthcare": "hospital", "min_height": "0.1", "name": "Centro de Sa\u00fade Com Internamento Manatuto", "operator:type": "public", "roof:material": "metal"}}, {"type": "way", "id": 1108378405, "center": {"lat": -8.5131247, "lon": 126.0144068}, "nodes": [10141349732, 10141349733, 10141349734, 10141349735, 10141349732], "tags": {"addr:full": "Ailili", "amenity": "hospital", "building": "yes", "building:condition": "good", "building:levels": "1", "building:material": "cement_block", "building:state_of_the_house": "permanent", "capacity:persons": "<50", "evacuation_centre": "no", "min_height": "0.02", "name": "Centro Saude Interna Manatuto", "operator:type": "public", "roof:material": "metal"}}, {"type": "way", "id": 1109232988, "center": {"lat": -3.6997062, "lon": 128.276364}, "nodes": [10149220559, 10149220560, 10149220561, 10149220562, 10149220563, 10149220565, 10149220566, 10149220564, 10149220559], "tags": {"addr:city": "Ambon", "addr:postcode": "97237", "addr:street": "JL. DR WEM TEHUPEIORY", "amenity": "hospital", "emergency": "no", "healthcare": "hospital", "name": "Puskesmas Rawat Inap Hutumuri"}}, {"type": "way", "id": 1133967082, "center": {"lat": -3.5943129, "lon": 128.346785}, "nodes": [10572033629, 10572033630, 10572033631, 10572033632, 10572033633, 10572033629], "tags": {"addr:city": "Kabupaten Maluku Tengah", "addr:housenumber": "Desa Tulehu", "addr:postcode": "97582", "amenity": "hospital", "healthcare": "hospital", "name": "Rumah Sakit Dr. Ishak Umarella"}}, {"type": "way", "id": 1144673605, "center": {"lat": -9.0062391, "lon": 125.3594467}, "nodes": [10654366825, 10654366826, 10654366827, 10654366828, 10654366829, 10654366825], "tags": {"addr:street": "Estrada Kakanian", "amenity": "hospital", "emergency": "no", "healthcare": "hospital", "name": "Hospital Kakanian Chile", "source": "local knowledge;aerial imagery"}}, {"type": "way", "id": 1150721908, "center": {"lat": -8.5228828, "lon": 126.9976333}, "nodes": [10704478163, 10704478164, 10704478165, 10704478166, 10704478167, 10704478168, 10704478169, 10704478163], "tags": {"amenity": "hospital", "healthcare": "hospital", "note": "Editado de bulding=hospital para amenity=hospital para evitar conflito com de facto pr\u00e9dios que est\u00e3o nesta \u00e1rea"}}, {"type": "way", "id": 1155433346, "center": {"lat": -8.5569149, "lon": 125.5317233}, "nodes": [10745169690, 10745169691, 10745169692, 10745169693, 10745169690], "tags": {"amenity": "hospital", "healthcare": "hospital"}}, {"type": "way", "id": 1172666945, "center": {"lat": -4.1124693, "lon": 120.0255267}, "nodes": [10895597066, 10895597067, 10895597068, 10895597069, 10895597066], "tags": {"amenity": "hospital", "healthcare": "hospital"}}, {"type": "way", "id": 1184406345, "center": {"lat": -8.7090804, "lon": 125.740405}, "nodes": [11001237274, 11001237275, 11001237276, 11001237277, 11001237274], "tags": {"addr:full": "*Suku faturilai Lequidoe", "amenity": "hospital", "building:levels": "1", "capacity:persons": "100-200", "evacuation_centre": "yes", "healthcare": "hospital", "name": "*clinica faturilau", "operator:type": "public", "toilets:wheelchair": "yes"}}, {"type": "way", "id": 1189208885, "center": {"lat": -9.9791467, "lon": 123.875182}, "nodes": [11042723480, 11042723481, 11042723482, 11042723483, 11042723484, 11042723485, 11042723480], "tags": {"amenity": "hospital", "healthcare": "hospital"}}, {"type": "way", "id": 1204746317, "center": {"lat": -9.2118325, "lon": 124.338097}, "nodes": [11165665665, 11165665664, 11165665663, 11165665662, 11165665665], "tags": {"addr:full": "Costa", "amenity": "hospital", "building": "null", "building:condition": "good", "building:levels": "1", "building:material": "cement_block", "building:state_of_the_house": "permanent", "capacity:persons": "50-100", "evacuation_centre": "yes", "min_height": "0.3", "operator:type": "public", "roof:material": "metal", "toilets:wheelchair": "null", "wheelchair:description": "ramp;90cm door"}}, {"type": "way", "id": 1206891704, "center": {"lat": -8.5551926, "lon": 125.9105706}, "nodes": [11183380116, 11183380117, 11183380118, 11183380119, 11183380120, 11183380121, 11183380116], "tags": {"amenity": "hospital", "healthcare": "hospital"}}, {"type": "relation", "id": 2216501, "center": {"lat": -8.5783048, "lon": 125.5813414}, "members": [{"type": "way", "ref": 166301213, "role": "outer"}, {"type": "way", "ref": 166301198, "role": "outer"}], "tags": {"amenity": "hospital", "healthcare": "hospital", "name": "Hospital Lahane", "type": "multipolygon"}}]}