{"version": 0.6, "generator": "Overpass API 0.7.61.5 4133829e", "osm3s": {"timestamp_osm_base": "2023-10-31T20:50:30Z", "copyright": "The data included in this document is from www.openstreetmap.org. The data is made available under ODbL."}, "elements": [{"type": "node", "id": 803246032, "lat": -4.4294206, "lon": 15.3646452, "tags": {"amenity": "hospital", "name": "Polycliniue et maternit\u00e9 Coop\u00e9rative Maraich\u00e8re de Kimbanseke"}}, {"type": "node", "id": 1911330663, "lat": -4.1533932, "lon": 15.2795917, "tags": {"amenity": "hospital", "name": "EPAC"}}, {"type": "node", "id": 2351249173, "lat": -4.1151535, "lon": 18.9112468, "tags": {"addr:city": "Kibwanga", "amenity": "hospital", "emergency": "no", "name": "Dispensaire Kibwabga"}}, {"type": "node", "id": 2438976048, "lat": -5.5549523, "lon": 12.1900923, "tags": {"amenity": "hospital", "emergency": "yes", "healthcare": "hospital", "name": "Cl\u00ednica da Chevron", "name:fr": "Clinique Chevron"}}, {"type": "node", "id": 3323401453, "lat": -4.7170378, "lon": 12.0892127, "tags": {"amenity": "hospital", "name": "Centre de sant\u00e9 de Dembouanou"}}, {"type": "node", "id": 3323401454, "lat": -4.0250664, "lon": 11.7832033, "tags": {"amenity": "hospital", "name": "Centre de sant\u00e9 de Ikalou"}}, {"type": "node", "id": 3323401455, "lat": -4.1355492, "lon": 12.0633501, "tags": {"amenity": "hospital", "name": "Centre de sant\u00e9 int\u00e9gr\u00e9 de Kakamoeka"}}, {"type": "node", "id": 3323401456, "lat": -4.1243192, "lon": 12.1405804, "tags": {"amenity": "hospital", "name": "Centre de sant\u00e9 int\u00e9gr\u00e9 de Manzi"}}, {"type": "node", "id": 3323401457, "lat": -4.8093617, "lon": 11.8610893, "tags": {"amenity": "hospital", "healthcare": "hospital", "name": "Centre de sant\u00e9 int\u00e9gr\u00e9 de Mpita"}}, {"type": "node", "id": 3323401500, "lat": -4.7933504, "lon": 11.8549689, "tags": {"amenity": "hospital", "healthcare": "hospital", "name": "Clinique Ocean"}}, {"type": "node", "id": 3323401556, "lat": -4.2786684, "lon": 11.6649031, "tags": {"amenity": "hospital", "name": "Dispensaire"}}, {"type": "node", "id": 3323401931, "lat": -4.0254082, "lon": 11.7253038, "tags": {"amenity": "hospital", "name": "Hopital de NKola"}}, {"type": "node", "id": 3323402224, "lat": -4.7137132, "lon": 11.9344593, "tags": {"amenity": "hospital", "name": "Medical Elisha"}}, {"type": "node", "id": 3725455996, "lat": -4.263336, "lon": 15.2688418, "tags": {"amenity": "hospital", "healthcare": "hospital", "name": "Morgue de Brazzaville"}}, {"type": "node", "id": 4545092889, "lat": -4.294632, "lon": 15.2421179, "tags": {"amenity": "hospital", "name": "H\u00f4pital de Mak\u00e9l\u00e9k\u00e9l\u00e9", "name:fr": "H\u00f4pital de Mak\u00e9l\u00e9k\u00e9l\u00e9", "wheelchair": "yes"}}, {"type": "node", "id": 4872491225, "lat": -4.8288453, "lon": 11.9271498, "tags": {"amenity": "hospital", "healthcare": "hospital", "name": "Hopital G\u00e9n\u00e9ral de NANGA", "name:fr": "Hopital G\u00e9n\u00e9ral de NANGA"}}, {"type": "node", "id": 4878880912, "lat": -4.1914599, "lon": 12.6661084, "tags": {"amenity": "hospital", "name": "Hopital Militaire", "operator": "Hopital"}}, {"type": "node", "id": 5217881924, "lat": -4.2220638, "lon": 12.7044245, "tags": {"amenity": "hospital", "healthcare": "hospital", "name": "Hopital Manganzi"}}, {"type": "node", "id": 5322728002, "lat": -4.289602, "lon": 15.2411448, "tags": {"amenity": "hospital", "healthcare": "hospital", "name": "Dispensaire de Tenrikyo"}}, {"type": "node", "id": 5686475173, "lat": -1.5513724, "lon": 13.2218123, "tags": {"amenity": "hospital"}}, {"type": "node", "id": 5686481796, "lat": -1.5642851, "lon": 13.230052, "tags": {"amenity": "hospital"}}, {"type": "node", "id": 5987265585, "lat": -4.2861191, "lon": 15.2554569, "tags": {"amenity": "hospital", "name": "bissita", "wheelchair": "yes"}}, {"type": "node", "id": 5987265586, "lat": -4.3019701, "lon": 15.2566347, "tags": {"amenity": "hospital", "name": "h\u00f4pital de base de bacongo", "wheelchair": "yes"}}, {"type": "node", "id": 5987276685, "lat": -4.2948875, "lon": 15.2418289, "tags": {"amenity": "hospital", "name": "H\u00f4pital de base de Mak\u00e9l\u00e9k\u00e9l\u00e9"}}, {"type": "node", "id": 6371117297, "lat": -4.7744357, "lon": 11.8665211, "tags": {"amenity": "hospital", "healthcare": "hospital", "name": "ONG +"}}, {"type": "node", "id": 6444000266, "lat": -3.1741224, "lon": 17.2541438, "tags": {"amenity": "hospital"}}, {"type": "node", "id": 6582144017, "lat": -4.4043279, "lon": 15.2924109, "tags": {"addr:city": "Kinshasa", "addr:street": "Direction Cimeti\u00e8re", "amenity": "hospital", "building": "yes", "building:condition": "average", "building:levels": "2", "building:material": "cement_block", "is_in:admin_level7": "N'djili", "is_in:admin_level8": "Quartier 3; Inga", "name": "Clinique Mambote", "wall": "yes"}}, {"type": "node", "id": 6583788796, "lat": -4.3824369, "lon": 15.3590813, "tags": {"addr:city": "kinshasa", "addr:housenumber": "6", "addr:street": "Baku", "amenity": "hospital", "building": "hospital", "building:condition": "average", "building:levels": "1", "building:material": "brick", "fixme": "V\u00e9rifier et Corriger la position du point", "is_in:admin_level7": "limete", "is_in:admin_level8": "salongo", "name": "Centre M\u00e9dical et Maternit\u00e9 de Honor\u00e9"}}, {"type": "node", "id": 6583798953, "lat": -4.3845019, "lon": 15.3447459, "tags": {"addr:city": "Kinshasa", "addr:housenumber": "8", "addr:street": "Localit\u00e9 Mandina", "amenity": "hospital", "building": "yes", "building:condition": "poor", "building:levels": "1", "building:material": "brick", "name": "Centre M\u00e9dical La Gloire"}}, {"type": "node", "id": 6583935767, "lat": -4.3747854, "lon": 15.3832479, "tags": {"addr:city": "Kinshasa", "addr:housenumber": "195", "addr:street": "imbali", "amenity": "hospital", "building": "yes", "building:condition": "poor", "building:material": "concrete", "is_in:admin_level7": "Masina", "is_in:admin_level8": "Kimbangu", "name": "Imbali m\u00e9dical"}}, {"type": "node", "id": 6583975592, "lat": -4.3732562, "lon": 15.3803338, "tags": {"addr:city": "kinshasa", "addr:housenumber": "67", "addr:street": "mbimi", "amenity": "hospital", "building": "yes", "building:condition": "average", "building:material": "concrete", "is_in:admin_level7": "masina", "is_in:admin_level8": "kimbangu", "name": "Centre m\u00e9dical la main de Dieu"}}, {"type": "node", "id": 6584295171, "lat": -4.3808551, "lon": 15.3817249, "tags": {"addr:city": "Kinshasa", "addr:housenumber": "119", "addr:municipality": "masina", "addr:street": "Mongo", "addr:ward": "television", "amenity": "hospital", "fixme": "Precision sur l'emplacement", "name": "Bienheureux"}}, {"type": "node", "id": 6584448832, "lat": -4.3749887, "lon": 15.3740404, "tags": {"addr:city": "Kinshasa", "addr:housenumber": "109", "addr:street": "Ngabeni", "amenity": "hospital", "building": "yes", "is_in:admin_level7": "Masina", "is_in:admin_level8": "Television", "name": "Centre Hospitalier Zulu"}}, {"type": "node", "id": 6856957760, "lat": -4.2637622, "lon": 15.2200127, "tags": {"amenity": "hospital", "healthcare": "hospital", "name": "Centre de Sant\u00e9 Int\u00e9gr\u00e9 de Moutabala"}}, {"type": "node", "id": 7124277787, "lat": -1.7035065, "lon": 10.3854956, "tags": {"amenity": "hospital"}}, {"type": "node", "id": 7801604031, "lat": -4.415483, "lon": 15.3193043, "tags": {"amenity": "hospital", "healthcare": "hospital", "name": "Centre d'h\u00e9modialyse"}}, {"type": "node", "id": 7802162235, "lat": -4.3465557, "lon": 15.50695, "tags": {"alt_name": "Ex-CNPP", "amenity": "hospital", "disused:vaccination": "covid19", "name": "H\u00f4pital de R\u00e9f\u00e9rence de Kinkole"}}, {"type": "node", "id": 7806719080, "lat": -5.836775, "lon": 13.44871, "tags": {"amenity": "hospital", "healthcare": "hospital"}}, {"type": "node", "id": 7806739255, "lat": -4.415508, "lon": 15.3064726, "tags": {"amenity": "hospital", "healthcare": "hospital", "name": "Centre d'h\u00e9modialyse"}}, {"type": "node", "id": 7806768803, "lat": -4.3306154, "lon": 15.2691363, "tags": {"amenity": "hospital", "healthcare": "hospital", "name": "Centre d'h\u00e9modialyse"}}, {"type": "node", "id": 7806773638, "lat": -4.3176205, "lon": 15.2710389, "tags": {"amenity": "hospital", "healthcare": "hospital", "name": "Centre d'h\u00e9modialyse"}}, {"type": "node", "id": 7806774336, "lat": -4.3082772, "lon": 15.3168009, "tags": {"amenity": "hospital", "check_date": "2023-05-06", "healthcare": "hospital", "name": "centre d'h\u00e9modialyse"}}, {"type": "node", "id": 7806777387, "lat": -4.3236687, "lon": 15.3001069, "tags": {"amenity": "hospital", "check_date": "2023-05-08", "healthcare": "hospital", "name": "centre d'h\u00e9modialyse"}}, {"type": "node", "id": 7806778973, "lat": -4.3191896, "lon": 15.3208207, "tags": {"amenity": "hospital", "check_date": "2023-05-08", "healthcare": "hospital", "name": "Centre d'h\u00e9modialyse"}}, {"type": "node", "id": 7809985152, "lat": -4.3282433, "lon": 18.2528, "tags": {"amenity": "hospital", "name": "H\u00f4pital Secondaire de Zaba"}}, {"type": "node", "id": 7852583486, "lat": -1.2244935, "lon": 16.7972473, "tags": {"amenity": "hospital", "name": "H\u00f4pital de Base et CSI"}}, {"type": "node", "id": 8129910431, "lat": -4.3006777, "lon": 15.2016526, "tags": {"amenity": "hospital", "name": "Centre de sant\u00e9 int\u00e9gr\u00e9 POTO POTO DJOUE"}}, {"type": "node", "id": 8308840022, "lat": -4.2308355, "lon": 15.2643668, "tags": {"amenity": "hospital", "name": "CENTRE DE SANT\u00c9 INT\u00c9GR\u00c9 de MOUKONDO"}}, {"type": "node", "id": 8371816563, "lat": -0.0653326, "lon": 18.1689654, "tags": {"amenity": "hospital", "name": "Centre de sant\u00e9 Wendji Secli", "operator": "Government"}}, {"type": "node", "id": 8377428570, "lat": -0.1424788, "lon": 18.5707435, "tags": {"amenity": "hospital", "name": "Centre de sante Mpaku", "operator": "Government"}}, {"type": "node", "id": 8442590617, "lat": -4.3442398, "lon": 15.2189389, "tags": {"amenity": "hospital", "name": "H\u00f4pital de Brikin"}}, {"type": "node", "id": 8474773717, "lat": -4.3219917, "lon": 15.3332512, "tags": {"amenity": "hospital", "name": "Centre Hospitalier Alliance"}}, {"type": "node", "id": 8880939651, "lat": -8.826528, "lon": 13.2271776, "tags": {"addr:city": "Luanda", "addr:street": "Avenida Revolu\u00e7\u00e3o de Outubro", "amenity": "hospital", "healthcare": "hospital", "name": "Minist\u00e9rio da Sa\u00fade, Hospital Pedi\u00e1trico David Bernardino"}}, {"type": "node", "id": 8880999550, "lat": -8.8274958, "lon": 13.2264621, "tags": {"addr:city": "Luanda", "addr:street": "Avenida Revolu\u00e7\u00e3o de Outubro", "amenity": "hospital", "healthcare": "hospital", "name": "Hospital Psiqui\u00e1trico de Luanda"}}, {"type": "node", "id": 8905706537, "lat": -4.3929595, "lon": 15.3809586, "tags": {"addr:landmark": "Saut de Mouton March\u00e9 de la Libert\u00e9", "addr:street": "Boulevard Lumumba", "addr:suburb": "Masina", "amenity": "hospital", "health_facility:CD": "ch", "name": "H\u00f4pital Marie Biamba Mutombo", "opening_hours": "24/7", "wikidata": "Q3145137"}}, {"type": "node", "id": 8905739469, "lat": -4.3143349, "lon": 15.3024952, "tags": {"addr:housenumber": "N'1", "addr:landmark": "Camp lufungula", "addr:quarter": "Camp lufungula", "addr:street": "Mushie et huileries", "addr:suburb": "Lingwala", "amenity": "hospital", "contact:phone": "+243842558772", "health_facility:CD": "hgr", "name": "H\u00f4pital centrale de r\u00e9f\u00e9rence de la police", "opening_hours": "24/7", "vaccination": "covid19"}}, {"type": "node", "id": 8906262485, "lat": -4.3851467, "lon": 15.339305, "tags": {"addr:landmark": "Camp Kabila", "addr:street": "By Passe", "addr:suburb": "Lemba", "amenity": "hospital", "health_facility:CD": "hgr", "name": "H\u00f4pital G\u00e9n\u00e9ral de R\u00e9f\u00e9rence Camp Kabila", "opening_hours": "24/7", "short_name": "HGR Camp Kabila"}}, {"type": "node", "id": 8914109391, "lat": -4.53955, "lon": 16.315, "tags": {"amenity": "hospital", "disused:vaccination": "covid19", "fixme": "Position \u00e0 rev\u00e9rifier et \u00e0 mettre \u00e0 jour si n\u00e9cessaire", "health_facility:CD": "hgr", "is_in:health_level8": "Monako", "name": "Hopital G\u00e9n\u00e9ral de Reference CHE Maluku"}}, {"type": "node", "id": 8914145225, "lat": -4.4467746, "lon": 16.2001249, "tags": {"amenity": "hospital", "disused:vaccination": "covid19", "fixme": "Position \u00e0 rev\u00e9rifier et \u00e0 mettre \u00e0 jour si n\u00e9cessaire", "health_facility:CD": "hgr", "is_in:health_level8": "Mbakana", "name": "H\u00f4pital G\u00e9n\u00e9ral de R\u00e9f\u00e9rence de Mbankana"}}, {"type": "node", "id": 8914240640, "lat": -4.3486219, "lon": 15.2992575, "tags": {"addr:country": "CD", "addr:landmark": "la police", "addr:street": "bermanie", "addr:suburb": "Kasa-Vubu", "amenity": "hospital", "disused:vaccination": "covid19", "fixme": "Position \u00e0 rev\u00e9rifier et \u00e0 mettre \u00e0 jour si n\u00e9cessaire", "health_facility:CD": "hgr", "is_in:health_level8": "Assossa", "name": "H\u00f4pital G\u00e9n\u00e9ral de R\u00e9f\u00e9rence Pamela"}}, {"type": "node", "id": 8914260400, "lat": -4.3364982, "lon": 15.2426338, "tags": {"addr:quarter": "Camps tshatshi", "addr:suburb": "Ngaliema", "amenity": "hospital", "check_date": "2022-01-03", "fixme": "Position \u00e0 rev\u00e9rifier et \u00e0 mettre \u00e0 jour si n\u00e9cessaire", "health_facility:CD": "h", "is_in:health_level8": "Tshatshi", "name": "H\u00f4pital CMOA Tshatshi", "vaccination": "covid19"}}, {"type": "node", "id": 8914260449, "lat": -4.3368685, "lon": 15.3129031, "tags": {"addr:quarter": "Lodja", "addr:street": "Kanda-kanda", "addr:suburb": "Kasa-Vubu", "amenity": "hospital", "check_date": "2023-05-13", "contact:phone": "+243906952087", "disused:vaccination": "covid19", "fixme": "Position \u00e0 rev\u00e9rifier et \u00e0 mettre \u00e0 jour si n\u00e9cessaire", "health_facility:CD": "h", "is_in:health_level8": "Lodja", "name": "Vitorial m\u00e9dical centre", "opening_hours": "Mo-Fr 07:00-15:00", "opening_hours:covid19": "Mo-Fr 08:00-15:00"}}, {"type": "node", "id": 8914272648, "lat": -4.4290077, "lon": 15.2560372, "tags": {"amenity": "hospital", "check_date": "2021-07-28", "fixme": "Position \u00e0 rev\u00e9rifier et \u00e0 mettre \u00e0 jour si n\u00e9cessaire; doublon du CSR un peu plus au Nord ?", "health_facility:CD": "h", "is_in:health_level8": "Badiadingi", "name": "H\u00f4pital HMG Badiadingi", "vaccination": "covid19"}}, {"type": "node", "id": 8914274021, "lat": -4.3523034, "lon": 15.3068144, "tags": {"addr:country": "CD", "addr:street": "kasa vubu", "addr:suburb": "Kasa-Vubu", "amenity": "hospital", "check_date": "2021-11-27", "disused:vaccination": "covid19", "fixme": "Position \u00e0 rev\u00e9rifier et \u00e0 mettre \u00e0 jour si n\u00e9cessaire", "health_facility:CD": "h", "is_in:health_level8": "Lubumbashi", "name": "centre m\u00e9dical sonal", "opening_hours": "Mo-Fr 07:00-15:30", "opening_hours:covid19": "08:00-15:30"}}, {"type": "node", "id": 8914365000, "lat": -4.3091974, "lon": 15.3179366, "tags": {"amenity": "hospital", "check_date": "2023-05-19", "disused:vaccination": "covid19", "fixme": "Position \u00e0 rev\u00e9rifier et \u00e0 mettre \u00e0 jour si n\u00e9cessaire", "health_facility:CD": "hgr", "is_in:health_level8": "Bitshakutshaku", "name": "H\u00f4pital G\u00e9n\u00e9ral de R\u00e9ference Boyambi"}}, {"type": "node", "id": 8960209543, "lat": -0.0356922, "lon": 18.1929678, "tags": {"amenity": "hospital", "name": "Centre de sant\u00e9 d'Iyonda", "operator": "Government"}}, {"type": "node", "id": 9037474183, "lat": -4.4291432, "lon": 15.278705, "tags": {"addr:housenumber": "23", "addr:quarter": "Massanga mbila", "addr:street": "Etoko", "addr:suburb": "Mont-Ngafula", "amenity": "hospital", "check_date": "2021-12-19", "name": "centre de sant\u00e9 Kin libiki"}}, {"type": "node", "id": 9065927328, "lat": -4.3823904, "lon": 15.2817483, "tags": {"addr:housenumber": "8", "addr:quarter": "Herady", "addr:street": "Madimba", "addr:suburb": "Selembao", "amenity": "hospital", "check_date": "2021-07-28", "is_in:health_level8": "Inga", "name": "centre de sante Mk H\u00f4pital"}}, {"type": "node", "id": 9065941027, "lat": -4.3765593, "lon": 15.3246571, "tags": {"addr:housenumber": "21", "addr:quarter": "Nono", "addr:street": "Puza", "addr:suburb": "Ngaba", "amenity": "hospital", "check_date": "2021/12/6", "health_fac": "h", "name": "Hopital CME Ngaba"}}, {"type": "node", "id": 9065941049, "lat": -4.3091974, "lon": 15.3179366, "tags": {"addr:landmark": "Avenue Kasa\u00ef", "addr:quarter": "Bitshakutshaku", "addr:street": "Kasa\u00ef", "addr:suburb": "Barumbu", "amenity": "hospital", "check_date": "2023-05-19", "health_fac": "hgr", "name": "Clinique dentaire boyambi"}}, {"type": "node", "id": 9065941098, "lat": -4.53955, "lon": 16.315, "tags": {"amenity": "hospital", "fid": "5949", "health_fac": "hgr", "name": "kn CHE Maluku Hopital G\u00e9n\u00e9ral de Reference", "parent": "kn Monako Aire de Sant\u00e9 (Aire de sant\u00e9)"}}, {"type": "node", "id": 9065941139, "lat": -4.4108562, "lon": 15.3042268, "tags": {"amenity": "hospital", "fid": "5908", "health_fac": "hgr", "name": "kn CHMA Hopital General de Reference", "parent": "kn Plateau Aire de Sant\u00e9 (Aire de sant\u00e9)"}}, {"type": "node", "id": 9065941245, "lat": -4.4467746, "lon": 16.2001249, "tags": {"amenity": "hospital", "fid": "5802", "health_fac": "hgr", "name": "kn Mbakana H\u00f4pital G\u00e9n\u00e9ral de R\u00e9f\u00e9rence", "parent": "kn Mbakana Aire de Sant\u00e9 (Aire de sant\u00e9)"}}, {"type": "node", "id": 9065941288, "lat": -4.3246241, "lon": 15.2453958, "tags": {"addr:quarter": "De la rive, \u00e0 la zone pr\u00e9sidentielle", "addr:suburb": "Ngaliema", "amenity": "hospital", "check_date": "2022-01-06", "health_fac": "h", "name": "Hopital De La Rive", "vaccination": "covid19"}}, {"type": "node", "id": 9065941396, "lat": -4.4650176, "lon": 15.2252425, "tags": {"amenity": "hospital", "fid": "5650", "health_fac": "h", "name": "kn Pediatries de Kimbondo H\u00f4pital", "parent": "kn Kimbondo Aire de Sant\u00e9 (Aire de sant\u00e9)"}}, {"type": "node", "id": 9065941434, "lat": -4.4194828, "lon": 15.380556, "tags": {"amenity": "hospital", "fid": "5611", "health_fac": "h", "name": "kn Kimbanguiste H\u00f4pital", "parent": "kn Kutu Aire de Sant\u00e9 (Aire de sant\u00e9)"}}, {"type": "node", "id": 9065941512, "lat": -4.3930256, "lon": 15.3465248, "tags": {"addr:landmark": "March\u00e9 de matete", "addr:quarter": "Mutoto", "addr:street": "Mutoto", "addr:suburb": "Matete", "amenity": "hospital", "check_date": "2021-12-14", "disused:vaccination": "covid19", "health_fac": "hgr", "name": "Omeco Hopital General"}}, {"type": "node", "id": 9065941535, "lat": -4.3368685, "lon": 15.3129031, "tags": {"addr:country": "CD", "addr:quarter": "kanda kanda", "addr:street": "kanda", "addr:suburb": "Kasa-Vubu", "amenity": "hospital", "check_date": "2023-05-13", "name": "Hopital Victoria", "parent": "Lodja Aire de Sant\u00e9 (Aire de sant\u00e9)"}}, {"type": "node", "id": 9065941536, "lat": -4.3382489, "lon": 15.3109289, "tags": {"addr:country": "CD", "addr:suburb": "Kasa-Vubu", "amenity": "hospital", "check_date": "2023-05-13", "name": "Hopitale trinit\u00e9"}}, {"type": "node", "id": 9065941537, "lat": -4.3486219, "lon": 15.2992575, "tags": {"amenity": "hospital", "fid": "5505", "health_fac": "hgr", "name": "kn Pamela H\u00f4pital G\u00e9n\u00e9ral de R\u00e9f\u00e9rence", "parent": "kn Assossa Aire de Sant\u00e9 (Aire de sant\u00e9)"}}, {"type": "node", "id": 9065941546, "lat": -4.3523034, "lon": 15.3068144, "tags": {"amenity": "hospital", "fid": "5496", "health_fac": "h", "name": "kn Sonal H\u00f4pital", "parent": "kn Lubumbashi Aire de Sant\u00e9 (Aire de sant\u00e9)"}}, {"type": "node", "id": 9065941695, "lat": -4.3024704, "lon": 15.3080786, "tags": {"addr:landmark": "Maison d\u2019habillement Emilio Santini", "addr:suburb": "Gombe", "amenity": "hospital", "check_date": "2021-12-07", "health_fac": "h", "name": "H\u00f4pital CM Mongala"}}, {"type": "node", "id": 9065941703, "lat": -4.3109, "lon": 15.3022, "tags": {"addr:landmark": "En face de la INRB", "addr:suburb": "Gombe", "amenity": "hospital", "check_date": "2023-05-08", "health_fac": "h", "name": "H\u00f4pital New Medicis"}}, {"type": "node", "id": 9065941709, "lat": -4.3095173, "lon": 15.3044179, "tags": {"addr:landmark": "Terrain HGRK", "addr:suburb": "Gombe", "amenity": "hospital", "check_date": "2021-12-06", "health_fac": "hgr", "name": "H\u00f4pital G\u00e9n\u00e9ral de R\u00e9f\u00e9rence de Kinshasa"}}, {"type": "node", "id": 9065941714, "lat": -4.3632822, "lon": 15.3396095, "tags": {"amenity": "hospital", "fid": "5328", "health_fac": "h", "name": "kn H\u00f4pital Saint Joseph H\u00f4pital", "parent": "kn R\u00e9sidentielle Aire de Sant\u00e9 (Aire de sant\u00e9)"}}, {"type": "node", "id": 9065941736, "lat": -4.3506494, "lon": 15.325454, "tags": {"addr:quarter": "Mumbele", "addr:street": "yolo", "addr:suburb": "limete", "amenity": "hospital", "check_date": "2023-05-13", "health_fac": "h", "name": "kn Yolo M\u00e9dical Hopital", "parent": "kn Mososo Aire de Sant\u00e9 (Aire de sant\u00e9)"}}, {"type": "node", "id": 9065941812, "lat": -4.4290077, "lon": 15.2560372, "tags": {"amenity": "hospital", "fid": "5230", "health_fac": "h", "name": "kn HMG Badiadingi H\u00f4pital", "parent": "kn Badiadingi Aire de Sant\u00e9 (Aire de sant\u00e9)"}}, {"type": "node", "id": 9065941814, "lat": -4.3353503, "lon": 15.2909821, "tags": {"amenity": "hospital", "disused:amenity": "doctors", "fid": "5228", "health_fac": "h", "name": "kn HMC Kinshasa H\u00f4pital", "parent": "kn Kokolo 1 Aire de Sant\u00e9 (Aire de sant\u00e9)"}}, {"type": "node", "id": 9065941817, "lat": -4.329009, "lon": 15.2840161, "tags": {"amenity": "hospital", "fid": "5225", "health_fac": "h", "name": "kn CMR Kokolo H\u00f4pital", "parent": "kn Kokolo 2 Aire de Sant\u00e9 (Aire de sant\u00e9)"}}, {"type": "node", "id": 9065941821, "lat": -4.3364982, "lon": 15.241873, "tags": {"amenity": "hospital", "fid": "5221", "health_fac": "h", "name": "kn CMOA Tshatshi H\u00f4pital", "parent": "kn Tshatshi Aire de Sant\u00e9 (Aire de sant\u00e9)"}}, {"type": "node", "id": 9065941822, "lat": -4.3974883, "lon": 15.452415, "tags": {"amenity": "hospital", "fid": "5220", "health_fac": "h", "name": "kn CMOA Ceta H\u00f4pital", "parent": "kn CETA Aire de Sant\u00e9 (Aire de sant\u00e9)"}}, {"type": "node", "id": 9065941827, "lat": -4.3241514, "lon": 15.3364428, "tags": {"addr:landmark": "Avenue poid lourd", "addr:suburb": "Barumbu", "amenity": "hospital", "check_date": "2021-12-07", "health_fac": "h", "name": "H\u00f4pital CMOA Force Navale"}}, {"type": "node", "id": 9065941829, "lat": -4.3684723, "lon": 15.2583166, "tags": {"amenity": "hospital", "fid": "5213", "health_fac": "h", "name": "kn CSMR Meteo H\u00f4pital", "parent": "kn Meteo Aire de Sant\u00e9 (Aire de sant\u00e9)"}}, {"type": "node", "id": 9132114772, "lat": -4.4113253, "lon": 15.3381556, "tags": {"addr:housenumber": "44", "addr:landmark": "March\u00e9 Kinseso, cabine courant", "addr:quarter": "Mission", "addr:street": "Bukala", "addr:suburb": "Kisenso", "amenity": "hospital", "check-date": "2021-12-17", "disused:vaccination": "covid19", "name": "H\u00f4pital g\u00e9n\u00e9ral de r\u00e9f\u00e9rence de Kinseso, zone de sant\u00e9 de Kinseso"}}, {"type": "node", "id": 9178150223, "lat": -0.0820206, "lon": 18.0891354, "tags": {"amenity": "hospital", "name": "Ekele Health Facility", "operator": "Government"}}, {"type": "node", "id": 9229624350, "lat": -4.35912, "lon": 15.3240333, "tags": {"addr:landmark": "Prince mombele", "addr:quarter": "Mombele", "addr:street": "Bateke", "addr:suburb": "Limete", "amenity": "hospital", "check-date": "2021-12-17", "name": "Centre de sant\u00e9 Omeco"}}, {"type": "node", "id": 9229926620, "lat": -4.3634, "lon": 15.3245, "tags": {"addr:quarter": "Mukoko", "addr:street": "Mukoko", "addr:suburb": "limete", "amenity": "hospital", "health_fac": "hgr", "name": "H\u00f4pital G\u00e9n\u00e9ral de R\u00e9f\u00e9rence Bondeko"}}, {"type": "node", "id": 9537429917, "lat": -4.3217838, "lon": 15.2778952, "tags": {"addr:street": "Socimat", "amenity": "hospital", "check_date": "2023-05-08", "name": "M\u00e9decin de nuit", "name:en": "SOS HOSPITAL"}}, {"type": "node", "id": 9643444417, "lat": -4.4230591, "lon": 18.4270408, "tags": {"amenity": "hospital", "name": "hopital vanga"}}, {"type": "node", "id": 9776025694, "lat": -5.9462513, "lon": 12.3567748, "tags": {"amenity": "hospital", "healthcare": "la grace"}}, {"type": "node", "id": 9974917151, "lat": -5.7352569, "lon": 14.1078212, "tags": {"amenity": "hospital", "healthcare": "hospital", "name": "Centre de Sante de Malanga Lombe", "operator": "Infirmier Titulaire Bavon", "operator:type": "private"}}, {"type": "node", "id": 9977000445, "lat": -4.4251149, "lon": 15.2854934, "tags": {"amenity": "hospital", "name": "Hopital generale de MONKOLE"}}, {"type": "node", "id": 10006448694, "lat": -5.8367775, "lon": 13.472524, "tags": {"amenity": "hospital", "name": "Centre de Sant\u00e9 de r\u00e9f\u00e9rence et Maternit\u00e9 de Mvuzi"}}, {"type": "node", "id": 10006448697, "lat": -5.8397086, "lon": 13.4710193, "tags": {"amenity": "hospital", "name": "Kembo medical"}}, {"type": "node", "id": 10596110784, "lat": -8.902411, "lon": 13.2220814, "tags": {"addr:city": "Luanda", "addr:housenumber": "8011", "addr:street": "Rua 130A", "amenity": "hospital", "healthcare": "hospital", "healthcare:speciality": "general", "name": "Cl\u00ednica CEMI", "operator": "+24493188080"}}, {"type": "node", "id": 10788487808, "lat": -9.4831274, "lon": 16.8500547, "tags": {"amenity": "hospital", "healthcare": "hospital", "name": "Caculama Municipal Hospital"}}, {"type": "node", "id": 10945944675, "lat": -0.7942316, "lon": 18.7264229, "tags": {"amenity": "hospital", "name": "Butela"}}, {"type": "node", "id": 10945984624, "lat": -1.5789882, "lon": 18.3936506, "tags": {"amenity": "hospital", "name": "CS Isongo Bolia"}}, {"type": "node", "id": 10994352118, "lat": -0.8120922, "lon": 12.7386246, "tags": {"amenity": "hospital", "name": "H\u00f4pital"}}, {"type": "node", "id": 11200158737, "lat": -5.5565546, "lon": 12.2453061, "tags": {"amenity": "hospital", "name": "28 de Agosto"}}, {"type": "node", "id": 11200158937, "lat": -5.5262547, "lon": 12.2418572, "tags": {"amenity": "hospital", "name": "Chinga"}}, {"type": "way", "id": 48525726, "center": {"lat": -4.4064688, "lon": 15.3038086}, "nodes": [5287475023, 616490052, 5331035031, 616490055, 616490058, 616490060, 616490066, 616490067, 616490068, 616490069, 7560049722, 616490073, 616490077, 5287475023], "tags": {"amenity": "hospital", "building": "yes", "healthcare": "yes", "name": "Centre NeuroPsychoPathologique", "operator": "Universit\u00e9 de Kinshasa", "short_name": "CNPP-UNIKIN"}}, {"type": "way", "id": 57889654, "center": {"lat": -4.359902, "lon": 15.3207625}, "nodes": [718447069, 2165983914, 2165983916, 2165983915, 2165983913, 2165983912, 2165983911, 718447075, 718447060, 718447065, 718447069], "tags": {"alt_name": "Centre de sant\u00e9 Mabanga", "amenity": "hospital", "building": "yes", "disused:vaccination": "covid19", "healthcare": "hospital", "name": "H\u00f4pital SS Mabanga", "opening_hours": "Mo-Fr 08:00-15:30", "opening_hours:covid19": "08:00-15:30"}}, {"type": "way", "id": 57898054, "center": {"lat": -4.3540801, "lon": 15.2658057}, "nodes": [718495542, 718495543, 718495544, 718495545, 718495542], "tags": {"amenity": "hospital", "disused:vaccination": "covid19", "emergency": "yes", "name": "Centre Nganda", "source": "Local knowledge"}}, {"type": "way", "id": 60355326, "center": {"lat": -8.8975806, "lon": 13.259415}, "nodes": [750806945, 5695278867, 750806962, 5695278868, 5695278432, 750806996, 5695278866, 750807031, 750807068, 750807103, 750807137, 750807173, 750807217, 750806945], "tags": {"amenity": "hospital", "emergency": "yes", "healthcare": "hospital", "name": "Hospital Geral de Luanda"}}, {"type": "way", "id": 62371086, "center": {"lat": -8.8244591, "lon": 13.2594854}, "nodes": [779107850, 779107851, 779107852, 779107853, 643459154, 779107855, 779107858, 779107850], "tags": {"addr:city": "Luanda", "amenity": "hospital", "healthcare": "hospital", "name": "Hospital Am\u00e9rico Boavida (HAB)"}}, {"type": "way", "id": 62372132, "center": {"lat": -8.8325246, "lon": 13.2243234}, "nodes": [779113733, 779113738, 779113739, 779113740, 779113741, 779113742, 779113743, 779113744, 779113745, 779113746, 779113747, 779113749, 779113768, 779113772, 779113773, 779113774, 779113733], "tags": {"addr:city": "Luanda", "amenity": "hospital", "name": "Hospital do Prenda"}}, {"type": "way", "id": 102422512, "center": {"lat": -4.3419047, "lon": 15.2963058}, "nodes": [1182813859, 1182813854, 1182813850, 1182813855, 1182813859], "tags": {"addr:city": "Kasa-Vubu", "addr:street": "Avenue de la Lib\u00e9ration", "amenity": "hospital", "contact:facebook": "https://www.facebook.com/padiyathmedicitykinshasa/", "healthcare": "hospital", "name": "H\u00f4pital du Cinquantenaire", "website": "http://padiyathmedicitykinshasa.com/", "wikidata": "Q16642763", "wikipedia": "fr:H\u00f4pital du Cinquantenaire"}}, {"type": "way", "id": 128437796, "center": {"lat": -4.3045046, "lon": 15.2963906}, "nodes": [1419419632, 1419419553, 1419419608, 7518525381, 1419419379, 1419419396, 1419419514, 1419419632], "tags": {"addr:city": "Gombe", "addr:housenumber": "81", "addr:street": "Avenue Mbuji Mayi", "amenity": "hospital", "building": "hospital", "check_date": "2023-05-13", "healthcare": "hospital", "name": "Centre Medical International"}}, {"type": "way", "id": 152307629, "center": {"lat": -8.8233552, "lon": 13.2278984}, "nodes": [1651353212, 1651353298, 7315246401, 7315246402, 1651353312, 1651353328, 1651353316, 1651353240, 1651353282, 1651353245, 1651353271, 1651353258, 1651353212], "tags": {"amenity": "hospital", "healthcare": "hospital", "name": "Hospital Josina Machel", "wikidata": "Q55322353"}}, {"type": "way", "id": 152307634, "center": {"lat": -8.8253721, "lon": 13.2263365}, "nodes": [1651353329, 1651353242, 1651353241, 1651353210, 1651353329], "tags": {"amenity": "hospital", "healthcare": "hospital"}}, {"type": "way", "id": 152307644, "center": {"lat": -8.8254666, "lon": 13.2260804}, "nodes": [1651353310, 1651353305, 1651353226, 1651353264, 1651353188, 1651353283, 1651353280, 1651353191, 1651353203, 1651353244, 1651353310], "tags": {"addr:city": "Luanda", "amenity": "hospital", "healthcare": "hospital", "name": "Hospital Psiqui\u00e1trico de Luanda"}}, {"type": "way", "id": 152313539, "center": {"lat": -8.8613951, "lon": 13.283596}, "nodes": [1651405773, 2305063772, 1651405745, 1651405721, 10035952612, 10035952611, 1651405798, 1651405812, 1651405697, 1651405773], "tags": {"amenity": "hospital", "emergency": "no", "healthcare": "hospital", "name": "Complexo Hospitalar de Doen\u00e7as Cardio-Pulmonares Cardial Dom Alexandre do Nascimento"}}, {"type": "way", "id": 159347663, "center": {"lat": -8.9120372, "lon": 13.2267482}, "nodes": [1714593869, 1714593845, 3813152251, 1714593881, 1714593877, 1714593865, 1714593874, 3813152252, 1714593869], "tags": {"addr:city": "Luanda", "amenity": "hospital", "emergency": "yes", "healthcare": "hospital", "name": "Cl\u00ednica Caridade", "name:de": "Wohlt\u00e4tigkeitsklinik", "name:en": "Charity Clinic", "name:es": "Cl\u00ednica Caridad", "name:fr": "Clinique Caritative", "name:it": "Clinica Carit\u00e0", "name:nl": "Liefdadigheidskliniek", "name:pl": "Charytatywna Klinika", "name:pt": "Cl\u00ednica Caridade", "name:ru": "\u0411\u043b\u0430\u0433\u043e\u0442\u0432\u043e\u0440\u0438\u0442\u0435\u043b\u044c\u043d\u0430\u044f \u041a\u043b\u0438\u043d\u0438\u043a\u0430"}}, {"type": "way", "id": 201331260, "center": {"lat": -8.8098765, "lon": 13.2495466}, "nodes": [2112874061, 2112874076, 9204513791, 9204513792, 9204513793, 9204513794, 2112874075, 2112874052, 2112874051, 2112874048, 2112874047, 2112874039, 9204513789, 9204513790, 2112874042, 2112874060, 2112874061], "tags": {"addr:city": "Luanda", "addr:housenumber": "65", "addr:street": "Alameda do Principe Real", "amenity": "hospital", "building": "yes", "healthcare": "hospital", "name": "Cl\u00ednica Climed"}}, {"type": "way", "id": 202995614, "center": {"lat": -4.321765, "lon": 15.5178839}, "nodes": [2129571591, 2129571595, 2129571606, 2129571602, 2129571591], "tags": {"amenity": "hospital", "building": "hospital", "disused:vaccination": "covid19", "healthcare": "hospital", "name": "H\u00f4pital catholique Tonga"}}, {"type": "way", "id": 206512834, "center": {"lat": -8.800216, "lon": 13.3941331}, "nodes": [2165218545, 2165218546, 2165218548, 2165218535, 2165218545], "tags": {"amenity": "hospital", "emergency": "yes", "name": "Hospital de Cacuaco"}}, {"type": "way", "id": 206793168, "center": {"lat": -8.4912848, "lon": 13.3762461}, "nodes": [2168354705, 2168354613, 2168354636, 2168354614, 2168354631, 2168354689, 2168354650, 2168354666, 2168354705], "tags": {"amenity": "hospital", "emergency": "yes", "name": "Hospital do Dande"}}, {"type": "way", "id": 207186559, "center": {"lat": -8.8219002, "lon": 13.2376406}, "nodes": [2173433343, 2173433336, 2173433346, 2173433344, 2173433343], "tags": {"addr:city": "Luanda", "amenity": "hospital", "emergency": "yes", "name": "Chevron Clinic"}}, {"type": "way", "id": 207202557, "center": {"lat": -8.8261861, "lon": 13.2402099}, "nodes": [2173599441, 2173599572, 2173599434, 2173599440, 2173599483, 2173599485, 2173599488, 2173599567, 2173599539, 2173599584, 2173599498, 2173599496, 2173599383, 2173599454, 2173599450, 2173599505, 2173599512, 2173599568, 2173599569, 2173599508, 2173599441], "tags": {"addr:city": "Luanda", "amenity": "hospital", "emergency": "yes", "healthcare": "hospital", "name": "Hospital Militar Central"}}, {"type": "way", "id": 210358393, "center": {"lat": -9.4242273, "lon": 15.7390302}, "nodes": [2204377023, 9670839852, 9670839849, 9670839850, 9670839851, 2204377022, 2204377069, 2204377062, 2204377053, 2204377050, 2204377040, 2204377041, 2204377023], "tags": {"amenity": "hospital", "name": "Hospital do Cacuso"}}, {"type": "way", "id": 210365291, "center": {"lat": -9.2621263, "lon": 15.8111497}, "nodes": [2204440347, 2204440349, 2204440348, 2204440346, 2204440347], "tags": {"amenity": "hospital", "building": "yes", "name": "Posto M\u00e9dico do Soqueco"}}, {"type": "way", "id": 211015410, "center": {"lat": -4.4239261, "lon": 15.2855936}, "nodes": [2210280407, 2210280411, 2210280413, 2210280409, 2210280407], "tags": {"amenity": "hospital", "name": "H\u00f4pital Monkole 3"}}, {"type": "way", "id": 211015682, "center": {"lat": -4.4252445, "lon": 15.2864468}, "nodes": [2210281961, 2210281959, 2210281960, 2210281962, 2210281955, 2210281957, 2210281958, 2210281951, 2210281956, 2210281946, 2210281949, 2210281948, 2210281953, 2210281947, 2210281950, 2210281954, 2210281952, 2210281961], "tags": {"amenity": "hospital", "name": "Centre chirurgical Monkole 2"}}, {"type": "way", "id": 224360779, "center": {"lat": -8.8103208, "lon": 13.2468706}, "nodes": [2331774400, 2331774447, 2331774409, 2331774435, 2331774400], "tags": {"amenity": "hospital", "emergency": "yes", "name": "Hospital Especializado Augusto N\u2019Gangula"}}, {"type": "way", "id": 234383793, "center": {"lat": -8.8313355, "lon": 13.2688609}, "nodes": [2426387127, 2426387129, 2426387128, 2426387126, 2426387127], "tags": {"addr:street": "Rua da Sa\u00fade", "amenity": "hospital", "emergency": "yes", "name": "Centro de Sa\u00fade do Rangel"}}, {"type": "way", "id": 234791053, "center": {"lat": -5.5769698, "lon": 12.1856132}, "nodes": [2429245687, 2429245685, 2429245686, 2429245682, 2429245684, 2429245683, 2429245687], "tags": {"amenity": "hospital", "healthcare": "hospital", "name": "Hospital 1\u00ba de Maio", "name:fr": "H\u00f4pital 1er Mai"}}, {"type": "way", "id": 235839301, "center": {"lat": -5.5601143, "lon": 12.1968413}, "nodes": [2439135330, 2428936055, 2438966995, 2439135328, 2439135337, 2439135322, 2439001789, 2439135338, 2439135333, 2439135325, 2439135330], "tags": {"amenity": "hospital", "healthcare": "hospital", "name": "Hospital Central", "name:fr": "H\u00f4pital Central"}}, {"type": "way", "id": 235862384, "center": {"lat": -5.559609, "lon": 12.210907}, "nodes": [2439338061, 2439338063, 2439338060, 2439338062, 2439338061], "tags": {"amenity": "hospital", "name": "Centro de Sa\u00fade do Lombo Lombo"}}, {"type": "way", "id": 240940866, "center": {"lat": -8.8247816, "lon": 13.2813548}, "nodes": [2486252635, 2486252625, 2486252672, 2486252583, 2486252635], "tags": {"amenity": "hospital", "designation": "hospital", "emergency": "yes", "name": "Hospital dos Cajueiros"}}, {"type": "way", "id": 248403552, "center": {"lat": -5.5548073, "lon": 12.1901432}, "nodes": [2551930793, 2551930796, 2551930798, 2551930800, 2551930793], "tags": {"amenity": "hospital", "building": "yes"}}, {"type": "way", "id": 248403553, "center": {"lat": -5.5551702, "lon": 12.1900977}, "nodes": [2551930802, 2551930804, 2551930806, 2551930808, 2551930802], "tags": {"amenity": "hospital", "building": "yes"}}, {"type": "way", "id": 261075036, "center": {"lat": -1.1406207, "lon": 15.9714914}, "nodes": [2666924311, 2666924312, 2666924313, 2666924315, 5675067081, 2666924318, 2666924319, 2666924311], "tags": {"amenity": "hospital", "healthcare": "hospital", "name": "H\u00f4pital G\u00e9n\u00e9ral Edith Lucie Bongo Ondimba"}}, {"type": "way", "id": 283159584, "center": {"lat": -8.9308211, "lon": 13.2436928}, "nodes": [2870683443, 2870683423, 2870683415, 5693547347, 2870683443], "tags": {"addr:city": "Luanda", "amenity": "hospital", "emergency": "yes", "healthcare": "hospital", "name": "Maternidade do Chimbicato"}}, {"type": "way", "id": 284185200, "center": {"lat": -8.8373447, "lon": 13.2309635}, "nodes": [2879452445, 2879452437, 2879452450, 9203726515, 9203726516, 8873782378, 8873782377, 9203727117, 9203727118, 8873812520, 2323308725, 9203727122, 9203727121, 9203727120, 9203727119, 5595783581, 9203726510, 2879453814, 9203726511, 2879452431, 9203726512, 8873838728, 9203726513, 9203726514, 8873808670, 2879452445], "tags": {"addr:city": "Luanda", "addr:housenumber": "225", "addr:street": "Avenida Comandante Gika", "amenity": "hospital", "building:levels": "2", "contact:fax": "+244 226 698 218", "emergency": "yes", "healthcare": "hospital", "name": "Cl\u00ednica Girassol", "name:fr": "Clinique Girassol", "phone": "+244 226 698 000, +244 226 698 415, +244 226 698 416", "website": "https://www.cl\u00ednicagirassol.co.ao"}}, {"type": "way", "id": 304334597, "center": {"lat": -8.9063151, "lon": 13.4150027}, "nodes": [3088571568, 3088571566, 3088571565, 3088571567, 3088571568], "tags": {"amenity": "hospital", "name": "Hospital Geral de Viana"}}, {"type": "way", "id": 310917652, "center": {"lat": -8.8642378, "lon": 13.2789773}, "nodes": [3164220577, 3164220588, 3164220580, 3164220587, 3164220583, 3164220577], "tags": {"addr:city": "Luanda", "amenity": "hospital", "emergency": "yes", "name": "Hostpital & Maternidade do Palanca"}}, {"type": "way", "id": 312738182, "center": {"lat": -8.925223, "lon": 13.1843368}, "nodes": [3186263979, 752941981, 3186263981, 3186263982, 3186263979], "tags": {"addr:city": "Luanda", "amenity": "hospital", "building": "yes", "healthcare": "hospital", "name": "Sagrada Esperen\u00e7a Talatona"}}, {"type": "way", "id": 312765908, "center": {"lat": -8.8660719, "lon": 13.2831668}, "nodes": [3186577782, 3186577794, 3186577793, 3186577792, 3186577782], "tags": {"amenity": "hospital", "emergency": "yes"}}, {"type": "way", "id": 316667385, "center": {"lat": -4.8270506, "lon": 15.1797409}, "nodes": [3228090502, 3228090503, 3228090504, 3228090505, 3228090506, 3228090502], "tags": {"amenity": "hospital"}}, {"type": "way", "id": 325722862, "center": {"lat": -4.8234304, "lon": 11.8753291}, "nodes": [3323405410, 3323405412, 3323405411, 3323405408, 3323405410], "tags": {"amenity": "hospital", "healthcare": "hospital", "name": "Centre de sant\u00e9 int\u00e9gr\u00e9 de Tchimbamba"}}, {"type": "way", "id": 325722866, "center": {"lat": -4.7940914, "lon": 11.8879489}, "nodes": [3323405327, 3323405326, 3323405330, 3323405334, 3323405327], "tags": {"alt_name": "Hopital de base de Ti\u00e9ti\u00e9", "amenity": "hospital", "healthcare": "hospital", "name": "Hopital de BASE DE Ti\u00e9-Ti\u00e9"}}, {"type": "way", "id": 334693013, "center": {"lat": -4.3549563, "lon": 15.3308689}, "nodes": [3417535422, 3417535425, 3417535426, 3417535427, 3417535422], "tags": {"addr:city": "Kinshasa", "addr:housenumber": "12", "addr:street": "Fikis", "amenity": "hospital", "building": "yes", "is_in:admin_level7": "Limete", "is_in:admin_level8": "Ndanu", "name": "Centre M\u00e9dical et Maternit\u00e9"}}, {"type": "way", "id": 335709426, "center": {"lat": -4.355278, "lon": 15.3313566}, "nodes": [3428196139, 3428196140, 3428196141, 3428196142, 3428196143, 3428196144, 3428196139], "tags": {"addr:city": "Kinshasa", "addr:housenumber": "12", "addr:street": "Bosembo", "amenity": "hospital", "building": "yes", "fixme": "Verify building name and amenity", "is_in:admin_level7": "Limete", "is_in:admin_level8": "Ndanu", "name": "Centre M\u00e9dical la Main de Dieu"}}, {"type": "way", "id": 338457389, "center": {"lat": -4.3599321, "lon": 15.3351465}, "nodes": [3455377950, 3455377951, 3455377952, 3455377953, 3455377954, 3455377955, 3455377950], "tags": {"amenity": "hospital", "building": "yes", "name": "BF SUMA"}}, {"type": "way", "id": 343895226, "center": {"lat": -5.0402184, "lon": 18.8165095}, "nodes": [3506798172, 3506798173, 3506798174, 3506798175, 3506798176, 3506798177, 3506798172], "tags": {"amenity": "hospital", "emergency": "yes", "name": "H\u00f4pital g\u00e9n\u00e9ral de r\u00e9f\u00e9rence de Kikwit", "website": "https://www.azv.be/fr/hospital/h%C3%B4pital-g%C3%A9n%C3%A9ral-de-r%C3%A9f%C3%A9rence-kikwit"}}, {"type": "way", "id": 362880802, "center": {"lat": -4.383029, "lon": 15.2611866}, "nodes": [3671216837, 3671216838, 718628352, 3671216840, 3671216841, 4053970790, 3671216837], "tags": {"amenity": "hospital", "name": "Maternit\u00e9", "name:fr": "Maternit\u00e9 des Soeurs"}}, {"type": "way", "id": 363410096, "center": {"lat": -4.3251549, "lon": 15.2431356}, "nodes": [4774813133, 3675780004, 9417291833, 9417291832, 9417291831, 3675780005, 3675780006, 4774813133], "tags": {"amenity": "hospital", "healthcare": "yes", "layer": "1", "name": "Centre d'excellence Damien CEDA", "name:fr": "Centre d'excellence Damien CEDA"}}, {"type": "way", "id": 364054503, "center": {"lat": -4.385511, "lon": 15.3393064}, "nodes": [3681596464, 6583759942, 3681596472, 3681596473, 3681596464], "tags": {"addr:city": "Kinshasa", "addr:street": "Camp Kabila", "amenity": "hospital", "building": "hospital", "building:condition": "good", "building:levels": "1", "building:material": "brick", "name": "Centre Hospitalier Camp Kabila", "vaccination": "covid19"}}, {"type": "way", "id": 368806391, "center": {"lat": -4.274571, "lon": 15.2579977}, "nodes": [616937487, 4504609045, 616937486, 4504609044, 616937485, 3726509717, 3726509718, 3726509719, 3726509720, 3726509721, 3726509722, 616937487], "tags": {"amenity": "hospital", "name": "H\u00f4pital M\u00e8re et Enfant Blanche Gomes"}}, {"type": "way", "id": 368809375, "center": {"lat": -4.2342291, "lon": 15.295353}, "nodes": [3726531291, 3726531292, 3726531293, 3726531294, 3726531295, 3726531296, 3726531297, 3726531298, 3726531299, 3726531300, 3726531301, 3726531302, 3726531303, 3726531304, 3726531305, 3726531306, 3726531307, 3726531308, 3726531291], "tags": {"amenity": "hospital", "name": "H\u00f4pital de Talanga\u00ef"}}, {"type": "way", "id": 368809377, "center": {"lat": -4.2649321, "lon": 15.2695719}, "nodes": [3726531310, 3726531311, 3726531312, 3726531313, 3726531314, 3726531315, 3726531316, 3726531317, 3726531318, 3726531319, 3726531320, 3726531321, 3726531322, 3726531323, 3726531324, 3726532225, 3726532226, 3726532227, 3726532228, 3726532229, 3726532230, 3726532231, 6848169088, 3726532232, 3726531310], "tags": {"amenity": "hospital", "healthcare": "hospital", "name": "Centre Hospitalier Universitaire de Brazzaville (CHU-BZV)"}}, {"type": "way", "id": 378457414, "center": {"lat": -5.8249374, "lon": 13.4658536}, "nodes": [3818672643, 3818672644, 3818672645, 3818672646, 3818672647, 3818672648, 3818672649, 3818672650, 3818672651, 3818672652, 3818672643], "tags": {"amenity": "hospital", "name": "Hopital de r\u00e9f\u00e9rence de kiamvu"}}, {"type": "way", "id": 378457428, "center": {"lat": -5.829817, "lon": 13.4604273}, "nodes": [3818673402, 3818673403, 3818673404, 3818673405, 3818673402], "tags": {"addr:city": "MATADI", "addr:street": "Avenue Bukavu", "amenity": "hospital", "emergency": "yes", "name": "Centre Medical MIDEMA"}}, {"type": "way", "id": 390204901, "center": {"lat": -4.2648398, "lon": 15.2644022}, "nodes": [3933669638, 3933669639, 3933669640, 3933669641, 3933669638], "tags": {"amenity": "hospital", "name": "Centre Psychiatrique du CHU", "operator": "CHU"}}, {"type": "way", "id": 393438665, "center": {"lat": -4.7603271, "lon": 11.8687384}, "nodes": [3966347824, 3966347825, 3966347826, 3966347827, 3966347828, 5250476556, 5250476555, 3966347831, 3966347824], "tags": {"amenity": "hospital", "healthcare": "hospital", "name": "H\u00f4pital Loandjili"}}, {"type": "way", "id": 404843994, "center": {"lat": -4.3347444, "lon": 15.2710466}, "nodes": [4070987958, 4070987959, 4070987960, 4070987961, 4070987962, 4070987963, 4070987964, 4070987965, 4070987966, 441141197, 4070987968, 4070987969, 4070987958], "tags": {"alt_name": "H\u00f4pital de Kitambo", "amenity": "hospital", "health_facility:CD": "hgr", "is_in:health_level8": "Lisala", "name": "H\u00f4pital G\u00e9n\u00e9ral de R\u00e9f\u00e9rence de Kintambo", "vaccination": "covid19"}}, {"type": "way", "id": 405241795, "center": {"lat": -4.3148308, "lon": 15.3025291}, "nodes": [5216399719, 4074557717, 4074557718, 4074557719, 4074557720, 4074557721, 7560001238, 4074557722, 4074557723, 5216399719], "tags": {"amenity": "hospital", "building": "hospital", "check_date": "2023-05-08", "healthcare": "hospital", "layer": "1", "name": "Clinique police nationale Camp Lufungula"}}, {"type": "way", "id": 418273727, "center": {"lat": -4.4182693, "lon": 15.3815881}, "nodes": [4187112934, 4187112935, 4187112936, 4187112937, 4187112934], "tags": {"addr:city": "Kinshasa", "addr:housenumber": "99", "addr:street": "Nsanga", "amenity": "hospital", "building": "yes", "building:condition": "average", "building:levels": "1", "building:material": "brick", "name": "Centre M\u00e9dical Tradi Moderne Rapha"}}, {"type": "way", "id": 420810162, "center": {"lat": -8.8192928, "lon": 13.2315142}, "nodes": [4207147437, 4207147546, 9206756232, 9206756233, 4207147547, 4207147548, 4207147549, 4207147550, 4207147551, 4207147552, 4207147553, 4207147554, 4207147437], "tags": {"addr:city": "Luanda", "addr:housenumber": "N\u00ba3", "addr:street": "Rua Am\u00edlcar Cabral (Largo Serpa Pinto)", "amenity": "hospital", "building": "commercial", "building:levels": "15", "healthcare": "hospital", "name": "Edif\u00edcio Luanda Medical Center", "name:fr": "Luanda M\u00e9dical Center"}}, {"type": "way", "id": 420845993, "center": {"lat": -8.9173523, "lon": 13.3753462}, "nodes": [4207430808, 4207430809, 8703267342, 8703267343, 8703267344, 8703267346, 8703267347, 8703267345, 4207430811, 4207430812, 4207430808], "tags": {"addr:city": "vIANA, lUANDA", "amenity": "hospital", "name": "Centro Materno Infantil Ana Paula dos Santos", "operator": "MINSA"}}, {"type": "way", "id": 425388930, "center": {"lat": -6.4276697, "lon": 17.0900297}, "nodes": [4247178573, 4247178582, 4247178587, 4247178577, 4247178573], "tags": {"amenity": "hospital", "building": "hospital", "name": "Spital Matamba-Solo"}}, {"type": "way", "id": 425388981, "center": {"lat": -6.4275866, "lon": 17.0904226}, "nodes": [4247178567, 4247178575, 4247178578, 4247178570, 4247178567], "tags": {"amenity": "hospital", "building": "hospital", "name": "Spital Matamba-Solo"}}, {"type": "way", "id": 425389045, "center": {"lat": -6.4274469, "lon": 17.0897712}, "nodes": [4247178554, 4247178559, 4247178568, 4247178564, 4247178554], "tags": {"amenity": "hospital", "building": "hospital", "name": "Spital Matamba-Solo"}}, {"type": "way", "id": 425389065, "center": {"lat": -6.4277631, "lon": 17.0903389}, "nodes": [4247178581, 4247178584, 4247178595, 4247178593, 4247178581], "tags": {"amenity": "hospital", "building": "hospital", "name": "Spital Matamba-Solo"}}, {"type": "way", "id": 425389094, "center": {"lat": -6.427404, "lon": 17.0901416}, "nodes": [4247178555, 4247178563, 4247178560, 4247178552, 4247178555], "tags": {"amenity": "hospital", "building": "hospital", "name": "Spital Matamba-Solo"}}, {"type": "way", "id": 428744196, "center": {"lat": -4.385723, "lon": 15.3445782}, "nodes": [4278368292, 4278368289, 4278368304, 4278368306, 4278368292], "tags": {"addr:city": "Kinshasa", "addr:housenumber": "26", "addr:street": "Localit\u00e9 Mandina", "amenity": "hospital", "building": "yes", "building:condition": "average", "building:levels": "1", "building:material": "brick", "name": "Centre M\u00e9dical Loba Na Nzambe"}}, {"type": "way", "id": 429171107, "center": {"lat": -6.4729549, "lon": 17.3299616}, "nodes": [4282986722, 4282986719, 4282986713, 4282986717, 4282986722], "tags": {"amenity": "hospital", "building": "hospital", "name": "Spital Wamba-Luadi"}}, {"type": "way", "id": 429171108, "center": {"lat": -6.4730005, "lon": 17.3297084}, "nodes": [4282986718, 4282986727, 4282986723, 4282986715, 4282986718], "tags": {"amenity": "hospital", "building": "hospital", "name": "Spital Wamba-Luadi"}}, {"type": "way", "id": 429171109, "center": {"lat": -6.473049, "lon": 17.3294942}, "nodes": [4282986731, 4282986728, 4282986720, 4282986721, 4282986731], "tags": {"amenity": "hospital", "building": "hospital", "name": "Spital Wamba-Luadi"}}, {"type": "way", "id": 429171112, "center": {"lat": -6.4731896, "lon": 17.32899}, "nodes": [4282986738, 4282986733, 4282986734, 4282986742, 4282986738], "tags": {"amenity": "hospital", "building": "hospital", "name": "Spital Wamba-Luadi"}}, {"type": "way", "id": 429171114, "center": {"lat": -6.4732391, "lon": 17.3298386}, "nodes": [4282986743, 4282986744, 4282986737, 4282986735, 4282986743], "tags": {"amenity": "hospital", "building": "hospital", "name": "Spital Wamba-Luadi"}}, {"type": "way", "id": 429171115, "center": {"lat": -6.4731627, "lon": 17.3301615}, "nodes": [4282986736, 4282986739, 4282986732, 4282986730, 4282986736], "tags": {"amenity": "hospital", "building": "hospital", "name": "Spital Wamba-Luadi"}}, {"type": "way", "id": 429171116, "center": {"lat": -6.4729915, "lon": 17.3303188}, "nodes": [4282986725, 4282986716, 4282986714, 4282986724, 4282986725], "tags": {"amenity": "hospital", "building": "hospital", "name": "Spital Wamba-Luadi"}}, {"type": "way", "id": 429171117, "center": {"lat": -6.4727574, "lon": 17.3301679}, "nodes": [4282986712, 4282986711, 4282986709, 4282986710, 4282986712], "tags": {"amenity": "hospital", "building": "hospital", "name": "Spital Wamba-Luadi"}}, {"type": "way", "id": 429171124, "center": {"lat": -6.4732304, "lon": 17.3292105}, "nodes": [4282986745, 4282986726, 4282986729, 4282986740, 4282986741, 4282986746, 4282986745], "tags": {"amenity": "hospital", "building": "hospital", "name": "Spital Wamba-Luadi"}}, {"type": "way", "id": 434582516, "center": {"lat": -4.4149322, "lon": 15.3893231}, "nodes": [4326036620, 4326036621, 4326036622, 4326036623, 4326036624, 4326036625, 4326036620], "tags": {"addr:city": "Kinshasa", "amenity": "hospital", "building": "yes", "building:condition": "average", "building:levels": "1", "building:material": "brick", "check_date": "2021-07-30", "is_in:admin_level7": "Kimbanseke", "name": "Centre Kimbanguiste Tosalisa"}}, {"type": "way", "id": 434886947, "center": {"lat": -4.3950616, "lon": 15.3538835}, "nodes": [4328017645, 4328017659, 4328017660, 4328017644, 4328017645], "tags": {"addr:city": "Kinshasa", "addr:housenumber": "542", "addr:street": "16\u00e8me Rue Lib\u00e9ration", "amenity": "hospital", "building": "yes", "building:condition": "average", "building:levels": "2", "building:material": "brick", "is_in:admin_level7": "Matete", "is_in:admin_level8": "Maziba", "name": "Centre M\u00e9dical Sion"}}, {"type": "way", "id": 434887027, "center": {"lat": -4.3883451, "lon": 15.3592797}, "nodes": [4328018299, 4328018302, 5688611688, 5688611689, 4328018299], "tags": {"addr:city": "Kinshasa", "addr:housenumber": "21", "addr:street": "Avenue 2 \u00e8me Rue Lumi\u00e8re", "amenity": "hospital", "building": "yes", "building:condition": "average", "building:levels": "1", "building:material": "brick", "name": "Polyclinique Kitoko"}}, {"type": "way", "id": 435321557, "center": {"lat": -4.3940702, "lon": 15.3575946}, "nodes": [4332494002, 4332493999, 4332493980, 4332493982, 4332494002], "tags": {"amenity": "hospital", "building": "yes", "name": "Centre Hospitalier Divic"}}, {"type": "way", "id": 435486342, "center": {"lat": -4.3961771, "lon": 15.3551828}, "nodes": [4334009754, 4334009751, 4334009744, 4334009749, 4334009754], "tags": {"addr:city": "Kinshasa", "addr:housenumber": "346", "addr:street": "16\u00e8me Rue Mangoyo", "amenity": "hospital", "building": "yes", "building:condition": "average", "building:levels": "1", "building:material": "brick", "is_in:admin_level7": "Matete", "is_in:admin_level8": "Maziba", "name": "Assurance M\u00e9dical Center"}}, {"type": "way", "id": 443030342, "center": {"lat": -5.2525085, "lon": 14.85188}, "nodes": [4406762152, 4406762153, 4406762154, 4406762155, 4406762156, 4406762157, 4406762158, 4406762159, 4406762160, 4406762161, 4406762162, 4406762163, 4406762152], "tags": {"addr:street": "Quartier NOKI", "amenity": "hospital", "healthcare": "hospital", "healthcare:speciality": "general", "name": "Morgue de  l'hopital g\u00e9n\u00e9ral"}}, {"type": "way", "id": 451549764, "center": {"lat": -4.3613788, "lon": 15.2997094}, "nodes": [4483691808, 4483691831, 4483733542, 4483691845, 4483691849, 4483691816, 4483691808], "tags": {"amenity": "hospital", "fixme": "Corriger l'op\u00e9rateur", "name": "Centre Hospitalier Bolingo", "operator": "lier"}}, {"type": "way", "id": 460116667, "center": {"lat": -4.7902232, "lon": 11.8601301}, "nodes": [4557926335, 4557926336, 4557926337, 4557926338, 6718359441, 6718359440, 4557926339, 4557926340, 4557926341, 4557926342, 4557926343, 4557926344, 4557926345, 4557926346, 4557926347, 4557926348, 4557926349, 6759477131, 4557926350, 6759477130, 4557926335], "tags": {"amenity": "hospital", "fid": "125", "full_id": "n3323401928", "healthcare": "hospital", "name": "Hopital A. Sic\u00e9", "osm_id": "3323401928"}}, {"type": "way", "id": 487782082, "center": {"lat": -8.8367756, "lon": 13.2314262}, "nodes": [2879453812, 9203726512, 2879452431, 9203726511, 2879453814, 4801947357, 4801947365, 4801947361, 4801947364, 4801947359, 4801947362, 4801947360, 4801947363, 4801947358, 8873838729, 2879453812], "tags": {"addr:city": "Luanda", "addr:street": "Avenida Comandante Gika", "amenity": "hospital", "healthcare": "hospital", "name": "Cl\u00ednica Girassol II"}}, {"type": "way", "id": 494233643, "center": {"lat": -1.6214068, "lon": 13.6398126}, "nodes": [4860209237, 4860208869, 4860209236, 4860209235, 4860208870, 4860209234, 4860209233, 4860208860, 4860209232, 4860209231, 4860209230, 4860209229, 4860209228, 4860209227, 4860209226, 4860209225, 10312178311, 4860209224, 4860209237], "tags": {"amenity": "hospital", "healthcare": "hospital", "name": "Centre Hospitalier R\u00e9gional Amissa Bongo", "short_name": "CHRAB"}}, {"type": "way", "id": 499046115, "center": {"lat": -3.0206366, "lon": 16.9253128}, "nodes": [4903681353, 4903681352, 4903681351, 4903681350, 4903681353], "tags": {"amenity": "hospital", "name": "H\u00f4pital g\u00e9n\u00e9ral de r\u00e9f\u00e9rence de Mushie"}}, {"type": "way", "id": 500807304, "center": {"lat": -4.2756262, "lon": 15.2670848}, "nodes": [4917815652, 4917815651, 4917815649, 4917815643, 4917815642, 4917815648, 4917815647, 4917815646, 4917815645, 4917815644, 4917815652], "tags": {"amenity": "hospital", "healthcare": "hospital", "loc_name": "H\u00f4pital Militaire", "military": "hospital", "name": "H\u00f4pital Central des Arm\u00e9es Pierre Mobengo"}}, {"type": "way", "id": 508412114, "center": {"lat": -1.1272262, "lon": 12.4776417}, "nodes": [4977187633, 4977187632, 4977187631, 4977187630, 4977187629, 4977187628, 4977187627, 4977187626, 4977187625, 4977187624, 4977187623, 4977187622, 4977187621, 4977187633], "tags": {"alt_name": "H\u00f4pital de Koulamoutou", "amenity": "hospital", "name": "Centre Hospitalier R\u00e9gional Paul Moukambi", "name:en": "Paul Moukambi Regional Hospital Center"}}, {"type": "way", "id": 509267473, "center": {"lat": -0.8123012, "lon": 12.7386273}, "nodes": [4979476110, 4979476111, 4979476112, 4979476221, 4979476120, 4979476119, 4979476118, 4979476117, 4979476116, 4979476115, 4979476114, 4979476113, 4979476110], "tags": {"amenity": "hospital", "name": "H\u00f4pital"}}, {"type": "way", "id": 509899357, "center": {"lat": -1.5638166, "lon": 13.2289781}, "nodes": [4990295518, 4990295517, 4990295516, 4990295463, 4990295515, 4990295514, 4990295518], "tags": {"amenity": "hospital", "name": "H\u00f4pital Marcel Ab\u00e9k\u00e9", "operator": "COMILOG"}}, {"type": "way", "id": 509918540, "center": {"lat": -1.3940585, "lon": 13.162541}, "nodes": [4990421202, 4990421201, 4990421200, 4990421199, 4990421198, 4990421197, 4990421202], "tags": {"amenity": "hospital", "name": "Hopital Andrault", "name:en": "Andrault Hospital"}}, {"type": "way", "id": 510189409, "center": {"lat": -0.7053583, "lon": 10.252473}, "nodes": [4992460781, 4992460780, 4992460779, 4992460778, 4992460777, 4992460776, 4992460775, 4992460774, 4992460773, 4992460781], "tags": {"amenity": "hospital", "emergency": "yes", "name": "Centre Hospitalier Regional Georges Rawiri"}}, {"type": "way", "id": 511263494, "center": {"lat": -4.3458177, "lon": 15.3507528}, "nodes": [6105792365, 5001497978, 5001497979, 5001497980, 5001497983, 5001497984, 6105792365], "tags": {"amenity": "hospital", "building": "hospital", "healthcare": "hospital", "layer": "1", "name": "Centre Hopitalier Le Destin"}}, {"type": "way", "id": 539014983, "center": {"lat": -4.3361717, "lon": 15.270099}, "nodes": [6389248525, 6389248520, 6389248524, 6389248526, 6389248519, 6389248518, 6389248521, 6389248523, 6389248517, 6389248522, 6389248516, 6389248525], "tags": {"amenity": "hospital", "healthcare": "hospital", "healthcare:speciality": "maternity;gynaecology", "name": "Maternit\u00e9 de Kintambo"}}, {"type": "way", "id": 539014985, "center": {"lat": -4.3817496, "lon": 15.283878}, "nodes": [6350145498, 6350145499, 6350145526, 6350145500, 5216400626, 5216400627, 5216400628, 5216400629, 5216400630, 6350145524, 5216400633, 6350145521, 5216400634, 6350145498], "tags": {"amenity": "hospital", "healthcare": "hospital", "name": "H\u00f4pital de r\u00e9f\u00e9rence de Makala", "old_name": "Sanatorium de Makala", "vaccination": "covid19"}}, {"type": "way", "id": 557679577, "center": {"lat": -4.4212553, "lon": 15.3027078}, "nodes": [5378167017, 5468878517, 5378167019, 5378167020, 5378168321, 5378168322, 5378168323, 5378168324, 5378168325, 5378168326, 5378168327, 5378168328, 5378168329, 5378168330, 5378168331, 5378168332, 5378168333, 5378168334, 5378168335, 5378168336, 5378167017], "tags": {"amenity": "hospital", "healthcare": "hospital", "healthcare:speciality": "general", "name": "Hopital du monast\u00e8re", "operator": "Les moines"}}, {"type": "way", "id": 561018887, "center": {"lat": -5.9330348, "lon": 12.3442594}, "nodes": [5409984424, 5409984425, 5409984426, 5409984427, 5409984428, 5409984429, 5409984430, 5409984431, 5409984424], "tags": {"addr:housenumber": "9", "addr:street": "Avenue de la Mission", "amenity": "hospital", "healthcare": "hospital", "name": "H\u00f4pital. G.R. de MUANDA"}}, {"type": "way", "id": 563643308, "center": {"lat": -4.1960002, "lon": 12.6772327}, "nodes": [5431377963, 5431377962, 5431377961, 5431377960, 5431377959, 5431377958, 5431377963], "tags": {"amenity": "hospital", "name": "Hopital de Reference"}}, {"type": "way", "id": 572713334, "center": {"lat": -4.3364263, "lon": 15.3089368}, "nodes": [5501966704, 5501966705, 5501966706, 5501966707, 5501966704], "tags": {"amenity": "hospital", "check_date": "2023-05-13", "healthcare": "hospital"}}, {"type": "way", "id": 590776237, "center": {"lat": -1.8729611, "lon": 11.045114}, "nodes": [5639621975, 5639621976, 5639621977, 5639621978, 5639621979, 5639621980, 10596190782, 5639621981, 5639621975], "tags": {"amenity": "hospital", "healthcare": "hospital", "name": "Centre Hospitalier R\u00e9gional de Mouila", "name:en": "Mouila Regional Hospital Center", "short_name": "CHREM"}}, {"type": "way", "id": 591608267, "center": {"lat": -4.186368, "lon": 12.6692115}, "nodes": [5647786055, 5647786056, 5647786057, 5647786058, 5647786059, 5647786060, 5647786061, 5647786062, 5647786063, 5647786064, 5647786055], "tags": {"amenity": "hospital", "healthcare": "hospital", "name": "Hopital G\u00e9n\u00e9ral de Dolisie"}}, {"type": "way", "id": 593195688, "center": {"lat": -4.8191037, "lon": 17.039432}, "nodes": [5659681039, 5659681040, 5659681041, 5659681042, 5659681043, 5659681044, 5659681045, 5659681046, 5659681047, 5659681048, 5659681049, 5659681050, 5659681051, 5659681052, 5659681039], "tags": {"amenity": "hospital", "emergency": "yes", "healthcare": "hospital", "name": "Hopital de kenge"}}, {"type": "way", "id": 593875204, "center": {"lat": -0.6776677, "lon": 10.2303984}, "nodes": [5664420267, 5664420266, 5664420265, 5664420264, 5664420263, 10671491505, 5664420252, 10665145185, 10665145183, 10665145182, 10665145184, 331148338, 10665145188, 10665145187, 10665145186, 10665145189, 331148343, 5664420249, 5664420248, 5664420246, 5664420245, 5664420244, 3303870145, 5664420247, 5664420261, 5664420260, 5672976141, 5664420259, 5664420258, 5664420257, 10671630993, 5664420274, 5664420275, 5664420276, 10633936329, 10674057836, 5664420267], "tags": {"amenity": "hospital", "healthcare": "hospital", "name": "H\u00f4pital Albert Schweitzer", "wikidata": "Q1751117", "wikipedia": "fr:H\u00f4pital Albert-Schweitzer"}}, {"type": "way", "id": 595440828, "center": {"lat": -4.1922564, "lon": 15.2498093}, "nodes": [5675011003, 5675011004, 5675011005, 10775497290, 5675011006, 10775497289, 10775497288, 5675011007, 5675011008, 5675011009, 5675011010, 5675011011, 10775514506, 10775514509, 5675011012, 5675011013, 5675011014, 5675011015, 5675011016, 5675011017, 5675011018, 7324839679, 5675011003], "tags": {"amenity": "hospital", "contact:phone": "(+242) 05 577 14 60", "healthcare": "hospital", "name": "H\u00f4pital G\u00e9n\u00e9ral de Djiri", "website": "https://hgd.cg/"}}, {"type": "way", "id": 595457991, "center": {"lat": -0.1423502, "lon": 18.5708495}, "nodes": [5675216229, 5675216226, 5675216227, 5675216228, 5675216229], "tags": {"amenity": "hospital", "building": "yes"}}, {"type": "way", "id": 595458018, "center": {"lat": -0.1425988, "lon": 18.5708441}, "nodes": [5675216281, 5675216278, 5675216279, 5675216280, 5675216281], "tags": {"amenity": "hospital", "building": "yes"}}, {"type": "way", "id": 595934113, "center": {"lat": -4.4062441, "lon": 15.3517391}, "nodes": [5678482545, 5678482542, 5678482543, 5678482544, 5678482540, 5678482541, 5678482545], "tags": {"addr:city": "Kinshasa", "addr:housenumber": "24", "addr:street": "Bumba II", "amenity": "hospital", "building": "yes", "building:condition": "poor", "building:levels": "1", "building:material": "brick", "name": "Centre Medical Santa Maria"}}, {"type": "way", "id": 596023954, "center": {"lat": -4.396071, "lon": 15.3567474}, "nodes": [5679073385, 5679073382, 5679073383, 5679073384, 5679073385], "tags": {"addr:city": "Kinshasa", "addr:housenumber": "537", "addr:street": "16\u00e8me Rue Lib\u00e9ration", "amenity": "hospital", "building": "yes", "building:condition": "average", "building:levels": "1", "building:material": "brick", "is_in:admin_level7": "Matete", "is_in:admin_level8": "Maziba", "name": "Centre M\u00e9dical Baume de Galaad"}}, {"type": "way", "id": 596484662, "center": {"lat": -2.9396072, "lon": 12.7182574}, "nodes": [5682070315, 7195445500, 7195445499, 7195445498, 5682070314, 5682070313, 5682070312, 5682070315], "tags": {"amenity": "hospital", "name": "H\u00f4pital de Mossendjo"}}, {"type": "way", "id": 596525813, "center": {"lat": -4.403735, "lon": 15.3549684}, "nodes": [6293493497, 5682319708, 5682319709, 5682319710, 5682319711, 5682319712, 5682319713, 5682319714, 5682319715, 5682319716, 5682319717, 5682319718, 6293493497], "tags": {"addr:city": "Kinshasa", "addr:housenumber": "50", "addr:street": "De la Paix;Avenue De la Paix", "amenity": "hospital", "building": "yes", "building:condition": "good;average", "building:levels": "2;1", "building:material": "brick", "fixme": "Verify building name and if apartment;Preciser la localisation", "healthcare": "yes", "is_in:admin_level7": "Kisenso", "name": "Paul;Centre Medical Maman Mayika"}}, {"type": "way", "id": 596546962, "center": {"lat": -4.4103698, "lon": 15.354079}, "nodes": [5682436675, 5682436674, 5682436673, 5682436672, 5682436675], "tags": {"addr:city": "kinshasa", "addr:housenumber": "40", "addr:street": "Avenue Boma", "amenity": "hospital", "building": "hospital", "building:condition": "average", "building:levels": "1", "building:material": "brick", "name": "Hopital d'Etat"}}, {"type": "way", "id": 596636983, "center": {"lat": -4.4064314, "lon": 15.3537554}, "nodes": [5683071494, 5683071491, 5683071492, 5683071493, 5683071494], "tags": {"addr:city": "Kinshasa", "addr:housenumber": "13", "addr:street": "Kisantu", "amenity": "hospital", "building": "yes", "building:condition": "average", "building:material": "brick", "is_in:admin_level7": "Kisenso", "is_in:admin_level8": "Bikanga", "name": "Saint Prosp\u00e8re"}}, {"type": "way", "id": 597013446, "center": {"lat": -4.3849185, "lon": 15.3557394}, "nodes": [5685597585, 5685597586, 5685597587, 5685597588, 5685597585], "tags": {"amenity": "hospital", "building": "yes", "name": "Cliniques KMC"}}, {"type": "way", "id": 597312804, "center": {"lat": -4.3998549, "lon": 15.3540135}, "nodes": [5687632545, 5687632544, 5765789397, 5687632543, 5687632542, 5687632545], "tags": {"addr:city": "Kinshasa", "addr:housenumber": "01", "addr:street": "Sasa", "amenity": "hospital", "building": "yes", "building:condition": "average", "building:levels": "2", "building:material": "brick", "name": "Centre M\u00e9dical Eleazar"}}, {"type": "way", "id": 597410246, "center": {"lat": -4.3864926, "lon": 15.3582123}, "nodes": [5688213521, 5688213520, 5688213519, 5688213518, 5688213521], "tags": {"addr:city": "Kinshasa", "addr:housenumber": "114", "addr:street": "Avenue Tshiboko 3", "amenity": "hospital", "building": "hospital", "building:condition": "average", "building:levels": "1", "building:material": "brick", "is_in:admin_level7": "Matete", "name": "Cliniques Promedis"}}, {"type": "way", "id": 597999856, "center": {"lat": -4.3789726, "lon": 15.3465111}, "nodes": [5692414591, 5692414590, 5692414589, 5692414588, 5692414591], "tags": {"addr:city": "Kinshasa", "addr:street": "Ngindu", "amenity": "hospital", "building": "yes", "building:condition": "average", "building:levels": "2", "building:material": "concrete", "name": "Centre M\u00e9dical Soleil du Monde"}}, {"type": "way", "id": 598058353, "center": {"lat": -4.4079259, "lon": 15.3294878}, "nodes": [5692826046, 5694620321, 5692826048, 5694620322, 5692826046], "tags": {"addr:city": "Kinshasa", "addr:housenumber": "71", "addr:street": "Belebinda", "amenity": "hospital", "building": "yes", "building:condition": "average", "building:levels": "1", "building:material": "brick", "is_in:admin_level7": "Lemba", "is_in:admin_level8": "Mbanza Lemba", "name": "Centre APSAM"}}, {"type": "way", "id": 598068727, "center": {"lat": -4.3845847, "lon": 15.3447555}, "nodes": [5692895517, 5692895520, 5692895622, 6583782160, 5692895621, 5692895518, 5692895519, 5692895517], "tags": {"addr:city": "Kinshasa", "addr:housenumber": "8", "addr:street": "Localit\u00e9 Mandina", "amenity": "hospital", "building": "yes", "building:condition": "poor", "building:levels": "1", "building:material": "brick", "name": "Centre M\u00e9dical La Gloire"}}, {"type": "way", "id": 598082408, "center": {"lat": -4.3822391, "lon": 15.3448127}, "nodes": [5692984106, 5692984105, 5692984104, 5692984103, 5692984106], "tags": {"addr:city": "Kinshasa", "addr:housenumber": "57", "addr:street": "Kwenge 1", "amenity": "hospital", "building": "yes", "name": "H\u00f4pital La Colombe"}}, {"type": "way", "id": 598866164, "center": {"lat": -4.3831291, "lon": 15.3482303}, "nodes": [5699258590, 5699258587, 5699258588, 5699258589, 5699258590], "tags": {"addr:city": "Kinshasa", "addr:housenumber": "18", "addr:street": "Localit\u00e9 Viaza", "amenity": "hospital", "building": "yes", "building:condition": "poor", "building:levels": "1", "building:material": "brick", "is_in:admin_level7": "Matete", "is_in:admin_level8": "Lukunga", "name": "Centre M\u00e9dical Phadispen"}}, {"type": "way", "id": 598871670, "center": {"lat": -4.3836968, "lon": 15.3472469}, "nodes": [5699289885, 5699289884, 5699289883, 5699289882, 5699289885], "tags": {"addr:city": "Kinshasa", "addr:street": "Localit\u00e9 Mboloko", "amenity": "hospital", "building": "yes", "building:condition": "poor", "building:levels": "1", "building:material": "brick", "is_in:admin_level7": "Matete", "is_in:admin_level8": "Lukunga", "name": "Centre M\u00e9dical Mabanga"}}, {"type": "way", "id": 598871720, "center": {"lat": -4.3842375, "lon": 15.3472643}, "nodes": [5699290213, 5699290212, 5699290214, 5699290209, 5699290211, 5699290210, 5699290213], "tags": {"addr:city": "Kinshasa", "addr:housenumber": "54", "addr:street": "Localit\u00e9 Mandina", "amenity": "hospital", "building": "yes", "building:condition": "average", "building:levels": "2", "building:material": "brick", "is_in:admin_level7": "Matete", "is_in:admin_level8": "Lukunga", "name": "Centre M\u00e9dical Mboloko"}}, {"type": "way", "id": 599305836, "center": {"lat": -4.3927687, "lon": 15.3376331}, "nodes": [5702049817, 5702049814, 5702049815, 5702049816, 5702049817], "tags": {"addr:city": "kinshasa", "addr:street": "vitamine 1", "amenity": "hospital", "building": "yes", "building:condition": "average", "building:levels": "1", "building:material": "brick", "name": "Muntu M\u00e9dical Center"}}, {"type": "way", "id": 599384104, "center": {"lat": -4.3785513, "lon": 15.3434827}, "nodes": [5702510115, 5702510112, 5702510113, 5702510114, 5702510115], "tags": {"addr:city": "Kinshasa", "addr:housenumber": "14", "addr:street": "Echangeur", "amenity": "hospital", "building": "yes", "building:condition": "poor", "building:levels": "1", "building:material": "brick", "name": "Centre M\u00e9dical Echangeur"}}, {"type": "way", "id": 599825710, "center": {"lat": -4.4179772, "lon": 15.341259}, "nodes": [5705405401, 5705405400, 5705405399, 5705405398, 5705405397, 5705405396, 5705405401], "tags": {"amenity": "hospital", "building": "yes", "name": "Maternit\u00e9 Esengo"}}, {"type": "way", "id": 599826758, "center": {"lat": -4.416482, "lon": 15.3410469}, "nodes": [5705409179, 5705409176, 5705409177, 5705409178, 5705409179], "tags": {"addr:city": "Kinshasa", "addr:housenumber": "42", "addr:street": "Avenue Mampasi", "amenity": "hospital", "building": "yes", "building:condition": "average", "building:levels": "1", "building:material": "brick", "name": "Centre m\u00e9dical la puissance de la foi"}}, {"type": "way", "id": 601136435, "center": {"lat": -4.3843945, "lon": 15.3553624}, "nodes": [5714123356, 5714123357, 5714123358, 5714123359, 5714123356], "tags": {"amenity": "hospital", "building": "yes", "name": "Son Guanella"}}, {"type": "way", "id": 604002042, "center": {"lat": -4.3928523, "lon": 15.3413218}, "nodes": [5732132115, 5732132116, 5732132117, 5732132118, 5732132115], "tags": {"addr:city": "kinshasa", "addr:street": "Bateke 1", "amenity": "hospital", "building": "hospital", "building:condition": "good", "building:levels": "3", "building:material": "brick", "name": "Centre Hospitalier Anne Bipendu Kalunga"}}, {"type": "way", "id": 605053424, "center": {"lat": -4.3914743, "lon": 15.3399536}, "nodes": [6543215967, 5739560766, 5739560767, 5739560768, 6543215967], "tags": {"addr:city": "kinshasa", "addr:street": "Bateke 1", "amenity": "hospital", "building": "yes", "building:condition": "average", "building:levels": "2", "name": "Hopital Camp Matete"}}, {"type": "way", "id": 608959866, "center": {"lat": -4.4283985, "lon": 15.3417182}, "nodes": [5768388176, 5768388173, 5768388174, 5768388175, 5768388176], "tags": {"addr:city": "Kinshasa", "addr:housenumber": "50", "addr:street": "Avenue Nangami Kongo", "amenity": "hospital", "building": "yes", "building:condition": "average", "building:levels": "1", "building:material": "brick", "name": "Stella"}}, {"type": "way", "id": 608959886, "center": {"lat": -4.4246717, "lon": 15.3389008}, "nodes": [5768388225, 5768388224, 5768388223, 5768388222, 5768388225], "tags": {"amenity": "hospital", "building": "yes", "name": "Centre M\u00e9dical Florence"}}, {"type": "way", "id": 611782852, "center": {"lat": -4.3143676, "lon": 15.271139}, "nodes": [5791948854, 5791948855, 5791948856, 5791948857, 5791948858, 5791948859, 5791948860, 7216549531, 5791948880, 5791948861, 5791948862, 5791948863, 7041669554, 5791948864, 5791948865, 5791948866, 5791948871, 5791948872, 7041669545, 5791948873, 5791948874, 5791948875, 5791948854], "tags": {"addr:city": "Gombe", "addr:street": "Avenue des Cliniques", "alt_name": "H\u00f4pital Ngaliema", "amenity": "hospital", "check_date": "2023-05-08", "email": "contact@cliniquengaliema.org", "healthcare": "hospital", "healthcare:speciality": "general;emergency", "name": "Clinique Ngaliema", "phone": "+243 810 044 920", "vaccination": "covid19", "website": "https://www.cliniquengaliema.org/"}}, {"type": "way", "id": 620972195, "center": {"lat": -4.4018635, "lon": 15.3595604}, "nodes": [5866440044, 5866440043, 5866440042, 5866440039, 5866440040, 5866440041, 5866440044], "tags": {"addr:city": "Kinshasa", "addr:street": "Rue Nzoku", "amenity": "hospital", "building": "yes", "building:condition": "average", "building:levels": "1", "building:material": "brick", "name": "polyclinic Dr diwulu"}}, {"type": "way", "id": 634256144, "center": {"lat": -4.4248448, "lon": 15.3157482}, "nodes": [5986024085, 5986023882, 5986023883, 5986023881, 5986023884, 5986024085], "tags": {"addr:city": "kinshasa", "addr:housenumber": "58 bis", "addr:street": "Zaba", "amenity": "hospital", "building": "yes", "building:condition": "average", "building:material": "brick", "check_date": "2021-07-28", "is_in:admin_level7": "lemba", "is_in:admin_level8": "Mbanza Lemba", "name": "H\u00f4pital Cadeco"}}, {"type": "way", "id": 635634867, "center": {"lat": -4.404927, "lon": 15.3408426}, "nodes": [5995429806, 5995429805, 5995429804, 5995429803, 5995429806], "tags": {"addr:city": "Kinshasa", "addr:housenumber": "44", "addr:street": "Avenue Kinzau", "amenity": "hospital", "building": "yes", "building:condition": "poor", "building:levels": "1", "building:material": "brick", "name": "Ronald M\u00e9dical Center"}}, {"type": "way", "id": 635638914, "center": {"lat": -4.4113708, "lon": 15.3380216}, "nodes": [5995454659, 5995454675, 5995454672, 5995454673, 5995454674, 5995454669, 5995454670, 5995454668, 5995454676, 5995454677, 5995454659], "tags": {"addr:housenumber": "44", "addr:landmark": "Arr\u00eat d'\u00c9tat", "addr:quarter": "Mission", "addr:street": "Bukala", "addr:suburb": "Kisenso", "amenity": "hospital", "building": "hospital", "contact:phone": "+2430813983913;+243848441500", "health_facility:CD": "hgr", "health_level": "6", "name": "H\u00f4pital G\u00e9n\u00e9ral de R\u00e9f\u00e9rence de Kisenso/Zone de sant\u00e9", "opening_hours": "24/7"}}, {"type": "way", "id": 635697200, "center": {"lat": -4.4138272, "lon": 15.3412663}, "nodes": [5995816645, 5995816642, 5995816643, 5995816644, 5995816645], "tags": {"addr:city": "Kinshasa", "addr:housenumber": "42", "addr:street": "Avenue Pinzi", "amenity": "hospital", "building": "yes", "building:condition": "average", "building:levels": "1", "building:material": "brick", "name": "Centre m\u00e9dical Glaurianne"}}, {"type": "way", "id": 635707048, "center": {"lat": -4.4125576, "lon": 15.345129}, "nodes": [5995872428, 5995872425, 5995872426, 5995872427, 5995872428], "tags": {"addr:city": "Kinshasa", "addr:housenumber": "13", "addr:street": "Avenue Inga", "amenity": "hospital", "building": "hospital", "building:condition": "average", "building:material": "brick", "name": "Hopital Rapha"}}, {"type": "way", "id": 635707934, "center": {"lat": -4.4067575, "lon": 15.3484758}, "nodes": [5995873364, 5995873363, 5995873362, 5995873361, 5995873364], "tags": {"addr:city": "Kinshasa", "addr:housenumber": "62", "addr:street": "Avenue Nsau", "amenity": "hospital", "building": "yes", "building:condition": "poor", "building:levels": "1", "building:material": "brick", "name": "Centre Medical Bon Acceuil"}}, {"type": "way", "id": 635959674, "center": {"lat": -4.4040828, "lon": 15.3415159}, "nodes": [5997761907, 5997761906, 5997761905, 5997761904, 5997761907], "tags": {"addr:city": "Kinshasa", "addr:housenumber": "39", "addr:street": "Avenue Mayinda", "amenity": "hospital", "building": "yes", "building:condition": "poor", "building:levels": "1", "building:material": "brick", "name": "Centre M\u00e9dical Kiminalengi"}}, {"type": "way", "id": 636022688, "center": {"lat": -4.3994015, "lon": 15.3473161}, "nodes": [5998329458, 5998329455, 5998329456, 5998329457, 5998329458], "tags": {"addr:city": "Kinshasa", "addr:housenumber": "71", "addr:street": "Kimayala", "amenity": "hospital", "building": "yes", "building:condition": "average", "building:levels": "2", "building:material": "brick", "name": "Centre M\u00e9dical et Maternit\u00e9 Shaloom"}}, {"type": "way", "id": 638501035, "center": {"lat": -4.3349669, "lon": 15.3455798}, "nodes": [6041417193, 6017583733, 6017583732, 6017583731, 6041417193], "tags": {"amenity": "hospital", "building": "hospital", "healthcare": "hospital", "name": "CPN Canadien"}}, {"type": "way", "id": 642556088, "center": {"lat": -4.4327751, "lon": 15.3532567}, "nodes": [6048804042, 6048804039, 6048804040, 6048804041, 6048804042], "tags": {"addr:city": "Kinshasa", "addr:housenumber": "13", "addr:street": "Salongo", "amenity": "hospital", "building": "yes", "building:condition": "average", "building:levels": "1", "building:material": "brick", "fixme": "Pr\u00e9ciser l'emplacement du b\u00e2timent", "is_in:admin_level7": "Kisenso", "is_in:admin_level8": "kabila", "name": "Centre M\u00e9dical et Maternit\u00e9 Les Anges", "religion": "christian"}}, {"type": "way", "id": 642573317, "center": {"lat": -4.4201152, "lon": 15.3332417}, "nodes": [6048920688, 6048920695, 6048920694, 6048920693, 6048920689, 6048920692, 6048920690, 6048920691, 6048920688], "tags": {"addr:city": "Kinshasa", "addr:street": "Salongo", "amenity": "hospital", "building": "yes", "building:condition": "average", "building:levels": "1", "building:material": "brick", "is_in:admin_level7": "Kisenso", "is_in:admin_level8": "Amba", "name": "Centre M\u00e9dical El Rapha"}}, {"type": "way", "id": 642575083, "center": {"lat": -4.4249187, "lon": 15.340067}, "nodes": [6048935862, 6048935861, 6048935860, 6048935859, 6048935862], "tags": {"addr:city": "Kinshasa", "addr:housenumber": "19", "addr:street": "Avenue Nangami Kongo", "amenity": "hospital", "building": "yes", "building:condition": "average", "building:levels": "1", "building:material": "brick", "name": "Centre Elikia"}}, {"type": "way", "id": 642584882, "center": {"lat": -4.4217038, "lon": 15.3410042}, "nodes": [6049016772, 6049016771, 6049016770, 6049016769, 6049016772], "tags": {"addr:city": "kinshasa", "addr:housenumber": "133", "addr:street": "mulele", "amenity": "hospital", "building": "yes", "building:condition": "poor", "building:levels": "1", "building:material": "brick", "name": "Cliniques de sant\u00e9 Vision M\u00e9dical"}}, {"type": "way", "id": 642593686, "center": {"lat": -4.4323282, "lon": 15.3254791}, "nodes": [6049077945, 6049077944, 6049077943, 6049077942, 6049077945], "tags": {"addr:city": "kinshasa", "addr:street": "Bulema", "amenity": "hospital", "building": "hospital", "building:condition": "average", "building:levels": "1", "building:material": "brick", "is_in:admin_level7": "mont_ngafula", "is_in:admin_level8": "plateau_1", "name": "Bolingo"}}, {"type": "way", "id": 642601670, "center": {"lat": -4.4225704, "lon": 15.3207844}, "nodes": [6049132619, 6049132616, 6049132617, 6049132614, 6049132615, 6049132618, 6049132619], "tags": {"amenity": "hospital", "building": "yes", "name": "Polyclinique Les Merveilles de Dieu de Kinsenso"}}, {"type": "way", "id": 643700114, "center": {"lat": -4.4280797, "lon": 15.3493723}, "nodes": [6056964567, 6056964564, 6056964565, 6056964566, 6056964567], "tags": {"addr:city": "Kinshasa", "addr:street": "Avenue Pululu", "amenity": "hospital", "building": "yes", "building:condition": "average", "building:levels": "1", "building:material": "brick", "is_in:admin_level7": "Kisenso", "is_in:admin_level8": "Kabila", "name": "Univers M\u00e9dical"}}, {"type": "way", "id": 644329745, "center": {"lat": -4.4218697, "lon": 15.3327749}, "nodes": [6060193586, 6060193483, 6060329647, 6060193484, 6060329648, 6060193585, 6060193586], "tags": {"addr:city": "Kinshasa", "addr:housenumber": "11", "addr:street": "Ladi", "amenity": "hospital", "building": "yes", "building:condition": "average", "building:levels": "1", "building:material": "brick", "is_in:admin_level7": "Kisenso", "is_in:admin_level8": "Amba", "name": "Centre M\u00e9dical Boyokani"}}, {"type": "way", "id": 653927923, "center": {"lat": -4.326415, "lon": 15.3375551}, "nodes": [6041507592, 6128061699, 6128061698, 6128061696, 6128082680, 6128082682, 6128082681, 6128061697, 6041507592], "tags": {"amenity": "hospital", "building": "yes", "healthcare": "yes", "layer": "1", "name": "Bribano Medical"}}, {"type": "way", "id": 663193763, "center": {"lat": -4.2289548, "lon": 15.2703815}, "nodes": [6207989257, 6207989254, 6207989255, 6207989256, 6414369301, 6207989257], "tags": {"amenity": "hospital", "name": "Centre de sant\u00e9 int\u00e9gr\u00e9, quartier 58"}}, {"type": "way", "id": 676264183, "center": {"lat": -4.4130335, "lon": 15.3721446}, "nodes": [6333171534, 6333171531, 6333171532, 6333171533, 6333171534], "tags": {"addr:city": "Kinshasa", "addr:street": "Mayidi", "amenity": "hospital", "building": "yes", "building:condition": "good", "building:levels": "1", "building:material": "brick", "name": "Arm\u00e9e du salut", "wall": "yes"}}, {"type": "way", "id": 676536206, "center": {"lat": -4.4092421, "lon": 15.3882819}, "nodes": [6335403534, 6335403533, 6335403532, 6335403531, 6335403534], "tags": {"addr:city": "Kinshasa", "addr:housenumber": "34", "addr:street": "Mwanza", "amenity": "hospital", "building": "hospital", "building:condition": "poor", "building:levels": "0", "building:material": "brick", "fixme": "hopital n'a pas de nom", "is_in:admin_level7": "Kimbanseke", "is_in:admin_level8": "Maviokele", "name": "Monde"}}, {"type": "way", "id": 676536250, "center": {"lat": -4.4079248, "lon": 15.3885278}, "nodes": [6335403722, 6335403719, 6335403720, 6335403721, 6335403722], "tags": {"addr:city": "Kinshasa", "addr:housenumber": "40", "addr:street": "Avenue Kimuanga", "amenity": "hospital", "building": "hospital", "building:condition": "average", "building:levels": "0", "building:material": "brick", "is_in:admin_level7": "Kimbanseke", "is_in:admin_level8": "Maviokele", "name": "Gr\u00e2ce 2"}}, {"type": "way", "id": 676539259, "center": {"lat": -4.4009494, "lon": 15.3674691}, "nodes": [6335430300, 6335430299, 6335430298, 6335430297, 6335430300], "tags": {"addr:city": "Kinshasa", "addr:street": "Tumba", "amenity": "hospital", "building": "yes", "building:condition": "average", "building:levels": "1", "building:material": "brick", "name": "Centre M\u00e9dical Tumba", "wall": "yes"}}, {"type": "way", "id": 676540725, "center": {"lat": -4.404288, "lon": 15.3728067}, "nodes": [6335442422, 6335442419, 6335442420, 6335442421, 6335442422], "tags": {"addr:city": "kinshasa", "addr:housenumber": "1", "addr:street": "Kuntuala", "amenity": "hospital", "building": "hospital", "building:condition": "average", "building:levels": "1", "building:material": "concrete", "fixme": "Indiquez le nom detaill\u00e9", "name": "CSM Kimbanguiste", "wall": "yes"}}, {"type": "way", "id": 676540751, "center": {"lat": -4.4049594, "lon": 15.3733779}, "nodes": [6335442490, 6335442487, 6335442488, 6335442489, 6335442490], "tags": {"addr:city": "Kinshasa", "addr:housenumber": "259", "addr:street": "Commerciale", "amenity": "hospital", "building": "hospital", "building:condition": "average", "building:material": "cement_block", "name": "Centre M\u00e9dical La grace"}}, {"type": "way", "id": 676541035, "center": {"lat": -4.3983483, "lon": 15.3685536}, "nodes": [6335444989, 6335444986, 6335444987, 6335444988, 6335444989], "tags": {"addr:city": "Kinshasa", "addr:street": "Mama Mobutu", "amenity": "hospital", "building": "hospital", "building:condition": "average", "building:levels": "2", "building:material": "concrete", "name": "CABN", "wall": "yes"}}, {"type": "way", "id": 676545477, "center": {"lat": -4.3967664, "lon": 15.3687341}, "nodes": [6335481436, 6335481435, 6335481434, 6335481433, 6335481436], "tags": {"addr:city": "Kinshasa", "addr:housenumber": "5", "addr:street": "Songololo", "amenity": "hospital", "building": "hospital", "building:condition": "average", "building:levels": "1", "building:material": "brick", "name": "Centre M\u00e9dical la Compassion", "wall": "yes"}}, {"type": "way", "id": 676549450, "center": {"lat": -4.4356786, "lon": 15.3742313}, "nodes": [6335515593, 6335515590, 6335515591, 6335515592, 6335515593], "tags": {"addr:city": "kinshasa", "addr:housenumber": "7", "addr:street": "avenue Kinsele 2", "amenity": "hospital", "building": "hospital", "building:condition": "average", "building:levels": "1", "building:material": "brick", "name": "Centre Medico Social Kimia"}}, {"type": "way", "id": 676740466, "center": {"lat": -4.3873124, "lon": 15.3861139}, "nodes": [6337251453, 6337251450, 6337251451, 6337251452, 6337251453], "tags": {"addr:city": "Kinshasa", "addr:housenumber": "5", "addr:street": "kimbolongo", "amenity": "hospital", "building": "yes", "building:condition": "average", "building:material": "brick", "building:min_level": "1", "fixme": "Nom de l'H\u00f4pital"}}, {"type": "way", "id": 676749279, "center": {"lat": -4.3828758, "lon": 15.3739161}, "nodes": [6337329423, 6337329420, 6337329421, 6337329422, 6337329423], "tags": {"addr:city": "Kinshasa", "addr:housenumber": "13", "addr:street": "Lola 1", "amenity": "hospital", "building": "yes", "building:condition": "good", "building:material": "brick", "is_in:admin_level7": "Masina", "is_in:admin_level8": "Sans Fil", "name": "Centre Hospitalier Ntombwa ya Maria"}}, {"type": "way", "id": 676753711, "center": {"lat": -4.4249922, "lon": 15.368445}, "nodes": [6684043426, 6684043425, 6684043424, 6337363341, 6337363342, 6337363343, 6684043426], "tags": {"amenity": "hospital", "building": "yes", "healthcare": "yes", "name": "Centre m\u00e9dical Le Jourdain"}}, {"type": "way", "id": 676767404, "center": {"lat": -4.4417252, "lon": 15.3748979}, "nodes": [6337477726, 6337477725, 6673882221, 6673882220, 6337477724, 6337477723, 6337477726], "tags": {"addr:city": "kinshasa", "addr:housenumber": "126", "addr:street": "nzaki muene", "amenity": "hospital", "building": "yes", "building:condition": "average", "building:levels": "1", "building:material": "concrete", "is_in:admin_level7": "kimbanseke", "is_in:admin_level8": "pierre_fokon", "name": "Polyclinique Kitoko"}}, {"type": "way", "id": 676786260, "center": {"lat": -4.4237799, "lon": 15.3733784}, "nodes": [6337626285, 6337626284, 6337626283, 6337626282, 6337626285], "tags": {"addr:city": "Kinshasa", "addr:housenumber": "52", "addr:street": "Kikonda", "amenity": "hospital", "building": "yes", "building:condition": "poor", "building:levels": "1", "building:material": "cement_block", "name": "Mama Kana", "wall": "yes"}}, {"type": "way", "id": 676788218, "center": {"lat": -4.3971803, "lon": 15.3829424}, "nodes": [6337643216, 6337643213, 6337643214, 6337643215, 6337643216], "tags": {"addr:city": "Kinshasa", "addr:housenumber": "10", "addr:street": "Wizi", "amenity": "hospital", "building": "yes", "building:condition": "average", "building:levels": "1", "building:material": "brick", "name": "Centre Damaris", "wall": "yes"}}, {"type": "way", "id": 676821982, "center": {"lat": -4.4223753, "lon": 15.3843555}, "nodes": [6337903707, 6337903706, 6337903705, 6337903704, 6337903707], "tags": {"addr:city": "Kinshasa", "addr:housenumber": "63", "addr:street": "Duangenda", "amenity": "hospital", "building": "yes", "building:condition": "average", "name": "Maternit\u00e9 Kiaki", "religion": "christian"}}, {"type": "way", "id": 676834924, "center": {"lat": -4.3941005, "lon": 15.3741375}, "nodes": [6337996848, 6337996845, 6337996846, 6337996847, 6337996848], "tags": {"addr:city": "Kinshasa", "addr:housenumber": "65", "addr:street": "Avenue Bibwa", "addr:ward": "1", "amenity": "hospital", "building": "yes", "fixme": "Verify building nature and amenity", "is_in:admin_level7": "N'djili"}}, {"type": "way", "id": 676991557, "center": {"lat": -4.4178263, "lon": 15.3836955}, "nodes": [6339357857, 6339357854, 6339357855, 6339357856, 6339357857], "tags": {"addr:city": "Kinshasa", "addr:housenumber": "77", "addr:street": "Nsanga", "amenity": "hospital", "building": "hospital", "building:condition": "average", "building:levels": "1", "building:material": "brick", "name": "Siloe"}}, {"type": "way", "id": 676995149, "center": {"lat": -4.4163063, "lon": 15.3878525}, "nodes": [6691397915, 6691397918, 6691397917, 6691397916, 6339383691, 6339383692, 6339383689, 6339383690, 6691397915], "tags": {"addr:city": "Kinshasa", "addr:street": "Avenue Luzolanu", "amenity": "hospital", "building": "yes", "building:material": "brick", "building:min_level": "1", "fixme": "Nom de l'H\u00f4pital", "is_in:admin_level7": "Kimbanseke", "is_in:admin_level8": "Boma"}}, {"type": "way", "id": 676995159, "center": {"lat": -4.4170856, "lon": 15.3878519}, "nodes": [6339383734, 6339383731, 6339383732, 6339383733, 6339383734], "tags": {"addr:city": "Kinshasa", "addr:housenumber": "19", "addr:street": "Avenue Motomake", "amenity": "hospital", "building": "yes", "building:condition": "average", "building:material": "brick", "building:min_level": "1", "is_in:admin_level7": "Kimbanseke", "is_in:admin_level8": "Boma", "name": "Centre la Foi"}}, {"type": "way", "id": 676999739, "center": {"lat": -4.3950287, "lon": 15.3829199}, "nodes": [6339418283, 6339418282, 6339418281, 6339418280, 6339418283], "tags": {"addr:city": "Kinshasa", "addr:housenumber": "56", "addr:street": "Africain", "amenity": "hospital", "building": "yes", "building:condition": "average", "building:levels": "1", "building:material": "stone", "is_in:admin_level7": "N'djili", "is_in:admin_level8": "Quartier 1; Bandundu", "name": "H\u00f4pital Mitadelle M\u00e9dicale"}}, {"type": "way", "id": 677000314, "center": {"lat": -4.3960977, "lon": 15.3773755}, "nodes": [6339424296, 6339424295, 6339424294, 6339424293, 6339424296], "tags": {"addr:city": "Kinshasa", "addr:housenumber": "23", "addr:street": "Kikenge", "amenity": "hospital", "building": "yes", "building:condition": "average", "building:levels": "1", "building:material": "brick", "is_in:admin_level7": "N'djili", "is_in:admin_level8": "Quartier 2; Bilombe", "name": "Centre M\u00e9dical Motema", "wall": "yes"}}, {"type": "way", "id": 677007733, "center": {"lat": -4.4142053, "lon": 15.3810607}, "nodes": [6339478353, 6339478352, 6339478351, 6339478350, 6339478353], "tags": {"addr:housenumber": "1", "addr:street": "Inga", "amenity": "hospital", "building": "yes", "building:condition": "average", "building:material": "brick", "name": "Centre M\u00e9dical Stella"}}, {"type": "way", "id": 677011445, "center": {"lat": -4.4164722, "lon": 15.3828266}, "nodes": [6339511921, 6339511918, 6339511919, 6339511920, 6339511921], "tags": {"addr:city": "Kinshasa", "addr:housenumber": "66", "addr:street": "Avenue Nzibu", "amenity": "hospital", "building": "hospital", "building:levels": "1", "building:material": "brick", "fixme": "v\u00e9rifier le nom de l'hopital"}}, {"type": "way", "id": 677030183, "center": {"lat": -4.3732226, "lon": 15.3514628}, "nodes": [6339646587, 6339646586, 6339646585, 6339646484, 6339646587], "tags": {"addr:city": "Kinshasa", "addr:street": "17\u00e8me Rue Industriel", "amenity": "hospital", "building": "yes", "building:condition": "average", "building:levels": "1", "building:material": "brick", "is_in:admin_level7": "Limete", "is_in:admin_level8": "Industriel", "name": "Centre M\u00e9dical C'est la Vie"}}, {"type": "way", "id": 677054051, "center": {"lat": -4.4412242, "lon": 15.3513583}, "nodes": [6339837702, 6339837701, 6339837700, 6339837699, 6339837702], "tags": {"addr:city": "Kinshasa", "addr:housenumber": "15", "addr:street": "Sona bata", "amenity": "hospital", "building": "yes", "building:condition": "average", "building:levels": "1", "building:material": "brick", "is_in:admin_level7": "Mont Ngafula", "is_in:admin_level8": "N'djili Kilambo", "name": "H\u00f4pital et Maternit\u00e9 Kimbuki"}}, {"type": "way", "id": 677073347, "center": {"lat": -4.4221016, "lon": 15.3241764}, "nodes": [6340014399, 6340014396, 6340014397, 6340014398, 6340014399], "tags": {"addr:city": "Kinshasa", "addr:housenumber": "8", "addr:street": "Kitambala", "amenity": "hospital", "building": "yes", "building:condition": "poor", "building:material": "brick", "name": "Centre M\u00e9dical Gradis"}}, {"type": "way", "id": 677097988, "center": {"lat": -4.4170018, "lon": 15.3172075}, "nodes": [6340157546, 6340157545, 6340157544, 6340157543, 6340157546], "tags": {"addr:city": "Kinshasa", "addr:housenumber": "6", "addr:street": "Avenue Lubaki", "amenity": "hospital", "building": "hospital", "building:condition": "average", "building:levels": "1", "building:material": "brick", "is_in:admin_level7": "Lemba", "is_in:admin_level8": "Mbanza Lemba", "name": "Emergene"}}, {"type": "way", "id": 677615655, "center": {"lat": -4.4044404, "lon": 15.3188135}, "nodes": [6344673727, 6344673726, 6344673725, 6344673724, 6344673727], "tags": {"addr:city": "Kinshasa", "addr:housenumber": "7", "addr:street": "Popo", "amenity": "hospital", "building": "yes", "building:condition": "average", "building:levels": "1", "building:material": "brick", "name": "Dieu est bon"}}, {"type": "way", "id": 677823362, "center": {"lat": -4.4088532, "lon": 15.3162124}, "nodes": [6346771156, 6346771155, 6346771154, 6346771153, 6346771156], "tags": {"addr:city": "Kinshasa", "addr:housenumber": "49", "addr:street": "Universit\u00e9", "amenity": "hospital", "building": "yes", "building:condition": "average", "building:material": "brick", "building:min_level": "1", "fixme": "Localisation du Centre m\u00e9dical", "is_in:admin_level7": "Lemba", "is_in:admin_level8": "Livulu", "name": "Centre M\u00e9dical Nelly Nsumbu"}}, {"type": "way", "id": 685675815, "center": {"lat": -5.7430136, "lon": 19.3097097}, "nodes": [6563838562, 6563838563, 6563838561, 6563838560, 6563838562], "tags": {"amenity": "hospital", "healthcare": "hospital", "name": "Zone de sant\u00e9 de gungu"}}, {"type": "way", "id": 694241648, "center": {"lat": -4.2896691, "lon": 15.2410661}, "nodes": [6517898087, 6517898082, 6517898083, 6517898081, 6517898080, 6517898079, 6517898084, 6517898085, 6517898077, 6517898076, 6517898078, 6520855696, 6520855695, 6520855694, 6517898086, 6517898087], "tags": {"amenity": "hospital", "healthcare": "hospital", "name": "Dispensaire de Tenrikyo", "source": "Bing,Maxar"}}, {"type": "way", "id": 698120378, "center": {"lat": -4.331801, "lon": 15.2733008}, "nodes": [6556363734, 6556363731, 6556363732, 6556363733, 6556363734], "tags": {"addr:city": "Kinshasa", "addr:housenumber": "7", "addr:street": "Avenue Konda Konda", "amenity": "hospital", "building": "yes", "is_in:admin_level7": "Ngaliema", "name": "Clinique Marie Yvette", "vaccination": "covid19"}}, {"type": "way", "id": 698273310, "center": {"lat": -4.4058792, "lon": 15.3567305}, "nodes": [6557726947, 6557726944, 6557726945, 6557726946, 6557726947], "tags": {"addr:city": "Kinshasa", "addr:housenumber": "6", "addr:street": "Sakombi", "amenity": "hospital", "building": "yes", "building:condition": "average", "building:levels": "1", "building:material": "brick", "covered": "no", "is_in:admin_level7": "Kisenso", "is_in:admin_level8": "Nsola", "name": "Hopital St Jerome"}}, {"type": "way", "id": 698713692, "center": {"lat": -4.3886179, "lon": 15.3599473}, "nodes": [6561214165, 6561214164, 6561214163, 6561214162, 6561214165], "tags": {"addr:city": "Kinshasa", "addr:housenumber": "15", "addr:street": "avenue 2\u00e8me rue lumi\u00e8re", "amenity": "hospital", "building": "yes", "building:condition": "average", "building:levels": "1", "building:material": "brick", "name": "FONLIV"}}, {"type": "way", "id": 698713694, "center": {"lat": -4.3887126, "lon": 15.3576355}, "nodes": [6561214173, 6561214172, 6561214171, 6561214170, 6561214173], "tags": {"addr:city": "Kinshasa", "addr:street": "3\u00e8me Rue", "amenity": "hospital", "building": "yes", "building:condition": "average", "building:levels": "1", "building:material": "concrete", "is_in:admin_level7": "Matete", "is_in:admin_level8": "Malemba", "name": "Les Aiglons"}}, {"type": "way", "id": 698887816, "center": {"lat": -5.1363796, "lon": 15.0832752}, "nodes": [6562894715, 6562894716, 6562894717, 6562894718, 6562894724, 6562894719, 6562894720, 6562894721, 6562894722, 6562894723, 6562894725, 6562894715], "tags": {"amenity": "hospital", "email": "hslkisantu@yahoo.fr", "healthcare": "hospital", "name": "H\u00f4pital Saint Luc de Kisantu", "phone": "+243 998 587 954", "website": "https://www.facebook.com/Hopital-Saint-Luc-De-Kisantu-463946590478180/"}}, {"type": "way", "id": 700163550, "center": {"lat": -4.435297, "lon": 15.323062}, "nodes": [6581391002, 6581391003, 6581391006, 6581391005, 6581391004, 6581391001, 6574987852, 6574987854, 6581391002], "tags": {"addr:city": "kinshasa", "addr:housenumber": "11", "addr:street": "Mashala", "amenity": "hospital", "building": "yes", "building:condition": "poor", "building:levels": "1", "building:material": "brick", "name": "Hopital Sainte Marie"}}, {"type": "way", "id": 700648669, "center": {"lat": -4.3089185, "lon": 15.3060514}, "nodes": [6579731282, 3078095262, 3078095258, 6579731283, 6579731284, 6579744285, 6579744286, 6579744287, 6579744288, 6579744289, 6579744290, 6579744291, 6579744292, 6579744293, 6579744294, 6579744295, 6579744296, 3078095694, 3078095658, 6579744297, 3078095538, 3078095509, 6579731282], "tags": {"addr:city": "Gombe", "addr:street": "Avenue de l\u2019H\u00f4pital", "amenity": "hospital", "check_date": "2023-05-08", "healthcare": "hospital", "healthcare:speciality": "general;ophthalmology;paediatrics;otolaryngology;gynaecology;dentistry;surgery;internal", "name": "H\u00f4pital Provincial G\u00e9n\u00e9ral de R\u00e9f\u00e9rence de Kinshasa", "old_name": "H\u00f4pital Mama Yemo", "phone": "+243 823 419 373", "vaccination": "covid19", "wikidata": "Q3145337", "wikipedia": "fr:H\u00f4pital g\u00e9n\u00e9ral de Kinshasa"}}, {"type": "way", "id": 700801357, "center": {"lat": -4.3615659, "lon": 15.3544873}, "nodes": [6581283916, 6581283913, 6581283914, 6581283915, 6581283916], "tags": {"addr:city": "Kinshasa", "addr:housenumber": "5", "addr:street": "Muzu", "amenity": "hospital", "building": "yes", "building:condition": "average", "building:material": "brick", "is_in:admin_level7": "Limete", "is_in:admin_level8": "Ndanu", "name": "Centre M\u00e9dicale les Vainqueurs"}}, {"type": "way", "id": 700821328, "center": {"lat": -4.4068902, "lon": 15.3724814}, "nodes": [6581483870, 6581483869, 6581483868, 6581483867, 6581483866, 6581483865, 6581483870], "tags": {"addr:city": "Kinshasa", "addr:housenumber": "6", "addr:landmark": "Bar image y'a ba kulutu terrain ya 6", "addr:quarter": "Quartier 5", "addr:street": "Terrain", "addr:suburb": "Ndjili", "amenity": "hospital", "building": "hospital", "building:condition": "average", "building:levels": "2", "building:material": "cement_block", "check_date": "21-11-28", "disused:vaccination": "covid19", "name": "Centre Hospitalier la samaritain", "wall": "yes"}}, {"type": "way", "id": 700825932, "center": {"lat": -4.3688541, "lon": 15.3628987}, "nodes": [6581534024, 6581534022, 6581534023, 6581534021, 6581534024], "tags": {"addr:city": "Kinshasa", "addr:housenumber": "52", "addr:street": "Mvuranka", "amenity": "hospital", "building": "yes", "building:condition": "average", "building:levels": "1", "building:material": "brick", "fixme": "verifiez le nom de b\u00e2timent", "is_in:admin_level7": "Limete", "is_in:admin_level8": "Ndanu"}}, {"type": "way", "id": 700877832, "center": {"lat": -4.400838, "lon": 15.3695608}, "nodes": [6582028174, 6582028173, 6582028172, 6582028171, 6582028174], "tags": {"addr:city": "Kinshasa", "addr:street": "Commerciale", "amenity": "hospital", "building": "hospital", "building:condition": "average", "building:material": "cement_block", "name": "Centre M\u00e9dical Sep Congo", "wall": "yes"}}, {"type": "way", "id": 700888617, "center": {"lat": -4.3978716, "lon": 15.3709855}, "nodes": [6582176507, 6582176506, 6582176505, 6582176504, 6582176507], "tags": {"addr:city": "Kinshasa", "addr:street": "Commerciale", "amenity": "hospital", "building": "yes", "building:condition": "average", "building:material": "cement_block", "name": "Centre m\u00e9dical Omeco Tata Mapasa", "wall": "yes"}}, {"type": "way", "id": 701029304, "center": {"lat": -4.3859667, "lon": 15.3794909}, "nodes": [6583593340, 6583593337, 6583593338, 6583593339, 6583593340], "tags": {"addr:city": "Kinshasa", "addr:housenumber": "2", "addr:street": "Ekonoma", "amenity": "hospital", "building": "hospital", "building:condition": "average", "building:levels": "1", "building:material": "brick", "is_in:admin_level7": "Masina", "is_in:admin_level8": "Boba", "name": "Centre Don De Dieu"}}, {"type": "way", "id": 701039056, "center": {"lat": -4.3896569, "lon": 15.3798366}, "nodes": [6583670570, 6583670567, 6583670568, 6583670569, 6583670570], "tags": {"addr:city": "Kinshasa", "addr:housenumber": "13", "addr:street": "Abatoire", "amenity": "hospital", "building": "hospital", "building:condition": "average", "building:material": "brick", "is_in:admin_level7": "Masina", "is_in:admin_level8": "Boba", "name": "Medi Center"}}, {"type": "way", "id": 701062336, "center": {"lat": -4.3732837, "lon": 15.3802915}, "nodes": [6583912210, 6583912209, 6583912208, 6583912207, 6583912210], "tags": {"addr:city": "kinshasa", "addr:housenumber": "67", "addr:street": "mbimi", "amenity": "hospital", "building": "yes", "building:condition": "average", "building:material": "concrete", "is_in:admin_level7": "masina", "is_in:admin_level8": "kimbangu", "name": "Centre M\u00e9dical la Main de Dieu"}}, {"type": "way", "id": 701065999, "center": {"lat": -4.3748053, "lon": 15.3832572}, "nodes": [6583936801, 6583936798, 6583936799, 6583936800, 6583936801], "tags": {"addr:city": "Kinshasa", "addr:housenumber": "195", "addr:street": "imbali", "amenity": "hospital", "building": "yes", "building:condition": "poor", "building:material": "concrete", "is_in:admin_level7": "Masina", "is_in:admin_level8": "Kimbangu", "name": "Imbali m\u00e9dical"}}, {"type": "way", "id": 701067435, "center": {"lat": -4.3821744, "lon": 15.3878539}, "nodes": [6583975635, 6583975634, 6583975632, 6583975636, 6583975635], "tags": {"addr:city": "Kinshasa", "addr:housenumber": "33", "addr:street": "Ngungu", "amenity": "hospital", "building": "yes", "building:condition": "poor", "building:levels": "1", "building:material": "brick", "is_in:admin_level7": "Masina", "is_in:admin_level8": "Nzuzi_Wa_Mbombo"}}, {"type": "way", "id": 701071298, "center": {"lat": -4.3809222, "lon": 15.3817327}, "nodes": [6583974073, 6583974070, 6583974071, 6583974072, 6583974073], "tags": {"addr:city": "Kinshasa", "addr:housenumber": "129", "addr:municipality": "masina", "addr:street": "ngabeni", "addr:ward": "television", "amenity": "hospital", "building": "yes", "name": "Centre Hospitalier Bienheureux"}}, {"type": "way", "id": 701073450, "center": {"lat": -4.3783307, "lon": 15.3854646}, "nodes": [6584015588, 6584015585, 6584015586, 6584015587, 6584015588], "tags": {"addr:city": "Kinshasa", "addr:housenumber": "235", "addr:street": "Imbali", "amenity": "hospital", "building": "yes", "building:condition": "average", "building:material": "concrete", "is_in:admin_level7": "Masina", "is_in:admin_level8": "Kimbangu", "name": "M\u00e9dical Bolingo"}}, {"type": "way", "id": 701079029, "center": {"lat": -4.3911427, "lon": 15.3444601}, "nodes": [6584070583, 6584070580, 6584070581, 6584070582, 6584070583], "tags": {"addr:city": "Kinshasa", "addr:housenumber": "32", "addr:street": "Mongo", "amenity": "hospital", "building": "yes", "building:condition": "average", "building:levels": "1", "building:material": "brick", "fixme": "verifiez le nom de l'hopital", "name": "H\u00f4pital"}}, {"type": "way", "id": 701095180, "center": {"lat": -4.3759009, "lon": 15.3839979}, "nodes": [6584225774, 6584225773, 6584225772, 6584225771, 6584225774], "tags": {"addr:city": "Kinshasa", "addr:housenumber": "201", "addr:street": "imbali", "amenity": "hospital", "building": "yes", "building:condition": "poor", "building:material": "concrete", "is_in:admin_level7": "Masina", "is_in:admin_level8": "Kimbangu", "name": "Eben Ezer"}}, {"type": "way", "id": 701097095, "center": {"lat": -4.3809499, "lon": 15.3811732}, "nodes": [6584241216, 6584241213, 6584241214, 6584241215, 6584241216], "tags": {"addr:city": "Kinshasa", "addr:housenumber": "53", "addr:street": "Bikuku", "amenity": "hospital", "building": "yes", "building:condition": "average", "building:levels": "1", "building:material": "brick", "is_in:admin_level7": "Masina", "is_in:admin_level8": "T\u00e9l\u00e9vision", "name": "La Manne Cach\u00e9e"}}, {"type": "way", "id": 701098161, "center": {"lat": -4.3760853, "lon": 15.3841025}, "nodes": [6584238346, 6584238350, 6584238352, 6584238351, 6584238347, 6584238348, 6584238349, 6584238346], "tags": {"addr:city": "Kinshasa", "addr:housenumber": "227", "addr:street": "imbali", "amenity": "hospital", "building": "yes", "building:condition": "average", "building:material": "concrete", "is_in:admin_level8": "Kimbangu", "name": "Saint Patmos"}}, {"type": "way", "id": 701105324, "center": {"lat": -4.3738886, "lon": 15.3826176}, "nodes": [6584314120, 6584314119, 6584314118, 6584314117, 6584314120], "tags": {"addr:city": "Kinshasa", "addr:housenumber": "169", "addr:street": "imbali", "amenity": "hospital", "building": "yes", "building:condition": "poor", "building:material": "concrete", "is_in:admin_level7": "Masina", "is_in:admin_level8": "Kimbangu", "name": "La Main de l'\u00e9ternel"}}, {"type": "way", "id": 701121448, "center": {"lat": -4.3749765, "lon": 15.3739695}, "nodes": [6584448967, 6584448964, 6584448965, 6584448966, 6584448967], "tags": {"addr:city": "Kinshasa", "addr:housenumber": "13", "addr:street": "Bikuku", "amenity": "hospital", "building": "yes", "is_in:admin_level7": "Masina", "is_in:admin_level8": "Television", "name": "Centre Hospitalier BOO NSUBA"}}, {"type": "way", "id": 701121449, "center": {"lat": -4.369541, "lon": 15.3739481}, "nodes": [6584448973, 6584448972, 6584448971, 6584448970, 6584448973], "tags": {"addr:city": "Kinshasa", "addr:housenumber": "32", "addr:street": "Ngasani", "amenity": "hospital", "building": "yes", "building:condition": "average", "building:levels": "1", "building:material": "brick", "is_in:admin_level7": "Masina", "is_in:admin_level8": "Abatoire", "name": "H\u00f4pital Bukasa"}}, {"type": "way", "id": 701279192, "center": {"lat": -4.4200741, "lon": 15.3836135}, "nodes": [6586132856, 6586132855, 6586132854, 6586132853, 6586132856], "tags": {"addr:city": "Kinshasa", "addr:housenumber": "74", "addr:street": "Mangana", "amenity": "hospital", "building": "yes", "building:condition": "average", "building:levels": "1", "building:material": "brick", "fixme": "indiquez le nom detaill\u00e9", "name": "CSNAS/MANGANA"}}, {"type": "way", "id": 702425081, "center": {"lat": -8.7943243, "lon": 13.2924427}, "nodes": [6596310190, 6596310189, 6596310185, 6596310186, 6596310187, 6596310188, 6596310190], "tags": {"amenity": "hospital", "healthcare": "hospital", "name": "Hospital Municipal do Sambizanga"}}, {"type": "way", "id": 702432820, "center": {"lat": -8.9016811, "lon": 13.2145766}, "nodes": [6596373804, 6596373805, 6596373806, 6596373807, 6596373808, 9202611194, 9202611195, 6596373809, 6596373810, 9202611196, 6596373812, 6596373811, 6219854928, 6219854914, 6219854922, 6596373804], "tags": {"amenity": "hospital", "healthcare": "hospital", "name": "Hospital Municipal da Samba"}}, {"type": "way", "id": 702554529, "center": {"lat": -9.0600498, "lon": 13.0435114}, "nodes": [6597576622, 6597576623, 6597576624, 6597576625, 6597576622], "tags": {"amenity": "hospital", "healthcare": "hospital", "name": "Hospital Geral do Ramiros"}}, {"type": "way", "id": 702594466, "center": {"lat": -8.8628007, "lon": 13.2614878}, "nodes": [6598032665, 6598032666, 6598032670, 6598032669, 6598032668, 6598032667, 6598032673, 6598032679, 6598032672, 6598032671, 6598032677, 6598032676, 6598032678, 6598032675, 6598032674, 6598032665], "tags": {"amenity": "hospital", "healthcare": "hospital", "name": "Hospital Materno Infantil do Golf 1"}}, {"type": "way", "id": 702603247, "center": {"lat": -8.8490659, "lon": 13.2484958}, "nodes": [6598136207, 6598136208, 6598136209, 6598136210, 6598136207], "tags": {"amenity": "hospital", "healthcare": "hospital", "name": "Centro de Sa\u00fade Cassequel"}}, {"type": "way", "id": 702645559, "center": {"lat": -8.9395601, "lon": 13.3750766}, "nodes": [6598508696, 6598508697, 6598508698, 6598508700, 6598508701, 6598508699, 6598508696], "tags": {"amenity": "hospital", "healthcare": "hospital", "name": "Hospital das 500 Casas"}}, {"type": "way", "id": 702853479, "center": {"lat": -4.3901795, "lon": 15.3719487}, "nodes": [6600648113, 6600648112, 6600648111, 6600648110, 6600648113], "tags": {"addr:city": "Kinshasa", "addr:housenumber": "20", "addr:street": "Boulevard Lumumba", "amenity": "hospital", "building": "hospital", "building:condition": "good", "building:levels": "4", "building:material": "concrete", "is_in:admin_level7": "Masina", "is_in:admin_level8": "Sans Fil", "name": "Ma Famille"}}, {"type": "way", "id": 705413862, "center": {"lat": -7.8442449, "lon": 13.1067732}, "nodes": [6627389020, 6627389021, 6627389022, 6627389023, 6627389024, 6627389025, 6627389026, 6627389027, 6627389028, 6627389029, 6627389030, 6627389031, 6627389032, 6627389033, 6627389020], "tags": {"amenity": "hospital", "building": "yes", "healthcare": "hospital"}}, {"type": "way", "id": 733637216, "center": {"lat": -4.7949326, "lon": 11.855815}, "nodes": [6871152973, 6871245619, 6871152972, 6871245618, 6871152973], "tags": {"amenity": "hospital", "building": "yes", "building:condition": "good", "building:levels": "2", "building:material": "ciment_block", "building:roof": "metal", "healthcare": "hospital", "name": "4M", "operator": "4M"}}, {"type": "way", "id": 733659278, "center": {"lat": -4.7928547, "lon": 11.8579639}, "nodes": [4563980787, 4563980788, 3323401497, 4563981289, 6871450734, 4563981290, 4563981291, 4563981292, 6759476166, 6759476165, 4563981296, 4563981297, 4563980787], "tags": {"amenity": "hospital", "building": "yes", "building:condition": "good", "building:roof": "metal", "description": "take over from node 3323401497", "fid": "96", "healthcare": "hospital", "name": "Clinique Guenin"}}, {"type": "way", "id": 733659283, "center": {"lat": -4.7882824, "lon": 11.8585618}, "nodes": [6871439934, 6871439933, 6871439932, 6871439931, 6871439930, 6871439929, 7324857427, 6871439928, 6871439927, 6871439934], "tags": {"amenity": "hospital", "fid": "34", "full_id": "w460116579", "healthcare": "hospital", "landuse": "military", "name": "Hopital r\u00e9gional des arm\u00e9es", "osm_id": "460116579"}}, {"type": "way", "id": 733659285, "center": {"lat": -4.7967534, "lon": 11.848619}, "nodes": [6871439958, 6871439957, 6871439956, 6871439955, 6871439954, 6871439953, 6871439952, 6871439951, 6871439950, 6871439949, 6871439948, 6871439947, 6871439946, 6871439945, 6871439958], "tags": {"amenity": "hospital", "building": "yes", "building:condition": "excellent", "building:levels": "1", "building:material": "ciment_block", "building:roof": "metal", "healthcare": "hospital", "name": "CMS ENI Congo"}}, {"type": "way", "id": 751604749, "center": {"lat": -4.3935115, "lon": 15.3170412}, "nodes": [7026386790, 7026386794, 7026386793, 7026386796, 7026386795, 7026386789, 7026386792, 7026386791, 7026386790], "tags": {"addr:city": "kinshasa", "addr:street": "Beni", "amenity": "hospital", "building": "yes", "building:condition": "average", "building:levels": "1", "building:material": "brick", "name": "H\u00f4pital Siloe"}}, {"type": "way", "id": 753674326, "center": {"lat": -4.3144373, "lon": 15.2737277}, "nodes": [5791948871, 7041669546, 7041669547, 7041669548, 7041669549, 7041669550, 7041669551, 7041669552, 7041669553, 7041669554, 5791948865, 5791948866, 5791948871], "tags": {"amenity": "hospital", "check_date": "2023-05-08", "healthcare": "hospital", "name": "Clinique Kinoise"}}, {"type": "way", "id": 759603497, "center": {"lat": -4.4037411, "lon": 15.2608114}, "nodes": [7095768368, 7095768369, 7095768367, 7095768370, 7095768371, 7095768368], "tags": {"amenity": "hospital", "healthcare": "hospital", "name": "Couvent de la Paroisse Notre Dame de Gr\u00e2ce"}}, {"type": "way", "id": 773553115, "center": {"lat": -5.2647093, "lon": 14.851521}, "nodes": [7220557937, 7220557938, 7220557939, 7220557940, 7220557937], "tags": {"amenity": "hospital", "healthcare": "hospital", "name": "clinique Noki"}}, {"type": "way", "id": 782376417, "center": {"lat": -4.1741614, "lon": 13.283855}, "nodes": [7305771972, 7305771973, 7305771974, 7305771975, 7305771976, 7305771977, 7305771978, 7305771979, 7305788524, 7305771980, 7305771972], "tags": {"amenity": "hospital", "healthcare": "hospital", "name": "Hopital de base"}}, {"type": "way", "id": 783118135, "center": {"lat": -8.8162689, "lon": 13.2309691}, "nodes": [746291095, 7313052976, 7313052977, 7313052978, 7313052979, 7313052980, 9204417158, 9204417157, 746291095], "tags": {"addr:city": "Luanda", "amenity": "hospital", "building": "hospital", "healthcare": "hospital", "name": "Cl\u00ednica Mutamba"}}, {"type": "way", "id": 783331666, "center": {"lat": -8.8715665, "lon": 13.3203921}, "nodes": [4198872290, 7315535101, 7315535102, 7315535103, 4198872290], "tags": {"addr:city": "Luanda", "addr:street": "Avenida Deolinda Rodrigues", "amenity": "hospital", "healthcare": "hospital", "name": "Cl\u00ednica \u00d3rbita Visual", "opening_hours": "24/7"}}, {"type": "way", "id": 783572548, "center": {"lat": -4.4140948, "lon": 15.3054088}, "nodes": [7318539407, 7318539408, 7318539409, 7318539410, 7318539407], "tags": {"addr:city": "Lemba", "amenity": "hospital", "contact:facebook": "https://www.facebook.com/cukrdc", "healthcare": "hospital", "name": "Cliniques universitaires de Kinshasa", "phone": "+243 818 415 034", "short_name": "CUK", "vaccination": "covid19"}}, {"type": "way", "id": 783922688, "center": {"lat": -8.8403891, "lon": 13.2601615}, "nodes": [6521876586, 7322409783, 7322409784, 7322416385, 6521876586], "tags": {"amenity": "hospital", "healthcare": "hospital", "name": "Hospital Neves Bendinha", "name:en": "Neves Bendinha Hospital", "opening_hours": "24/7"}}, {"type": "way", "id": 783984291, "center": {"lat": -4.8011678, "lon": 11.8466871}, "nodes": [6081341083, 7323258087, 6753774448, 7323258088, 6081341083], "tags": {"amenity": "hospital", "healthcare": "hospital", "name": "CMS TEPC"}}, {"type": "way", "id": 783986122, "center": {"lat": -4.1244725, "lon": 12.140633}, "nodes": [7323255343, 7323255344, 7323255345, 7323255346, 7323255343], "tags": {"amenity": "hospital", "healthcare": "hospital", "name": "Centre de sant\u00e9 int\u00e9gr\u00e9 de Manzi"}}, {"type": "way", "id": 783987265, "center": {"lat": -4.8092746, "lon": 11.8610337}, "nodes": [7323274858, 7323274859, 7323274860, 7323274861, 7323274858], "tags": {"amenity": "hospital", "healthcare": "hospital", "name": "Centre de sant\u00e9 int\u00e9gr\u00e9 de Mpita"}}, {"type": "way", "id": 783989764, "center": {"lat": -4.7984478, "lon": 11.8542466}, "nodes": [7323284101, 7323284102, 7323284103, 7323284104, 7323284101], "tags": {"amenity": "hospital", "healthcare": "hospital", "name": "Clinique les oliviers"}}, {"type": "way", "id": 783990409, "center": {"lat": -4.2785795, "lon": 11.665056}, "nodes": [7323302905, 7323302906, 7323302907, 7323302908, 7323302905], "tags": {"amenity": "hospital", "healthcare": "hospital", "name": "Dispensaire"}}, {"type": "way", "id": 784134223, "center": {"lat": -4.02531, "lon": 11.7252985}, "nodes": [7324774134, 7324774135, 7324774136, 7324774137, 7324774134], "tags": {"amenity": "hospital", "healthcare": "hospital", "name": "Hopital de NKola"}}, {"type": "way", "id": 784134306, "center": {"lat": -4.7138304, "lon": 11.934301}, "nodes": [7324766651, 7324766652, 7324766653, 7324766654, 7324766651], "tags": {"amenity": "hospital", "healthcare": "hospital", "name": "Medical Elisha"}}, {"type": "way", "id": 784135391, "center": {"lat": -4.1914761, "lon": 12.6660236}, "nodes": [7324780470, 7324780471, 7324780472, 7324780473, 7324780470], "tags": {"amenity": "hospital", "healthcare": "hospital", "name": "Hopital Militaire"}}, {"type": "way", "id": 784137423, "center": {"lat": -4.2632125, "lon": 15.2292258}, "nodes": [4994957522, 7324790175, 7324790176, 7324790177, 4994957522], "tags": {"amenity": "hospital", "healthcare": "hospital", "name": "H\u00f4pital sino-congolaise de Mfilou", "name:fr": "H\u00f4pital sino-congolaise de Mfilou", "name:zh": "\u4e2d\u521a\u53cb\u597d\u533b\u9662"}}, {"type": "way", "id": 784140490, "center": {"lat": -4.1910693, "lon": 15.2486216}, "nodes": [7324839677, 7324839678, 7324839679, 5675011003, 10775497291, 10775497292, 7324839677], "tags": {"amenity": "hospital", "healthcare": "hospital", "name": "h\u00f4pital de campagne de Nkombo"}}, {"type": "way", "id": 784140752, "center": {"lat": -4.285997, "lon": 15.2555686}, "nodes": [7324833223, 7324833224, 7324833225, 7324833226, 7324833223], "tags": {"amenity": "hospital", "healthcare": "hospital", "name": "bissita", "wheelchair": "yes"}}, {"type": "way", "id": 784140952, "center": {"lat": -4.3017866, "lon": 15.2566721}, "nodes": [7324815478, 7324815479, 616902951, 7324815480, 7324815478], "tags": {"amenity": "hospital", "healthcare": "hospital", "name": "h\u00f4pital de base de bacongo", "wheelchair": "yes"}}, {"type": "way", "id": 784141714, "center": {"lat": -4.7456115, "lon": 11.9085899}, "nodes": [6284336225, 7324838338, 7324838339, 7324838340, 6284336225], "tags": {"amenity": "hospital", "healthcare": "hospital", "name": "Simon kimbangu"}}, {"type": "way", "id": 784144224, "center": {"lat": -4.7885563, "lon": 11.8592518}, "nodes": [7324857427, 7324857428, 7324857429, 7324857430, 7324857427], "tags": {"amenity": "hospital", "healthcare": "hospital"}}, {"type": "way", "id": 784153019, "center": {"lat": -1.5513469, "lon": 13.2219019}, "nodes": [7324902879, 7324902880, 7324902881, 7324902882, 7324902883, 7324902884, 7324902879], "tags": {"amenity": "hospital", "healthcare": "hospital"}}, {"type": "way", "id": 784153282, "center": {"lat": -1.5642998, "lon": 13.2299716}, "nodes": [7324913441, 7324913442, 7324913443, 7324913444, 7324913445, 7324913441], "tags": {"amenity": "hospital", "healthcare": "hospital"}}, {"type": "way", "id": 784161651, "center": {"lat": -0.180441, "lon": 10.7663784}, "nodes": [7325015437, 10559272866, 7325015438, 7325015439, 7325015440, 7325015441, 7325015442, 6389207487, 7325015437], "tags": {"amenity": "hospital", "healthcare": "hospital", "name": "Hopital", "name:en": "Hospital"}}, {"type": "way", "id": 784161759, "center": {"lat": -1.7034399, "lon": 10.3854684}, "nodes": [7325009989, 7325009990, 7325009991, 7325009992, 7325009989], "tags": {"amenity": "hospital", "healthcare": "hospital"}}, {"type": "way", "id": 787460657, "center": {"lat": -4.3911005, "lon": 15.3813451}, "nodes": [7518525376, 7518525377, 7425895897, 7518525378, 7518525376], "tags": {"amenity": "hospital", "fixme": "Corriger ou distinguer les 2 structures reprises dans le nom", "healthcare": "hospital", "name": "H\u00f4pital Mutombo;Centre hospitalier Roi Baudouin"}}, {"type": "way", "id": 787462307, "center": {"lat": -4.3388313, "lon": 15.3293296}, "nodes": [7362549397, 7394471691, 7362549399, 7362549400, 7362549401, 7362549402, 7362549403, 7362549404, 7362549397], "tags": {"amenity": "hospital", "building": "hospital", "check_date": "2023-05-19", "description": "H\u00f4pital chinois", "healthcare": "hospital", "name": "Centre hospitalier Gen-Tai"}}, {"type": "way", "id": 787472242, "center": {"lat": -5.8395901, "lon": 13.4476728}, "nodes": [7362667210, 7362667211, 7362667212, 7362667213, 7362667214, 9979049456, 10746271365, 10746271364, 7362667215, 10746271363, 10746271362, 7362667216, 7362667217, 10746271361, 7362667218, 7362667219, 7362667210], "tags": {"amenity": "hospital", "healthcare": "hospital", "name": "H\u00f4pital de Kinkanda"}}, {"type": "way", "id": 787475996, "center": {"lat": -4.3245506, "lon": 15.2451396}, "nodes": [7518525382, 7394401975, 7518562488, 7394401974, 7362668976, 7362668977, 7394401973, 7362668978, 7362668979, 7518525383, 7518525384, 7518562485, 7518562486, 7518562487, 7518525382], "tags": {"amenity": "hospital", "healthcare": "hospital", "name": "H\u00f4pital de la Rive", "vaccination": "covid19"}}, {"type": "way", "id": 787479499, "center": {"lat": -4.3524132, "lon": 15.3295393}, "nodes": [7362710722, 7518562489, 7518562490, 7518562491, 7362710722], "tags": {"amenity": "hospital", "check_date": "2023-05-13", "healthcare": "hospital", "name": "Les Cliniques BONDEKO", "vaccination": "covid19"}}, {"type": "way", "id": 787538378, "center": {"lat": -4.3710761, "lon": 15.4793476}, "nodes": [798417778, 7363272078, 7363272079, 7363272080, 7363272081, 798417778], "tags": {"amenity": "hospital", "ele": "317", "healthcare": "hospital", "name": "Centenaire"}}, {"type": "way", "id": 787541778, "center": {"lat": -4.3747095, "lon": 15.4797062}, "nodes": [798417779, 7363348924, 7363348925, 7363348926, 798417779], "tags": {"amenity": "hospital", "building": "hospital", "ele": "304", "healthcare": "hospital", "name": "Emeraude 2"}}, {"type": "way", "id": 787570289, "center": {"lat": -4.4358443, "lon": 15.3698264}, "nodes": [7363647654, 7363647655, 7363647656, 7363647657, 7363647658, 7363647659, 7363647654], "tags": {"amenity": "hospital", "healthcare": "hospital", "name": "Centre hospitalier Elikya"}}, {"type": "way", "id": 791399436, "center": {"lat": -4.4033422, "lon": 15.3741599}, "nodes": [2273811569, 7398473526, 7398473527, 7398473528, 2273811569], "tags": {"addr:housenumber": "1", "addr:landmark": "Arret Sainte Therese", "addr:quarter": "Quartier 7", "addr:street": "Ludisi", "addr:suburb": "Ndjili", "amenity": "hospital", "contact:phone": "+243896048557", "fixme": "V\u00e9rifier le nom et les heures d'ouverture", "health_facility:CD": "hgr", "healthcare": "hospital", "name": "H\u00f4pital de l'Amiti\u00e9 Sino-Congolaise", "opening_hours": "Mo-Fr 08:00-16:00", "short_name": "HGR Ndjili ISTM", "vaccination": "covid19"}}, {"type": "way", "id": 791828731, "center": {"lat": -4.3598357, "lon": 15.3082044}, "nodes": [4092511636, 7402507752, 7402507757, 7402507758, 4092511636], "tags": {"addr:street": "Bondo", "amenity": "hospital", "disused:vaccination": "covid19", "healthcare": "hospital", "name": "Centre Bondeko"}}, {"type": "way", "id": 791839143, "center": {"lat": -5.8520573, "lon": 13.0594618}, "nodes": [4218019341, 7559704058, 7559704059, 7559704060, 7402605536, 7402605537, 7402605538, 7402605539, 7402605540, 4218019341], "tags": {"amenity": "hospital", "healthcare": "hospital", "name": "Ancien H\u00f4pital de la Croix-Rouge"}}, {"type": "way", "id": 792107300, "center": {"lat": -4.3927736, "lon": 15.3466467}, "nodes": [4945976022, 7405221832, 7405221833, 7405221834, 7405221835, 7405221836, 7405221837, 7405221838, 7405221839, 7405221840, 4945976022], "tags": {"amenity": "hospital", "healthcare": "hospital", "name": "H\u00f4pital de R\u00e9f\u00e9rence de Matete"}}, {"type": "way", "id": 792107971, "center": {"lat": -5.5044423, "lon": 14.6900171}, "nodes": [5053636364, 7405288389, 7405288390, 7559792296, 7405288391, 7405288392, 5053636364], "tags": {"amenity": "hospital", "healthcare": "hospital"}}, {"type": "way", "id": 792110503, "center": {"lat": -4.3246694, "lon": 15.303017}, "nodes": [5216399718, 7405289536, 7405289537, 7405289538, 5216399718], "tags": {"amenity": "hospital", "check_date": "2023-05-08", "healthcare": "hospital", "name": "H\u00f4pital p\u00e9diatrique de Kalembelembe"}}, {"type": "way", "id": 792136318, "center": {"lat": -4.3348092, "lon": 15.2907457}, "nodes": [5216399720, 7405586368, 7405586369, 5632928881, 7405586370, 5216399720], "tags": {"amenity": "hospital", "check_date": "2023-05-19", "healthcare": "hospital", "name": "H\u00f4pital militaire r\u00e9gional de Kinshasa Camp Kokolo", "vaccination": "covid19"}}, {"type": "way", "id": 792136806, "center": {"lat": -4.3572118, "lon": 15.2679068}, "nodes": [5216400621, 7405552877, 7405552878, 8601339693, 7405552879, 5216400621], "tags": {"amenity": "hospital", "healthcare": "hospital", "name": "Centre hospitalier Nganda", "vaccination": "covid19", "wikidata": "Q2945676", "wikipedia": "fr:Centre hospitalier Nganda"}}, {"type": "way", "id": 792139332, "center": {"lat": -4.3660482, "lon": 15.3407724}, "nodes": [5216400640, 7405610527, 7405610528, 7405610529, 7405610530, 7405610531, 7405610532, 7405610533, 7405610534, 9076417427, 7405610536, 7405610537, 5216400640], "tags": {"addr:city": "Limete", "amenity": "hospital", "healthcare": "hospital", "healthcare:speciality": "fistula;general", "name": "H\u00f4pital Saint Joseph", "operator": "Bureau Diocesien des Oeuvres Medicales", "operator:type": "religious", "vaccination": "covid19"}}, {"type": "way", "id": 792141056, "center": {"lat": -4.3505339, "lon": 15.3255635}, "nodes": [5216400641, 7405528050, 7405528051, 7405528052, 7405528053, 7405528054, 7405528055, 7405528056, 7405528057, 7405528058, 7405528059, 7405528060, 5216400641], "tags": {"amenity": "hospital", "check_date": "2023-05-13", "healthcare": "hospital", "name": "Yolo Medical"}}, {"type": "way", "id": 792186783, "center": {"lat": -1.1101203, "lon": 19.1121137}, "nodes": [5650408432, 7406012571, 7406012572, 7406012573, 7406012574, 5650408432], "tags": {"amenity": "hospital", "health_facility:CD": "hgr", "health_facility:type": "hospital", "healthcare": "hospital", "name": "H\u00f4pital g\u00e9n\u00e9ral de Pendjwa", "source": "MSF", "source:date": "2018-05-13"}}, {"type": "way", "id": 792187294, "center": {"lat": -0.742545, "lon": 18.1324666}, "nodes": [5650453720, 7406025995, 7560101442, 7406025996, 7406025997, 7406025998, 7406025999, 7406026000, 7406026001, 7406026002, 7406026003, 7406026004, 7406026005, 7406026006, 5650453720], "tags": {"amenity": "hospital", "health_facility:CD": "hgr", "health_facility:type": "hospital", "healthcare": "hospital", "name": "H\u00f4pital g\u00e9n\u00e9ral de Bikoro", "operator:type": "government", "source": "MSF", "source:date": "2018-05-13"}}, {"type": "way", "id": 792197752, "center": {"lat": -3.4171733, "lon": 19.4418147}, "nodes": [5806867384, 7406120183, 7406120184, 7406122185, 5806867384], "tags": {"amenity": "hospital", "emergency": "yes", "healthcare": "hospital", "healthcare:speciality": "general", "name": "H\u00f4pital G\u00e9n\u00e9ral de R\u00e9f\u00e9rence d'Oshwe", "operator": "Etablissement \u00e9tatique"}}, {"type": "way", "id": 792597352, "center": {"lat": -4.4000748, "lon": 15.3160756}, "nodes": [7411501497, 7411501500, 7411501505, 7411501504, 7411501503, 7411501493, 7411501501, 7411501502, 7411501499, 7411501492, 7411501498, 7411501494, 7411501495, 7411501496, 7411501497], "tags": {"amenity": "hospital", "building": "yes", "healthcare": "hospital", "name": "SOPROP"}}, {"type": "way", "id": 797008127, "center": {"lat": -4.3812256, "lon": 15.3478154}, "nodes": [6583647959, 7453888807, 7453888808, 7453888809, 7453888810, 7453888811, 7453888812, 6583647959], "tags": {"addr:city": "Kinshasa", "addr:housenumber": "35", "addr:street": "Banunu", "amenity": "hospital", "building": "yes", "fixme": "Verify building position", "healthcare": "hospital", "name": "H\u00f4pital El Rapha"}}, {"type": "way", "id": 797522916, "center": {"lat": -1.8927501, "lon": 16.5605104}, "nodes": [6592289341, 7458924600, 7458924601, 7458924602, 7569729873, 6592289341], "tags": {"amenity": "hospital", "healthcare": "hospital", "name": "H\u00f4pital G\u00e9n\u00e9ral de Yumbi"}}, {"type": "way", "id": 797594345, "center": {"lat": -5.2500507, "lon": 14.8651437}, "nodes": [7220834402, 7459555445, 7459555446, 7459555447, 7459555448, 7459555449, 7220834402], "tags": {"amenity": "hospital", "area": "yes", "healthcare": "hospital", "name": "H\u00f4pital Approdec"}}, {"type": "way", "id": 797607334, "center": {"lat": -2.7292311, "lon": 17.6901297}, "nodes": [7569804739, 7295371886, 7459616734, 7569804740, 7569804739], "tags": {"amenity": "hospital", "healthcare": "hospital", "name": "H\u00f4pital SODEFOR"}}, {"type": "way", "id": 802492144, "center": {"lat": -8.8289482, "lon": 13.2489722}, "nodes": [7506534789, 7506534786, 7506534787, 7506534788, 7506534789], "tags": {"addr:city": "Luanda", "addr:housenumber": "15", "addr:street": "Rua da Liberdade", "amenity": "hospital", "email": "ces@netcabo.co.ao", "fax": "+244 222 321 608", "healthcare": "hospital", "name": "Cl\u00ednica Esp\u00edrito Santo", "opening_hours": "24/7", "phone": "+244 912 752 792, +244 912 860 916, +244 222 322 888, +244 222 324 135, +244 222 329 434, +244 222 328 243,"}}, {"type": "way", "id": 803760452, "center": {"lat": -4.3898906, "lon": 15.4813687}, "nodes": [798401785, 7518562492, 7518562493, 7518562494, 798401785], "tags": {"amenity": "hospital", "building": "hospital", "ele": "336", "healthcare": "hospital", "name": "Centre m\u00e9dical m\u00e9thodiste"}}, {"type": "way", "id": 804302238, "center": {"lat": -5.2625388, "lon": 14.8624006}, "nodes": [2824607966, 7523133729, 7523133730, 7523133731, 2824607966], "tags": {"amenity": "hospital", "building": "hospital", "healthcare": "hospital", "name": "NOKI"}}, {"type": "way", "id": 804323579, "center": {"lat": -9.17149, "lon": 13.519128}, "nodes": [4349925093, 7523275404, 7523275405, 7523275406, 4349925093], "tags": {"amenity": "hospital", "country": "AO", "healthcare": "hospital", "name": "Posto de Sa\u00fade Zambela"}}, {"type": "way", "id": 808435136, "center": {"lat": -4.3879659, "lon": 15.3307714}, "nodes": [4150480788, 7559704055, 7559704056, 7559704057, 4150480788], "tags": {"amenity": "hospital", "healthcare": "hospital"}}, {"type": "way", "id": 808469451, "center": {"lat": -4.405827, "lon": 15.3719403}, "nodes": [5403387879, 7560049727, 7560049728, 7560049729, 5403387879], "tags": {"amenity": "hospital", "building": "hospital", "healthcare": "hospital", "layer": "1", "name": "Hopital de la SNEL"}}, {"type": "way", "id": 808726207, "center": {"lat": -4.3369969, "lon": 15.3398405}, "nodes": [6041570856, 7562325518, 7562325519, 7562325520, 6041570856], "tags": {"amenity": "hospital", "healthcare": "hospital"}}, {"type": "way", "id": 808726208, "center": {"lat": -4.4580168, "lon": 15.2897767}, "nodes": [6073674084, 7562325521, 7562325522, 7562325523, 7562325524, 7562325525, 7562325526, 7562325527, 7562325528, 6073674084], "tags": {"amenity": "hospital", "healthcare": "hospital", "name": "Centre hospitalier Ren\u00e9 de HAES"}}, {"type": "way", "id": 808787869, "center": {"lat": -4.4116711, "lon": 15.3578438}, "nodes": [6293492184, 7562902587, 7562902588, 7562902589, 6293492184], "tags": {"addr:city": "Kinshasa", "addr:housenumber": "19", "addr:street": "Lungwengwe", "amenity": "hospital", "building": "hospital", "building:condition": "average", "building:levels": "1", "building:material": "brick", "healthcare": "hospital", "layer": "1", "name": "Centre Medical mavika"}}, {"type": "way", "id": 818494084, "center": {"lat": -4.3980836, "lon": 15.412434}, "nodes": [7643823439, 7643823440, 7643823441, 7643823442, 7643823439], "tags": {"addr:housenumber": "13", "addr:street": "Avenue Kulumba - Ebeya", "amenity": "hospital", "building": "hospital", "emergency": "yes", "healthcare": "hospital", "healthcare:speciality": "clinic;general;urology;osteopathy", "name": "Centre Hospitalier St. Daniel"}}, {"type": "way", "id": 818750915, "center": {"lat": -7.1985929, "lon": 17.9422013}, "nodes": [7646164092, 7646164093, 7646164094, 7646164095, 7646164096, 7646164097, 7646164098, 7646164099, 7646164100, 7646164101, 7646164102, 7646164103, 7646164104, 7646164105, 7646164106, 7646164107, 7646164108, 7646164109, 7646164110, 7646164111, 7646164112, 7646164113, 7646164114, 7646164115, 7646164116, 7646164117, 7646164118, 7646164119, 7646164120, 7646164121, 7646164122, 7646164123, 7646164124, 7646164125, 7646164126, 7646164127, 7646164128, 7646164129, 7646164130, 7646164131, 7646164132, 7646164133, 7646164134, 7646164135, 7646164092], "tags": {"addr:city": "Panzi", "amenity": "hospital", "building": "hospital", "emergency": "yes", "healthcare": "hospital", "healthcare:speciality": "general", "name": "H\u00f4pital G\u00e9r\u00e9ral de R\u00e9f\u00e9rence de Panzi", "operator": "Etablissement \u00e9tatique"}}, {"type": "way", "id": 930649872, "center": {"lat": -5.0845938, "lon": 18.8225195}, "nodes": [8629115311, 8629115308, 8629115309, 8629115310, 8629115311], "tags": {"addr:city": "Kikwit", "addr:street": "rue du Monast\u00e8re", "amenity": "hospital", "healthcare": "hospital", "healthcare:speciality": "general;gynaecology", "name": "Centre hospitalier Saints Damien", "operator": "Foyer Evangile et d\u00e9veloppement", "source": "Maxar Premium Imagery (Beta)"}}, {"type": "way", "id": 997090452, "center": {"lat": -4.4252484, "lon": 15.2857159}, "nodes": [2210284447, 2210284459, 5216400638, 2210284458, 2210284465, 2210284446, 2210284452, 2210284450, 2210284460, 2210284445, 2210284462, 2210284470, 2210284471, 2210284457, 2210284469, 2210284447], "tags": {"amenity": "hospital", "healthcare": "hospital", "name": "Centre Hospitalier Monkole", "vaccination": "covid19", "wikidata": "Q54365967"}}, {"type": "way", "id": 997137696, "center": {"lat": -4.3405494, "lon": 15.3298397}, "nodes": [9207444198, 9207444197, 9207444196, 9207444195, 9207444194, 9207444193, 9207444192, 9207444191, 9207444198], "tags": {"amenity": "hospital", "check_date": "2023-05-13", "healthcare": "hospital", "name": "H\u00f4pital H. J.", "name:fr": "H\u00f4pital H. J.", "vaccination": "covid19"}}, {"type": "way", "id": 997144642, "center": {"lat": -4.3327653, "lon": 15.2563288}, "nodes": [9207504033, 9207504032, 9207528243, 1424410520, 9207462511, 6387425214, 9207462516, 9207462515, 9207512617, 6387425215, 9207504031, 9207504030, 9207504033], "tags": {"amenity": "hospital", "name": "Ngaliema Center"}}, {"type": "way", "id": 1004342520, "center": {"lat": -5.0357581, "lon": 18.8203533}, "nodes": [9266774577, 9266774578, 9266774579, 9266774580, 9266774577], "tags": {"amenity": "hospital", "healthcare": "hospital"}}, {"type": "way", "id": 1041825910, "center": {"lat": -4.3702844, "lon": 15.338725}, "nodes": [9591044256, 9591044257, 9591044258, 9591044259, 9591044260, 9591044261, 9591044262, 9591044256], "tags": {"amenity": "hospital", "healthcare": "hospital"}}, {"type": "way", "id": 1080490051, "center": {"lat": -6.1325725, "lon": 12.3741666}, "nodes": [9903696733, 9903696734, 9903696735, 9903696736, 9903696733], "tags": {"amenity": "hospital", "healthcare": "hospital", "name": "CSE - MEDIS SOYO"}}, {"type": "way", "id": 1081476630, "center": {"lat": -6.1328175, "lon": 12.3736911}, "nodes": [9911778949, 9911778950, 9911778951, 9911778952, 9911778949], "tags": {"addr:city": "Soyo", "amenity": "hospital", "healthcare": "hospital", "name": "Sagrada Esperan\u00e7a"}}, {"type": "way", "id": 1133799631, "center": {"lat": -3.9785165, "lon": 15.3814066}, "nodes": [10570452215, 10570452216, 10570452217, 10570452218, 10570452215], "tags": {"amenity": "hospital", "healthcare": "hospital", "name": "CENTRE DE SANTE"}}, {"type": "way", "id": 1134122782, "center": {"lat": -3.9790833, "lon": 15.3853319}, "nodes": [9127909043, 9127909042, 9127909041, 10573388119, 9127909039, 9127909038, 9127909037, 10573388120, 10573388121, 9127909089, 9127909088, 9127909087, 9127909086, 9127909085, 10573388122, 9127909083, 9127909082, 9127909081, 9127909080, 9127909079, 10573388123, 10573388124, 9127909076, 10573388125, 9127909074, 9127909072, 9127909071, 9127909070, 9127909069, 10573388126, 9127909067, 9127909066, 9127909065, 9127909064, 9127909063, 5936553389, 9127909060, 9127909059, 9127909058, 9127909057, 9127909056, 9127909055, 9127909054, 9127909053, 10573388127, 9127909051, 9127909050, 10573388128, 10573388129, 9127909047, 9127909046, 10573388130, 6075264593, 10573388131, 9127909043], "tags": {"amenity": "hospital", "healthcare": "hospital", "name": "limited de la commune d'igni\u00e9"}}, {"type": "way", "id": 1134349739, "center": {"lat": -2.2362495, "lon": 11.4641019}, "nodes": [10575218493, 10575218494, 10575218503, 10575218491, 10575218492, 10575218502, 10575218501, 10575218495, 10575218500, 8893509538, 10572906873, 10575218493], "tags": {"addr:city": "Lebamba", "amenity": "hospital", "email": "info@bongolohospital.org", "emergency": "yes", "healthcare": "hospital", "healthcare:speciality": "psychiatry;clinic;paediatrics;dentist", "name": "H\u00f4pital de Bongolo", "phone": "+241 74 09 89 84", "source": "gps", "website": "https://www.bongolohospital.org/"}}, {"type": "way", "id": 1186487922, "center": {"lat": -5.1695552, "lon": 12.5111737}, "nodes": [11019900913, 11019900914, 11019900954, 11019900953, 11019900915, 11019900916, 11019900979, 11019900944, 11019900956, 11019900964, 11019900947, 11019900972, 11019900913], "tags": {"amenity": "hospital", "barrier": "wall", "healthcare": "hospital", "name": "Centro de Sa\u00fade de Zenza do Lucula"}}, {"type": "way", "id": 1186508697, "center": {"lat": -5.1680439, "lon": 12.5120609}, "nodes": [11019952743, 11019952751, 11019952744, 11019952752, 11019952750, 11019952745, 11019952754, 11019952746, 11019952747, 11019952748, 11019952749, 11019952743], "tags": {"amenity": "hospital", "barrier": "wall", "healthcare": "hospital", "name": "Hospital da Miss\u00e3o Cat\u00f3lica do Zenze do Lucula"}}, {"type": "way", "id": 1189157819, "center": {"lat": -5.3007937, "lon": 12.2420925}, "nodes": [11042373311, 11042373285, 11042373286, 11042373316, 11042373310, 11042373311], "tags": {"amenity": "hospital", "healthcare": "hospital", "name": "Centro de Sa\u00fade de Sassa Zau"}}, {"type": "way", "id": 1190190009, "center": {"lat": -1.8256558, "lon": 13.0148177}, "nodes": [11051195150, 11051195149, 11051195148, 11051195147, 11051195146, 11051195145, 10812693743, 11051195144, 11051195143, 11051195142, 11051195141, 11051195150], "tags": {"addr:city": "Bakoumba", "addr:province": "Haut-Ogoou\u00e9", "amenity": "hospital", "name": "Centre m\u00e9dical de Bakoumba"}}, {"type": "way", "id": 1190582887, "center": {"lat": -1.1327405, "lon": 12.4665481}, "nodes": [4977350150, 11054703862, 11054703861, 11054703860, 4977350151, 4977350150], "tags": {"amenity": "hospital", "name": "Centre Hospitalier Urbain de Koulamoutou", "name:en": "Koulamoutou Hospital Center Urbain"}}, {"type": "way", "id": 1204647533, "center": {"lat": -4.768715, "lon": 12.5274436}, "nodes": [11164868373, 11164868372, 11164868371, 11164868370, 11164868369, 11164868368, 11164868367, 11164868366, 11164868373], "tags": {"amenity": "hospital", "name": "Hospital Regional Norte de Buco-Zau"}}, {"type": "way", "id": 1204647545, "center": {"lat": -4.7679398, "lon": 12.5469674}, "nodes": [11164874749, 11164874741, 11164874748, 11164874747, 11164874746, 11164874740, 11164874749], "tags": {"amenity": "hospital", "barrier": "wall", "name": "Hospital Municipal de Buco-Zau"}}, {"type": "relation", "id": 7009007, "center": {"lat": -4.4107621, "lon": 15.3040571}, "members": [{"type": "way", "ref": 476958793, "role": "inner"}, {"type": "way", "ref": 476958795, "role": "inner"}, {"type": "way", "ref": 476958794, "role": "outer"}], "tags": {"amenity": "hospital", "building": "yes", "name": "Centre hospitalier du Mont-Amba", "operator": "Universt\u00e9 de Kinshasa", "type": "multipolygon"}}, {"type": "relation", "id": 8268983, "center": {"lat": -8.8238867, "lon": 13.2266942}, "members": [{"type": "way", "ref": 60120734, "role": "outer"}, {"type": "way", "ref": 585595348, "role": "inner"}, {"type": "way", "ref": 585595345, "role": "inner"}, {"type": "way", "ref": 585595346, "role": "inner"}, {"type": "way", "ref": 585595347, "role": "inner"}], "tags": {"addr:city": "Luanda", "addr:street": "Avenida do 1\u00ba Congresso do MPLA (ex Avenida Alvaro Ferreira)", "amenity": "hospital", "building": "hospital", "emergency": "yes", "healthcare": "hospital", "name": "Hospital Susana Machel (ex Maria Pia)", "old_name": "Maria Pia", "type": "multipolygon"}}, {"type": "relation", "id": 10215223, "center": {"lat": -4.4192143, "lon": 15.3811305}, "members": [{"type": "way", "ref": 738505702, "role": "inner"}, {"type": "way", "ref": 738505701, "role": "inner"}, {"type": "way", "ref": 418273725, "role": "outer"}], "tags": {"amenity": "hospital", "building": "yes", "healthcare": "hospital", "name": "H\u00f4pital Kimbanguiste", "type": "multipolygon", "vaccination": "covid19"}}, {"type": "relation", "id": 10390411, "center": {"lat": -4.232592, "lon": 15.2794554}, "members": [{"type": "way", "ref": 684599122, "role": "outer"}], "tags": {"amenity": "hospital", "healthcare": "yes", "name": "CNSS Centre National de S\u00e9curit\u00e9 Sociale", "type": "multipolygon"}}, {"type": "relation", "id": 11356489, "center": {"lat": -8.8382465, "lon": 13.2731117}, "members": [{"type": "way", "ref": 830979049, "role": "inner"}, {"type": "way", "ref": 135664870, "role": "outer"}], "tags": {"amenity": "hospital", "building": "hospital", "designation": "Hospital", "emergency": "yes", "name": "Centro de Sa\u00fade da Terra Nova (Beiral)", "type": "multipolygon"}}]}