{"version": 0.6, "generator": "Overpass API 0.7.61.5 4133829e", "osm3s": {"timestamp_osm_base": "2023-10-31T20:51:35Z", "copyright": "The data included in this document is from www.openstreetmap.org. The data is made available under ODbL."}, "elements": [{"type": "node", "id": 1261568290, "lat": -2.534619, "lon": 140.7101273, "tags": {"addr:city": "Bayangkara, Jayapura Utara, Kota Jayapura, Papua", "addr:housenumber": "1", "addr:street": "Jl. Kesehatan", "amenity": "hospital", "emergency": "yes", "name": "RSUD Papua", "name:en": "Papua Regional Hospital", "phone": "(0967) 533781"}}, {"type": "node", "id": 1538978469, "lat": -3.5697885, "lon": 143.6607466, "tags": {"amenity": "hospital", "healthcare": "hospital", "name": "Wewak General Hospital"}}, {"type": "node", "id": 2266566023, "lat": -5.846106, "lon": 144.5819154, "tags": {"amenity": "hospital", "description": "110-bed Provincial Hospital for Jiwaka Province, 24-hour emergency and maternity care services including surgery and operative obstetrics", "emergency": "yes", "healthcare": "hospital", "healthcare:speciality": "surgery;general;trauma;paediatrics;clinic", "name": "Nazarene General Hospital", "operator": "Nazarene Health Ministries", "website": "http://nazpng.org/hospital/"}}, {"type": "node", "id": 2905135545, "lat": -7.9647912, "lon": 145.7744166, "tags": {"amenity": "hospital", "health_facility:type": "hospital", "healthcare": "hospital", "name": "Kerema Public Hospital", "source": "survey"}}, {"type": "node", "id": 3052842870, "lat": -9.4429991, "lon": 147.1958824, "tags": {"addr:city": "Port Moresby", "amenity": "hospital", "healthcare": "hospital", "name": "Gordans Clinic"}}, {"type": "node", "id": 3371581041, "lat": -6.3939744, "lon": 143.8520723, "tags": {"amenity": "hospital", "healthcare": "hospital", "name": "Kagua District Health Center"}}, {"type": "node", "id": 3887391276, "lat": -7.5769289, "lon": 144.9641723, "tags": {"amenity": "hospital", "healthcare": "hospital", "name": "Kapuna Hospital"}}, {"type": "node", "id": 3888595176, "lat": -7.495418, "lon": 144.8292111, "tags": {"amenity": "hospital", "healthcare": "hospital", "name": "Baimuru Health Centre"}}, {"type": "node", "id": 4369614595, "lat": -8.5413931, "lon": 146.5608095, "tags": {"addr:street": "Rarai Road", "amenity": "hospital", "healthcare": "hospital", "name": "St. Gerard's Hospital, Veifa'a", "name:en": "St. Gerard's Hospital, Veifa'a", "opening_hours": "24/7"}}, {"type": "node", "id": 4369614596, "lat": -8.629662, "lon": 146.5786455, "tags": {"addr:street": "Inauaia Road", "amenity": "hospital", "name": "Inauaia Health Centre", "name:en": "Inauaia Health Centre"}}, {"type": "node", "id": 4600874790, "lat": -9.4758717, "lon": 147.1999553, "tags": {"amenity": "hospital", "healthcare": "hospital", "name": "2K Hospital", "name:en": "2K Hospital"}}, {"type": "node", "id": 5349781616, "lat": -5.907067, "lon": 144.6866503, "tags": {"amenity": "hospital", "healthcare": "hospital", "healthcare:speciality": "internal;clinic;general", "name": "Minj Health Center", "operator": "Jiwaka Provincial Health Department"}}, {"type": "node", "id": 5370968797, "lat": -5.8043906, "lon": 144.6273118, "tags": {"amenity": "hospital", "healthcare": "hospital", "name": "Mariaquin Banz Health Center", "operator": "Catholic Health Services"}}, {"type": "node", "id": 5625836521, "lat": -7.3236361, "lon": 140.6666298, "tags": {"amenity": "hospital", "name": "RS Muting 2"}}, {"type": "node", "id": 6207358789, "lat": -2.6163842, "lon": 140.6713222, "tags": {"addr:street": "Jalan Raya Tanah Hitam", "amenity": "hospital", "internet_access": "wlan", "name:en": "Rumah Sakit Jiwa"}}, {"type": "node", "id": 6601702385, "lat": -5.4978717, "lon": 143.4977909, "tags": {"amenity": "hospital", "healthcare": "hospital", "name": "Laiagam District Hospital"}}, {"type": "node", "id": 6687071386, "lat": -5.7067887, "lon": 142.7386926, "tags": {"amenity": "hospital", "healthcare": "hospital", "name": "Koroba Hospital"}}, {"type": "node", "id": 7678256285, "lat": -9.9515469, "lon": 149.8370264, "tags": {"amenity": "hospital", "fixme": "suspect location", "name": "Rabaraba Hospital"}}, {"type": "node", "id": 7990404226, "lat": -5.8397071, "lon": 143.5071986, "tags": {"amenity": "hospital", "healthcare": "hospital"}}, {"type": "node", "id": 8092283452, "lat": -5.844966, "lon": 143.5098449, "tags": {"amenity": "hospital", "healthcare": "hospital"}}, {"type": "node", "id": 8419374828, "lat": -6.2817441, "lon": 143.9893272, "tags": {"amenity": "hospital", "healthcare": "hospital", "name": "Ialibu Hospital", "operator": "Dept. of Health", "operator:type": "government"}}, {"type": "node", "id": 8422193531, "lat": -6.0224389, "lon": 143.3837586, "tags": {"amenity": "hospital", "healthcare": "hospital", "name": "Hiri Aidpost"}}, {"type": "node", "id": 9153554021, "lat": -5.5015655, "lon": 143.4870787, "tags": {"amenity": "hospital", "healthcare": "hospital"}}, {"type": "node", "id": 9589811983, "lat": -4.2731906, "lon": 144.9723928, "tags": {"amenity": "hospital", "healthcare": "hospital", "name": "Bogia Hospital"}}, {"type": "way", "id": 169538009, "center": {"lat": -6.7273552, "lon": 146.996102}, "nodes": [1806981471, 9055561881, 9055561882, 9055561883, 9055561884, 1806981461, 1806981449, 1806981453, 1806981467, 1806981447, 7392848780, 8016546559, 1806981442, 8039065215, 9055561877, 9055561878, 6031864748, 9055561876, 1806981466, 9055561879, 9055561875, 9055561880, 1806981471], "tags": {"amenity": "hospital", "emergency": "yes", "healthcare": "hospital", "name": "ANGAU Hospital"}}, {"type": "way", "id": 208410976, "center": {"lat": -6.0789826, "lon": 145.3850842}, "nodes": [9052596001, 2187059020, 2187059017, 2187059012, 2187059014, 2187059016, 2187059008, 2187059010, 2187059163, 2187059206, 2187059207, 9052596001], "tags": {"amenity": "hospital", "healthcare": "hospital", "name": "Goroka Haus Sik", "operator": "PNG Department of Health", "operator:type": "public", "source": "Bing"}}, {"type": "way", "id": 232395392, "center": {"lat": -6.7366106, "lon": 146.9862943}, "nodes": [2407445393, 2407445394, 2407445395, 7844657466, 2407445396, 2407445393], "tags": {"addr:city": "Lae", "addr:housenumber": "PO Box 1026", "addr:street": "Marsina Street", "amenity": "hospital", "building": "yes", "emergency": "yes", "fax": "+675 472 5757", "healthcare": "hospital", "name": "Lae International Hospital", "phone": "+675 472 7133"}}, {"type": "way", "id": 330738998, "center": {"lat": -5.8594746, "lon": 144.2351617}, "nodes": [3377362479, 3377362453, 3377362649, 3733845649, 3733845712, 3733845734, 3733845761, 3733845756, 3733845764, 3733845732, 3377362656, 3377362640, 3377362652, 3377362653, 3377362644, 3377362616, 3377362604, 3377362596, 3377362479], "tags": {"addr:city": "Mount Hagen", "addr:street": "Kuminga Road", "amenity": "hospital", "emergency": "yes", "healthcare": "hospital", "healthcare:speciality": "general;paediatrics;vaccination;orthopaedics;gynaecology;emergency;surgery;radiology;intensive;maternity;dermatology", "name": "Mount Hagen Hospital", "operator": "Department of Health", "operator:type": "government"}}, {"type": "way", "id": 356033825, "center": {"lat": -5.3825107, "lon": 145.4420452}, "nodes": [3613708286, 3613708273, 3613708274, 3615150207, 3613708275, 3613708276, 3613708277, 3613708278, 3613708281, 3613708282, 3613708283, 3613708209, 3613708210, 3613708211, 3613708212, 3613708213, 3613708214, 3613708215, 3613708216, 3613708217, 3613708218, 3613708219, 3613708220, 3613708222, 3613708223, 3613708224, 3613708225, 3613708226, 3613708227, 3613708228, 3613708229, 3613708230, 3613708231, 3613708232, 3613708233, 3613708234, 3613708235, 3613708236, 3613708237, 3613708238, 3613708239, 3613708240, 3613708241, 3613708242, 3613708243, 3613708244, 3613708245, 3613708246, 3613708247, 3615150231, 3613708248, 3613708249, 3613708250, 3613708251, 3613708252, 3613708253, 3613708254, 3613708256, 3613708257, 3613708258, 3613708259, 3613708260, 3613708261, 3613708262, 3613708263, 3613708264, 3613708265, 3613708266, 3613708267, 3613708268, 3613708269, 3613708270, 3613708271, 3613708272, 3613708284, 3613708285, 3613708286], "tags": {"amenity": "hospital", "healthcare": "hospital", "name": "Manipur Health Centre"}}, {"type": "way", "id": 369637551, "center": {"lat": -5.8463743, "lon": 142.9508849}, "nodes": [3734156613, 3734156620, 3734156618, 3734156622, 3734156619, 3734156615, 3734156616, 5440805342, 5440805343, 3734156611, 3734156608, 3734156610, 3734156613], "tags": {"amenity": "hospital", "healthcare": "hospital", "name": "Tari Hospital"}}, {"type": "way", "id": 369792282, "center": {"lat": -6.3940167, "lon": 143.8521409}, "nodes": [3735490012, 3735489992, 3735490003, 3735490016, 3735490012], "tags": {"amenity": "hospital", "healthcare": "hospital"}}, {"type": "way", "id": 369945750, "center": {"lat": -6.603232, "lon": 143.8952268}, "nodes": [3736809079, 3736809071, 3736809068, 3736809074, 3736809079], "tags": {"amenity": "hospital", "healthcare": "hospital", "name": "Erave Hospital"}}, {"type": "way", "id": 370806765, "center": {"lat": -5.8450731, "lon": 143.5098014}, "nodes": [3744928955, 3744928953, 3744928951, 3744928947, 3744928939, 3744928935, 3744928930, 3744928929, 3744928927, 3744928925, 3744928926, 3744928928, 3744928931, 3744928937, 3744928942, 3744928950, 3744928952, 3744928957, 3744928960, 3744928961, 3744928967, 3744928971, 3744928974, 3744928985, 3744928989, 3744928998, 3744927394, 3744927398, 3744927405, 3744927409, 3744927413, 3744927415, 3744927419, 3744927421, 3744927423, 3744927401, 3744928996, 3744928986, 3744928975, 3744928962, 3744928959, 3744928955], "tags": {"amenity": "hospital", "healthcare": "hospital", "landcover": "grass"}}, {"type": "way", "id": 387790842, "center": {"lat": -7.4120704, "lon": 144.6584152}, "nodes": [3910234935, 3910234934, 3910240891, 3910240892, 7844545700, 7844545701, 3910234935], "tags": {"amenity": "hospital", "name": "Karati Health Centre"}}, {"type": "way", "id": 540362040, "center": {"lat": -2.6020615, "lon": 140.2002097}, "nodes": [5227725638, 5227725637, 5227725636, 5227725635, 5227725638], "tags": {"amenity": "hospital", "healthcare": "hospital", "name": "Puskesmas Namblong"}}, {"type": "way", "id": 540362477, "center": {"lat": -2.59508, "lon": 140.1667983}, "nodes": [5227727658, 5227727655, 5227727656, 5227727657, 5227727658], "tags": {"amenity": "hospital", "healthcare": "hospital", "healthcare:speciality": "general", "name": "Puskesmas Genyem"}}, {"type": "way", "id": 540365610, "center": {"lat": -2.6273312, "lon": 140.3430732}, "nodes": [5227755427, 5227755426, 5227755425, 5227755424, 5227755427], "tags": {"amenity": "hospital", "healthcare": "hospital", "name": "Puskesmas Kemtuk"}}, {"type": "way", "id": 554333369, "center": {"lat": -5.7864929, "lon": 144.5570213}, "nodes": [5349792242, 5349792243, 5349792244, 5349792245, 5349792246, 5349792247, 5349792242], "tags": {"amenity": "hospital", "healthcare": "hospital", "healthcare:speciality": "general;community", "name": "CLTC Clinic", "operator": "Christian Leadership Training Center"}}, {"type": "way", "id": 556663306, "center": {"lat": -8.4814972, "lon": 140.3912077}, "nodes": [5369639920, 5369639917, 5369639918, 5369639919, 5369639920], "tags": {"amenity": "hospital", "healthcare": "hospital", "name": "RS. Angkatan Laut, Merauke"}}, {"type": "way", "id": 564767189, "center": {"lat": -5.8996418, "lon": 142.9906175}, "nodes": [5440615825, 5440615826, 5440615827, 5440615828, 5440615829, 5440615830, 5440615831, 5440615832, 5440615833, 5440615834, 5440615835, 5440615836, 5440615837, 5440615838, 5440615839, 5440615840, 5440615825], "tags": {"amenity": "hospital", "building": "yes", "healthcare": "hospital", "name": "Wabia Sub Health Center"}}, {"type": "way", "id": 617424876, "center": {"lat": -2.591053, "lon": 140.6423545}, "nodes": [5836474589, 5836474590, 5836474591, 5836474592, 5836474593, 5836474594, 9465690560, 9465690561, 5836474595, 5836474596, 5836474597, 5836474589], "tags": {"amenity": "hospital", "healthcare": "hospital", "healthcare:speciality": "general;paediatrics;radiology;emergency", "name": "Dian Harapan", "name:en": "Dian Harapan Hospital", "name:id": "Rumah Sakit Dian Harapan"}}, {"type": "way", "id": 638358486, "center": {"lat": -9.0717099, "lon": 143.2130889}, "nodes": [6016526838, 6016526837, 6016526834, 6016526836, 6016526835, 6016526838], "tags": {"amenity": "hospital", "emergency": "yes", "healthcare": "hospital", "name": "Daru General Hospital"}}, {"type": "way", "id": 677651824, "center": {"lat": -2.533009, "lon": 140.4661918}, "nodes": [6345051136, 6345051126, 6345051135, 6345051127, 6345051134, 6345051133, 6345051132, 6345051131, 6345051125, 6345051136], "tags": {"addr:city": "Jayapura", "addr:postcode": "99352", "amenity": "hospital", "name": "Rumah Sakit Yowari", "name:en": "Yowari Public Hospital"}}, {"type": "way", "id": 705938942, "center": {"lat": -4.7297212, "lon": 145.9014657}, "nodes": [6633143546, 6633143545, 6633143540, 6633143539, 6633143538, 6633143537, 6633143536, 6633143535, 6633143534, 6633143533, 9057774152, 6633143532, 6633143531, 6633143530, 6633143529, 9057774151, 6633143528, 6633143527, 6633143526, 6633143525, 6633143520, 6633143519, 6633143518, 6633143517, 6633143516, 6633143515, 6633143514, 6633143513, 6633143512, 6633143511, 6633143510, 6633143546], "tags": {"amenity": "hospital", "healthcare": "hospital", "name": "Gaubin Hospital"}}, {"type": "way", "id": 766176567, "center": {"lat": -7.9658838, "lon": 140.4557868}, "nodes": [7155947678, 7155947679, 7155947680, 7590731088, 7155947681, 7590727452, 7155947678], "tags": {"amenity": "hospital", "healthcare": "hospital", "name": "Puskesmas Wayau"}}, {"type": "way", "id": 777213895, "center": {"lat": -6.1272265, "lon": 143.6526098}, "nodes": [7252179907, 8226773751, 9053218041, 7252179908, 8226773737, 9301374180, 9301374179, 9301374170, 9053218043, 8729856237, 8729856238, 8729856239, 8236734013, 8729856240, 8729856241, 8226773749, 7252179913, 3884332901, 7252179914, 8226773744, 7252179907], "tags": {"amenity": "hospital", "healthcare": "hospital", "name": "Mendi Provincial Hospital", "operator": "NDOH", "operator:type": "government"}}, {"type": "way", "id": 779349845, "center": {"lat": -5.501571, "lon": 143.4870936}, "nodes": [7277461841, 7277461838, 7277461839, 7277461840, 7277461841], "tags": {"amenity": "hospital", "healthcare": "hospital", "name": "Mamal Apostic Church run Sub-Health Centre"}}, {"type": "way", "id": 784091746, "center": {"lat": -2.6154185, "lon": 140.6687639}, "nodes": [7324325316, 7324325315, 7324325314, 7324325313, 7324325312, 7324325311, 7324325308, 7324325310, 7324325309, 7324325299, 7324325298, 7324325297, 7324325296, 7324325295, 7324325316], "tags": {"addr:city": "Kota Jayapura", "addr:full": "Jl. Kesehatan No.1, Yobe, Abepura", "addr:postcode": "99351", "addr:street": "Jalan Raya Tanah Hitam", "amenity": "hospital", "contact:email": "simrs.abe@gmail.com", "contact:phone": "(0967) 581064", "contact:website": "http://rsud-abepura.papua.go.id/", "emergency": "yes", "internet_access": "wlan", "name": "RSUD ABEPURA", "opening_hours": "24/7", "operator:type": "government"}}, {"type": "way", "id": 788128784, "center": {"lat": -8.4819866, "lon": 140.388445}, "nodes": [7368619251, 7368619252, 7368619253, 7368619254, 7368619255, 7368619256, 7368619258, 7368619251], "tags": {"addr:city": "Maro, Kec. Merauke, Kabupaten Merauke, Papua", "addr:housenumber": "1", "addr:postcode": "99613", "addr:street": "Jl. Soekarjo Wiryopranoto", "amenity": "hospital", "emergency": "yes", "healthcare": "hospital", "name": "Rumah Sakit Umum Daerah Merauke", "phone": "(0971) 321124"}}, {"type": "way", "id": 790745983, "center": {"lat": -6.2915643, "lon": 145.857031}, "nodes": [7392347634, 7392347635, 7739882108, 7392347636, 7392347637, 7392347638, 7392347639, 7739882102, 7392347640, 7392347641, 7392347642, 7392347643, 7392347644, 7392347645, 7611712194, 7611712193, 7392347646, 7392347634], "tags": {"amenity": "hospital", "healthcare": "hospital", "name": "Kainantu Hospital"}}, {"type": "way", "id": 793284072, "center": {"lat": -5.9832195, "lon": 143.3595015}, "nodes": [7417718442, 7417718443, 7417718444, 7417718445, 7417718446, 7417718447, 7417718448, 7417718449, 7417718450, 7417718451, 7417718442], "tags": {"amenity": "hospital", "healthcare": "hospital", "name": "Magarima Hospital"}}, {"type": "way", "id": 793391367, "center": {"lat": -6.1154499, "lon": 141.3029337}, "nodes": [7418701219, 7418701220, 7418701221, 7418701222, 7418701223, 7418701219], "tags": {"amenity": "hospital", "healthcare": "hospital", "name": "Kiunga District Hospital"}}, {"type": "way", "id": 793391948, "center": {"lat": -6.1414816, "lon": 143.4490558}, "nodes": [7418690695, 7418690696, 7418690697, 7418690698, 7418690699, 7418690700, 7418690704, 7418690701, 7418690702, 7418690703, 7418690695], "tags": {"amenity": "hospital", "healthcare": "hospital", "name": "Nipa District Hospital"}}, {"type": "way", "id": 793402380, "center": {"lat": -9.3642285, "lon": 147.224455}, "nodes": [7418761880, 7418761881, 7418761882, 7418761883, 7418761884, 7418769485, 7418769486, 7418769487, 7418769488, 7418769489, 7418769490, 7418761880], "tags": {"amenity": "hospital", "healthcare": "hospital", "name": "Laloki Psychiatric Hospital", "operator": "NDOH", "operator:type": "government"}}, {"type": "way", "id": 793403158, "center": {"lat": -5.2331417, "lon": 145.7939673}, "nodes": [7418776595, 7418776596, 7418776597, 7418776598, 7418776599, 7418776600, 7418776601, 7418776602, 7418776603, 7418776604, 7418776605, 7418776606, 7418776607, 7418776608, 7418776609, 7418776610, 7418776611, 7418776595], "tags": {"alt_name": "Modilon General Hospital", "amenity": "hospital", "healthcare": "hospital", "name": "Madang General Hospital"}}, {"type": "way", "id": 793404010, "center": {"lat": -9.4752038, "lon": 147.1942313}, "nodes": [7418773721, 8349702968, 9047193954, 8349702970, 8349702969, 9047193956, 8349702967, 9047193955, 8349702966, 8349702963, 7590561305, 7590561307, 7418773722, 8349702947, 7418773723, 7418773724, 7418773725, 7418773726, 7418773727, 3975065605, 3975065598, 7418773721], "tags": {"amenity": "hospital", "emergency": "yes", "healthcare": "hospital", "name": "Port Moresby General Hospital", "operator": "NDOH", "operator:type": "public"}}, {"type": "way", "id": 793414617, "center": {"lat": -5.49973, "lon": 144.1151745}, "nodes": [7418834821, 7418834822, 7418834823, 7418834824, 7418834825, 7418834826, 7418834827, 7418834828, 7418834821], "tags": {"amenity": "hospital", "healthcare": "hospital", "name": "Tinsley Health Centre"}}, {"type": "way", "id": 793414949, "center": {"lat": -6.0271927, "lon": 144.9714609}, "nodes": [7418869488, 9054984899, 9054984900, 7418869489, 7418869490, 7418869491, 7418869492, 7418869493, 7418869494, 7418869495, 7418869496, 7418869497, 7418869498, 7418869499, 7418869500, 7418869501, 7418869502, 7418869503, 7418869504, 7418869505, 7418869506, 9054984901, 7418869488], "tags": {"amenity": "hospital", "healthcare": "hospital", "name": "Kundiawa General Hospital", "operator": "NDOH", "operator:type": "public"}}, {"type": "way", "id": 793415663, "center": {"lat": -5.4958029, "lon": 143.7256833}, "nodes": [7418881243, 7418881244, 7418881245, 7418881246, 7844704973, 7869325446, 7844713609, 7844713610, 7418881247, 5646358257, 5646358258, 5646358259, 5162593116, 7418881243], "tags": {"amenity": "hospital", "healthcare": "hospital", "name": "Wabag General Hospital"}}, {"type": "way", "id": 793433485, "center": {"lat": -7.341145, "lon": 146.7127012}, "nodes": [7419036655, 7419036656, 7419036657, 7419036658, 7419036659, 7419036660, 7419036661, 7419036662, 7419036663, 7846998700, 7419036655], "tags": {"amenity": "hospital", "healthcare": "hospital", "name": "Wau Health Centre"}}, {"type": "way", "id": 793437780, "center": {"lat": -5.2904364, "lon": 145.7385961}, "nodes": [7418963771, 7418963772, 7418963773, 7418963774, 7418963775, 7418963776, 7418963777, 7418963778, 7418963779, 7418963780, 7418963781, 7418963782, 7418963783, 7418963784, 7844676002, 7418963771], "tags": {"amenity": "hospital", "healthcare": "hospital", "name": "Yagaum Hospital"}}, {"type": "way", "id": 832912734, "center": {"lat": -3.6176236, "lon": 143.053223}, "nodes": [7775502863, 7775502864, 7775502865, 7775502866, 7775502887, 7775502886, 7775502890, 7775502867, 7775502863], "tags": {"amenity": "hospital", "healthcare": "hospital", "name": "Maprik Hospital"}}, {"type": "way", "id": 834616709, "center": {"lat": -8.0381579, "lon": 142.9601392}, "nodes": [7791041452, 7791041453, 7791041454, 7791041455, 7791041456, 7791041457, 7791041458, 7791041459, 7791041452], "tags": {"amenity": "hospital", "healthcare": "hospital", "name": "Balimo Hospital"}}, {"type": "way", "id": 834620450, "center": {"lat": -7.4244367, "lon": 144.2516752}, "nodes": [7791084811, 7791084812, 7791084813, 7791084814, 7791084815, 7791084816, 7791084811], "tags": {"amenity": "hospital", "healthcare": "hospital", "name": "Kikori Hospital"}}, {"type": "way", "id": 870604060, "center": {"lat": -5.9542302, "lon": 143.5123084}, "nodes": [8109951601, 8109951602, 8109951603, 8109951604, 8109951605, 8109951601], "tags": {"amenity": "hospital", "healthcare": "hospital"}}, {"type": "way", "id": 871998030, "center": {"lat": -6.4054357, "lon": 145.7020816}, "nodes": [8121917236, 8121917237, 8121917238, 8121917239, 8121917240, 8121917241, 8121917242, 8121917243, 8121917244, 8121917245, 8121917246, 8121917247, 8121917248, 8121917249, 8121917236], "tags": {"amenity": "hospital", "healthcare": "hospital", "name": "Onamuga Health Centre"}}, {"type": "way", "id": 878584776, "center": {"lat": -7.0080985, "lon": 145.7963099}, "nodes": [7512438466, 8173410744, 8173410745, 7512438464, 7512438466], "tags": {"amenity": "hospital", "healthcare": "hospital", "name": "Sindeni Health Centre"}}, {"type": "way", "id": 891135377, "center": {"lat": -6.0741431, "lon": 143.5396268}, "nodes": [8282459275, 8282459276, 8282459277, 8282459278, 8282459275], "tags": {"addr:city": "Mendi", "addr:postcode": "675", "amenity": "hospital", "emergency": "yes", "healthcare": "hospital", "healthcare:speciality": "general", "name": "Munihiu Health Centre", "operator": "Health Department", "operator:type": "government"}}, {"type": "way", "id": 891164628, "center": {"lat": -6.0745117, "lon": 143.5899249}, "nodes": [8282475400, 8282475401, 8282475402, 8282475403, 8282475404, 8282475399, 8282475400], "tags": {"addr:city": "Mendi", "addr:postcode": "675", "addr:street": "Mendi - Kandep Road", "amenity": "hospital", "emergency": "no", "healthcare": "hospital", "healthcare:speciality": "general", "name": "Topa Health Center", "operator": "Health Department", "operator:type": "government"}}, {"type": "way", "id": 891572342, "center": {"lat": -9.3936954, "lon": 147.1605948}, "nodes": [8286828434, 8286828435, 8286828436, 8286828437, 8286828438, 8286828439, 8286828433, 8286828434], "tags": {"amenity": "hospital", "healthcare": "hospital", "name": "Gerehu General Hospital"}}, {"type": "way", "id": 898529997, "center": {"lat": -9.477401, "lon": 147.1909783}, "nodes": [8349702971, 8349702972, 8349702973, 8349702974, 8349702975, 8349702976, 8349702977, 8349702978, 8349702979, 8349702980, 8349702981, 8349702982, 8349702983, 8349702984, 8349702985, 8349702971], "tags": {"amenity": "hospital", "emergency": "yes", "healthcare": "hospital", "name": "Pacific International Hospital", "operator": "Pacific International Hospital", "operator:type": "private", "website": "https://www.pihpng.com"}}, {"type": "way", "id": 901982423, "center": {"lat": -7.2038073, "lon": 146.6425605}, "nodes": [8378372264, 8378372265, 8378372266, 8378372267, 8378372268, 8378372269, 8378372264], "tags": {"amenity": "hospital", "healthcare": "hospital", "name": "Bulolo Hospital"}}, {"type": "way", "id": 908969043, "center": {"lat": -5.7251634, "lon": 142.7985503}, "nodes": [8439912500, 8439912501, 8439912502, 8439912503, 8439912504, 8439912505, 8439912506, 8439912507, 8439912508, 8439912509, 8439912510, 8439912500], "tags": {"amenity": "hospital", "healthcare": "hospital", "name": "Maria Health Center"}}, {"type": "way", "id": 913456000, "center": {"lat": -6.0687045, "lon": 143.3750081}, "nodes": [8485401748, 8485401749, 8485401750, 8485401751, 8485401748], "tags": {"amenity": "hospital", "healthcare": "hospital", "name": "Songura Aid Post"}}, {"type": "way", "id": 914945810, "center": {"lat": -6.0694332, "lon": 142.856875}, "nodes": [8499119479, 8499119480, 8499119481, 8499119482, 8499119483, 8499119479], "tags": {"amenity": "hospital", "healthcare": "hospital", "name": "Komo Hospital"}}, {"type": "way", "id": 916187024, "center": {"lat": -7.2131053, "lon": 146.0228765}, "nodes": [5156071307, 8509859450, 8509859451, 8509859452, 8509859453, 8509859454, 8509859455, 8509859456, 8509859457, 8509859458, 8509859459, 5156071307], "tags": {"amenity": "hospital", "healthcare": "hospital", "name": "Menyamya Health Centre"}}, {"type": "way", "id": 919096741, "center": {"lat": -2.0429289, "lon": 147.3649286}, "nodes": [8536223966, 8536223967, 8536223968, 8536223969, 8536223970, 8536223971, 8536223972, 8536223973, 8536223974, 8536223981, 8536223966], "tags": {"amenity": "hospital", "healthcare": "hospital", "name": "Lombrum Naval Hospital", "operator": "Dept. of Defense", "operator:type": "government"}}, {"type": "way", "id": 920148321, "center": {"lat": -2.6824462, "lon": 141.3089873}, "nodes": [9055582153, 9055582154, 9055582155, 9055582156, 9055582157, 9055582158, 9055582159, 8544335161, 9055582153], "tags": {"amenity": "hospital", "healthcare": "hospital", "name": "Vanimo Hospital"}}, {"type": "way", "id": 921481021, "center": {"lat": -6.3468149, "lon": 146.2425893}, "nodes": [8555103142, 8555103143, 8555103144, 8555103145, 8555103146, 8555103147, 8555103148, 8555103142], "tags": {"amenity": "hospital", "healthcare": "hospital", "name": "Mutzing Health Centre"}}, {"type": "way", "id": 925066216, "center": {"lat": -6.133086, "lon": 146.4699375}, "nodes": [8585317730, 8585317731, 8585317732, 8585317733, 8585317734, 8585317735, 8585317730], "tags": {"amenity": "hospital", "healthcare": "hospital", "name": "Wantoat Health Centre", "operator": "Dept. of Health"}}, {"type": "way", "id": 925550337, "center": {"lat": -6.0240791, "lon": 147.1954739}, "nodes": [6588991534, 6588990974, 8589643515, 8589643516, 8589643517, 8589643518, 8589643519, 8589643520, 8589643521, 8589643522, 8589643523, 8589643524, 8589643525, 6588991534], "tags": {"alt_name": "Etep Hospital", "amenity": "hospital", "healthcare": "hospital", "name": "Etep Rural Hospital"}}, {"type": "way", "id": 931451010, "center": {"lat": -6.5950163, "lon": 147.8186243}, "nodes": [4712759075, 8635878817, 8635715346, 8635769607, 8635715347, 8635715348, 8635715349, 8635715350, 8635715351, 8635715352, 8635715353, 8635715354, 4712759075], "tags": {"amenity": "hospital", "denomination": "lutheran", "healthcare": "hospital", "name": "Braun Memorial Hospital Butaweng", "operator": "Evangelical Lutheran Church of Papua New Guinea", "religion": "christian"}}, {"type": "way", "id": 1020776143, "center": {"lat": -2.0248447, "lon": 147.2673994}, "nodes": [9414823157, 9414823156, 9414823155, 9414823154, 4159419675, 9414823153, 9414823152, 9414823151, 9414823150, 9414823149, 9414823148, 9414823147, 9414823146, 9414823145, 9414823144, 9414823143, 9414823142, 9414823157], "tags": {"amenity": "hospital", "healthcare": "hospital", "name": "Lorengau Hospital"}}, {"type": "way", "id": 1039667190, "center": {"lat": -4.3969938, "lon": 145.2098986}, "nodes": [9573423018, 9573423019, 9573423020, 9573423021, 9573423022, 9573423023, 9573423018], "tags": {"amenity": "hospital", "healthcare": "hospital", "name": "Hatzfeldhaven Health Centre"}}, {"type": "way", "id": 1043844612, "center": {"lat": -4.8361657, "lon": 145.7783968}, "nodes": [9606405689, 9606405690, 9606405691, 9606405692, 9606405693, 9606405694, 9606405695, 9606405696, 9606405697, 9606405698, 9606405699, 9606405700, 9606405701, 9606405702, 9606405703, 9606405704, 9606405705, 9606405706, 9606405707, 9606405708, 9606405709, 9606405710, 9606405711, 9606405712, 9606405689], "tags": {"amenity": "hospital", "healthcare": "hospital", "name": "Mugil Health Centre"}}, {"type": "way", "id": 1049086580, "center": {"lat": -4.5713394, "lon": 145.9188603}, "nodes": [9641168731, 9641168730, 9641168740, 9641168741, 9641168742, 9641168743, 9641168744, 9641168732, 9641168731], "tags": {"amenity": "hospital", "healthcare": "hospital", "name": "Miak Health Centre"}}, {"type": "way", "id": 1053410473, "center": {"lat": -4.7354109, "lon": 145.0072815}, "nodes": [5162427059, 9680824152, 9680824153, 9680824154, 9680824155, 9680824156, 9680824157, 9680824158, 9680824159, 5162426178, 5162427059], "tags": {"amenity": "hospital", "healthcare": "hospital", "name": "Josephstaal Health Centre"}}, {"type": "way", "id": 1064544964, "center": {"lat": -2.5611288, "lon": 140.716258}, "nodes": [9776775331, 9776775332, 9776775333, 9776775334, 9776775331], "tags": {"amenity": "hospital", "healthcare": "hospital", "name": "PUSKESMAS HAMADI"}}, {"type": "way", "id": 1064545443, "center": {"lat": -2.5612655, "lon": 140.7162246}, "nodes": [9776796006, 9776796007, 9776775331, 9776781978, 9776796006], "tags": {"amenity": "hospital", "healthcare": "hospital"}}, {"type": "way", "id": 1077021711, "center": {"lat": -6.281728, "lon": 143.989319}, "nodes": [9875787947, 9875787948, 9875787949, 9875787950, 9875787951, 9875787952, 9875787953, 9875787947], "tags": {"addr:city": "Ialibu", "amenity": "hospital", "emergency": "yes", "healthcare": "hospital", "healthcare:speciality": "general;vaccination;emergency", "name": "Ialibu Basin Hospital", "operator": "PNG Department of Health", "operator:type": "government"}}, {"type": "way", "id": 1124702115, "center": {"lat": -2.5370017, "lon": 140.7049138}, "nodes": [10285052953, 10285052954, 10747594114, 10285052955, 10285052956, 10285052798, 10285052797, 10747594115, 10285052796, 10285052795, 10285052821, 10285052820, 10285052819, 10285052818, 10285052817, 10285052816, 10285052815, 10285052814, 10285052813, 10747594113, 10285052953], "tags": {"amenity": "hospital", "healthcare": "hospital", "name": "RS Provita Jayapura"}}, {"type": "way", "id": 1124740089, "center": {"lat": -2.5349042, "lon": 140.7104136}, "nodes": [10285417889, 10285417890, 10285417891, 10285417892, 10285417893, 10285417894, 10285417895, 10285417896, 10285417897, 10285417898, 10285417899, 10285417900, 10285417901, 10285417902, 10747594116, 10285417903, 10285417904, 10285417905, 10285417906, 10747594117, 10285417907, 10285417908, 10285464409, 10747594206, 10285464410, 10285543168, 10285464411, 10285464412, 10285464413, 10285543180, 10285464414, 10285464415, 10285464416, 10285464417, 10285464418, 10285464419, 10285464420, 10285464421, 10285464422, 10285464423, 10285464424, 10285464425, 10285464426, 10285464427, 10285543183, 10285464428, 10285464429, 10285543184, 10285417889], "tags": {"amenity": "hospital", "healthcare": "hospital", "name": "RSUD Jayapura"}}, {"type": "way", "id": 1126619114, "center": {"lat": -6.121608, "lon": 145.1245368}, "nodes": [10301799403, 10301799404, 10301799405, 10301799406, 10301799407, 10301799408, 10301819809, 10301819810, 10301819811, 10301819812, 10301819813, 10301799403], "tags": {"amenity": "hospital", "healthcare": "hospital", "name": "Chuave Hospital"}}, {"type": "way", "id": 1174566440, "center": {"lat": -5.4639677, "lon": 143.7417031}, "nodes": [10914278377, 10914278378, 10914278379, 10914278380, 10914278381, 10914278382, 10914278383, 10914278384, 10914278385, 10914278386, 10914278387, 10914278377], "tags": {"amenity": "hospital", "healthcare": "hospital", "name": "Yampu Catholic Mission Health Centre", "operator": "Catholic Church", "operator:type": "religious"}}]}