{"version": 0.6, "generator": "Overpass API 0.7.61.5 4133829e", "osm3s": {"timestamp_osm_base": "2023-10-31T20:49:30Z", "copyright": "The data included in this document is from www.openstreetmap.org. The data is made available under ODbL."}, "elements": [{"type": "node", "id": 454742102, "lat": -13.1287556, "lon": -72.5937057, "tags": {"amenity": "hospital"}}, {"type": "node", "id": 1884943840, "lat": -14.0720459, "lon": -70.429477, "tags": {"addr:housenumber": "511", "addr:street": "Grau", "amenity": "hospital", "emergency": "yes", "fax": "+51 51 816155", "name": "Hospital San Martin de P. de Macusani", "phone": "+51 51 816155", "ref:category": "II-1", "ref:microred": "0", "ref:red": "5", "source": "www.minsa.gob.pe"}}, {"type": "node", "id": 1884944011, "lat": -11.4291731, "lon": -74.4926599, "tags": {"amenity": "hospital", "emergency": "yes", "name": "Hospital de San Martin Pangoa", "phone": "+51 64 543030", "source": "www.minsa.gob.pe"}}, {"type": "node", "id": 1884944014, "lat": -14.4484648, "lon": -72.084627, "tags": {"addr:street": "Avenida Per\u00fa", "amenity": "hospital", "emergency": "yes", "name": "Hospital de Santo Tomas", "operator": "Gobierno Regional", "phone": "+51 84 816998", "ref:category": "II-1", "ref:microred": "9", "ref:red": "1", "source": "www.minsa.gob.pe"}}, {"type": "node", "id": 1884944031, "lat": -12.508607, "lon": -73.862972, "tags": {"amenity": "hospital", "emergency": "yes", "name": "Hospital de Sivia", "operator": "Gobierno Regional", "ref:category": "II-1", "ref:microred": "0", "ref:red": "4", "source": "www.minsa.gob.pe"}}, {"type": "node", "id": 2681625205, "lat": -12.7593408, "lon": -76.6025966, "tags": {"amenity": "hospital", "emergency": "yes", "name": "Clinica San Paulo"}}, {"type": "node", "id": 2703608474, "lat": -12.0298427, "lon": -77.0896429, "tags": {"addr:city": "San Mart\u00edn de Porres", "addr:street": "Jir\u00f3n Jun\u00edn", "amenity": "hospital", "name": "Hospital de la Solidaridad", "toilets:wheelchair": "no", "website": "http://www.sisol.gob.pe", "wheelchair": "limited", "wheelchair:description": "- No tiene ascensor solo hay escaleras.\r\n- Algunas consultas son en el 2do piso como terapia f\u00edsica, ginecolog\u00eda y psicologia."}}, {"type": "node", "id": 2811105917, "lat": -13.1553773, "lon": -72.5248543, "tags": {"amenity": "hospital", "name": "Centro de Salud Aguas Calientes", "operator": "Minsa"}}, {"type": "node", "id": 2875156597, "lat": -11.1703867, "lon": -74.5548476, "tags": {"amenity": "hospital", "name": "Santo Dgo de Marankiari", "operator": "Gobierno Regional", "phone": "+51 64 545411", "ref:category": "I-2", "ref:microred": "1", "ref:red": "5"}}, {"type": "node", "id": 3086377746, "lat": -13.1633741, "lon": -74.2264328, "tags": {"amenity": "hospital", "name": "Dispensario Medico Paz y Bien"}}, {"type": "node", "id": 3126868450, "lat": -13.5408352, "lon": -73.7321056, "tags": {"amenity": "hospital"}}, {"type": "node", "id": 3358845693, "lat": -12.0686343, "lon": -77.1304192, "tags": {"addr:city": "La Perla", "addr:housenumber": "1160", "addr:street": "Jir\u00f3n Huascar Marcelo", "amenity": "hospital", "name": "Centro de Asistencia CAP III Metropolitano", "operator": "ESSALUD", "phone": "+51 265-6000", "source": "Reconocimiento cartogr\u00e1fico por KG 2016"}}, {"type": "node", "id": 3394586364, "lat": -12.6363759, "lon": -72.9253507, "tags": {"amenity": "hospital", "name": "CENTRO DE SALUD"}}, {"type": "node", "id": 3445953481, "lat": -11.7807656, "lon": -75.4998982, "tags": {"addr:housenumber": "108", "addr:street": "Jir\u00f3n 20 de Enero", "amenity": "hospital", "name": "Posta de Yauyos", "operator": "Gobierno Regional", "phone": "+51 64 369384", "ref:category": "I-3", "ref:microred": "1", "ref:red": "2"}}, {"type": "node", "id": 3958237825, "lat": -12.6215404, "lon": -72.4072218, "tags": {"amenity": "hospital", "name": "Centro de Salud"}}, {"type": "node", "id": 4024888158, "lat": -12.586091, "lon": -75.9503575, "tags": {"addr:street": "Jir\u00f3n Lima", "amenity": "hospital", "name": "Puesto de Salud \"Puente Auco\"", "operator": "Gobierno Regional", "phone": "+51 954751039", "ref:category": "I-2", "ref:microred": "4", "ref:red": "7"}}, {"type": "node", "id": 4097769654, "lat": -15.1340103, "lon": -72.7652625, "tags": {"amenity": "hospital", "name": "Centro de Salud"}}, {"type": "node", "id": 4137695790, "lat": -12.0605696, "lon": -77.0315679, "tags": {"amenity": "hospital", "emergency": "no", "name": "Consulta Externa III Hospital Grau"}}, {"type": "node", "id": 4315057500, "lat": -13.5367125, "lon": -72.6983841, "tags": {"addr:city": "Curahuasi", "addr:housenumber": "331", "addr:street": "Jir\u00f3n Abancay", "amenity": "hospital", "name": "Centro de Salud Curahuasi", "name:de": "Gesundheitsstation Curahuasi", "operator": "Curahuasi", "phone": "+51 83 323589", "ref:category": "I-2", "ref:microred": "0", "ref:red": "0"}}, {"type": "node", "id": 4324619170, "lat": -16.4052305, "lon": -71.5311682, "tags": {"addr:city": "Arequipa", "addr:street": "Ramon Castilla", "amenity": "hospital", "emergency": "no", "name": "Cruz Roja", "phone": "+51 54 204343", "website": "https://www.cruzrojaarequipa.org/"}}, {"type": "node", "id": 4350126707, "lat": -11.9215791, "lon": -75.3115796, "tags": {"amenity": "hospital", "name": "Mini Hospital MINSA"}}, {"type": "node", "id": 4382906090, "lat": -11.0633883, "lon": -75.3342009, "tags": {"amenity": "hospital", "name": "Hospital - MINSA: Julio C. de Marini --- Puerta 4"}}, {"type": "node", "id": 4460937432, "lat": -12.0635506, "lon": -75.2207822, "tags": {"addr:housenumber": "1400", "addr:street": "Parra del Riego", "amenity": "hospital", "name": "Hospital", "name:es": "Hospital Carri\u00f3n"}}, {"type": "node", "id": 4511364690, "lat": -11.4295424, "lon": -74.4926836, "tags": {"amenity": "hospital", "name": "San Mart\u00edn de Pangoa"}}, {"type": "node", "id": 4518445091, "lat": -10.9244092, "lon": -74.206347, "tags": {"amenity": "hospital", "name": "Puesto de salud de pauti", "name:es": "Puesto de salud de pauti", "operator": "Gobierno Regional", "phone": "+51 61 631392", "ref:category": "I-1", "ref:microred": "1", "ref:red": "3"}}, {"type": "node", "id": 4552742992, "lat": -12.071483, "lon": -77.0498354, "tags": {"addr:city": "Jes\u00fas Mar\u00eda", "addr:housenumber": "161", "addr:postcode": "15011", "addr:street": "Avenida Jose Maria Plaza", "amenity": "hospital", "name": "UBAB Jes\u00fas Mar\u00eda", "name:es": "UBAB Jes\u00fas Mar\u00eda", "operator": "Essalud"}}, {"type": "node", "id": 4564166490, "lat": -12.0699474, "lon": -75.1963913, "tags": {"addr:street": "Alamos", "amenity": "hospital", "name": "Posta M\u00e9dica de Ocopilla", "name:es": "Posta M\u00e9dica de Ocopilla", "opening_hours": "Mo-Sa 07:00-01:00", "operator": "Gobierno Regional", "ref:category": "I-3", "ref:microred": "7", "ref:red": "1"}}, {"type": "node", "id": 4602326789, "lat": -13.6907731, "lon": -73.1201913, "tags": {"addr:street": "Avenida Abancay", "amenity": "hospital", "name": "C.S Kishuara", "operator": "Gobierno Regional", "phone": "+51 987785758", "ref:category": "I-4", "ref:microred": "3", "ref:red": "3"}}, {"type": "node", "id": 4840488442, "lat": -12.224581, "lon": -75.8085443, "tags": {"addr:street": "Jir\u00f3n Bolivia", "amenity": "hospital", "name": "Centro de Salud Vitis", "name:es": "Centro de Salud Vitis", "operator": "Gobierno Regional", "phone": "+511 8406047", "ref:category": "I-2", "ref:microred": "5", "ref:red": "7"}}, {"type": "node", "id": 4957403323, "lat": -10.5664266, "lon": -77.7591198, "tags": {"addr:full": "Centro Poblado Tunan", "amenity": "hospital", "name": "Puesto de Salud Tunan", "name:es": "Puesto de Salud Tunan", "operator": "Gobierno Regional", "phone": "+511 2360738", "ref:category": "I-2", "ref:microred": "2", "ref:red": "1"}}, {"type": "node", "id": 5008524121, "lat": -12.0877232, "lon": -77.0546869, "tags": {"addr:city": "Jes\u00fas Mar\u00eda", "addr:housenumber": "783", "addr:street": "Avenida Gregorio Escobedo", "amenity": "hospital", "healthcare": "hospital", "name": "Policl\u00ednico Peruano Japon\u00e9s", "toilets:wheelchair": "yes", "website": "https://www.policlinicoperuanojapones.org", "wheelchair": "yes", "wheelchair:description": "El ascensor es grande."}}, {"type": "node", "id": 5029078424, "lat": -13.5259819, "lon": -71.9483643, "tags": {"amenity": "hospital", "name:en": "Chiropractic Center Canada - Cusco"}}, {"type": "node", "id": 5067595390, "lat": -12.0700953, "lon": -75.2088916, "tags": {"amenity": "hospital", "name": "Gobierno Regional Jun\u00edn"}}, {"type": "node", "id": 5082616122, "lat": -12.0609093, "lon": -77.0294569, "tags": {"addr:housenumber": "218", "addr:street": "Avenida Manco C\u00e1pac", "amenity": "hospital", "name": "Hospitalidad de la Solidaridad", "name:es": "Hospitalidad de la Solidaridad"}}, {"type": "node", "id": 5152647341, "lat": -10.1472925, "lon": -77.157174, "tags": {"addr:street": "Avenida Guillermo Bracale Ramos", "amenity": "hospital", "name": "Centro de Salud Chiqui\u00e1n", "operator": "Gobierno Regional", "phone": "+51 43 447085", "ref:category": "I-4", "ref:microred": "5", "ref:red": "1"}}, {"type": "node", "id": 5246564021, "lat": -10.0675696, "lon": -75.5514842, "tags": {"addr:housenumber": "200", "addr:street": "los Colonos", "amenity": "hospital", "name": "San Camilo", "operator": "Gobierno Regional", "phone": "+51 63 287514", "ref:category": "I-4", "ref:microred": "2", "ref:red": "3"}}, {"type": "node", "id": 5264489940, "lat": -16.3883235, "lon": -71.536917, "tags": {"amenity": "hospital", "healthcare": "hospital", "healthcare:speciality": "general", "name": "Intermedic", "operator": "Club Internacional Arequipa"}}, {"type": "node", "id": 5264489964, "lat": -16.3878847, "lon": -71.5374367, "tags": {"amenity": "hospital", "healthcare": "hospital", "healthcare:speciality": "physiotherapy", "name": "Fisioterapia", "operator": "Club Internacional Arequipa"}}, {"type": "node", "id": 5346785407, "lat": -10.4862055, "lon": -76.5427589, "tags": {"amenity": "hospital", "name": "Puesto de Salud Tambochaca", "operator": "Gobierno Regional", "phone": "+51 63 830350", "ref:category": "I-1", "ref:microred": "3", "ref:red": "2"}}, {"type": "node", "id": 5469181322, "lat": -13.1749677, "lon": -74.200236, "tags": {"amenity": "hospital", "name": "Hospital nuevo ESSALUD"}}, {"type": "node", "id": 5642160522, "lat": -13.0074028, "lon": -72.5554068, "tags": {"amenity": "hospital", "name": "Centro de salud de huyro", "name:en": "Huyro's hospital", "operator": "Gobierno Regional", "ref:category": "I-3", "ref:microred": "2", "ref:red": "3"}}, {"type": "node", "id": 5712222322, "lat": -10.1221563, "lon": -77.1583994, "tags": {"amenity": "hospital", "name": "Puesto de Salud"}}, {"type": "node", "id": 5810670854, "lat": -12.0644742, "lon": -75.2048052, "tags": {"amenity": "hospital", "name": "Microred de salud \"la libertad\""}}, {"type": "node", "id": 6025931686, "lat": -12.9860578, "lon": -74.7204713, "tags": {"amenity": "hospital", "name": "Red salud Angaraes - Lircay"}}, {"type": "node", "id": 6175104785, "lat": -12.2630706, "lon": -70.9076769, "tags": {"addr:street": "Manu. Fitzcarrald 251", "amenity": "hospital", "name": "Posta M\u00e9dica de Boca Manu", "name:en": "Medical Post", "operator": "Gobierno Regional", "phone": "+51 958804206", "ref:category": "I-2", "ref:microred": "10", "ref:red": "1"}}, {"type": "node", "id": 6312325887, "lat": -13.0339759, "lon": -72.057244, "tags": {"addr:street": "Camino de Herradura", "amenity": "hospital", "name": "Puesto de salud Ccach\u00edn", "operator": "Gobierno Regional", "phone": "+51 84 237953", "ref:category": "I-1", "ref:microred": "6", "ref:red": "2"}}, {"type": "node", "id": 6401590485, "lat": -13.0066105, "lon": -72.5551005, "tags": {"amenity": "hospital", "name": "Essalud"}}, {"type": "node", "id": 6495974687, "lat": -10.5373286, "lon": -76.1867781, "tags": {"addr:street": "Longitudinal de la Sierra Norte", "amenity": "hospital", "name": "Puesto de Salud Cajamarquilla"}}, {"type": "node", "id": 6505015087, "lat": -15.6351978, "lon": -71.5984551, "tags": {"amenity": "hospital", "name": "Hospital"}}, {"type": "node", "id": 6571247132, "lat": -11.9585671, "lon": -76.990319, "tags": {"addr:city": "San Juan de Lurigancho", "addr:full": "Avenida Rep\u00fablica de Polonia Asentamiento Humano Trabajadores", "addr:street": "Avenida Republica de Polonia", "amenity": "hospital", "healthcare": "hospital", "healthcare:speciality": "general", "name": "SISOL Salud Centro M\u00e9dico Trabajadores Hospital del Ni\u00f1o", "old_name": "Hospital de la Solidaridad Trabajadores Hospital del Ni\u00f1o", "opening_hours": "Mo-Sa 08:00-17:00", "operator": "Municipalidad Metropolitana de Lima", "operator:wikidata": "Q12184118", "phone": "+511 387 0490", "website": "http://www.sisol.gob.pe/"}}, {"type": "node", "id": 6852608801, "lat": -12.6242458, "lon": -73.7895601, "tags": {"addr:street": "Avenida Huanta", "amenity": "hospital", "name": "Hospital de Apoyo San Francisco", "operator": "Gobierno Regional", "phone": "+51 66 325083", "ref:category": "II-1", "ref:microred": "0", "ref:red": "4"}}, {"type": "node", "id": 6874584285, "lat": -10.0670006, "lon": -76.7304491, "tags": {"amenity": "hospital", "name": "Puesto de Salud"}}, {"type": "node", "id": 6992123705, "lat": -14.3141505, "lon": -71.693151, "tags": {"amenity": "hospital", "healthcare": "hospital", "name": "grounds"}}, {"type": "node", "id": 6992248216, "lat": -14.315266, "lon": -71.6861527, "tags": {"amenity": "hospital", "healthcare": "hospital"}}, {"type": "node", "id": 7039401664, "lat": -15.4975273, "lon": -70.1324541, "tags": {"addr:full": "Jir\u00f3n Loreto N\u00b0 315- Urbanizacion la Rinconada", "amenity": "hospital", "operator:type": "private", "phone": "+51 51 321369;+51 51 321001", "ref:category": "II-1", "ref:microred": "0", "ref:red": "0"}}, {"type": "node", "id": 7050443257, "lat": -16.4008361, "lon": -71.5124706, "tags": {"amenity": "hospital", "name": "Hospital Militar Divisionario III de Arequipa", "operator": "Sanidad del Ejercito del Peru", "phone": "+51 54 455327", "ref:category": "II-1"}}, {"type": "node", "id": 7080516538, "lat": -11.2493056, "lon": -74.6385852, "tags": {"addr:housenumber": "398", "addr:street": "Calle Daniel Alcides Carrion", "amenity": "hospital", "name": "De Apoyo Manuel Higa Arakaki", "operator": "Gobierno Regional", "phone": "+51 64 545020", "ref:category": "II-1", "ref:microred": "0", "ref:red": "5"}}, {"type": "node", "id": 7082513651, "lat": -12.0813239, "lon": -74.6338181, "tags": {"amenity": "hospital", "operator": "Gobierno Regional", "phone": "+51 998556747", "ref:category": "I-1", "ref:microred": "5", "ref:red": "3"}}, {"type": "node", "id": 7113031849, "lat": -12.6911426, "lon": -72.0976221, "tags": {"addr:full": "Valle de Lacco Comunidad Ccorimayo", "amenity": "hospital", "healthcare": "hospital", "name": "Centro de Salud Ccorimayo", "operator": "Gobierno Regional", "phone": "+51 84 237953", "ref:category": "I-1", "ref:microred": "8", "ref:red": "2"}}, {"type": "node", "id": 7114835139, "lat": -13.152325, "lon": -74.2235958, "tags": {"addr:city": "Ayacucho", "addr:housenumber": "257", "addr:postcode": "05003", "addr:street": "Avenida Independencia", "amenity": "hospital", "emergency": "yes", "healthcare": "hospital", "name": "Policlinico de la Solidaridad Ayacucho", "operator": "Policlinico de la Solidaridad Ayacucho"}}, {"type": "node", "id": 7150340585, "lat": -15.821803, "lon": -70.0192114, "tags": {"amenity": "hospital", "name": "Hospital Veterinario UNA", "name:en": "Vet Hospital UNA"}}, {"type": "node", "id": 7263809403, "lat": -13.385416, "lon": -71.9013182, "tags": {"amenity": "hospital", "healthcare": "hospital"}}, {"type": "node", "id": 7495637285, "lat": -12.9866434, "lon": -74.7205897, "tags": {"addr:street": "Jos\u00e9 Maria Arguedas", "amenity": "hospital", "name": "Red Salud Angaraes-Lircay"}}, {"type": "node", "id": 7523120708, "lat": -14.3945311, "lon": -71.1640665, "tags": {"amenity": "hospital", "healthcare": "hospital"}}, {"type": "node", "id": 7543517719, "lat": -16.4411898, "lon": -71.5293889, "tags": {"amenity": "hospital", "healthcare": "hospital"}}, {"type": "node", "id": 7657266220, "lat": -12.0318854, "lon": -77.0653723, "tags": {"addr:city": "San Mart\u00edn de Porres", "addr:housenumber": "1834", "addr:state": "Lima", "addr:street": "Avenida Per\u00fa", "amenity": "hospital", "emergency": "no", "healthcare": "centre", "healthcare:speciality": "radiology", "name": "JARA med", "operator": "Servicios medicos", "operator:type": "private"}}, {"type": "node", "id": 7883962377, "lat": -14.7210343, "lon": -70.5194659, "tags": {"amenity": "hospital", "healthcare": "hospital", "name": "Hospital Orurillo"}}, {"type": "node", "id": 9330407286, "lat": -13.2773429, "lon": -72.1833553, "tags": {"amenity": "hospital", "description": "Tambi\u00e9n brinda el servicio de teleconsulta y laboratory", "emergency": "no", "healthcare": "hospital", "healthcare:speciality": "general;paediatrics;paediatric_surgery;oncology", "name": "Vidawasi", "opening_hours": "Mo-Fr 08:00-13:00, 14:00-17:30; Sa 08:00-13:30"}}, {"type": "node", "id": 9395630185, "lat": -13.5201003, "lon": -71.9780072, "tags": {"amenity": "hospital"}}, {"type": "way", "id": 39413837, "center": {"lat": -12.0783562, "lon": -77.0399044}, "nodes": [472211479, 8033040767, 9341679028, 9341679024, 9341667350, 9341679025, 472211480, 3992361352, 4884102509, 3992361351, 4884102508, 4884102507, 4884102506, 472211481, 4884102511, 11172864143, 11172864144, 11172864142, 11172864145, 11172864146, 4423787877, 8856015365, 8856015363, 8856015362, 8856015364, 8856015366, 8856015357, 8856015358, 8856015361, 8856015367, 8856015359, 8856015360, 472211482, 3992397003, 472211479], "tags": {"addr:city": "Jes\u00fas Mar\u00eda", "addr:housenumber": "490", "addr:postcode": "15072", "addr:state": "Lima", "addr:street": "Avenida Edgardo Rebagliati", "amenity": "hospital", "emergency": "yes", "healthcare": "hospital", "healthcare:speciality": "general", "name": "Hospital Nacional Edgardo Rebagliati Martins", "old_name": "Hospital del Empleado", "operator": "EsSalud", "operator:type": "public", "phone": "+511 2651526", "short_name": "Hospital Rebagliati", "url": "http://cuerpomedicorebagliati.org/", "website": "https://www.gob.pe/hospital-nacional-edgardo-rebagliati-martins", "wikidata": "Q21849799", "wikimedia_commons": "Category:Hospital Edgardo Rebagliati Martins", "wikipedia": "es:Hospital Edgardo Rebagliati Martins"}}, {"type": "way", "id": 39557243, "center": {"lat": -12.0972266, "lon": -77.0655498}, "nodes": [474049911, 2886395817, 5610700576, 1425922088, 5610700574, 474049912, 5614150420, 474049913, 474049914, 5614150226, 474049915, 5614150238, 474049916, 474049917, 1425922107, 1425921972, 474049918, 474049919, 474049920, 474049921, 474049922, 474049923, 474049924, 474049925, 474049926, 474049927, 474049928, 474049929, 474049930, 474049931, 5614327861, 5614327860, 474049932, 5614327863, 5614327862, 5517350335, 10782506930, 5614327864, 5614327865, 5757544125, 5614327866, 5614327867, 7250828367, 5582638713, 5614146649, 5614146648, 5614146647, 5614146646, 5614146650, 5757290020, 5757290221, 5757290019, 5517339207, 5614146651, 5614146644, 5614146645, 5614146652, 5757702624, 5610711230, 5610711231, 474049933, 474049911], "tags": {"addr:city": "Magdalena del Mar", "addr:housenumber": "600", "addr:street": "Avenida del Ej\u00e9rcito", "amenity": "hospital", "barrier": "wall", "emergency": "yes", "healthcare": "hospital", "height": "2.5", "name": "Hospital V\u00edctor Larco Herrera", "name:en": "V\u00edctor Larco Herrera Hospital", "name:es": "Hospital V\u00edctor Larco Herrera", "old_name": "Asilo Colonia de la Magdalena", "operator": "Ministerio de Salud", "website": "https://www.larcoherrera.gob.pe/", "wikidata": "Q17333591", "wikipedia": "es:Hospital V\u00edctor Larco Herrera"}}, {"type": "way", "id": 40301323, "center": {"lat": -12.0595788, "lon": -77.022335}, "nodes": [416652517, 1620443306, 1873961625, 1873961624, 4139030391, 8761430683, 8761430661, 4139030405, 11186302098, 11186302095, 11177822904, 11177822891, 11177822896, 4139030404, 8761430659, 416652517], "tags": {"addr:city": "La Victoria", "addr:housenumber": "800", "addr:street": "Avenida Almirante Miguel Grau", "alt_name": "Almenara", "amenity": "hospital", "emergency": "yes", "name": "Hospital Nacional Guillermo Almenara Irigoyen", "phone": "+51 1 3242983;+51 1 3242980", "url": "http://www.cuerpomedicoalmenara.com", "wikidata": "Q21811401", "wikimedia_commons": "Category:Hospital Guillermo Almenara Irigoyen", "wikipedia": "es:Hospital Guillermo Almenara Irigoyen"}}, {"type": "way", "id": 73954281, "center": {"lat": -12.0723555, "lon": -77.0610282}, "nodes": [874949834, 874949837, 874949840, 874949842, 874949846, 874949849, 11139094433, 874949834], "tags": {"addr:city": "Pueblo Libre", "addr:housenumber": "800", "addr:street": "Avenida Simon Bolivar", "amenity": "hospital", "emergency": "yes", "name": "Hospital Santa Rosa", "phone": "+511 6158200", "ref:category": "III-1", "source": "Reconocimiento cartogr\u00e1fico por KG 2016", "website": "http://www.hsr.gob.pe/", "wheelchair": "limited", "wheelchair:description": "No se si tiene ba\u00f1o para silla de ruedas"}}, {"type": "way", "id": 75223325, "center": {"lat": -12.0584645, "lon": -77.0386672}, "nodes": [888212514, 888212337, 888212405, 888212471, 888212514], "tags": {"addr:city": "Cercado de Lima", "addr:housenumber": "1420", "addr:street": "Avenida Garcilazo de la Vega", "amenity": "hospital", "name": "Clinica Internacional", "phone": "+51 1 619 6161", "website": "https://www.clinicainternacional.com.pe/sede/lima/"}}, {"type": "way", "id": 85617623, "center": {"lat": -13.5275793, "lon": -71.9800696}, "nodes": [993167916, 8852197718, 8852197717, 8852192416, 8852219685, 8852192415, 8852192414, 8852192402, 8852192401, 8852192413, 8852192412, 8852192411, 8852192410, 8852192409, 8852192408, 993167645, 8852192407, 993167527, 11136617674, 8852192404, 8852192400, 8852192406, 8852192405, 993167769, 8852192403, 993167588, 6089156058, 993167658, 993167720, 993167849, 993167494, 993167873, 993167835, 8852197722, 8852197721, 11136617684, 11136617690, 11136617687, 11136617679, 8852197720, 8852197719, 993167916], "tags": {"amenity": "hospital", "emergency": "yes", "name": "Hospital Antonio Lorena", "wikidata": "Q81668984"}}, {"type": "way", "id": 110061951, "center": {"lat": -11.9141196, "lon": -77.0376892}, "nodes": [1258298763, 1258298731, 1258299304, 1258298870, 1258299443, 1258299009, 1258298623, 1258299158, 1258299527, 1258299082, 1258298699, 1258299249, 1258298838, 1258299410, 1258298976, 1258298589, 1258298912, 1258299483, 1258299051, 1258298665, 1258299199, 1258298804, 1258299376, 1258298945, 1258299311, 1258298878, 1258299451, 1258299019, 1258298631, 1258299166, 1258298773, 1258299342, 1258298617, 1258299147, 1258298757, 1258299328, 1258298897, 1258299468, 1258299037, 1258298652, 1258298970, 1258298583, 1258299110, 1258298726, 1258299288, 1258298864, 1258299435, 1258299003, 1258299369, 1258298937, 1258298659, 5714595651, 5714595650, 8882554074, 5714595358, 1258299477, 5714595353, 4345295491, 5714595352, 5714595349, 1258298903, 1258299336, 1258298763], "tags": {"addr:city": "Comas", "addr:housenumber": "8000", "addr:street": "Avenida Tupac Amaru", "amenity": "hospital", "emergency": "yes", "name": "Hospital Nacional Sergio E. Bernales", "phone": "+51 54 5580186", "source": "Reconocimiento cartogr\u00e1fico por KG 2016.", "website": "http://www.hnseb.gob.pe/"}}, {"type": "way", "id": 111800007, "center": {"lat": -11.9431649, "lon": -77.0572333}, "nodes": [1272935629, 1272935158, 1272935491, 1272936039, 1272936222, 1272936815, 1272935866, 1272936452, 1272936642, 1272935629], "tags": {"addr:city": "Comas", "addr:housenumber": "541", "addr:state": "Lima", "addr:street": "Avenida Guillermo de la Fuente", "alt_name": "Mariano Molina", "amenity": "hospital", "emergency": "yes", "healthcare": "hospital", "name": "Hospital Marino Molina Scippa", "operator": "EsSalud", "operator:type": "public", "phone": "+51 1 5374552"}}, {"type": "way", "id": 116948941, "center": {"lat": -11.9685031, "lon": -76.9956352}, "nodes": [1317288915, 1317288941, 1317289055, 1317288781, 9573996771, 8032747857, 11265688497, 8032747859, 11265688495, 8032747858, 11265688496, 11265688498, 11265688494, 11265688493, 1317288915], "tags": {"addr:city": "San Juan de Lurigancho", "addr:full": "Calle Majes G-11 - Urbanizaci\u00f3n los Pinos", "addr:neighbourhood": "Asociaci\u00f3n Pro Vivienda Los Pinos", "addr:postcode": "15423", "addr:state": "Lima", "addr:street": "Rio Pampa Marca", "alt_name": "Aurelio D\u00edaz Ufano", "amenity": "hospital", "healthcare": "hospital", "name": "Hospital EsSalud Diaz Ufano", "operator": "Essalud", "operator:type": "public", "phone": "+51 1 4594857", "ref:category": "II-1", "ref:microred": "0", "ref:red": "0"}}, {"type": "way", "id": 117005900, "center": {"lat": -12.0618216, "lon": -76.9455002}, "nodes": [1317851435, 1317851433, 3626106260, 1317851434, 1317851435], "tags": {"addr:city": "La Molina", "addr:housenumber": "1201", "addr:neighbourhood": "Urbanizaci\u00f3n Covima", "addr:postcode": "15012", "addr:state": "Lima", "addr:street": "Avenida de los Constructores", "amenity": "hospital", "emergency": "yes", "healthcare": "hospital", "healthcare:speciality": "general;paediatrics;surgery;emergency;gynaecology;radiology;cardiology;maternity;physiatry", "name": "Hospital Carlos Alc\u00e1ntara Butterfield", "operator": "EsSalud", "operator:official_name": "Seguridad Social del Per\u00fa", "operator:type": "private", "phone": "+51 1 3492288", "ref:category": "II-1", "ref:microred": "0", "ref:red": "0", "website": "http://www.essalud.gob.pe/nuestras-redes-asistenciales/la-molina/"}}, {"type": "way", "id": 118291969, "center": {"lat": -11.9791498, "lon": -77.0529498}, "nodes": [1330621785, 1330621878, 1330621682, 1330622063, 1330621785], "tags": {"addr:city": "Independencia", "addr:full": "Avenida Chinchaysuyo Chinchaysuyo Cuadra 4 - Urb. Tahuantinsuyo Lima - Lima - Independencia", "addr:neighbourhood": "Urbanizaci\u00f3n Tahuantinsuyo", "addr:street": "Avenida Chinchaysuyo", "amenity": "hospital", "emergency": "yes", "healthcare": "hospital", "healthcare:speciality": "maternity", "name": "Centro Materno Infantil Tahuantinsuyo Bajo", "opening_hours": "24/7", "operator": "Miniterio de Salud", "operator:type": "government", "phone": "+511 5268027", "ref:category": "I-4", "ref:microred": "1", "ref:red": "24"}}, {"type": "way", "id": 122541909, "center": {"lat": -12.0434855, "lon": -77.0119093}, "nodes": [1369042752, 1369042685, 1369042633, 1369042582, 1369042566, 1369042546, 1369042484, 1369042473, 1369042459, 7541969050, 1369042644, 1369042689, 7600951479, 1369042708, 1369042752], "tags": {"addr:city": "El Agustino", "addr:housenumber": "1100", "addr:postcode": "15003", "addr:state": "Lima", "addr:street": "Jir\u00f3n \u00c1ncash", "amenity": "hospital", "healthcare": "hospital", "name": "Hospicio San Vicente"}}, {"type": "way", "id": 122554771, "center": {"lat": -12.0558692, "lon": -77.0154282}, "nodes": [1369163294, 4408923055, 4151842323, 4408923061, 8784335131, 1369163298, 1369163297, 3038365350, 1369163287, 1369163285, 4408923002, 1369163286, 8784335135, 1369163294], "tags": {"addr:city": "Barrios Altos", "addr:street": "Avenida Almirante Miguel Grau", "amenity": "hospital", "emergency": "yes", "height": "12", "name": "Hospital Nacional Dos de Mayo", "wikidata": "Q24639285", "wikimedia_commons": "Category:Hospital Nacional Dos de Mayo", "wikipedia": "es:Hospital Nacional Dos de Mayo"}}, {"type": "way", "id": 126861263, "center": {"lat": -12.2115835, "lon": -76.9318382}, "nodes": [4370504470, 1405202169, 4370504463, 8630620021, 4370504468, 4370504466, 4370504470], "tags": {"addr:city": "Villa El Salvador", "addr:full": "Avenida C\u00e9sar Vallejo / Avenida Separadora Industrial", "addr:postcode": "15834", "addr:state": "Lima", "addr:street": "Avenida C\u00e9sar Vallejo", "amenity": "hospital", "contact:phone": "+511 287 5266;+511 287 5670", "contact:website": "http://www.essalud.gob.pe", "emergency": "yes", "healthcare": "hospital", "healthcare:speciality": "internal", "name": "Hospital Uldarico Roca Fern\u00e1ndez", "name:en": "Uldarico Roca Fern\u00e1ndez Hospital", "name:fr": "H\u00f4pital Uldarico Roca Fern\u00e1ndez", "name:it": "Ospedale Uldarico Roca Fern\u00e1ndez", "name:pt": "Hospital Uldarico Roca Fern\u00e1ndez", "operator": "EsSalud", "operator:type": "public"}}, {"type": "way", "id": 128301080, "center": {"lat": -13.1511598, "lon": -74.2243161}, "nodes": [1418217905, 3061624545, 1418217882, 3061624543, 1418217887, 3061624544, 1418217967, 3091372332, 3092683207, 1418218115, 1418218063, 1418218061, 1418218065, 1418218098, 1418218103, 1418217961, 1418217905], "tags": {"alt_name": "Hospital Regional de Ayacucho", "amenity": "hospital", "name": "Hospital Regional de Ayacucho Miguel \u00c1ngel Mariscal Llerena", "operator": "Gobierno Regional", "phone": "+51 66 312380", "ref:category": "II-2", "ref:microred": "0", "ref:red": "0"}}, {"type": "way", "id": 131940602, "center": {"lat": -12.05577, "lon": -77.0822241}, "nodes": [1451454211, 1451454236, 1451454247, 1451454218, 1451454221, 1451454226, 1451454229, 4821544707, 4821544706, 1451454232, 1451454233, 4821544705, 1451454230, 4821544704, 1451454220, 9766080770, 1451454211], "tags": {"amenity": "hospital", "building": "yes", "name": "Cl\u00ednica Universitaria", "toilets:wheelchair": "no", "wheelchair": "yes", "wheelchair:description": "No tiene ba\u00f1o para discapacitados para mujeres. El ba\u00f1o esta en el ba\u00f1o de hombres y encima no cierra la puerta si estas dentro."}}, {"type": "way", "id": 133436884, "center": {"lat": -12.042609, "lon": -77.098662}, "nodes": [1468861420, 1909185216, 1468861417, 1468861391, 1468861319, 1468861323, 1909501431, 1468861420], "tags": {"addr:housenumber": "475", "addr:street": "Jir\u00f3n Las Magnolias", "amenity": "hospital", "barrier": "wall", "name": "Hospital San Jos\u00e9 del Callao", "operator": "Gobierno Regional", "phone": "+51 01 3197830", "ref:category": "II-2", "ref:microred": "0", "ref:red": "2"}}, {"type": "way", "id": 147421557, "center": {"lat": -13.6576503, "lon": -73.3811851}, "nodes": [1606483972, 1606478047, 1606478004, 1606483949, 1606483946, 1606483948, 1606483947, 1606483945, 1606483951, 1606483950, 1606483952, 1606483953, 1606483968, 1606483972], "tags": {"addr:housenumber": "180", "addr:street": "Hugo Pesce", "alt_name": "Hospital Docente Hugo Pesce", "amenity": "hospital", "emergency": "yes", "fax": "+51 83 722339", "name": "Hospital General de Andahuaylas", "operator": "MINSA", "pe:minsa:categoria": "II-2", "pe:minsa:codigo": "4131", "phone": "+51 83 721020", "source": "www.minsa.gob.pe"}}, {"type": "way", "id": 151303103, "center": {"lat": -12.0856358, "lon": -76.9921762}, "nodes": [1641248415, 1641248430, 1641248354, 1641248423, 1641248415], "tags": {"addr:city": "San Borja", "addr:housenumber": "1399", "addr:street": "Avenida Agust\u00edn de la Rosa Toro", "amenity": "hospital", "emergency": "yes", "healthcare": "hospital", "healthcare:speciality": "paediatrics", "name": "Instituto Nacional de Salud del Ni\u00f1o", "operator": "Instituto Nacional de Salud del Ni\u00f1o", "phone": "+5112300600", "ref:category": "III-2", "ref:microred": "0", "ref:red": "0", "website": "http://www.insnsb.gob.pe/", "wikidata": "Q17634865", "wikipedia": "es:Instituto Nacional de Salud del Ni\u00f1o"}}, {"type": "way", "id": 160691934, "center": {"lat": -12.1610982, "lon": -76.9582593}, "nodes": [4354429021, 4354429022, 4354429023, 4354429024, 4354429025, 4354429026, 4354429027, 4354429028, 4354429029, 4354429030, 4354429031, 4433073584, 4969466506, 4354429032, 4354429033, 4354429034, 4354429035, 4354429036, 4354429037, 4969466507, 4354429038, 9175500476, 4969466508, 11218904294, 4969466509, 11218904296, 4354429021], "tags": {"addr:city": "San Juan de Miraflores", "addr:housenumber": "968", "addr:street": "Avenida Miguel Iglesias", "amenity": "hospital", "email": "hma@hma.gob.pe", "emergency": "yes", "healthcare:speciality": "general", "name": "Hospital Mar\u00eda Auxiliadora", "operator": "MINSA", "phone": "+51 012171818", "website": "http://www.hma.gob.pe/"}}, {"type": "way", "id": 169309866, "center": {"lat": -12.0084055, "lon": -77.0036434}, "nodes": [1804775461, 9818701981, 8711384261, 822559338, 822559339, 822559340, 822559341, 8711346931, 8711346932, 1804775469, 6570507408, 6570507411, 8711384260, 6570507410, 6570507409, 6570500174, 1804775461], "tags": {"addr:city": "San Juan de Lurigancho", "addr:full": "Av. Pr\u00f3ceres de la IndependenciaCdra. 16", "addr:postcode": "15431", "addr:state": "Lima", "addr:street": "Avenida Pr\u00f3ceres de la Independencia", "amenity": "hospital", "emergency": "yes", "healthcare": "hospital", "healthcare:speciality": "general", "name": "SISOL Salud San Juan de Lurigancho", "old_name": "Hospital de la Solidaridad San Juan de Lurigancho", "opening_hours": "Mo-Sa 07:00-19:00", "operator": "Municipalidad Metropolitana de Lima", "operator:wikidata": "Q12184118", "phone": "+51 1 2531186", "website": "http://www.sisol.gob.pe/", "wheelchair": "yes"}}, {"type": "way", "id": 172600382, "center": {"lat": -12.0498565, "lon": -77.04462}, "nodes": [1834904135, 10028410511, 8834871572, 1834904226, 4780234968, 4124942001, 4780234967, 4780234965, 10009458558, 4780234966, 4124942003, 4780234964, 4124942004, 8834871571, 4124941997, 4780234969, 4780234970, 4124942005, 4780234971, 4124941833, 4124941834, 4124941835, 9429556786, 9429556787, 1834904135], "tags": {"addr:city": "Lima", "addr:housenumber": "848", "addr:street": "Avenida Alfonso Ugarte", "amenity": "hospital", "emergency": "yes", "healthcare": "hospital", "name": "Hospital Nacional Arzobispo Loayza", "operator": "Ministerio de Salud del Per\u00fa", "source": "Reconocimiento cartogr\u00e1fico por KG 2016.", "toilets:wheelchair": "no", "website": "http://www.hospitalloayza.gob.pe/", "wheelchair": "yes", "wikidata": "Q5902543", "wikimedia_commons": "Category:Hospital Nacional Arzobispo Loayza, Lima", "wikipedia": "es:Hospital Arzobispo Loayza"}}, {"type": "way", "id": 175012617, "center": {"lat": -12.0862779, "lon": -77.0612312}, "nodes": [1856676219, 5433888529, 1856676217, 1856676218, 1856676221, 11120320157, 1856676219], "tags": {"addr:city": "Jes\u00fas Mar\u00eda", "addr:housenumber": "2700", "addr:postcode": "15076", "addr:state": "Lima", "addr:street": "Avenida Faustino Sanchez Carrion", "alt_name": "Hospital Militar", "amenity": "hospital", "healthcare": "hospital", "name": "Hospital Central Militar Coronel Luis Arias Schreiber", "start_date": "1958", "toilets:wheelchair": "yes", "wheelchair": "yes"}}, {"type": "way", "id": 178024165, "center": {"lat": -11.8624589, "lon": -77.0793473}, "nodes": [1884150787, 1884150788, 1884150786, 1884150785, 1884150787], "tags": {"addr:street": "Avenida Saenz Pe\u00f1a", "amenity": "hospital", "emergency": "yes", "name": "Hospital Carlos Ianfranco La Hoz de Puente Piedra", "name:es": "Hospital de Puente Piedra", "operator": "Minsa", "phone": "+511 5481799; +511 5481898", "ref:category": "II-2"}}, {"type": "way", "id": 179275482, "center": {"lat": -12.7876232, "lon": -74.9816198}, "nodes": [1896203448, 1896203487, 1896203578, 1896203821, 11227925871, 11227925870, 1896203771, 1896203744, 1896203448], "tags": {"addr:street": "Avenida Andres Avelino Caceres", "amenity": "hospital", "emergency": "yes", "fax": "+5167453198", "healthcare": "hospital", "name": "Hospital Departamental de Huancavelica", "phone": "+51 67 452990", "source": "www.minsa.gob.pe", "website": "http://www.hdhvca.com.pe/"}}, {"type": "way", "id": 180051244, "center": {"lat": -11.7763355, "lon": -75.4948767}, "nodes": [1904825062, 1904825070, 3244717580, 1904825069, 1904825065, 1904825064, 1904825067, 1904825066, 1904825068, 1904825063, 5764438475, 1904825047, 1904825052, 1904825051, 1904825050, 1904825058, 1904825061, 1904825062], "tags": {"addr:city": "Jauja", "addr:housenumber": "1153", "addr:street": "San Martin", "amenity": "hospital", "emergency": "yes", "fax": "+51 64 362007", "name": "Hospital de apoyo Domingo Olavegoya", "phone": "+51 64 362007", "source": "www.minsa.gob.pe"}}, {"type": "way", "id": 185197319, "center": {"lat": -12.1441317, "lon": -77.0058183}, "nodes": [1957555492, 1957555481, 1957555487, 3638072247, 1957555482, 1957555469, 1957555478, 1957555477, 1957555485, 1957555467, 1957555486, 1957555492], "tags": {"addr:city": "Santiago de Surco", "addr:housenumber": "309", "addr:street": "Jir\u00f3n Almirante Miguel Grau", "amenity": "hospital", "emergency": "yes", "healthcare": "hospital", "name": "Hospital Municipal de Surco", "name:es": "Surco Salud", "operator": "Ministerio de Salud", "operator:short": "MINSA", "operator:wikidata": "Q3065012", "website": "http://www.munisurco.gob.pe/surco_portal/municipio/app/julio_192_horarios_salud_surco_pueblo.html"}}, {"type": "way", "id": 187076624, "center": {"lat": -11.9662322, "lon": -77.003619}, "nodes": [1317288948, 1317288979, 4356465653, 1317288821, 9948737162, 9948737160, 9948737159, 9948737157, 9948737158, 9948737161, 9948737153, 9948737152, 9948737154, 9948737155, 8033158714, 1978322037, 1317288948], "tags": {"amenity": "hospital", "emergency": "yes", "healthcare": "hospital", "name": "Hospital de San Juan de Lurigancho", "operator": "MINSA", "pe:minsa:categoria": "II-2", "pe:renaes:codigo": "5617", "phone": "+51 1 3872300", "source": "Reconocimiento cartogr\u00e1fico por KG 2016.", "start_date": "1976-02-20"}}, {"type": "way", "id": 189732051, "center": {"lat": -14.904105, "lon": -70.1998024}, "nodes": [2003207485, 2003207457, 2003207523, 2003207539, 2003207485], "tags": {"addr:housenumber": "557", "addr:street": "Francisco Bolognesi", "amenity": "hospital", "emergency": "yes", "fax": "+51 51 562013", "name": "Hospital Carlos Cornejo R. de Azangaro", "phone": "+51 51 562013", "source": "www.minsa.gob.pe"}}, {"type": "way", "id": 190730815, "center": {"lat": -14.8269329, "lon": -74.9402643}, "nodes": [2013662646, 2013662639, 2013662675, 2013662678, 2013662646], "tags": {"addr:street": "Calle Callao", "amenity": "hospital", "building": "yes", "emergency": "yes", "fax": "+51 56 522010", "name": "Hospital de Apoyo Nazca", "operator": "Gobierno Regional", "pe:minsa:categoria": "II-1", "pe:minsa:codigo": "3443", "phone": "+51 56 522010", "ref:category": "II-1", "ref:microred": "8", "ref:red": "1", "source": "www.minsa.gob.pe"}}, {"type": "way", "id": 191259096, "center": {"lat": -13.0763026, "lon": -76.3854562}, "nodes": [3669405519, 3669405518, 2018452735, 2018452732, 2018452738, 2018452740, 3669405519], "tags": {"addr:housenumber": "120; 124", "addr:street": "San Martin", "amenity": "hospital", "emergency": "yes", "fax": "+51 1 5812115", "name": "Hospital Rezola", "operator": "Gobierno Regional", "phone": "+51 1 5811362", "ref:category": "II-2", "ref:microred": "0", "ref:red": "7", "source": "www.minsa.gob.pe"}}, {"type": "way", "id": 194898813, "center": {"lat": -12.0649978, "lon": -77.0464372}, "nodes": [2054081567, 2054081568, 11177572535, 11177526016, 11177526014, 2054081579, 11144605177, 2054081569, 11144880810, 11144555770, 2054081567], "tags": {"addr:city": "Bre\u00f1a", "addr:housenumber": "600", "addr:postcode": "15083", "addr:street": "Avenida Brasil", "amenity": "hospital", "emergency": "yes", "healthcare:speciality": "paediatrics", "name": "Instituto Nacional de Salud del Ni\u00f1o", "official_name": "Instituto Nacional de Salud del Ni\u00f1o", "website": "http://www.insn.gob.pe/"}}, {"type": "way", "id": 195079449, "center": {"lat": -12.0708003, "lon": -77.0597313}, "nodes": [2055741495, 2055741492, 2055741493, 2055741496, 2055741516, 2055741557, 2055741574, 2055741598, 2055741602, 2055741595, 4808012809, 4808012811, 4808012810, 2055741593, 5664634275, 2055741585, 2055741580, 8412831987, 1273634248, 2055553984, 2055741495], "tags": {"addr:city": "Pueblo Libre", "addr:street": "Avenida Paso de los Andes", "amenity": "hospital", "emergency": "yes", "name": "Cl\u00ednica Stella Maris", "wheelchair": "limited", "wheelchair:description": "No se si tiene ba\u00f1o para silla de ruedas"}}, {"type": "way", "id": 195568056, "center": {"lat": -12.0730561, "lon": -77.059471}, "nodes": [2059886075, 2059886076, 2059886077, 2059886079, 2059886078, 2059886075], "tags": {"addr:city": "Pueblo Libre", "addr:housenumber": "675", "addr:postcode": "15021", "addr:street": "Avenida Paso de los Andes", "amenity": "hospital", "email": "informes@clinicapj.org.pe", "emergency": "yes", "name": "Clinica Centenario Peruano Japonesa", "phone": "+51 1 2088000", "website": "https://www.clinicapj.org.pe/", "wheelchair": "yes"}}, {"type": "way", "id": 196682931, "center": {"lat": -18.4829829, "lon": -70.3129158}, "nodes": [2069819079, 5846544119, 2069819094, 7760072744, 3500246078, 2069819107, 2069819072, 2069819092, 3601807216, 3601807213, 2069819115, 2069819079], "tags": {"addr:city": "Arica", "addr:country": "CL", "addr:housenumber": "1000", "addr:street": "18 de Septiembre", "amenity": "hospital", "healthcare": "hospital", "name": "Hospital Regional de Arica Doctor Juan No\u00e9 Crevani", "old_name:1559-1610": "Hospital San Antonio de Padua", "old_name:1610-1952": "Hospital San Juan de Dios", "opening_hours": "24/7", "start_date": "1559"}}, {"type": "way", "id": 198248355, "center": {"lat": -16.3952832, "lon": -71.5296536}, "nodes": [2084087426, 2084087423, 8835460479, 8835460478, 2084087427, 2084087425, 2084087428, 2084087424, 2084087429, 8835460476, 8835460475, 2084087430, 2084087432, 2084087435, 8133435740, 6734047823, 6734047822, 8133435743, 8835460477, 8133435741, 5468201556, 8835460473, 8835460474, 2084087433, 2084087431, 4058288136, 4058288135, 2084087426], "tags": {"addr:city": "Arequipa", "addr:housenumber": "300", "addr:street": "Peral", "amenity": "hospital", "emergency": "yes", "name": "CASE", "name:es": "Hospital Carlos Alberto Segu\u00edn Escobedo", "old_name": "Hospital Nacional del Sur", "operator": "Essalud", "phone": "+51 54 214050", "start_date": "1991", "website": "https://healthresearchweb.org/es/peru/ethics_1277"}}, {"type": "way", "id": 198652110, "center": {"lat": -16.4149129, "lon": -71.5315582}, "nodes": [2087581830, 2087581831, 2087581834, 2087581835, 5200623558, 5200623559, 2087581836, 3347192594, 3347192593, 2087581833, 2087581832, 3347196167, 3347196164, 2087581830], "tags": {"addr:city": "Arequipa", "addr:housenumber": "505", "addr:street": "Avenida Alcides Carri\u00f3n", "alt_name": "Hospital Regional de Arequipa", "amenity": "hospital", "emergency": "yes", "healthcare": "hospital", "name": "Hospital Regional Honorio Delgado Espinoza", "operator": "Gobierno Regional", "operator:type": "public", "operator:wikidata": "Q3824815", "phone": "+51 54 231818;+51 54 233812", "ref:category": "III-1", "ref:microred": "0", "ref:red": "0", "wheelchair": "yes"}}, {"type": "way", "id": 223370761, "center": {"lat": -11.1149335, "lon": -77.6071418}, "nodes": [2322728557, 2322728558, 2322728559, 11221460293, 11221460289, 11221460290, 11221460291, 10906818850, 11221449602, 11221460292, 11221460294, 11221460253, 2322728560, 2322728561, 2322728562, 2322728563, 2322728564, 11221460295, 11221460296, 2322728565, 2322728557], "tags": {"addr:housenumber": "221-251-271", "addr:street": "Avenida Jose Arambulo la Rosa", "amenity": "hospital", "emergency": "yes", "name": "Hospital General de Huacho", "operator": "Gobierno Regional", "phone": "+511 2322351, +511 2395142", "ref:category": "II-2", "ref:microred": "0", "ref:red": "2"}}, {"type": "way", "id": 223936510, "center": {"lat": -11.1116778, "lon": -77.6098367}, "nodes": [2327791223, 2327791224, 5086977011, 5086977012, 2327791225, 2327791226, 2327791228, 5086977013, 2327791223], "tags": {"addr:street": "Avenida Echenique", "amenity": "hospital", "building": "yes", "name": "Cl\u00ednica San Pedro", "source": "Kaart Ground Survey 2017"}}, {"type": "way", "id": 224196816, "center": {"lat": -11.1137687, "lon": -77.6088655}, "nodes": [2330205001, 2330205002, 2330205003, 2330205004, 2330205005, 2330205001], "tags": {"addr:housenumber": "707", "addr:street": "Avenida Francisco Vidal", "amenity": "hospital", "name": "Hospital II Gustavo Lanatta Luj\u00e1n", "operator": "Essalud", "phone": "+511 2321771, +511 2324700", "ref:category": "II-2", "ref:microred": "0", "ref:red": "0", "source": "Kaart Ground Survey 2017"}}, {"type": "way", "id": 231085589, "center": {"lat": -17.6531016, "lon": -71.3375145}, "nodes": [2394955323, 6277570700, 2394955418, 2394955432, 2394955395, 2394955323], "tags": {"addr:city": "Ilo", "addr:street": "Avenida La Cultura", "amenity": "hospital", "emergency": "yes", "healthcare": "hospital", "name": "Hospital de Ilo", "phone": "+51 53 482660", "ref:category": "II-1", "ref:microred": "1", "ref:red": "2", "source": "www.minsa.gob.pe"}}, {"type": "way", "id": 233699482, "center": {"lat": -10.7539449, "lon": -77.7639146}, "nodes": [2420452600, 2420452601, 2420452602, 2420452603, 2420452600], "tags": {"addr:housenumber": "210; 224", "addr:street": "Avenida Nicolas de Pierola", "amenity": "hospital", "building": "yes", "emergency": "yes", "fax": "+51 1 2352156", "name": "Hospital de Barranca", "operator": "Gobierno Regional", "phone": "+51 1 2352156", "ref:category": "II-2", "ref:microred": "10", "ref:red": "1", "source": "www.minsa.gob.pe"}}, {"type": "way", "id": 250175671, "center": {"lat": -13.1749524, "lon": -74.2013795}, "nodes": [2566703139, 2566703140, 2566703141, 2566703142, 2566703143, 2566703144, 2566703145, 2566703146, 2566703147, 2566703148, 2566703149, 2566703150, 2566703151, 2566703139], "tags": {"addr:city": "Ayacucho", "addr:street": "Avenida Venezuela", "amenity": "hospital", "emergency": "yes", "name": "Hospital II EsSalud Huamanga", "operator": "EsSalud", "phone": "+51 66 490000", "source": "http://www.essalud.gob.pe", "wheelchair": "yes"}}, {"type": "way", "id": 256374891, "center": {"lat": -15.4938424, "lon": -70.1360265}, "nodes": [2620318092, 2620318094, 2620318095, 2620318096, 2620318092], "tags": {"amenity": "hospital", "building": "yes", "name": "Essalud"}}, {"type": "way", "id": 259229684, "center": {"lat": -13.5321601, "lon": -71.9597907}, "nodes": [2645834770, 2645834774, 2645832064, 2645834778, 2645834770], "tags": {"addr:full": "Avenida 28 de Julio, Lote E - Urbanizacion Ttio", "amenity": "hospital", "emergency": "yes", "name": "posta de Ttio", "operator": "Gobierno Regional", "phone": "+51 84 239673", "ref:category": "I-3", "ref:microred": "2", "ref:red": "2"}}, {"type": "way", "id": 271290757, "center": {"lat": -13.6398278, "lon": -72.8816873}, "nodes": [2762516450, 2762516453, 2762516447, 2762516444, 2762516455, 2762516457, 2762516464, 2762516467, 2762516476, 2762516480, 2762516483, 2762516479, 2762516474, 2762516463, 2762516460, 2762516450], "tags": {"amenity": "hospital", "name": "Hospital Regional Guillermo D\u00edaz de la Vega", "operator": "Gobierno Regional", "phone": "+51 83 321108", "ref:category": "II-2", "ref:microred": "0", "ref:red": "0", "source": "bing"}}, {"type": "way", "id": 277736822, "center": {"lat": -17.6423463, "lon": -71.342315}, "nodes": [2821991521, 2821991522, 2821991523, 2821991524, 2821991525, 2821991526, 2821991521], "tags": {"addr:street": "Jir\u00f3n Miramar", "amenity": "hospital", "healthcare": "hospital", "name": "Hospital II Ilo", "operator": "Essalud", "phone": "+51 53 482341", "ref:category": "II-1"}}, {"type": "way", "id": 278393025, "center": {"lat": -12.0849729, "lon": -77.0599318}, "nodes": [2068560858, 10978393787, 8973463608, 4334041331, 8973463607, 8973463605, 8973463602, 10978393786, 8973464018, 8973463615, 11119832112, 11119832105, 8973464069, 8973464066, 8973464065, 8973464062, 11119832113, 8973464061, 8973464058, 11119830502, 4334041332, 8973464100, 6077474994, 6077474993, 8973464107, 8973464110, 8973464106, 2068555497, 3529393978, 8973464044, 8973464045, 8973464048, 2827667807, 11119598489, 8973464051, 8973464052, 8973464089, 8973464086, 11119598496, 8973464081, 8973464078, 2068560858], "tags": {"addr:district": "Jes\u00fas Mar\u00eda", "addr:housenumber": "2600", "addr:postcode": "15072", "addr:state": "Lima", "addr:street": "Avenida Brasil", "alt_name": "Hospital de La Polic\u00eda", "amenity": "hospital", "emergency": "yes", "healthcare": "hospital", "name": "Hospital Nacional PNP Luis N. Saenz", "operator": "Polic\u00eda Nacioanl del Per\u00fa", "source": "Reconocimiento cartogr\u00e1fico de campo por KG 2016", "website": "https://www.pnp.gob.pe/direcciones_policiales/dirsal/hospital_luis_saenz.html"}}, {"type": "way", "id": 291986361, "center": {"lat": -12.0444486, "lon": -77.0440449}, "nodes": [2954972660, 2954972661, 2954972662, 2954972663, 2954972664, 2954972660], "tags": {"addr:city": "Lima", "addr:housenumber": "390", "addr:street": "Avenida Guillermo Dansey", "amenity": "hospital", "healthcare": "hospital", "name": "Policl\u00ednico Ram\u00f3n Castilla", "operator": "EsSalud", "operator:type": "public", "phone": "+51 1 3308439;+51 1 3308446"}}, {"type": "way", "id": 293213308, "center": {"lat": -14.3121375, "lon": -71.6879218}, "nodes": [2967875826, 2967875827, 2967875828, 2967875829, 6555870187, 6555870186, 2967875826], "tags": {"addr:city": "livitaca", "amenity": "hospital", "emergency": "yes", "name": "Hospital Livitaca"}}, {"type": "way", "id": 302340210, "center": {"lat": -13.1479105, "lon": -74.2129408}, "nodes": [3065970821, 3065970822, 3065970824, 3065970823, 3065970821], "tags": {"addr:full": "Avenida los Incas Mz. L Lte. 5", "amenity": "hospital", "name": "Posta de Villa San Cristobal", "operator": "Gobierno Regional", "ref:category": "I-1", "ref:microred": "11", "ref:red": "1"}}, {"type": "way", "id": 303538832, "center": {"lat": -11.9765314, "lon": -77.0633977}, "nodes": [3079098820, 3079098821, 3079098822, 3079098823, 3079098824, 3079098825, 3079098820], "tags": {"amenity": "hospital", "name": "Hosp\u00ectal Municipal de los Olivos", "source": "Reconocimiento cartogr\u00e1fico de campo 2016 por KG"}}, {"type": "way", "id": 304573665, "center": {"lat": -13.1554244, "lon": -74.2139053}, "nodes": [3091342247, 3091342252, 3091342250, 3091342253, 3091342254, 3091342251, 3091342249, 3091342248, 3091342247], "tags": {"addr:housenumber": "800", "addr:street": "Ciro Alegria", "amenity": "hospital", "emergency": "yes", "fax": "+51 66 315419", "name": "Hospital de apoyo Jesus Nazareno", "phone": "+51 66 315419", "source": "www.minsa.gob.pe"}}, {"type": "way", "id": 307664865, "center": {"lat": -12.0218565, "lon": -77.0553445}, "nodes": [3128682681, 8834359004, 8834359003, 10751399654, 8834359002, 8834359005, 11201081560, 8834359006, 8834403731, 10848296923, 3128682682, 4362122392, 4362122391, 827066014, 11201106011, 3128682681], "tags": {"addr:city": "San Mart\u00edn de Porres", "addr:housenumber": "262", "addr:neighbourhood": "Urbanizaci\u00f3n Ingenier\u00eda", "addr:street": "Avenida Honorio Delgado", "amenity": "hospital", "emergency": "yes", "name": "Hospital Nacional Cayetano Heredia", "name:es": "Cayetano Heredia", "operator": "Minsa", "phone": "+511 4820402", "ref:category": "III-1", "ref:microred": "0", "ref:red": "0", "wikidata": "Q30280231", "wikipedia": "es:Hospital Nacional Cayetano Heredia"}}, {"type": "way", "id": 313776463, "center": {"lat": -13.4610709, "lon": -76.1837386}, "nodes": [3198067813, 3198067814, 3198067815, 3198067816, 3198067813], "tags": {"addr:housenumber": "125", "addr:street": "Avenida Simon Bolivar", "amenity": "hospital", "name": "Tambo de Mora", "operator": "Gobierno Regional", "phone": "+51 56 273146", "ref:category": "I-3", "ref:microred": "3", "ref:red": "2"}}, {"type": "way", "id": 316474736, "center": {"lat": -13.0270429, "lon": -74.2152373}, "nodes": [3225974091, 3225974092, 3225974093, 3225974094, 3225974091], "tags": {"amenity": "hospital", "name": "Centro de salud la vega"}}, {"type": "way", "id": 316583285, "center": {"lat": -18.0150035, "lon": -70.255459}, "nodes": [3227137912, 3227137909, 3227137877, 3227137870, 3227137864, 10823503806, 3227137863, 3227137862, 3227137861, 3227137760, 11210714556, 11210714552, 3227137756, 11210714605, 11210714608, 11210714609, 3227137754, 11210714611, 3227137755, 3227137757, 3227137758, 3227137759, 11210709332, 11210709331, 3227137871, 11210709330, 11210709329, 3227137911, 3227137912], "tags": {"addr:city": "Tacna", "addr:street": "Federico Barreto", "amenity": "hospital", "emergency": "yes", "healthcare": "hospital", "name": "Hospital Departamental Hipolito Unanue de Tacna", "operator": "MINSA", "pe:minsa:categoria": "II-2", "pe:minsa:codigo": "2864", "phone": "+51 52 425236", "source": "www.minsa.gob.pe"}}, {"type": "way", "id": 320125239, "center": {"lat": -12.0154571, "lon": -76.8203254}, "nodes": [3266223498, 3266223500, 3266223501, 3266223503, 3266223507, 3266223508, 3266223510, 3266223514, 3266223515, 3266223496, 3266223489, 3266223485, 3266223474, 3266223472, 3266223469, 3266223471, 3266223478, 3266223477, 3266223491, 3266223493, 3266223498], "tags": {"addr:street": "Avenida Jos\u00e9 Carlos Mari\u00e1tegui", "amenity": "hospital", "emergency": "yes", "healthcare": "hospital", "healthcare:speciality": "paediatrics;dentistry;emergency", "name": "Hospital Huayc\u00e1n", "operator": "Ministerio de Salud del Per\u00fa", "operator:type": "public", "pe:minsa:categoria": "II-1", "phone": "+51 1 3716797", "website": "https://www.hospitalhuaycan.gob.pe/"}}, {"type": "way", "id": 320415894, "center": {"lat": -12.0263522, "lon": -76.919855}, "nodes": [3269286774, 3269286773, 3269286772, 3269286771, 3269286770, 3269286769, 3269286768, 3269286767, 3269286766, 3269286765, 3269286764, 3269286762, 3269286763, 3269286774], "tags": {"addr:housenumber": "5880", "addr:street": "Avenida Nicolas Ayllon", "amenity": "hospital", "building": "yes", "emergency": "yes", "fax": "+51 1 3514420", "name": "Hospital Vitarte", "operator": "Ministerio de Salud del Per\u00fa", "phone": "+51 01 3514484;+51 01 3516059", "ref:category": "II-1", "website": "http://www.hospitalvitarte.gob.pe/"}}, {"type": "way", "id": 327178876, "center": {"lat": -16.3970619, "lon": -71.5443884}, "nodes": [3339064579, 8732426032, 3339072900, 5567504463, 5567504462, 3339072902, 10012297990, 11090088446, 3339072905, 3339072904, 3339072894, 3339064579], "tags": {"addr:city": "Yanahuara", "addr:street": "Garaicochea", "alt_name": "Policlinico de Yanahuara", "amenity": "hospital", "emergency": "yes", "healthcare": "hospital", "name": "Hospital III Yanahuara", "opening_hours": "Mo-Sa 6:00-23:00", "operator": "Essalud", "phone": "+51 54 251900", "ref:category": "II-2", "ref:microred": "0", "ref:red": "0", "website": "http://www.essalud.gob.pe/hospital-yanahuara-de-essalud-arequipa-ampliara-centro-quirurgico/"}}, {"type": "way", "id": 328480427, "center": {"lat": -16.4024925, "lon": -71.5279176}, "nodes": [3353099494, 3353099493, 4106712655, 3353096892, 3353099495, 3353099496, 3353099497, 3353099494], "tags": {"addr:city": "Arequipa", "addr:street": "Paucarpata", "amenity": "hospital", "emergency": "yes", "name": "Hospital Goyeneche", "operator": "Gobierno Regional", "phone": "+51 54 231313", "ref:category": "III-1", "website": "https://www.hospitalgoyeneche.gob.pe/", "wikidata": "Q5902686", "wikipedia": "es:Hospital Goyeneche"}}, {"type": "way", "id": 329586110, "center": {"lat": -13.5253157, "lon": -71.9593507}, "nodes": [3364743382, 3364743383, 3705671652, 3364743384, 3705671191, 3705671188, 3364743385, 3364743386, 3705670814, 3705670801, 3705670767, 3364743387, 3364743388, 3364743389, 3364743390, 3364743391, 3705670731, 3705670736, 3364743392, 3364745293, 3364745294, 3364745295, 3364745296, 3705671649, 3705671651, 3364743382], "tags": {"addr:city": "Cusco", "addr:street": "Avenida Anselmo Alvarez", "amenity": "hospital", "emergency": "yes", "name": "Hospital Nivel IV Adolfo Guevara Velasco - Essalud", "operator": "Essalud", "phone": "+51 84 237341", "ref:category": "III-1", "ref:microred": "0", "ref:red": "0"}}, {"type": "way", "id": 331168077, "center": {"lat": -15.4935562, "lon": -70.1638688}, "nodes": [3382298027, 3382298028, 3382298029, 3382298030, 3382298027], "tags": {"addr:street": "Avenida Jos\u00e9 Santos Chocano", "amenity": "hospital", "healthcare": "hospital", "healthcare:speciality": "general;chiropractic;vaccination;orthodontics;orthopaedics", "name": "Hospital Nivel III - EsSalud", "operator": "EsSalud", "phone": "+51 51 599460", "ref:category": "II-2"}}, {"type": "way", "id": 335255372, "center": {"lat": -18.4688723, "lon": -70.301446}, "nodes": [3423703251, 3423703252, 3423703253, 3423703254, 3423703255, 5952278458, 3423703256, 3423703251], "tags": {"addr:city": "Arica", "addr:country": "CL", "addr:housenumber": "2249", "addr:street": "Avenida Argentina", "amenity": "hospital", "emergency": "yes", "healthcare": "hospital", "name": "Cl\u00ednica Fleming Arica", "operator:type": "private"}}, {"type": "way", "id": 338350659, "center": {"lat": -12.1126056, "lon": -76.9985145}, "nodes": [3454254793, 4352908896, 8881993078, 11124023836, 8881993061, 4352907474, 4352907484, 3454254794, 6357414492, 4352907486, 3454254795, 8858940011, 5809125258, 3454254796, 5302630423, 5302630422, 3454254797, 3454254798, 3454254799, 3454254800, 3454254801, 3454254793], "tags": {"addr:city": "Surquillo", "addr:housenumber": "2520", "addr:street": "Avenida Angamos Este", "amenity": "hospital", "email": "comunicaciones@inen.sld.pe", "emergency": "yes", "healthcare": "hospital", "healthcare:speciality": "oncology", "name": "Instituto Nacioanal de Enfermedades Neopl\u00e1sicas", "operator": "Ministerio de Salud", "operator:short": "MINSA", "operator:wikidata": "Q3065012", "phone": "+51 1 2016500;+51 1 2016160", "website": "http://www.inen.sld.pe/portal/", "wikidata": "Q5917528", "wikipedia": "es:Instituto Nacional de Enfermedades Neopl\u00e1sicas"}}, {"type": "way", "id": 343387982, "center": {"lat": -10.4484932, "lon": -76.1821959}, "nodes": [3502373931, 7960889401, 3502373913, 3502373919, 3502373911, 3502373925, 3502373916, 3502373943, 3502373956, 7960889400, 3502373946, 3502374515, 3502373931], "tags": {"amenity": "hospital", "name": "EsSalud Hospital II-E Huariaca", "operator": "EsSalud", "phone": "+51 63 402047", "ref:category": "II-E"}}, {"type": "way", "id": 346998373, "center": {"lat": -16.618386, "lon": -72.7080387}, "nodes": [3534454216, 7253775644, 3534454217, 3534454218, 3534454219, 3534454216], "tags": {"addr:street": "Avenida Lima", "amenity": "hospital", "emergency": "yes", "fax": "+51 54 571604", "name": "Hospital de Caman\u00e1", "phone": "+51 54 571603", "source": "www.minsa.gob.pe"}}, {"type": "way", "id": 363244376, "center": {"lat": -13.962092, "lon": -75.6954716}, "nodes": [3674251133, 3674251134, 3674251135, 3629505710, 3674251133], "tags": {"addr:full": "Caserio Pampa de la Isla", "addr:street": "Avenida Victorio Gotuzzo", "amenity": "hospital", "name": "Pampa de La Isla", "operator": "Gobierno Regional", "phone": "+51 947598004", "ref:category": "I-2", "ref:microred": "3", "ref:red": "1", "source": "Kaart Ground Survey 2017"}}, {"type": "way", "id": 365705852, "center": {"lat": -13.1668897, "lon": -74.2217302}, "nodes": [3697064178, 3697064176, 3697064177, 3697064179, 3697064178], "tags": {"amenity": "hospital", "building": "yes", "name": "Posta medica de San juan"}}, {"type": "way", "id": 366717174, "center": {"lat": -13.1562425, "lon": -74.2277222}, "nodes": [3707037811, 3707037817, 3707038229, 3707037815, 3707037811], "tags": {"addr:city": "Ayacucho", "addr:housenumber": "846", "addr:postcode": "05003", "addr:street": "Jir\u00f3n Libertad", "amenity": "hospital", "healthcare": "hospital", "name": "DermaClinic Ayacucho", "operator": "Estetica y Belleza", "operator:type": "private"}}, {"type": "way", "id": 367120867, "center": {"lat": -13.3218833, "lon": -71.959716}, "nodes": [3710730206, 3710730207, 3710730208, 3710730209, 3710730210, 3710730211, 3710730206], "tags": {"addr:city": "calca", "addr:street": "Calle Calca", "amenity": "hospital", "emergency": "yes", "healthcare": "hospital", "name": "Centro de Salud Calca", "operator": "Gobierno Regional", "operator:type": "public", "operator:wikidata": "Q3824815", "phone": "+51 84 202474", "ref:category": "I-4", "ref:microred": "6", "ref:red": "2"}}, {"type": "way", "id": 367133843, "center": {"lat": -13.5220025, "lon": -71.9536696}, "nodes": [3710872582, 3710872583, 3710872584, 3710872585, 3710872586, 3710872587, 3710872588, 3710872589, 10761140259, 10761140260, 10234841854, 10234841851, 3710872582], "tags": {"addr:city": "Cusco", "addr:street": "Calle Manzanares", "amenity": "hospital", "emergency": "yes", "healthcare": "hospital", "name": "San Juan de Dios"}}, {"type": "way", "id": 367446761, "center": {"lat": -13.5312109, "lon": -71.9761525}, "nodes": [3713672517, 3713672518, 3713672519, 3713672520, 6852524430, 6852524428, 6852589070, 6852583865, 6852583864, 3713672521, 3713672517], "tags": {"addr:city": "Santiago", "addr:street": "Avenida Carlos Ugarte", "amenity": "hospital", "healthcare": "hospital", "name": "Hospital de Contingencia Antonio Lorena", "operator": "Gobierno Regional", "phone": "+51 84 247119", "ref:category": "III-1", "ref:microred": "0", "ref:red": "0"}}, {"type": "way", "id": 368846581, "center": {"lat": -12.6442741, "lon": -72.360483}, "nodes": [3726879424, 3726879825, 3726879826, 3726879827, 3726879424], "tags": {"addr:city": "yanatile", "amenity": "hospital", "name": "Puesto de Salud de Muyupay", "operator": "Gobierno Regional", "phone": "+51 84 237953", "ref:category": "I-1", "ref:microred": "8", "ref:red": "2"}}, {"type": "way", "id": 368847325, "center": {"lat": -12.6744992, "lon": -72.3914412}, "nodes": [3726883860, 3726883861, 3726883862, 3726883863, 3726883860], "tags": {"addr:city": "occobamba", "addr:full": "Comunidad Huayracpata", "amenity": "hospital", "name": "Centro de Salud Chinganilla", "operator": "Gobierno Regional", "phone": "+51 84 812563", "ref:category": "I-1", "ref:microred": "3", "ref:red": "3"}}, {"type": "way", "id": 370242982, "center": {"lat": -12.198684, "lon": -76.9460858}, "nodes": [4367138859, 6631716397, 6631716396, 6631716399, 6631716398, 4995042827, 4367138861, 4367138864, 4367138863, 4995042835, 4367138859], "tags": {"addr:city": "Villa El Salvador", "addr:district": "Villa el Salvador", "addr:street": "Avenida Los Angeles", "amenity": "hospital", "healthcare": "hospital", "healthcare:speciality": "maternity", "name": "Centro Materno Infantil San Jos\u00e9", "opening_hours": "24/7", "operator": "Ministerio de Salud", "operator:type": "public", "phone": "+511 2920104", "ref:category": "I-4", "ref:microred": "1", "ref:red": "3", "wheelchair": "yes"}}, {"type": "way", "id": 370795534, "center": {"lat": -12.1778068, "lon": -76.9456737}, "nodes": [4354538454, 4354538457, 4354538456, 4354538455, 8081969664, 4415264671, 4415264670, 4354538454], "tags": {"addr:city": "Villa Mar\u00eda del Triunfo", "addr:housenumber": "3470", "addr:street": "Avenida Pachacutec", "amenity": "hospital", "healthcare": "hospital", "healthcare:speciality": "maternity", "name": "Centro Materno Infantil Daniel Alcides Carri\u00f3n", "opening_hours": "24/7", "operator": "Ministerio de Salud", "operator:type": "public", "phone": "+511 4505684", "ref:category": "I-4", "ref:microred": "7", "ref:red": "2", "wheelchair": "yes"}}, {"type": "way", "id": 370798546, "center": {"lat": -12.1775909, "lon": -76.940798}, "nodes": [4362062313, 3744854477, 4362062311, 4398298084, 4398298085, 4398298086, 4987441477, 4362062312, 4398298088, 4398298087, 4362062313], "tags": {"addr:city": "Villa Mar\u00eda del Triunfo", "addr:full": "Avenida 26 de Noviembre con Avenida Defensores de Lima, Villa Maria del Triunfo", "addr:street": "Avenida 26 de Noviembre", "amenity": "hospital", "contact:facebook": "https://www.facebook.com/complejohospitalarioguillermokaelin", "contact:twitter": "https://twitter.com/ComplejoKaelin", "contact:youtube": "https://www.youtube.com/user/APPSaludPeru", "description": "El horario es para consultas.\nLa entrada de emergencia es por la Av, Defensores de Lima", "emergency": "yes", "healthcare": "hospital", "healthcare:speciality": "general", "name": "Hospital Guillermo Kael\u00edn de la Fuente", "opening_hours": "Mo-Sa 07:00-13:00, 14:00-20:00; Sa 07:00-13:00", "operator": "Villa Mar\u00eda del Triunfo Salud S.A.C.", "operator:type": "private", "phone": "+511 2051200", "website": "https://www.vmtsalud.com.pe/el-hospital", "wheelchair": "yes"}}, {"type": "way", "id": 371266564, "center": {"lat": -12.2304117, "lon": -76.9235885}, "nodes": [4370544992, 4370544983, 4370544995, 4370544993, 4370544992], "tags": {"addr:city": "Villa El Salvador", "addr:street": "Vereda 32", "amenity": "hospital", "healthcare": "hospital", "healthcare:speciality": "maternity", "name": "Centro Materno Infantil C\u00e9sar L\u00f3pez Silva", "opening_hours": "24/7", "operator": "Ministerio de Salud", "operator:type": "public", "phone": "+511 2930274", "wheelchair": "yes"}}, {"type": "way", "id": 372661035, "center": {"lat": -12.2320835, "lon": -76.9348658}, "nodes": [4370536328, 4370536331, 5134198949, 11201204421, 5847525734, 4370536330, 4370536326, 5847525745, 4370536323, 5134199092, 4382811965, 4382811964, 4370536328], "tags": {"addr:city": "Villa El Salvador", "addr:district": "Villa El Salvador", "addr:street": "Avenida 200 millas", "amenity": "hospital", "contact:email": "info@heves.gob.pe", "contact:phone": "+511 6409875", "contact:website": "http://www.heves.gob.pe/portal/", "emergency": "yes", "healthcare": "hospital", "healthcare:speciality": "surgery;gynaecology;pulmonology;gastroenterology;neurology;neurosurgery;ophthalmology;otolaryngology;paediatrics;trauma;urology;psychiatry;endocrinology;plastic_surgery;internal", "name": "Hospital de Emergencias Villa El Salvador", "name:en": "Villa El Salvador Emergency Hospital", "name:fr": "H\u00f4pital d'urgence Villa El Salvador", "name:it": "Ospedale di emergenza Villa El Salvador", "name:pt": "Hospital de emerg\u00eancia Villa El Salvador", "operator": "Ministerio de Salud", "operator:type": "government", "start_date": "2016-04-07"}}, {"type": "way", "id": 384203102, "center": {"lat": -12.045808, "lon": -76.9459986}, "nodes": [3874985065, 5049951571, 7745886227, 3874985066, 10702612435, 3874985067, 5049938383, 5049938384, 5049938386, 5049938385, 5049938388, 5049938387, 5049938390, 5049938389, 3874985068, 3874985069, 3874985070, 3874985071, 3874985072, 3874985073, 5049938393, 5049938392, 5049938391, 3874985074, 5049938396, 5049938395, 5049938394, 3874985075, 5049938397, 3874985076, 5049938398, 3874985065], "tags": {"addr:city": "Santa Anita", "addr:housenumber": "Km. 3.5", "addr:state": "Lima", "addr:street": "Carretera Central", "amenity": "hospital", "barrier": "wall", "emergency": "yes", "healthcare": "hospital", "name": "Hospital Hermilio Valdiz\u00e1n", "phone": "+51 1 3544747;+51 1 3542416", "source": "www.minsa.gob.pe", "website": "http://www.hhv.gob.pe"}}, {"type": "way", "id": 391878567, "center": {"lat": -15.8732377, "lon": -70.000408}, "nodes": [3951400855, 3951400856, 3951408358, 3951408357, 3951408360, 3951408361, 3951408362, 3951408364, 3951408365, 3951408369, 3951408366, 3951400855], "tags": {"addr:housenumber": "600", "addr:street": "Jir\u00f3n Francisco Caceres Jara", "amenity": "hospital", "healthcare": "hospital", "name": "EsSalud Hospital III Puno", "operator": "Essalud", "phone": "+51 51 352661", "ref:category": "II-2"}}, {"type": "way", "id": 391908588, "center": {"lat": -12.0370087, "lon": -77.0351378}, "nodes": [3951713440, 3951713441, 3951713444, 8032990034, 8032990059, 3951713446, 8032990036, 3951713447, 3951713448, 3951713449, 3951713450, 3951713440], "tags": {"addr:city": "R\u00edmac", "addr:housenumber": "585", "addr:postcode": "15094", "addr:state": "Lima", "addr:street": "Avenida Francisco Pizarro", "amenity": "hospital", "emergency": "yes", "healthcare": "hospital", "name": "Policl\u00ednico Francisco Pizarro", "operator": "EsSalud", "operator:type": "public", "phone": "+511 4829995", "start_date": "1984"}}, {"type": "way", "id": 391950856, "center": {"lat": -12.0351778, "lon": -77.0338268}, "nodes": [3952202206, 3952202207, 3952202208, 3952202209, 3952202210, 3952202211, 3952202206], "tags": {"addr:city": "R\u00edmac", "addr:state": "Lima", "addr:street": "Jir\u00f3n San Germ\u00e1n", "amenity": "hospital", "emergency": "yes", "healthcare": "hospital", "healthcare:speciality": "general", "name": "Hospital Augusto B. Legu\u00eda", "note": "Consultado de https://www.pnp.gob.pe/direcciones/fospoli/emergencia.html y de la noticia http://www.andina.com.pe/agencia/noticia-hospital-augusto-b-leguia-descarta-negligencia-medica-muerte-mujer-policia-279136.aspx", "operator": "Polic\u00eda Nacional del Per\u00fa", "operator:type": "government"}}, {"type": "way", "id": 391969601, "center": {"lat": -12.1479615, "lon": -76.9842745}, "nodes": [4351773898, 4351773899, 4351773900, 4351773908, 5099633636, 5099633639, 5099633640, 5099633638, 5099633637, 4351773907, 4351773906, 4351773905, 4351773904, 4351773903, 5099633647, 4351773902, 4351773898], "tags": {"addr:city": "Santiago de Surco", "addr:housenumber": "1", "addr:postcode": "L-33", "addr:street": "Loma de Las Amarilis", "amenity": "hospital", "name": "Hospital Municipal Surco Salud", "source": "Reconocimiento cartogr\u00e1fico por Kaart 2017"}}, {"type": "way", "id": 393487901, "center": {"lat": -12.0342808, "lon": -77.0333512}, "nodes": [3952202210, 3952202211, 3966771536, 3966771532, 3966771527, 3966771521, 3966771530, 4384778740, 3966771531, 3966771539, 3966771540, 3952202210], "tags": {"addr:city": "R\u00edmac", "addr:state": "Lima", "addr:street": "Jir\u00f3n San Germ\u00e1n", "amenity": "hospital", "healthcare": "hospital", "healthcare:speciality": "maternity", "name": "Centro Materno Infantil R\u00edmac", "operator": "Ministerio de Salud", "operator:short": "MINSA", "operator:type": "government", "operator:wikidata": "Q3065012", "pe:minsa:categoria": "I-4", "pe:renaes:codigo": "5644", "phone": "+51 1 4812895", "start_date": "1943-07-19"}}, {"type": "way", "id": 394469163, "center": {"lat": -12.1675144, "lon": -77.0191398}, "nodes": [3974742737, 3974742738, 3974742739, 5007811811, 5007811812, 5007811813, 3974742740, 5007811814, 3974742741, 3974742742, 3974742743, 3974742744, 5007811816, 5007811815, 3974742745, 3974742746, 5007811805, 5007811806, 5007811807, 5007811808, 5007811809, 5007811810, 3974742737], "tags": {"addr:city": "Chorrillos", "addr:housenumber": "990", "addr:street": "Avenida Panamericana Sur", "amenity": "hospital", "building": "roof", "building:levels": "1", "healthcare": "hospital", "healthcare:speciality": "general", "name": "SISOL Salud Chorrillos", "old_name": "Hospital de la Solidaridad Chorrillos", "opening_hours": "Mo-Sa 07:00-19:00", "operator": "Municipalidad Metropolitana de Lima", "phone": "+511 467 1684", "website": "http://www.sisol.gob.pe/", "wheelchair": "yes"}}, {"type": "way", "id": 394652791, "center": {"lat": -11.0741482, "lon": -75.3383643}, "nodes": [3179744591, 8123683394, 3179744620, 3179744621, 3179744622, 3179744623, 3179744589, 3179744590, 3179744591], "tags": {"addr:city": "Chanchamayo", "addr:postcode": "064", "addr:street": "Parma del Carmen", "amenity": "hospital", "name": "Hospital Regional Docente de Medicina Tropical Dr: Cesar Demarini Caro", "operator": "Gobierno Regional", "phone": "+51 64 532373", "ref:category": "II-1", "ref:microred": "0", "ref:red": "4"}}, {"type": "way", "id": 397720849, "center": {"lat": -11.9816277, "lon": -77.0715761}, "nodes": [4004993892, 4004993893, 4004993894, 4004993895, 4004993892], "tags": {"addr:street": "Avenida Las Palmeras", "amenity": "hospital", "name": "Carlos Cueto Fernandini", "operator": "Minsa", "phone": "+511 5213440", "ref:category": "I-3", "ref:microred": "3", "ref:red": "25"}}, {"type": "way", "id": 398850206, "center": {"lat": -12.0492017, "lon": -77.0682362}, "nodes": [4015835364, 4015835365, 4015835366, 4015835367, 4015835364], "tags": {"addr:city": "Cercado de Lima", "addr:full": "Av. Colonial Cdra. 19", "addr:street": "Avenida \u00d3scar Raimundo Benavides", "amenity": "hospital", "building": "roof", "building:levels": "1", "healthcare": "hospital", "healthcare:speciality": "general", "name": "SISOL Salud Mirones", "old_name": "Hospital de la Solidaridad Mirones", "opening_hours": "Mo-Sa 07:00-19:00", "operator": "Municipalidad Metropolitana de Lima", "phone": "+511 336 8228", "website": "http://www.sisol.gob.pe/"}}, {"type": "way", "id": 399741679, "center": {"lat": -11.8855408, "lon": -77.1257929}, "nodes": [4024376622, 4024376623, 4024376624, 4024376625, 4024376626, 4024376622], "tags": {"addr:street": "Avenida Nestor Gambetta", "amenity": "hospital", "name": "Hospital Chalaco II"}}, {"type": "way", "id": 401689213, "center": {"lat": -13.5530261, "lon": -74.628719}, "nodes": [4041006267, 4041006278, 4041006272, 4041006261, 4041006267], "tags": {"amenity": "hospital"}}, {"type": "way", "id": 405698392, "center": {"lat": -11.8285743, "lon": -77.1199428}, "nodes": [4078565974, 4078565975, 4078565976, 4078565977, 4078565974], "tags": {"addr:street": "Carretera Panamericana Norte", "amenity": "hospital", "name": "Hospital Chalaco III"}}, {"type": "way", "id": 406620283, "center": {"lat": -12.0412612, "lon": -76.992577}, "nodes": [4086724296, 4086724266, 4086724267, 8203984164, 8203984156, 8203984157, 8203984158, 8203984159, 8203984165, 8203984160, 8203984161, 8203984162, 8203984163, 8203984166, 8203984149, 8203984150, 8203984154, 8203984151, 8203984152, 8203984153, 8203984155, 8203984135, 8203984136, 8203984137, 8203984138, 8203984139, 8203984140, 8203984148, 8203984141, 8203984142, 8203984143, 8203984144, 8203984145, 8203984146, 8203984147, 4086684832, 8851856330, 8851856331, 4086684829, 11224021214, 4086684828, 4086724287, 4086724288, 4086724289, 4086724290, 4086724292, 4086724293, 8851856333, 8851856334, 2177197774, 8851856335, 8851856336, 4086724253, 4086724294, 4086724295, 4086724297, 2177197757, 8203984133, 8203984131, 8203984130, 8203984132, 8203984129, 4086724296], "tags": {"addr:city": "El Agustino", "addr:housenumber": "1390", "addr:street": "Avenida C\u00e9sar Vallejo", "amenity": "hospital", "contact:email": "informes@hnhu.gob.pe", "contact:facebook": "https://www.facebook.com/Hospital-Nacional-Hip%C3%B3lito-Unanue-Oficial-549008455109481/", "contact:phone": "+511 362 5700;+511 3627777", "contact:twitter": "https://twitter.com/HospitalUnanue", "contact:website": "http://www.hnhu.gob.pe/Inicio/", "contact:youtube": "https://www.youtube.com/user/COMUNICACIONESHNHU", "emergency": "yes", "fax": "+51 1 3628619", "healthcare": "hospital", "name": "Hospital Nacional Hip\u00f3lito Unanue", "phone": "+51 1 3625700;+51 1 3627777"}}, {"type": "way", "id": 406622143, "center": {"lat": -12.0394851, "lon": -76.9971154}, "nodes": [4086738181, 4086738182, 4086738183, 5937062612, 5937062613, 5937062614, 5937062615, 5937062616, 4086738184, 5937062617, 4086738185, 4086738186, 4086738187, 4086738188, 4086738589, 4086738590, 4086738591, 4086738592, 4086738593, 4086738594, 4086738595, 4086738596, 4086738597, 4086738598, 4086738599, 4086738600, 4086738601, 4086738602, 4086738603, 4086738604, 4086738605, 4086738181], "tags": {"addr:city": "El Agustino", "addr:street": "Avenida C\u00e9sar Vallejo", "amenity": "hospital", "building": "roof", "building:levels": "1", "healthcare": "hospital", "healthcare:speciality": "general", "name": "SISOL Salud El Agustino", "old_name": "Hospital de la Solidaridad El Agustino", "opening_hours": "Mo-Sa 07:00-19:00", "operator": "Municipalidad Metropolitana de Lima", "phone": "+511 358 0954", "website": "http://www.sisol.gob.pe/", "wheelchair": "yes"}}, {"type": "way", "id": 408479327, "center": {"lat": -17.9796976, "lon": -70.2042498}, "nodes": [9089615616, 9446093384, 9089627517, 9446093304, 9446093507, 9446093508, 9446093474, 9446093594, 9446093611, 9089627518, 4103981273, 4103981274, 9446093242, 9446093235, 4103981275, 10580152131, 10580152134, 9446093333, 4103981276, 9446093377, 9446093378, 9446093383, 4103981277, 9089615615, 9089615616], "tags": {"addr:full": "Carretera Calana Km 6.5", "amenity": "hospital", "healthcare": "hospital", "name": "Hospital III Daniel Alcides Carri\u00f3n", "operator": "EsSalud", "phone": "+51 52 428065", "ref:category": "II-2", "ref:microred": "0", "ref:red": "0"}}, {"type": "way", "id": 412251739, "center": {"lat": -11.9772849, "lon": -77.0571299}, "nodes": [4137371803, 4137371804, 4137371805, 4137371806, 4137371803], "tags": {"addr:city": "Independencia", "addr:street": "Hurin Cusco", "amenity": "hospital", "name": "Red de Salud T\u00fapac Amaru", "website": "http://minsarsta.gob.pe"}}, {"type": "way", "id": 412486776, "center": {"lat": -12.0614801, "lon": -77.0217478}, "nodes": [4139030406, 4139030407, 4139030408, 4139030409, 4139030406], "tags": {"addr:city": "La Victoria", "addr:housenumber": "1960", "addr:street": "Jir\u00f3n Manuel Cisneros", "amenity": "hospital", "healthcare": "hospital", "name": "Centro de rehabilitaci\u00f3n personal La Victoria", "operator": "Ministerio de Salud", "operator:short": "MINSA", "operator:wikidata": "Q3065012"}}, {"type": "way", "id": 413980339, "center": {"lat": -12.0455757, "lon": -77.0160882}, "nodes": [4151803713, 4151803714, 4151803715, 7548406078, 4151803716, 7600151507, 11201051753, 7600151506, 7600151505, 4353165878, 4353165881, 4151803717, 4151803718, 4151803719, 4151803720, 4151803713], "tags": {"addr:city": "Cercado de Lima", "addr:housenumber": "1270", "addr:street": "Jir\u00f3n Ancash", "amenity": "hospital", "emergency": "yes", "name": "Instituto Nacional de Ciencias Neurol\u00f3gicas", "operator": "Minsa", "phone": "+51 1 4117700", "ref:category": "III-2"}}, {"type": "way", "id": 413981813, "center": {"lat": -12.0533618, "lon": -77.0224306}, "nodes": [4151826626, 4151826627, 5449072045, 5449072046, 7540706646, 5449072044, 4151826628, 5449072057, 5449072047, 4151826626], "tags": {"addr:city": "Barrios Altos", "addr:housenumber": "927", "addr:street": "Jir\u00f3n Huanta", "amenity": "hospital", "emergency": "no", "name": "Centro de Salud - Raul Patrucco Puig", "phone": "+51 1 3289053", "website": "https://raulpatruccopuig.weebly.com/"}}, {"type": "way", "id": 414715626, "center": {"lat": -10.7733841, "lon": -75.8105776}, "nodes": [4158347401, 5793168771, 5793168772, 4158347405, 4158347409, 4158347403, 4158347401], "tags": {"addr:housenumber": "549", "addr:street": "Jr. Dos de Mayo", "amenity": "hospital", "healthcare": "hospital", "name": "Puesto de Salud - Paucartambo", "operator": "Gobierno Regional", "phone": "+51 995129295", "ref:category": "I-4", "ref:microred": "4", "ref:red": "1"}}, {"type": "way", "id": 415405850, "center": {"lat": -13.182823, "lon": -74.2200766}, "nodes": [4164497856, 4164497854, 4164497853, 4164497855, 4164497856], "tags": {"amenity": "hospital", "building": "yes", "emergency": "ambulance_station", "name": "Posta Vistalegre"}}, {"type": "way", "id": 419918941, "center": {"lat": -12.1918734, "lon": -77.0031664}, "nodes": [4395576017, 4351527674, 11124009775, 4351527675, 4199075509, 4395576016, 4395576017], "tags": {"addr:city": "Chorrillos", "addr:housenumber": "213;215", "addr:street": "Avenida Defensores del Morro", "amenity": "hospital", "contact:facebook": "https://www.facebook.com/InstitutoNacionalRehabilitacion/", "contact:youtube": "https://www.youtube.com/profile?user=VideosInr2", "email": "dg@inr.gob.pe", "healthcare": "hospital", "healthcare:speciality": "rehabilitation;physiotherapist", "name": "Instituto Nacional de Rehabilitaci\u00f3n", "official_name": "Instituto Nacional de Rehabilitaci\u00f3n Doctora Adriana Rebaza Flores Amistad Per\u00fa - Jap\u00f3n", "operator": "Ministerio de Salud", "operator:short": "MINSA", "operator:type": "government", "operator:wikidata": "Q3065012", "operator:wikipedia": "en:Ministry of Health (Peru)", "phone": "+511 7173200", "ref:category": "III-E", "start_date": "1962-07-14", "website": "http://www.inr.gob.pe/"}}, {"type": "way", "id": 420078496, "center": {"lat": -12.0483235, "lon": -77.1077104}, "nodes": [4200592755, 4200592756, 4200592760, 4200592761, 4200592762, 4200592759, 4200592757, 4200592758, 4200592755], "tags": {"addr:city": "Callao", "addr:housenumber": "3525", "addr:street": "Avenida Rep\u00fablica Argentina", "amenity": "hospital", "building": "yes", "building:levels": "3", "emergency": "yes", "name": "Hospital Alberto Leopoldo Barton Thompson", "phone": "+51 1 2050300", "website": "https://www.callaosalud.com.pe/el-hospital"}}, {"type": "way", "id": 426488946, "center": {"lat": -14.0742186, "lon": -75.7430433}, "nodes": [4484280679, 4484280680, 4484280684, 4484283890, 4484283891, 4484283892, 4484283894, 4484283895, 4484283897, 4257846245, 4484283906, 7176663556, 4484283907, 4257846242, 4497930609, 4497930598, 4257846243, 4484280679], "tags": {"addr:city": "Ica", "addr:street": "Avenida Prolongaci\u00f3n Ayabaca", "amenity": "hospital", "emergency": "yes", "healthcare": "hospital", "name": "Hospital Regional de Ica", "operator": "MINSA", "pe:minsa:categoria": "II-2", "pe:minsa:codigo": "3358", "phone": "+51 56 232793", "source": "www.minsa.gob.pe"}}, {"type": "way", "id": 426490126, "center": {"lat": -14.0711826, "lon": -75.7269749}, "nodes": [4257855202, 9847491385, 9847491403, 4257855203, 9847491405, 9847491394, 4257855204, 4257855205, 4524248779, 4524248780, 4524248781, 9847491391, 4524248782, 4257855202], "tags": {"addr:city": "Ica", "addr:housenumber": "104", "addr:street": "Avenida Cutervo", "amenity": "hospital", "emergency": "yes", "healthcare": "hospital", "name": "Hospital III F\u00e9lix Torrealva Guti\u00e9rrez", "operator": "EsSalud", "operator:type": "public", "phone": "+51 56 234798", "ref": "00013912", "ref:category": "II-1", "source": "Kaart Ground Survey 2017"}}, {"type": "way", "id": 426492326, "center": {"lat": -14.0651971, "lon": -75.7383062}, "nodes": [4257894354, 9849114602, 4257894355, 4257894356, 4257894357, 4257894358, 9849114578, 4257894359, 4257894360, 9849114601, 4530956241, 4530956242, 4257900443, 4257894361, 9849114610, 9849114604, 4257894354], "tags": {"addr:city": "Ica", "addr:housenumber": "652", "addr:street": "Avenida Jos\u00e9 Mat\u00edas Manzanilla", "amenity": "hospital", "emergency": "yes", "name": "Hospital IV Augusto Hern\u00e1ndez Mendoza", "operator": "EsSalud", "phone": "+51 56 223533", "ref:category": "II-2"}}, {"type": "way", "id": 427324297, "center": {"lat": -14.0721021, "lon": -75.7395567}, "nodes": [4265547690, 7125484864, 4265547693, 7125484863, 4265547694, 4265547695, 7125484865, 4265547696, 7125484866, 6571698593, 7125484867, 4265547700, 4265547701, 4265547702, 4265547703, 4265547704, 7125484868, 7207849652, 4265547690], "tags": {"addr:city": "Ica", "addr:street": "Avenida Ayabaca", "amenity": "hospital", "building": "roof", "building:levels": "1", "healthcare": "hospital", "healthcare:speciality": "general", "name": "SISOL Salud Ica", "old_name": "Hospital de la Solidaridad Ica", "opening_hours": "Mo-Sa 07:00-19:30", "operator": "Municipalidad Metropolitana de Lima", "phone": "+51 56 221 600", "website": "http://www.sisol.gob.pe/", "wheelchair": "yes"}}, {"type": "way", "id": 428111371, "center": {"lat": -12.0631792, "lon": -77.1331135}, "nodes": [4272531338, 11123954042, 4272531339, 4272531340, 4272531341, 9185233738, 4272531338], "tags": {"addr:housenumber": "535", "addr:street": "Jir\u00f3n Andres Vigil", "amenity": "hospital", "name": "Hospital de Rehabilitaci\u00f3n", "operator": "Gobierno regional del Callao", "phone": "+51 1 4650048", "ref:category": "II-E", "ref:microred": "4", "ref:red": "2"}}, {"type": "way", "id": 430480738, "center": {"lat": -17.1855214, "lon": -70.9277496}, "nodes": [4297515007, 4297515009, 4297515010, 4297515012, 4297515017, 4297515021, 4297515023, 11208358000, 11208358001, 4297515022, 11208413505, 11208413512, 4297515014, 11208358015, 11208358016, 4297515013, 11208358010, 11208358009, 11208358007, 11208358008, 11208358011, 11208358013, 9938448579, 11208358006, 11208358005, 4297515003, 4297515004, 4297515006, 4297515005, 4297515007], "tags": {"addr:street": "Avenida Sim\u00f3n Bol\u00edvar", "amenity": "hospital", "name": "Hospital Regional de Moquegua", "operator": "Gobierno Regional", "pe:minsa:categoria": "II-2", "pe:minsa:codigo": "7732", "phone": "+51 53 633000", "ref:category": "II-2", "ref:microred": "0", "ref:red": "0", "source": "www.minsa.gob.pe"}}, {"type": "way", "id": 431592740, "center": {"lat": -12.1133097, "lon": -77.0281371}, "nodes": [4308213189, 4308213190, 4308213191, 4308213193, 4308213194, 4308213195, 4308213189], "tags": {"addr:city": "Miraflores", "addr:housenumber": "261", "addr:postcode": "15046", "addr:street": "Avenida Angamos Este", "amenity": "hospital", "building": "yes", "emergency": "yes", "healthcare": "hospital", "healthcare:speciality": "general", "name": "Hospital III Suarez Angamos", "name:es": "Hospital Nivel III Suarez Angamos", "operator": "ESSALUD", "phone": "+511 2412154", "source": "http://www.essalud.gob.pe/nuestras-redes-asistenciales/miraflores/", "source_1": "Reconocimiento cartogr\u00e1fico de campo 2016 por KG"}}, {"type": "way", "id": 431593693, "center": {"lat": -12.1038117, "lon": -77.029928}, "nodes": [4308224025, 4308224026, 4308224027, 4308224028, 11108799126, 11108799122, 4308224025], "tags": {"addr:city": "Miraflores", "addr:postcode": "15046", "addr:state": "Lima", "addr:street": "Avenida Andr\u00e9s Arambur\u00fa", "amenity": "hospital", "healthcare": "hospital", "name": "Hospital Central FAP", "operator": "Sanidad de la Fuerza Aerea del Peru", "phone": "+511 5134300", "ref:category": "III-1"}}, {"type": "way", "id": 433817288, "center": {"lat": -12.0587576, "lon": -77.089862}, "nodes": [1458234248, 1458234246, 4206246805, 4206246807, 4206246808, 4206246809, 4206246810, 4206246813, 4206246814, 4234968742, 8871157759, 4234968744, 8871157760, 4206246815, 4234968746, 4234968750, 8871157762, 8871157761, 4234968749, 10172426296, 4234968752, 10172428524, 4206246816, 10172426300, 10172426303, 10172426302, 10172426301, 10171478298, 9089574650, 9085708081, 1458234349, 1458234352, 1458234278, 3247216683, 1458234270, 1458234275, 11159365934, 1458234248], "tags": {"addr:city": "Bellavista", "addr:housenumber": "3400", "addr:street": "Avenida Rep\u00fablica de Venezuela", "amenity": "hospital", "emergency": "yes", "loc_name": "Hospital Naval", "name": "Hospital Centro M\u00e9dico Naval", "official_name": "Centro m\u00e9dico naval cirujano Mayor Santiago T\u00e1vara", "operator": "Marina de Guerra del Per\u00fa", "phone": "+51 1 2071600", "short_name": "CEMENA", "website": "https://www.disamar.mil.pe/"}}, {"type": "way", "id": 435365523, "center": {"lat": -11.895985, "lon": -77.0434628}, "nodes": [4332829594, 4332829595, 4332829596, 4332829597, 4332829594], "tags": {"addr:city": "Comas", "addr:housename": "Posta M\u00e9dica Los Geranios", "addr:postcode": "15316", "addr:street": "Mariano Condorcanqui", "amenity": "hospital", "building": "yes", "name": "Posta M\u00e9dica Los Geranios", "source": "Reconocimiento cartogr\u00e1fico por KG 2016."}}, {"type": "way", "id": 435485146, "center": {"lat": -12.0588893, "lon": -77.0310513}, "nodes": [4333998757, 4333998758, 4333998759, 4333998760, 4333998761, 4333998762, 4333998763, 4333998770, 4333998764, 4333998769, 4333998765, 4333998766, 4333998767, 4333998768, 4333998757], "tags": {"addr:city": "La Victoria", "addr:housenumber": "351", "addr:street": "Avenida Almirante Miguel Grau", "amenity": "hospital", "building": "yes", "emergency": "yes", "healthcare": "hospital", "healthcare:speciality": "emergency", "name": "Hospital de Emergencias Grau", "operator": "EsSalud", "operator:type": "public", "phone": "+511 4282327", "ref:category": "II-2", "ref:microred": "0", "ref:red": "0"}}, {"type": "way", "id": 435520977, "center": {"lat": -11.8724109, "lon": -77.1256845}, "nodes": [4334291503, 4341896526, 4334291504, 4334291505, 4334291506, 4334291507, 4334291503], "tags": {"addr:city": "Ventanilla", "addr:street": "Avenida Pedro Beltr\u00e1n", "amenity": "hospital", "name": "Hospital de Ventanilla", "operator": "Gobierno Regional", "ref:category": "II-1", "ref:microred": "0", "ref:red": "3"}}, {"type": "way", "id": 435723274, "center": {"lat": -16.3952064, "lon": -71.5234949}, "nodes": [4336244255, 4336244257, 4336244258, 4336244259, 4336244260, 914162120, 4336244261, 4336244264, 4336244255], "tags": {"addr:housenumber": "1216", "addr:street": "Avenida San Martin", "amenity": "hospital", "building": "yes", "building:levels": "6", "healthcare": "hospital", "height": "18", "name": "Hospital Miraflores 3", "operator": "Gobierno Regional", "phone": "+51 54 214318", "ref:category": "I-3", "ref:microred": "16", "ref:red": "3"}}, {"type": "way", "id": 436277181, "center": {"lat": -12.2194439, "lon": -76.9459172}, "nodes": [4341501497, 4341501498, 6631748646, 6631748647, 4341501499, 4341501500, 4341501497], "tags": {"addr:city": "Villa El Salvador", "addr:street": "Avenida C\u00e9sar Vallejo", "amenity": "hospital", "healthcare": "hospital", "healthcare:speciality": "maternity", "name": "Centro Materno Infantil Juan Pablo II", "opening_hours": "24/7", "operator": "Ministerio de Salud", "operator:type": "public", "phone": "+511 2879952", "ref:category": "I-4", "ref:microred": "2", "ref:red": "3", "source": "Bing", "wheelchair": "yes"}}, {"type": "way", "id": 436278843, "center": {"lat": -12.0840314, "lon": -77.0395119}, "nodes": [4341516028, 4341516029, 4341516030, 4341516031, 4341516028], "tags": {"addr:city": "Lince", "addr:housenumber": "550", "addr:street": "Avenida General C\u00e9sar Canevaro", "amenity": "hospital", "building": "yes", "building:levels": "5", "healthcare": "hospital", "healthcare:speciality": "general", "name": "SISOL Salud Lince", "old_name": "Hospital de la Solidaridad Lince", "opening_hours": "07:00-18:00", "operator": "Municipalidad Metropolitana de Lima", "phone": "+511 472 6755", "website": "http://www.sisol.gob.pe/", "wheelchair": "yes"}}, {"type": "way", "id": 436736892, "center": {"lat": -12.0588438, "lon": -77.1047898}, "nodes": [4346125566, 4346125567, 4346125568, 4346125569, 4346125570, 4346125571, 4346125572, 4346125573, 4346125566], "tags": {"amenity": "hospital", "building": "yes", "name": "Centro de Salud Municipal Bellavista", "source": "Reconocimiento cartogr\u00e1fico por KG 2016"}}, {"type": "way", "id": 437364307, "center": {"lat": -11.9864097, "lon": -77.0080741}, "nodes": [4351723158, 4351723162, 4351723159, 4351723160, 4351723161, 9322774072, 4351723158], "tags": {"amenity": "hospital", "building": "yes", "building:levels": "6", "healthcare": "hospital", "name": "Clinica Limatambo", "source": "Reconocimiento cartogr\u00e1fico por KG 2016."}}, {"type": "way", "id": 437496535, "center": {"lat": -12.0609171, "lon": -77.0299386}, "nodes": [4353121074, 4353121075, 4353121076, 4353121077, 4353121078, 4353121079, 4353121074], "tags": {"addr:city": "La Victoria", "addr:full": "Calle Manco C\u00e1pac 218, La Victoria", "addr:housenumber": "218", "addr:street": "Avenida Manco C\u00e1pac", "amenity": "hospital", "building": "yes", "building:levels": "5", "healthcare": "hospital", "healthcare:speciality": "general", "name": "SISOL Salud La Victoria", "old_name": "Hospital de la Solidaridad La Victoria", "opening_hours": "Mo-Sa 08:00-18:00", "operator": "Municipalidad Metropolitana de Lima", "phone": "+511 272 9421", "website": "http://www.sisol.gob.pe/", "wheelchair": "yes"}}, {"type": "way", "id": 437642241, "center": {"lat": -12.1636356, "lon": -76.9697512}, "nodes": [4354321812, 4354321813, 4931670836, 4354321814, 4354321815, 4931670851, 4354321821, 4354321820, 4931670835, 4354321812], "tags": {"addr:city": "San Juan de Miraflores", "addr:street": "Avenida C\u00e9sar Canevaro", "amenity": "hospital", "name": "Centro de Atencion Primaria Essalud", "operator": "Essalud", "phone": "+511 2760812", "ref:category": "I-3", "ref:microred": "0", "ref:red": "0"}}, {"type": "way", "id": 437683615, "center": {"lat": -12.1716877, "lon": -76.9455733}, "nodes": [4354760514, 6507230830, 6507230831, 6507230832, 4354760515, 6571300911, 4354760516, 4354760517, 4354760518, 6507230878, 6507230877, 4354760519, 6507230880, 6507230879, 6507230881, 4354760520, 6507230882, 6507230833, 6507230834, 6507230835, 4354760514], "tags": {"addr:city": "Villa Mar\u00eda del Triunfo", "addr:full": "Av. Salvador Allende Cdra. 16", "addr:street": "Avenida Nicol\u00e1s de Pi\u00e9rola", "amenity": "hospital", "healthcare": "hospital", "healthcare:speciality": "general", "name": "SISOL Salud Villa Mar\u00eda del Triunfo", "old_name": "Hospital de La Solidaridad Villa Mar\u00eda del Triunfo", "opening_hours": "Mo-Sa 07:00-19:00", "operator": "Municipalidad Metropolitana de Lima", "operator:type": "public", "phone": "+511 2960128", "website": "http://www.sisol.gob.pe/", "wheelchair": "yes"}}, {"type": "way", "id": 438039050, "center": {"lat": -12.0306442, "lon": -77.090178}, "nodes": [4358083370, 4358083371, 4358083379, 4358083376, 4358083377, 4358083378, 1904507931, 4358083370], "tags": {"addr:city": "San Mart\u00edn de Porres", "addr:housenumber": "3811", "addr:street": "Avenida Per\u00fa", "amenity": "hospital", "building": "yes", "name": "Hospital de la Solidaridad", "opening_hours": "Mo-Su 08:00-20:00", "phone": "+51 1 5721123", "source": "Reconocimiento terrestre cartogr\u00e1fico realizado por Kaart en 2016", "toilets:wheelchair": "no", "website": "http://www.sisol.gob.pe", "wheelchair": "limited", "wheelchair:description": "Hay ascensor pero no llega a todos los pisos. Hay puertas demasiado estrechas en algunos consultorios. No dan atenci\u00f3n preferencial y cuando la pides te dan mal trato."}}, {"type": "way", "id": 438467230, "center": {"lat": -12.0206015, "lon": -77.0565104}, "nodes": [4362122391, 4362122392, 8814622036, 9852005992, 8814622067, 11118007048, 4362122393, 4362122394, 4362122395, 4362122396, 4362122398, 4362122397, 4362122391], "tags": {"addr:city": "San Mart\u00edn de Porres", "addr:full": "Jir\u00f3n Eloy Espinoza Salda\u00f1a 709 - Urb. Palao", "amenity": "hospital", "name": "Instituto Nacional Honorio Delgado - Hideyo Noguchi", "operator": "Minsa", "phone": "+511 6149200", "ref:category": "III-2", "ref:microred": "0", "ref:red": "0", "source": "Reconocimiento cartogr\u00e1fico por KG 2016."}}, {"type": "way", "id": 439241364, "center": {"lat": -12.0131949, "lon": -77.0516846}, "nodes": [6570426292, 6570426291, 6570426290, 4368728263, 4368728264, 9984659994, 4368728267, 6570426292], "tags": {"addr:district": "R\u00edmac", "addr:street": "Avenida T\u00fapac Amaru", "amenity": "hospital", "building": "roof", "building:levels": "1", "healthcare": "hospital", "healthcare:speciality": "general", "name": "SISOL Salud Metro UNI", "old_name": "Hospital de la Solidaridad Metro UNI", "opening_hours": "Mo-Sa 07:00-19:30", "operator": "Municipalidad Metropolitana de Lima", "operator:wikidata": "Q12184118", "phone": "+51 1 5348556", "website": "http://www.sisol.gob.pe/", "wheelchair": "yes"}}, {"type": "way", "id": 439627528, "center": {"lat": -12.0155894, "lon": -77.0978726}, "nodes": [4373032355, 4373032356, 4373032357, 4635968416, 4373032358, 4373032355], "tags": {"addr:city": "Callao", "addr:housenumber": "3535", "addr:postcode": "07036", "addr:street": "Avenida Tom\u00e1s Valle", "alt_name": "Policl\u00ednico Luis Negreiros Vega", "amenity": "hospital", "emergency": "yes", "name": "Hospital Luis Negreiros Vega", "phone": "+51 1 5747024", "website": "http://www.essalud.gob.pe/nuestras-redes-asistenciales/callao/"}}, {"type": "way", "id": 439895202, "center": {"lat": -12.0199254, "lon": -77.1025594}, "nodes": [4375721699, 4375721700, 4375721701, 4375721702, 4375721699], "tags": {"addr:street": "Avenida Tomas Valle", "amenity": "hospital", "healthcare": "hospital", "name": "Hospital Chalaco", "phone": "+51 1 7861109", "website": "http://www.municallao.gob.pe/index.php/hospital-chalaco"}}, {"type": "way", "id": 441483630, "center": {"lat": -14.5306142, "lon": -75.183868}, "nodes": [4392269313, 4392269316, 4392269314, 7078052553, 7078052554, 4392269315, 4392269313], "tags": {"addr:street": "Avenida Independencia", "amenity": "hospital", "name": "Hospital de apoyo de Palpa", "operator": "Gobierno Regional", "phone": "+51 56 404053", "ref:category": "I-4", "ref:microred": "7", "ref:red": "1"}}, {"type": "way", "id": 442795790, "center": {"lat": -12.182453, "lon": -77.0165561}, "nodes": [4404533836, 4404533837, 4404533838, 4404533839, 4404533840, 4404533841, 4404533842, 4404533843, 4404533844, 4404533845, 4404533846, 4404533847, 4404533848, 4404533849, 4404533850, 4404533851, 4404533852, 4404533853, 4404533854, 4404533855, 4404533889, 4404533890, 4404533891, 4404533892, 4404533893, 4404533894, 4404533856, 4404533857, 4404533858, 4404533859, 4404533860, 4404533861, 4404533862, 4404533876, 4404533875, 4404533863, 4404533874, 4404533873, 4404533872, 4404533870, 4404533871, 4404533869, 4404533868, 4404533867, 4404533866, 4404533864, 4404533865, 4404533836], "tags": {"addr:city": "Chorrillos", "addr:housenumber": "2268", "addr:postcode": "15066", "addr:state": "Lima", "addr:street": "Avenida Defensores del Morro", "amenity": "hospital", "barrier": "wall", "description": "Sede Chorrillos", "name": "Instituto Nacional de Salud", "opening_hours": "Mo-Fr 08:00-16:15", "operator": "Ministerio de Salud", "phone": "+51 1 7480000", "website": "http://www.portal.ins.gob.pe/es/"}}, {"type": "way", "id": 443219319, "center": {"lat": -16.3809835, "lon": -71.518874}, "nodes": [4408379840, 4408379842, 4408379841, 4408379839, 4408379840], "tags": {"amenity": "hospital", "name": "Posta M\u00e9dica"}}, {"type": "way", "id": 444455958, "center": {"lat": -12.1247843, "lon": -76.4197434}, "nodes": [4419356894, 4419356895, 4419356896, 4419356897, 4419356898, 4419356894], "tags": {"addr:city": "Langa", "addr:street": "Jir\u00f3n Nicanor Mujica", "amenity": "hospital", "healthcare": "hospital", "healthcare:speciality": "general", "name": "Centro de Salud Langa", "operator": "Gobierno Regional", "operator:type": "public", "phone": "+511 3559720", "ref:category": "I-3", "ref:microred": "2", "ref:red": "9"}}, {"type": "way", "id": 445362405, "center": {"lat": -12.6180404, "lon": -72.4417197}, "nodes": [4428052955, 4428052956, 4428052957, 4428052958, 4428052959, 4428052960, 4428052955], "tags": {"addr:full": "Localidad Puente Santiago", "amenity": "hospital", "name": "Centro de Salud", "operator": "Gobierno Regional", "phone": "+51 84 237953", "ref:category": "I-2", "ref:microred": "8", "ref:red": "2"}}, {"type": "way", "id": 445502597, "center": {"lat": -12.1087954, "lon": -77.0120165}, "nodes": [4429215385, 7513518988, 4429215386, 4429215387, 4429215388, 7513518989, 4429215385], "tags": {"addr:city": "Surquillo", "addr:street": "Martin Luther King", "amenity": "hospital", "building": "hospital", "building:levels": "3", "height": "8.75", "name": "Centro de Salud Villa Victoria", "website": "https://www.rslc.gob.pe/web/establecimientos-m4/53-c-s-v-victoria-porvenir"}}, {"type": "way", "id": 445591751, "center": {"lat": -13.5382528, "lon": -71.9113111}, "nodes": [4429994182, 4429994183, 4429994184, 4429994185, 4429994182], "tags": {"amenity": "hospital", "name": "Hospital T\u00fapac Amaru", "operator": "Gobierno Regional", "phone": "+51 84 274540", "ref:category": "I-3", "ref:microred": "16", "ref:red": "1"}}, {"type": "way", "id": 445599680, "center": {"lat": -12.2103662, "lon": -76.8770023}, "nodes": [4430055826, 4430055827, 4430055828, 4430055829, 4430055826], "tags": {"addr:street": "Avenida Roque Saenz Pe\u00f1a", "amenity": "hospital", "name": "Puesto de Salud Quebrada Verde", "operator": "Minsa", "phone": "+511 2311006", "ref:category": "I-2", "ref:microred": "6", "ref:red": "3"}}, {"type": "way", "id": 446209514, "center": {"lat": -12.017682, "lon": -77.0785575}, "nodes": [4435428419, 4435428420, 4435428421, 4435428422, 4435428419], "tags": {"addr:full": "Jir\u00f3n Fermin Nacario N\u00b0 112 - Coop. Amakella 2da. Etapa", "amenity": "hospital", "healthcare": "hospital", "name": "Ama Kella II", "operator": "Ministerio de Salud", "operator:short": "MINSA", "operator:wikidata": "Q3065012", "operator:wikipedia": "en:Ministry of Health (Peru)", "phone": "+511 5680518", "ref:category": "I-3", "ref:microred": "2", "ref:red": "25"}}, {"type": "way", "id": 446549659, "center": {"lat": -12.0618131, "lon": -77.1068552}, "nodes": [4437961672, 4437961673, 4437961674, 4437961675, 4437961672], "tags": {"addr:city": "Bellavista", "addr:street": "Calle 49", "amenity": "hospital", "emergency": "yes", "name": "Centro de Salud Per\u00fa-Korea Bellavista", "phone": "+51 996207960", "ref:category": "I-4", "ref:microred": "4", "ref:red": "2"}}, {"type": "way", "id": 447913444, "center": {"lat": -13.5250556, "lon": -71.9787752}, "nodes": [4449707922, 4449707923, 4449707924, 4449707927, 4449707926, 4449707925, 4449707922], "tags": {"addr:street": "Avenida 21 de Mayo", "amenity": "hospital", "name": "Centro de Salud Belempampa", "operator": "Gobierno Regional", "phone": "+51 84 223054", "ref:category": "I-4", "ref:microred": "1", "ref:red": "2"}}, {"type": "way", "id": 450034934, "center": {"lat": -11.4698894, "lon": -76.6234035}, "nodes": [4469539587, 4469539588, 6933371660, 6933371661, 4469542189, 6933371659, 4469542190, 4469539587], "tags": {"addr:street": "Avenida Nueva", "amenity": "hospital", "healthcare": "hospital", "name": "Centro de Salud Base Canta", "operator": "Gobierno Regional", "phone": "+51 01 5065978", "ref:category": "I-3", "ref:microred": "2", "ref:red": "10"}}, {"type": "way", "id": 450128393, "center": {"lat": -12.0785806, "lon": -77.0371483}, "nodes": [4470495656, 4470495657, 4470495658, 4470495659, 4470495656], "tags": {"addr:city": "Jes\u00fas Mar\u00eda", "addr:housenumber": "1402", "addr:street": "Avenida \u00c1lvarez de Arenales", "amenity": "hospital", "healthcare": "hospital", "healthcare:speciality": "general", "name": "Complejo Hospitalario Arenales", "operator": "EsSalud", "operator:type": "private"}}, {"type": "way", "id": 450522515, "center": {"lat": -14.0569475, "lon": -75.7299647}, "nodes": [4474482964, 5037599392, 4474482954, 4474482951, 4474482946, 4474482943, 4474482939, 4474482938, 4474482948, 4474482949, 4474482953, 4474482956, 4474482960, 9842945269, 4474482964], "tags": {"addr:housenumber": "759", "addr:street": "Castrovirreyna", "amenity": "hospital", "emergency": "yes", "fax": "+51 56 233112", "healthcare": "hospital", "name": "Hospital Santa Mar\u00eda del Socorro", "operator": "MINSA", "operator:type": "government", "pe:minsa:categoria": "II-1", "pe:minsa:codigo": "3359", "phone": "+51 56 233631", "source": "Kaart Ground Survey 2017"}}, {"type": "way", "id": 452575581, "center": {"lat": -14.0693118, "lon": -75.7382842}, "nodes": [4493524413, 4493524412, 4493524411, 9851915149, 7176663440, 4493524410, 4493524409, 4493524408, 7176663439, 9851915157, 9851915150, 9851915160, 4493524413], "tags": {"addr:street": "Avenida Los Maestros", "alt_name": "CAM Ica", "amenity": "hospital", "healthcare": "hospital", "name": "Centro del Adulto Mayor Ica", "operator": "EsSalud", "source": "Kaart Ground Survey 2017"}}, {"type": "way", "id": 454042434, "center": {"lat": -13.6839988, "lon": -76.157517}, "nodes": [4506802555, 4506802556, 4506802557, 4506802558, 4506802559, 4506802560, 8197758863, 4506804388, 4506802555], "tags": {"amenity": "hospital", "building": "yes"}}, {"type": "way", "id": 454698428, "center": {"lat": -12.0286812, "lon": -76.9047969}, "nodes": [4512335007, 4512335008, 4512335009, 4512335010, 4512335011, 4512335042, 4512335012, 4512335007], "tags": {"amenity": "hospital", "name": "Policlinico", "name:es": "Policlinico"}}, {"type": "way", "id": 456121389, "center": {"lat": -12.0411843, "lon": -76.9689242}, "nodes": [4523984223, 4523984224, 4523984225, 4523984226, 4523984227, 4523984228, 4523984223], "tags": {"addr:street": "Calle los Mochicas", "amenity": "hospital", "name": "Centro Materno Infantil Santa Anita", "operator": "Minsa", "ref:category": "I-4", "ref:microred": "2", "ref:red": "1"}}, {"type": "way", "id": 459652133, "center": {"lat": -11.157973, "lon": -75.9980508}, "nodes": [4554494171, 1884944120, 4554494170, 4554494169, 4554494171], "tags": {"addr:housenumber": "650", "addr:street": "Saenz Pe\u00f1a", "amenity": "hospital", "emergency": "yes", "fax": "+51 64 344033", "name": "Hospital de apoyo de Junin", "phone": "+51 64 344033", "ref:category": "II-1", "ref:microred": "0", "ref:red": "6", "source": "www.minsa.gob.pe"}}, {"type": "way", "id": 465231306, "center": {"lat": -11.7744951, "lon": -77.1727932}, "nodes": [4602246607, 4602246608, 4602246609, 4602246610, 4602246611, 4602246612, 4602246607], "tags": {"addr:city": "Lima", "addr:district": "Anc\u00f3n", "addr:housenumber": "595", "addr:postcode": "15123", "addr:street": "Jir\u00f3n Loa", "amenity": "hospital", "building": "yes", "healthcare": "hospital", "healthcare:speciality": "general", "name": "Centro de Salud Materno Infantil Anc\u00f3n", "opening_hours": "24/7", "operator": "Minsa", "operator:type": "government", "phone": "+51 1 5521713;+51 1 5245141", "ref:category": "I-4", "ref:microred": "2", "ref:red": "26"}}, {"type": "way", "id": 465561830, "center": {"lat": -11.8690825, "lon": -77.0711593}, "nodes": [4605138590, 4605138591, 4605138592, 5056593308, 5056593307, 4605138590], "tags": {"addr:city": "Puente Piedra", "addr:full": "Panamericana Norte Km. 30, Puente Piedra", "addr:street": "Panamericana Norte", "amenity": "hospital", "building": "roof", "building:levels": "1", "healthcare": "hospital", "healthcare:speciality": "general", "name": "SISOL Salud Puente Piedra", "old_name": "Hospital de la Solidaridad Puente Piedra", "opening_hours": "Mo-Sa 07:00-19:00", "operator": "Municipalidad Metropolitana de Lima", "phone": "+511 548 0573", "website": "http://www.sisol.gob.pe/", "wheelchair": "yes"}}, {"type": "way", "id": 466945961, "center": {"lat": -13.5181242, "lon": -73.7177822}, "nodes": [4616431844, 4616431843, 4616431842, 4616431841, 4616431840, 4616431839, 4616431838, 4616431837, 4616431836, 4616431835, 4616431834, 4616431833, 4616431832, 4616431831, 4616431830, 4616431829, 4616431844], "tags": {"addr:street": "Avenida Fernando B. Terry", "amenity": "hospital", "name": "Hostipal Zonal de Chincheros", "operator": "Gobierno Regional", "phone": "+51 83 835026", "ref:category": "II-1", "ref:microred": "1", "ref:red": "4"}}, {"type": "way", "id": 467541142, "center": {"lat": -12.0259705, "lon": -76.9173553}, "nodes": [4376589172, 4621488259, 7306560246, 7306560247, 4621488260, 4376589173, 4376589172], "tags": {"amenity": "hospital", "emergency": "yes", "name": "Hospital de Lima Este - Vitarte"}}, {"type": "way", "id": 467541158, "center": {"lat": -12.0270597, "lon": -76.9237198}, "nodes": [4621488706, 4621488707, 4621488708, 4621488715, 5058947379, 4621488711, 4621488706], "tags": {"addr:housenumber": "265", "addr:street": "Jir\u00f3n San Mart\u00edn de Porres", "amenity": "hospital", "healthcare": "hospital", "name": "Hospital Essalud II Vitarte", "phone": "+51 4942983;+51 1 4942999", "ref": "00008353", "ref:category": "II-1"}}, {"type": "way", "id": 467663653, "center": {"lat": -13.6573191, "lon": -73.4124155}, "nodes": [4622688041, 4622688040, 4622688039, 4622688038, 4622688037, 4622688036, 4622688035, 4622688034, 4622688041], "tags": {"addr:housenumber": "740", "addr:street": "Avenida Ayacucho", "amenity": "hospital", "name": "Hospital I Santa Margarita", "operator": "Essalud", "phone": "+51 83 421233", "ref": "00011214", "ref:category": "II-1"}}, {"type": "way", "id": 468780933, "center": {"lat": -11.886505, "lon": -77.124386}, "nodes": [4632492377, 4632492378, 4632492379, 4632492380, 4632492381, 4632492377], "tags": {"addr:full": "Avenida Gonzales Ganoza - Urbanizaci\u00f3n Antonio Moreno de Caceres", "amenity": "hospital", "name": "Policlinico Hna. Mar\u00eda Donrose Sutmoller", "operator": "Essalud", "phone": "+511 5534245", "ref:category": "I-3", "ref:microred": "0", "ref:red": "0"}}, {"type": "way", "id": 476226205, "center": {"lat": -12.0574631, "lon": -77.0339022}, "nodes": [4698546701, 4698546702, 4698546703, 4137699180, 4698546704, 4698546705, 4338630183, 4338630298, 4338630299, 4338630296, 4338630297, 4698546706, 4698546701], "tags": {"amenity": "hospital", "emergency": "yes", "name": "Cl\u00ednica Maison de Sante"}}, {"type": "way", "id": 483500696, "center": {"lat": -11.9868928, "lon": -76.8137426}, "nodes": [4762470518, 4762470519, 4762470520, 4762470721, 4762470518], "tags": {"addr:street": "Carretera Central Kilometro 19.5, Coop.Viv. Miguel Grau", "amenity": "hospital", "name": "Centro Materno Infantil Miguel Grau", "operator": "Minsa", "phone": "+51 01 3593231; +51 01 3590331", "ref:category": "I-4", "ref:microred": "7", "ref:red": "1"}}, {"type": "way", "id": 485244256, "center": {"lat": -12.0497716, "lon": -77.0418067}, "nodes": [4780235010, 4780235011, 4780235012, 4780235013, 8837449179, 8837449180, 11117917931, 8837449181, 8837449182, 4780235014, 4780235015, 4780235016, 4780235017, 4780235018, 4780235010], "tags": {"addr:city": "Cercado de Lima", "addr:housenumber": "825", "addr:street": "Avenida Alfonso Ugarte", "amenity": "hospital", "emergency": "yes", "fax": "+51 1 4315131", "name": "Hospital Nacional Docente Madre Ni\u00f1o San Bartolome", "phone": "+51 1 2010400", "source": "www.minsa.gob.pe", "website": "http://www.sanbartolome.gob.pe/"}}, {"type": "way", "id": 485409220, "center": {"lat": -12.0584042, "lon": -77.0214361}, "nodes": [4781789606, 4781789607, 4781789608, 4781789609, 4781789610, 4781789611, 4781789612, 4781789613, 4781789614, 4781789615, 4781789606], "tags": {"addr:city": "La Victoria", "addr:housenumber": "854", "addr:street": "Avenida Almirante Miguel Grau", "amenity": "hospital", "emergency": "yes", "fax": "+51 1 4749810;+51 1 4749808", "name": "Hospital Especializado de Emergencias Pediatricas", "phone": "+51 1 2158838;+51 1 3237464", "source": "www.minsa.gob.pe", "website": "http://www.hep.gob.pe"}}, {"type": "way", "id": 486721508, "center": {"lat": -10.2545133, "lon": -76.6828758}, "nodes": [4792881060, 4792881061, 4792881062, 4792881063, 4792881060], "tags": {"amenity": "hospital", "building": "yes", "name": "Puesto de salud Antacolpa", "name:es": "Puesto de salud Antacolpa", "opening_hours": "Mo-Su 08:00-17:00"}}, {"type": "way", "id": 488349698, "center": {"lat": -16.3254851, "lon": -71.5941442}, "nodes": [4806628764, 4806628765, 4806628766, 4806628767, 4806628764], "tags": {"addr:street": "Ciudad Municipal Zona \"1\", \"Lt. 03\"", "amenity": "hospital", "name": "Puesto de Salud \"Ciudad Municipal\"", "operator": "Gobierno Regional", "phone": "+51 54 415181", "ref:category": "I-2", "ref:microred": "9", "ref:red": "3"}}, {"type": "way", "id": 497505628, "center": {"lat": -13.0750193, "lon": -76.380169}, "nodes": [4890638803, 4890638804, 4890638805, 4890638806, 4890638807, 4890638808, 4890638803], "tags": {"addr:housenumber": "495", "addr:street": "Avenida Mariscal Benavides", "amenity": "hospital", "name": "Essalud Ca\u00f1ete", "operator": "Essalud", "phone": "+511 5812047", "ref:category": "II-1", "ref:microred": "0", "ref:red": "0"}}, {"type": "way", "id": 505922625, "center": {"lat": -13.0928119, "lon": -76.3222561}, "nodes": [4957449558, 4957449559, 4957449560, 4957449561, 4957449558], "tags": {"addr:street": "Avenida Bolognesi", "amenity": "hospital", "name": "Puesto de Salud Santa Mar\u00eda Alta", "operator": "Gobierno Regional", "phone": "+51 999573156", "ref:category": "I-2", "ref:microred": "2", "ref:red": "7"}}, {"type": "way", "id": 505973011, "center": {"lat": -16.4150482, "lon": -71.50066}, "nodes": [4957836104, 4957836105, 4957836106, 4957836107, 4957836108, 4957836109, 4957836110, 4957836104], "tags": {"addr:city": "Paucarpata", "addr:street": "Tupac Amaru", "amenity": "hospital", "name": "Centro m\u00e9dico Pedro P. D\u00edaz", "operator": "UNSA"}}, {"type": "way", "id": 506581724, "center": {"lat": -13.2436573, "lon": -76.1611013}, "nodes": [4962902809, 4962902810, 4962902811, 4962902812, 4962902809], "tags": {"addr:full": "Caserio de Topara", "amenity": "hospital", "building": "house", "name": "Puesto de Salud Topara", "operator": "Gobierno Regional", "ref:category": "I-2", "ref:microred": "1", "ref:red": "2"}}, {"type": "way", "id": 506844765, "center": {"lat": -12.327004, "lon": -76.2786209}, "nodes": [4964967332, 4964967333, 4964967334, 4964967335, 4964967332], "tags": {"amenity": "hospital", "building": "yes", "name": "Puesto de Salud San Juan de Viscas", "operator": "Gobierno Regional", "phone": "+511 5308188", "ref:category": "I-1", "ref:microred": "3", "ref:red": "8"}}, {"type": "way", "id": 506873122, "center": {"lat": -12.7807699, "lon": -76.5559765}, "nodes": [4965156176, 4965156177, 4965156178, 4965156179, 4965156180, 4965156181, 4965156182, 4965156183, 4965156184, 4965156185, 4965156186, 4965156187, 4965156176], "tags": {"addr:city": "Asia", "addr:street": "Avenida Lima", "amenity": "hospital", "name": "Centro de Salud Capilla de Asia", "operator": "Gobierno Regional", "phone": "+51 996504915", "ref:category": "I-3", "ref:microred": "1", "ref:red": "8"}}, {"type": "way", "id": 507120860, "center": {"lat": -12.9983002, "lon": -76.3374518}, "nodes": [4967068585, 4967068586, 4967068587, 4967068588, 4967068589, 4967068590, 4967068585], "tags": {"amenity": "hospital", "building": "house", "name": "CCAPS Bellavista"}}, {"type": "way", "id": 507123717, "center": {"lat": -13.0163162, "lon": -76.3382151}, "nodes": [4967085330, 4967085331, 4967085332, 4967085333, 4967085330], "tags": {"addr:street": "Avenida 2 de Mayo", "amenity": "hospital", "name": "Puesto de Salud Pueblo Nuevo de Conta", "operator": "Gobierno Regional", "phone": "+51 975495768", "ref:category": "I-2", "ref:microred": "2", "ref:red": "7"}}, {"type": "way", "id": 507127478, "center": {"lat": -13.0331788, "lon": -76.3324439}, "nodes": [4967115211, 4967115212, 4967115213, 4967115214, 4967115211], "tags": {"amenity": "hospital", "name": "Puesto de Salud Carmen Alto", "operator": "Gobierno Regional", "phone": "+51 986961075", "ref:category": "I-2", "ref:microred": "2", "ref:red": "7"}}, {"type": "way", "id": 512874582, "center": {"lat": -13.5852921, "lon": -73.837761}, "nodes": [5014513988, 5014513989, 5014513990, 5014513991, 5014513988], "tags": {"amenity": "hospital", "name": "Centro de Salud"}}, {"type": "way", "id": 514906514, "center": {"lat": -13.7183358, "lon": -76.1967652}, "nodes": [5029592155, 5029592156, 5029592157, 5029592158, 5029592159, 5029592155], "tags": {"addr:city": "Pisco", "addr:street": "Avenida Las Am\u00e9ricas", "amenity": "hospital", "name": "Hospital de Pisco", "source": "Kaart Ground Survey 2017"}}, {"type": "way", "id": 515668181, "center": {"lat": -12.0631631, "lon": -75.2192463}, "nodes": [5035507650, 5035507649, 5035507648, 5035507647, 5035507650], "tags": {"addr:housenumber": "745", "addr:street": "Huancavelica", "amenity": "hospital", "building": "yes", "name": "Clinica Cayetano Heredia", "operator:type": "private", "phone": "+51 64-247087", "ref:category": "II-1", "ref:microred": "0", "ref:red": "0", "source": "Reconocimiento terrestre cartogr\u00e1fico realizado por Kaart en 2017."}}, {"type": "way", "id": 516268796, "center": {"lat": -11.6956985, "lon": -76.8461347}, "nodes": [5040173142, 5040173143, 5040173095, 5040173144, 5040173145, 5040173146, 5040173147, 5040173142], "tags": {"addr:full": "Calle San Martelo - Centro Poblado Yangas", "amenity": "hospital", "name": "Centro de Salud Yangas", "operator": "Gobierno Regional", "phone": "+511 2444034", "ref:category": "I-3", "ref:microred": "1", "ref:red": "10"}}, {"type": "way", "id": 516477398, "center": {"lat": -12.0730335, "lon": -75.2216759}, "nodes": [1049878111, 9360118437, 9400479909, 9360118438, 11203849593, 5041772710, 11203827587, 5041772711, 11203827584, 11203827590, 5041772712, 5041772713, 11203827574, 11203827571, 11203827572, 1049877897, 5362544619, 11203849578, 5041772714, 5041772715, 5362545024, 5362545023, 5362545022, 5041772716, 5362544618, 5362544617, 5362544616, 5362544615, 5362544614, 9360118436, 1049878111], "tags": {"addr:housenumber": "1552-1556", "addr:street": "Daniel Alcides Carrion", "amenity": "hospital", "healthcare": "hospital", "name": "Hospital Daniel Alcides Carri\u00f3n", "operator": "MINSA", "pe:minsa:categoria": "III-E", "pe:minsa:codigo": "00000753", "phone": "+51 64 232222", "source": "www.minsa.gob.pe"}}, {"type": "way", "id": 517495828, "center": {"lat": -12.0454468, "lon": -76.9472387}, "nodes": [5049950885, 5049950886, 5049950887, 5049950888, 5049950889, 5049950890, 5049950891, 5049950892, 10254962939, 5049950893, 5049950894, 5049950895, 5049950896, 5049950897, 5049950898, 4529057351, 4529057352, 4529057353, 4529057354, 4529057355, 4529057356, 5049950904, 5049950905, 5049951433, 5049951473, 5049951572, 5049950906, 5049950907, 11123951511, 5049950908, 5049950909, 5049950910, 5049950911, 5049950912, 5049950913, 5049950914, 5049950915, 5049950916, 5049950917, 5049950918, 5049950919, 5049950920, 5049951421, 5049951422, 5049951423, 5049951424, 5049951425, 5049951426, 5049951427, 5049951428, 5049951429, 5049951430, 5049951431, 5049950885], "tags": {"addr:city": "Santa Anita", "addr:full": "Carretera Central Kil\u00f3metro 3.5", "addr:state": "Lima", "alt_name": "Jorge Voto Bernales Corpancho", "amenity": "hospital", "barrier": "wall", "emergency": "yes", "healthcare": "hospital", "name": "Hospital Jorge Voto Bernales", "operator": "EsSalud", "operator:type": "public", "phone": "+51 1 3544747", "ref": "00008318", "ref:category": "II-1"}}, {"type": "way", "id": 519727315, "center": {"lat": -11.2356179, "lon": -77.3807422}, "nodes": [5067269267, 5067269271, 5067269272, 5067269273, 5067269268, 5067269267], "tags": {"amenity": "hospital", "building": "house", "name": "Posta M\u00e9dica La Villa"}}, {"type": "way", "id": 519727318, "center": {"lat": -11.2348804, "lon": -77.3814625}, "nodes": [5067269284, 5067269285, 5067269286, 5067269287, 5067269284], "tags": {"addr:full": "Centro Poblado la Villa", "amenity": "hospital", "building": "house", "name": "Puesto de Salud La Villa", "operator": "Gobierno Regional", "phone": "+511 2379050", "ref:category": "I-2", "ref:microred": "4", "ref:red": "2"}}, {"type": "way", "id": 519736752, "center": {"lat": -11.2170587, "lon": -77.4132174}, "nodes": [5067349152, 5067349153, 5067349154, 5067349155, 5067349152], "tags": {"addr:full": "Centro Poblado 9 de Octubre", "amenity": "hospital", "building": "house", "name": "Centro de Salud 9 de Octubre", "operator": "Gobierno Regional", "phone": "+511 2379026", "ref:category": "I-3", "ref:microred": "4", "ref:red": "2"}}, {"type": "way", "id": 519739683, "center": {"lat": -11.1930699, "lon": -77.4479035}, "nodes": [5067377768, 5067377769, 5067377770, 5067377771, 5067377768], "tags": {"amenity": "hospital", "building": "house", "name": "Puesto de Salud 9 de octubre"}}, {"type": "way", "id": 520372914, "center": {"lat": -11.4969447, "lon": -77.2104964}, "nodes": [5071995130, 5071995131, 5071995132, 5071995133, 5071995134, 5071995135, 5071995130], "tags": {"addr:housenumber": "281", "addr:street": "Avenida Chancay", "amenity": "hospital", "building": "yes", "name": "Ismael Guzman Valverde", "operator": "Gobierno Regional", "phone": "+51 1 3355976", "ref:category": "I-3", "ref:microred": "4", "ref:red": "3", "source": "Kaart Ground Survey 2017"}}, {"type": "way", "id": 523002549, "center": {"lat": -16.4172207, "lon": -71.5086614}, "nodes": [5092577534, 5092577535, 5092577536, 5092577537, 5092577534], "tags": {"addr:city": "Paucarpata", "addr:street": "Cayro", "amenity": "hospital", "emergency": "yes", "name": "Hospital Edmundo Escomel", "name:es": "Hospital Nivel I Edmundo Escomel", "operator": "Essalud", "phone": "+51 54 980430", "website": "http://www.essalud.gob.pe/hospital-edmundo-escomel-de-arequipa-celebro-su-xvii-aniversario/"}}, {"type": "way", "id": 523018490, "center": {"lat": -16.3809656, "lon": -71.5571392}, "nodes": [5092692272, 5092692273, 5092692274, 5092692275, 5092692272], "tags": {"addr:city": "Cerro Colorado", "addr:housenumber": "101", "addr:street": "Pumacahua", "amenity": "hospital", "emergency": "yes", "name": "Hospital geri\u00e1trico municipal", "operator": "Ministerio de Salud", "phone": "+51 54 608844", "website": "https://www.muniarequipa.gob.pe/index.php/hospital-geriatrico"}}, {"type": "way", "id": 525919060, "center": {"lat": -12.2434869, "lon": -76.8747684}, "nodes": [5115403846, 5115403847, 5115403848, 5115403849, 5115403846], "tags": {"addr:city": "Lur\u00edn", "addr:street": "Jir\u00f3n Hu\u00e1nuco", "amenity": "hospital", "name": "Centro de Salud Villa Libertad", "operator": "Ministerio de Salud", "phone": "+511 2311798", "ref:category": "I-2", "ref:microred": "6", "ref:red": "3"}}, {"type": "way", "id": 546452413, "center": {"lat": -13.5325457, "lon": -71.9035016}, "nodes": [7468310438, 5280892802, 5280892799, 5280892800, 5280892801, 7468310437, 7364582441, 7364582442, 7468310438], "tags": {"addr:city": "Cusco", "addr:full": "Urb. Larapa Grande C1-7B, Distrito de San Jer\u00f3nimo", "addr:street": "Avenida 6 Los Quisuares", "amenity": "hospital", "building": "yes", "building:levels": "6", "emergency": "yes", "healthcare": "hospital", "healthcare:speciality": "general", "name": "SISOL Salud Cusco", "old_name": "Hospital de la Solidaridad Cusco", "opening_hours": "Mo-Sa 08:00-20:00", "operator": "Municipalidad Metropolitana de Lima", "phone": "+51 84 276 494", "website": "http://www.sisol.gob.pe/", "wheelchair": "yes"}}, {"type": "way", "id": 553556140, "center": {"lat": -15.0131768, "lon": -73.7820728}, "nodes": [5343090404, 5343090403, 5343090402, 5343090401, 5343090400, 5343090399, 5343090398, 5343090397, 5343090404], "tags": {"addr:street": "Avenida Nello Catanzaro", "amenity": "hospital", "emergency": "yes", "fax": "+51 66 451269", "name": "Hospital de apoyo de Coracora", "operator": "MINSA", "pe:minsa:categoria": "II-1", "pe:minsa:codigo": "3523", "phone": "+51 66 451251", "source": "www.minsa.gob.pe"}}, {"type": "way", "id": 553868921, "center": {"lat": -17.0199671, "lon": -72.0150685}, "nodes": [5345937866, 5345937877, 5345937874, 5345937867, 5345937868, 5007998046, 5345937866], "tags": {"addr:street": "Calle Juan B. Arenas", "amenity": "hospital", "emergency": "yes", "healthcare": "hospital", "healthcare:speciality": "general", "name": "Hos\u00edtal II Manuel de Torres Nu\u00f1ez Mollendo", "operator": "EsSalud", "phone": "+51 54 532081", "ref:category": "II-1"}}, {"type": "way", "id": 554971747, "center": {"lat": -11.9751693, "lon": -77.0023163}, "nodes": [5355321071, 5355321072, 5355321073, 5355321074, 5355321071], "tags": {"addr:district": "San Juan de Lurigancho", "addr:street": "Las Camelias", "amenity": "hospital", "building": "yes", "healthcare": "hospital", "name": "Hospital Municipal de San Juan de Lurigancho", "name:es": "Hospital Municipal de San Juan de Lurigancho"}}, {"type": "way", "id": 555863249, "center": {"lat": -12.0702576, "lon": -75.2141669}, "nodes": [5362545029, 5362545028, 5362545027, 5362545026, 5362545025, 5362545029], "tags": {"addr:housenumber": "951", "addr:street": "Puno", "amenity": "hospital", "emergency": "yes", "healthcare": "hospital", "healthcare:speciality": "general", "name": "Hospital Regional Docente Materno Infantil \"El Carmen\"", "operator": "MINSA", "operator:type": "government", "pe:minsa:categoria": "III-E", "pe:minsa:codigo": "6615", "phone": "+51 64 233371", "source": "www.minsa.gob.pe"}}, {"type": "way", "id": 560404862, "center": {"lat": -14.8262433, "lon": -74.9408753}, "nodes": [5404426389, 5404426390, 5404426391, 5404426392, 5404426389], "tags": {"addr:city": "Nasca", "addr:housenumber": "401", "addr:postcode": "051", "addr:street": "Ignacio Morsesky", "amenity": "hospital", "emergency": "no", "healthcare": "hospital", "healthcare:speciality": "general", "name": "Policlinico Juan Pablo E"}}, {"type": "way", "id": 563999126, "center": {"lat": -14.0407067, "lon": -75.7073987}, "nodes": [5434672433, 7186144607, 7186144610, 7186144611, 7186144618, 5434672426, 5434672425, 5434672427, 7186144629, 7186144628, 5434672430, 7186144626, 7186144619, 5434672429, 7186144620, 5434672428, 5434672439, 5434672438, 5434672437, 5434672434, 5434672431, 5434672432, 5434672433], "tags": {"amenity": "hospital", "ele": "484", "healthcare": "hospital", "name": "Centro de Salud La Tingui\u00f1a", "operator": "MINSA", "pe:minsa:categoria": "I-3", "pe:minsa:codigo": "3366", "phone": "+51 56 252524", "source": "www.minsa.gob.pe"}}, {"type": "way", "id": 565936062, "center": {"lat": -12.0522981, "lon": -77.022102}, "nodes": [5449131475, 5449131476, 5449131477, 5449131478, 5449131479, 5449131480, 5449131481, 5449131482, 5449131483, 5449131484, 5449131485, 5449131486, 7540706645, 5449131648, 5449131649, 5449131475], "tags": {"addr:city": "Cercado de Lima", "addr:housenumber": "941", "addr:street": "Jir\u00f3n Miro Quezada", "amenity": "hospital", "healthcare": "hospital", "healthcare:speciality": "general", "name": "Instituto Nacional Materno Perinatal", "name:en": "National Perinatal Maternity Institute", "operator": "Ministerio de Salud", "operator:short": "MINSA", "operator:wikidata": "Q3065012", "operator:wikipedia": "en:Ministry of Health (Peru)", "phone": "+51 1 3281370", "website": "https://www.inmp.gob.pe/"}}, {"type": "way", "id": 568396654, "center": {"lat": -12.1661296, "lon": -77.0202613}, "nodes": [5468475612, 5468475613, 5468475614, 5468475615, 5468475619, 5468475616, 5468475620, 5468475617, 5468475618, 5468475612], "tags": {"addr:city": "Chorrillos", "addr:housenumber": "200", "addr:street": "Calle Leopoldo Arias", "amenity": "hospital", "healthcare": "hospital", "healthcare:speciality": "general", "name": "Centro Materno Infantil Chorrillos II", "operator": "Ministerio de Salud", "phone": "+51 01 4673455", "ref:category": "I-4", "ref:microred": "1", "ref:red": "1"}}, {"type": "way", "id": 570342547, "center": {"lat": -16.3211019, "lon": -72.2226523}, "nodes": [5483285397, 5483285398, 5483285399, 5483285400, 5483285397], "tags": {"addr:full": "Asentamiento B-1 Lote 1 Irrigacion Majes", "amenity": "hospital", "healthcare": "hospital", "name": "Hospital Central de Majes- Angel Gabriel Chura Gallegos", "operator": "Gobierno Regional", "phone": "+51 54 202279", "ref:category": "II-1", "ref:microred": "0", "ref:red": "3"}}, {"type": "way", "id": 570382112, "center": {"lat": -16.321244, "lon": -72.2381762}, "nodes": [5483620510, 5483620511, 5483620512, 5483620513, 5483620510], "tags": {"addr:full": "Centro Poblado Asentamiento B-1", "amenity": "hospital", "healthcare": "hospital", "name": "Posta de la B 1", "operator": "Gobierno Regional", "phone": "+51 959539399", "ref:category": "I-2", "ref:microred": "12", "ref:red": "3"}}, {"type": "way", "id": 573667166, "center": {"lat": -14.8826879, "lon": -70.5874741}, "nodes": [5508873066, 5508873055, 5508873056, 5508873057, 5508873058, 5508873059, 5508873060, 5508873061, 5508873062, 5508873063, 5508873064, 5508873065, 11157638995, 5508873067, 5508873066], "tags": {"addr:housenumber": "310", "addr:street": "Arica", "amenity": "hospital", "emergency": "yes", "fax": "+51 51 563265", "name": "Hospital San Juan de Dios de Ayavari", "operator": "MINSA", "pe:minsa:categoria": "II-1", "pe:minsa:codigo": "3156", "phone": "+51 51 563265", "source": "www.minsa.gob.pe"}}, {"type": "way", "id": 604765913, "center": {"lat": -12.0170928, "lon": -77.030133}, "nodes": [5737715141, 5737715142, 5737715143, 5737715144, 5737715145, 5737715146, 5737715147, 5737715148, 5737715141], "tags": {"addr:city": "R\u00edmac", "addr:housenumber": "1377", "addr:street": "Avenida Flor de Amancaes", "amenity": "hospital", "healthcare": "hospital", "healthcare:speciality": "general", "name": "SISOL Salud Amancaes", "old_name": "Hospital de la Solidaridad Amancaes", "opening_hours": "Mo-Fr 08:00-17:00; Sa 08:00-14:00", "operator": "Municipalidad Metropolitana de Lima", "phone": "+511 415 7970", "website": "http://www.sisol.gob.pe/", "wheelchair": "yes"}}, {"type": "way", "id": 607530492, "center": {"lat": -11.5607807, "lon": -77.2707986}, "nodes": [5757512955, 11203063030, 5757512956, 5757512957, 5757512958, 5757512959, 5757512960, 7737465588, 5757512955], "tags": {"addr:city": "Chancay", "addr:street": "Calle Mariscal Sucre", "amenity": "hospital", "email": "informes@hospitaldechancay.com.pe", "emergency": "yes", "healthcare": "hospital", "healthcare:speciality": "general", "name": "Hospital de Chancay", "operator": "Gobierno Regional", "phone": "+51 1 3771037", "ref:category": "II-2", "ref:microred": "0", "ref:red": "3", "website": "http://www.hospitaldechancay.gob.pe/"}}, {"type": "way", "id": 613163620, "center": {"lat": -12.8550194, "lon": -72.6954274}, "nodes": [5802549178, 7401252166, 7401252165, 5802549179, 5802549180, 5802549181, 5802549182, 7370715541, 5802549183, 5802549178], "tags": {"addr:city": "Santa Ana", "addr:street": "Avenida Francisco Bolognesi", "amenity": "hospital", "emergency": "yes", "healthcare": "hospital", "name": "Hospital de Quillabamba"}}, {"type": "way", "id": 618688385, "center": {"lat": -12.1281002, "lon": -77.0177417}, "nodes": [5847494679, 5847494682, 5847494677, 5847494683, 5847494684, 5847494674, 5847494675, 5847494678, 6086014983, 5847494680, 5847494679], "tags": {"addr:city": "Miraflores", "addr:housenumber": "6355 - 6375", "addr:postcode": "15048", "addr:street": "Avenida Roosevelt", "amenity": "hospital", "email": "comunicaciones@hejcu.gob.pe", "emergency": "yes", "healthcare": "hospital", "healthcare:speciality": "general", "name": "Hospital Jos\u00e9 Casimiro Ulloa", "operator": "MINSA", "phone": "+511 2040900", "website": "http://www.hejcu.gob.pe"}}, {"type": "way", "id": 621268556, "center": {"lat": -14.6866233, "lon": -74.1200425}, "nodes": [5868936271, 5868936256, 5868936257, 5868936258, 5868936262, 5868936263, 5868936264, 5868936265, 5868936266, 5868936267, 5868936268, 5868936270, 5868936269, 5868936275, 5868936274, 5868936273, 5868936272, 5868936271], "tags": {"addr:housenumber": "969", "addr:street": "Avenida Arnaldo Alvarado de Gregory", "amenity": "hospital", "emergency": "yes", "fax": "+51 66 452233", "healthcare": "hospital", "healthcare:speciality": "general;dentistry;emergency;paediatrics;surgery", "name": "Hospital de apoyo Felipe Huam\u00e1n Poma de Ayala de Puquio", "operator": "MINSA", "operator:type": "public", "phone": "+51 66 452233", "ref:category": "II-1", "ref:microred": "0", "ref:red": "7", "source": "www.minsa.gob.pe"}}, {"type": "way", "id": 641089582, "center": {"lat": -12.0791989, "lon": -76.5057709}, "nodes": [6038311360, 6038312389, 6038312390, 6038312391, 6038311361, 6038311360], "tags": {"addr:city": "Antioqu\u00eda", "addr:street": "Calle Santa Rosa", "amenity": "hospital", "healthcare": "hospital", "healthcare:speciality": "general", "name": "Centro de Salud Antioqu\u00eda", "operator": "MINSA", "phone": "+51 01 3559720", "ref:category": "I-2", "ref:microred": "2", "ref:red": "9"}}, {"type": "way", "id": 663983845, "center": {"lat": -13.3087337, "lon": -72.1125516}, "nodes": [6214805433, 9222422183, 6214805434, 6214805435, 6214805436, 6214805437, 7384108561, 7368697696, 6214805433], "tags": {"addr:full": "Avenida 9 de Noviembre", "amenity": "hospital", "barrier": "wall", "healthcare": "hospital", "name": "CAS Urubamba - Essalud", "operator": "Seguro Social de Salud", "operator:short": "Essalud", "operator:wikidata": "Q6123930", "operator:wikipedia": "es:Seguro Social de Salud del Per\u00fa", "phone": "+51 84 201198", "ref": "00010060", "ref:category": "I-4"}}, {"type": "way", "id": 668575501, "center": {"lat": -13.52352, "lon": -71.9550369}, "nodes": [6260929103, 11117520401, 10761140239, 10761140240, 10761140241, 10761140242, 10761140243, 11117520400, 11117520399, 10761140244, 10761140245, 6260929104, 6260929105, 6260929106, 8852454549, 8852454547, 10760307515, 8852454548, 8852454550, 6260929103], "tags": {"addr:street": "Avenida La Cultura", "amenity": "hospital", "emergency": "yes", "healthcare": "hospital", "name": "Hospital Regional del Cusco", "operator": "Gobierno Regional", "operator:type": "public", "operator:wikidata": "Q3824815", "phone": "+51 84 227661", "ref:category": "III-1", "ref:microred": "0", "ref:red": "0", "source": "www.minsa.gob.pe"}}, {"type": "way", "id": 669200757, "center": {"lat": -16.0725818, "lon": -72.4906736}, "nodes": [6266556915, 6266556914, 6266556913, 6266556912, 6266556911, 6266556910, 6266556909, 6266556908, 6266556900, 6266556915], "tags": {"addr:full": "Esquina Avenida 3 de Abril Con Avenida Las Pe\u00f1as Sin Numero", "amenity": "hospital", "name": "Centro asistencial EsSalud", "operator": "Essalud", "phone": "+51 54 471174", "ref:category": "I-3", "ref:microred": "0", "ref:red": "0"}}, {"type": "way", "id": 669200772, "center": {"lat": -16.0763531, "lon": -72.4908381}, "nodes": [6266556951, 6266556950, 6266556949, 6266556948, 6266556951], "tags": {"addr:street": "Avenida 21 de Marzo", "amenity": "hospital", "emergency": "yes", "name": "Hospital de apoyo de Aplao", "phone": "+51 54 471021", "ref:category": "II-1", "ref:microred": "0", "ref:red": "2", "source": "www.minsa.gob.pe"}}, {"type": "way", "id": 676029472, "center": {"lat": -16.4013476, "lon": -71.4888403}, "nodes": [6331085062, 6331085063, 6331085064, 6331085065, 6331085062], "tags": {"addr:full": "Calle Misti B-1 P.J. Jerusalen", "amenity": "hospital", "healthcare": "hospital", "name": "Posta de Jerusalen", "operator": "Gobierno Regional", "phone": "+51 54 450316", "ref:category": "I-2", "ref:microred": "15", "ref:red": "3"}}, {"type": "way", "id": 699538736, "center": {"lat": -12.0289805, "lon": -76.9262702}, "nodes": [6569072559, 6569072560, 6569072561, 6569072562, 6569072559], "tags": {"addr:city": "Ate", "addr:full": "Av. Rivadeneira Mz. F Lote 5 y 6 Urb. Ceres", "addr:street": "Bernardino Rivadavia", "amenity": "hospital", "building": "yes", "building:levels": "5", "healthcare": "hospital", "healthcare:speciality": "general", "name": "SISOL Salud Ate", "old_name": "Hospital de la Solidadridad ATE", "opening_hours": "Mo-Sa 07:00-19:00", "operator": "Municipalidad Metropolitana de Lima", "phone": "+51 1 3850954", "website": "http://www.sisol.gob.pe/", "wheelchair": "yes"}}, {"type": "way", "id": 699540898, "center": {"lat": -12.0493096, "lon": -77.0353334}, "nodes": [6569116640, 6569116641, 6569116642, 6569116643, 6569116644, 6569116646, 6569116647, 6569116645, 6569116640], "tags": {"addr:city": "Cercado de Lima", "addr:housenumber": "700", "addr:street": "Jir\u00f3n Caman\u00e1", "amenity": "hospital", "building": "yes", "building:levels": "7", "healthcare": "hospital", "healthcare:speciality": "general", "name": "SISOL Salud Caman\u00e1", "old_name": "Hospital de la Solidaridad Caman\u00e1", "opening_hours": "Mo-Sa 06:30-20:00", "operator": "Municipalidad Metropolitana de Lima", "phone": "+511 426 4619", "website": "http://www.sisol.gob.pe/", "wheelchair": "yes"}}, {"type": "way", "id": 699674838, "center": {"lat": -11.9792433, "lon": -77.0768774}, "nodes": [6570367275, 6570367276, 6570367277, 6570367278, 6570367275], "tags": {"addr:city": "Los Olivos", "addr:housenumber": "3514", "addr:street": "Avenida Universitaria", "amenity": "hospital", "building": "yes", "building:levels": "5", "healthcare": "hospital", "healthcare:speciality": "general", "name": "SISOL Salud Los Olivos", "old_name": "Hospital de la Solidaridad Los Olivos", "opening_hours": "Mo-Sa 07:00-19:00", "operator": "Municipalidad Metropolitana de Lima", "phone": "+511 771 4627", "website": "http://www.sisol.gob.pe/", "wheelchair": "yes"}}, {"type": "way", "id": 699686753, "center": {"lat": -12.3269934, "lon": -76.8248976}, "nodes": [6570470813, 6570470814, 6570470815, 6570470816, 6570470813], "tags": {"addr:city": "Punta Hermosa", "addr:full": "Antigua Panamericana Sur Km. 43, Punta Hermosa", "addr:street": "Avenida Antigua Panamericana Sur", "amenity": "hospital", "healthcare": "hospital", "healthcare:speciality": "general", "name": "SISOL Salud Punta Hermosa", "old_name": "Hospital de la Solidaridad Punta Hermosa", "opening_hours": "Mo-Sa 07:30-19:00", "operator": "Municipalidad Metropolitana de Lima", "phone": "+511 726 0130", "website": "http://www.sisol.gob.pe/", "wheelchair": "yes"}}, {"type": "way", "id": 699806316, "center": {"lat": -13.5226948, "lon": -71.9656231}, "nodes": [6571568808, 6571568809, 6571568817, 6571568819, 6571568821, 6571568820, 6571568818, 6571568816, 6571568810, 6571568811, 6571568812, 6571568814, 6571568815, 6571568813, 6571568808], "tags": {"addr:city": "Cusco", "addr:street": "Avenida Micaela Bastidas", "amenity": "hospital", "building": "yes", "building:levels": "3", "healthcare": "hospital", "healthcare:speciality": "general", "name": "SISOL Salud Cusco - Wanchaq", "nohousenumber": "yes", "old_name": "Hospital de la Solidaridad Wanchaq", "operator": "Municipalidad Metropolitana de Lima", "phone": "+51 84 386 060", "website": "http://www.sisol.gob.pe/", "wheelchair": "yes"}}, {"type": "way", "id": 699814671, "center": {"lat": -18.0259045, "lon": -70.2624863}, "nodes": [6571468218, 6571468219, 6571468220, 6571468221, 6571468222, 6571468223, 6571468224, 6571468225, 6571468226, 6571468227, 6571468218], "tags": {"addr:city": "Tacna", "addr:full": "Av. Manuel A. Odr\u00eda S/N", "addr:street": "Manuel Odria", "amenity": "hospital", "healthcare": "hospital", "healthcare:speciality": "general", "name": "Hospital de la Solidaridad", "official_name": "SISOL Salud Tacna", "old_name": "Hospital de la Solidaridad Tacna", "opening_hours": "Mo-Sa 07:00-19:00", "operator": "Municipalidad Metropolitana de Lima", "operator:wikidata": "Q12184118", "operator:wikipedia": "en:Metropolitan Municipality of Lima", "phone": "+51 52 314 955", "website": "https://www.sisol.gob.pe/", "wheelchair": "yes"}}, {"type": "way", "id": 711855315, "center": {"lat": -10.1278271, "lon": -76.2042417}, "nodes": [6693373161, 6693373162, 6693373163, 6693373164, 6693373161], "tags": {"amenity": "hospital", "healthcare": "hospital", "healthcare:speciality": "general", "name": "Essalud Ambo", "operator": "Seguro Social", "operator:type": "public"}}, {"type": "way", "id": 720318095, "center": {"lat": -12.0521727, "lon": -77.0450286}, "nodes": [6760281248, 6760253636, 6760253638, 10837204190, 6760281245, 6760281244, 6760281248], "tags": {"amenity": "hospital", "building": "hospital", "building:levels": "1", "healthcare": "hospital", "height": "4", "material": "concrete"}}, {"type": "way", "id": 720385352, "center": {"lat": -12.0524773, "lon": -77.0444245}, "nodes": [4586186672, 6760843333, 6760843334, 6760843335, 4586186672], "tags": {"addr:city": "Bre\u00f1a", "addr:street": "Jir\u00f3n Chavin", "amenity": "hospital", "building": "hospital", "building:levels": "2", "description": "NIVEL SOCIOECONOMICO DE RESIDENTES: MEDIO DENSIDAD DE POBLACI\u00d3N RESIDENTE Y FLOTANTE: ALTO SISTEMA CONSTRUCTIVO: APORTICADO MATERIALES PREDOMINANTES: CONCRETO - LADRILLO ESTADO DE LA CONSTRUCCI\u00d3N: BUENO", "healthcare": "hospital", "height": "6", "name": "SINDICATO UNICO DE TRABAJADORES DE SALUD"}}, {"type": "way", "id": 755488965, "center": {"lat": -14.0427813, "lon": -75.7047075}, "nodes": [7056945346, 7056945347, 4336415989, 9427141493, 7056945348, 7056945349, 7056945350, 7056945351, 7056945346], "tags": {"addr:street": "Montevideo", "amenity": "hospital", "building": "yes", "healthcare": "clinic", "name": "Essalud", "source": "Reconocimiento terrestre cartogr\u00e1fico realizado por Kaart en 2017"}}, {"type": "way", "id": 768960182, "center": {"lat": -14.1535358, "lon": -75.7084576}, "nodes": [7178215234, 7178215235, 7178215242, 7178215246, 7178215236, 7178215237, 7178215238, 7178215234], "tags": {"amenity": "hospital", "healthcare": "hospital"}}, {"type": "way", "id": 774905612, "center": {"lat": -13.5098262, "lon": -72.8128218}, "nodes": [7229557157, 7229557158, 7229557159, 7229557160, 7229557161, 7229557162, 7229557157], "tags": {"amenity": "hospital", "healthcare": "hospital", "name": "Posta M\u00e9dica de Cachora"}}, {"type": "way", "id": 776341764, "center": {"lat": -13.0578752, "lon": -76.3590129}, "nodes": [7243529592, 7243529600, 7243529593, 7243529594, 7243529595, 7243529596, 7243529597, 7243529598, 7243529599, 7243529592], "tags": {"amenity": "hospital", "healthcare": "hospital", "name": "Policl\u00ednico Municipal Ernesto Mispireta Valdivia"}}, {"type": "way", "id": 776802376, "center": {"lat": -14.7904107, "lon": -71.4039479}, "nodes": [7248067492, 7248067491, 7248067490, 7248067489, 7248067488, 7248067487, 7248067486, 7248067485, 7248040784, 7248040783, 7248040782, 7248040781, 7248067492], "tags": {"addr:full": "Calle Domingo Huarca Cruz, Barrio T\u00fapac Amaru", "addr:street": "Calle Domingo Huarca Cruz", "amenity": "hospital", "name": "Espinar", "operator": "Gobierno Regional", "phone": "+51 84 301014", "ref:category": "II-1", "ref:microred": "6", "ref:red": "4"}}, {"type": "way", "id": 776836177, "center": {"lat": -13.6307226, "lon": -74.1419845}, "nodes": [7248392263, 7248392264, 11211041105, 7248392270, 7248392269, 11211041078, 11211041077, 7248392268, 7248392267, 7248392266, 7248392265, 7248392262, 7248392261, 7248392260, 7248392259, 7248392263], "tags": {"addr:housenumber": "110", "addr:street": "Jir\u00f3n Santa Rosa", "amenity": "hospital", "name": "Hospital de Apoyo Cangallo", "operator": "Gobierno Regional", "phone": "+51 66 793648", "ref:category": "II-1", "ref:microred": "0", "ref:red": "5"}}, {"type": "way", "id": 776865558, "center": {"lat": -12.8451237, "lon": -74.5715885}, "nodes": [7248674975, 7248674974, 10174710875, 10174710858, 10174710863, 10174710870, 10174710867, 7248674973, 10174710866, 7248674972, 10174710868, 10174710869, 10174710876, 7248674975], "tags": {"addr:housenumber": "705", "addr:street": "Avenida Manco C\u00e1pac", "amenity": "hospital", "name": "Hospital Provincial de Acobamba", "operator": "Gobierno Regional", "ref:category": "II-1", "ref:microred": "0", "ref:red": "2"}}, {"type": "way", "id": 776866999, "center": {"lat": -13.7146065, "lon": -76.1858108}, "nodes": [7248591452, 5292998405, 5292998406, 7248591451, 5292998378, 5292998377, 7248591450, 7248591449, 7248591448, 7248591447, 7248591446, 5292998372, 5292998371, 7248591445, 7248591444, 7248591452], "tags": {"amenity": "hospital", "name": "Hospital San Juan de Dios de Pisco", "operator": "Gobierno Regional", "phone": "+51 56 535716", "ref:category": "II-1", "ref:microred": "6", "ref:red": "2"}}, {"type": "way", "id": 777198537, "center": {"lat": -11.5035939, "lon": -77.2134784}, "nodes": [7252030119, 7252030115, 7252030116, 7252030117, 7252030118, 7252030121, 7252030120, 7252030119], "tags": {"addr:housenumber": "120", "addr:street": "Tacna", "amenity": "hospital", "emergency": "yes", "fax": "+51 1 2460808", "name": "Hospital San Juan Bautista de Huaral", "phone": "+51 1 2462990; +51 1 2461038; +51 1 2465321; +51 1 2464600", "source": "www.minsa.gob.pe", "website": "https://www.hospitalhuaral.gob.pe/"}}, {"type": "way", "id": 777198770, "center": {"lat": -10.737393, "lon": -75.2736264}, "nodes": [7252008744, 7252008743, 7252008742, 7252008741, 7252008744], "tags": {"addr:street": "Avenida Valentin Cueva", "amenity": "hospital", "name": "Hospital Rom\u00e1n Egoavil Pando Villa Rica", "operator": "Gobierno Regional", "ref:category": "II-1", "ref:microred": "3", "ref:red": "3"}}, {"type": "way", "id": 777199111, "center": {"lat": -11.4248526, "lon": -75.6931145}, "nodes": [7252037096, 7252037095, 7252037094, 7252037093, 9104042497, 7252037092, 7252037091, 7252037090, 7252037089, 7252037088, 7252037087, 7252023283, 7252037086, 7252037085, 7252023284, 7252023277, 7252023279, 7252023278, 7252023281, 7252023280, 7252023282, 7252037096], "tags": {"addr:housenumber": "362", "addr:street": "Avenida Pacheco", "amenity": "hospital", "emergency": "yes", "fax": "+51 64 324166", "healthcare": "hospital", "name": "Hospital de apoyo F\u00e9lix Mayorca Soto", "phone": "+51 64 321400", "source": "www.minsa.gob.pe"}}, {"type": "way", "id": 777199738, "center": {"lat": -13.6419737, "lon": -72.8969545}, "nodes": [7252010382, 7252010383, 10671741693, 7252010384, 7252043185, 7252043186, 10671741694, 10671741695, 7252043187, 7252043190, 7252043193, 7252043195, 7252043196, 7252043200, 7252043199, 7252043198, 7252010382], "tags": {"amenity": "hospital", "healthcare": "hospital", "name": "Hospital Base II Abancay", "operator": "EsSalud", "ref:category": "II-1", "ref:microred": "0", "ref:red": "0"}}, {"type": "way", "id": 777200338, "center": {"lat": -13.9475687, "lon": -72.1813211}, "nodes": [7252037245, 7252037244, 7252037243, 7252037242, 7252037241, 7252037240, 7252037239, 7252037238, 7252037237, 7252037236, 7252037245], "tags": {"amenity": "hospital", "name": "Hospital Regional de Tambobamba", "name:en": "Hospital Tambobamba", "name:es": "Hospital Tambobamba", "operator": "Gobierno Regional", "phone": "+51 83 830447", "ref:category": "II-1", "ref:microred": "2", "ref:red": "8"}}, {"type": "way", "id": 777200749, "center": {"lat": -15.3618472, "lon": -70.3664466}, "nodes": [7252031235, 7252031234, 7252031233, 7252031232, 7252031235], "tags": {"addr:housenumber": "323", "addr:street": "Jir\u00f3n Antonio Barrionuevo", "amenity": "hospital", "name": "Antonio Barrionuevo (LAMPA)", "operator": "Gobierno Regional", "phone": "+51 951711221", "ref:category": "II-1", "ref:microred": "0", "ref:red": "9"}}, {"type": "way", "id": 777295905, "center": {"lat": -11.0573634, "lon": -75.3295526}, "nodes": [7253002815, 7253002817, 7253002816, 7253002814, 7253002815], "tags": {"addr:housenumber": "140", "addr:street": "Tarma", "amenity": "hospital", "emergency": "yes", "fax": "+51 64 531930", "name": "Hospital de apoyo La Merced", "phone": "+51 64 531930", "source": "www.minsa.gob.pe"}}, {"type": "way", "id": 777320865, "center": {"lat": -10.6859051, "lon": -76.2649401}, "nodes": [7253308625, 7253308624, 7253308623, 7253308622, 7253308621, 7253308620, 7253308619, 7253308618, 7253308617, 7253308616, 7253308625], "tags": {"addr:full": "Barrio Buenos Aires", "amenity": "hospital", "name": "Hospital II Pasco", "operator": "EsSalud", "phone": "+51 63 422189", "ref:category": "II-2", "ref:microred": "0", "ref:red": "0"}}, {"type": "way", "id": 777342809, "center": {"lat": -13.1634095, "lon": -74.200309}, "nodes": [7253635601, 7253635589, 7253635590, 7253635591, 7253635592, 7253635593, 7253635594, 7253635595, 7253635596, 7253635597, 7253635598, 7253635599, 7253635600, 7253635587, 7253635588, 7253635602, 7253635601], "tags": {"amenity": "hospital", "healthcare": "hospital", "name": "Hospital III Miguel Mariscal Llerena", "name:en": "Hospital III Miguel Mariscal Llerena", "name:es": "Hospital III Miguel Mariscal Llerena"}}, {"type": "way", "id": 777343964, "center": {"lat": -12.0516482, "lon": -75.228242}, "nodes": [7253640360, 7253640361, 7253640358, 7253640362, 7253640374, 7253640373, 11220832313, 7253640372, 11220832315, 11220832317, 11220832316, 11220832318, 11220832319, 7253640371, 7253640370, 10786809001, 4295221586, 4295221591, 4295221590, 7253640369, 7253640368, 7253640367, 11220832149, 7253640366, 7253640365, 4295221568, 4295221567, 4295221573, 4295221566, 4295221565, 7253640364, 7253640359, 7253640363, 7253640360], "tags": {"addr:city": "Huancayo", "addr:housenumber": "296", "addr:street": "Avenida Independencia", "amenity": "hospital", "emergency": "yes", "name": "Hospital Nacional Ramiro Prial\u00e9 Prial\u00e9", "operator": "Essalud", "phone": "+51 64 248322", "ref:category": "III-1"}}, {"type": "way", "id": 777346011, "center": {"lat": -12.0642726, "lon": -77.1218565}, "nodes": [7253669500, 7253669501, 8838554686, 7253669502, 8838554689, 7253669486, 7253669485, 11177430123, 7253622484, 8838554690, 8838554691, 8838554692, 8838554693, 8838554694, 8838554695, 8838650410, 8838554696, 8838650407, 11177449538, 7253622483, 8838554685, 8838554684, 7253622482, 7253622481, 7253622480, 7253622479, 8838567436, 7253622478, 8838554697, 8838554698, 7253622477, 8838554699, 7253622476, 7253622475, 8838554700, 7253622474, 8838567437, 7253622473, 7253622472, 8838598418, 8838598419, 7253622471, 7253669500], "tags": {"addr:city": "Callao", "addr:housenumber": "1081", "addr:postcode": "07011", "addr:street": "Jir\u00f3n Colina", "amenity": "hospital", "emergency": "yes", "name": "Hospital Alberto Sabogal Sologuren", "operator": "Essalud", "phone": "+51 01 4297744", "ref:category": "III-1", "ref:microred": "0", "ref:red": "0", "website": "http://www.essalud.gob.pe/centro-asistencial-de-essalud-alberto-sabogal-ya-es-hospital-nacional/"}}, {"type": "way", "id": 777346012, "center": {"lat": -12.0632677, "lon": -77.1241176}, "nodes": [7253669489, 7253669487, 7253669488, 7253669502, 8838554686, 7253669501, 7253669500, 7253669499, 7253669498, 7253669497, 7253669496, 632381506, 7253669494, 7253669493, 7253669492, 7253669491, 7253669490, 7253669489], "tags": {"addr:housenumber": "2176", "addr:street": "Avenida Guardia Chalaca", "amenity": "hospital", "emergency": "yes", "name": "Hospital Nacional Daniel A. Carri\u00f3n", "operator": "Gobierno Regional", "phone": "+51 01 6147474", "ref:category": "III-1", "ref:microred": "0", "ref:red": "0"}}, {"type": "way", "id": 777352981, "center": {"lat": -15.8431432, "lon": -70.0220475}, "nodes": [7253716338, 11228130881, 7253716337, 7253716336, 7253716335, 7253716334, 7253716333, 7253716338], "tags": {"addr:housenumber": "120", "addr:street": "Ricardo Palma", "amenity": "hospital", "emergency": "yes", "name": "Hospital Manuel N\u00fa\u00f1ez Butr\u00f3n", "operator": "Gobierno Regional", "phone": "+51 51 369696", "ref:category": "II-2", "source": "www.minsa.gob.pe"}}, {"type": "way", "id": 777353488, "center": {"lat": -15.4817792, "lon": -70.1200736}, "nodes": [7253726645, 7253726626, 7253726627, 7253726628, 7253726629, 7253726630, 7253726631, 7253726632, 7253726633, 7253726634, 7253726635, 7253726636, 7253726637, 7253726638, 7253726639, 7253726640, 7253726641, 7253726642, 7253726643, 7253726644, 7253726646, 7253726645], "tags": {"amenity": "hospital", "emergency": "yes", "fax": "+51 51 321750", "name": "Hospital Regional de Juliaca Carlos Monge Medrano", "operator": "Gobierno Regional", "phone": "+51 51 321901", "ref:category": "II-2", "ref:microred": "0", "ref:red": "11", "source": "www.minsa.gob.pe"}}, {"type": "way", "id": 777358991, "center": {"lat": -10.9254227, "lon": -74.8714231}, "nodes": [7253740998, 7253740997, 11218915355, 7253740996, 7253740995, 7253740994, 7253740993, 7253740992, 7253740998], "tags": {"addr:street": "Avenida San Mart\u00edn", "amenity": "hospital", "name": "Hospital de Apoyo Pichinaki", "operator": "Gobierno Regional", "phone": "+51 64 347322", "ref:category": "II-1", "ref:microred": "0", "ref:red": "7"}}, {"type": "way", "id": 780578548, "center": {"lat": -13.4423386, "lon": -71.6940099}, "nodes": [7289050071, 7289050072, 7289050073, 7289050074, 7289050075, 7289050076, 7289050077, 7289050078, 7289050079, 7289050080, 7289050081, 7289050082, 7289050083, 7289050084, 7289057385, 7289050071], "tags": {"amenity": "hospital", "healthcare": "hospital"}}, {"type": "way", "id": 780622087, "center": {"lat": -12.0656201, "lon": -77.0943362}, "nodes": [3736684753, 3736684752, 3736684751, 3736684750, 3736684749, 3736684748, 3736684747, 7289445014, 7289445013, 7289445012, 7289445011, 7289445010, 3736684753], "tags": {"addr:city": "San Miguel", "addr:housenumber": "255", "addr:state": "Lima", "addr:street": "Avenida Parque de las Leyendas", "alt_name": "Centro de Aislamiento Villa Mongrut", "amenity": "hospital", "healthcare": "hospital", "name": "Policl\u00ednico Octavio Mongrut", "operator": "Essalud", "operator:type": "public", "phone": "+511 3198060", "ref:category": "II-1", "ref:microred": "0", "ref:red": "0"}}, {"type": "way", "id": 780628452, "center": {"lat": -12.1032026, "lon": -77.020542}, "nodes": [7289508797, 7289508795, 7289508796, 7289508798, 7289508797], "tags": {"addr:city": "San Isidro", "addr:housenumber": "208", "addr:street": "Las Tiendas", "amenity": "hospital", "contact:facebook": "https://www.facebook.com/pages/Centro-Geri%C3%A1trico-FAP/187639401807089", "healthcare": "hospital", "healthcare:speciality": "geriatrics", "name": "Hospital Central Geri\u00e1trico FAP", "operator": "Fuerza A\u00e9rea del Per\u00fa", "operator:type": "government", "website": "https://hospi.fap.mil.pe/"}}, {"type": "way", "id": 789049108, "center": {"lat": -12.8072165, "lon": -72.6508603}, "nodes": [7376884060, 7376884061, 7376884062, 7376884063, 7376884060], "tags": {"amenity": "hospital", "healthcare": "hospital"}}, {"type": "way", "id": 789049109, "center": {"lat": -12.8073334, "lon": -72.6506896}, "nodes": [7376884064, 7376884065, 7399089271, 7399089272, 7376884066, 7376884067, 7376884068, 7376884069, 7376884064], "tags": {"amenity": "hospital", "healthcare": "hospital"}}, {"type": "way", "id": 789051963, "center": {"lat": -12.8575122, "lon": -72.6974401}, "nodes": [7376889219, 7389834886, 7389834887, 7376889234, 7376889235, 9446545208, 9446545207, 9446545206, 9446545205, 2741458196, 7376889221, 7376889222, 7376889219], "tags": {"addr:full": "Avenida Kumpirushiato", "amenity": "hospital", "healthcare": "hospital", "name": "Quillabamba Essalud", "operator": "Essalud", "phone": "+51 84 281337", "ref": "00010062", "ref:category": "I-4"}}, {"type": "way", "id": 791436493, "center": {"lat": -12.6440802, "lon": -72.3605141}, "nodes": [7398792229, 7398792228, 7398792227, 7398792226, 7398792229], "tags": {"addr:city": "yanatile", "amenity": "hospital", "name": "Puesto de Salud de Muyupay", "operator": "Gobierno Regional", "phone": "+51 84 237953", "ref:category": "I-1", "ref:microred": "8", "ref:red": "2"}}, {"type": "way", "id": 804300594, "center": {"lat": -14.3953737, "lon": -71.1637085}, "nodes": [7523120704, 7523120705, 7523120706, 7523120707, 7523120704], "tags": {"amenity": "hospital", "healthcare": "hospital", "name": "Mercer care"}}, {"type": "way", "id": 806448220, "center": {"lat": -12.052817, "lon": -77.0289031}, "nodes": [7541495252, 7541495253, 7541495254, 7541495255, 7541495256, 7541495257, 7541495258, 7541495259, 7541495252], "tags": {"amenity": "hospital", "healthcare": "hospital"}}, {"type": "way", "id": 807399998, "center": {"lat": -15.3664, "lon": -75.1664384}, "nodes": [7550198351, 7550198352, 7550198353, 7550198354, 7550198355, 7550198351], "tags": {"amenity": "hospital", "healthcare": "hospital", "name": "Hospital Maria Reiche"}}, {"type": "way", "id": 807929175, "center": {"lat": -12.7833144, "lon": -74.9890888}, "nodes": [6848845940, 7555248841, 7555248842, 7555248843, 6848845940], "tags": {"addr:city": "Ascensi\u00f3n", "addr:street": "Avenida F\u00e9lix Reynaldo Crisp\u00edn Vargas", "amenity": "hospital", "healthcare": "hospital", "name": "Hospital II Huancavelica", "operator": "Essalud", "operator:type": "public", "phone": "+51 67 453491;#980148", "ref:category": "II-1", "ref:microred": "0", "ref:red": "0"}}, {"type": "way", "id": 817697074, "center": {"lat": -10.7972335, "lon": -77.7177056}, "nodes": [7082494317, 7636475746, 1884943693, 7636475745, 7082494317], "tags": {"addr:housenumber": "350", "addr:street": "Jir\u00f3n Alfonso Ugarte", "amenity": "hospital", "emergency": "yes", "name": "Hospital Laura Esther Rodriguez Dulanto de Supe", "operator": "Gobierno Regional", "phone": "+511 2364323", "ref:category": "II-1", "ref:microred": "0", "ref:red": "1"}}, {"type": "way", "id": 817699227, "center": {"lat": -11.495868, "lon": -77.2000159}, "nodes": [7636547285, 7636547286, 7636547287, 7636547288, 7636547289, 7636547290, 4728532593, 7636451284, 7636547291, 7636547293, 7636547292, 7636451283, 7636451282, 7636451280, 7636451279, 7636451281, 7636547285], "tags": {"addr:housenumber": "405", "addr:street": "Avenida Circunvalacion Este", "amenity": "hospital", "name": "EsSalud Huaral", "name:es": "ESSALUD HUARAL", "operator": "Essalud", "phone": "+511 2460785", "ref:category": "I-4", "ref:microred": "0", "ref:red": "0"}}, {"type": "way", "id": 817718681, "center": {"lat": -11.9343328, "lon": -76.6933969}, "nodes": [7636756109, 4376028911, 4376028907, 7636756115, 7636756114, 7636756113, 7636756112, 7636756111, 1884943671, 7636756109], "tags": {"addr:city": "Chosica", "addr:housenumber": "214;218", "addr:street": "Jir\u00f3n Arequipa", "amenity": "hospital", "contact:facebook": "https://www.facebook.com/Hospital-Jos%C3%A9-Agurto-Tello-de-Chosica-Oficial-1474739626151077", "contact:phone": "+51 1 4183232", "contact:twitter": "https://twitter.com/HJATCH2016", "contact:website": "http://www.hospitalchosica.gob.pe/", "emergency": "yes", "fax": "+51 1 3613300", "healthcare": "hospital", "name": "Hospital Jos\u00e9 Agurto Tello de Chosica", "opening_hours": "24/7", "source": "www.minsa.gob.pe", "start_date": "1987-03-10"}}, {"type": "way", "id": 817719710, "center": {"lat": -11.8431317, "lon": -76.3818428}, "nodes": [2440777673, 7052347004, 7636744295, 7636744294, 7636744293, 2440777692, 2440777673], "tags": {"addr:street": "Avenida Florida", "amenity": "hospital", "name": "Hospital San Juan de Matucana", "operator": "Gobierno Regional", "phone": "+511 3782051", "ref:category": "II-1", "ref:microred": "0", "ref:red": "9"}}, {"type": "way", "id": 817732485, "center": {"lat": -13.4157934, "lon": -76.1266246}, "nodes": [7636884306, 7636884307, 7636884308, 7636884309, 7636884310, 7636884311, 7636884312, 7636884313, 7636884314, 7636884315, 7636884316, 1884943789, 7636884323, 7636884322, 7636884321, 7636884320, 7636884319, 7636884318, 7636884317, 7636884305, 7636884304, 7636884303, 7636884302, 7636884301, 7636884306], "tags": {"addr:housenumber": "600", "addr:street": "Avenida Abelardo Alva Murtua", "amenity": "hospital", "emergency": "yes", "name": "Hospital San Jose de Chincha", "operator": "Gobierno Regional", "phone": "+51 56 261421", "ref:category": "II-1", "ref:microred": "1", "ref:red": "2", "source": "www.minsa.gob.pe"}}, {"type": "way", "id": 817733728, "center": {"lat": -13.4249593, "lon": -76.1328192}, "nodes": [7636879481, 7636879482, 7636879483, 7636907501, 7636907500, 7636907499, 7636907498, 7636907497, 7636907496, 7636907495, 7636907494, 7636907493, 7636907492, 7636907491, 7636907490, 7636907489, 7636907488, 7636907487, 7526085635, 7636907486, 7636907485, 7636879480, 7636879479, 7636879478, 7636879477, 7636879481], "tags": {"addr:housenumber": "101", "addr:street": "Avenida San Idelfonso", "alt_name": "Essalud Chincha", "amenity": "hospital", "healthcare": "hospital", "name": "Hospital Ren\u00e9 Toche Groppo", "operator": "EsSalud", "phone": "+51 56 267961", "ref": "00013910", "ref:category": "II-1"}}, {"type": "way", "id": 817928771, "center": {"lat": -16.6144172, "lon": -72.6996593}, "nodes": [7638716295, 7638716294, 7070419328, 7638716293, 7638716295], "tags": {"amenity": "hospital", "name": "Hospital I Samuel Pastor de Camana Essalud", "operator": "Essalud", "phone": "+51 54 571494", "ref:category": "II-1", "ref:microred": "0", "ref:red": "0"}}, {"type": "way", "id": 817931894, "center": {"lat": -17.1947391, "lon": -70.9541495}, "nodes": [7638737580, 7638737572, 7638737573, 2363360407, 7638737574, 7638737575, 7638737576, 7638737577, 7638737578, 7638737579, 7638737581, 7638737580], "tags": {"addr:full": "Urbanizacion Capillune", "amenity": "hospital", "healthcare": "hospital", "name": "ESSALUD Hospital II Moquegua", "operator": "Seguro Social de Salud", "operator:short": "Essalud", "operator:wikidata": "Q6123930", "phone": "+51 53 461565", "ref:category": "II-1", "toilets:wheelchair": "yes", "wheelchair": "yes"}}, {"type": "way", "id": 831057544, "center": {"lat": -12.1619921, "lon": -77.0199832}, "nodes": [7759737744, 7759737738, 7759737739, 7759737747, 7759737746, 7759737743, 7759737742, 7759737745, 7759737733, 7759737741, 7759737740, 7759737744], "tags": {"addr:city": "Chorrillos", "addr:street": "Avenida Escuela Militar", "amenity": "hospital", "emergency": "yes", "healthcare": "hospital", "healthcare:speciality": "geriatrics", "name": "Hospital Militar Geri\u00e1trico", "old_name": "Instituto Geri\u00e1trico Militar", "operator": "Ej\u00e9rcito del Per\u00fa", "operator:type": "military"}}, {"type": "way", "id": 835415398, "center": {"lat": -12.0636, "lon": -76.9459778}, "nodes": [7797814349, 7797814346, 7797814347, 7797814348, 7797814349], "tags": {"addr:city": "La Molina", "addr:housenumber": "956", "addr:neighbourhood": "Urbanizaci\u00f3n Covima", "addr:postcode": "15012", "addr:street": "Avenida Flora Trist\u00e1n", "amenity": "hospital", "healthcare": "hospital", "name": "Centro M\u00e9dico Municipal Molisalud", "operator": "Municipalidad de La Molina", "operator:type": "public"}}, {"type": "way", "id": 853505757, "center": {"lat": -10.5741226, "lon": -75.3990385}, "nodes": [7960897944, 939682231, 7960897943, 7960897945, 7960897944], "tags": {"addr:street": "Prolongacion Enrique Bottger", "amenity": "hospital", "name": "Hospital I Oxapampa", "operator": "Essalud", "phone": "+51 63 462221", "ref:category": "II-1", "ref:microred": "0", "ref:red": "0"}}, {"type": "way", "id": 853520137, "center": {"lat": -11.2066892, "lon": -74.6581346}, "nodes": [7961022257, 7961022229, 7961022256, 7961022255, 7961022254, 7961022253, 7961022252, 7961022251, 7961022250, 7961022249, 7961022248, 7961022247, 7961022246, 7961022245, 7961022244, 7961022243, 7961022242, 7961022241, 7961022240, 7961022239, 7961022238, 7961022237, 7961022257], "tags": {"addr:street": "Jir\u00f3n H\u00e9roes del Cenepa", "amenity": "hospital", "name": "Hospital I R\u00edo Negro - Satipo", "operator": "EsSalud", "phone": "+51 64 549027", "ref": "00008658", "ref:category": "I-4"}}, {"type": "way", "id": 853522862, "center": {"lat": -11.3969786, "lon": -75.6875952}, "nodes": [7961070379, 7961070378, 7961070377, 7961070376, 7961070375, 7961070379], "tags": {"addr:street": "Avenida Odr\u00eda", "amenity": "hospital", "name": "Hospital I Tarma", "operator": "EsSalud", "phone": "+51 64 321310", "ref": "00008654", "ref:category": "I-4"}}, {"type": "way", "id": 853523596, "center": {"lat": -11.5432138, "lon": -75.9295053}, "nodes": [4375561494, 7961056747, 7961056746, 7961056745, 4375561494], "tags": {"addr:housenumber": "1250", "addr:street": "Avenida Miguel Grau", "amenity": "hospital", "name": "Hospital II Alberto Hurtado Abadia - La Oroya", "operator": "EsSalud", "phone": "+51 942582033;+51 64 391004", "ref": "00008653", "ref:category": "II-1"}}, {"type": "way", "id": 866156340, "center": {"lat": -12.0868606, "lon": -77.0806031}, "nodes": [8073244849, 8073244850, 8073244851, 8073244852, 8073244849], "tags": {"addr:city": "San Miguel", "addr:housenumber": "590", "addr:street": "Jir\u00f3n Mariscal Ram\u00f3n Castilla", "amenity": "hospital", "emergency": "yes", "healthcare": "hospital", "healthcare:speciality": "geriatrics", "name": "Hospital Geri\u00e1trico San Jos\u00e9", "opening_hours": "Mo-Fr 07:45-17:15; Sa 08:30-20:00", "operator": "Polic\u00eda Nacional del Per\u00fa", "operator:type": "government", "start_date": "1999-04-09"}}, {"type": "way", "id": 904879839, "center": {"lat": -18.0578218, "lon": -70.2531322}, "nodes": [8403416673, 8492152954, 8492152953, 8492152951, 8492152950, 8492152952, 8492152949, 8492152947, 8492152946, 8492152948, 8403416674, 8403416675, 8403416676, 8403416673], "tags": {"amenity": "hospital", "name": "Hospital Hip\u00f3lito Unanue"}}, {"type": "way", "id": 945309752, "center": {"lat": -12.0608149, "lon": -75.2045744}, "nodes": [8751499801, 8751499802, 8751499803, 8751499804, 8751499801], "tags": {"amenity": "hospital", "healthcare": "hospital", "operator": "Privad"}}, {"type": "way", "id": 959831201, "center": {"lat": -10.6679523, "lon": -76.2518369}, "nodes": [8880693477, 8880693478, 10035612527, 8880693479, 10035612528, 8880693480, 8880693481, 10035594698, 10035594697, 8880693477], "tags": {"addr:city": "Cerro de Pasco", "addr:street": "Avenida Los Incas", "amenity": "hospital", "healthcare": "hospital", "name": "Hospital Daniel Alcides Carri\u00f3n"}}, {"type": "way", "id": 992286732, "center": {"lat": -18.4805892, "lon": -70.3190898}, "nodes": [9168080103, 9168080104, 9168080105, 9168080106, 9168080103], "tags": {"addr:city": "Arica", "addr:housenumber": "431", "addr:street": "San Marcos", "amenity": "hospital", "healthcare": "hospital", "name": "Clinica Hebe"}}, {"type": "way", "id": 992287657, "center": {"lat": -18.4815448, "lon": -70.315902}, "nodes": [9168080107, 9168080108, 9168080109, 9168080110, 9168080107], "tags": {"addr:city": "Arica", "addr:housenumber": "720", "addr:street": "21 de Mayo", "amenity": "hospital", "healthcare": "hospital", "name": "21 de Mayo 720, Arica"}}, {"type": "way", "id": 1014525560, "center": {"lat": -13.5217081, "lon": -71.9657472}, "nodes": [9359859915, 9359859914, 9359859913, 978165700, 9359859915], "tags": {"addr:housenumber": "710", "addr:street": "Avenida la Cultura", "amenity": "hospital", "building": "yes", "name": "Clinica Pardo", "operator:type": "private", "phone": "+51 84 240387", "ref:category": "II-E", "ref:microred": "0", "ref:red": "0"}}, {"type": "way", "id": 1016726371, "center": {"lat": -12.0712644, "lon": -77.0133991}, "nodes": [9377725205, 9377725206, 9377725207, 9377725208, 9377725205], "tags": {"addr:housenumber": "1200", "addr:street": "Jir\u00f3n Antonio Bazo", "amenity": "hospital", "emergency": "no", "healthcare": "hospital", "name": "Centro De Salud Mental Comunitario La Victoria", "phone": "+51 1 7662447"}}, {"type": "way", "id": 1021844303, "center": {"lat": -13.5329135, "lon": -71.9205453}, "nodes": [3076194077, 9424573146, 9424573145, 9424573144, 3076194077], "tags": {"addr:city": "San Sebasti\u00e1n", "addr:street": "Prolongacion Avenida de la Cultura", "amenity": "hospital", "name": "Centro de Salud de Santa Rosa", "operator": "Gobierno Regional", "phone": "+51 84 270197", "ref:category": "I-3", "ref:microred": "16", "ref:red": "1"}}, {"type": "way", "id": 1021854173, "center": {"lat": -16.4019591, "lon": -71.5115258}, "nodes": [4055397846, 4055397843, 9424630898, 4055397859, 4055397862, 9424630897, 9424630896, 4055397846], "tags": {"addr:city": "Paucarpata", "addr:full": "Calle Ica 303 - Urb. San Lorenzo", "amenity": "hospital", "name": "Hospital Militar", "operator": "Gobierno Regional", "phone": "+51 54 453795", "ref:category": "I-4", "ref:microred": "14", "ref:red": "3"}}, {"type": "way", "id": 1021889701, "center": {"lat": -14.8744937, "lon": -70.5952397}, "nodes": [9424953647, 9424953646, 9424953645, 9424953644, 9424953643, 9424953642, 9424953641, 9424953640, 9424953639, 6852593442, 9424953647], "tags": {"addr:street": "Jir\u00f3n Benavides", "amenity": "hospital", "healthcare": "hospital", "name": "Hospital Cono Norte", "operator": "Gobierno Regional", "operator:wikidata": "Q3824815", "operator:wikipedia": "en:Regional Governments of Peru", "phone": "+51 951070719", "ref:category": "I-3", "ref:microred": "1", "ref:red": "10"}}, {"type": "way", "id": 1021889903, "center": {"lat": -13.3021768, "lon": -72.1248884}, "nodes": [9424943463, 9424943460, 9424943461, 9424943462, 9424943464, 1764335429, 9424955189, 7367142072, 7367142071, 7367142074, 9424943459, 9424943463], "tags": {"amenity": "hospital", "healthcare": "hospital", "name": "Centro Medicio CIMA SAC", "phone": "+5184201333", "website": "https://cima-clinic.com/"}}, {"type": "way", "id": 1021898625, "center": {"lat": -15.3640952, "lon": -70.3673971}, "nodes": [9425036295, 7044557514, 9425036294, 9425036293, 9425036295], "tags": {"addr:housenumber": "124", "addr:street": "Jir\u00f3n Alfonso Ugarte", "amenity": "hospital", "building": "yes", "name": "Hospital I Lampa - Essalud - Red Asistencial Juliaca", "operator": "Essalud", "phone": "+51 51 795251", "ref:category": "II-1", "ref:microred": "0", "ref:red": "0"}}, {"type": "way", "id": 1021926104, "center": {"lat": -13.5260841, "lon": -71.9457494}, "nodes": [9425266071, 9425266070, 5575978721, 9425266069, 9425266071], "tags": {"amenity": "hospital", "building": "yes", "name": "Cl\u00ednica Peruana Suisa", "name:es": "Peruana Suisa Cl\u00ednica"}}, {"type": "way", "id": 1021926232, "center": {"lat": -14.2652661, "lon": -71.2286098}, "nodes": [9425273453, 1884944024, 9425273452, 9425273451, 9425273465, 9425273464, 7335895612, 7335895613, 7335895614, 8771835425, 8771835427, 9425273463, 9425273462, 9425273461, 9425273460, 9425273459, 7335895616, 7335895617, 9425273458, 9425322934, 9425273457, 9425273456, 9425273455, 7335897923, 7335897924, 7335897925, 7335897926, 7335897919, 9425273454, 9425273453], "tags": {"amenity": "hospital", "emergency": "yes", "healthcare": "hospital", "name": "Hospital de Sicuani", "source": "www.minsa.gob.pe"}}, {"type": "way", "id": 1021932478, "center": {"lat": -14.2787043, "lon": -71.2253141}, "nodes": [9425342147, 9425342146, 9425342145, 7967100026, 9425342147], "tags": {"addr:housenumber": "501", "addr:street": "Avenida El Sol", "amenity": "hospital", "name": "EsSalud Sicuani", "operator": "EsSalud", "phone": "+51 84 351299", "ref:category": "II-1"}}, {"type": "way", "id": 1022147840, "center": {"lat": -10.6873855, "lon": -76.2618816}, "nodes": [9427112988, 9427112987, 9427112986, 7112919897, 9427112984, 9427112985, 9427112188, 9427112187, 9427112186, 9427112185, 9427112988], "tags": {"amenity": "hospital", "name": "Dr.Daniel Alcides Carrion Garcia.", "operator": "Gobierno Regional", "phone": "+51 63 722272", "ref:category": "II-1", "ref:microred": "1", "ref:red": "1"}}, {"type": "way", "id": 1022153375, "center": {"lat": -12.0575146, "lon": -75.2179686}, "nodes": [9427167357, 9427167356, 9427167355, 9427167352, 9427167353, 6903935594, 9427167354, 9427167357], "tags": {"addr:housenumber": "1030", "addr:street": "Jir\u00f3n Arequipa", "amenity": "hospital", "name": "Hospital Regional Docente de Enfermedades Neoplasicas", "operator": "Gobierno Regional", "phone": "+51 64 240497", "ref:category": "II-E", "ref:microred": "0", "ref:red": "0"}}, {"type": "way", "id": 1022165164, "center": {"lat": -13.3042314, "lon": -72.1312914}, "nodes": [9427268284, 2184879115, 9427268283, 7364435001, 9427268282, 9427268281, 9427268278, 9427268280, 9427268279, 7364498184, 7364498183, 7364498182, 9427268284], "tags": {"alt_name": "Clinica Qotowincho", "amenity": "hospital", "healthcare": "hospital", "name": "Clinica Ccotowincho", "source": "Local knowlage"}}, {"type": "way", "id": 1022166905, "center": {"lat": -10.5766774, "lon": -75.4024041}, "nodes": [9427282169, 9427282168, 9427282167, 9427282165, 9427282166, 1884943643, 9427282161, 9427282162, 9427282169], "tags": {"amenity": "hospital", "emergency": "yes", "name": "Hospital General (MINSA)", "source": "www.minsa.gob.pe"}}, {"type": "way", "id": 1022172331, "center": {"lat": -16.4270604, "lon": -71.5031613}, "nodes": [9427313568, 9427313567, 4331136219, 9427313566, 9427313565, 9427313568], "tags": {"addr:city": "Paucarpata", "addr:housenumber": "2101", "addr:street": "V\u00edctor Andres Belaunde", "amenity": "hospital", "building": "yes", "emergency": "no", "healthcare": "hospital", "healthcare:speciality": "general", "name": "Centro de Salud Amp. Paucarpata", "operator": "Gobierno Regional", "operator:type": "public", "operator:wikidata": "Q3824815", "phone": "+51 54 466994", "ref:category": "I-4", "ref:microred": "18", "ref:red": "3"}}, {"type": "way", "id": 1022201891, "center": {"lat": -15.8253702, "lon": -70.0176726}, "nodes": [9427568256, 9427568255, 9427568254, 9427568248, 9427568247, 9427568253, 9427568252, 9427568251, 8301282330, 9427568250, 9427568249, 9427568256], "tags": {"addr:housenumber": "508", "addr:street": "Jir\u00f3n Jorge Basadre", "amenity": "hospital", "building": "yes", "name": "Hospital I Clinica Universitaria UNA - EsSalud", "operator": "Essalud", "phone": "+51 51 367240", "ref": "00009216"}}, {"type": "way", "id": 1022224948, "center": {"lat": -13.4223853, "lon": -71.8525852}, "nodes": [9427810727, 6491266466, 9427810730, 9427810729, 9427810728, 7391342773, 7391342774, 7391342800, 7391342799, 5359936002, 5359936003, 5359936013, 5359936012, 9427810727], "tags": {"addr:street": "Avenida Amazonas", "amenity": "hospital", "name": "Centro de Salud", "operator": "Gobierno Regional", "phone": "+51 84 203157", "ref:category": "I-4", "ref:microred": "5", "ref:red": "2"}}, {"type": "way", "id": 1022242774, "center": {"lat": -11.4281277, "lon": -74.4910276}, "nodes": [9427937313, 9427937312, 9427937311, 9427937310, 7063602393, 9427937309, 9427937308, 9427937313], "tags": {"amenity": "hospital", "name": "San Martin de Pangoa", "operator": "Gobierno Regional", "phone": "+51 64 543030", "ref:category": "II-1", "ref:microred": "0", "ref:red": "8"}}, {"type": "way", "id": 1022778374, "center": {"lat": -12.8640958, "lon": -72.6908378}, "nodes": [7402508319, 1884944008, 7369958581, 7413535216, 7401679666, 7413535214, 7369958571, 7369958572, 7369958573, 9432777419, 7402508318, 7402508319], "tags": {"addr:street": "Avenida General Gamarra", "amenity": "hospital", "emergency": "yes", "name": "Hospital de Quillabamba", "operator": "Gobierno Regional", "phone": "+51 84 281427", "ref:category": "II-1", "ref:microred": "1", "ref:red": "3", "source": "www.minsa.gob.pe"}}, {"type": "way", "id": 1028839019, "center": {"lat": -12.9972858, "lon": -74.7237905}, "nodes": [9485109214, 9485109213, 9485109212, 9485109211, 9485109210, 7044854461, 9485109209, 9485109208, 9485109207, 9485109206, 9485109205, 9485109214], "tags": {"addr:street": "Avenida Esmeralda", "amenity": "hospital", "name": "Lircay", "operator": "Gobierno Regional", "phone": "+51 980088604", "ref:category": "II-1", "ref:microred": "0", "ref:red": "4"}}, {"type": "way", "id": 1028925649, "center": {"lat": -16.3939692, "lon": -71.5300021}, "nodes": [9485932968, 914162062, 9485932967, 9485932966, 9485932965, 9485932964, 9485932963, 9485932962, 9485932961, 9485932960, 9485932959, 9485932958, 9485932957, 9485932953, 9485932956, 9485932954, 9485932955, 9485932968], "tags": {"amenity": "hospital", "name": "Centro de Emergencias Cr\u00edticas"}}, {"type": "way", "id": 1030551649, "center": {"lat": -11.2487286, "lon": -74.6355947}, "nodes": [9499497444, 9499497452, 9499497451, 9499497450, 9499497449, 9499497448, 9499497447, 9499497446, 9499497445, 9499497444], "tags": {"addr:housenumber": "398", "addr:street": "Daniel Alcides Carri\u00f3n", "amenity": "hospital", "emergency": "yes", "fax": "+51 64 545020", "name": "Hospital de Apoyo Manuel Higa Arakaki", "phone": "+51 64 545020", "source": "www.minsa.gob.pe"}}, {"type": "way", "id": 1031040459, "center": {"lat": -12.6171537, "lon": -73.7932932}, "nodes": [7039419492, 9503721153, 9503721152, 9503721151, 9503721150, 9503721149, 9503721148, 7039419492], "tags": {"addr:street": "Avenida Aeropuertos", "amenity": "hospital", "name": "San Juan de Kimbiri-Vraem", "operator": "Gobierno Regional", "phone": "+51 66 325197", "ref:category": "II-E", "ref:microred": "1", "ref:red": "5"}}, {"type": "way", "id": 1031040710, "center": {"lat": -13.0134098, "lon": -73.9768817}, "nodes": [9503740739, 9503740738, 9503740737, 9503740736, 9503740735, 7073277396, 9503740733, 9503740734, 9503740739], "tags": {"addr:street": "Avenida Ramon Castilla", "amenity": "hospital", "name": "Hospital de Apoyo San Miguel", "operator": "Gobierno Regional", "phone": "+51 66 324060", "ref:category": "II-E", "ref:microred": "0", "ref:red": "3"}}, {"type": "way", "id": 1031593470, "center": {"lat": -16.4349477, "lon": -71.5363675}, "nodes": [9507241316, 5000803249, 9507241315, 9507241314, 9507241313, 9507241316], "tags": {"addr:city": "Jos\u00e9 Luis Bustamante y Rivero", "addr:street": "Las Pe\u00f1as", "amenity": "hospital", "name": "Puesto de Salud Salaverry", "operator": "Gobierno Regional", "phone": "+51 54 424411", "ref:category": "I-2", "ref:microred": "25", "ref:red": "3"}}, {"type": "way", "id": 1031890110, "center": {"lat": -16.3952624, "lon": -71.5307408}, "nodes": [9509562964, 9509562963, 4058270707, 4058270708, 9509562959, 9509562960, 5468201558, 9509562962, 4058270705, 4058270706, 9509562961, 9509584669, 9509584670, 911059872, 9509562964], "tags": {"addr:street": "Ayacucho", "amenity": "hospital", "emergency": "yes", "name": "Hospital Nacional III-1 Carlos Alberto Segu\u00edn Escobedo", "operator": "Essalud", "phone": "+51 54 226969"}}, {"type": "way", "id": 1034978840, "center": {"lat": -12.9355913, "lon": -74.2517209}, "nodes": [9533895828, 5419402721, 9533895827, 9533895826, 9533895825, 9533895824, 9533895823, 9533895822, 9533895821, 9533895820, 9533895819, 9533895818, 9533895817, 9533879186, 9533895828], "tags": {"addr:housenumber": "625", "addr:street": "Avenida Mariscal Castilla", "amenity": "hospital", "name": "Hospital de Apoyo de Huanta \"Daniel Alcides Carrion\"", "operator": "Gobierno Regional", "phone": "+51 66 321030", "ref:category": "II-1", "ref:microred": "0", "ref:red": "2"}}, {"type": "way", "id": 1047230638, "center": {"lat": -17.0741855, "lon": -70.8070233}, "nodes": [9629721398, 9629721399, 9629721400, 9629721401, 9629721402, 9629721403, 9629721404, 9629721405, 9629721406, 9629721407, 9629721408, 9629721409, 9629721410, 9629721411, 9629721412, 9629721413, 3038377675, 9629721414, 9629721415, 9629721416, 9629738517, 9629738548, 9629738518, 9629738519, 9629738520, 9629738521, 9629738522, 9629738523, 9629738524, 9629738525, 9629738526, 9629738527, 9629721398], "tags": {"addr:city": "Cuajone", "amenity": "hospital", "healthcare": "hospital", "name": "Hospital Cuajone"}}, {"type": "way", "id": 1107747534, "center": {"lat": -17.0248032, "lon": -71.9999335}, "nodes": [10135540773, 10135540774, 10135540775, 10135540776, 10135540773], "tags": {"addr:district": "Mollendo", "addr:province": "Islay", "amenity": "hospital", "healthcare": "hospital", "name": "Hospital Alto Inclan de Mollendo"}}, {"type": "way", "id": 1164954350, "center": {"lat": -14.1210093, "lon": -72.2520177}, "nodes": [6861257210, 10835629135, 10835629136, 10835629137, 10835629138, 10835629139, 10835629140, 6861257210], "tags": {"addr:full": "Sector Challhuahuacho", "amenity": "hospital", "healthcare": "hospital", "name": "Hospital de Chalhuahuacho", "operator": "Gobierno Regional", "operator:type": "public", "operator:wikidata": "Q3824815", "ref:category": "I-4", "ref:microred": "2", "ref:red": "8"}}, {"type": "way", "id": 1165316441, "center": {"lat": -10.7256141, "lon": -73.7675338}, "nodes": [10839063676, 10839063677, 10839063678, 10839063679, 10839063680, 10839063681, 10839063682, 10839063676], "tags": {"amenity": "hospital", "healthcare": "hospital", "name": "Hospital de Atalaya"}}, {"type": "way", "id": 1208921101, "center": {"lat": -12.0234297, "lon": -77.0560288}, "nodes": [11201081567, 11201081562, 11201081566, 11201081565, 11201081564, 11201081567], "tags": {"amenity": "hospital", "building": "hospital", "emergency": "yes"}}, {"type": "way", "id": 1210466203, "center": {"lat": -10.5755484, "lon": -75.4079436}, "nodes": [11214862785, 11214862786, 11214862787, 11214862788, 11214862785], "tags": {"amenity": "hospital", "healthcare": "hospital"}}, {"type": "way", "id": 1214225809, "center": {"lat": -12.4022186, "lon": -74.8665146}, "nodes": [11250128587, 1884944003, 11250128586, 11250128585, 11250128584, 11250128583, 11250128582, 11250128581, 11250128580, 11250128579, 11250128578, 11250128577, 11250128576, 11250128575, 11250128587], "tags": {"addr:street": "Bolivar", "amenity": "hospital", "emergency": "yes", "name": "Hospital de Pampas", "opening_hours": "24/7", "phone": "+51 67 456216; +51 67 456066", "ref:category": "II-1", "ref:microred": "9", "ref:red": "3", "source": "www.minsa.gob.pe"}}, {"type": "relation", "id": 2252953, "center": {"lat": -13.5432692, "lon": -72.7066362}, "members": [{"type": "way", "ref": 169146980, "role": "inner"}, {"type": "way", "ref": 169146968, "role": "outer"}], "tags": {"addr:country": "PE", "addr:district": "Curahuasi", "addr:place": "Anexo Ccocharay", "amenity": "hospital", "building": "yes", "contact:phone": "+51 83 83 7005", "contact:website": "http://www.diospi-suyana.com/", "email": "info@diospi-suyana.org", "healthcare": "hospital", "healthcare:speciality": "general;paediatrics;dentistry;ophthalmology;orthopaedics;gynaecology;surgery;emergency;radiology;internal;osteopathy", "name": "Hospital Diospi Suyana", "operator": "Asociaci\u00f3n Civil Religiosa Diospi Suyana", "type": "multipolygon", "website": "http://www.diospi-suyana.com/", "wikidata": "Q1227081", "wikipedia": "de:Diospi Suyana"}}, {"type": "relation", "id": 7085908, "center": {"lat": -10.0675735, "lon": -78.1557044}, "members": [{"type": "way", "ref": 191964821, "role": "outer"}, {"type": "way", "ref": 481365952, "role": "outer"}, {"type": "way", "ref": 481365951, "role": "outer"}, {"type": "way", "ref": 481365955, "role": "outer"}, {"type": "way", "ref": 481365954, "role": "outer"}, {"type": "way", "ref": 481365957, "role": "outer"}], "tags": {"addr:city": "Huarmey", "addr:street": "Avenida Panamericana Norte", "amenity": "hospital", "emergency": "yes", "fax": "+51 43 600209", "name": "Hospital de apoyo Pedro Tapia Marcelo - Huarmey", "operator": "Gobierno Regional", "phone": "+51 43 600209", "ref:category": "II-1", "ref:microred": "0", "ref:red": "3", "source": "www.minsa.gob.pe", "type": "multipolygon"}}, {"type": "relation", "id": 7772190, "center": {"lat": -17.6123912, "lon": -71.3356826}, "members": [{"type": "way", "ref": 543821146, "role": "inner"}, {"type": "way", "ref": 543821145, "role": "outer"}], "tags": {"addr:city": "Ilo", "amenity": "hospital", "healthcare": "hospital", "name": "Hospital Southern Peru - Ilo", "type": "multipolygon"}}, {"type": "relation", "id": 9217579, "center": {"lat": -18.4835036, "lon": -70.3066617}, "members": [{"type": "way", "ref": 663172755, "role": "outer"}, {"type": "way", "ref": 663172757, "role": "outer"}], "tags": {"amenity": "hospital", "emergency": "yes", "healthcare": "hospital", "name": "Cl\u00ednica San Jos\u00e9", "type": "multipolygon"}}, {"type": "relation", "id": 9721207, "center": {"lat": -11.9012181, "lon": -77.0343618}, "members": [{"type": "way", "ref": 699540456, "role": "outer"}, {"type": "way", "ref": 699540457, "role": "inner"}], "tags": {"addr:city": "Carabayllo", "addr:full": "Av. San Mart\u00edn Cdra. 2 S/N Urb. Santa Isabel", "addr:street": "Avenida San Martin", "amenity": "hospital", "building": "yes", "healthcare": "hospital", "healthcare:speciality": "general", "name": "SISOL Salud Carabayllo", "old_name": "Hospital de la Solidaridad Carabayllo", "opening_hours": "Mo-Sa 07:00-19:00", "operator": "Municipalidad Metropolitana de Lima", "phone": "+511 543 3444", "type": "multipolygon", "wheelchair": "yes"}}, {"type": "relation", "id": 9724165, "center": {"lat": -11.9706344, "lon": -77.0572059}, "members": [{"type": "way", "ref": 699547832, "role": "outer"}, {"type": "way", "ref": 474916619, "role": "outer"}, {"type": "way", "ref": 474916617, "role": "outer"}], "tags": {"addr:city": "Comas", "addr:full": "Av. T\u00fapac Amaru Km. 7.5, Parque La Merced", "addr:street": "Avenida T\u00fapac Amaru", "amenity": "hospital", "building": "roof", "building:levels": "1", "healthcare": "hospital", "healthcare:speciality": "general", "layer": "1", "name": "SISOL Salud Comas", "old_name": "Hospital de la Solidaridad Comas", "opening_hours": "Mo-Sa 07:00-19:00", "operator": "Municipalidad Metropolitana de Lima", "phone": "+511 525 5462", "type": "multipolygon", "website": "http://www.sisol.gob.pe/", "wheelchair": "yes"}}, {"type": "relation", "id": 9724186, "center": {"lat": -12.1948365, "lon": -76.9596516}, "members": [{"type": "way", "ref": 154964077, "role": "outer"}, {"type": "way", "ref": 154964076, "role": "outer"}], "tags": {"addr:city": "Villa El Salvador", "addr:full": "Av. Pastor Sevilla Con \u00d3valo Pumacahua", "addr:street": "Avenida Mariano Pastor Sevilla", "amenity": "hospital", "healthcare": "hospital", "healthcare:speciality": "general", "name": "SISOL Salud Villa El Salvador", "old_name": "Hospital de la Solidaridad Villa El Salvador", "opening_hours": "Mo-Sa 08:00-17:00", "operator": "Municipalidad Metropolitana de Lima", "phone": "+511 292 3504", "type": "multipolygon", "website": "http://www.sisol.gob.pe/", "wheelchair": "yes"}}]}