{"version": 0.6, "generator": "Overpass API 0.7.61.5 4133829e", "osm3s": {"timestamp_osm_base": "2023-10-31T20:49:30Z", "copyright": "The data included in this document is from www.openstreetmap.org. The data is made available under ODbL."}, "elements": [{"type": "node", "id": 5798460154, "lat": -14.9200022, "lon": 13.4892821, "tags": {"addr:city": "Lubango", "addr:street": "Avenida 14 de Abril", "amenity": "hospital", "emergency": "yes", "healthcare": "hospital", "healthcare:speciality": "Obstetrics-Gynecology", "name": "Banco de Urg\u00eancia Obst\u00e9trica - Maternidade Irene Neto", "operator": "MINSA-Minist\u00e9rio da Sa\u00fade", "operator:type": "public"}}, {"type": "node", "id": 7298011018, "lat": -14.9192879, "lon": 13.4804769, "tags": {"amenity": "hospital", "healthcare": "hospital", "name": "Entrada - Hospital Doutor Agostinho Neto - Hospital Universit\u00e1rio do Lubango (HAG-HUL)", "operator": "Dire\u00e7\u00e3o Provincial da Sa\u00fade", "operator:type": "public"}}, {"type": "node", "id": 7683838576, "lat": -14.9158382, "lon": 13.4882357, "tags": {"addr:city": "Lubango", "addr:street": "Largo Afonso Cerqueira", "amenity": "hospital", "healthcare": "hospital", "name": "Cl\u00ednica Sagrada Esperan\u00e7a Lubango (CFM/CSE)", "operator": "Endiama", "operator:type": "private", "website": "https://clinicasagradaesperanca.co.ao/unidade/lubango"}}, {"type": "node", "id": 7704386723, "lat": -14.9301876, "lon": 13.4847961, "tags": {"addr:city": "Lubango", "addr:street": "Avenida Presidente Samora Machel", "amenity": "hospital", "healthcare": "hospital", "name": "Hospital da Pol\u00edcia", "operator": "Comando Provincial da Pol\u00edcia Nacional da Hu\u00edla", "operator:type": "public"}}, {"type": "node", "id": 7712050043, "lat": -14.9275337, "lon": 13.5513716, "tags": {"amenity": "hospital", "healthcare": "hospital", "name": "Centro M\u00e9dico El Shaday", "operator": "Minist\u00e9rio da Sa\u00fade", "operator:type": "private"}}, {"type": "node", "id": 8488852395, "lat": -14.8867676, "lon": 13.52566, "tags": {"addr:street": "Pequena rua sem nomea\u00e7ao", "amenity": "hospital", "healthcare": "hospital", "name": "Farm\u00e1cia Roguel"}}, {"type": "node", "id": 8500130975, "lat": -14.9227319, "lon": 13.4958946, "tags": {"addr:city": "Lubango", "addr:street": "Rua Rainha Lussinga", "amenity": "hospital", "healthcare": "hospital", "name": "Centro de Sa\u00fade da Organiza\u00e7\u00e3o da Mulher Angolana (O.M.A.)"}}, {"type": "node", "id": 8520491796, "lat": -14.9225518, "lon": 13.4955075, "tags": {"addr:city": "Lubango", "addr:street": "Avenida Comandante Eurico Gon\u00e7alves", "amenity": "hospital", "healthcare": "hospital", "name": "Centro M\u00e9dico de Medicina Natural"}}, {"type": "node", "id": 8520559779, "lat": -14.9226762, "lon": 13.4961781, "tags": {"addr:city": "Lubango", "addr:street": "Rua Rainha Lussinga", "amenity": "hospital", "healthcare": "hospital", "name": "Mediag"}}, {"type": "node", "id": 8520947076, "lat": -14.9183529, "lon": 13.5008785, "tags": {"amenity": "hospital", "healthcare": "hospital", "name": "Farm\u00e1cia Ann"}}, {"type": "node", "id": 8532470494, "lat": -14.8362695, "lon": 13.6145903, "tags": {"addr:street": "EN105;EN280", "amenity": "hospital", "healthcare": "hospital", "name": "Centro M\u00e9dico dos Chineses"}}, {"type": "node", "id": 8540682137, "lat": -14.9248752, "lon": 13.5296766, "tags": {"addr:city": "Lubango", "addr:street": "Avenida M\u00e1rtires de 8 de Novembro", "amenity": "hospital", "healthcare": "hospital", "name": "Centro M\u00e9dico Natural Sadracke"}}, {"type": "node", "id": 8807351119, "lat": -14.8954247, "lon": 13.5016819, "tags": {"amenity": "hospital", "healthcare": "hospital", "name": "Unidade Especial de Nutri\u00e7\u00e3o (UEN)", "operator": "Centro de Sa\u00fade da Mitcha"}}, {"type": "node", "id": 8807351120, "lat": -14.8951598, "lon": 13.5009356, "tags": {"amenity": "hospital", "healthcare": "hospital", "name": "Banco de Urg\u00eancia", "operator": "Centro de Sa\u00fade da Mitcha", "operator:type": "public"}}, {"type": "node", "id": 8869074399, "lat": -14.93849, "lon": 13.5482032, "tags": {"alt_name": "Hospital da Terceira Idade", "amenity": "hospital", "barrier": "wall", "healthcare": "hospital", "healthcare:speciality": "Banco_de_Urg\u00eancias;Consultas_gerais;PAV;CPN;Partos;PF;Aconselhamento_e_Testagem_Volunt\u00e1ria_de_VIH;PTV;Pediatria;Medicina;Curativos;Inje\u00e7\u00f5es;Puericultura;Laborat\u00f3rio;Farm\u00e1cia;IEC.", "name": "Centro de Sa\u00fade da Terceira Idade (CS Terceira Idade)", "operator": "Dire\u00e7\u00e3o Municipal da Sa\u00fade do Lubango", "operator:type": "public"}}, {"type": "node", "id": 10935371301, "lat": -12.4395572, "lon": 16.9142514, "tags": {"amenity": "hospital", "name": "Hospital Dr: Walter Strangway", "operator": "Ministerio da Sa\u00fade"}}, {"type": "node", "id": 11060229558, "lat": -15.2156882, "lon": 12.1330854, "tags": {"addr:city": "Mo\u00e7\u00e2medes", "amenity": "hospital", "emergency": "no", "healthcare": "centre", "healthcare:speciality": "general", "name": "Centro M\u00e9dico Val\u00f3dia II \" Bag-Dad\"", "operator": "Administra\u00e7\u00e3o Local do Estado", "operator:type": "public"}}, {"type": "node", "id": 11060440392, "lat": -15.2032748, "lon": 12.1352284, "tags": {"addr:city": "Mo\u00e7\u00e2medes", "addr:place": "Torre do Tombo", "amenity": "hospital", "emergency": "yes", "healthcare": "centre", "name": "Centro M\u00e9dico Val\u00f3dia I", "operator": "Administra\u00e7\u00e3o Local do Estado", "operator:type": "public"}}, {"type": "node", "id": 11060477921, "lat": -15.2005089, "lon": 12.1297238, "tags": {"addr:city": "Mo\u00e7\u00e2medes", "addr:street": "Avenida Praia Azul", "amenity": "hospital", "emergency": "no", "healthcare": "hospital", "name": "Posto M\u00e9dico Kamburuku", "operator": "Administra\u00e7\u00e3o Local do Estado", "operator:type": "public"}}, {"type": "node", "id": 11060568589, "lat": -15.1883722, "lon": 12.1741377, "tags": {"addr:city": "Mo\u00e7\u00e2medes", "amenity": "hospital", "healthcare": "centre", "healthcare:speciality": "general", "name": "Centro de Sa\u00fade Forte Santa Rita", "operator": "Administra\u00e7\u00e3o Local do Estado", "operator:type": "public"}}, {"type": "node", "id": 11060570392, "lat": -15.1803368, "lon": 12.1617986, "tags": {"addr:city": "Mo\u00e7\u00e2medes", "addr:street": "Rua do Mercado Municipal dos Eucaliptos", "amenity": "hospital", "healthcare": "centre", "healthcare:speciality": "general", "name": "Centro de Sa\u00fade dos Eucaliptos", "operator": "Administra\u00e7\u00e3o Local do Estado", "operator:type": "public"}}, {"type": "node", "id": 11060575670, "lat": -15.1991274, "lon": 12.1949151, "tags": {"addr:city": "Mo\u00e7\u00e2medes", "amenity": "hospital", "healthcare": "yes", "healthcare:speciality": "general", "name": "Posto de Sa\u00fade Boa Esperan\u00e7a", "operator": "Administra\u00e7\u00e3o Local do Estado", "operator:type": "public"}}, {"type": "node", "id": 11060581246, "lat": -15.2011679, "lon": 12.1679264, "tags": {"addr:city": "Mo\u00e7\u00e2medes", "amenity": "hospital", "healthcare": "yes", "healthcare:speciality": "general", "name": "Centro de Sa\u00fade 5 de Abril", "operator": "Administra\u00e7\u00e3o Local do Estado", "operator:type": "public"}}, {"type": "node", "id": 11060604398, "lat": -15.2218733, "lon": 12.1907047, "tags": {"addr:city": "Mo\u00e7\u00e2medes", "addr:street": "Estrada para Virei", "amenity": "hospital", "healthcare": "hospital", "healthcare:speciality": "general", "name": "Centro M\u00e9dico Bela Vista", "operator": "Administra\u00e7\u00e3o Local do Estado", "operator:type": "public"}}, {"type": "way", "id": 173244150, "center": {"lat": -11.2043958, "lon": 13.8422875}, "nodes": [1840961995, 1840962067, 1840961935, 1840961989, 1840962021, 1840962032, 1840961979, 1840961952, 1840962153, 1840961906, 1840962111, 1840962020, 1840962034, 1840964708, 1840964729, 1840964711, 9674787193, 1840962148, 1840910256, 1840961995], "tags": {"amenity": "hospital", "emergency": "yes", "name": "Hospital Geral do Kwanza Sul"}}, {"type": "way", "id": 183716353, "center": {"lat": -17.0687513, "lon": 15.7238879}, "nodes": [1941295665, 1941295660, 1941295662, 1941295670, 1941295667, 1941295671, 1941295665], "tags": {"amenity": "hospital", "emergency": "yes", "healthcare": "hospital", "name": "Hospital Provincial do Cunene"}}, {"type": "way", "id": 184256060, "center": {"lat": -14.9152456, "lon": 13.5030701}, "nodes": [1947148806, 7593818456, 7593818532, 1947148804, 7593818534, 7593812171, 7593818448, 1947148812, 7593818446, 7593818451, 7593818413, 1947148816, 7593812172, 1947148806], "tags": {"addr:city": "Lubango", "addr:street": "Rua do Estado Maior", "amenity": "hospital", "barrier": "wall", "healthcare": "hospital", "name": "Hospital Militar do Lubango", "operator": "Minist\u00e9rio da Defesa", "operator:type": "military", "wikidata": "Q542209", "wikipedia": "pt:For\u00e7as Armadas Angolanas"}}, {"type": "way", "id": 191197605, "center": {"lat": -11.1887907, "lon": 13.8578275}, "nodes": [2017962171, 2017962173, 9674803154, 2017962170, 9674803155, 2017962172, 2017962171], "tags": {"amenity": "hospital", "name": "Hospital do Sumbe"}}, {"type": "way", "id": 197857513, "center": {"lat": -19.2441185, "lon": 17.706834}, "nodes": [2080556418, 2080556387, 2080556388, 2080556420, 2080556444, 2080556436, 2080556438, 1141166331, 2080556418], "tags": {"amenity": "hospital", "barrier": "wall", "emergency": "yes", "name": "Tsumeb State Hospital"}}, {"type": "way", "id": 224883999, "center": {"lat": -17.4485741, "lon": 15.8676302}, "nodes": [2337282507, 2337282504, 2337282500, 2337282486, 2337282482, 2337282481, 2337282483, 2337282479, 2337282480, 2337282484, 7532703403, 7532703397, 7532703400, 2337282508, 2337282507], "tags": {"amenity": "hospital", "emergency": "yes", "healthcare": "hospital", "name": "Engela Hospital"}}, {"type": "way", "id": 226632787, "center": {"lat": -17.6275487, "lon": 18.6145695}, "nodes": [2350295656, 2350295658, 2350295660, 2350295662, 2350295628, 2350295642, 2350295644, 2350295650, 2350295640, 2350295652, 2350295654, 2350295656], "tags": {"addr:city": "Nkurenkuru", "amenity": "hospital", "healthcare": "hospital", "name": "Nkurenkuru Health Centre"}}, {"type": "way", "id": 227396478, "center": {"lat": -17.9164585, "lon": 19.7678275}, "nodes": [2360839801, 2360839813, 2360839802, 2360839803, 2360839804, 2360839805, 2360839806, 2360839807, 2361060714, 6793902316, 6793902317, 6793902318, 6793902319, 6793902320, 2360839809, 2360839810, 2360839812, 2360839811, 2363124853, 2360839801], "tags": {"addr:city": "Rundu", "amenity": "hospital", "healthcare": "hospital", "name": "Rundu State Hospital", "phone": "+264 66 265500"}}, {"type": "way", "id": 234883654, "center": {"lat": -12.5718127, "lon": 13.4026794}, "nodes": [2430075810, 10753009055, 2430075823, 2430075788, 2462982207, 10753009054, 2463032761, 2430075842, 2430075810], "tags": {"addr:city": "Benguela", "addr:street": "Rua 31 de Janeiro", "amenity": "hospital", "healthcare": "hospital", "internet_access": "wlan", "name": "Hospital Geral de Benguela", "opening_hours": "24/7", "source": "local knowledge"}}, {"type": "way", "id": 235587551, "center": {"lat": -12.3592836, "lon": 13.5333898}, "nodes": [2436470696, 2436470618, 2436470604, 2436470580, 2436470583, 2436470600, 10973571867, 2436470654, 2436470555, 2436470696], "tags": {"amenity": "hospital", "emergency": "yes", "healthcare": "hospital", "name": "Hospital Central do Lobito"}}, {"type": "way", "id": 242203591, "center": {"lat": -14.9203284, "lon": 13.4893729}, "nodes": [7466959745, 7606118998, 7606118997, 7235748071, 7606119008, 7606119010, 7606119009, 2497183493, 7620932538, 7606056981, 7620467836, 7620467835, 7620932536, 7620932535, 7620467840, 2497183499, 7620467838, 7620467833, 7620467830, 7620932582, 7620467826, 7620932580, 7620467824, 7620467820, 2497183488, 2497183490, 7620467804, 7606119002, 7617560693, 8869074346, 7466959745], "tags": {"addr:city": "Lubango", "addr:street": "Pra\u00e7a Gabriel Calofe", "amenity": "hospital", "emergency": "yes", "healthcare": "hospital", "healthcare:speciality": "paediatrics;gynaecology;Obstetrics-Gynecology", "name": "Centro Materno-Infantil Irene Neto", "operator": "Dire\u00e7\u00e3o Provincial da Sa\u00fade", "operator:type": "public"}}, {"type": "way", "id": 242273865, "center": {"lat": -14.9190951, "lon": 13.4817012}, "nodes": [2497807226, 7298055038, 8873688703, 8873688705, 8873688706, 8873688704, 6487604087, 6487604088, 8873688628, 2497807230, 7298055039, 7298055040, 7298055041, 7298055042, 8873688764, 8873688767, 8869070959, 6487604089, 8873688774, 8878117278, 8873688674, 8873688675, 8875569096, 7298055032, 7298054995, 7298054994, 7298054993, 7298054992, 7298054991, 7298054990, 7298054997, 7298055036, 8873688648, 2497807226], "tags": {"amenity": "hospital", "barrier": "wall", "healthcare": "hospital", "name": "Hospital Sanat\u00f3rio do Lubango (HSL)", "operator": "Dire\u00e7\u00e3o Provincial da Sa\u00fade"}}, {"type": "way", "id": 246235161, "center": {"lat": -17.9117244, "lon": 16.0429033}, "nodes": [2532968457, 2532968458, 7270621126, 6112552714, 6112552711, 6112552709, 1299377018, 1299376993, 6112551383, 6112552687, 1299377014, 2532968463, 2532968464, 1299376982, 2532968466, 8482702362, 8482702365, 2532968467, 3905608667, 2532968457], "tags": {"addr:city": "Oniipa", "amenity": "hospital", "healthcare": "hospital", "name": "Onandjokwe Hospital", "wikidata": "Q14432830", "wikipedia": "en:Onandjokwe State Hospital"}}, {"type": "way", "id": 276925010, "center": {"lat": -15.1964874, "lon": 12.1640778}, "nodes": [2814791960, 2814791965, 2814791974, 2814791968, 2814791960], "tags": {"addr:city": "Mo\u00e7\u00e2medes", "amenity": "hospital", "healthcare": "yes", "healthcare:speciality": "general", "name": "Posto de M\u00e9dico do Cassanje", "operator": "Administra\u00e7\u00e3o Local do Estado", "operator:type": "public"}}, {"type": "way", "id": 276950649, "center": {"lat": -15.2025825, "lon": 12.1435634}, "nodes": [2815008973, 2815008972, 9204913891, 9204913856, 2815008979, 2815008987, 9204913921, 9204913922, 9204913923, 9204913924, 9204913925, 9204913926, 9204913991, 9204862702, 9204913927, 9204913928, 9204913929, 9204913930, 9204913931, 9204913932, 9204913919, 2815009165, 9204862703, 9206632830, 9206632845, 9206632829, 2815009146, 11126530794, 11126530797, 9206628984, 9206629016, 2815009161, 9206632817, 9206629014, 9204913900, 9204913892, 9204913847, 9206632828, 2815008973], "tags": {"addr:city": "Mo\u00e7\u00e2medes", "addr:street": "Rua Gerrilheiro Faria", "amenity": "hospital", "emergency": "yes", "healthcare": "hospital", "name": "Hospital Provincial Ngola Kimbanda", "operator": "Governo Provincial do Namibe (GPN)", "operator:type": "public"}}, {"type": "way", "id": 280500067, "center": {"lat": -12.3386852, "lon": 13.5534697}, "nodes": [2846087502, 2846087503, 2846083896, 2846083889, 2846087501, 2846083892, 2846083898, 2846083899, 2846083893, 2846083900, 2846087505, 2846087504, 2846087506, 2846083897, 2846083891, 2846083890, 2846083895, 2846083894, 2846087502], "tags": {"amenity": "hospital", "emergency": "yes", "healthcare": "hospital", "name": "Maternidade da Restinga"}}, {"type": "way", "id": 290512195, "center": {"lat": -12.3728437, "lon": 13.5447085}, "nodes": [2940372706, 2940374185, 2940372707, 3059350774, 3059350773, 2940372708, 2940372709, 2940372710, 2940372706], "tags": {"amenity": "hospital", "healthcare": "hospital", "name": "Hospital do Caminho de Ferro"}}, {"type": "way", "id": 291765313, "center": {"lat": -12.3741489, "lon": 13.5498755}, "nodes": [2952590703, 2952590704, 2952590705, 2952590706, 2952590703], "tags": {"amenity": "hospital", "healthcare": "hospital", "name": "Hospital Pediatrico do Lobito"}}, {"type": "way", "id": 291769788, "center": {"lat": -12.4327288, "lon": 13.5405361}, "nodes": [2952648846, 2952648847, 2952648848, 2952648849, 2952648850, 2952648851, 2952648852, 2952648853, 2952648854, 2952648855, 2952648856, 2952648857, 2952648846], "tags": {"amenity": "hospital", "emergency": "yes", "name": "Hospital Militar da Catumbela"}}, {"type": "way", "id": 296202232, "center": {"lat": -12.4425568, "lon": 13.5379927}, "nodes": [2999954367, 2999954368, 2999954369, 2999954370, 2999954371, 2999954372, 2999954373, 2999954374, 2999954375, 2999954376, 2999954367], "tags": {"amenity": "hospital", "healthcare": "hospital", "name": "Hospital S\u00e3o Pedro"}}, {"type": "way", "id": 314717588, "center": {"lat": -17.8588134, "lon": 19.3573262}, "nodes": [3207629128, 2357464402, 6539007173, 2357464405, 3207628992, 3207629048, 9547118948, 9547118947, 9547118946, 9547138012, 3207629149, 9547118939, 3207629088, 3207629038, 9547118933, 9547118932, 3207629128], "tags": {"amenity": "hospital", "healthcare": "hospital", "name": "Bunya Health Centre"}}, {"type": "way", "id": 317634855, "center": {"lat": -15.1110953, "lon": 13.6986716}, "nodes": [3239163621, 3239163622, 3239163623, 3239163624, 3239163625, 3239163626, 3239163627, 3239163621], "tags": {"amenity": "hospital", "name": "Cl\u00ednica Rio da Huila", "operator": "UIEA"}}, {"type": "way", "id": 359249620, "center": {"lat": -10.8503373, "lon": 14.3653709}, "nodes": [3640077528, 3640077529, 3640077530, 3640077531, 8797703371, 3640077532, 3640077528], "tags": {"amenity": "hospital"}}, {"type": "way", "id": 389177359, "center": {"lat": -17.7783121, "lon": 15.7663913}, "nodes": [6114704984, 3923347936, 1375542333, 4348272543, 4673098620, 4673098619, 3923347939, 6114704983, 6114704984], "tags": {"amenity": "hospital", "name": "Ongwediva MediPark"}}, {"type": "way", "id": 414606485, "center": {"lat": -14.9841213, "lon": 14.1801349}, "nodes": [4157230591, 4157230596, 4157230594, 4157230595, 4157230591], "tags": {"amenity": "hospital", "healthcare": "hospital"}}, {"type": "way", "id": 414630163, "center": {"lat": -14.9621518, "lon": 13.4831029}, "nodes": [4157460308, 8345208168, 8345208170, 8345208173, 8345208169, 8345207150, 8349185432, 4157460306, 8347441099, 4157460310, 8347441098, 4157460303, 8347441091, 8345208301, 8345478164, 4157460299, 4745576240, 4157460311, 4157460308], "tags": {"addr:city": "Humpata", "addr:street": "Rua do Cristo Rei", "amenity": "hospital", "barrier": "fence", "emergency": "yes", "healthcare": "hospital", "healthcare:speciality": "Obstetrics;Obstetr\u00edcia;paediatrics;pediatria;general;gynaecology;surgery", "landuse": "residential", "name": "Centro Evang\u00e9lico de Medicina de Lubango (CEML)", "operator": "Alian\u00e7a Evang\u00e9lica de Angola", "operator:type": "religious", "start_date": "2005"}}, {"type": "way", "id": 425353662, "center": {"lat": -14.895579, "lon": 13.5013783}, "nodes": [4246887615, 8869074367, 8869074368, 8869074378, 8807349843, 8807351140, 4246887616, 5765440026, 5765440027, 8807351202, 8807351209, 5765440028, 4246887619, 8807351141, 8807351033, 4246887620, 8807351060, 8807351032, 8807351023, 8807351022, 8807349895, 8807349842, 8869074379, 4246887615], "tags": {"addr:city": "Lubango", "amenity": "hospital", "healthcare": "hospital", "healthcare:speciality": "Banco_de_Urg\u00eancias;Consultas_gerais;PAV;CPN;Partos;PF;Aconselhamento_e_Testagem_Volunt\u00e1ria_de_VIH;PTV;Pediatria;Medicina;Curativos;Inje\u00e7\u00f5es;Puericultura;Radiologia;Laborat\u00f3rio;Estomatologia;Farm\u00e1cia;IEC.;Nutri\u00e7\u00e3o", "name": "Centro de Sa\u00fade da Mitcha (CS Mitcha)", "operator": "Dire\u00e7\u00e3o Municipal da Sa\u00fade do Lubango", "operator:type": "public"}}, {"type": "way", "id": 439154743, "center": {"lat": -12.7817509, "lon": 15.733879}, "nodes": [4367820712, 4367820713, 4367820711, 4367820709, 4367820710, 4367820708, 4367820707, 4367820704, 4367820705, 4367820706, 4367820712], "tags": {"amenity": "hospital", "emergency": "yes", "name": "Hospital Militar"}}, {"type": "way", "id": 443826596, "center": {"lat": -14.9182413, "lon": 13.5002454}, "nodes": [4413662835, 4413662836, 4413662837, 4413662838, 4413662835], "tags": {"addr:city": "Lubango", "addr:housenumber": "659", "addr:street": "Avenida 4 Fevereiro", "amenity": "hospital", "emergency": "yes", "healthcare": "hospital", "name": "Centro M\u00e9dico Corpo & Mente", "opening_hours": "24/7", "operator": "Grupo Unione", "operator:type": "private", "phone": "+244 939 060 244", "website": "https://www.unioneafrica.com/area-actividade/corpoemente"}}, {"type": "way", "id": 444403190, "center": {"lat": -18.0557088, "lon": 13.840246}, "nodes": [3227227304, 1835853781, 1835853800, 7595540715, 3227227326, 3227227322, 3227227325, 3227227320, 6103358003, 1835853793, 6103358004, 6103358005, 1835853787, 3227227306, 3227227307, 3227227304], "tags": {"amenity": "hospital", "emergency": "yes", "healthcare": "hospital", "name": "Opuwo State Hospital"}}, {"type": "way", "id": 491311031, "center": {"lat": -10.8628325, "lon": 14.3258451}, "nodes": [4834388341, 4834388342, 4834388343, 4834388344, 4834388341], "tags": {"amenity": "hospital"}}, {"type": "way", "id": 550802516, "center": {"lat": -18.3713105, "lon": 19.8351844}, "nodes": [5319738311, 5319738312, 5319738313, 5319738314, 5319738315, 5319738316, 5319738311], "tags": {"amenity": "hospital", "healthcare": "hospital", "name": "Ncaute Clinic"}}, {"type": "way", "id": 629305692, "center": {"lat": -18.3647708, "lon": 16.5800732}, "nodes": [5941481812, 9489669068, 10689668588, 5941481815, 5941481812], "tags": {"amenity": "hospital", "healthcare": "hospital", "name": "Omuthiya State Hospital"}}, {"type": "way", "id": 666800246, "center": {"lat": -19.2421442, "lon": 17.721967}, "nodes": [6243229833, 6243229842, 6243229834, 6243229837, 10707267312, 6243229835, 5534775875, 5534775874, 5534775888, 10707267317, 7724439695, 6243229838, 6243237766, 6243237765, 6243229839, 6243229833], "tags": {"addr:city": "Tsumeb", "addr:housenumber": "1597", "addr:postcode": "14002", "addr:street": "Reverend James Ngaripue Street", "amenity": "hospital", "emergency": "yes", "healthcare": "hospital", "healthcare:speciality": "surgery", "name": "Tsumeb Private Hospital", "phone": "+264 67 221 001"}}, {"type": "way", "id": 678142415, "center": {"lat": -14.6631802, "lon": 17.6698791}, "nodes": [6349579735, 6349579736, 6349579737, 8919151054, 6349579738, 6349579739, 6349579740, 6349579780, 6349579741, 6349579742, 6349579775, 6349579735], "tags": {"amenity": "hospital", "healthcare": "hospital", "name": "Hospital de Menongue"}}, {"type": "way", "id": 705164164, "center": {"lat": -15.8052584, "lon": 11.8297505}, "nodes": [6622953099, 6622953100, 6622953101, 6622953102, 6622953103, 6622953104, 6622953105, 6622953106, 6622953107, 6622953108, 6622953109, 6622953110, 6622953099], "tags": {"amenity": "hospital", "building": "yes", "healthcare": "hospital"}}, {"type": "way", "id": 724235239, "center": {"lat": -10.7192801, "lon": 13.7665937}, "nodes": [6792110841, 6792110842, 6792110843, 6792110844, 6792110841], "tags": {"amenity": "hospital", "area": "yes", "healthcare": "hospital", "name": "CSE"}}, {"type": "way", "id": 743721806, "center": {"lat": -17.788301, "lon": 15.7045141}, "nodes": [6960713715, 6960713714, 6960713713, 6960713712, 6960713711, 6960713710, 6960713709, 6960713708, 6960713707, 6960713706, 6960713705, 6960713704, 6960713703, 6960713702, 6960713701, 6960713700, 6960713699, 6960713698, 6960713697, 6960713696, 6960713695, 6960713694, 6960713693, 6960713692, 6960713691, 9904196994, 9904197004, 10701478128, 6960713690, 10701478123, 6960713689, 6960713688, 6960713687, 6960713686, 1310971921, 6960713685, 6960713715], "tags": {"addr:city": "Oshakati", "amenity": "hospital", "emergency": "yes", "healthcare": "hospital", "name": "Oshakati State Hospital"}}, {"type": "way", "id": 747799675, "center": {"lat": -15.193956, "lon": 13.6808724}, "nodes": [8413441645, 9970020130, 8413441646, 6996343209, 8413441650, 8413441649, 8413441648, 8413441647, 8413441645], "tags": {"amenity": "hospital", "barrier": "wall", "healthcare": "hospital", "name": "Hospital Municipal da Chibia", "operator": "Administra\u00e7\u00e3o Municipal da Chibia", "operator:type": "government"}}, {"type": "way", "id": 781669957, "center": {"lat": -14.9198521, "lon": 13.4801616}, "nodes": [7298055006, 7298055007, 8873717572, 7298055008, 7298055009, 7297967633, 4446548066, 7298055031, 7298055012, 7298055013, 8873690967, 8873690983, 8873690966, 8873690968, 8873690970, 8875569098, 8875569099, 8875569114, 8875569349, 8873690982, 8891305083, 8891305082, 8878117277, 2497807234, 8875569096, 7298055032, 7298054995, 7298054994, 7298054993, 7298054992, 7298054991, 7298054990, 7298054997, 7298054998, 7298054999, 8873688635, 7298055000, 7298055001, 7298055002, 7298055003, 7298055004, 7298055005, 7298055006], "tags": {"addr:city": "Lubango", "addr:street": "Rua do Hospital", "alt_name": "Hospital Geral do Lubango", "amenity": "hospital", "emergency": "yes", "healthcare": "hospital", "name": "Hospital Doutor Agostinho Neto - Hospital Universit\u00e1rio do Lubango (HAN-HUL)", "old_name": "Hospital Geral de S\u00e1 da Bandeira", "operator": "Dire\u00e7\u00e3o Provincial da Sa\u00fade", "operator:type": "public", "start_date": "1940"}}, {"type": "way", "id": 783323695, "center": {"lat": -12.5842417, "lon": 13.4022025}, "nodes": [2437002175, 7315432713, 7315432714, 7315432715, 7315432716, 7315432717, 2437002175], "tags": {"addr:city": "Benguela", "addr:street": "Rua de Malange", "amenity": "hospital", "healthcare": "hospital", "name": "Cl\u00ednica S\u00e3o Filipe"}}, {"type": "way", "id": 783325058, "center": {"lat": -12.3519096, "lon": 13.5471041}, "nodes": [2815885348, 7315417531, 7315417532, 7315417533, 2815885348], "tags": {"addr:city": "Lobito", "addr:street": "Rua 15 de Agosto", "amenity": "hospital", "description": "Especialidades: M\u00e9dicina geral, Pediatria, Cardiologia, Gastroenterologia, Anestesia, Dermatologia e Cirurgia geral, Ortopedia, Otorrinolaringologia, Oftalmologia, Ginecologia, Obstetr\u00edcia, Urologia e outros.", "emergency": "yes", "healthcare": "hospital", "name": "Cl\u00ednica Medicrisal", "name:ru": "\u041a\u043b\u0438\u043d\u0438\u043a\u0430 \"\u041c\u0415\u0414\u0418\u041a\u0420\u0418\u0417\u0410\u041b\""}}, {"type": "way", "id": 783355757, "center": {"lat": -12.3693702, "lon": 13.5965055}, "nodes": [4302091707, 7315787155, 7315787156, 7315787157, 7315787158, 7315787159, 7315787160, 7315787161, 7315787162, 7315787163, 7315787164, 7315787165, 7315787166, 7315787167, 7315787168, 7315787169, 7315787170, 7315787171, 7315787172, 7315787173, 7315787174, 7315787175, 7315787176, 7315787177, 4302091707], "tags": {"amenity": "hospital", "healthcare": "hospital"}}, {"type": "way", "id": 783357134, "center": {"lat": -12.9526499, "lon": 13.1011784}, "nodes": [7315931151, 9674803584, 9674803582, 9674803581, 9674803583, 9674803578, 9674803577, 7315931147, 7315931146, 9674803560, 9674803587, 9674803549, 9674803545, 9674803546, 9674803550, 9674803547, 9674803548, 9674803551, 9674803586, 9674803585, 9674803588, 4347490893, 7315931151], "tags": {"amenity": "hospital", "emergency": "yes", "healthcare": "hospital", "name": "Hospital Dombe Grande", "source": "Survey"}}, {"type": "way", "id": 783360498, "center": {"lat": -10.7237731, "lon": 13.7877694}, "nodes": [9677837871, 9677837861, 9677837860, 9677837859, 9677837858, 9677837870, 9677837857, 9677837856, 9677837855, 7315957416, 7315957415, 9677837866, 9677837869, 9677837871], "tags": {"amenity": "hospital", "healthcare": "hospital", "name": "Centro Materna Infantil"}}, {"type": "way", "id": 783921106, "center": {"lat": -10.7311766, "lon": 13.7587148}, "nodes": [9677838224, 9677838221, 9677838219, 9677838218, 7322392950, 7322392951, 7322392949, 7322392948, 9677838220, 9677838215, 9677838226, 9677838227, 9677838222, 9677838223, 9677838224], "tags": {"amenity": "hospital", "fixme": "verificar se a \u00e1rea do hospital est\u00e1 correta"}}, {"type": "way", "id": 783924230, "center": {"lat": -12.7720079, "lon": 15.8136253}, "nodes": [7117630886, 7322529749, 7322529750, 7322529751, 7117630886], "tags": {"addr:street": "Rua da SOS", "amenity": "hospital", "healthcare": "hospital", "name": "Hospital do Cambiote", "name:en": "Hospital of Cambiote"}}, {"type": "way", "id": 793863147, "center": {"lat": -17.747076, "lon": 14.8850527}, "nodes": [7425853086, 7425853087, 7425853089, 7425853090, 7425853091, 7425853086], "tags": {"amenity": "hospital", "emergency": "yes", "healthcare": "hospital", "name": "Tsandi District Hospital"}}, {"type": "way", "id": 804680859, "center": {"lat": -17.4851042, "lon": 16.3283781}, "nodes": [7606307522, 7606307523, 7606307524, 7606307526, 7606307527, 7606307528, 7606307529, 7606307530, 7606307522], "tags": {"amenity": "hospital", "emergency": "yes", "healthcare": "hospital", "name": "Eenhana District Hospital"}}, {"type": "way", "id": 805380634, "center": {"lat": -17.4703107, "lon": 15.9046699}, "nodes": [7606202751, 7532574192, 7606202752, 9805683725, 7606202753, 7606202754, 7606202751], "tags": {"amenity": "hospital", "healthcare": "hospital", "name": "Ohangwena Clinic"}}, {"type": "way", "id": 805502402, "center": {"lat": -17.8881307, "lon": 15.0712057}, "nodes": [1029268619, 7533489088, 7605102774, 7605102773, 7605102772, 7605102771, 7605102770, 7533489089, 7533489090, 1029268619], "tags": {"amenity": "hospital", "healthcare": "hospital", "name": "Okahao State Hospital"}}, {"type": "way", "id": 805503870, "center": {"lat": -19.627311, "lon": 14.8466535}, "nodes": [1357811261, 1357811267, 1357811272, 1357811281, 7606202746, 7533511128, 7533511129, 7533511130, 1357811285, 1357811261], "tags": {"amenity": "hospital", "healthcare": "hospital", "name": "Kamanjab State Clinic"}}, {"type": "way", "id": 805504468, "center": {"lat": -17.7670024, "lon": 15.7588562}, "nodes": [1375568741, 7533524683, 7533524684, 7533526585, 1375568741], "tags": {"amenity": "hospital", "healthcare": "hospital", "name": "Ongwediva State Clinic"}}, {"type": "way", "id": 805506267, "center": {"lat": -17.6614942, "lon": 15.4753737}, "nodes": [2024725282, 2024725281, 2024725280, 2024725279, 2024725277, 9033451378, 9033451379, 9033451388, 9033451380, 7533533376, 7533533377, 7606307520, 7606307521, 9033451095, 9033451094, 2024725282], "tags": {"amenity": "hospital", "healthcare": "hospital", "name": "Oshikuku Hospital"}}, {"type": "way", "id": 805506567, "center": {"lat": -17.7396632, "lon": 18.7328189}, "nodes": [4619751510, 7533536965, 7533536966, 7533536967, 4619751510], "tags": {"amenity": "hospital", "healthcare": "hospital", "name": "Nankudu Hospital", "phone": "+264 66 257 810"}}, {"type": "way", "id": 805509907, "center": {"lat": -19.5629289, "lon": 18.089381}, "nodes": [7533553104, 7533553105, 7533553106, 7533553107, 7533553104], "tags": {"addr:city": "Grootfontein", "addr:street": "Kaptein Lombaar Street", "amenity": "hospital", "healthcare": "hospital", "name": "Private Grootfontein Hospital", "phone": "+264 67240064"}}, {"type": "way", "id": 807013630, "center": {"lat": -17.5162346, "lon": 14.9860606}, "nodes": [7546554274, 7546554279, 7546554275, 7546554276, 7546554277, 7546554278, 7546554274], "tags": {"addr:city": "Outapi", "amenity": "hospital", "healthcare": "hospital", "name": "Outapi District Hospital"}}, {"type": "way", "id": 820362782, "center": {"lat": -14.914963, "lon": 13.491809}, "nodes": [7660206832, 7660206879, 7660206881, 7660206884, 7660222588, 7660222585, 7660206849, 7660206850, 7660206851, 7660206833, 7660206870, 7660206871, 7660206862, 7660206874, 7660206834, 7660206835, 7660206860, 7660206865, 7660206861, 7660206836, 7660206837, 7660206838, 7660206839, 7660206840, 7660206841, 7660206842, 7660206843, 7660206877, 7660206876, 7660206832], "tags": {"addr:city": "Lubango", "addr:street": "Rua da Mongua", "amenity": "hospital", "emergency": "yes", "healthcare": "hospital", "healthcare:speciality": "paediatrics", "name": "Hospital Pedi\u00e1trico Pioneiro Zeca", "operator": "Dire\u00e7\u00e3o Provincial da Sa\u00fade", "operator:type": "public"}}, {"type": "way", "id": 823816669, "center": {"lat": -14.9158783, "lon": 13.4879926}, "nodes": [7597147940, 7597147865, 7597147941, 7691634721, 7597147947, 8584415265, 8584415266, 1944611105, 7597147866, 7597147956, 7597147867, 7597147913, 7597147951, 7691634729, 7691634727, 7597147946, 7597147970, 7597147940], "tags": {"addr:city": "Lubango", "addr:street": "Largo Afonso Cerqueira", "amenity": "hospital", "healthcare": "hospital", "name": "Centro M\u00e9dico do Caminho de Ferro de Mo\u00e7\u00e2medes (CFM)", "operator": "Cl\u00ednica Sagrada Esperan\u00e7a", "operator:type": "private", "website": "https://clinicasagradaesperanca.co.ao/unidade/lubango"}}, {"type": "way", "id": 825459897, "center": {"lat": -14.8855139, "lon": 13.5223007}, "nodes": [7707613205, 7707613206, 8526037394, 7707613207, 10559297737, 8525770333, 8526080120, 7707613205], "tags": {"amenity": "hospital", "healthcare": "hospital", "healthcare:speciality": "general", "name": "Centro de Sa\u00fade do Nambambe (CS Nambambe)", "operator": "Minist\u00e9rio da Sa\u00fade", "operator:type": "public"}}, {"type": "way", "id": 825803095, "center": {"lat": -14.9083247, "lon": 13.5088926}, "nodes": [10565915156, 10565915157, 10565915158, 4352830807, 10565915159, 10565915156], "tags": {"addr:city": "Lubango", "addr:street": "Rua de Angola", "amenity": "hospital", "barrier": "wall", "healthcare": "hospital", "healthcare:speciality": "paediatrics;general;gynaecology", "name": "Centro de Sa\u00fade Bula Matadi", "operator": "Minist\u00e9rio da Sa\u00fade", "operator:type": "public"}}, {"type": "way", "id": 827918552, "center": {"lat": -16.5348169, "lon": 14.8655929}, "nodes": [7729130609, 7729130610, 7729130611, 7729130612, 7729130609], "tags": {"amenity": "hospital", "emergency": "yes", "healthcare": "hospital", "name": "Hospital do Chiulo", "operator": "Dioceses of Ombadja", "website": "https://www.caritasprovitaegradu.ch/projects/the-chiulo-catholic-hospital-in-angola/"}}, {"type": "way", "id": 828418667, "center": {"lat": -16.6572033, "lon": 13.424009}, "nodes": [7733530627, 7733530628, 7733530629, 7733530630, 7733530631, 7733530632, 7733530627], "tags": {"amenity": "hospital", "barrier": "wall", "healthcare": "hospital", "name": "Hospital Municipal do Curoca"}}, {"type": "way", "id": 828466585, "center": {"lat": -15.8053754, "lon": 11.8468596}, "nodes": [7733932875, 7733932876, 7736786906, 5811993948, 2183411059, 7733932878, 7733932875], "tags": {"addr:city": "T\u00f4mbua", "amenity": "hospital", "healthcare": "hospital", "name": "Hospital Municipal"}}, {"type": "way", "id": 854052926, "center": {"lat": -19.5635519, "lon": 18.0983371}, "nodes": [7964961642, 7964961643, 7964961644, 7964961645, 7964961646, 7964961647, 7964961648, 7964961649, 7964961650, 7964961651, 7964961652, 7964961653, 7964961654, 7964961655, 7964961656, 7964961657, 7964961642], "tags": {"addr:city": "Grootfontein", "addr:street": "Hospital Access Road", "amenity": "hospital", "healthcare": "hospital", "name": "Grootfontein State Hospital"}}, {"type": "way", "id": 901418426, "center": {"lat": -14.9140735, "lon": 13.4518282}, "nodes": [8373788436, 8373788432, 8373788431, 8373788427, 8373788426, 8373788423, 8373788465, 8373788454, 8373788456, 8373788448, 8373788459, 8373788458, 8373788460, 8373788461, 8373788464, 5740418510, 8373788436], "tags": {"addr:city": "Lubango", "addr:street": "Estrada da Mapunda", "amenity": "hospital", "healthcare": "hospital", "healthcare:speciality": "general", "name": "Centro de Sa\u00fade da Pedreira", "operator": "Minist\u00e9rio da Sa\u00fade"}}, {"type": "way", "id": 903996869, "center": {"lat": -14.9781736, "lon": 13.3363194}, "nodes": [6816763964, 6816763963, 6816763962, 6816763961, 6816763959, 8395714215, 8395714216, 8395714217, 8395714218, 8395714222, 8395714219, 8395714220, 8395714233, 8395714234, 8395714235, 8395714236, 8395714237, 8395714238, 8395714221, 6816796973, 8394040788, 8394040787, 6816796980, 6816763964], "tags": {"amenity": "hospital", "healthcare": "hospital", "name": "CD-3: Sa\u00fade e Est\u00e9tica"}}, {"type": "way", "id": 909022536, "center": {"lat": -13.818128, "lon": 15.7881042}, "nodes": [8440436949, 8440436950, 8440436951, 8440436952, 8440436949], "tags": {"amenity": "hospital", "healthcare": "hospital", "name": "HOSPITAL MUNICIPAL DE CHIPINDO"}}, {"type": "way", "id": 912360028, "center": {"lat": -15.0634691, "lon": 13.5406454}, "nodes": [8475497362, 8475497363, 8475497364, 8475497365, 8475497362], "tags": {"addr:street": "Estrada da Huila", "amenity": "hospital", "healthcare": "hospital", "healthcare:speciality": "general", "name": "Posto M\u00e9dico da Cidade Hu\u00edla", "operator": "Governo", "operator:type": "public"}}, {"type": "way", "id": 912798304, "center": {"lat": -14.8810451, "lon": 13.5225554}, "nodes": [8479341692, 8479341693, 8479341694, 8479341695, 8479341696, 8479341692], "tags": {"amenity": "hospital", "healthcare": "hospital", "name": "Centro M\u00e9dico Esperan\u00e7a"}}, {"type": "way", "id": 912861343, "center": {"lat": -16.7456368, "lon": 14.9717773}, "nodes": [8480078334, 8480078335, 11036361600, 8480078336, 8480078337, 8480078338, 8480078339, 8480078340, 8480078341, 8480078342, 8480078343, 8480078334], "tags": {"addr:city": "Xangongo", "addr:street": "Estrada do aeroporto", "amenity": "hospital", "healthcare": "hospital", "name": "Hospital de Ombadja"}}, {"type": "way", "id": 913871760, "center": {"lat": -14.9356804, "lon": 13.4905493}, "nodes": [8489197196, 8544918882, 8544918883, 8489197197, 8544918884, 8544918885, 8489197198, 8489197199, 8489197196], "tags": {"amenity": "hospital", "barrier": "wall", "healthcare": "hospital", "healthcare:speciality": "general", "name": "Centro de Sa\u00fade da S\u00f3frio", "operator": "Minist\u00e9rio da Sa\u00fade", "operator:type": "public"}}, {"type": "way", "id": 917973381, "center": {"lat": -14.8858234, "lon": 13.5222032}, "nodes": [8525770326, 8525770327, 8526035680, 8525770328, 8525770332, 10559297755, 10559297751, 10559297752, 10559297754, 10559297737, 8525770333, 8526080119, 8526080118, 10559297736, 10559297735, 10559297746, 8525770326], "tags": {"amenity": "hospital", "healthcare": "hospital", "healthcare:speciality": "gynaecology", "name": "Maternidade do Centro de Sa\u00fade do Nambambe", "operator": "Minist\u00e9rio da Sa\u00fade", "operator:type": "public"}}, {"type": "way", "id": 919608994, "center": {"lat": -14.9189304, "lon": 13.5110238}, "nodes": [8539577600, 8539577601, 8539577602, 8539577603, 8539675226, 8539577600], "tags": {"addr:city": "Lubango", "addr:street": "Rua da Maxiqueira", "amenity": "hospital", "barrier": "wall", "healthcare": "hospital", "healthcare:speciality": "general;paediatrics;gynaecology;obsthetrics", "name": "Centro de Sa\u00fade da Machiqueira", "operator": "Minist\u00e9rio da Sa\u00fade", "operator:type": "public"}}, {"type": "way", "id": 919609484, "center": {"lat": -14.9270567, "lon": 13.5233766}, "nodes": [8539672944, 8539672945, 8539672946, 8539672947, 8539672948, 8539672949, 8539672950, 8539672959, 8539672960, 8539672944], "tags": {"addr:city": "Lubango", "addr:street": "Avenida da Ind\u00fastria", "amenity": "hospital", "barrier": "wall", "healthcare": "hospital", "healthcare:speciality": "Banco_de_Urg\u00eancias;Consultas_gerais;PAV;CPN;Partos;PF;Aconselhamento_e_Testagem_Volunt\u00e1ria_de_VIH;PTV;Pediatria;Medicina;Curativos;Inje\u00e7\u00f5es;Puericultura;Laborat\u00f3rio;Farm\u00e1cia;IEC.", "name": "Centro de Sa\u00fade do Rio Capit\u00e3o (CS Rio Capit\u00e3o)", "operator": "Dire\u00e7\u00e3o Municipal da Sa\u00fade do Lubango", "operator:type": "public"}}, {"type": "way", "id": 921815722, "center": {"lat": -14.900976, "lon": 13.5108609}, "nodes": [8557993013, 8557993014, 8557993015, 8557993016, 8557993013], "tags": {"amenity": "hospital", "healthcare": "hospital", "name": "Centro M\u00e9dico de Oftalmologia"}}, {"type": "way", "id": 921870507, "center": {"lat": -14.4543935, "lon": 16.2933886}, "nodes": [8558516831, 9663718860, 9663718861, 9901514283, 8558516832, 10671165832, 6862203578, 8558516830, 8558516831], "tags": {"amenity": "hospital", "barrier": "wall", "healthcare": "hospital", "name": "Hospital Municipal do Cuvango"}}, {"type": "way", "id": 934311354, "center": {"lat": -17.4952226, "lon": 15.0163372}, "nodes": [8659317088, 8659317087, 8659317090, 8659317091, 8659317092, 8657973807, 8659317089, 8657973808, 8659317088], "tags": {"amenity": "hospital", "healthcare": "hospital", "name": "Anamulenge Clinic"}}, {"type": "way", "id": 938406172, "center": {"lat": -14.8261426, "lon": 14.5435055}, "nodes": [8693726631, 8693726632, 9677598886, 9677598887, 9677598885, 9677598883, 9677598882, 9677598884, 8693726633, 9677598890, 9677598855, 9677598891, 9677598856, 9677598892, 8693726631], "tags": {"amenity": "hospital", "healthcare": "hospital", "name": "Hospital Municipal de Quipungo."}}, {"type": "way", "id": 941154320, "center": {"lat": -15.2069059, "lon": 12.1813022}, "nodes": [8716133002, 8716133003, 8716133004, 8716133005, 8716133002], "tags": {"addr:city": "Mo\u00e7\u00e2medes", "addr:street": "Estrada do Bairro 5 de Abril", "amenity": "hospital", "healthcare": "yes", "healthcare:speciality": "general", "name": "Centro M\u00e9dico 5 de Abril", "operator": "Administra\u00e7\u00e3o Local do Estado", "operator:type": "public"}}, {"type": "way", "id": 945051457, "center": {"lat": -14.8979611, "lon": 13.4554935}, "nodes": [8749062762, 8749062780, 8749062779, 8749062778, 8749062777, 8749062776, 8749062775, 8749062765, 8749062766, 8749062767, 8749062768, 8749062774, 8749062773, 8749062772, 8749062771, 8749062770, 8749062769, 8749062763, 8749062764, 8749062761, 8749062762], "tags": {"addr:city": "Lubango", "addr:street": "Estrada da Tundavala", "amenity": "hospital", "building": "yes", "healthcare": "hospital", "name": "Centro de Reabilita\u00e7\u00e3o F\u00edsica da Mapunda", "operator": "Igreja Evang\u00e9lica Sinodal de Angola (IESA)", "operator:type": "private"}}, {"type": "way", "id": 948188082, "center": {"lat": -14.9031456, "lon": 13.4771694}, "nodes": [8776813880, 8776813894, 8776813881, 8776834151, 8776834150, 8776813882, 8776813883, 8776813886, 8776813880], "tags": {"addr:city": "Lubango", "amenity": "hospital", "healthcare": "hospital", "healthcare:speciality": "general", "name": "Centro de Sa\u00fade da Mapunda", "operator": "Direc\u00e7\u00e3o Municipal da Sa\u00fade do Lubango", "operator:type": "public"}}, {"type": "way", "id": 948240152, "center": {"lat": -17.9845648, "lon": 15.0453196}, "nodes": [8777248887, 8777248888, 8777248889, 8777248890, 8777248891, 8777248887], "tags": {"addr:city": "Okahao", "addr:postcode": "16008", "addr:street": "Onemanya", "amenity": "hospital", "healthcare": "hospital", "healthcare:speciality": "maternity", "name": "Indira Gandhi Clinic", "note": "initially established by the Dr Sam Nujoma Foundation"}}, {"type": "way", "id": 974998259, "center": {"lat": -16.883276, "lon": 12.5710142}, "nodes": [9022871531, 9022871534, 9022871526, 2559721127, 2559721135, 9022871527, 9022871551, 9022871548, 9022871528, 9022871545, 9022871544, 9022871532, 9022871531], "tags": {"amenity": "hospital", "barrier": "fence", "emergency": "yes", "healthcare": "hospital"}}, {"type": "way", "id": 975387074, "center": {"lat": -12.4029844, "lon": 16.9363932}, "nodes": [9026183753, 9026183754, 9026183755, 9026183756, 9026183757, 9026183758, 9026183759, 9026183760, 9026183753], "tags": {"addr:city": "Cu\u00edto", "addr:street": "Rua Joaquim Kapango", "amenity": "hospital", "building": "hospital", "building:levels": "1", "healthcare": "hospital", "phone": "+244944268866"}}, {"type": "way", "id": 992452027, "center": {"lat": -15.1178769, "lon": 12.1477812}, "nodes": [9169553547, 9169553548, 9169553549, 9169553550, 9169553547], "tags": {"addr:city": "Sacomar", "amenity": "hospital", "barrier": "fence", "healthcare": "hospital", "name": "Hospital Municipal Sacomar", "operator": "Administra\u00e7\u00e3o Municipal de Mo\u00e7\u00e2medes", "operator:type": "public"}}, {"type": "way", "id": 1005827464, "center": {"lat": -15.2105015, "lon": 12.1432269}, "nodes": [9280233274, 9280322859, 9280337431, 9280337374, 9280337385, 9280337373, 9280233235, 9280337387, 9280337435, 9280233292, 9280337438, 9280337398, 9280337399, 9280337411, 9280337449, 9280233236, 9280337406, 9280337405, 9280337452, 9280337458, 9280337459, 9280233238, 9280337464, 9280322860, 9280233274], "tags": {"addr:city": "Mo\u00e7\u00e2medes", "amenity": "hospital", "barrier": "wall", "healthcare": "hospital", "healthcare:speciality": "paediatrics;gynaecology;emergency;maternity", "name": "Hospital Provincial Materno-Infantil - Liepey", "operator": "Governo Provincial do Namibe", "operator:type": "public"}}, {"type": "way", "id": 1050662625, "center": {"lat": -17.3081548, "lon": 15.8442266}, "nodes": [9655010920, 9655010921, 9655010922, 9655010923, 9655010924, 9655010925, 9655010926, 9655010920], "tags": {"amenity": "hospital", "healthcare": "hospital", "name": "Namacunde Hospital"}}, {"type": "way", "id": 1068450812, "center": {"lat": -17.5744371, "lon": 17.2207533}, "nodes": [9808273790, 9808273791, 9808273792, 9808273793, 9808273790], "tags": {"amenity": "hospital", "healthcare": "hospital", "name": "Okongo District Hospital"}}, {"type": "way", "id": 1072047832, "center": {"lat": -15.6649307, "lon": 15.8027369}, "nodes": [9836850464, 9836850465, 9836850466, 9836850467, 9836850468, 9836850469, 9836850464], "tags": {"amenity": "hospital", "barrier": "wall", "healthcare": "hospital", "name": "Hospital Municipal do Cuvelai", "operator": "Administra\u00e7\u00e3o Municipal do Cuvelai", "operator:type": "public"}}, {"type": "way", "id": 1088455010, "center": {"lat": -14.9046584, "lon": 13.6748858}, "nodes": [9972287448, 9972287449, 9972302439, 9972287450, 9972287451, 9972287448], "tags": {"amenity": "hospital", "barrier": "wall", "healthcare": "hospital", "name": "Centro Ortop\u00e9dico do Lubango", "operator": "Minist\u00e9rio da Sa\u00fade (MINSA)", "operator:type": "public", "website": "https://www.facebook.com/Centro-Ortop%C3%A9dico-Do-Lubango-626467880802872/"}}, {"type": "way", "id": 1092546869, "center": {"lat": -17.9167674, "lon": 19.7734011}, "nodes": [10005807747, 10005807748, 10005807749, 10005807750, 10005807751, 10005807752, 10005807753, 10005807754, 10005807755, 10005807747], "tags": {"addr:city": "Rundu", "addr:housenumber": "490", "addr:street": "Simon Kempere Street", "amenity": "hospital", "healthcare": "hospital", "healthcare:speciality": "community", "name": "NAPPA Clinic"}}, {"type": "way", "id": 1093355421, "center": {"lat": -15.7255215, "lon": 12.9479005}, "nodes": [10013232968, 10013232969, 10013232970, 10013232971, 10013232972, 10013232968], "tags": {"amenity": "hospital", "emergency": "yes", "healthcare": "hospital", "name": "Hospital"}}, {"type": "way", "id": 1105220139, "center": {"lat": -19.5884414, "lon": 18.1196764}, "nodes": [10114055218, 3723918996, 10114055219, 3723919053, 3723918995, 3723918994, 3723918998, 10114055253, 10114055254, 10114055255, 10114055256, 10114055257, 10114055258, 10114055220, 10114055221, 10114055222, 10114055218], "tags": {"addr:city": "Grootfontein", "amenity": "hospital", "healthcare": "hospital", "name": "Military Hospital"}}, {"type": "way", "id": 1128060386, "center": {"lat": -14.8932976, "lon": 13.5049846}, "nodes": [11237297540, 11237297549, 8842173574, 10313518069, 10313518070, 10313518071, 10313479346, 11237278430, 11237278429, 10313518063, 10313518024, 10313479374, 10313479356, 10313479367, 10313479371, 10313518028, 11237297540], "tags": {"amenity": "hospital", "barrier": "wall", "healthcare": "hospital", "healthcare:speciality": "paediatrics;urg\u00eancia;general;vaccination;gynaecology;surgery;radiology;community", "image": "https://scontent.fopo3-1.fna.fbcdn.net/v/t39.30808-6/296727537_589640835994579_2276052462460517077_n.jpg?_nc_cat=111&ccb=1-7&_nc_sid=730e14&_nc_ohc=lPFUsSqEKm4AX_15J_Z&_nc_ht=scontent.fopo3-1.fna&oh=00_AfChK3skMxHN_kqJUfshfHSaxJOEt259EUIDPJeY77CG8Q&oe=63B", "name": "Hospital Municipal Olga Chaves", "operator": "Governo Provincial da Hu\u00edla", "operator:type": "public"}}, {"type": "way", "id": 1133016560, "center": {"lat": -17.0387407, "lon": 15.7333354}, "nodes": [10563811738, 10563822201, 10563811741, 10563811834, 10563811742, 10563811743, 10563811738], "tags": {"addr:city": "Ondjiva", "amenity": "hospital", "emergency": "yes", "healthcare": "hospital", "name": "Hospital do Ekuma"}}, {"type": "way", "id": 1138725467, "center": {"lat": -13.0359639, "lon": 14.2500226}, "nodes": [10614589178, 10614589179, 10614589180, 10614589181, 10614589178], "tags": {"amenity": "hospital", "healthcare": "hospital", "name": "Hospital Geral do Cubal"}}, {"type": "way", "id": 1153002138, "center": {"lat": -16.2825019, "lon": 14.3058575}, "nodes": [10724062690, 10724062691, 10724062692, 10724062693, 10724062694, 10724062695, 10724062696, 10724062697, 10724062698, 10724062699, 10724062690], "tags": {"addr:city": "Cahama", "amenity": "hospital", "healthcare": "hospital"}}, {"type": "way", "id": 1157876142, "center": {"lat": -13.0056451, "lon": 15.3463418}, "nodes": [10768194252, 10768194253, 10768194254, 9244991508, 9244991509, 10768194255, 10768194252], "tags": {"amenity": "hospital", "healthcare": "hospital", "name": "Hospital do Mbongo"}}, {"type": "way", "id": 1158422141, "center": {"lat": -12.6101884, "lon": 13.4131473}, "nodes": [10773105284, 10773105285, 10773105286, 5794938502, 5794938500, 10773105289, 10773105284], "tags": {"amenity": "hospital", "healthcare": "hospital"}}, {"type": "way", "id": 1158431321, "center": {"lat": -12.5578522, "lon": 13.4487555}, "nodes": [10773184111, 10773184112, 10773184113, 10773184114, 10773184111], "tags": {"addr:city": "Benguela", "amenity": "hospital", "healthcare": "hospital", "name": "Hospital da Nossa Senhora da Gra\u00e7a"}}, {"type": "way", "id": 1165666386, "center": {"lat": -13.8069785, "lon": 14.67237}, "nodes": [10842159874, 10842159875, 10842159876, 10842159877, 10842159878, 10819543060, 10842159879, 10842159880, 10842159881, 10842159882, 10842159883, 10842159884, 10842159874], "tags": {"amenity": "hospital", "healthcare": "hospital"}}, {"type": "way", "id": 1165666387, "center": {"lat": -13.8043356, "lon": 14.672151}, "nodes": [10842159885, 10829434978, 10842159891, 6690260205, 10842159886, 10829434958, 10842159892, 10842159887, 10842159890, 10842159888, 10842159889, 10842159885], "tags": {"amenity": "hospital", "healthcare": "hospital"}}, {"type": "way", "id": 1167110233, "center": {"lat": -13.8135072, "lon": 14.6789024}, "nodes": [10808146715, 10819542841, 10819542842, 10819542843, 10819542844, 10819542845, 10819542850, 10819542851, 10819542852, 10819542853, 10819542839, 10819542840, 10819543038, 10846086281, 10846086363, 10846086282, 10846086283, 10846086356, 10846086357, 10846086358, 10846086359, 10846086360, 10846086361, 10846086362, 10846086364, 10846086365, 10846086366, 10808137913, 10819543054, 10852748159, 2266833907, 10852748117, 10852748285, 10852748123, 10852748122, 10852748121, 10852748120, 10852748119, 10852748118, 10852748112, 10852748111, 10852748113, 10852748281, 10808146710, 10808146711, 10808146712, 10808146713, 10808146714, 10819542655, 10808146715], "tags": {"amenity": "hospital", "emergency": "yes", "healthcare": "hospital", "healthcare:speciality": "general;paediatrics;gynaecology;vaccination;radiology;infectious_diseases;blood_check", "name": "Hospital Evang\u00e9lico de Caluquembe", "operator": "Igreja Evang\u00e9lica Sinodal de Angola (IESA)", "operator:type": "religious"}}, {"type": "way", "id": 1168926178, "center": {"lat": -13.8159965, "lon": 14.6758529}, "nodes": [10870323842, 10870323843, 10870323844, 10870323845, 2266833909, 10823949490, 6690238259, 10867019570, 6690238260, 10867019563, 2266833910, 10870323842], "tags": {"amenity": "hospital", "emergency": "yes", "healthcare": "hospital", "healthcare:speciality": "general;radiology;infectious_diseases;blood_check", "name": "Hospital Sanat\u00f3rio Evang\u00e9lico de Caluquembe", "operator": "Igreja Evang\u00e9lica Sinodal de Angola (IESA)", "operator:type": "religious"}}, {"type": "way", "id": 1174776060, "center": {"lat": -12.4397732, "lon": 16.9142039}, "nodes": [10916059151, 10916059150, 10916059149, 10916059147, 10916059148, 10916059151], "tags": {"amenity": "hospital", "building": "yes", "name": "Hospital Dr.Walter Strangway"}}, {"type": "way", "id": 1178487862, "center": {"lat": -14.7610366, "lon": 13.35386}, "nodes": [10947974576, 10947974577, 10947974578, 10947974579, 10947974580, 10947974581, 10947974582, 10947974583, 10947974584, 10947974576], "tags": {"addr:city": "Bibala", "amenity": "hospital", "healthcare": "hospital", "name": "Hospital Municipal da Bibala"}}, {"type": "way", "id": 1189616137, "center": {"lat": -13.0227778, "lon": 14.6371795}, "nodes": [11046280377, 11046242638, 11046280378, 11046280379, 11046280380, 11046280381, 11046280377], "tags": {"addr:city": "Ganda", "amenity": "hospital", "healthcare": "hospital", "name": "Hospital Municipal da Ganda"}}, {"type": "way", "id": 1199650036, "center": {"lat": -15.2003658, "lon": 12.1426381}, "nodes": [10805268392, 11126514241, 11126514242, 11126514243, 11126514244, 10805268392], "tags": {"addr:city": "Mo\u00e7\u00e2medes", "addr:street": "Avenida Hospital Sanat\u00f3rio", "amenity": "hospital", "emergency": "yes", "healthcare": "hospital", "healthcare:speciality": "internal", "name": "Hospital Sanat\u00f3rio"}}, {"type": "way", "id": 1201014761, "center": {"lat": -17.4459722, "lon": 15.6700456}, "nodes": [11135662068, 11135662069, 11135662070, 11135662071, 11135662068], "tags": {"addr:city": "Windhoek", "addr:place": "Ongenga", "amenity": "hospital", "healthcare": "hospital", "healthcare:speciality": "clinical_pathology;community;vaccination;blood_check;otolaryngology", "name": "Ongenga Clinic"}}, {"type": "way", "id": 1201897329, "center": {"lat": -15.2185056, "lon": 12.0847226}, "nodes": [11143266182, 11143266183, 11143266184, 5819696444, 11143266187, 5820003927, 11143266185, 11143266182], "tags": {"addr:city": "Mo\u00e7\u00e2medes", "amenity": "hospital", "emergency": "yes", "healthcare": "hospital", "name": "Centro M\u00e9dico da Praia Am\u00e9lia"}}, {"type": "way", "id": 1214750370, "center": {"lat": -12.7767056, "lon": 15.7449152}, "nodes": [11254711551, 11254711560, 11254711552, 2010777877, 11254711553, 2010777864, 2145160338, 11254711554, 2145160341, 2010522677, 2010522683, 5922125881, 2010522751, 2010522721, 2010522706, 2010522611, 2010522612, 2010522676, 11254711555, 11254711556, 11254711557, 11254711558, 11254711559, 11254711551], "tags": {"addr:city": "Huambo", "addr:street": "Rua Silva da Carvalho", "amenity": "hospital", "healthcare": "hospital", "name": "Hospital Central"}}, {"type": "way", "id": 1214877500, "center": {"lat": -12.7597484, "lon": 15.7832405}, "nodes": [11255854665, 11255854666, 11255854667, 11255854668, 11255854665], "tags": {"addr:city": "Huambo", "amenity": "hospital", "healthcare": "hospital", "name": "Centro de medecina f\u00edsica e reabilita\u00e7\u00f5 \"Princesa Diana\""}}, {"type": "way", "id": 1219370138, "center": {"lat": -14.1363547, "lon": 14.9121645}, "nodes": [11298530546, 11298530547, 11298530548, 11298530549, 11298530546], "tags": {"addr:city": "Chicomba", "amenity": "hospital", "healthcare": "hospital"}}]}