{"version": 0.6, "generator": "Overpass API 0.7.61.5 4133829e", "osm3s": {"timestamp_osm_base": "2023-10-31T20:49:30Z", "copyright": "The data included in this document is from www.openstreetmap.org. The data is made available under ODbL."}, "elements": [{"type": "node", "id": 1513938951, "lat": -10.0222973, "lon": 123.8357596, "tags": {"amenity": "hospital", "building": "yes", "name": "Posyandu PNPM Melati"}}, {"type": "node", "id": 1537571749, "lat": -15.7756583, "lon": 128.734316, "tags": {"amenity": "hospital", "emergency": "yes", "fax": "+61 8 9166 4250", "name": "Kununurra District Hospital", "phone": "+61 8 9166 4222", "wikidata": "Q81096644"}}, {"type": "node", "id": 1537822155, "lat": -15.7762349, "lon": 128.7334813, "tags": {"amenity": "hospital", "emergency": "no", "healthcare": "hospital", "name": "St John Ambulance Kununurra", "phone": "+61 8 9168 2844"}}, {"type": "node", "id": 1621068614, "lat": -10.1500109, "lon": 123.6297973, "tags": {"addr:city": "Kupang", "addr:country": "ID", "addr:postcode": "85228", "addr:street": "Jl. Sumatiro", "amenity": "hospital", "health_facility:access": "public", "health_facility:type": "hospital", "medical_system:western": "yes", "name": "Posyandu Bunda VI", "opening_hours": "08:00-13:00 setiap tanggal 12 per bulan", "operator": "village"}}, {"type": "node", "id": 1621068615, "lat": -10.1479487, "lon": 123.6332331, "tags": {"addr:city": "Kupang", "addr:country": "ID", "addr:postcode": "85228", "addr:street": "Jl. Timor Raya Km. 07", "amenity": "hospital", "contact:phone": "(0380) 833360", "emergency": "yes", "health_facility:access": "public", "health_facility:type": "hospital", "medical_system:western": "yes", "name": "Rumah Sakit Hewan", "opening_hours": "24/7", "operator": "province"}}, {"type": "node", "id": 1621095906, "lat": -10.250411, "lon": 123.6109702, "tags": {"addr:city": "Kupang", "addr:country": "ID", "amenity": "hospital", "description": "Rumah warga", "health_facility:type": "hospital", "medical_system:western": "yes", "name": "Posyandu Bukit Sion", "opening_hours": "Tiap tanggal 20"}}, {"type": "node", "id": 1621095910, "lat": -10.2225784, "lon": 123.6000742, "tags": {"addr:city": "Kupang", "addr:country": "ID", "amenity": "hospital", "health_facility:type": "hospital", "medical_system:western": "yes", "name": "Posyandu Melati", "opening_hours": "Tiap tanggal 22"}}, {"type": "node", "id": 1621095935, "lat": -10.2507148, "lon": 123.6229451, "tags": {"addr:city": "Kupang", "addr:country": "ID", "amenity": "hospital", "description": "Rumah warga", "health_facility:type": "hospital", "medical_system:western": "yes", "name": "Posyandu Sejahtera", "opening_hours": "Tiap tanggal 08"}}, {"type": "node", "id": 1621095957, "lat": -10.2306253, "lon": 123.6063898, "tags": {"addr:country": "ID", "amenity": "hospital", "description": "Rumah warga", "health_facility:type": "hospital", "medical_system:western": "yes", "name": "Posyandu", "opening_hours": "Tiap tanggal 15"}}, {"type": "node", "id": 1621095962, "lat": -10.2318572, "lon": 123.6076767, "tags": {"addr:city": "Kupang", "addr:country": "ID", "amenity": "hospital", "health_facility:type": "hospital", "medical_system:western": "yes", "name": "Puskesmas Pembantu Fatukoa"}}, {"type": "node", "id": 1621109804, "lat": -10.1773086, "lon": 123.62218, "tags": {"addr:city": "Kupang", "addr:country": "ID", "addr:housenumber": "No. 14 A", "addr:street": "Jalan Amabi", "amenity": "hospital", "contact:phone": "(0380) 821272", "health_facility:access": "public", "health_facility:type": "hospital", "medical_system:western": "yes", "name": "Puskesmas Pembantu Oebufu", "opening_hours": "09:00-12:00", "operator": "village"}}, {"type": "node", "id": 1621109824, "lat": -10.1662838, "lon": 123.6275791, "tags": {"addr:city": "Kupang", "addr:country": "ID", "addr:housenumber": "69 D", "addr:street": "Jalan Rantai Damai", "amenity": "hospital", "contact:phone": "(0380) 8553914", "emergency": "yes", "health_facility:access": "public", "health_facility:type": "hospital", "medical_system:western": "yes", "name": "Rumah Sakit Ibu Dan Anak Dedari", "opening_hours": "24/7"}}, {"type": "node", "id": 1623040038, "lat": -10.2185367, "lon": 123.6264985, "tags": {"addr:city": "Kupang", "addr:country": "ID", "addr:street": "Jl. H. R. Koroh, Bello", "amenity": "hospital", "health_facility:access": "public", "health_facility:type": "hospital", "medical_system:western": "yes", "name": "Pustu Bello", "opening_hours": "07:00-14:00", "operator": "Kelurahan"}}, {"type": "node", "id": 1623067028, "lat": -10.2150558, "lon": 123.6209612, "tags": {"addr:country": "ID", "addr:street": "Jl. H. R. Koroh, Bello", "amenity": "hospital", "health_facility:access": "Pribadi", "health_facility:type": "hospital", "medical_system:western": "yes", "name": "Klinik St. Carolus Borromeus", "opening_hours": "07:00-14:00, 15:00-20:00"}}, {"type": "node", "id": 1628493436, "lat": -10.235867, "lon": 123.6343398, "tags": {"amenity": "hospital", "name": "Poskesdes Oelomin"}}, {"type": "node", "id": 1628664846, "lat": -10.2415107, "lon": 123.6453873, "tags": {"amenity": "hospital", "name": "PUSTU TUNFEU"}}, {"type": "node", "id": 1634918485, "lat": -10.0751528, "lon": 124.2312585, "tags": {"amenity": "hospital", "name": "Puskesmas Lama"}}, {"type": "node", "id": 1641363062, "lat": -10.1894913, "lon": 123.601864, "tags": {"addr:city": "Kupang", "addr:country": "ID", "addr:housenumber": "20", "addr:street": "Jl. Kecubung", "amenity": "hospital", "health_facility:type": "hospital", "medical_system:western": "yes", "name": "Posyandu Putri Malu", "opening_hours": "Tanggal 08"}}, {"type": "node", "id": 1655560628, "lat": -10.1619819, "lon": 123.6298982, "tags": {"addr:country": "ID", "addr:street": "jl.rantai damai IV", "amenity": "hospital", "health_facility:access": "public", "health_facility:type": "hospital", "medical_system:western": "yes", "name": "Posyandu Asoka", "opening_hours": "08:00-10:00", "operator": "subdistrict"}}, {"type": "node", "id": 1655560629, "lat": -10.1629872, "lon": 123.6327257, "tags": {"addr:country": "ID", "amenity": "hospital", "health_facility:access": "public", "health_facility:type": "hospital", "medical_system:western": "yes", "name": "Posyandu Kasih Sayang", "opening_hours": "08:00-10:00", "operator": "subdistrict"}}, {"type": "node", "id": 1655560630, "lat": -10.159944, "lon": 123.632484, "tags": {"addr:country": "ID", "amenity": "hospital", "health_facility:access": "public", "health_facility:type": "hospital", "medical_system:western": "yes", "name": "Posyandu Sayang Anak", "operator": "subdistrict"}}, {"type": "node", "id": 1655560631, "lat": -10.1617239, "lon": 123.6346868, "tags": {"addr:country": "ID", "addr:street": "gang.kantor lurah", "amenity": "hospital", "health_facility:access": "public", "health_facility:type": "hospital", "medical_system:western": "yes", "name": "Pustu Tuak Taun Merah", "opening_hours": "08:00-13:00", "operator": "subdistrict"}}, {"type": "node", "id": 1692911981, "lat": -10.0240182, "lon": 124.4370533, "tags": {"addr:city": "Kuanfatu", "addr:country": "ID", "amenity": "hospital", "health_facility:type": "hospital", "medical_system:western": "yes", "name": "Puskesmas Kuanfatu"}}, {"type": "node", "id": 1694282722, "lat": -10.2332374, "lon": 123.9216751, "tags": {"amenity": "hospital", "name": "pustu Apren"}}, {"type": "node", "id": 1998438549, "lat": -19.55656, "lon": 127.6608965, "tags": {"amenity": "hospital", "name": "Billiluna Clinic"}}, {"type": "node", "id": 2264514255, "lat": -10.0562216, "lon": 120.2093512, "tags": {"amenity": "hospital", "name": "Pustu Kawatu"}}, {"type": "node", "id": 2680096126, "lat": -10.0126654, "lon": 120.0451146, "tags": {"amenity": "hospital", "name": "Pustu Pr.Kareha"}}, {"type": "node", "id": 5057747321, "lat": -10.6058581, "lon": 121.6121307, "tags": {"amenity": "hospital", "name": "Puskesmas"}}, {"type": "node", "id": 8521181650, "lat": -10.7794359, "lon": 123.1618459, "tags": {"amenity": "hospital", "healthcare": "hospital", "name": "PUSKESMAS OELE BARU"}}, {"type": "node", "id": 8521281275, "lat": -10.7139252, "lon": 123.290265, "tags": {"amenity": "hospital", "healthcare": "hospital", "name": "PUSKESMAS SONIMANU", "operator": "PUSKESMAS", "operator:type": "public"}}, {"type": "node", "id": 8521298954, "lat": -10.5596067, "lon": 123.3166002, "tags": {"amenity": "hospital", "healthcare": "hospital", "name": "PUSKESMAS SOTIMORI"}}, {"type": "node", "id": 8521930406, "lat": -10.627858, "lon": 123.2344244, "tags": {"amenity": "hospital", "healthcare": "hospital"}}, {"type": "node", "id": 9555594617, "lat": -10.1822278, "lon": 123.6239387, "tags": {"amenity": "hospital", "healthcare": "hospital"}}, {"type": "way", "id": 28773808, "center": {"lat": -17.306198, "lon": 123.6332261}, "nodes": [316381229, 316381231, 316381232, 316381233, 8787434068, 8787434067, 316381229], "tags": {"amenity": "hospital", "healthcare": "hospital", "name": "Derby Regional Hospital"}}, {"type": "way", "id": 138737793, "center": {"lat": -10.2008159, "lon": 123.6041575}, "nodes": [1521294831, 1521294833, 1521294813, 1521294811, 1521294817, 1521294814, 1521294828, 1521294830, 1521294831], "tags": {"addr:city": "Kupang", "addr:country": "ID", "addr:street": "Jl. Oebonik", "amenity": "hospital", "building": "yes", "health_facility:access": "public", "health_facility:type": "hospital", "medical_system:western": "yes", "name": "Rawat Inap Puskesmas Sikumana", "opening_hours": "24/7", "operator": "subdistrict"}}, {"type": "way", "id": 141294779, "center": {"lat": -10.1727462, "lon": 123.6268106}, "nodes": [1546663328, 1546663343, 1546663341, 1546663324, 1546663326, 1546663330, 1546663328], "tags": {"amenity": "hospital", "name": "rumah sakit jiwa"}}, {"type": "way", "id": 148399860, "center": {"lat": -10.1663555, "lon": 123.5976701}, "nodes": [1615128639, 1615128640, 1615128656, 1615128651, 1615128654, 1615128647, 1615128642, 1615128644, 1615128639], "tags": {"addr:city": "Kupang", "addr:country": "ID", "addr:housenumber": "No. 6", "addr:street": "Jalan Bhakti Karya", "amenity": "hospital", "building": "yes", "contact:phone": "(0380) 823043", "health_facility:access": "public", "health_facility:type": "hospital", "healthcare": "hospital", "medical_system:western": "yes", "name": "Puskesmas Oebobo", "opening_hours": "Mo-Th 08:00-12:00, Fr 08:00-10:00, Sa 08:00-11:00", "operator": "subdistrict"}}, {"type": "way", "id": 151309946, "center": {"lat": -10.1907677, "lon": 123.6052912}, "nodes": [1641363023, 9143986758, 9143986759, 1641363026, 9143986757, 9143986756, 1641363024, 1641363022, 1641363023], "tags": {"addr:country": "ID", "amenity": "hospital", "building": "yes", "health_facility:type": "hospital", "medical_system:western": "yes", "name": "Pustu"}}, {"type": "way", "id": 181967476, "center": {"lat": -10.1639115, "lon": 123.5922337}, "nodes": [1923198150, 1923198177, 1923198186, 5662451464, 9504469941, 9504469940, 9504469939, 9504469938, 5662451463, 9504476456, 9504476455, 9504476454, 1923198184, 1923198159, 1923198152, 9763820625, 9763820626, 9504469943, 9504469949, 9504469948, 9504469947, 9504469944, 9504469945, 5662451467, 9504469946, 5662451466, 5662451465, 9504469942, 1923198150], "tags": {"amenity": "hospital", "healthcare": "hospital", "name": "RSU Bhayangkara", "operator:type": "government"}}, {"type": "way", "id": 182121935, "center": {"lat": -10.1503013, "lon": 123.6089803}, "nodes": [1924753401, 1924753400, 9765821009, 9765821010, 1924753407, 9464981141, 9464981140, 9464981139, 9464981138, 1924753409, 1924753401], "tags": {"amenity": "hospital", "healthcare": "hospital", "name": "RSUD SK Lerik"}}, {"type": "way", "id": 189197629, "center": {"lat": -18.225895, "lon": 127.666141}, "nodes": [1998487916, 1998487933, 1998487937, 8792189393, 8792189392, 1998487939, 1998487916], "tags": {"amenity": "hospital", "emergency": "yes", "healthcare": "hospital", "name": "Halls Creek District Hospital"}}, {"type": "way", "id": 189638694, "center": {"lat": -10.210304, "lon": 120.5336372}, "nodes": [2002289794, 2002289793, 2002289809, 2002289811, 2002289794], "tags": {"amenity": "hospital", "building": "yes", "name": "Polindes Laipandak"}}, {"type": "way", "id": 192064382, "center": {"lat": -10.2309918, "lon": 120.5404269}, "nodes": [2026230910, 2361190288, 2361190287, 2361190285, 2361190286, 2026230876, 2026230887, 2026230920, 2026230910], "tags": {"amenity": "hospital", "building": "yes", "name": "Polindes Lumbumanggit (Baru)"}}, {"type": "way", "id": 196275536, "center": {"lat": -18.6855103, "lon": 121.7767184}, "nodes": [2066243866, 2066243871, 2066243864, 2066243865, 2066243863, 2066243870, 2066243868, 2066243874, 2066243869, 2066243867, 2066243872, 2066243873, 2066243866], "tags": {"addr:housenumber": "Lot 86", "addr:state": "WA", "addr:street": "Wangkaja Road", "addr:suburb": "Bidyadanga", "amenity": "hospital", "email": "bidyadangaclinic@kamsc.org.au", "emergency": "yes", "fax": "+61 8 9192 4827", "healthcare": "hospital", "healthcare:speciality": "general", "name": "Bidyadanga Health Centre", "opening_hours": "Mo-Th 09:00-12:00,14:00-16:00; Fr 09:00-12:00", "operator": "Kimberley Aboriginal Medical Services", "operator:type": "community", "phone": "+61 8 9192 4952", "website": "https://kams.org.au/kamsc-services/remote/bidyadanga-health-centre/"}}, {"type": "way", "id": 196469214, "center": {"lat": -16.9853462, "lon": 122.6648115}, "nodes": [2068011248, 2068011200, 2068011236, 2068011227, 2068011248], "tags": {"amenity": "hospital", "name": "Clinic"}}, {"type": "way", "id": 197237705, "center": {"lat": -16.4458827, "lon": 123.0599948}, "nodes": [2075157246, 2075157230, 2075157263, 2075157259, 2075157255, 2075157260, 2075157257, 2075157258, 2075157246], "tags": {"amenity": "hospital", "building": "yes", "name": "Clinic"}}, {"type": "way", "id": 217608068, "center": {"lat": -10.0447753, "lon": 120.360869}, "nodes": [2269029429, 10613713341, 10613713342, 10613713338, 10613713337, 2269029447, 10613713340, 10613713339, 10613713336, 10613713343, 10613713344, 10613713345, 10613713346, 2269029463, 2269029429], "tags": {"amenity": "hospital", "building": "yes", "name": "Puskesmas Kananggar"}}, {"type": "way", "id": 242335706, "center": {"lat": -17.9607897, "lon": 122.2365268}, "nodes": [2498274560, 2498274562, 2498274580, 2498274582, 7516864625, 7516864626, 2498274563, 2498274560], "tags": {"addr:street": "Robinson Street", "amenity": "hospital", "healthcare": "hospital", "name": "Broome Hospital", "opening_hours": "24/7", "phone": "+61 8 9194 2222", "website": "http://myhospitals.gov.au", "wikidata": "Q81122594"}}, {"type": "way", "id": 450278242, "center": {"lat": -10.2152345, "lon": 123.6209122}, "nodes": [9500752255, 9500752274, 9500752269, 9500752268, 9500752267, 9500752273, 9500752272, 4472004663, 9500752270, 9500752271, 9500752256, 9500752275, 9500752258, 9500752259, 9500752276, 9500752260, 9500752262, 9500752261, 9500752263, 9500752265, 9500752264, 9500752266, 9500752257, 9500752255], "tags": {"amenity": "hospital", "healthcare": "hospital", "name": "RS ST Carolus Borromeus"}}, {"type": "way", "id": 450527122, "center": {"lat": -10.1707236, "lon": 123.6275486}, "nodes": [4474515759, 4474515754, 4474515752, 9488425359, 9488425358, 9488425357, 4474515767, 4474515761, 4474515759], "tags": {"amenity": "hospital", "healthcare": "hospital", "name": "Rumah Sakit Leona"}}, {"type": "way", "id": 450544492, "center": {"lat": -10.1475539, "lon": 123.6317542}, "nodes": [4474653923, 4474653954, 4474654066, 4474654020, 4474653923], "tags": {"addr:city": "Kupang", "addr:country": "ID", "addr:postcode": "85228", "addr:street": "Jl. Timor Raya", "amenity": "hospital", "building": "yes", "description": "Rumah Penduduk", "health_facility:access": "public", "health_facility:type": "hospital", "medical_system:chinese": "yes", "name": "Klinik Pengobatan Shin She-Ramuan China", "opening_hours": "08:00-20:00", "operator": "subdistrict"}}, {"type": "way", "id": 450756856, "center": {"lat": -10.1663885, "lon": 123.5835173}, "nodes": [4476607930, 4476607929, 4476607925, 4476607924, 4476607923, 9750859340, 4476607928, 4476607931, 4476607932, 4476607933, 4476607935, 4476607934, 4476607936, 4476607937, 9488571412, 4476607941, 4476607942, 4476607930], "tags": {"amenity": "hospital", "healthcare": "hospital", "name": "Rumah Sakit Wirasakti"}}, {"type": "way", "id": 450895016, "center": {"lat": -10.1678548, "lon": 123.5857132}, "nodes": [4477986306, 4477986088, 4477986086, 4477986085, 4477986078, 4477986076, 4477986069, 4478046522, 4477986066, 4477986055, 4477986051, 4477986050, 4477986052, 4477986054, 4477986056, 7364494445, 7364494446, 4477986064, 4477986296, 7364494387, 4477986305, 9143498793, 4477986306], "tags": {"addr:city": "Kupang", "addr:housenumber": "19", "addr:postcode": "85111", "addr:street": "Jln Moh. Hatta", "amenity": "hospital", "email": "rsudjohannes@gmail.com", "emergency": "yes", "healthcare": "hospital", "healthcare:speciality": "general", "name": "RSUD Prof. Dr. WZ Johanes", "operator": "Dinas Kesehatan Kota Kupang", "operator:type": "government", "phone": "0380-832892", "website": "http://rsudwzjohanes.nttprov.go.id/web/"}}, {"type": "way", "id": 491018571, "center": {"lat": -10.1579491, "lon": 123.5841861}, "nodes": [4831832843, 4831832842, 4831832841, 4831832840, 4831832843], "tags": {"addr:city": "Kupang", "addr:country": "ID", "addr:housenumber": "01 Gang 1", "addr:street": "Jl. Sumatera", "amenity": "hospital", "building": "yes", "contact:phone": "+62 8523775516", "health_facility:access": "private", "health_facility:type": "hospital", "healthcare": "hospital", "medical_system:western": "yes", "name": "Klinik Pengobatan Herbal Hall Licheng", "opening_hours": "08:00-18:00"}}, {"type": "way", "id": 507340300, "center": {"lat": -10.157352, "lon": 123.610309}, "nodes": [10613729744, 4968642851, 8830670567, 10613729745, 5665042416, 5665042419, 9136476050, 9136476049, 10613729743, 10613729740, 10613729741, 10613729742, 10613729739, 10613729736, 10613729737, 10613729738, 10613729744], "tags": {"amenity": "hospital", "building": "yes", "healthcare": "hospital", "name": "Rumah Sakit Siloam", "wikidata": "Q19731706", "wikipedia": "id:Rumah Sakit Siloam"}}, {"type": "way", "id": 522275210, "center": {"lat": -10.1633164, "lon": 123.5810561}, "nodes": [5087196400, 5087196393, 5087196395, 5087196397, 5087196400], "tags": {"amenity": "hospital", "building": "yes", "healthcare": "hospital", "name": "Puskesmas Kecamatan Kota Lama"}}, {"type": "way", "id": 593013110, "center": {"lat": -10.1885361, "lon": 123.5992466}, "nodes": [5658350309, 9470474619, 5658350307, 5658350306, 5658350305, 5658350304, 5658350309], "tags": {"addr:city": "Kupang", "addr:country": "ID", "addr:housenumber": "21", "addr:street": "Jl. Rumbia", "amenity": "hospital", "building": "yes", "health_facility:type": "hospital", "medical_system:western": "yes", "name": "Posyandu Sehati", "opening_hours": "Tanggal 03"}}, {"type": "way", "id": 593820140, "center": {"lat": -10.1760908, "lon": 123.5558803}, "nodes": [9134380146, 5664002034, 5664002035, 5664002036, 5664001183, 5664001185, 5664001594, 5664001187, 5664001592, 5664001593, 5664001188, 5664001474, 5664001189, 5664001591, 5664001586, 5664001589, 5664001588, 5664001587, 5664001590, 5664001585, 5664001473, 9134380145, 5664002031, 5664001180, 5664000820, 5664002022, 5664001602, 5664001603, 5664002024, 5664001599, 5664001598, 5664002025, 5664001600, 5664001601, 5664002023, 5664002021, 5664001747, 5664001582, 5664001580, 5664001480, 5664001578, 5664001597, 5664001481, 5664001595, 5664001596, 5664001577, 5664001479, 5664001579, 5664001581, 5664001584, 9134380148, 9134380147, 5664001755, 9134380149, 9134380150, 5664001754, 5664001753, 5664001756, 5664001583, 5664001469, 5664000818, 5664001492, 5664001462, 5664001750, 5664001751, 5664001752, 5664001749, 5664001463, 5664001461, 5664001464, 5664001468, 5664001489, 5664001490, 5664001467, 5664001465, 5664001486, 5664001485, 5664001488, 5664001487, 5664001466, 5664002026, 5664001181, 9134380146], "tags": {"amenity": "hospital", "building": "yes", "emergency": "yes", "healthcare": "hospital", "name": "RSAL", "source": "survey"}}, {"type": "way", "id": 787662544, "center": {"lat": -10.167889, "lon": 123.5851378}, "nodes": [7364494462, 7364494463, 9143446330, 9143446329, 9143446328, 9143446331, 7364494464, 7364494465, 7364494466, 9143446334, 9143446333, 9143446332, 7364494469, 9143446337, 9143446336, 9143446335, 7364494462], "tags": {"amenity": "hospital", "building": "yes", "healthcare": "hospital"}}, {"type": "way", "id": 905046646, "center": {"lat": -18.1911717, "lon": 125.5628961}, "nodes": [8404974601, 8404974602, 8404974603, 8404974604, 8404974605, 8404974606, 8404974607, 8404974608, 8404974609, 8404974610, 8407327930, 8404974611, 8404974612, 8404974613, 8404974614, 8404974615, 8404974616, 8404974617, 8404974618, 8404974619, 8404974620, 8404974621, 8404974622, 8404974627, 8404974623, 8407327838, 8404974601], "tags": {"addr:housenumber": "82", "addr:postcode": "6765", "addr:state": "WA", "addr:street": "Fallon Road", "addr:suburb": "Fitzroy Crossing", "amenity": "hospital", "emergency": "yes", "fax": "+61 8 9166 1774", "healthcare": "hospital", "name": "Fitzroy Crossing Hospital", "operator": "Department of Health, Government of Western Australia", "operator:type": "government", "phone": "+61 8 9166 1777"}}, {"type": "way", "id": 960119240, "center": {"lat": -10.1129732, "lon": 123.8034563}, "nodes": [8883282340, 8883282341, 8883282342, 8883282343, 8883282340], "tags": {"amenity": "hospital", "healthcare": "hospital"}}, {"type": "way", "id": 960119241, "center": {"lat": -10.1130531, "lon": 123.8036035}, "nodes": [8883282344, 8883282345, 8883282346, 8883282347, 8883282344], "tags": {"amenity": "hospital", "healthcare": "hospital"}}, {"type": "way", "id": 960119242, "center": {"lat": -10.1131628, "lon": 123.803837}, "nodes": [8883282348, 8883282349, 8883282350, 8883282351, 8883282348], "tags": {"amenity": "hospital", "healthcare": "hospital"}}, {"type": "way", "id": 960119243, "center": {"lat": -10.1126921, "lon": 123.8036235}, "nodes": [8883282352, 8883282353, 8883282354, 8883282355, 8883282352], "tags": {"amenity": "hospital", "healthcare": "hospital", "name": "puskesmas oesao"}}, {"type": "way", "id": 960119244, "center": {"lat": -10.1127364, "lon": 123.8037208}, "nodes": [8883282356, 8883282357, 8883282358, 8883282359, 8883282360, 8883282361, 8883282362, 8883282363, 8883282364, 8883282365, 8883282356], "tags": {"amenity": "hospital", "healthcare": "hospital"}}, {"type": "way", "id": 960119245, "center": {"lat": -10.1127406, "lon": 123.8040381}, "nodes": [8883282366, 8883282367, 8883282368, 8883282369, 8883282370, 8883282371, 8883282372, 8883282373, 8883282374, 8883282375, 8883282376, 8883282377, 8883282378, 8883282379, 8883282380, 8883282381, 8883282382, 8883282383, 8883282392, 8883282384, 8883282385, 8883282386, 8883282387, 8883282388, 8883282389, 8883282390, 8883282391, 8883282366], "tags": {"amenity": "hospital", "healthcare": "hospital"}}, {"type": "way", "id": 960119246, "center": {"lat": -10.1130685, "lon": 123.8039351}, "nodes": [8883282393, 8883282394, 8883282395, 8883282396, 8883282393], "tags": {"amenity": "hospital", "healthcare": "hospital"}}, {"type": "way", "id": 960119247, "center": {"lat": -10.1129804, "lon": 123.8040313}, "nodes": [8883282397, 8883282398, 8883282399, 8883282400, 8883282401, 8883282402, 8883282403, 8883282404, 8883282405, 8883282406, 8883282397], "tags": {"amenity": "hospital", "healthcare": "hospital"}}, {"type": "way", "id": 960119248, "center": {"lat": -10.1128807, "lon": 123.8042147}, "nodes": [8883282407, 8883282408, 8883282409, 8883282410, 8883282407], "tags": {"amenity": "hospital", "healthcare": "hospital"}}, {"type": "way", "id": 970878702, "center": {"lat": -10.0731995, "lon": 123.873341}, "nodes": [8985529499, 8985529500, 8985529501, 8985529502, 8985529503, 8985529504, 8985529505, 8985529506, 8985529507, 8985529508, 8985529509, 8985529510, 8985529511, 8985529512, 8985529513, 8985529514, 8985529515, 8985529516, 8985537217, 8985537218, 8985537219, 9738798011, 9738798012, 9738798013, 8985537220, 9738798014, 8985537221, 8985537222, 8985529499], "tags": {"addr:city": "Kabupaten Kupang", "amenity": "hospital", "emergency": "yes", "healthcare": "hospital", "insurance:health": "private;public", "name": "RSUD Naibonat", "opening_hours": "24/7", "operator": "government", "operator:type": "government", "wheelchair": "yes"}}, {"type": "way", "id": 989251299, "center": {"lat": -10.1871223, "lon": 123.6044841}, "nodes": [9143429434, 9143429433, 9143429432, 9143429431, 9143429434], "tags": {"addr:city": "Kupang", "addr:country": "ID", "addr:housenumber": "3", "addr:street": "Jl. Sutra RT 19/RW 07", "amenity": "hospital", "building": "yes", "health_facility:type": "hospital", "medical_system:western": "yes", "name": "Posyandu Merpati", "opening_hours": "Tanggal 12"}}, {"type": "way", "id": 1020487059, "center": {"lat": -10.2004245, "lon": 123.6045998}, "nodes": [9412141599, 9412141598, 9435454921, 9412141596, 9412141599], "tags": {"addr:city": "Kupang", "addr:country": "ID", "addr:street": "Jl. Oebonik", "amenity": "hospital", "health_facility:access": "public", "health_facility:type": "hospital", "medical_system:western": "yes", "name": "Puskesmas Sikumana", "opening_hours": "07:00-14:00", "operator": "subdistrict"}}, {"type": "way", "id": 1026625098, "center": {"lat": -10.0090837, "lon": 120.2955092}, "nodes": [9465353048, 9465353049, 9465353050, 9465353051, 9465353052, 9465353053, 9465353048], "tags": {"amenity": "hospital", "healthcare": "hospital", "name": "Puskesmas Tanarara"}}, {"type": "way", "id": 1027708300, "center": {"lat": -10.7476562, "lon": 123.0457306}, "nodes": [9474327816, 9474330717, 9474330718, 9474330719, 9474330720, 9474330721, 9474330748, 9474330722, 9474330723, 9474330724, 9474330725, 9474330726, 9474330727, 9474327816], "tags": {"addr:city": "Kab. Rote Ndao", "addr:postcode": "85371", "addr:street": "Jl. Ba'a-Busalangga", "amenity": "hospital", "healthcare": "hospital", "name": "RSUD Rote Ndao Ba'a"}}, {"type": "way", "id": 1030084351, "center": {"lat": -10.1787289, "lon": 123.6621537}, "nodes": [9495682039, 9495682040, 9495682041, 9495682042, 9495682043, 9495682044, 9495682045, 9495682046, 9495682047, 9495682039], "tags": {"addr:city": "Kupang", "addr:housenumber": "2", "addr:street": "Jl. Adi Sucipto", "amenity": "hospital", "healthcare": "hospital", "name": "RS TNI AU El Tari"}}, {"type": "way", "id": 1034944740, "center": {"lat": -10.1568312, "lon": 123.6282121}, "nodes": [9533639884, 9533639883, 9533639882, 9533639881, 9533639880, 9533639878, 9533639884], "tags": {"amenity": "hospital", "name": "RS Kartini"}}, {"type": "way", "id": 1075368374, "center": {"lat": -10.1924473, "lon": 123.4066941}, "nodes": [9862567317, 9862567318, 9862567319, 9862567320, 9862567321, 9862567322, 9862567317], "tags": {"amenity": "hospital", "healthcare": "hospital", "name": "PUSKESMAS UITAO"}}, {"type": "way", "id": 1075368375, "center": {"lat": -10.1929468, "lon": 123.4065779}, "nodes": [9862567323, 9862567324, 9862567325, 9862567326, 9862567327, 9862567328, 9862567329, 9862567330, 9862567331, 9862567332, 9862567333, 9862567334, 9862567335, 9862567336, 9862567337, 9862567338, 9862567339, 9862567340, 9862567323], "tags": {"amenity": "hospital", "healthcare": "hospital"}}, {"type": "way", "id": 1075368376, "center": {"lat": -10.1930607, "lon": 123.4065013}, "nodes": [9862567341, 9862567342, 9862567343, 9862567344, 9862567345, 9862567346, 9862567347, 9862567348, 9862567349, 9862567350, 9862567351, 9862567352, 9862567353, 9862567354, 9862567355, 9862567356, 9862567341], "tags": {"amenity": "hospital", "healthcare": "hospital"}}, {"type": "way", "id": 1075368377, "center": {"lat": -10.1929163, "lon": 123.4068458}, "nodes": [9862567357, 9862567358, 9862567359, 9862567360, 9862567357], "tags": {"amenity": "hospital", "healthcare": "hospital"}}, {"type": "way", "id": 1075368378, "center": {"lat": -10.1928394, "lon": 123.4069986}, "nodes": [9862567361, 9862567362, 9862567363, 9862567364, 9862567365, 9862567366, 9862567361], "tags": {"amenity": "hospital", "healthcare": "hospital"}}, {"type": "way", "id": 1075368379, "center": {"lat": -10.192719, "lon": 123.4071744}, "nodes": [9862567367, 9862567368, 9862567369, 9862567370, 9862567371, 9862567372, 9862567373, 9862567374, 9862567380, 9862567379, 9862567378, 9862567377, 9862567375, 9862567376, 9862567367], "tags": {"amenity": "hospital", "healthcare": "hospital"}}, {"type": "way", "id": 1075368380, "center": {"lat": -10.1926811, "lon": 123.4068274}, "nodes": [9862567381, 9862567382, 9862567383, 9862567384, 9862567385, 9862567386, 9862567387, 9862567388, 9862567389, 9862567381], "tags": {"amenity": "hospital", "healthcare": "hospital"}}, {"type": "way", "id": 1075368381, "center": {"lat": -10.1926484, "lon": 123.4066373}, "nodes": [9862567390, 9862567391, 9862567392, 9862567393, 9862567390], "tags": {"amenity": "hospital", "healthcare": "hospital"}}, {"type": "way", "id": 1190971505, "center": {"lat": -15.7751876, "lon": 128.7333507}, "nodes": [5247873906, 5247873907, 11058091452, 9869433688, 9871782734, 9871782733, 9871782732, 9871782731, 9871782730, 9871782729, 11058091453, 9869433716, 9869442817, 9869442818, 9869442819, 9869442820, 9869442821, 9869442822, 9879930602, 9879930607, 9879930606, 9879930605, 11058091454, 11058091455, 11058091456, 7115863766, 11058091457, 11058091458, 11058091459, 5247873906], "tags": {"amenity": "hospital", "healthcare": "hospital", "name": "Kununurra District Hospital"}}, {"type": "way", "id": 1193449376, "center": {"lat": -15.4776236, "lon": 128.1273182}, "nodes": [11077878881, 11077878882, 11077878883, 11077878884, 11077878881], "tags": {"amenity": "hospital", "healthcare": "hospital"}}]}