{"version": 0.6, "generator": "Overpass API 0.7.61.5 4133829e", "osm3s": {"timestamp_osm_base": "2023-10-31T20:49:30Z", "copyright": "The data included in this document is from www.openstreetmap.org. The data is made available under ODbL."}, "elements": [{"type": "node", "id": 280464583, "lat": -19.320766, "lon": 146.7624147, "tags": {"amenity": "hospital", "healthcare": "hospital"}}, {"type": "node", "id": 832516556, "lat": -19.5642889, "lon": 147.4092403, "tags": {"amenity": "hospital", "name": "Ayr Hospital"}}, {"type": "node", "id": 1493772485, "lat": -16.9152402, "lon": 145.7709623, "tags": {"amenity": "hospital", "healthcare": "hospital", "name": "Cairns Private Hospital"}}, {"type": "node", "id": 2055555890, "lat": -17.6789363, "lon": 145.1131707, "tags": {"amenity": "hospital", "name": "Mount Garnet Clinic", "source": "Bing", "source:name": "voice"}}, {"type": "node", "id": 2102774152, "lat": -16.9868236, "lon": 145.4248163, "tags": {"amenity": "hospital", "name": "Mareeba Hospital", "source:name": "voice"}}, {"type": "node", "id": 2141317009, "lat": -19.2888791, "lon": 146.7876966, "tags": {"amenity": "hospital", "description": "Mater\u2019s Emergency Department at Pimlico is open 7am to 11pm, 7 days a week \u2013 no appointment or referral needed.", "emergency": "yes", "name": "Mater Misericordiae Hospital"}}, {"type": "node", "id": 2423730439, "lat": -17.1501713, "lon": 144.5281778, "tags": {"amenity": "hospital"}}, {"type": "node", "id": 4640821792, "lat": -16.9223963, "lon": 145.7745978, "tags": {"addr:street": "Grafton Street", "amenity": "hospital", "healthcare": "hospital", "name": "Medicare Centre"}}, {"type": "node", "id": 6953181485, "lat": -18.6525813, "lon": 146.1637587, "tags": {"amenity": "hospital", "name": "Ingham Health Center"}}, {"type": "node", "id": 8912442771, "lat": -17.0178908, "lon": 145.7246584, "tags": {"addr:housenumber": "21-55", "addr:postcode": "4870", "addr:state": "Qld", "addr:street": "Walker Road", "addr:suburb": "Edmonton", "amenity": "hospital", "emergency": "no", "healthcare": "hospital", "healthcare:speciality": "covid19;vaccination;general", "name": "Cairns South Health Facility", "operator": "Queensland Health", "operator:type": "government"}}, {"type": "way", "id": 190374174, "center": {"lat": -10.894262, "lon": 142.3848901}, "nodes": [2010120033, 2010120021, 2010120012, 8076912034, 2010120025, 8076911843, 2010120033], "tags": {"amenity": "hospital", "healthcare": "hospital", "name": "Bamaga Hospital"}}, {"type": "way", "id": 201105952, "center": {"lat": -17.9275515, "lon": 145.9236871}, "nodes": [2110610009, 2110610010, 2110610011, 2110610028, 2110610018, 2110610024, 2110610009], "tags": {"amenity": "hospital", "name": "Tully Hospital", "source": "Bing"}}, {"type": "way", "id": 220972880, "center": {"lat": -12.6407212, "lon": 141.8668037}, "nodes": [2300367506, 2300367517, 2300367502, 2300367496, 2300367498, 2300367481, 2300367506], "tags": {"amenity": "hospital", "name": "Weipa Hospital", "wikidata": "Q81044058"}}, {"type": "way", "id": 254766293, "center": {"lat": -16.4638145, "lon": 145.3681153}, "nodes": [2025260275, 2605880887, 2605880885, 2605880877, 2605880878, 2605880873, 2605880876, 2605880880, 2605880879, 2605880882, 2605880883, 2605880899, 2025260275], "tags": {"amenity": "hospital", "healthcare": "hospital", "name": "Mossman Multipurpose Health Service", "source": "Bing"}}, {"type": "way", "id": 284188236, "center": {"lat": -19.5628148, "lon": 147.4065175}, "nodes": [2879474758, 2879474759, 2879474760, 2879474761, 2879474762, 2879474763, 2879474764, 2879474765, 2879474766, 2879474767, 2879474768, 2879474769, 2879474770, 2879474771, 2879474772, 2879474773, 2879474758], "tags": {"amenity": "hospital", "emergency": "yes", "name": "Ayr Ambulance Station"}}, {"type": "way", "id": 316384292, "center": {"lat": -15.477718, "lon": 145.2503837}, "nodes": [3224909642, 4320544739, 3224909643, 4320544740, 3224909644, 4320544738, 3224909645, 4320544741, 3224909642], "tags": {"addr:housenumber": "48", "addr:postcode": "4895", "addr:state": "QLD", "addr:street": "Hope Street", "addr:suburb": "Cooktown", "amenity": "hospital", "emergency": "yes", "fax": "+61 7 4043 0108", "healthcare": "hospital", "name": "Cooktown Multipurpose Health Service", "opening_hours:visitors": "Mo-Su 11:00-20:00", "operator": "Torres and Cape Hospital and Health Service", "operator:type": "government", "phone": "+61 7 4043 0100", "website": "https://www.torres-cape.health.qld.gov.au/hospitals-and-health-centres/cooktown-multipurpose-health-service"}}, {"type": "way", "id": 582545767, "center": {"lat": -19.2887629, "lon": 146.7872164}, "nodes": [5571113103, 5571113104, 5571113105, 5571113106, 5571113103], "tags": {"amenity": "hospital", "healthcare": "hospital", "name": "Mater Hospital Pimlico"}}, {"type": "way", "id": 582546081, "center": {"lat": -19.3205817, "lon": 146.7633345}, "nodes": [5571116513, 5571116514, 5571116515, 5571116516, 5571116517, 5571116518, 5571116519, 5571116520, 5571119121, 5571119122, 5571119123, 5571119124, 5571119125, 5571119126, 5571119127, 5571119128, 5571119129, 5571119130, 5581436320, 5581452025, 5581452026, 5581452027, 5581452024, 5581452023, 5581452022, 5581452021, 5581436319, 5581436318, 5571119131, 5571119132, 5571119133, 5571119134, 5571119135, 5571119136, 5571119137, 5571119138, 5571119139, 5571119140, 5571119141, 5571116513], "tags": {"amenity": "hospital", "healthcare": "hospital", "name": "Townsville Hospital", "wikidata": "Q7830280"}}, {"type": "way", "id": 583620377, "center": {"lat": -19.2764441, "lon": 146.7991093}, "nodes": [5579659202, 5579659203, 5579659204, 5579659205, 5579659202], "tags": {"amenity": "hospital", "emergency": "no", "healthcare": "hospital", "healthcare:speciality": "gynaecology;paediatrics", "name": "Mater Women's & Children's Hospital", "operator": "Mater Health Services North Queensland", "wikidata": "Q6786525"}}, {"type": "way", "id": 621652887, "center": {"lat": -16.9124095, "lon": 145.7677563}, "nodes": [5872685127, 5872685126, 1417921568, 5872685128, 5872797702, 5872797703, 5872685125, 5872797701, 1417921550, 5872677436, 5872685134, 5872685133, 5872685132, 5872685131, 5872685130, 5923682115, 5872677393, 5872677437, 11073093284, 5872685127], "tags": {"addr:housenumber": "165", "addr:postcode": "4870", "addr:state": "QLD", "addr:street": "The Esplanade", "addr:suburb": "Cairns", "amenity": "hospital", "emergency": "yes", "healthcare": "hospital", "name": "Cairns Hospital", "wikidata": "Q1025960"}}, {"type": "way", "id": 677541787, "center": {"lat": -12.7860546, "lon": 143.3437402}, "nodes": [6343997942, 6343997943, 6343997944, 6343997945, 6343997946, 6343997947, 6343997948, 6343997949, 6343997950, 6343997951, 6343997952, 6343997953, 6343997954, 6343997955, 6343997956, 6343997957, 6343997958, 6343997959, 6343997942], "tags": {"amenity": "hospital", "building": "hospital", "healthcare": "hospital", "name": "Lockhart River Primary Health Care Centre", "operator": "Queensland Health", "operator:wikidata": "Q17006271"}}, {"type": "way", "id": 684296970, "center": {"lat": -16.9021689, "lon": 145.7563061}, "nodes": [6410857829, 6410857830, 6410857831, 9880059387, 6410857832, 6410857829], "tags": {"addr:housenumber": "381", "addr:postcode": "4870", "addr:state": "QLD", "addr:street": "Sheridan Street", "addr:suburb": "Cairns North", "amenity": "hospital", "emergency": "no", "healthcare": "hospital", "name": "Cairns North Community Health Facility", "website": "https://www.health.qld.gov.au/services/cairns-hinterland/cairns_north_ch"}}, {"type": "way", "id": 844460866, "center": {"lat": -17.5191286, "lon": 146.0301528}, "nodes": [7877251894, 7877251895, 7877251905, 7877251896, 7877251897, 7877251906, 7877251898, 7877251907, 7877251899, 7877251900, 7877251901, 7877251902, 7877251903, 7877251904, 7877251894], "tags": {"addr:postcode": "4860", "addr:state": "QLD", "addr:street": "Rankin Street", "addr:suburb": "Innisfail", "amenity": "hospital", "emergency": "yes", "healthcare": "hospital", "healthcare:speciality": "general;community;maternity", "name": "Innisfail Hospital", "operator": "Queensland Health", "operator:type": "public", "operator:wikidata": "Q17006271"}}, {"type": "way", "id": 911686299, "center": {"lat": -17.2663755, "lon": 145.4833159}, "nodes": [8465030064, 8465030065, 8465030066, 8465030067, 8465030068, 8465030069, 8465030070, 8465030071, 8465030072, 8465030064], "tags": {"amenity": "hospital", "emergency": "yes", "healthcare": "hospital", "name": "Atherton Hospital", "phone": "+61 7 4091 0211", "source": "https://www.health.qld.gov.au/services", "website": "https://www.health.qld.gov.au/services/cairns-hinterland/cairns_ath_hosp"}}, {"type": "way", "id": 959882369, "center": {"lat": -17.6779849, "lon": 141.0868474}, "nodes": [8881130951, 8881130952, 8881130953, 8881130954, 8881130955, 8881130956, 8881130957, 8881130958, 8881130959, 8881130960, 8881130961, 8881130951], "tags": {"amenity": "hospital", "healthcare": "hospital", "name": "Normanton Hospital", "operator": "North West Hospital and Health Service", "operator:type": "public"}}, {"type": "way", "id": 962110432, "center": {"lat": -18.589965, "lon": 143.6050342}, "nodes": [8899684417, 8899684418, 8899684419, 8899684420, 8899684417], "tags": {"amenity": "hospital", "healthcare": "hospital", "name": "Forsayth Hospital - Primary Health Centre", "operator": "Cairns and Hinterland Hospital and Health Service"}}, {"type": "way", "id": 1003763736, "center": {"lat": -18.7328626, "lon": 146.5787631}, "nodes": [9262133339, 9262133340, 9262133341, 9262133342, 9262133343, 9262133344, 9262133345, 9262133339], "tags": {"addr:postcode": "4816", "addr:state": "Queensland", "addr:street": "Beach Road", "addr:suburb": "Palm Island", "amenity": "hospital", "emergency": "yes", "healthcare": "hospital", "name": "Joyce Palmer Health Service", "not:operator:wikidata": "Q17006271", "operator": "Queensland Health", "operator:type": "public"}}, {"type": "way", "id": 1019344782, "center": {"lat": -19.3248006, "lon": 146.7899756}, "nodes": [9401710970, 9401710971, 9401710972, 9401710973, 9401710974, 9408943653, 9408943652, 9408943654, 9401710975, 9401710976, 9401710977, 9401710978, 9401710979, 9401710970], "tags": {"amenity": "hospital", "healthcare": "hospital"}}, {"type": "relation", "id": 3687462, "center": {"lat": -10.5878742, "lon": 142.2111674}, "members": [{"type": "way", "ref": 269701213, "role": "outer"}, {"type": "way", "ref": 277479228, "role": "outer"}], "tags": {"addr:housenumber": "163", "addr:postcode": "4875", "addr:state": "QLD", "addr:street": "Douglas Street", "addr:suburb": "Thursday Island", "amenity": "hospital", "emergency": "yes", "healthcare": "hospital", "name": "Thursday Island Hospital", "operator": "Queensland Health", "operator:type": "government", "phone": "+61 7 4069 0200", "source:name": "sign", "type": "multipolygon", "website": "https://www.health.qld.gov.au/services/torres-cape/torres_ti_hosp"}}]}