{"version": 0.6, "generator": "Overpass API 0.7.61.5 4133829e", "osm3s": {"timestamp_osm_base": "2023-10-31T20:49:30Z", "copyright": "The data included in this document is from www.openstreetmap.org. The data is made available under ODbL."}, "elements": [{"type": "node", "id": 1345989030, "lat": -12.1233749, "lon": -58.0050768, "tags": {"addr:city": "Brasnorte", "addr:housenumber": "930", "addr:postcode": "78350-000", "addr:street": "Rua Cascavel", "addr:suburb": "Centro", "amenity": "hospital", "email": "saudebrasnorte@hotmail.com", "healthcare": "hospital", "name": "Hospital Municipal de Brasnorte", "operator:ref:vatin": "BR01375138000138", "phone": "+55 66 3592 1990", "ref:CNES": "2471795"}}, {"type": "node", "id": 1666700808, "lat": -15.6347876, "lon": -56.1070174, "tags": {"amenity": "hospital", "emergency": "yes", "healthcare": "hospital", "name": "Policlinica - Construmat"}}, {"type": "node", "id": 1697744775, "lat": -17.8806164, "lon": -51.7167788, "tags": {"amenity": "hospital"}}, {"type": "node", "id": 1697754233, "lat": -17.8817975, "lon": -51.7148852, "tags": {"amenity": "hospital", "healthcare": "hospital"}}, {"type": "node", "id": 2075173619, "lat": -18.2954178, "lon": -51.144521, "tags": {"amenity": "hospital", "source": "IBGE"}}, {"type": "node", "id": 2117170668, "lat": -12.5414673, "lon": -55.7249497, "tags": {"addr:city": "Sorriso", "addr:housenumber": "3125", "addr:postcode": "78890-000", "addr:street": "Avenida Porto Alegre", "addr:suburb": "Centro", "amenity": "hospital", "emergency": "yes", "healthcare": "hospital", "name": "Hospital Regional de Sorriso"}}, {"type": "node", "id": 2471133931, "lat": -14.779683, "lon": -57.2884386, "tags": {"addr:city": "Nova Ol\u00edmpia MT", "addr:housename": "Hospital e Maternidade Nova Ol\u00edmpia", "addr:housenumber": "831", "addr:postcode": "78.370-000", "addr:street": "Rua Minas Gerais", "amenity": "hospital", "emergency": "yes", "healthcare": "hospital", "name": "Hospital e Maternidade Nova Ol\u00edmpia", "phone": "+55 65 3332 1191", "ref:CNES": "2472716", "ref:vatin": "BR00873794000106"}}, {"type": "node", "id": 2582670555, "lat": -17.7943827, "lon": -50.9173228, "tags": {"addr:city": "Rio Verde", "addr:postcode": "75905-790", "addr:street": "Avenida Ger\u00f4nimo Martins", "amenity": "hospital", "emergency": "no", "healthcare": "hospital", "name": "Hospital Municipal de Rio Verde", "note": "Local sem n\u00famero", "phone": "+55 64 3620-2124", "wheelchair": "yes"}}, {"type": "node", "id": 2823713640, "lat": -15.8777544, "lon": -52.2924977, "tags": {"addr:city": "Barra do Gar\u00e7as", "addr:street": "Avenida Valdon Varj\u00e3o", "amenity": "hospital", "emergency": "yes", "name": "Hospital Med Barra", "phone": "+556634019876"}}, {"type": "node", "id": 2823714114, "lat": -15.8931131, "lon": -52.2614773, "tags": {"amenity": "hospital", "name": "Centro de Sa\u00fade Uady C\u00e2mara Lopes"}}, {"type": "node", "id": 2823714115, "lat": -15.8837538, "lon": -52.2471087, "tags": {"amenity": "hospital", "healthcare": "hospital", "name": "Pronto Socorro Municipal"}}, {"type": "node", "id": 2823714116, "lat": -15.8920683, "lon": -52.2640093, "tags": {"addr:city": "Barra do Gar\u00e7as", "addr:housenumber": "753", "addr:postcode": "78600-013", "addr:street": "Rua Caraj\u00e1s", "addr:suburb": "Centro", "amenity": "hospital", "healthcare": "hospital", "name": "Hospital Cristo Redentor", "ref:CNES": "3689522", "ref:vatin": "BR03503349000134"}}, {"type": "node", "id": 2863409345, "lat": -14.9167909, "lon": -51.0803898, "tags": {"amenity": "hospital", "emergency": "no"}}, {"type": "node", "id": 2953086415, "lat": -17.7970666, "lon": -50.9286181, "tags": {"amenity": "hospital", "emergency": "yes", "healthcare": "hospital", "name": "Hospital Evang\u00e9lico de Rio Verde", "wheelchair": "limited"}}, {"type": "node", "id": 3221584032, "lat": -17.5666793, "lon": -52.5610818, "tags": {"addr:city": "Mineiros", "addr:postcode": "75830-144", "addr:street": "Rua Elias Carrijo Machado", "addr:suburb": "Centro", "amenity": "hospital", "fax": "+55 62 661 4000", "healthcare": "hospital", "name": "Hospital das Clinicas Doutor Neves", "phone": "+55 62 661 4000", "ref:CNES": "2571242", "ref:vatin": "BR37412400000114"}}, {"type": "node", "id": 3221635692, "lat": -17.58646, "lon": -52.5587582, "tags": {"addr:city": "Mineiros", "addr:postcode": "75830-329", "addr:street": "Rua Theodora Joana Cristina Michels", "addr:suburb": "Boa Vista", "amenity": "hospital", "email": "saude@mineiros.go.gov.br", "fax": "+55 64 661 4277", "healthcare": "hospital", "name": "Hospital Municipal Doutor Evaristo Vilela Machado", "operator": "Prefeitura Municipal de Mineiros", "operator:ref:vatin": "BR02316537000190", "phone": "+55 64 661 4277", "ref:CNES": "8013543"}}, {"type": "node", "id": 3235613821, "lat": -18.3333408, "lon": -59.7467397, "tags": {"amenity": "hospital", "emergency": "yes", "healthcare": "hospital", "name": "Caja Petrolera de Salud", "operator": "CPS", "short_name": "CPS"}}, {"type": "node", "id": 3740534534, "lat": -18.9101218, "lon": -50.6589956, "tags": {"addr:city": "Paranaiguara", "addr:housenumber": "79", "addr:postcode": "75880-000", "addr:street": "Rua Francisco Palazzo", "addr:suburb": "Centro", "amenity": "hospital", "email": "hospital.paranaiguara@hotmail.com", "emergency": "yes", "healthcare": "hospital", "healthcare:speciality": "general", "name": "Hospital Municipal Dr. Manuelito Paranaiguara", "operator:ref:vatin": "BR02056745000106", "phone": "+55 64 3655 0130", "ref:CNES": "2383578"}}, {"type": "node", "id": 3780365379, "lat": -19.0061571, "lon": -57.6532165, "tags": {"addr:city": "Corumb\u00e1", "addr:housenumber": "854", "addr:postcode": "79330-000", "addr:street": "Rua 15 de Novembro", "addr:suburb": "centro", "amenity": "hospital", "name": "Hospital de Caridade, Maternidade"}}, {"type": "node", "id": 4019971941, "lat": -18.3283588, "lon": -59.7535412, "tags": {"amenity": "hospital", "healthcare": "hospital", "healthcare:speciality": "general", "name": "Hospital Caja Nacional de Salud", "operator": "CNS", "operator:type": "public", "source": "survey"}}, {"type": "node", "id": 4173559362, "lat": -16.9430543, "lon": -53.5324691, "tags": {"addr:city": "Alto Gar\u00e7as", "addr:postcode": "78770-000", "addr:suburb": "Centro", "amenity": "hospital", "name": "Posto de Atendimento de Alto Gar\u00e7as"}}, {"type": "node", "id": 4299185691, "lat": -18.4531598, "lon": -59.5032118, "tags": {"addr:city": "Aguas Calientes", "addr:postcode": "SCZ", "amenity": "hospital", "description": "Puesto de Salud 1er Nivel\nMinsalud CODSNIS 700236", "emergency": "yes", "healthcare": "hospital", "healthcare:speciality": "general", "name": "P.S. Aguas Calientes", "operator": "MinSalud", "operator:type": "public"}}, {"type": "node", "id": 4381258422, "lat": -15.4506501, "lon": -50.3605449, "tags": {"addr:postcode": "76740-000", "addr:suburb": "Centro", "amenity": "hospital", "healthcare": "hospital", "name": "Hospital Materno Infantil Faina", "operator:ref:vatin": "BR25141318000113", "phone": "+55 62 386 1491", "ref:CNES": "2437678"}}, {"type": "node", "id": 4560969572, "lat": -13.544411, "lon": -53.1374068, "tags": {"amenity": "hospital"}}, {"type": "node", "id": 4983904029, "lat": -18.4525632, "lon": -50.4459185, "tags": {"addr:city": "Quirin\u00f3polis", "addr:housenumber": "286", "addr:postcode": "75860-000", "addr:street": "Avenida Rui Barbosa", "addr:suburb": "Centro", "amenity": "hospital", "healthcare": "hospital", "name": "Hospital Municipal Ant\u00f4nio Martins da Costa"}}, {"type": "node", "id": 4983946326, "lat": -18.4466961, "lon": -50.4531994, "tags": {"amenity": "hospital", "healthcare": "hospital", "name": "Hospital Nossa Sra D'Abadia", "name:pt": "Hospital Nossa Sra D'Abadia"}}, {"type": "node", "id": 4983960823, "lat": -18.4455915, "lon": -50.4527764, "tags": {"amenity": "hospital", "name": "Hospital Quirin\u00f3polis", "name:pt": "Hospital Quirin\u00f3polis"}}, {"type": "node", "id": 4984013421, "lat": -18.4462218, "lon": -50.4573035, "tags": {"addr:postcode": "75860-000", "addr:street": "Avenida L\u00e1zaro Xavier", "addr:suburb": "Centro", "amenity": "hospital", "fax": "+55 62 651 2132", "healthcare": "hospital", "name": "S\u00e3o Francisco", "name:pt": "S\u00e3o Francisco", "phone": "+55 62 651 1451", "ref:CNES": "2340593", "ref:vatin": "BR37173123013708"}}, {"type": "node", "id": 5602353212, "lat": -19.6817061, "lon": -51.1971978, "tags": {"addr:city": "Parana\u00edba", "addr:housenumber": "400", "addr:postcode": "79570-000", "addr:street": "Avenida Durval Rodrigues Lopes", "amenity": "hospital", "healthcare": "hospital", "name": "Santa casa de Miseric\u00f3rdia"}}, {"type": "node", "id": 5729248924, "lat": -17.3101827, "lon": -53.2183232, "tags": {"addr:city": "Alto Araguaia", "addr:housenumber": "1118", "addr:postcode": "78780-000", "addr:street": "Rua Severino Botelho de Melo", "addr:suburb": "Centro", "amenity": "hospital", "healthcare": "hospital", "name": "Hospital Municipal de Alto Araguaia", "operator:ref:vatin": "BR03579836000180", "phone": "+55 66 3481 2715", "ref:CNES": "2396998"}}, {"type": "node", "id": 5744660325, "lat": -16.3618294, "lon": -58.3955311, "tags": {"addr:city": "San Matias", "alt_name": "Hospital Municipal de San Matia", "amenity": "hospital", "description": "Centro de Salud Integral - 1er Nivel", "healthcare:speciality": "general", "name": "C.S.I. San Matias (1er Nivel)"}}, {"type": "node", "id": 5969193886, "lat": -10.8822715, "lon": -51.6334635, "tags": {"addr:city": "Porto Alegre do Norte", "addr:housenumber": "288", "addr:postcode": "78655-000", "addr:street": "Rua S\u00e3o Pedro", "addr:suburb": "Centro", "amenity": "hospital", "email": "sms.pan@yahoo.com.br", "emergency": "no", "fax": "+55 66 33569 1990", "healthcare": "hospital", "name": "Hospital Municipal De Porto Alegre Do Norte", "opening_hours": "24/7", "operator:ref:vatin": "BR03238672000128", "phone": "+55 65 569 1991", "ref:CNES": "2311615"}}, {"type": "node", "id": 6189735604, "lat": -17.8173192, "lon": -50.6053716, "tags": {"addr:postcode": "75920-000", "addr:street": "Avenida Joaquim Jos\u00e9 Azevedo", "addr:suburb": "Lucilene", "amenity": "hospital", "healthcare": "hospital", "name": "Hospital Municipal Santa Helena", "operator:ref:vatin": "BR02056711000103", "phone": "+55 64 3641 8722", "ref:CNES": "2383209"}}, {"type": "node", "id": 6246944131, "lat": -16.4201797, "lon": -58.6417448, "tags": {"addr:city": "Santa Isabel", "amenity": "hospital", "description": "Centra Salud Ambulatorio (1er Nivel)", "emergency": "yes", "fixme": "Exact_location", "healthcare": "hospital", "healthcare:speciality": "general", "name": "C.S.A. Santa Isabel (1er Nivel)"}}, {"type": "node", "id": 6322545122, "lat": -16.9474241, "lon": -50.4464722, "tags": {"amenity": "hospital", "healthcare": "hospital"}}, {"type": "node", "id": 6380937503, "lat": -17.5897358, "lon": -52.5528087, "tags": {"amenity": "hospital", "healthcare": "hospital", "name": "Posto de Saude"}}, {"type": "node", "id": 6389414826, "lat": -13.5487491, "lon": -58.8183305, "tags": {"amenity": "hospital", "healthcare": "hospital", "name": "Hospital Renato Sucupira"}}, {"type": "node", "id": 6570987097, "lat": -16.7935031, "lon": -50.1641974, "tags": {"addr:postcode": "75990-000", "addr:street": "Rua Benjamin Gomes Pereira", "addr:suburb": "Centro", "amenity": "hospital", "email": "smspalminopolis@hotmail.com", "healthcare": "hospital", "healthcare:speciality": "clinic", "name": "Hospital Municipal", "operator:ref:vatin": "BR01178573000172", "phone": "+55 64 3675 1271", "ref:CNES": "2437775"}}, {"type": "node", "id": 6595254428, "lat": -16.2027974, "lon": -50.3131179, "tags": {"addr:housenumber": "1128", "addr:postcode": "76160-000", "addr:street": "Avenida Norte Sul", "addr:suburb": "Centro", "amenity": "hospital", "healthcare": "hospital", "name": "Hospital Municipal S\u00e3o Vicente de Paula", "operator:ref:vatin": "BR02164804000151", "phone": "+55 62 3679 1745", "ref:CNES": "2441500"}}, {"type": "node", "id": 6846079885, "lat": -17.8048993, "lon": -50.5823278, "tags": {"amenity": "hospital", "name": "HURSO"}}, {"type": "node", "id": 7199020574, "lat": -15.4677177, "lon": -58.3521636, "tags": {"addr:city": "Araputanga", "addr:housenumber": "228", "addr:postcode": "78260-000", "addr:street": "Rua Rui Barbosa", "addr:suburb": "Centro", "amenity": "hospital", "email": "mat.araputanga@sspnet.com.br", "fax": "+55 65 3261 1628", "healthcare": "hospital", "name": "Hospital Geral e Maternidade Araputanga", "phone": "+55 65 3261 1200", "ref:CNES": "2752611", "ref:vatin": "BR14961171000191"}}, {"type": "node", "id": 7640254285, "lat": -16.4558151, "lon": -54.7117871, "tags": {"amenity": "hospital", "name": "PSF Gleba Rio Vermelho"}}, {"type": "node", "id": 7711889347, "lat": -14.4195698, "lon": -54.0587564, "tags": {"addr:city": "Paranatinga", "addr:housenumber": "2436", "addr:postcode": "78870-000", "addr:street": "Travessa Campos", "addr:suburb": "Jardim Primavera", "amenity": "hospital", "fax": "+55 66 3573 2153", "healthcare": "hospital", "name": "Hospital e Maternidade S\u00e3o Benedito", "phone": "+55 66 3573 2153", "ref:CNES": "2699850", "ref:vatin": "BR14958482000100"}}, {"type": "node", "id": 7940300903, "lat": -12.5953556, "lon": -52.2063122, "tags": {"addr:postcode": "78643-000", "amenity": "hospital", "healthcare": "hospital", "name": "Hospital Municipal de Quer\u00eancia", "note": "Esse ponto e amenidade 'name=Hospital San Diego' (no momento embaixo) n\u00e3o devem ser mesclados. Tem CNES diferentes.", "operator:ref:vatin": "BR37465002000166", "phone": "+55 66 3529 1140", "ref:CNES": "4070070"}}, {"type": "node", "id": 8560236893, "lat": -16.5133641, "lon": -50.3746496, "tags": {"addr:city": "S\u00e3o Luis de Montes Belos", "addr:postcode": "76100-000", "addr:street": "Rua 03", "addr:suburb": "Vila Popular", "amenity": "hospital", "emergency": "yes", "healthcare": "hospital", "healthcare:speciality": "general", "name": "Hospital Regional de S\u00e3o Lu\u00eds de Montes Belos - Dr. Geraldo Land\u00f3", "operator:ref:vatin": "BR02529964000157", "phone": "+55 64 99333-5798", "ref:CNES": "2382474", "website": "https://hospital-drgeraldolando.org.br/"}}, {"type": "node", "id": 9130095667, "lat": -15.1288325, "lon": -53.1931569, "tags": {"addr:city": "Campo Grande", "addr:housenumber": "1939", "addr:postcode": "79010220", "addr:street": "Rua 25 de dezembro", "addr:suburb": "Centro", "amenity": "hospital", "healthcare": "hospital", "healthcare:speciality": "nutri\u00e7\u00e3o_cl\u00ednica", "name": "Camila Vargas - Nutricionista", "operator": "Camila Vargas"}}, {"type": "node", "id": 9717267885, "lat": -17.7792327, "lon": -59.9327374, "tags": {"addr:city": "San Juan", "amenity": "hospital", "fixme": "Exact_location", "healthcare": "hospital", "healthcare:speciality": "general", "name": "P.S. San Juan de Chiquitos"}}, {"type": "node", "id": 9727060055, "lat": -17.7993291, "lon": -50.9415464, "tags": {"addr:city": "Rio Verde", "addr:street": "Avenida Jos\u00e9 Walter", "addr:suburb": "Jardim Presidente", "amenity": "hospital", "healthcare": "hospital", "name": "DrogaStore", "operator": "Farm\u00e1cia"}}, {"type": "node", "id": 9960324018, "lat": -16.2702834, "lon": -56.6237033, "tags": {"addr:city": "Pocon\u00e9", "addr:housenumber": "406", "addr:postcode": "78175-000", "addr:street": "Avenida Dom Aquino", "addr:suburb": "Centro", "amenity": "hospital", "fax": "+55 65 3345 1963", "healthcare": "hospital", "name": "Hospital Geral de Pocone Dr Nicolau Fontanilas Frageli", "phone": "+55 65 3345 1963", "ref:CNES": "2391449", "ref:vatin": "BR03073889000125"}}, {"type": "node", "id": 10045769679, "lat": -15.8851769, "lon": -52.2916843, "tags": {"addr:street": "Rua Vinte e Nove", "addr:suburb": "Jardim Ouro Fino", "amenity": "hospital", "healthcare": "hospital", "healthcare:speciality": "general;dentist;vaccination", "name": "UBS Jardim Ouro Fino"}}, {"type": "node", "id": 10759587064, "lat": -17.8017744, "lon": -50.9292904, "tags": {"addr:city": "Rio Verde", "addr:housenumber": "1600", "addr:postcode": "75906-485", "addr:street": "Avenida Eurico Veloso do Carmo", "addr:suburb": "Centro", "amenity": "hospital", "healthcare": "hospital", "healthcare:speciality": "ophthalmology", "name": "Hospital de Olhos Rio Verde", "ref:CNES": "7779917", "ref:vatin": "BR21497657000186"}}, {"type": "node", "id": 10848210576, "lat": -17.8225108, "lon": -59.9729098, "tags": {"addr:city": "Buena Vista", "addr:street": "Camino Buena Vista-San Juan", "amenity": "hospital", "description": "Centro de Salud de 1er Nivel. Minsalud CODSNIS 700219", "emergency": "yes", "fixme": "Exact_location", "healthcare": "hospital", "healthcare:speciality": "general", "name": "C.S. Buena Vista", "operator": "Ministerio de Salud y Deportes", "operator:short": "MinSalud", "operator:type": "public", "operator:wikidata": "Q44225411"}}, {"type": "node", "id": 10916942881, "lat": -19.5556536, "lon": -50.5791927, "tags": {"addr:city": "Limeira do Oeste", "addr:housenumber": "508", "addr:postcode": "38295000", "addr:street": "Rua Brasil", "addr:suburb": "Centro", "amenity": "hospital", "healthcare": "hospital", "name": "Pronto Socorro / UAI", "operator": "Prefeitura", "operator:type": "public", "phone": "+55 34 3453-2000"}}, {"type": "node", "id": 11010766539, "lat": -15.5531109, "lon": -55.1500291, "tags": {"amenity": "hospital", "healthcare": "hospital", "name": "UBS S\u00e3o Miguel"}}, {"type": "node", "id": 11047008192, "lat": -15.5958886, "lon": -56.1130717, "tags": {"addr:city": "Cuiab\u00e1", "addr:housenumber": "131", "addr:postcode": "78043138", "addr:street": "Rua das Papoulas", "addr:suburb": "Jardim Cuiab\u00e1", "amenity": "hospital", "description": "Cl\u00ednica com atendimento multidisciplinar na \u00e1rea da sa\u00fade com profissionais altamente qualificados. Dermatologia, Medicina do Esporte e Performance, Medicina da Fam\u00edlia, Fisioterapia e Nutri\u00e7\u00e3o.", "healthcare": "clinic", "healthcare:speciality": "dermatology;medicina_do_esporte;nutricionista;medicina_da_fam\u00edlia;fisioterapeuta", "name": "Cl\u00ednica Santa Maria - Cuiab\u00e1 MT", "opening_hours": "Mo-Fr 09:00-18:00", "phone": "+55 65 99808-1988", "wheelchair": "yes"}}, {"type": "node", "id": 11253632593, "lat": -11.4243177, "lon": -58.7604194, "tags": {"amenity": "hospital", "healthcare": "hospital", "name": "Policlinica"}}, {"type": "node", "id": 11253693144, "lat": -11.4177817, "lon": -58.7526363, "tags": {"amenity": "hospital", "healthcare": "hospital", "name": "Hospital S\u00e3o Lucas"}}, {"type": "way", "id": 45415900, "center": {"lat": -16.4579766, "lon": -54.6434716}, "nodes": [577470556, 577470530, 577470531, 577470532, 577470556], "tags": {"addr:city": "Rondon\u00f3polis", "addr:housenumber": "2366", "addr:postcode": "78710-165", "addr:street": "Rua 13 de Maio", "addr:suburb": "Jardim Guanabara", "amenity": "hospital", "email": "hrroo@saude.mt.gob.br", "fax": "+55 66 3426 8167", "healthcare": "hospital", "name": "Hospital Regional de Rondon\u00f3polis Irm\u00e3 Elza Giovanella", "operator:ref:vatin": "BR03507415000225", "phone": "+55 66 3439 6400", "ref:CNES": "2604434"}}, {"type": "way", "id": 166977559, "center": {"lat": -15.6019755, "lon": -56.0928062}, "nodes": [1783677532, 1783677460, 1783677495, 1783677525, 1783677532], "tags": {"amenity": "hospital", "building": "public", "emergency": "yes", "healthcare": "hospital", "name": "Antigo Pronto-Socorro Municipal de Cuiab\u00e1"}}, {"type": "way", "id": 167235677, "center": {"lat": -15.602413, "lon": -56.0946667}, "nodes": [1786404418, 1786404420, 1786404386, 1786404401, 1786404433, 1786404476, 1786404427, 1786404491, 1786404315, 1786404443, 1786404316, 1786404341, 1786404450, 1786404409, 1786404498, 1786404502, 1786404503, 1786404417, 1786404320, 1786404407, 1786404332, 1786404310, 1786404446, 1786404311, 1786404355, 1786404351, 1786404493, 1786404369, 1786404479, 1786404381, 1786404376, 1786404357, 1786404363, 1786404336, 1786404323, 1786404444, 1786404501, 1786404356, 1786404406, 1786404378, 1786404380, 1786404318, 1786404402, 1786404317, 1786404354, 1786404396, 1786404461, 1786404458, 1786404324, 1786404326, 1786404418], "tags": {"amenity": "hospital", "building": "civic", "emergency": "yes", "healthcare": "hospital", "name": "Santa Casa de Miseric\u00f3rdia de Cuiab\u00e1"}}, {"type": "way", "id": 167235678, "center": {"lat": -15.5913, "lon": -56.0879906}, "nodes": [1786404492, 1883088408, 1883088410, 1786404431, 1786404388, 1786404423, 1786404410, 1786404490, 1786404373, 1786404488, 1786404486, 1786404319, 1786404415, 1786404468, 1786404492], "tags": {"amenity": "hospital", "building": "yes", "emergency": "yes", "healthcare": "hospital", "name": "Cl\u00ednica Femina"}}, {"type": "way", "id": 167235685, "center": {"lat": -15.6037759, "lon": -56.0967978}, "nodes": [1786404312, 1786404478, 1786404463, 1786404425, 1786404312], "tags": {"addr:city": "Cuiab\u00e1", "addr:housenumber": "355", "addr:street": "Avenida Dom Aquino", "amenity": "hospital", "building": "hospital", "emergency": "yes", "healthcare": "hospital", "name": "Hospital Sotrauma"}}, {"type": "way", "id": 167235692, "center": {"lat": -15.6226445, "lon": -56.0757842}, "nodes": [1786404422, 1786404500, 1786404337, 1786404358, 1786404346, 1786404481, 1786404398, 1786404457, 1786404452, 1786404408, 1786404321, 1786404422], "tags": {"addr:city": "Cuiab\u00e1", "addr:housenumber": "1157", "addr:postcode": "78065-828", "addr:street": "Avenida Tancredo Neves", "addr:suburb": "Barbado", "amenity": "hospital", "building": "hospital", "healthcare": "hospital", "name": "Hospital S\u00e3o Judas Tadeu", "ref:CNES": "2803984", "ref:vatin": "BR11779314000150"}}, {"type": "way", "id": 173111682, "center": {"lat": -15.5814736, "lon": -56.0786899}, "nodes": [1839437221, 4533997275, 4533997274, 4533994028, 4533989272, 4533994027, 4533989271, 4533993077, 4533989274, 4533989273, 4533989275, 4533989268, 4533997170, 1839437260, 4533989276, 4533989277, 1839437284, 4533997356, 4533997353, 4533989270, 4533997367, 4533997366, 4533989269, 1839437257, 1839437255, 1839437250, 1839437247, 1839437239, 1839437234, 1839437236, 1839437225, 1839437222, 1839437221], "tags": {"amenity": "hospital", "healthcare": "hospital", "name": "Hospital Universit\u00e1rio J\u00falio M\u00fcller"}}, {"type": "way", "id": 188367500, "center": {"lat": -16.1832985, "lon": -50.9577592}, "nodes": [1989961118, 1989961164, 1989986434, 1989961158, 1989961118], "tags": {"addr:postcode": "76210-000", "addr:street": "Rua 7 de Setembro", "amenity": "hospital", "emergency": "yes", "healthcare": "hospital", "name": "Hospital Municipal Rio Claro", "operator:ref:vatin": "BR01767342000102", "phone": "+55 62 688 1113", "ref:CNES": "2382644"}}, {"type": "way", "id": 220416003, "center": {"lat": -11.0793391, "lon": -54.5202327}, "nodes": [2295398853, 2295416341, 2295398860, 2296426847, 2295398858, 2295398859, 2295398853], "tags": {"amenity": "hospital", "name": "Hospital Municipal M\u00aa Z\u00e9lia"}}, {"type": "way", "id": 220973265, "center": {"lat": -11.0777779, "lon": -54.5123174}, "nodes": [2300370433, 2300370434, 2300370435, 2300370436, 2300370433], "tags": {"amenity": "hospital", "building": "yes", "name": "PSF III"}}, {"type": "way", "id": 221248233, "center": {"lat": -11.0780549, "lon": -54.5226372}, "nodes": [2302942695, 2302942697, 2302942699, 2302942701, 2302942695], "tags": {"amenity": "hospital", "building": "yes", "name": "PSF II"}}, {"type": "way", "id": 221248234, "center": {"lat": -11.0979222, "lon": -54.5066714}, "nodes": [2302942703, 2302942705, 2302942708, 2302942710, 2302942703], "tags": {"amenity": "hospital", "building": "yes", "name": "PSF I"}}, {"type": "way", "id": 256389509, "center": {"lat": -18.0940795, "lon": -54.5552945}, "nodes": [2620431648, 2620431661, 2620431650, 2620431656, 2620431648], "tags": {"amenity": "hospital", "emergency": "yes"}}, {"type": "way", "id": 257033002, "center": {"lat": -18.5028691, "lon": -54.7364506}, "nodes": [2626490135, 2626490116, 2626490140, 2626490126, 2626490123, 2626490141, 2626490135], "tags": {"amenity": "hospital"}}, {"type": "way", "id": 258216818, "center": {"lat": -14.6785602, "lon": -52.3542017}, "nodes": [3965968289, 3965968293, 3965968292, 3965968290, 3965968289], "tags": {"amenity": "hospital", "emergency": "yes", "healthcare": "hospital", "name": "Hospital Municipal"}}, {"type": "way", "id": 281971961, "center": {"lat": -14.9271136, "lon": -51.0807857}, "nodes": [2859289389, 2859289391, 2859289390, 2859289388, 2859289389], "tags": {"addr:postcode": "76710-000", "addr:street": "Rua Vicente Ferreira Camelo", "addr:suburb": "Centro", "amenity": "hospital", "email": "saude@aruana.go.gov.br", "healthcare": "hospital", "name": "Hospital Municipal Doutor Claret", "operator:ref:vatin": "BR01067081000100", "phone": "+55 62 3376 1846", "ref:CNES": "2535963"}}, {"type": "way", "id": 293225438, "center": {"lat": -10.7980426, "lon": -55.4615795}, "nodes": [2968001004, 7633706866, 2968001006, 2968001007, 2968001004], "tags": {"addr:city": "Col\u00edder", "addr:housenumber": "690", "addr:postcode": "78500-000", "addr:street": "Rua Machado de Assis", "amenity": "hospital", "building": "hospital", "emergency": "yes", "fax": "+55 66 3541 6100", "healthcare": "hospital", "healthcare:speciality": "general", "name": "Hospital Regional de Colider", "operator:ref:vatin": "BR03507415000225", "phone": "+55 66 3541 6100", "ref:CNES": "2392410"}}, {"type": "way", "id": 306283647, "center": {"lat": -15.0686545, "lon": -57.1794551}, "nodes": [3111508413, 3111508415, 3111508416, 3111507537, 3111507538, 3111507539, 3111508417, 3111508418, 3111508413], "tags": {"amenity": "hospital", "healthcare": "hospital", "name": "Hospital Regional Albert Sabin"}}, {"type": "way", "id": 307810986, "center": {"lat": -12.1772604, "lon": -58.4005588}, "nodes": [3130505758, 3130505759, 3130505760, 3130505761, 3130505758], "tags": {"amenity": "hospital", "name": "Posto de sa\u00fade ind\u00edgena", "source": "local knowledge"}}, {"type": "way", "id": 316045015, "center": {"lat": -17.5690643, "lon": -52.5574357}, "nodes": [3221625038, 3221625042, 3221625043, 3221625039, 3221625040, 3221625041, 3221625038], "tags": {"addr:city": "Mineiros", "addr:housenumber": "47", "addr:postcode": "75830-070", "addr:street": "Rua 10", "addr:suburb": "Centro", "amenity": "hospital", "fax": "+55 64 3661 1000", "healthcare": "hospital", "name": "Hospial Samaritano", "phone": "+55 64 3661 1000", "ref:CNES": "2442965", "ref:vatin": "BR02315463000178"}}, {"type": "way", "id": 317136325, "center": {"lat": -19.0061626, "lon": -57.7133427}, "nodes": [3233744820, 3233744821, 3233744822, 3233744823, 3233744820], "tags": {"addr:city": "Puerto Quijarro", "addr:province": "Germ\u00e1n Busch", "addr:street": "Avenida Luis Salazar de la Vega", "amenity": "hospital", "emergency": "yes", "name": "Caja Petrolera de Salud", "operator": "Caja Petrolera de Salud"}}, {"type": "way", "id": 319502916, "center": {"lat": -17.9649866, "lon": -50.0098455}, "nodes": [3259181638, 3259181637, 3259181635, 3259181636, 3259181638], "tags": {"amenity": "hospital", "name": "Unidade de Sa\u00fade de Marcian\u00f3polis"}}, {"type": "way", "id": 326408332, "center": {"lat": -17.8865926, "lon": -51.7338674}, "nodes": [3330480008, 3330480009, 3330480010, 3330480011, 3330480008], "tags": {"addr:postcode": "75804-040", "addr:street": "Rua Joaquim Caetano", "addr:suburb": "Divino Esp\u00edrito Santo", "amenity": "hospital", "healthcare": "hospital", "name": "Hospital Estadual de Jata\u00ed Doutor Serafim de Carvalho", "operator:ref:vatin": "BR02529964000157", "phone": "+55 64 3632 8700", "ref:CNES": "2535556"}}, {"type": "way", "id": 326573327, "center": {"lat": -13.2803655, "lon": -50.1577534}, "nodes": [3332417254, 3332417255, 3332417256, 3332417257, 3332417254], "tags": {"amenity": "hospital", "name": "Hospital Municipal"}}, {"type": "way", "id": 330914256, "center": {"lat": -13.2716246, "lon": -50.1608885}, "nodes": [3379488222, 3379488223, 3379488224, 3379488225, 3379488222], "tags": {"amenity": "hospital", "name": "Hospital S\u00e3o Jorge"}}, {"type": "way", "id": 330914359, "center": {"lat": -13.2757135, "lon": -50.169586}, "nodes": [3379483886, 3379483887, 3379483888, 3379483889, 3379483886], "tags": {"amenity": "hospital", "name": "Hospital Modelo"}}, {"type": "way", "id": 332594352, "center": {"lat": -13.6546085, "lon": -59.7783192}, "nodes": [3397428937, 3397428934, 3397428962, 3397428969, 3397428937], "tags": {"amenity": "hospital"}}, {"type": "way", "id": 334258441, "center": {"lat": -16.5428196, "lon": -50.7396897}, "nodes": [3413661788, 3413661789, 3413661792, 3413661993, 3413661788], "tags": {"amenity": "hospital", "healthcare": "hospital", "name": "Hospital Municipal Virg\u00ednia Rosa", "operator": "Sistema \u00danico de Sa\u00fade", "operator:short": "SUS", "operator:wikidata": "Q7531056", "operator:wikipedia": "pt:Sistema \u00danico de Sa\u00fade"}}, {"type": "way", "id": 373489111, "center": {"lat": -16.1981377, "lon": -52.1782482}, "nodes": [3769435029, 3769435030, 3769435031, 3769435032, 3769435029], "tags": {"amenity": "hospital"}}, {"type": "way", "id": 379393761, "center": {"lat": -16.443795, "lon": -51.1210684}, "nodes": [3827016930, 3827016931, 3827016932, 3827016933, 3827016930], "tags": {"amenity": "hospital", "check_date": "2023-07-19", "healthcare": "hospital", "name": "Hospital Evang\u00e9lico"}}, {"type": "way", "id": 379393765, "center": {"lat": -16.4406416, "lon": -51.1196832}, "nodes": [3827016946, 3827016947, 3827016948, 3827016949, 3827016946], "tags": {"amenity": "hospital", "healthcare": "hospital", "name": "Hospital S\u00e3o Paulo", "phone": "+55 64 3674-1231"}}, {"type": "way", "id": 379393766, "center": {"lat": -16.4423059, "lon": -51.1178445}, "nodes": [3827016950, 3827016951, 3827016952, 3827016953, 3827016950], "tags": {"addr:city": "Ipor\u00e1", "addr:housenumber": "551", "addr:postcode": "76200-000", "addr:street": "Avenida Pio XII", "addr:suburb": "centro", "amenity": "hospital", "healthcare": "hospital", "healthcare:speciality": "general;cardiology", "name": "Hospital Cristo Rendentor"}}, {"type": "way", "id": 379567633, "center": {"lat": -16.6252263, "lon": -51.0927245}, "nodes": [3829043574, 3829043575, 3829043576, 3829043577, 3829043574], "tags": {"amenity": "hospital"}}, {"type": "way", "id": 381485471, "center": {"lat": -15.4384727, "lon": -50.7443873}, "nodes": [3846902157, 3846902158, 3846902159, 3846902160, 3846902157], "tags": {"amenity": "hospital"}}, {"type": "way", "id": 381540076, "center": {"lat": -15.9328372, "lon": -50.1418221}, "nodes": [3847370468, 10915097192, 3847370469, 3847370470, 3847370471, 3847370468], "tags": {"amenity": "hospital", "emergency": "yes", "healthcare": "hospital", "name": "Hospital de Caridade S\u00e3o Pedro D'Alc\u00e2ntara", "website": "https://www.hospitalsaopedro.org.br/"}}, {"type": "way", "id": 382436994, "center": {"lat": -14.0962226, "lon": -50.3411255}, "nodes": [3856332183, 3856332184, 3856332185, 3856332186, 3856332183], "tags": {"amenity": "hospital", "name": "Hospital Municipal de Nova Crix\u00e1s"}}, {"type": "way", "id": 382484561, "center": {"lat": -16.9499036, "lon": -50.4485478}, "nodes": [3856844376, 3856844379, 3856844380, 3856844381, 3856844382, 3856844383, 3856844376], "tags": {"amenity": "hospital"}}, {"type": "way", "id": 382504547, "center": {"lat": -16.9476717, "lon": -50.4498047}, "nodes": [3857061161, 6292643791, 3857061162, 3857061163, 3857061164, 3857061161], "tags": {"addr:housenumber": "19", "addr:postcode": "75980-000", "addr:street": "Rua Sebasti\u00e3o Silva Melo", "addr:suburb": "Centro", "amenity": "hospital", "email": "secretsaudeparauna@hotmail.com", "healthcare": "hospital", "name": "Hospital Municipal de Para\u00fana", "operator:ref:vatin": "BR02394765000189", "ref:CNES": "6277578"}}, {"type": "way", "id": 387126399, "center": {"lat": -16.8141214, "lon": -50.4088805}, "nodes": [3904539946, 3904539947, 3904539948, 3904539949, 3904539946], "tags": {"amenity": "hospital", "name": "ESTABELECIMENTO DE SA\u00daDE"}}, {"type": "way", "id": 397446839, "center": {"lat": -16.066258, "lon": -57.6840383}, "nodes": [4002403882, 4643247924, 4643247923, 4643247925, 4643247926, 4643247933, 4643247934, 4643247927, 4643247928, 4002403883, 4002403884, 4643247932, 4643247931, 4643247929, 4643247930, 4002403885, 4002403882], "tags": {"addr:city": "C\u00e1ceres", "addr:housenumber": "29", "addr:postcode": "78200-000", "addr:street": "Avenida Sete de Setembro", "amenity": "hospital", "emergency": "yes", "name": "Hospital S\u00e3o Luis", "operator": "Associa\u00e7\u00e3o Congrega\u00e7\u00e3o de Santa Catarina", "phone": "+55 65 3221 1000", "source": "http://www.acsc.org.br/casas/hospital-sao-luiz/"}}, {"type": "way", "id": 401027275, "center": {"lat": -16.3856253, "lon": -51.5602449}, "nodes": [4035034707, 4035034708, 4035034709, 4035034710, 4035034707], "tags": {"amenity": "hospital"}}, {"type": "way", "id": 401027292, "center": {"lat": -16.3882805, "lon": -51.5561699}, "nodes": [4035034762, 4035034763, 4035034764, 4035034765, 4035034762], "tags": {"amenity": "hospital", "name": "POSTO DE SA\u00daDE DA FAM\u00cdLIA"}}, {"type": "way", "id": 401274279, "center": {"lat": -18.2954233, "lon": -51.1444317}, "nodes": [4037065200, 4037065201, 4037065202, 4037065203, 4037065200], "tags": {"amenity": "hospital"}}, {"type": "way", "id": 402456101, "center": {"lat": -18.088324, "lon": -50.2202944}, "nodes": [4048691005, 4048691006, 4048691007, 3746396592, 4048691005], "tags": {"addr:city": "Castel\u00e2ndia", "addr:housenumber": "2197", "addr:postcode": "75925-000", "addr:street": "Avenida Rio Verde", "addr:suburb": "Centro", "amenity": "hospital", "email": "hmcastelandia@outlook.com", "fax": "+55 64 3649 1390", "healthcare": "hospital", "name": "Hospital Municipal Luiza De Souza Ramos", "official_name": "Prefeitura Municipal De Castelandia", "operator:ref:vatin": "BR37275849000188", "phone": "+55 64 3649 1390", "ref:CNES": "2437996"}}, {"type": "way", "id": 408910906, "center": {"lat": -13.7765548, "lon": -50.2757793}, "nodes": [4108141564, 4108141565, 4108141566, 4108141567, 4108141568, 4108141564], "tags": {"amenity": "hospital"}}, {"type": "way", "id": 438881280, "center": {"lat": -15.5841918, "lon": -56.09452}, "nodes": [5027582145, 363805649, 363767405, 1783626335, 5027582145], "tags": {"amenity": "hospital", "healthcare": "hospital", "name": "Hospital Santa Helena"}}, {"type": "way", "id": 438881281, "center": {"lat": -15.5870184, "lon": -56.0774828}, "nodes": [8481818707, 8481818708, 366082630, 1817107760, 8481818707], "tags": {"addr:city": "Cuiab\u00e1", "addr:housenumber": "335", "addr:postcode": "78050-040", "addr:street": "Avenida Aclima\u00e7\u00e3o", "addr:suburb": "Jardim Aclima\u00e7\u00e3o", "amenity": "hospital", "emergency": "yes", "healthcare": "hospital", "name": "Hospital S\u00e3o Mateus", "operator:type": "private"}}, {"type": "way", "id": 456309539, "center": {"lat": -15.4642436, "lon": -55.737147}, "nodes": [4525812813, 4525812798, 4525812797, 4525812796, 4525812799, 4525812810, 4525812792, 4525812791, 4525812790, 4525812793, 4525812794, 4525812795, 4525812807, 4525812803, 4525812802, 4525812801, 4525812805, 4525812800, 4525812804, 4525812809, 4525812808, 4525812806, 4525812811, 4525812812, 4525812813], "tags": {"amenity": "hospital", "building": "hospital", "healthcare": "hospital", "name": "Hospital Municipal Santo Ant\u00f4nio"}}, {"type": "way", "id": 456997234, "center": {"lat": -15.5872393, "lon": -56.0991942}, "nodes": [4532158302, 4532158324, 4532158322, 4532158321, 4532158320, 4532158318, 4532158297, 4532158295, 4532158293, 4532158292, 4532158290, 4532158288, 4532158286, 4532158284, 4532158282, 4532158280, 4532158278, 4532158277, 4532158275, 4532158273, 4532158271, 4532158270, 4532158268, 4532158266, 4532158264, 4532158262, 4532158260, 4532158258, 4532158255, 4532158253, 4532158252, 4532158251, 4532158250, 4532158249, 4532158248, 4532158247, 4532158246, 4532158245, 4532158244, 4532158243, 4532158242, 4532158241, 4532158240, 4532158239, 4532158238, 4532158237, 4532158236, 4532158235, 4532158234, 4532158233, 4532158232, 4532158231, 4532158230, 4532158229, 4532158228, 4532158227, 4532158226, 4532158225, 4532158224, 4532158223, 4532158222, 4532158221, 4532158220, 4532158219, 4532158218, 4532158217, 4532158216, 4532158215, 4532158214, 4532158213, 4532158212, 4532158211, 4532158210, 4532158209, 4532158208, 4532158207, 4532158206, 4532158205, 4532158204, 4532158203, 4532158202, 4532158201, 4532158200, 4532158199, 4532158198, 4532158197, 4532158196, 4532158195, 4532158194, 4532158193, 4532158192, 4532158191, 4532158190, 4532158189, 4532158188, 4532158187, 4532158186, 4532158185, 4532158184, 4532158183, 4532158182, 4532158181, 4532158180, 4532158179, 4532158178, 4532158177, 4532158176, 4532158175, 4532158174, 4532158173, 4532158172, 4532158171, 4532158170, 4532158169, 4532158168, 4532158167, 4532158166, 4532158165, 4532158163, 4532158161, 4532158159, 4532158157, 4532158156, 4532158154, 4532158152, 4532158150, 4532158147, 4532158146, 4532158143, 4532158141, 4532158139, 4532158137, 4532158135, 4532158134, 4532158132, 4532158130, 4532158128, 4532158126, 4532158124, 4532158123, 4532158121, 4532158119, 4532158117, 4532158115, 4532158113, 4532158111, 4532158109, 4532158107, 4532158105, 4532158103, 4532158101, 4532158099, 4532158097, 4532158095, 4532158093, 4532158091, 4532158087, 4532158085, 4532158083, 4532158081, 4532158308, 4532158307, 4532158306, 4532158305, 4532158304, 4532158303, 4532158302], "tags": {"amenity": "hospital", "building": "yes", "healthcare": "hospital", "height": "23", "name": "Hospital S\u00e3o Benedito"}}, {"type": "way", "id": 457225365, "center": {"lat": -15.5951659, "lon": -56.1182893}, "nodes": [4533990391, 4533990390, 4533990389, 4533990388, 4533990387, 4533990386, 4533990385, 4533990384, 4533990383, 4533990382, 4533990381, 4533990380, 4533990379, 4533990378, 4533990377, 4533990376, 4533990375, 4533990374, 4533990373, 4533990372, 4533990371, 4533990370, 4533990369, 4533990368, 4533990367, 4533990366, 4533990365, 4533990364, 4533990363, 4533990362, 4533990361, 4533990360, 4533990359, 4533990358, 4533990357, 4533990356, 4533990355, 4533990354, 4533990353, 4533990352, 4533990351, 4533990350, 4533990349, 4533990348, 4533990347, 4533990391], "tags": {"addr:city": "Cuiab\u00e1", "addr:housenumber": "843", "addr:postcode": "78043-172", "addr:street": "Das Flores", "addr:suburb": "Jardim Cuiaba", "amenity": "hospital", "building": "hospital", "emergency": "yes", "healthcare": "hospital", "name": "Hospital Jardim Cuiab\u00e1", "ref:CNES": "9478175", "ref:vatin": "BR01757351000104"}}, {"type": "way", "id": 457417592, "center": {"lat": -15.64351, "lon": -56.1000071}, "nodes": [4535693848, 4535693849, 7330954600, 4535693854, 4535693821, 4535693820, 4535693828, 8506425103, 4535693830, 4535693855, 4535693856, 7330954596, 11286772707, 4535693847, 4535693848], "tags": {"addr:postcode": "78118-187", "addr:street": "Avenida Dom Orlando Chaves", "addr:suburb": "Cristo Rei", "amenity": "hospital", "healthcare": "hospital", "name": "Hospital Metropolitano de V\u00e1rzea Grande", "operator:ref:vatin": "BR03507415000225", "phone": "+55 65 3388 0600", "ref:CNES": "6853781"}}, {"type": "way", "id": 473230042, "center": {"lat": -15.2336021, "lon": -59.3390881}, "nodes": [3292667753, 9318730997, 1905540210, 9551995091, 9551995092, 1905540227, 3292667753], "tags": {"addr:city": "Pontes e Lacerda", "addr:postcode": "78250000", "addr:street": "Rua Antonio Bento Neto", "addr:suburb": "Centro", "amenity": "hospital", "emergency": "yes", "healthcare": "hospital", "name": "Santa Casa - Hospital Vale do Guapor\u00e9"}}, {"type": "way", "id": 477582687, "center": {"lat": -13.0754637, "lon": -55.9086275}, "nodes": [7637222910, 7637222900, 7637222899, 7637222898, 5607931483, 7637222907, 7637222906, 7637222897, 7637222896, 7637222909, 5607931493, 7637222895, 5607931496, 5607931499, 5607931502, 5607931473, 5607931470, 7637222894, 7637222893, 7637222892, 7637222891, 5607931468, 7637222890, 5607931469, 7637222889, 5607931476, 5607931477, 5607931478, 7637222888, 7637222887, 7637222886, 7637222901, 7637222910], "tags": {"amenity": "hospital", "healthcare": "hospital"}}, {"type": "way", "id": 494507763, "center": {"lat": -15.5617575, "lon": -56.106094}, "nodes": [4862658993, 4862658992, 5256482735, 5256482736, 5256482737, 5256482738, 5256482739, 5256482740, 5256482741, 5256482742, 5256482743, 5256482759, 5256482758, 5256482757, 5256482756, 5256482755, 5256482754, 5256482753, 5256482752, 5256482751, 5256482750, 5256482749, 5256482748, 5256482747, 5256482745, 5256482744, 5256482760, 5256482761, 4862658981, 4862658993], "tags": {"addr:street": "Rua Orivaldo M. de Souza", "addr:suburb": "Ribeir\u00e3o do Lipa", "alt_name": "Hospital Municipal de Cuiab\u00e1", "amenity": "hospital", "emergency": "yes", "healthcare": "hospital", "healthcare:speciality": "general", "name": "Hospital Municipal de Cuiab\u00e1 e Pronto Socorro Doutor Leony Palma de Carvalho", "official_name": "Hospital Municipal de Cuiab\u00e1 \u201cDr. Leony Palma de Carvalho\u201d", "operator": "Empresa Cuiabana de Sa\u00fade P\u00fablica", "operator:type": "government", "phone": "+55 65 3318 4800", "ref:CNES": "2495015", "source": "CNES"}}, {"type": "way", "id": 497823796, "center": {"lat": -15.7718442, "lon": -56.3402734}, "nodes": [4893314860, 4893314859, 4893314855, 4893314856, 4893314858, 4893314857, 4893314853, 4893314854, 4893314860], "tags": {"amenity": "hospital", "building": "hospital", "name": "Hospital Municipal Prof\u00aa Maria A. da Costa", "operator": "SUS/Prefeitura Municipal de Nossa Senhora do Livramento"}}, {"type": "way", "id": 502767775, "center": {"lat": -11.5371032, "lon": -57.4080701}, "nodes": [4931468296, 9799158803, 4931468297, 4931468298, 4931468299, 4931468296], "tags": {"amenity": "hospital", "healthcare": "hospital", "name": "Hospital Municipal Gustav Adolf Isernhagen"}}, {"type": "way", "id": 505421930, "center": {"lat": -13.5592151, "lon": -52.266938}, "nodes": [4953814336, 4953814337, 4953814324, 4953814325, 4953814326, 4953814327, 4953814328, 4953814329, 4953814330, 4953814331, 4953814332, 4953814333, 4953814334, 4953814335, 4953814336], "tags": {"amenity": "hospital"}}, {"type": "way", "id": 505421931, "center": {"lat": -13.5588911, "lon": -52.2670788}, "nodes": [4953814338, 4953814339, 4953814340, 4953814341, 4953814338], "tags": {"amenity": "hospital"}}, {"type": "way", "id": 505421932, "center": {"lat": -13.5591205, "lon": -52.2669085}, "nodes": [4953814342, 4953814343, 4953814344, 4953814345, 4953814342], "tags": {"amenity": "hospital"}}, {"type": "way", "id": 509420273, "center": {"lat": -17.4491109, "lon": -51.1787397}, "nodes": [4986514601, 4986514602, 4986514603, 4986514604, 4986514605, 4986514606, 4986514601], "tags": {"addr:street": "Rua Francisco S\u00e1les Rocha", "amenity": "hospital", "name": "Hospital Municipal e Maternidade Dona Zebina 5,0\u00b71 coment\u00e1rio"}}, {"type": "way", "id": 544873189, "center": {"lat": -15.6722446, "lon": -56.1275743}, "nodes": [5266639568, 5266639567, 5266639569, 5268157087, 5266639570, 5266639568], "tags": {"addr:city": "Varzea Grande", "addr:housenumber": "5", "addr:postcode": "78128252", "addr:street": "Rua Benedito Curvo", "addr:suburb": "Costa Verde", "amenity": "hospital", "building:levels": "1", "healthcare": "hospital", "name": "Laborat\u00f3rio da Prefeitura de V\u00e1rzea Grande"}}, {"type": "way", "id": 545016782, "center": {"lat": -15.5666492, "lon": -54.2967808}, "nodes": [5267994347, 5267994348, 5267994349, 5267994350, 5267994347], "tags": {"amenity": "hospital", "healthcare": "hospital"}}, {"type": "way", "id": 545890230, "center": {"lat": -16.4623631, "lon": -54.6429728}, "nodes": [5275748041, 5275748042, 5275748043, 5275748044, 5275748045, 5275748046, 5275748041], "tags": {"amenity": "hospital", "healthcare": "hospital", "name": "Santa Casa de Rondon\u00f3polis"}}, {"type": "way", "id": 545890231, "center": {"lat": -16.4632534, "lon": -54.6429056}, "nodes": [5275748047, 5275748048, 5275748049, 5275748050, 5275748047], "tags": {"amenity": "hospital", "healthcare": "hospital", "name": "Materclin"}}, {"type": "way", "id": 552844397, "center": {"lat": -12.5947328, "lon": -52.2011701}, "nodes": [5336983387, 5336983388, 5336983389, 5336983390, 5336983387], "tags": {"amenity": "hospital", "healthcare": "hospital", "name": "Cl\u00ednica da Fam\u00edlia"}}, {"type": "way", "id": 557027894, "center": {"lat": -16.9544877, "lon": -51.8091872}, "nodes": [5372588694, 5372588695, 5372588696, 5372588697, 5372588698, 5372588699, 5372588700, 5372588701, 5372588702, 5372588694], "tags": {"addr:city": "Caiap\u00f4nia", "addr:housenumber": "93", "addr:postcode": "75850-000", "addr:street": "Rua Dom Pedro I", "addr:suburb": "Faria", "amenity": "hospital", "emergency": "yes", "healthcare": "hospital", "name": "Hospital Municipal Ad\u00e3o Nazir Martins Silva"}}, {"type": "way", "id": 574819171, "center": {"lat": -11.869069, "lon": -55.5180885}, "nodes": [5516793548, 5516793549, 5516793550, 5516793551, 5516793548], "tags": {"amenity": "hospital", "healthcare": "hospital", "name": "Hospital Santo Antonio"}}, {"type": "way", "id": 596109766, "center": {"lat": -10.0177282, "lon": -51.1178581}, "nodes": [5679670854, 5679670855, 10151341464, 10151341463, 10151341465, 10151341466, 5679670856, 5679670857, 5679670854], "tags": {"amenity": "hospital", "healthcare": "hospital", "name": "Pronto de Atendimento Sus"}}, {"type": "way", "id": 600245638, "center": {"lat": -10.6512149, "lon": -51.569602}, "nodes": [5708237169, 5708237170, 5708237171, 5708237172, 5708237169], "tags": {"addr:city": "Confresa", "addr:housenumber": "S/N", "addr:postcode": "78652000", "addr:street": "Avenida Centro-Oeste", "addr:suburb": "Centro", "amenity": "hospital", "emergency": "no", "healthcare": "hospital", "name": "Casa Rosa e Centro de Imuniza\u00e7\u00e3o", "operator": "SMS Confresa"}}, {"type": "way", "id": 602688036, "center": {"lat": -10.6477969, "lon": -51.5707316}, "nodes": [5723738845, 10152169069, 10152169071, 10152169072, 10152169070, 5723738846, 5723738847, 10152169068, 10152169067, 10152169066, 2914658979, 5723738848, 5723738845], "tags": {"addr:postcode": "78652-000", "addr:street": "Rua C\u00e2milo Locheister", "addr:suburb": "Centro", "amenity": "hospital", "emergency": "yes", "healthcare": "hospital", "name": "Hospital Municipal  de Confresa", "phone": "+55 66 3564 1080", "ref": "CNES-2793636", "source": "CNES"}}, {"type": "way", "id": 626734511, "center": {"lat": -16.4540712, "lon": -54.6427446}, "nodes": [5916718282, 5916718283, 5916718284, 5916718985, 5916718986, 5916718987, 5916718988, 5916718282], "tags": {"amenity": "hospital", "healthcare": "hospital", "name": "UPA"}}, {"type": "way", "id": 647436846, "center": {"lat": -15.6302637, "lon": -50.0271069}, "nodes": [6080218525, 6080218526, 6080218527, 6080218528, 6080218529, 6080218530, 6080218531, 6080218532, 6080218533, 6080218534, 6080218535, 6080218536, 6080218525], "tags": {"amenity": "hospital", "healthcare": "hospital"}}, {"type": "way", "id": 656001577, "center": {"lat": -17.7871093, "lon": -50.9183734}, "nodes": [6145647559, 6145647560, 6145647561, 6145647562, 6145647559], "tags": {"amenity": "hospital", "emergency": "yes", "healthcare": "hospital", "name": "UPA Rio Verde", "operator": "Prefeitura de Rio Verde"}}, {"type": "way", "id": 667375582, "center": {"lat": -16.361732, "lon": -58.3953628}, "nodes": [6248632537, 6248632538, 6248632539, 6248632540, 6248635155, 6248632541, 6248632542, 6248632543, 6248632537], "tags": {"addr:city": "San Matias", "amenity": "hospital", "barrier": "yes", "healthcare": "hospital"}}, {"type": "way", "id": 681511628, "center": {"lat": -15.6340332, "lon": -56.0558956}, "nodes": [6382217348, 6382217349, 6382217350, 6382217351, 6382217352, 6382217353, 6382217354, 6382217355, 6382217356, 6382217357, 6382217358, 6382217359, 6382217348], "tags": {"addr:city": "Cuiab\u00e1", "addr:housenumber": "s/n", "addr:postcode": "78080-000", "addr:street": "R. Adauto Botelho", "addr:suburb": "Coophema", "amenity": "hospital", "emergency": "no", "fixme": "Rua que j\u00e1 estava na amenity (e inclusive no DATASUS) \u00e9 Rua Adauto Botelho por\u00e9m a via pr\u00f3xima \u00e9 Rua Nova Igua\u00e7u. Geometria do DATASUS tamb\u00e9m aponta aqui", "healthcare": "hospital", "healthcare:speciality": "psychiatry", "name": "Adalto Botelho", "operator": "Rede Publica", "operator:ref:vatin": "BR03507415000225", "phone": "+55 65 3661 4350", "ref:CNES": "2604396"}}, {"type": "way", "id": 681896143, "center": {"lat": -17.8053187, "lon": -50.9105651}, "nodes": [6385945028, 6385945029, 6385945030, 6385945031, 6385945028], "tags": {"addr:street": "Avenida Ad\u00e3o Mota", "amenity": "hospital", "emergency": "no", "healthcare": "hospital", "healthcare:speciality": "general", "name": "Posto de Sa\u00fade do Gameleira"}}, {"type": "way", "id": 685023274, "center": {"lat": -13.5487193, "lon": -58.8183241}, "nodes": [6418644029, 6418644030, 6418644031, 6418644032, 6418644029], "tags": {"amenity": "hospital", "healthcare": "hospital"}}, {"type": "way", "id": 686138171, "center": {"lat": -14.3997759, "lon": -56.4206379}, "nodes": [6431106904, 6431106905, 6431106906, 6431106907, 6431106908, 6431106909, 6431106910, 6431106911, 6431106912, 6431106913, 6431106914, 6431106915, 6431106916, 6431106904], "tags": {"amenity": "hospital", "emergency": "yes", "healthcare": "hospital"}}, {"type": "way", "id": 688761877, "center": {"lat": -10.6313908, "lon": -55.7093576}, "nodes": [6460276789, 6460175111, 6460276790, 6460276791, 6460276789], "tags": {"amenity": "hospital", "emergency": "no", "healthcare": "hospital"}}, {"type": "way", "id": 688767510, "center": {"lat": -10.6396441, "lon": -55.7105671}, "nodes": [6460422655, 6460422656, 6460422657, 6460422658, 6460422655], "tags": {"amenity": "hospital", "emergency": "no", "healthcare": "hospital"}}, {"type": "way", "id": 688767511, "center": {"lat": -10.6456416, "lon": -55.7064821}, "nodes": [6460422659, 6460422660, 6460422661, 6460422662, 6460422659], "tags": {"amenity": "hospital", "emergency": "no", "healthcare": "hospital"}}, {"type": "way", "id": 701984451, "center": {"lat": -15.5392362, "lon": -54.2889361}, "nodes": [6592352284, 6592352285, 6592352286, 6592352287, 6592352284], "tags": {"amenity": "hospital", "emergency": "yes", "healthcare": "hospital", "healthcare:speciality": "general;emergency", "name": "UPA"}}, {"type": "way", "id": 702903818, "center": {"lat": -17.4062813, "lon": -50.3784176}, "nodes": [6601006181, 6601006182, 6601006183, 6601006184, 6601006181], "tags": {"addr:city": "Acre\u00fana", "addr:postcode": "75960000", "addr:street": "Rua Leonardo Pires", "addr:suburb": "S\u00e3o Louren\u00e7o", "amenity": "hospital", "healthcare": "hospital", "healthcare:speciality": "general", "name": "Hospital P\u00fablico Municipal"}}, {"type": "way", "id": 706138748, "center": {"lat": -15.9686276, "lon": -54.970748}, "nodes": [8186939616, 8186939615, 8186953717, 6635000636, 8186939614, 8186939616], "tags": {"amenity": "hospital", "healthcare": "hospital", "name": "Hospital Mnicipal"}}, {"type": "way", "id": 715428427, "center": {"lat": -15.5912938, "lon": -56.0904139}, "nodes": [6723909654, 6723909653, 6723909652, 6723909651, 6723909650, 6723909649, 6723909648, 6723909647, 6723909654], "tags": {"amenity": "hospital", "building": "yes", "healthcare": "hospital", "name": "Hospital Otorrino"}}, {"type": "way", "id": 715429920, "center": {"lat": -15.5915522, "lon": -56.0914086}, "nodes": [6723918372, 6723918371, 6723918370, 6723918369, 6723918368, 6723918367, 6723918366, 6723919595, 6723919596, 6723918365, 6723918364, 6723918363, 6723918362, 6723918361, 6723918360, 6723918372], "tags": {"amenity": "hospital", "building": "yes", "healthcare": "hospital", "height": "10", "name": "Hospital Otorrino"}}, {"type": "way", "id": 721156511, "center": {"lat": -17.5594775, "lon": -52.5456512}, "nodes": [6766204490, 6766204491, 6766204492, 6766204493, 6766204490], "tags": {"amenity": "hospital", "healthcare": "hospital", "name": "Unidade de Pronto Atendimento"}}, {"type": "way", "id": 721774867, "center": {"lat": -17.5651113, "lon": -52.5559066}, "nodes": [3221586459, 6770760370, 6770760371, 6770760372, 6770760373, 6770760374, 6770760375, 6770760376, 6770760377, 6770760378, 6770760379, 6770760380, 6770760381, 6770760382, 6770760383, 6770760384, 6770819885, 6770819886, 6770819887, 6770819888, 6770819889, 6770819890, 6770819891, 6770819892, 6770819893, 6770819894, 6770819895, 6770819896, 6770819897, 6770819898, 6770819899, 3221586459], "tags": {"amenity": "hospital", "building": "hospital", "healthcare": "hospital", "name": "Hospital Nossa Senhora de Fatima"}}, {"type": "way", "id": 722787291, "center": {"lat": -15.5535137, "lon": -56.0586605}, "nodes": [6779857236, 10676455206, 6779857237, 6779857238, 10676455207, 6779857239, 6779857240, 6779857236], "tags": {"addr:city": "Cuiab\u00e1", "addr:housenumber": "5500", "addr:postcode": "78055-500", "addr:street": "Avenida Historiador Rubens de Mendon\u00e7a", "addr:suburb": "Coxip\u00f3 da Ponte", "alt_name": "Hosp. do C\u00e2ncer", "amenity": "hospital", "emergency": "yes", "healthcare": "hospital", "healthcare:speciality": "cancer", "name": "Hospital de C\u00e2ncer"}}, {"type": "way", "id": 728834281, "center": {"lat": -16.0658286, "lon": -57.6837995}, "nodes": [6828344649, 6828344650, 6828344651, 6828344652, 6828344653, 6828344654, 6828344655, 6828344656, 6828344657, 6828344658, 6828344659, 6828344660, 6828344661, 6828344662, 6828344649], "tags": {"amenity": "hospital", "healthcare": "hospital"}}, {"type": "way", "id": 737490292, "center": {"lat": -10.8081917, "lon": -55.4587396}, "nodes": [6904782145, 6904782146, 2978315277, 6904782148, 6904782145], "tags": {"addr:city": "Col\u00edder", "addr:housenumber": "288", "addr:postcode": "78500-000", "addr:street": "Avenida Tancredo Neves", "addr:suburb": "Centro", "amenity": "hospital", "emergency": "yes", "fax": "+55 66 3541 1164", "healthcare": "hospital", "name": "Hospital e Maternidade Santa In\u00eas", "ref:CNES": "2392399", "ref:vatin": "BR01148873000109"}}, {"type": "way", "id": 754826564, "center": {"lat": -19.7381589, "lon": -50.2067691}, "nodes": [7051277686, 7051277687, 7051277688, 7051277689, 7051277690, 7051277686], "tags": {"amenity": "hospital", "healthcare": "hospital"}}, {"type": "way", "id": 760922926, "center": {"lat": -15.6082272, "lon": -56.0499415}, "nodes": [7108976626, 7108976627, 7108976628, 7108976629, 7108976630, 7108976631, 7108976632, 7108976633, 7108976634, 7108976635, 7108976636, 7108976637, 7108976626], "tags": {"abandoned": "yes", "amenity": "hospital", "area": "abandoned", "barrier": "fence", "healthcare": "hospital", "hospital": "abandoned", "name": "Antigo Hospital Santa Cruz"}}, {"type": "way", "id": 766396825, "center": {"lat": -12.5412969, "lon": -55.7251205}, "nodes": [7157839300, 7157839301, 7157839302, 7157839303, 7157839300], "tags": {"amenity": "hospital", "healthcare": "hospital"}}, {"type": "way", "id": 781624618, "center": {"lat": -15.6588309, "lon": -56.1243008}, "nodes": [7297598782, 7297598783, 7297598784, 7297598785, 11282522773, 7297598786, 7297598782], "tags": {"amenity": "hospital", "healthcare": "hospital", "name": "UPA V\u00e1rzea Grande"}}, {"type": "way", "id": 786908015, "center": {"lat": -12.5329111, "lon": -55.7358384}, "nodes": [7356621521, 7356621522, 7356621523, 7356621524, 7356621525, 7356621526, 7356621521], "tags": {"addr:city": "Sorriso", "addr:housenumber": "2337", "addr:postcode": "78891-138", "addr:street": "Avenida Brasil", "addr:suburb": "Villa Romana", "amenity": "hospital", "email": "adm@hospitalcandidoportinari.com.br", "healthcare": "hospital", "name": "Hospital Candido Portinari", "official_name": "Hospital Candido Portinari", "ref:CNES": "7210345", "ref:vatin": "BR08860004000151", "website": "https://www.hospitalcandidoportinari.com.br"}}, {"type": "way", "id": 786908016, "center": {"lat": -12.5323664, "lon": -55.735214}, "nodes": [8289267088, 8295371623, 8295371624, 8289267089, 8289267088], "tags": {"addr:city": "Sorriso", "addr:housenumber": "2346", "addr:postcode": "78891-139", "addr:street": "Avenida Brasil", "addr:suburb": "Villa Romana", "amenity": "hospital", "email": "secretaria.diretoria@hospital13demaio.com.br", "healthcare": "hospital", "healthcare:speciality": "general;paediatrics;intensive;ophthalmology;orthopaedics;gynaecology;emergency;cardiology;surgery;oncology;radiology;maternity", "name": "Hospital Maternidade 13 de Maio Vila Romana", "ref:CNES": "7901127", "ref:vatin": "BR11198350000120", "website": "https://hospital13demaio.com.br/", "wheelchair": "yes"}}, {"type": "way", "id": 786908017, "center": {"lat": -12.5326842, "lon": -55.7351324}, "nodes": [7356621531, 7356621532, 7356621533, 7356621534, 7356621531], "tags": {"amenity": "hospital", "healthcare": "hospital", "name": "INSTITUTO DO CANCER"}}, {"type": "way", "id": 788764143, "center": {"lat": -19.0062263, "lon": -57.7194394}, "nodes": [7374299228, 7374299229, 7374299230, 7374299231, 7374299232, 7374299228], "tags": {"addr:city": "Puerto Quijarro", "amenity": "hospital", "barrier": "wall", "emergency": "yes", "healthcare": "hospital", "healthcare:speciality": "general", "name": "Hospital Municipal"}}, {"type": "way", "id": 808669587, "center": {"lat": -16.4435694, "lon": -54.6690028}, "nodes": [7561763941, 7561763940, 8843001193, 7561763939, 7561763938, 8843001194, 7561763937, 7561763941], "tags": {"amenity": "hospital", "healthcare": "hospital", "name": "Hospital Dr. M\u00e1rio Perrone (Unimed)"}}, {"type": "way", "id": 810530098, "center": {"lat": -15.6567393, "lon": -56.1376968}, "nodes": [7578370097, 7578370098, 7578370099, 7578370100, 7578370101, 7578370102, 7578370103, 7578370104, 7578370097], "tags": {"addr:city": "V\u00e1rzea Grannde", "addr:postcode": "78135-626", "addr:street": "Avenida Alzira Santana", "addr:suburb": "Centro Sul", "amenity": "hospital", "emergency": "yes", "fax": "+55 65 3686 2052", "healthcare": "hospital", "name": "Hospital e Pronto Socorro Municipal de V\u00e1rzea Grande", "operator:ref:vatin": "BR03507548000110", "phone": "+55 65 3029 6444", "ref:CNES": "2391635"}}, {"type": "way", "id": 812927056, "center": {"lat": -15.6358411, "lon": -55.9474342}, "nodes": [7593197423, 7593197424, 7593197425, 7593197427, 7593197426, 10157122894, 7593197423], "tags": {"amenity": "hospital", "healthcare": "hospital", "name": "Policl\u00ednica Pedra 90"}}, {"type": "way", "id": 814665913, "center": {"lat": -15.6048973, "lon": -56.1271495}, "nodes": [7609859148, 7609859149, 7609859150, 9921693430, 7609859151, 7609859152, 7609859148], "tags": {"addr:city": "Cuiab\u00e1", "addr:street": "Avenida Doutor Agr\u00edcola Paes de Barros", "addr:suburb": "Verd\u00e3o", "amenity": "hospital", "healthcare": "hospital", "name": "UPA Verd\u00e3o - Dr. Jony Soares Ramos"}}, {"type": "way", "id": 814670503, "center": {"lat": -15.6012024, "lon": -56.0728937}, "nodes": [7609872065, 7609872066, 7609872067, 7609872068, 7609872065], "tags": {"addr:city": "Cuiab\u00e1", "addr:housenumber": "247", "addr:postcode": "78060-024", "addr:street": "Rua Militar", "addr:suburb": "Jardim Leblon", "amenity": "hospital", "emergency": "yes", "healthcare": "hospital", "healthcare:speciality": "general;emergency", "name": "UPA Jardim Leblon", "official_name": "Unidade de Pronto Atendimento (UPA) Erc\u00edlio Fernandes da Rocha", "opening_hours": "24/7", "operator": "Sistema \u00danico de Sa\u00fade", "operator:short": "SUS", "operator:type": "public", "operator:wikidata": "Q7531056", "start_date": "2023-07-13", "wheelchair": "yes"}}, {"type": "way", "id": 815383178, "center": {"lat": -17.5668853, "lon": -52.5591541}, "nodes": [7615335071, 7615335067, 7615335066, 7615335065, 5826262766, 7615335064, 7615335063, 7615335068, 7615335062, 7615335069, 7615335070, 7615335071], "tags": {"addr:city": "Mineiros", "addr:postcode": "75830-002", "addr:street": "Bel Pereira", "addr:suburb": "Vila Machado", "amenity": "hospital", "building": "hospital", "fax": "+55 64 3661 1755", "healthcare": "hospital", "name": "Hospital S\u00e3o Lucas", "ref:CNES": "2571072", "ref:vatin": "BR02892529000192"}}, {"type": "way", "id": 817345514, "center": {"lat": -15.5643616, "lon": -56.0689016}, "nodes": [7633419319, 7633419320, 10050024733, 10050024765, 7633419321, 10050024763, 10050024734, 7633419322, 7633419323, 7633419324, 7633419319], "tags": {"amenity": "hospital", "healthcare": "rehabilitation", "name": "Centro de Reabilita\u00e7\u00e3o Integral Dom Aquino Corr\u00eaa - CRIDAC", "operator": "Sistema \u00danico de Sa\u00fade", "operator:short": "SUS", "operator:type": "public", "operator:wikidata": "Q7531056", "short_name": "CRIDAC"}}, {"type": "way", "id": 818969382, "center": {"lat": -17.7966435, "lon": -50.928751}, "nodes": [7648105639, 7648105633, 7648105655, 7648105636, 7648105658, 7648105613, 7648105639], "tags": {"addr:city": "Rio Verde", "addr:housenumber": "644", "addr:postcode": "75901-060", "addr:street": "Rua Abel Pereira de Castro", "amenity": "hospital", "healthcare": "hospital", "name": "Hospital Presbiteriano Doutor Gordon", "ref:CNES": "2340704", "ref:vatin": "BR02608131000181"}}, {"type": "way", "id": 822486017, "center": {"lat": -15.2351383, "lon": -59.331407}, "nodes": [7679784553, 2298368009, 7679784552, 7679784551, 7679784550, 7679784549, 7679784548, 7679784547, 7679784546, 7679784545, 7679784544, 7679784543, 7679784542, 7679784541, 7679784540, 7679784539, 7679784553], "tags": {"amenity": "hospital", "building": "yes", "name": "Hospital S\u00e3o Lucas"}}, {"type": "way", "id": 823240853, "center": {"lat": -11.4192303, "lon": -58.7569981}, "nodes": [7685790016, 7685790017, 7685790018, 7685790019, 7685790016], "tags": {"amenity": "hospital", "healthcare": "hospital", "healthcare:speciality": "general", "name": "Hospital Municipal Dr. Hideo Sakuno"}}, {"type": "way", "id": 824925870, "center": {"lat": -11.2590182, "lon": -57.5112272}, "nodes": [7702859305, 7702859306, 7702859307, 7702859308, 7702859305], "tags": {"amenity": "hospital", "healthcare": "hospital", "name": "Hospital S\u00e3o Lucas"}}, {"type": "way", "id": 840739482, "center": {"lat": -15.5697134, "lon": -56.0550524}, "nodes": [7844931340, 7844931341, 7844931342, 7844931343, 7844931344, 7844931345, 7844931346, 7844931347, 7844931340], "tags": {"addr:city": "Cuiab\u00e1", "addr:housenumber": "17", "addr:street": "Avenida Tancredo Neves", "addr:suburb": "Morada do Ouro", "amenity": "hospital", "emergency": "yes", "healthcare": "hospital", "name": "UPA Morada do Ouro", "operator": "Sistema \u00danico de Sa\u00fade", "operator:short": "SUS", "operator:type": "public", "operator:wikidata": "Q7531056"}}, {"type": "way", "id": 851328661, "center": {"lat": -12.595596, "lon": -52.2065574}, "nodes": [7940240876, 7940240884, 7940240880, 7940240877, 7940240878, 7940240879, 7940240881, 7940240876], "tags": {"addr:postcode": "78643-000", "addr:street": "Rua Lucas Gorgen (A14)", "amenity": "hospital", "healthcare": "hospital", "name": "Hospital San Diego", "ref:CNES": "6047831", "ref:vatin": "BR05888470000157"}}, {"type": "way", "id": 853566517, "center": {"lat": -14.5374362, "lon": -52.7971986}, "nodes": [7961444870, 7961444871, 7961444872, 7961444873, 7961444874, 7961444875, 7961444870], "tags": {"addr:city": "Campin\u00e1polis", "addr:postcode": "78630000", "addr:street": "Rua Alves Ferreira", "addr:suburb": "Centro", "amenity": "hospital", "healthcare": "hospital", "healthcare:speciality": "general", "name": "Hospital Municipal Dr. R\u00e9gis"}}, {"type": "way", "id": 853566739, "center": {"lat": -14.5369323, "lon": -52.7954098}, "nodes": [7961448670, 7961448671, 7961448672, 7961448673, 7961448670], "tags": {"addr:city": "Campin\u00e1polis", "addr:postcode": "78630000", "addr:street": "Avenida Nego Carrim", "addr:suburb": "Centro", "amenity": "hospital", "healthcare": "hospital", "name": "Posto de Sa\u00fade 2"}}, {"type": "way", "id": 853582159, "center": {"lat": -14.5422743, "lon": -52.797657}, "nodes": [7961584715, 7961584716, 7961584717, 7961584718, 7961584715], "tags": {"amenity": "hospital", "healthcare": "hospital", "healthcare:speciality": "general", "name": "Posto de Sa\u00fade I", "operator": "Prefeitura"}}, {"type": "way", "id": 862057685, "center": {"lat": -12.5469979, "lon": -55.7202516}, "nodes": [8032199827, 8032199828, 8032199829, 8032199830, 8032199831, 8032199832, 8032199827], "tags": {"amenity": "hospital", "healthcare": "hospital", "name": "Hospital F\u00e1tima"}}, {"type": "way", "id": 890869226, "center": {"lat": -16.4827233, "lon": -54.6202352}, "nodes": [8279919198, 8279919199, 8279919200, 8279919201, 8279919198], "tags": {"amenity": "hospital", "healthcare": "hospital", "name": "Hospital Municipal Cristyan Mary da Silveira e Lima"}}, {"type": "way", "id": 902492538, "center": {"lat": -17.8817467, "lon": -51.7149022}, "nodes": [8382405333, 8382405334, 8382405335, 8382405336, 8382405346, 8382405337, 8382405338, 8382405339, 8382405340, 8382405341, 8382405333], "tags": {"amenity": "hospital", "healthcare": "hospital"}}, {"type": "way", "id": 907064666, "center": {"lat": -11.2328201, "lon": -57.5105941}, "nodes": [8422931498, 8422931499, 8422931500, 8422931501, 8422931498], "tags": {"amenity": "hospital", "healthcare": "hospital", "name": "Casa de sa\u00fade do \u00edndio"}}, {"type": "way", "id": 907064687, "center": {"lat": -11.2460686, "lon": -57.5103644}, "nodes": [8422931596, 8422931597, 8422931598, 8422931599, 8422931596], "tags": {"amenity": "hospital", "healthcare": "hospital", "name": "Hospital Municipal"}}, {"type": "way", "id": 920555477, "center": {"lat": -17.8813185, "lon": -51.7185717}, "nodes": [8547011351, 8547011352, 8547011353, 8547011354, 8547011355, 8547011356, 8547011357, 8547011358, 8547011359, 8547011360, 8547011361, 8547011362, 8547011363, 8547011364, 8547011365, 8547011366, 8547011367, 8547011351], "tags": {"amenity": "hospital", "healthcare": "hospital"}}, {"type": "way", "id": 922058952, "center": {"lat": -16.5133204, "lon": -50.3745265}, "nodes": [8560236894, 8560236895, 8560236896, 8560236897, 8560236898, 8560236899, 8560236900, 8560236901, 8560236894], "tags": {"amenity": "hospital", "healthcare": "hospital"}}, {"type": "way", "id": 938642650, "center": {"lat": -17.7780432, "lon": -50.9030182}, "nodes": [8695599707, 8695599708, 8695599709, 8695599710, 8695599711, 8695599707], "tags": {"addr:city": "Rio Verde", "addr:housenumber": "S/N", "addr:postcode": "75904-660", "addr:street": "Rua Tiradentes", "addr:suburb": "Santo Agostinho", "amenity": "hospital", "healthcare": "hospital", "healthcare:speciality": "general", "name": "Hospital do C\u00e2ncer de Rio Verde", "operator": "Prefeitura de Rio Verde", "operator:type": "public", "ref:CNES": "2814218", "ref:vatin": "BR25040544000108"}}, {"type": "way", "id": 943312765, "center": {"lat": -15.7191824, "lon": -56.1382647}, "nodes": [8734405837, 8734405838, 8734405839, 8734405840, 8734405837], "tags": {"amenity": "hospital", "healthcare": "hospital", "name": "Policlinica Miguel Baracat"}}, {"type": "way", "id": 956559124, "center": {"lat": -15.8693054, "lon": -50.8669808}, "nodes": [8852758114, 8852758115, 8852758116, 8852773317, 8852773318, 8852773319, 8852773326, 8852773320, 8852773321, 8852773322, 8852758114], "tags": {"amenity": "hospital", "healthcare": "hospital", "name": "Hospital Municipal"}}, {"type": "way", "id": 956559125, "center": {"lat": -15.8690478, "lon": -50.8670103}, "nodes": [8852773323, 8856996981, 8852773324, 8852773325, 8852773326, 8852773319, 8852773318, 8852773317, 8852758116, 8852758115, 8852758114, 8852773323], "tags": {"amenity": "hospital", "healthcare": "hospital", "name": "Hospital e Maternidade Santa Clara"}}, {"type": "way", "id": 956682858, "center": {"lat": -15.865839, "lon": -50.8659136}, "nodes": [8853891732, 8853891733, 8853891734, 8853891735, 8853891739, 8853891740, 8853891741, 8853891742, 8853891732], "tags": {"amenity": "hospital", "healthcare": "hospital", "name": "Hospital Nsa. Sra. das Gra\u00e7as (desativado)"}}, {"type": "way", "id": 967386861, "center": {"lat": -15.7690512, "lon": -58.309754}, "nodes": [8949653091, 8949653092, 8949653093, 8949653094, 8949653095, 8949653096, 8949653097, 8949653098, 8949653091], "tags": {"amenity": "hospital", "emergency": "yes", "healthcare": "hospital"}}, {"type": "way", "id": 992205058, "center": {"lat": -14.5439215, "lon": -52.803289}, "nodes": [9167326639, 9167326640, 9167326641, 9167326642, 9167326639], "tags": {"addr:city": "Campin\u00e1polis", "addr:postcode": "78630000", "addr:street": "Rua Alagoas", "amenity": "hospital", "healthcare": "hospital", "name": "Casa de Apoio \u00e0 Sa\u00fade Ind\u00edgena - CASAI"}}, {"type": "way", "id": 1006771795, "center": {"lat": -15.6517881, "lon": -56.1415027}, "nodes": [9288390848, 9288390849, 9288390863, 9288390850, 9288390851, 9288390852, 9288390857, 9288390853, 9288390854, 9288390855, 9288390856, 9288390848], "tags": {"addr:city": "V\u00e1rzea Grande", "addr:housenumber": "60", "addr:postcode": "78135-613", "addr:street": "Rua S\u00e3o Paulo", "amenity": "hospital", "emergency": "yes", "healthcare": "hospital", "healthcare:speciality": "general;psychiatry;paediatrics;dentistry;ophthalmology;intensive;orthopaedics;gynaecology;orthodontics;emergency;dermatology;cardiology;radiology;maternity;physiatry;osteopathy", "image": "https://commons.wikimedia.org/wiki/File:Santa_Rita_hospital.jpg", "internet_access": "wlan", "internet_access:fee": "customers", "name": "Hospital Santa Rita", "ref:CNES": "2391503", "ref:vatin": "BR37459419000116", "start_date": "1994-10-12", "website": "https://hospitalsantaritavg.com.br/", "wheelchair": "yes", "wikimedia_commons": "File:Santa_Rita_hospital.jpg"}}, {"type": "way", "id": 1049171045, "center": {"lat": -13.1812028, "lon": -53.2563556}, "nodes": [9641874316, 9641930117, 9641930118, 9641930119, 9641930120, 9641874316], "tags": {"amenity": "hospital", "healthcare": "hospital", "name": "Hospital Municipal"}}, {"type": "way", "id": 1070819433, "center": {"lat": -15.5788698, "lon": -56.1109381}, "nodes": [1780006094, 1780006076, 9826786878, 9826786868, 9826786867, 9826786875, 9826786866, 9826786865, 9826786864, 1780006094], "tags": {"amenity": "hospital", "emergency": "yes", "healthcare": "hospital", "name": "Hospital Santa Rosa", "website": "http://www.hospitalsantarosa.com.br/"}}, {"type": "way", "id": 1073404786, "center": {"lat": -15.6203718, "lon": -56.0671172}, "nodes": [9846894257, 9846894258, 9846894259, 9846894260, 9846894257], "tags": {"addr:city": "Cuiab\u00e1", "amenity": "hospital", "building": "yes", "healthcare": "hospital", "name": "Unimed Cuiab\u00e1", "operator": "Unimed", "operator:type": "private", "operator:wikidata": "Q7865295"}}, {"type": "way", "id": 1074403511, "center": {"lat": -17.7991867, "lon": -50.9258432}, "nodes": [9854845003, 9854845002, 9854845001, 9854845000, 9854844999, 9854844998, 2582674082, 9854844997, 9854845003], "tags": {"addr:city": "Rio Verde", "addr:housenumber": "223", "addr:postcode": "75906-260", "addr:street": "Rua Agenor Diamantino", "amenity": "hospital", "emergency": "yes", "healthcare": "hospital", "name": "Hospital Santa Terezinha", "phone": "+55 64 3620 0600", "ref:CNES": "2340712", "ref:vatin": "BR02606267000152", "wheelchair": "limited"}}, {"type": "way", "id": 1082600037, "center": {"lat": -15.6050543, "lon": -56.1261591}, "nodes": [9921693430, 9921693431, 9921693432, 9921693433, 9921693434, 7609859151, 9921693430], "tags": {"amenity": "hospital", "healthcare": "hospital", "name": "Policl\u00ednica do Verd\u00e3o"}}, {"type": "way", "id": 1088286612, "center": {"lat": -18.5075433, "lon": -54.7508335}, "nodes": [9971022313, 7648361785, 9971022312, 9971022311, 9971022313], "tags": {"addr:postcode": "79400-000", "addr:street": "Avenida Gaspar Ries Coelho", "amenity": "hospital", "healthcare": "hospital", "name": "Hospital Regional \u00c1lvaro Fontoura", "opening_hours": "24/7"}}, {"type": "way", "id": 1088631381, "center": {"lat": -15.639113, "lon": -55.9803416}, "nodes": [9973539460, 9973539461, 9973539462, 1925844128, 1925844036, 9973539463, 9973539460], "tags": {"addr:city": "Cuiab\u00e1", "addr:street": "Rua Benedito Ant\u00f4nio", "alt_name": "UPA do Pascoal Ramos", "amenity": "hospital", "healthcare": "hospital", "name": "UPA Sul - Pascoal Ramos", "operator": "Sistema \u00danico de Sa\u00fade", "operator:short": "SUS", "operator:wikidata": "Q7531056"}}, {"type": "way", "id": 1090746763, "center": {"lat": -15.9072269, "lon": -52.2444445}, "nodes": [9990571247, 9990571248, 9990571249, 3296862967, 9990571251, 9990571247], "tags": {"addr:housenumber": "127", "addr:postcode": "76240-000", "addr:street": "Rua Jos\u00e9 Martins Costa", "addr:suburb": "Setor Ceara", "amenity": "hospital", "email": "smsaragarcas2019@hotmail.com", "fax": "+55 64 3638 1800", "healthcare": "hospital", "name": "Hospital Municipal Get\u00falio Vargas", "operator:ref:vatin": "BR02125227000199", "phone": "+55 64 3638 1800;+55 64 3638 1966", "ref:CNES": "2381990"}}, {"type": "way", "id": 1094312283, "center": {"lat": -15.060779, "lon": -57.1904916}, "nodes": [10022422041, 10022422042, 10022422043, 10022422044, 10022422045, 10022422046, 10022422047, 10022422048, 10022422049, 10022422050, 10022422051, 10022422052, 10022422041], "tags": {"amenity": "hospital", "healthcare": "hospital"}}, {"type": "way", "id": 1097596525, "center": {"lat": -15.5644121, "lon": -56.0693561}, "nodes": [10050024733, 10050024765, 7633419321, 10050024763, 10050024734, 10050024735, 10050024733], "tags": {"amenity": "hospital", "healthcare": "hospital", "name": "Centro Especializado de Reabilita\u00e7\u00e3o - CER III", "operator": "Sistema \u00danico de Sa\u00fade", "operator:short": "SUS", "operator:wikidata": "Q7531056", "short_name": "CRIDAC"}}, {"type": "way", "id": 1098387054, "center": {"lat": -15.5904568, "lon": -56.0872901}, "nodes": [10057113075, 10057113076, 10057113077, 10057113078, 10057113075], "tags": {"amenity": "hospital", "emergency": "yes", "healthcare": "hospital", "name": "Hospital Amecor"}}, {"type": "way", "id": 1100960704, "center": {"lat": -11.6206403, "lon": -50.6821697}, "nodes": [10076002531, 10076002532, 10076002533, 10076002534, 10076002531], "tags": {"amenity": "hospital", "healthcare": "hospital"}}, {"type": "way", "id": 1119589767, "center": {"lat": -11.4148147, "lon": -58.7524624}, "nodes": [10240099045, 10240099046, 10240099047, 10240099048, 10240099049, 10240099050, 10240099051, 10240099045], "tags": {"amenity": "hospital", "healthcare": "hospital", "name": "UPA"}}, {"type": "way", "id": 1154659657, "center": {"lat": -15.5834411, "lon": -56.0468347}, "nodes": [7836333289, 10738461631, 10738461674, 10738461632, 10738461673, 10738461633, 10738461634, 10738461635, 10738461636, 10738461637, 10738461638, 7836333289], "tags": {"addr:city": "Cuiab\u00e1", "amenity": "hospital", "healthcare": "hospital", "name": "Policl\u00ednica do Planalto"}}, {"type": "way", "id": 1159402352, "center": {"lat": -15.6039636, "lon": -56.1013583}, "nodes": [361987922, 10781842229, 1881120977, 10781842230, 361987837, 361987922], "tags": {"addr:city": "Cuiab\u00e1", "addr:housenumber": "2101", "addr:postcode": "78025-000", "addr:street": "Rua Treze de Junho", "addr:suburb": "Centro Norte", "amenity": "hospital", "emergency": "yes", "healthcare": "hospital", "healthcare:speciality": "cardiology;maternity", "name": "Hospital Geral", "operator": "Sociedade de Prote\u00e7\u00e3o a Maternidade e a Inf\u00e2ncia de Cuiab\u00e1", "operator:type": "private_non_profit", "phone": "+55 65 3363-7000", "ref:CNES": "7948034", "ref:vatin": "BR02594035000202", "wheelchair": "yes"}}, {"type": "way", "id": 1159791782, "center": {"lat": -15.6051306, "lon": -56.0846366}, "nodes": [10785762028, 10785762029, 10785762030, 10785762031, 10785762032, 10785762033, 10785762028], "tags": {"addr:city": "Cuiab\u00e1", "addr:housenumber": "564", "addr:postcode": "78015600", "addr:street": "Avenida Fernando Corr\u00eaa da Costa", "addr:suburb": "Po\u00e7\u00e3o", "amenity": "hospital", "building": "yes", "description": "Cl\u00ednica de Hemodi\u00e1lise", "healthcare": "hospital", "healthcare:speciality": "dialysis", "layer": "-1", "name": "CLINEMAT", "phone": "+55 65 3057-4242", "website": "https://www.clinemat.com/", "wheelchair": "yes"}}, {"type": "way", "id": 1168118780, "center": {"lat": -16.1991335, "lon": -55.9680713}, "nodes": [10863533112, 10863533113, 10863533114, 10863533115, 10863533116, 10863533112], "tags": {"addr:city": "Bar\u00e3o de Melga\u00e7o", "addr:housenumber": "00", "addr:postcode": "78190-000", "addr:street": "Rua Projetada", "addr:suburb": "Centro", "amenity": "hospital", "emergency": "yes", "healthcare": "hospital", "healthcare:speciality": "general;dentistry", "name": "PSF Dona Didi", "operator": "Prefeitura", "operator:type": "public"}}, {"type": "way", "id": 1185089112, "center": {"lat": -10.64754, "lon": -51.5708518}, "nodes": [11008091239, 11008091240, 11008091241, 11008091242, 11008091239], "tags": {"addr:street": "Rua C\u00e2milo Locheister", "addr:suburb": "Centro", "amenity": "hospital", "healthcare": "hospital", "name": "Laborat\u00f3rio Municipal de Confresa", "operator": "Municipio de Confresa"}}, {"type": "way", "id": 1202644302, "center": {"lat": -15.6033289, "lon": -56.0988937}, "nodes": [10781782066, 11149108810, 11149108809, 11149108808, 11149108807, 11149108806, 11149108805, 11149097904, 11149097903, 11149097902, 11149097886, 11149097900, 11149097901, 10781782066], "tags": {"addr:city": "Cuiab\u00e1", "addr:housenumber": "1070", "addr:postcode": "78020450", "addr:street": "Avenida Tenente Coronel Duarte", "addr:suburb": "Centro Sul", "alt_name": "Auditoria Geral do SUS", "amenity": "hospital", "building": "yes", "description": "Complexo Regulador da Secretaria Municipal de Sa\u00fade de Cuiab\u00e1", "healthcare": "hospital", "name": "Central de Regula\u00e7\u00e3o - SMS/Cuiab\u00e1", "short_name": "CER SUS", "wheelchair": "yes"}}, {"type": "way", "id": 1214623970, "center": {"lat": -11.4268747, "lon": -58.7648133}, "nodes": [11253632589, 11253632590, 11253632591, 11253632592, 11253632589], "tags": {"amenity": "hospital", "healthcare": "hospital", "name": "Hospital Regional de Ju\u00edna"}}, {"type": "way", "id": 1214623971, "center": {"lat": -11.4244022, "lon": -58.7605294}, "nodes": [11253632594, 11253632595, 11253632596, 11253632597, 11253632594], "tags": {"amenity": "hospital", "healthcare": "hospital"}}, {"type": "relation", "id": 7791935, "center": {"lat": -16.0821914, "lon": -57.6776562}, "members": [{"type": "way", "ref": 545398388, "role": "outer"}, {"type": "way", "ref": 545398387, "role": "outer"}], "tags": {"amenity": "hospital", "name": "Hospital Regional", "type": "multipolygon"}}, {"type": "relation", "id": 9459634, "center": {"lat": -14.7825777, "lon": -57.2909694}, "members": [{"type": "way", "ref": 681702039, "role": "outer"}, {"type": "way", "ref": 681702040, "role": "outer"}], "tags": {"addr:city": "Nova Ol\u00edmpia", "addr:housename": "Hospital Municipal de Nova Ol\u00edmpia", "addr:postcode": "78.370-000", "addr:street": "Rua Amazonas", "amenity": "hospital", "emergency": "yes", "name": "Hospital Municipal de Nova Ol\u00edmpia", "type": "multipolygon"}}]}