{"version": 0.6, "generator": "Overpass API 0.7.61.5 4133829e", "osm3s": {"timestamp_osm_base": "2023-10-31T20:49:30Z", "copyright": "The data included in this document is from www.openstreetmap.org. The data is made available under ODbL."}, "elements": [{"type": "node", "id": 1151208402, "lat": -15.3974734, "lon": 28.2990218, "tags": {"amenity": "hospital", "check_date": "2023-05-04", "emergency": "yes", "healthcare:speciality": "general", "name": "Coptic Hospital", "operator:type": "private"}}, {"type": "node", "id": 2029216038, "lat": -17.768117, "lon": 29.692798, "tags": {"amenity": "hospital", "name": "St. Rupert Mayer Mission Hospital"}}, {"type": "node", "id": 2473611357, "lat": -15.4076787, "lon": 28.6914815, "tags": {"amenity": "hospital", "designation": "Clinic", "emergency": "no", "name": "Kabeleka Clinic", "source": "K"}}, {"type": "node", "id": 3672009050, "lat": -11.6563109, "lon": 27.540499, "tags": {"amenity": "hospital", "name": "Centre M\u00e9dical des Anges"}}, {"type": "node", "id": 3672009055, "lat": -11.6488022, "lon": 27.5374926, "tags": {"amenity": "hospital", "name": "Centre de sant\u00e9 Sifa M\u00e9dical"}}, {"type": "node", "id": 4195191381, "lat": -12.9910772, "lon": 28.6543767, "tags": {"amenity": "hospital", "name": "Military Hospital"}}, {"type": "node", "id": 4246713996, "lat": -17.7702525, "lon": 27.3710832, "tags": {"amenity": "hospital"}}, {"type": "node", "id": 4321190792, "lat": -19.4313048, "lon": 29.7926617, "tags": {"amenity": "hospital", "name": "Isolation Hospital"}}, {"type": "node", "id": 4738115280, "lat": -16.5927062, "lon": 26.8650269, "tags": {"amenity": "hospital"}}, {"type": "node", "id": 4738115281, "lat": -16.5931493, "lon": 26.8654706, "tags": {"amenity": "hospital"}}, {"type": "node", "id": 5087935933, "lat": -14.44848, "lon": 28.43888, "tags": {"addr:street": "D421", "amenity": "hospital", "name": "Kabwe Mine Hospital", "name:en": "Kabwe Mine Hospital", "opening_hours": "24/7"}}, {"type": "node", "id": 5228474756, "lat": -16.42935, "lon": 27.54573, "tags": {"addr:city": "Chikuni", "amenity": "hospital", "description": "The hospital has in-patient and out-patient capacities, and works with HBC to supports HIV/AIDS patients in in the villages. Medical students from the University of Zambia come for community experience as do student nurses from Livingstone Nursing School.", "email": "homebasedcare.chikuni@gmail.com", "healthcare": "hospital", "healthcare:speciality": "general;ART;laboratory;radiology;pharmacy;psychiatry", "name": "Chikuni Mission Hospital", "operator": "Sisters of Charity", "phone": "+260 213 250 589", "website": "http://www.hbc-chikuni.com/"}}, {"type": "node", "id": 5245373024, "lat": -17.0306697, "lon": 26.4775611, "tags": {"addr:street": "Livingstone Road", "amenity": "hospital", "name": "Kalomo District Hospital"}}, {"type": "node", "id": 5313526026, "lat": -19.985725, "lon": 23.4626255, "tags": {"amenity": "hospital", "healthcare": "hospital", "name": "Letsholathebe II Memorial Hospital"}}, {"type": "node", "id": 5568533203, "lat": -14.7806556, "lon": 28.0623114, "tags": {"amenity": "hospital", "name": "Liteta"}}, {"type": "node", "id": 7218574794, "lat": -18.9495844, "lon": 27.7618736, "tags": {"amenity": "hospital", "healthcare": "hospital"}}, {"type": "node", "id": 7509151485, "lat": -14.9764277, "lon": 27.0533359, "tags": {"amenity": "hospital", "check_date": "2023-05-08", "emergency": "yes", "healthcare:speciality": "general", "name": "Mumbwa General Hospital", "operator:type": "public"}}, {"type": "node", "id": 7557045997, "lat": -15.4285057, "lon": 28.2896854, "tags": {"addr:city": "Lusaka", "addr:postcode": "10101", "amenity": "hospital", "check_date": "2023-06-19", "emergency": "yes", "healthcare": "hospital", "healthcare:speciality": "general", "name": "Kamwala Clinic", "operator:type": "public"}}, {"type": "node", "id": 7557175178, "lat": -15.3728179, "lon": 28.264428, "tags": {"addr:city": "Lusaka", "addr:postcode": "10101", "amenity": "hospital", "emergency": "no", "healthcare": "hospital", "name": "Matero Level 1 Hospital", "operator": "Government", "operator:type": "public"}}, {"type": "node", "id": 7557175179, "lat": -15.3729817, "lon": 28.2650905, "tags": {"addr:city": "Lusaka", "addr:postcode": "10101", "amenity": "hospital", "healthcare": "hospital", "name": "Chingwele Clinic", "operator": "Government", "operator:type": "public"}}, {"type": "node", "id": 7681574563, "lat": -10.6596661, "lon": 22.7466776, "tags": {"amenity": "hospital", "healthcare": "hospital", "name": "Katoka Hospital"}}, {"type": "node", "id": 7681577536, "lat": -10.6598612, "lon": 22.7461411, "tags": {"amenity": "hospital", "healthcare": "hospital", "name": "Katoka Maternity"}}, {"type": "node", "id": 8679071117, "lat": -19.9868261, "lon": 23.4246118, "tags": {"addr:street": "Pulane Rd", "amenity": "hospital", "name": "Doctors Inn"}}, {"type": "node", "id": 9250969618, "lat": -19.9673382, "lon": 23.4491494, "tags": {"amenity": "hospital", "name": "Maun Private Hospital"}}, {"type": "node", "id": 9295591890, "lat": -13.4809782, "lon": 25.8549136, "tags": {"amenity": "hospital", "healthcare": "hospital", "name": "Mukinge Mission Hospital"}}, {"type": "node", "id": 9477209020, "lat": -15.4530872, "lon": 28.3519949, "tags": {"amenity": "hospital", "healthcare": "hospital", "name": "South Point Hospital"}}, {"type": "node", "id": 9649216256, "lat": -15.3718727, "lon": 28.4235067, "tags": {"amenity": "hospital", "healthcare": "hospital"}}, {"type": "node", "id": 9687486117, "lat": -14.0851067, "lon": 27.2518485, "tags": {"amenity": "hospital", "name": "Ngabwe"}}, {"type": "node", "id": 9761513430, "lat": -10.5173249, "lon": 27.5497003, "tags": {"amenity": "hospital", "healthcare": "hospital", "name": "CSR ST LUC LUKAFU"}}, {"type": "node", "id": 9771291443, "lat": -15.1260675, "lon": 27.362705, "tags": {"amenity": "hospital", "healthcare": "hospital", "name": "Nangoma Mission Hospital"}}, {"type": "node", "id": 9915380618, "lat": -11.6163824, "lon": 27.4779846, "tags": {"amenity": "hospital", "name": "Centre M\u00e9dical SAINT-ESPRIT"}}, {"type": "node", "id": 9935470118, "lat": -16.6719718, "lon": 29.7786681, "tags": {"amenity": "hospital", "name": "Mwami Rural Hospital"}}, {"type": "node", "id": 9937699718, "lat": -16.8152015, "lon": 29.6875543, "tags": {"amenity": "hospital", "name": "Karoi District Hospital", "name:en": "Karoi (Hurungwe) District Hospital"}}, {"type": "node", "id": 9942736129, "lat": -18.555758, "lon": 28.5159218, "tags": {"amenity": "hospital", "name": "Kana Mission Hospital"}}, {"type": "node", "id": 9969412912, "lat": -15.178048, "lon": 28.146475, "tags": {"addr:constituency": "Katuba", "addr:district": "Chibombo", "addr:ward": "Cholokelo", "amenity": "hospital", "name": "Namununga Health Post", "operator": "public"}}, {"type": "node", "id": 9969420364, "lat": -15.270352, "lon": 28.264612, "tags": {"addr:constituency": "Katuba", "addr:district": "Chibombo", "addr:ward": "Mungule", "amenity": "hospital", "name": "Mist Medical Centre", "operator": "private"}}, {"type": "node", "id": 9969420370, "lat": -14.438363, "lon": 28.456979, "tags": {"addr:constituency": "Kabwe Central", "addr:district": "Kabwe", "addr:ward": "Luangwa", "amenity": "hospital", "name": "Mela Medical Centre", "operator": "private"}}, {"type": "node", "id": 9969420388, "lat": -14.43501, "lon": 28.429398, "tags": {"addr:constituency": "Kabwe Central", "addr:district": "Kabwe", "addr:ward": "Luangwa", "amenity": "hospital", "name": "Kabwe General Hospital", "operator": "public"}}, {"type": "node", "id": 9969420427, "lat": -13.61839, "lon": 29.386771, "tags": {"addr:constituency": "Mkushi North", "addr:district": "Mkushi", "addr:ward": "Chibefwe", "amenity": "hospital", "name": "Lesa Wesu Medical Centre", "operator": "private"}}, {"type": "node", "id": 9969420435, "lat": -15.007748, "lon": 27.195908, "tags": {"addr:constituency": "Nangoma", "addr:district": "Mumbwa", "addr:ward": "Nakasaka", "amenity": "hospital", "name": "Mulungushi 2nd Level Hospital", "operator": "public"}}, {"type": "node", "id": 9969420448, "lat": -14.44861, "lon": 28.43903, "tags": {"addr:constituency": "Kabwe Central", "addr:district": "Kabwe", "addr:ward": "Justine Kabwe", "amenity": "hospital", "name": "Mine Hospital 1B", "operator": "public"}}, {"type": "node", "id": 10199160617, "lat": -17.9553182, "lon": 29.307164, "tags": {"amenity": "hospital", "name": "Sanyati Baptist Mission Hospital"}}, {"type": "node", "id": 10846696083, "lat": -19.4583361, "lon": 29.8126958, "tags": {"addr:housenumber": "74 Ninth Street", "addr:street": "9th Street", "amenity": "hospital", "check_date": "2023-04-27", "email": "admin@gsch.co.zw", "emergency": "yes", "healthcare": "hospital", "healthcare:speciality": "paediatrics;orthopaedics;vaccination;emergency", "name": "Gweru Specialist Children\u2019s Hospital", "opening_hours": "24/7", "operator:type": "public", "phone": "+263 54 2229751; +263 54 2229650", "source": "local knowledge", "website": "https://gsch.co.zw"}}, {"type": "node", "id": 10871772822, "lat": -15.8845949, "lon": 27.7717392, "tags": {"amenity": "hospital", "check_date": "2023-05-05", "emergency": "yes", "healthcare": "hospital", "healthcare:speciality": "general", "name": "Victoria Hospital", "operator:type": "private"}}, {"type": "node", "id": 10892730891, "lat": -19.4586443, "lon": 29.7684534, "tags": {"amenity": "hospital", "check_date": "2023-05-13", "emergency": "yes", "healthcare": "hospital", "healthcare:speciality": "general;gynaecology;paediatrics;surgery;emergency;covid19;maternity;fertility", "name": "Westside Healthcare Centre", "opening_hours": "24/7", "operator:type": "private", "phone": "+263 71 436 8504", "source": "survey;local knowledge", "wheelchair": "yes"}}, {"type": "node", "id": 11064251106, "lat": -16.8548698, "lon": 29.4106219, "tags": {"amenity": "hospital", "name": "Hurungwe Rural Hospital"}}, {"type": "node", "id": 11173900192, "lat": -17.0926237, "lon": 24.0091321, "tags": {"amenity": "hospital", "healthcare": "hospital", "name": "Nalukui"}}, {"type": "way", "id": 28555042, "center": {"lat": -17.8421392, "lon": 25.8541851}, "nodes": [313695168, 313695169, 313695170, 313695171, 313695172, 313695173, 313695174, 313695175, 313695168], "tags": {"amenity": "hospital", "name": "Livingstone General Hospital"}}, {"type": "way", "id": 52173208, "center": {"lat": -11.6600288, "lon": 27.4828999}, "nodes": [664608272, 664608273, 664608255, 664608277, 664608272], "tags": {"addr:street": "Avenue de N'Djamena", "amenity": "hospital", "name": "Clinique Universitaire"}}, {"type": "way", "id": 52348895, "center": {"lat": -11.6728066, "lon": 27.4879138}, "nodes": [665920381, 9926997046, 9926997047, 9926997045, 665920322, 9926997048, 9926997049, 9926997054, 9926997044, 9926997043, 665920078, 9926997050, 665920099, 9926997051, 9926997053, 9926997052, 665920381], "tags": {"amenity": "hospital", "healthcare": "hospital", "healthcare:speciality": "general", "name": "H\u00f4pital Jason Sendwe", "operator": "Etat", "operator:type": "government"}}, {"type": "way", "id": 52360312, "center": {"lat": -11.6729263, "lon": 27.4774884}, "nodes": [666022656, 666022435, 666022380, 666022585, 666022656], "tags": {"amenity": "hospital", "name": "Clinique G\u00e9camines"}}, {"type": "way", "id": 52433781, "center": {"lat": -11.6757579, "lon": 27.4655856}, "nodes": [666619833, 666619827, 666619778, 666619786, 666619791, 2733923589, 666619797, 2733923571, 2733923573, 666619803, 666619838, 2733923660, 2733923692, 666619833], "tags": {"amenity": "hospital", "name": "H\u00f4pital G\u00e9camines Sud", "wikidata": "Q3145162"}}, {"type": "way", "id": 84630490, "center": {"lat": -10.7158236, "lon": 25.4626393}, "nodes": [983141878, 983141879, 983141880, 983141881, 983141882, 983141878], "tags": {"amenity": "hospital", "area": "yes", "name": "Clinique G\u00e9camines"}}, {"type": "way", "id": 100964403, "center": {"lat": -12.7977907, "lon": 28.2102821}, "nodes": [1166317339, 1166317341, 1166317345, 1166317348, 1166317350, 1166317356, 2573193679, 1166317359, 1166317361, 1166317363, 1166317365, 1166317368, 1166317339], "tags": {"amenity": "hospital", "name": "Kitwe Central Hospital"}}, {"type": "way", "id": 100972778, "center": {"lat": -12.8278547, "lon": 28.2048095}, "nodes": [1166372789, 1166372790, 1166372792, 1166372793, 1166372789], "tags": {"amenity": "hospital", "name": "Sinozam Hospital"}}, {"type": "way", "id": 101211452, "center": {"lat": -15.420196, "lon": 28.3571047}, "nodes": [1168431244, 1168431213, 1168431212, 1168431241, 1168431214, 1168431228, 1168431240, 1168431239, 1168431244], "tags": {"addr:city": "LUSAKA", "addr:postcode": "10101", "addr:street": "Kabulonga Road", "amenity": "hospital", "check_date": "2023-05-23", "healthcare:speciality": "general", "name": "Hill Top Hospital", "operator:type": "private"}}, {"type": "way", "id": 112585552, "center": {"lat": -13.1292219, "lon": 28.4053661}, "nodes": [1279310167, 1279310050, 1279309896, 1279309786, 1279310305, 1279310167], "tags": {"amenity": "hospital"}}, {"type": "way", "id": 112785614, "center": {"lat": -15.4279654, "lon": 28.2612562}, "nodes": [1281240727, 1281241317, 1281240319, 1281240914, 1281240727], "tags": {"amenity": "hospital", "check_date": "2023-05-02", "emergency": "yes", "healthcare:speciality": "general", "name": "Kanyama Clinic", "operator:type": "public"}}, {"type": "way", "id": 168101436, "center": {"lat": -10.991834, "lon": 26.7408659}, "nodes": [1794082388, 1794082391, 1794082389, 1794082392, 4047152899, 1794082390, 1794082388], "tags": {"amenity": "hospital", "name": "Railroad Hospital"}}, {"type": "way", "id": 168105554, "center": {"lat": -11.0177521, "lon": 26.7312596}, "nodes": [1794121530, 1794121536, 1794121534, 1794121532, 1794121533, 1794121531, 1794121535, 1794121538, 1794121537, 1794121530], "tags": {"amenity": "hospital"}}, {"type": "way", "id": 168131374, "center": {"lat": -10.978663, "lon": 26.7314005}, "nodes": [1794352655, 1794352653, 1794352654, 1794352657, 3997891837, 1794352652, 1794352655], "tags": {"amenity": "hospital", "name": "Hopital G\u00e9n\u00e9ral Daco"}}, {"type": "way", "id": 242752721, "center": {"lat": -19.9866278, "lon": 23.4628443}, "nodes": [2502044772, 2502044805, 2502044808, 2502044815, 2502043747, 2502043268, 2502042910, 2502042912, 2502042978, 2502044772], "tags": {"amenity": "hospital", "name": "Letsholathebe II Memorial Hospital"}}, {"type": "way", "id": 244026490, "center": {"lat": -17.4984747, "lon": 24.2792361}, "nodes": [1029250399, 2513815663, 2513815666, 2513815665, 2513815664, 1029250399], "tags": {"addr:city": "Katima Mulilo", "amenity": "hospital", "emergency": "yes", "healthcare": "hospital", "is_in:country": "Namibia", "name": "Katima Mulilo State Hospital"}}, {"type": "way", "id": 244026493, "center": {"lat": -17.5008548, "lon": 24.2807429}, "nodes": [2513815672, 2513815671, 2513815680, 2513815678, 2513815673, 2513815672], "tags": {"addr:city": "Katima Mulilo", "addr:country": "NA", "amenity": "hospital", "healthcare": "hospital", "name": "Katima Mulilo Clinic"}}, {"type": "way", "id": 249014165, "center": {"lat": -15.2655399, "lon": 23.1379312}, "nodes": [2557105933, 2557105953, 2557105940, 2557105938, 2557105933], "tags": {"addr:city": "Mongu", "amenity": "hospital", "healthcare": "hospital", "name": "Lewanika General Hospital"}}, {"type": "way", "id": 251323375, "center": {"lat": -12.9709397, "lon": 28.6348913}, "nodes": [2577300176, 4469200177, 2575634270, 2575634263, 2575634261, 2575634252, 2575634238, 2575634271, 3729447983, 4484681549, 2575634232, 2577300176], "tags": {"amenity": "hospital", "emergency": "yes", "healthcare": "hospital", "name": "Ndola Central Hospital"}}, {"type": "way", "id": 251481825, "center": {"lat": -12.9485266, "lon": 28.6475808}, "nodes": [2576977408, 2576977411, 2576977319, 2576977352, 2576977331, 2576977336, 2576977397, 2576977408], "tags": {"amenity": "hospital", "healthcare": "hospital", "name": "Arthur Davidson Hospital"}}, {"type": "way", "id": 267355834, "center": {"lat": -11.7244269, "lon": 27.4993446}, "nodes": [2833621396, 2728245407, 2728245418, 2728245422, 2833621396], "tags": {"amenity": "hospital", "building": "hospital", "healthcare": "hospital", "name": "Centre de Sante Wote Pamoja"}}, {"type": "way", "id": 267731418, "center": {"lat": -11.6613676, "lon": 27.4919684}, "nodes": [3657731171, 2731457913, 2731457931, 2731458031, 2731457895, 2731458079, 2731458100, 2731458060, 3657731171], "tags": {"amenity": "hospital", "building": "hospital", "healthcare": "hospital", "name": "Hopital SNCC", "operator": "SNCC", "source": "Bing"}}, {"type": "way", "id": 272736517, "center": {"lat": -19.9491064, "lon": 27.3284844}, "nodes": [2776661464, 2776661466, 2776661468, 2776661470, 2776661471, 2776661473, 2776661475, 2776661464], "tags": {"amenity": "hospital", "name": "Ndolwane"}}, {"type": "way", "id": 272739316, "center": {"lat": -20.0003356, "lon": 27.5879485}, "nodes": [2776672663, 2776672664, 2776672665, 2776672667, 2776672666, 2776672663], "tags": {"amenity": "hospital", "name": "Rural Health Care Centre"}}, {"type": "way", "id": 279705003, "center": {"lat": -19.7726773, "lon": 27.7553967}, "nodes": [2839095763, 2839095764, 2839095765, 2839095766, 2839095767, 2839095768, 2839095769, 2839095770, 4363574445, 2839095763], "tags": {"amenity": "hospital", "name": "Tsholotsho District Hospital"}}, {"type": "way", "id": 280434982, "center": {"lat": -19.6850379, "lon": 28.8567012}, "nodes": [2845502388, 2845502389, 2845502390, 2845502391, 2845502388], "tags": {"amenity": "hospital", "name": "Inyathi District Hospital"}}, {"type": "way", "id": 284404216, "center": {"lat": -18.9360253, "lon": 29.8245469}, "nodes": [2881519837, 2881519838, 2881519839, 2881519840, 2881519841, 2881519842, 2881519843, 2881519844, 2881519845, 2881519837], "tags": {"amenity": "hospital"}}, {"type": "way", "id": 310066701, "center": {"lat": -18.1537337, "lon": 24.5042427}, "nodes": [3154122717, 3154122718, 4605480589, 4605480590, 4605480461, 4605480458, 4605480488, 4605480487, 3154122717], "tags": {"amenity": "hospital", "barrier": "wall", "emergency": "no", "name": "Kachikau Clinic"}}, {"type": "way", "id": 313489785, "center": {"lat": -17.4794489, "lon": 24.2927583}, "nodes": [3194823735, 3194823741, 3194823740, 3194823743, 3194823744, 3194823749, 3194823748, 3194823739, 3194823738, 3194823746, 3194823745, 3194823742, 3194823737, 3194823732, 3194823733, 9333953375, 3194823730, 3194823728, 3194823729, 3194823725, 3194823724, 3194823719, 3194823720, 3194823717, 3194823715, 3194823713, 3194823714, 3194823718, 3194823716, 3194823721, 3194823722, 3194823727, 3194823726, 3194823734, 3194823735], "tags": {"amenity": "hospital", "building": "hospital", "name": "Yeta Hospital"}}, {"type": "way", "id": 318853506, "center": {"lat": -11.1767058, "lon": 24.188508}, "nodes": [3252462754, 3252462755, 3252462756, 3252462757, 3252462754], "tags": {"amenity": "hospital", "name": "Kalene Mission Hospital"}}, {"type": "way", "id": 327872771, "center": {"lat": -18.3612058, "lon": 21.8462987}, "nodes": [3346821801, 3346821802, 3346821803, 3346821804, 3346821805, 3346821806, 3346821801], "tags": {"amenity": "hospital", "building": "yes", "name": "Shakawe Clinic"}}, {"type": "way", "id": 327976246, "center": {"lat": -10.7181014, "lon": 28.6712184}, "nodes": [3347935624, 3347935625, 3347935626, 3347935627, 3347935624], "tags": {"amenity": "hospital", "name": "Chibondo Rural Health Center"}}, {"type": "way", "id": 344759188, "center": {"lat": -16.0027552, "lon": 27.6070682}, "nodes": [3515009901, 3515009902, 3515009903, 3515009904, 3515009901], "tags": {"amenity": "hospital", "name": "Magoye Clinic"}}, {"type": "way", "id": 355040411, "center": {"lat": -17.1310308, "lon": 28.3639255}, "nodes": [3606691570, 3606691571, 3606691572, 3606691573, 3606691574, 3606691570], "tags": {"amenity": "hospital", "name": "Siakobvu District Hospital"}}, {"type": "way", "id": 363738158, "center": {"lat": -17.5164621, "lon": 24.8164586}, "nodes": [3678756093, 3678756355, 3678756556, 3678756549, 3679188951, 3678756438, 3678756324, 3679188813, 3679188790, 6412458710, 3678756161, 3678756111, 3679188618, 2051090978, 2606514465, 3678756093], "tags": {"amenity": "hospital", "healthcare": "hospital", "name": "Mwandi Mission Hospital", "source": "bing"}}, {"type": "way", "id": 364572617, "center": {"lat": -11.6621582, "lon": 27.418645}, "nodes": [3686093060, 3686093070, 3686093071, 3686093069, 3686093067, 3686093066, 3686093064, 3686093060], "tags": {"amenity": "hospital", "name": "Maternit\u00e9 Karavia"}}, {"type": "way", "id": 375364590, "center": {"lat": -11.6487919, "lon": 27.5374608}, "nodes": [3787365057, 3787365058, 3787365059, 3787365060, 3787365057], "tags": {"amenity": "hospital"}}, {"type": "way", "id": 380765753, "center": {"lat": -11.7081179, "lon": 27.4656412}, "nodes": [2850959640, 3840752444, 3840752445, 3840752446, 2850959640], "tags": {"amenity": "hospital", "building": "yes", "fixme": "location approximate", "healthcare": "yes", "name": "Centre de Sant\u00e9 Wokouu", "type": "maternity"}}, {"type": "way", "id": 396967267, "center": {"lat": -10.9778206, "lon": 26.7306027}, "nodes": [3998002501, 3998002502, 3998002503, 3998002504, 3998002501], "tags": {"amenity": "hospital"}}, {"type": "way", "id": 396976770, "center": {"lat": -10.9776784, "lon": 26.7306416}, "nodes": [3998087738, 3998087739, 3998087740, 3998087741, 3998087738], "tags": {"amenity": "hospital"}}, {"type": "way", "id": 400003875, "center": {"lat": -15.4330861, "lon": 28.3137344}, "nodes": [4026421936, 4026421937, 4026421938, 4026421939, 4026421936], "tags": {"amenity": "hospital", "name": "wards"}}, {"type": "way", "id": 400261807, "center": {"lat": -19.4614752, "lon": 29.8291683}, "nodes": [929017919, 4028520900, 4028520803, 4028520820, 4028520152, 4028520810, 929017919], "tags": {"amenity": "hospital", "check_date": "2023-04-27", "emergency": "yes", "healthcare:speciality": "general;chiropractic;paediatrics;ophthalmology;biology;gynaecology;psychiatry;dentist;internal;orthopaedics;dermatology;orthodontics;vaccination;osteopathy;otolaryngology;radiology;surgery;cardiology;dentistry;physiotherapy;neurology;emergency;covid19", "internet_access": "yes", "internet_access:fee": "customers", "name": "Gweru General Hospital", "opening_hours": "24/7", "operator:type": "public", "phone": "+263 54 221301", "source": "local knowledge;gps;osm notes", "wheelchair": "yes"}}, {"type": "way", "id": 402010329, "center": {"lat": -19.4962975, "lon": 29.8383395}, "nodes": [4044350289, 4048570181, 4044350290, 4044350291, 4044350292, 4048570175, 4044350289], "tags": {"amenity": "hospital", "check_date": "2023-04-27", "emergency": "yes", "healthcare:speciality": "general;maternity;fertility;covid19;emergency;vaccination;orthopaedics;gynaecology;paediatrics", "name": "Senga Poly Clinic", "operator:type": "public", "source": "local knowledge", "wheelchair": "yes"}}, {"type": "way", "id": 430053083, "center": {"lat": -12.156821, "lon": 26.42047}, "nodes": [4293166411, 4293166412, 5323366938, 5323366937, 4293166413, 4293166414, 5323366931, 4293166415, 4293166416, 4293166417, 4293166411], "tags": {"amenity": "hospital"}}, {"type": "way", "id": 430314004, "center": {"lat": -17.318563, "lon": 26.2038382}, "nodes": [4295918663, 4295918664, 4295918665, 4295918666, 4295918667, 4295918668, 4295918669, 4295918670, 4295918671, 4295918672, 4295918663], "tags": {"amenity": "hospital", "name": "Zimba Mission Hospital", "operator": "Weslyan Church"}}, {"type": "way", "id": 442818451, "center": {"lat": -19.4612215, "lon": 29.8099762}, "nodes": [4404707492, 4404707541, 4404707568, 4720996783, 4404707492], "tags": {"amenity": "hospital", "check_date": "2023-04-27", "emergency": "yes", "healthcare:speciality": "general;maternity;gynaecology;dentist;physiotherapy;surgery;dentistry", "name": "Midlands Private Hospital", "opening_hours": "24/7", "operator:type": "private", "phone": "051228706", "source": "local knowledge", "website": "https://www.themph.co.zw", "wheelchair": "yes"}}, {"type": "way", "id": 444374397, "center": {"lat": -10.7115284, "lon": 25.4970735}, "nodes": [4418588613, 4418588614, 4418588615, 4418588616, 4418588617, 4418588618, 4418588619, 4418588620, 4418588621, 4418588622, 4418588623, 4418588624, 4418588613], "tags": {"addr:city": "Kolwezi", "addr:street": "Avenue Sakania", "amenity": "hospital", "name": "Dispensaire G\u00e9camines", "operator": "G\u00e9camines"}}, {"type": "way", "id": 444963063, "center": {"lat": -18.3587452, "lon": 26.5021668}, "nodes": [4424206264, 4424206265, 4424206257, 4424206244, 4424206233, 4424206215, 4424206208, 4424206200, 4424205880, 4424205864, 4424205848, 4424205849, 4424205876, 4424205881, 4424206240, 4424206246, 4424206247, 4424206250, 4424206264], "tags": {"amenity": "hospital", "name": "Hwange Colliery Hospital", "name:en": "Hwange Colliery Hospital"}}, {"type": "way", "id": 445168460, "center": {"lat": -17.943491, "lon": 25.8244519}, "nodes": [4426406713, 4426349048, 4426406664, 4426349034, 4426406653, 5380643204, 4426406595, 4426406594, 4426348952, 4426406538, 4426406597, 4426406612, 4426406615, 4426349030, 4426406636, 4426406709, 4426406713], "tags": {"amenity": "hospital", "barrier": "wall", "healthcare": "hospital", "name": "Victoria Falls Hospital"}}, {"type": "way", "id": 454588626, "center": {"lat": -12.9776382, "lon": 28.6395986}, "nodes": [3729447984, 4511347380, 4511347377, 4511347376, 4511347372, 4511347371, 4511347370, 4511347374, 4511347381, 4511347382, 4511347379, 4511347378, 3729447984], "tags": {"addr:city": "Ndola", "addr:postcode": "10101", "addr:street": "Independence Avenue", "amenity": "hospital", "building": "hospital", "emergency": "yes", "healthcare": "hospital", "name": "Hilltop"}}, {"type": "way", "id": 466147784, "center": {"lat": -19.0017411, "lon": 28.8908669}, "nodes": [2022865172, 4610177101, 4610177100, 4610177099, 4610176901, 2022865170, 2022865172], "tags": {"amenity": "hospital"}}, {"type": "way", "id": 474310871, "center": {"lat": -10.708899, "lon": 25.4944051}, "nodes": [4682974721, 4682974722, 4682974723, 4682974724, 4682974725, 4682974726, 4682974727, 4682974728, 4682974729, 4682974730, 4682974721], "tags": {"amenity": "hospital", "name": "Mulolo Medical Center"}}, {"type": "way", "id": 474311407, "center": {"lat": -10.709102, "lon": 25.4943535}, "nodes": [4682980541, 4682980542, 4682980543, 4682980544, 4682980545, 4682980546, 4682980547, 4682980548, 4682980541], "tags": {"amenity": "hospital", "name": "Mulolo Medical Center"}}, {"type": "way", "id": 477912253, "center": {"lat": -15.3835758, "lon": 28.2418749}, "nodes": [4712012115, 4712012117, 4712012118, 4712012116, 4712012115], "tags": {"addr:street": "Petroda", "amenity": "hospital", "building": "hospital", "building:levels": "2", "building:material": "cement_block", "check_date": "2023-06-29", "description": "Family Planning,HIV testing(Diagnostic testing services (DST). Nutrition corner and Antenatal clinic and under 5 clinic", "name": "Hope Center Kansas City"}}, {"type": "way", "id": 478122035, "center": {"lat": -15.3792118, "lon": 28.2385677}, "nodes": [4713802462, 4713802523, 4713802537, 4713802486, 4713802456, 4713802462], "tags": {"amenity": "hospital", "check_date": "2023-06-29", "emergency": "yes", "healthcare:speciality": "general", "operator:type": "public"}}, {"type": "way", "id": 478914481, "center": {"lat": -19.462711, "lon": 29.833303}, "nodes": [4720975346, 4720975347, 4720975348, 9279679403, 9279679402, 9279679404, 4720975349, 4720975346], "tags": {"amenity": "hospital", "check_date": "2023-04-27", "emergency": "yes", "healthcare:speciality": "paediatrics;gynaecology;ophthalmology;biology;dentist;internal;orthopaedics;dermatology;vaccination;cardiology;surgery;dentistry;physiotherapy;neurology;emergency;covid19;maternity;gastroenterology;physiatry;child_psychiatry", "name": "Clay Bank Private Hospital", "operator:type": "private", "phone": "+263 54 2224954", "wheelchair": "yes"}}, {"type": "way", "id": 482083715, "center": {"lat": -16.9672921, "lon": 27.2327901}, "nodes": [4692796632, 4749605899, 4749605898, 4749605897, 4692796632], "tags": {"addr:city": "Choma", "amenity": "hospital", "building": "hospital", "healthcare": "hospital", "name": "Sikalongo Rural Health Center"}}, {"type": "way", "id": 486631594, "center": {"lat": -17.6386293, "lon": 27.3276221}, "nodes": [4792160818, 4792160817, 4792160816, 4792160815, 4792160814, 939313965, 4792160813, 4792160812, 4792161044, 4792160811, 4792161047, 4792161046, 4792161045, 4792160818], "tags": {"amenity": "hospital", "is_in": "Binga, Binga District, Matabeleland North, Zimbabwe", "name": "Binga District Hospital"}}, {"type": "way", "id": 488414023, "center": {"lat": -12.833849, "lon": 28.1005266}, "nodes": [4807188425, 4807188426, 4807188427, 4807188428, 4807188429, 4807188430, 4807188431, 4807188432, 4807188425], "tags": {"amenity": "hospital", "barrier": "wall", "dispensing": "yes", "electricity": "grid", "emergency": "yes", "health_amenity:type": "emergency_department;x_ray", "healthcare": "clinic;hospital;laboratory", "healthcare:speciality": "blood_check;emergency;general", "insurance:health": "public", "name": "Kalulushi Hospital", "opening_hours": "Mo-Fr 00:00-23:55", "operator": "Government", "operator:type": "public"}}, {"type": "way", "id": 504612761, "center": {"lat": -17.7230334, "lon": 29.0098219}, "nodes": [2026819884, 4947602897, 2026819883, 4947602896, 4946910821, 2026819884], "tags": {"amenity": "hospital", "name": "Gokwe North Hospital"}}, {"type": "way", "id": 505592987, "center": {"lat": -15.8640868, "lon": 27.7580576}, "nodes": [4954884911, 4954884912, 4954884913, 4954884914, 4954884911], "tags": {"addr:street": "Mulungushi Road", "amenity": "hospital", "name": "District Health Office of Mazabuka"}}, {"type": "way", "id": 511290015, "center": {"lat": -15.940393, "lon": 27.5461559}, "nodes": [5001665031, 5001665032, 5001665033, 5001665034, 5001665031], "tags": {"amenity": "hospital", "name": "zambia sugar"}}, {"type": "way", "id": 512829555, "center": {"lat": -15.850803, "lon": 27.7506738}, "nodes": [5013908526, 5013908527, 5013908528, 5013908529, 5013908530, 5013697771, 5013908526], "tags": {"amenity": "hospital", "name": "Ndeke Clinic"}}, {"type": "way", "id": 521594274, "center": {"lat": -12.2221605, "lon": 25.4119403}, "nodes": [5082009460, 4881205980, 4881205979, 4881205978, 4881205977, 4881205976, 4755892736, 5082009461, 5082009460], "tags": {"amenity": "hospital", "name": "Marybegg Clinic"}}, {"type": "way", "id": 523352524, "center": {"lat": -16.391469, "lon": 26.7912699}, "nodes": [5095317033, 5095317029, 4906284761, 5095311597, 5095316107, 5095311596, 5095316106, 5095317033], "tags": {"amenity": "hospital", "name": "Macha Mission Hospital"}}, {"type": "way", "id": 532012372, "center": {"lat": -18.1478392, "lon": 28.6020751}, "nodes": [5163455348, 5163455347, 5163455346, 5163455345, 4933093225, 5163455348], "tags": {"amenity": "hospital", "name": "Manyoni Baptist Clinic", "name:en": "Manyoni Baptist Clinic"}}, {"type": "way", "id": 538200944, "center": {"lat": -15.4230106, "lon": 28.3208683}, "nodes": [5209936846, 5209949836, 5209949835, 5209949834, 5209949833, 5209949832, 5209949831, 5209936846], "tags": {"addr:city": "Lusaka", "addr:country": "ZM", "addr:housenumber": "22", "addr:postcode": "10101", "addr:street": "Dunduza Chisizda Cresent", "addr:suburb": "Longacres", "amenity": "hospital", "check_date": "2023-05-04", "emergency": "no", "name": "Zambian - Italian Orthopaedic Hospital", "operator:type": "private", "phone": "+260 97 7400600"}}, {"type": "way", "id": 551209847, "center": {"lat": -12.1567514, "lon": 26.4202076}, "nodes": [5323366947, 5323366946, 5323366945, 5323366944, 5323366943, 5323366942, 5323366941, 5323366940, 5323366947], "tags": {"amenity": "hospital", "building": "yes", "name": "Mary Begg Kansanshi Mine Hospital"}}, {"type": "way", "id": 556215933, "center": {"lat": -10.3923031, "lon": 28.7092753}, "nodes": [5365531585, 5365531592, 5365531587, 5365531588, 5365531589, 5365531590, 5365531591, 5365531585], "tags": {"amenity": "hospital", "healthcare": "hospital", "name": "Mwense Stage 2 Health Centre"}}, {"type": "way", "id": 575186819, "center": {"lat": -16.5380671, "lon": 28.7094465}, "nodes": [5519802421, 5519802425, 5519802424, 5519802423, 5519802422, 5519802408, 5519802409, 5519802410, 5519802411, 5519802412, 5519802413, 5519802414, 5519802415, 5519802416, 5519802417, 5519802418, 5519802419, 5519802420, 5519802421], "tags": {"amenity": "hospital", "building": "hospital", "name": "Siavonga Hospital"}}, {"type": "way", "id": 579752403, "center": {"lat": -19.3713367, "lon": 22.1693574}, "nodes": [5551683134, 5551683133, 5551683132, 5551683131, 5551683130, 5551683129, 5551683134], "tags": {"addr:city": "Gumare", "amenity": "hospital", "name": "Gumare Primary Hospital", "name:en": "Gumare Primary Hospital"}}, {"type": "way", "id": 586246653, "center": {"lat": -17.8012553, "lon": 25.1497483}, "nodes": [5601674763, 5601674762, 5601674761, 5601674760, 5601674759, 5601674758, 6148062794, 9749385060, 2524619836, 5601674756, 5601674755, 5601674754, 5601674753, 5601674751, 5601674749, 5601674748, 5601674747, 5601674763], "tags": {"addr:city": "Kasane", "addr:street": "President Avenue", "amenity": "hospital", "healthcare": "hospital", "name": "Kasane Primary Hospital", "source": "NMP HOT Field Survey"}}, {"type": "way", "id": 589086514, "center": {"lat": -13.5952106, "lon": 24.204167}, "nodes": [5625459565, 5625459566, 5625459567, 5625459568, 5625459569, 5584677280, 5625459570, 5625459571, 5625459572, 5625459573, 5625459574, 5625459575, 5625459576, 5625459577, 5625459578, 5625459588, 5625439962, 5625459579, 5625459966, 5625439964, 5625459565], "tags": {"amenity": "hospital", "healthcare": "hospital"}}, {"type": "way", "id": 609734560, "center": {"lat": -15.4490192, "lon": 28.3377505}, "nodes": [5775058772, 5775058773, 5775058774, 5775058775, 5775058776, 5775058777, 5775058778, 5775058779, 5775058772], "tags": {"amenity": "hospital", "healthcare": "hospital", "healthcare:speciality": "general", "name": "Chilenje Level 1 Hospital", "operator": "Ministry of Health"}}, {"type": "way", "id": 620572403, "center": {"lat": -13.6277578, "lon": 29.3935345}, "nodes": [5863047957, 5863047958, 5863047959, 5863047960, 5863047957], "tags": {"amenity": "hospital", "healthcare": "hospital", "name": "Tusekelemo Medical Centre", "operator": "Private"}}, {"type": "way", "id": 622811454, "center": {"lat": -18.6969783, "lon": 29.3851662}, "nodes": [5882245092, 5882245091, 5882245090, 5882245089, 5882245088, 5882245087, 5882245086, 5882245085, 5882245092], "tags": {"amenity": "hospital", "name": "Zhombe Mission Hospital", "note": "Roman Catholic Church Hospital & St Martin Dr Porres School."}}, {"type": "way", "id": 636904999, "center": {"lat": -13.4046918, "lon": 24.3283215}, "nodes": [6005273534, 6005273535, 6005273536, 6005273537, 6005273538, 6005273539, 6005273540, 6005273541, 6005273542, 6005273543, 4181223722, 6005273545, 6005273546, 6005273547, 6005273558, 6005273548, 6005273549, 6005273550, 6005273551, 6005273552, 6005273553, 6005273554, 6005273555, 6005273556, 6005273557, 6005273534], "tags": {"amenity": "hospital", "building": "hospital", "name": "Loloma Mission Hospital"}}, {"type": "way", "id": 677660086, "center": {"lat": -18.330156, "lon": 29.9130467}, "nodes": [6345142291, 6345142292, 6345142293, 6345142294, 6345142291], "tags": {"amenity": "hospital", "healthcare": "hospital", "healthcare:speciality": "general", "name": "Kadoma General Hospital"}}, {"type": "way", "id": 684384682, "center": {"lat": -16.6013082, "lon": 23.5032731}, "nodes": [6411844448, 6411844449, 6411844450, 6411844451, 6411844452, 6411844448], "tags": {"amenity": "hospital", "healthcare": "hospital", "name": "Sioma Mission Rural Health Clinic"}}, {"type": "way", "id": 684798838, "center": {"lat": -13.543113, "lon": 23.1105417}, "nodes": [2266258027, 6416338832, 6416338833, 6416338834, 6416338835, 6416338836, 6416338837, 6416338838, 6416338839, 6416338840, 6416338841, 6416338842, 6416338843, 6416338844, 6416338845, 6416338846, 6416338847, 6416338848, 6416338849, 6416338850, 6416338851, 6416338852, 6416338853, 6416338854, 6416338855, 6416338856, 6416338857, 6416338858, 6416338859, 6416338860, 6416338861, 6416338862, 6416338863, 6416338864, 2266258027], "tags": {"addr:city": "Zambezi", "amenity": "hospital", "building": "hospital", "healthcare": "hospital", "name": "Zambezi Hospital", "operator": "Gov of Zambia"}}, {"type": "way", "id": 689928767, "center": {"lat": -15.7385734, "lon": 26.0267799}, "nodes": [6472738276, 6472738277, 6472738278, 6472738279, 6472738276], "tags": {"amenity": "hospital", "healthcare": "hospital", "name": "ITT District Hospital"}}, {"type": "way", "id": 692870829, "center": {"lat": -12.1829744, "lon": 26.4210215}, "nodes": [6504897097, 6504969898, 6504897099, 6504897100, 6504897103, 6504897104, 6504897107, 6504897108, 6504969899, 6504896961, 6504896964, 6504896965, 6504896966, 6504896968, 6504930482, 6504969900, 6504896972, 6504897097], "tags": {"amenity": "hospital", "healthcare": "hospital", "name": "Solwezi General Hospital"}}, {"type": "way", "id": 701877497, "center": {"lat": -13.3593418, "lon": 23.0115571}, "nodes": [6591373941, 6591373942, 6591373943, 6591373944, 6591373945, 6591373946, 6591373947, 6591373948, 6591373949, 6591373950, 6591373951, 6591373952, 6591373953, 6591373941], "tags": {"abandoned": "yes", "amenity": "hospital", "healthcare": "hospital", "name": "Chinyingi Mission Hospital (abandoned)"}}, {"type": "way", "id": 734799077, "center": {"lat": -11.7608394, "lon": 27.246761}, "nodes": [6881541647, 6881541646, 6881541645, 6881541648, 6881541649, 6881541652, 6881541650, 6881541653, 6881541654, 6881541651, 6881541641, 6881541642, 6881541643, 6881541644, 6881541640, 6881541647], "tags": {"amenity": "hospital", "building": "yes"}}, {"type": "way", "id": 734799078, "center": {"lat": -11.7604893, "lon": 27.2466968}, "nodes": [6881541658, 6881541655, 6881541656, 6881541657, 6881541658], "tags": {"amenity": "hospital", "building": "yes"}}, {"type": "way", "id": 734799083, "center": {"lat": -11.759044, "lon": 27.2476186}, "nodes": [6881566032, 6881566031, 6881566030, 6881571861, 6881571863, 6881566029, 6881566032], "tags": {"amenity": "hospital", "barrier": "fence"}}, {"type": "way", "id": 773732219, "center": {"lat": -15.7514233, "lon": 26.4430334}, "nodes": [7222117458, 7222117459, 7222117460, 7222117461, 7222117462, 7222117463, 7222117464, 7222117465, 7222117466, 7222117458], "tags": {"amenity": "hospital", "healthcare": "hospital"}}, {"type": "way", "id": 783202004, "center": {"lat": -15.4295523, "lon": 28.3200667}, "nodes": [7314096532, 7314096533, 7314096534, 7314096535, 7314096532], "tags": {"addr:city": "Lusaka District", "addr:postcode": "10101", "addr:street": "Nsumbu Road", "amenity": "hospital", "dispensing": "yes", "electricity": "grid", "health_amenity:type": "laboratory", "healthcare": "doctor;hospital;laboratory", "name": "Lusaka Trust Hospital", "opening_hours": "24/7", "water_source": "manual_pump", "wheelchair": "yes"}}, {"type": "way", "id": 783202654, "center": {"lat": -15.397369, "lon": 28.2986846}, "nodes": [7314125660, 7314125661, 7314125662, 7314125663, 7314125664, 7314125665, 7314125666, 7314125667, 7314125668, 7314125660], "tags": {"amenity": "hospital", "check_date": "2023-05-04", "emergency": "yes", "healthcare": "hospital", "healthcare:speciality": "general", "name": "Coptic Hospital Grounds", "operator:type": "private"}}, {"type": "way", "id": 785521648, "center": {"lat": -17.9693517, "lon": 27.5355656}, "nodes": [11019910628, 11019910630, 7342461958, 7342461959, 11019910629, 11019910631, 2016374017, 11019910628], "tags": {"amenity": "hospital", "healthcare": "hospital", "name": "Kariyangwe Mission Hospital"}}, {"type": "way", "id": 785521950, "center": {"lat": -17.1484672, "lon": 29.1914946}, "nodes": [7342472006, 7342472007, 7342472008, 7342472009, 7342472010, 7342472011, 7342472006], "tags": {"amenity": "hospital", "healthcare": "hospital", "name": "Chidamoyo Hospital"}}, {"type": "way", "id": 785522042, "center": {"lat": -17.9258593, "lon": 25.8340229}, "nodes": [7342456670, 7342456671, 7342456672, 7342456673, 7342456674, 7342456670], "tags": {"amenity": "hospital", "emergency": "no", "healthcare": "hospital", "name": "The Health Bridge (private Hospital)"}}, {"type": "way", "id": 785534364, "center": {"lat": -17.5429768, "lon": 28.5986255}, "nodes": [7342493701, 4946910721, 7342493703, 7342493704, 7342493705, 7342493706, 7342493707, 7342493701], "tags": {"amenity": "hospital", "healthcare": "hospital", "name": "Chireya Mission Hospital"}}, {"type": "way", "id": 791398769, "center": {"lat": -15.8845766, "lon": 27.7717579}, "nodes": [6193433870, 7398428563, 7398428564, 7398428565, 6193433870], "tags": {"amenity": "hospital", "building": "hospital", "healthcare": "hospital", "name": "Victoria Hospital"}}, {"type": "way", "id": 791406751, "center": {"lat": -15.2038413, "lon": 28.2372968}, "nodes": [6027482505, 7398454256, 7398454257, 7398454258, 6027482505], "tags": {"amenity": "hospital", "building": "hospital", "healthcare": "hospital", "name": "Kayoshya Rural Health Centre", "operator": "Ministry of Health"}}, {"type": "way", "id": 791671201, "center": {"lat": -15.4209483, "lon": 28.297757}, "nodes": [7401041084, 7401092985, 7401092986, 7401092987, 7401041084], "tags": {"amenity": "hospital", "check_date": "2023-05-20", "emergency": "yes", "healthcare": "hospital", "healthcare:speciality": "general", "name": "Medcross", "operator:type": "private"}}, {"type": "way", "id": 791677081, "center": {"lat": -14.4355153, "lon": 28.4615995}, "nodes": [5087979721, 7401153806, 7401153807, 7401153808, 7401153809, 7401153810, 5087979721], "tags": {"amenity": "hospital", "building": "hospital", "healthcare": "hospital", "name": "Mahatma Ghandi", "opening_hours": "24/7"}}, {"type": "way", "id": 791703420, "center": {"lat": -15.4049529, "lon": 28.2766388}, "nodes": [4800390921, 7401401187, 7401401188, 7401401189, 4800390921], "tags": {"addr:street": "Palonaliomit Road", "amenity": "hospital", "check_date": "2023-06-08", "emergency": "yes", "healthcare": "hospital", "healthcare:speciality": "general", "name": "Premium Medical Centre Limited", "name:en": "Premium Medical Centre Limited", "operator:type": "private"}}, {"type": "way", "id": 791842809, "center": {"lat": -10.7173272, "lon": 25.4606358}, "nodes": [4547575673, 7559704061, 7559704062, 7559704063, 7402588717, 7402588718, 7402588719, 4547575673], "tags": {"addr:city": "Kolwezi", "addr:housenumber": "00", "addr:street": "Avenue de l'Hopital", "amenity": "hospital", "description": "Hopital pour MOE", "emergency": "yes", "healthcare": "hospital", "name": "Hopital du personnel de Kolwezi", "operator": "G\u00e9n\u00e9rale des carri\u00e8res et des mines", "short_name": "HPK"}}, {"type": "way", "id": 792096555, "center": {"lat": -16.6088076, "lon": 26.8221403}, "nodes": [4738143553, 7405152689, 7405152690, 7405152691, 4738143553], "tags": {"amenity": "hospital", "building": "hospital", "healthcare": "hospital"}}, {"type": "way", "id": 792110379, "center": {"lat": -15.4137609, "lon": 28.3092035}, "nodes": [4719917389, 7405292727, 7405292728, 7405292729, 4719917389], "tags": {"addr:postcode": "10101", "addr:street": "Chilekwa Mwamba", "amenity": "hospital", "check_date": "2023-06-17", "healthcare": "hospital", "name": "Bridge of Hope Hospital", "name:en": "Bridge of Hope Hospital", "opening_hours": "24/7", "operator:type": "private"}}, {"type": "way", "id": 792117904, "center": {"lat": -15.4139996, "lon": 28.3532937}, "nodes": [4328993108, 7405367256, 7405367257, 7405367258, 7405367259, 7405367260, 7405367261, 7405367262, 7405367263, 7405367264, 4328993108], "tags": {"amenity": "hospital", "check_date": "2023-05-25", "dispensing": "yes", "emergency": "no", "healthcare": "hospital", "name": "MKP TMS Hospital", "opening_hours": "24/7", "operational_status": "operational", "operator:type": "private", "wheelchair": "yes"}}, {"type": "way", "id": 792146097, "center": {"lat": -11.2037061, "lon": 28.8926327}, "nodes": [3244422380, 7405636061, 7405636062, 7405636063, 7405636064, 7405636065, 7405636066, 7405636067, 7405636068, 7405636069, 7405636070, 7405636071, 7405636072, 7405636073, 7405636074, 3244422380], "tags": {"amenity": "hospital", "healthcare": "hospital", "name": "Mansa General Hospital", "operator": "Ministry of Health"}}, {"type": "way", "id": 792146678, "center": {"lat": -13.0753435, "lon": 22.6820588}, "nodes": [2266271097, 7405682341, 7405682342, 7405682343, 7405682344, 7405682345, 7405682346, 2266271097], "tags": {"addr:city": "Chavuma", "amenity": "hospital", "healthcare": "hospital", "internet_access": "no", "name": "Chavuma Mission Hospital", "operator": "CMML"}}, {"type": "way", "id": 792149574, "center": {"lat": -15.4443503, "lon": 28.2946037}, "nodes": [2049755158, 6128393731, 7405728807, 7405728808, 7405728809, 2049755158], "tags": {"amenity": "hospital", "healthcare": "clinic", "name": "Kamwala Clinic"}}, {"type": "way", "id": 805507981, "center": {"lat": -18.0612786, "lon": 21.4476628}, "nodes": [5317887289, 7533544476, 7606307531, 7533544477, 7533544478, 7533544479, 7533544480, 5317887289], "tags": {"addr:city": "Andara", "amenity": "hospital", "healthcare": "hospital", "is_in:country": "Namibia", "is_in:district": "Kavango-East", "name": "Andara Hospital"}}, {"type": "way", "id": 886012023, "center": {"lat": -13.6165233, "lon": 29.3954647}, "nodes": [8238564406, 8238564407, 8238564408, 5863047927, 8238564410, 8238564411, 8238564412, 8238564413, 8238564414, 8238564415, 8238564416, 8238564417, 8238564418, 8238564419, 8238564420, 8238564421, 8238564422, 8238564423, 8238564424, 8238564406], "tags": {"amenity": "hospital", "healthcare": "hospital", "name": "Mkushi District Hospital"}}, {"type": "way", "id": 965084811, "center": {"lat": -19.7828498, "lon": 29.3600566}, "nodes": [8927713816, 8925382319, 8927713815, 8927713814, 8927713816], "tags": {"amenity": "hospital", "name": "Shangani Rural Hospital"}}, {"type": "way", "id": 998990123, "center": {"lat": -15.4142928, "lon": 28.0612219}, "nodes": [9223195496, 9223195499, 9223195498, 9223195497, 9223195496], "tags": {"amenity": "hospital", "name": "Nakachenje Mini Hospital"}}, {"type": "way", "id": 1001974289, "center": {"lat": -13.6116822, "lon": 29.3845881}, "nodes": [9247793109, 9247793108, 9247793107, 9247793106, 9247793109], "tags": {"amenity": "hospital", "healthcare": "hospital", "name": "Mkushi District Hospital", "source": "Akros Global Health"}}, {"type": "way", "id": 1008064689, "center": {"lat": -16.0274361, "lon": 28.8549883}, "nodes": [9300045012, 9300045011, 9300045010, 8960306117, 9300045009, 9300045012], "tags": {"amenity": "hospital", "name": "Chirundu General Hospital"}}, {"type": "way", "id": 1019031099, "center": {"lat": -10.755045, "lon": 29.734415}, "nodes": [9399239273, 9399239272, 9399239271, 9399115706, 9399239270, 9399239273], "tags": {"amenity": "hospital", "name": "Kasaba Mission Hospital"}}, {"type": "way", "id": 1038028978, "center": {"lat": -18.0026322, "lon": 20.6762301}, "nodes": [9560839985, 9560839986, 6347412761, 9560839987, 9560839988, 9560839989, 9560839990, 9560839985], "tags": {"amenity": "hospital", "healthcare": "hospital", "name": "Nyangana District Hospital"}}, {"type": "way", "id": 1042173492, "center": {"lat": -17.0003624, "lon": 26.4944257}, "nodes": [9593871293, 9593871292, 9593871291, 9593871290, 9593871289, 9593871288, 9593871287, 9593871293], "tags": {"amenity": "hospital", "name": "Kalomo District Hospital"}}, {"type": "way", "id": 1043335073, "center": {"lat": -15.4438428, "lon": 28.3156891}, "nodes": [9602393437, 9602393438, 9602393439, 9602393440, 9602393437], "tags": {"amenity": "hospital", "healthcare": "hospital", "name": "Sino-Zambia Friendship Hospital"}}, {"type": "way", "id": 1050631412, "center": {"lat": -13.140831, "lon": 28.4295381}, "nodes": [9654727012, 9654727013, 9654727014, 9654727015, 2566161048, 9654727016, 9654736817, 9654736818, 9654727012], "tags": {"amenity": "hospital", "healthcare": "hospital", "name": "Thompson Hospital"}}, {"type": "way", "id": 1057154914, "center": {"lat": -11.6919762, "lon": 27.4819893}, "nodes": [9713703785, 9713703786, 9713703787, 9713703785], "tags": {"amenity": "hospital", "healthcare": "hospital", "healthcare:speciality": "general", "name": "Hopital General de Reference de la Kenya", "operator": "Etat", "operator:type": "government"}}, {"type": "way", "id": 1072647215, "center": {"lat": -15.3336514, "lon": 28.4076556}, "nodes": [9841309755, 9841309756, 9841309757, 9841309758, 9841309759, 9841309760, 9841309755], "tags": {"amenity": "hospital", "healthcare": "hospital", "name": "National Heart Hospital", "operator": "UNZA and Ministry of Health", "operator:type": "government"}}, {"type": "way", "id": 1073327262, "center": {"lat": -19.8598887, "lon": 28.2648772}, "nodes": [9845733217, 9846313118, 9846313117, 9846232916, 9846232915, 9846232914, 9846232913, 9845733217], "tags": {"amenity": "hospital", "name": "Nyamandlovu District Hospital"}}, {"type": "way", "id": 1083219466, "center": {"lat": -11.7030335, "lon": 27.4836735}, "nodes": [9927015739, 9927015740, 9927015741, 9927015742, 9927015739], "tags": {"amenity": "hospital", "healthcare": "hospital", "name": "Centre Bakitha", "operator": "Eglise catholique", "operator:type": "public"}}, {"type": "way", "id": 1092031390, "center": {"lat": -12.8584224, "lon": 27.6366883}, "nodes": [10001327274, 10001327273, 10001327272, 10001327271, 10001327274], "tags": {"amenity": "hospital", "name": "Lufwanyama District Hospital"}}, {"type": "way", "id": 1092915957, "center": {"lat": -15.4039456, "lon": 28.3174665}, "nodes": [10009254927, 10009254926, 10009254925, 10009254924, 10009254927], "tags": {"addr:housenumber": "8238", "addr:street": "Nangwenya Road", "amenity": "hospital", "check_date": "2023-06-21", "email": "info@forestparkhospital.co.zm", "emergency": "yes", "healthcare:speciality": "general", "mobile": "+260 965 273 649", "name": "Forest Park Specialised Hospital", "operator:type": "private", "website": "https://forestparkhospital.co.zm/"}}, {"type": "way", "id": 1117919190, "center": {"lat": -15.3703463, "lon": 28.2943767}, "nodes": [10224495193, 10224495194, 10224495195, 10224495196, 10224495193], "tags": {"amenity": "hospital", "check_date": "2023-04-07", "emergency": "yes", "healthcare": "hospital", "name": "Chipata Level One", "wheelchair": "yes"}}, {"type": "way", "id": 1153914485, "center": {"lat": -10.7253661, "lon": 25.3983441}, "nodes": [10731742820, 10731742819, 10731742818, 10731742817, 10731742816, 10731742815, 10731742814, 10731742820], "tags": {"amenity": "hospital", "operator": "Kamoto"}}, {"type": "way", "id": 1179996917, "center": {"lat": -15.8547857, "lon": 27.7337842}, "nodes": [10959500055, 10959500056, 2561819697, 2561819599, 2561819586, 4977384808, 2561819482, 2561819394, 2561819557, 2561819346, 10959500055], "tags": {"amenity": "hospital", "healthcare": "hospital", "name": "Mazabuka Hospital"}}, {"type": "way", "id": 1184670270, "center": {"lat": -15.3866503, "lon": 28.3224299}, "nodes": [5878271888, 5878271889, 5878271891, 5878271890, 5878271888], "tags": {"amenity": "hospital", "emergency": "yes", "healthcare": "hospital", "healthcare:speciality": "general", "name": "Victoria Hospital", "opening_hours": "24/7", "operator:type": "private"}}, {"type": "way", "id": 1194889984, "center": {"lat": -11.7378781, "lon": 24.4297651}, "nodes": [11090740870, 11090740871, 11090740872, 5526237967, 6428920223, 6428920222, 5526237966, 6428920224, 11090740874, 11090740873, 6428920226, 6428920227, 5526237965, 6428920228, 5526237964, 6428920225, 11090740870], "tags": {"amenity": "hospital", "healthcare": "hospital", "name": "Mwinilunga Hospital"}}, {"type": "way", "id": 1195011831, "center": {"lat": -11.8972204, "lon": 22.9123773}, "nodes": [11091709502, 11091709503, 2992487311, 2992487284, 2992487283, 11091709504, 11091709502], "tags": {"addr:city": "Cazombo", "amenity": "hospital", "emergency": "yes", "healthcare": "hospital", "name": "Hospital do Alto Zambeze"}}, {"type": "way", "id": 1205873481, "center": {"lat": -14.9928091, "lon": 22.68092}, "nodes": [11174549284, 11174549283, 11174549282, 11174549281, 11174549280, 11174549284], "tags": {"amenity": "hospital", "name": "Kalabo District Hospital", "operator": "Zambia government"}}, {"type": "relation", "id": 6609440, "center": {"lat": -12.8433221, "lon": 28.2130881}, "members": [{"type": "way", "ref": 100972795, "role": "outer"}], "tags": {"amenity": "hospital", "name": "Wusakili Hospital", "type": "multipolygon"}}, {"type": "relation", "id": 9459066, "center": {"lat": -15.4068474, "lon": 28.309275}, "members": [{"type": "way", "ref": 681643336, "role": "outer"}, {"type": "way", "ref": 681643346, "role": "outer"}, {"type": "way", "ref": 681643335, "role": "outer"}, {"type": "way", "ref": 681643347, "role": "outer"}], "tags": {"amenity": "hospital", "check_date": "2023-05-05", "emergency": "yes", "healthcare:speciality": "general", "name": "Care For Business", "operator:type": "private", "type": "multipolygon", "wheelchair": "limited"}}, {"type": "relation", "id": 9467653, "center": {"lat": -15.4306847, "lon": 28.3139767}, "members": [{"type": "way", "ref": 99317983, "role": "outer"}, {"type": "way", "ref": 682359453, "role": "outer"}], "tags": {"amenity": "hospital", "check_date": "2023-05-17", "emergency": "yes", "healthcare:speciality": "general", "name": "University Teaching Hospital", "operator:type": "public", "type": "multipolygon", "wikidata": "Q7894958", "wikipedia": "en:University Teaching Hospital"}}, {"type": "relation", "id": 10585776, "center": {"lat": -15.3642284, "lon": 28.2798734}, "members": [{"type": "way", "ref": 763037982, "role": "outer"}, {"type": "way", "ref": 112695815, "role": "outer"}], "tags": {"amenity": "hospital", "check_date": "2023-04-15", "name": "Beit Cure Hospital", "operator:type": "public", "type": "multipolygon"}}, {"type": "relation", "id": 10992310, "center": {"lat": -15.2892637, "lon": 23.158364}, "members": [{"type": "way", "ref": 652045001, "role": "outer"}, {"type": "way", "ref": 652045901, "role": "outer"}, {"type": "way", "ref": 652067077, "role": "outer"}, {"type": "way", "ref": 652068070, "role": "outer"}, {"type": "way", "ref": 652045900, "role": "outer"}, {"type": "way", "ref": 652045899, "role": "outer"}], "tags": {"amenity": "hospital", "building": "yes", "healthcare": "hospital", "name": "Mongu District Hospital", "type": "multipolygon"}}, {"type": "relation", "id": 10992391, "center": {"lat": -14.9849534, "lon": 22.6132385}, "members": [{"type": "way", "ref": 791390958, "role": "outer"}, {"type": "way", "ref": 791390960, "role": "outer"}, {"type": "way", "ref": 791390961, "role": "outer"}, {"type": "way", "ref": 791390959, "role": "outer"}], "tags": {"amenity": "hospital", "building": "hospital", "healthcare": "hospital", "healthcare:speciality": "general;ophthalmology", "name": "Yuka Adventist Mission Hospital", "type": "multipolygon"}}, {"type": "relation", "id": 10994670, "center": {"lat": -15.057363, "lon": 24.4433917}, "members": [{"type": "way", "ref": 624418245, "role": "outer"}, {"type": "way", "ref": 794188768, "role": "outer"}, {"type": "way", "ref": 794188767, "role": "outer"}, {"type": "way", "ref": 794188765, "role": "outer"}, {"type": "way", "ref": 791664201, "role": "outer"}, {"type": "way", "ref": 624418577, "role": "outer"}, {"type": "way", "ref": 791664203, "role": "outer"}, {"type": "way", "ref": 791664202, "role": "outer"}, {"type": "way", "ref": 624419341, "role": "outer"}, {"type": "way", "ref": 624416525, "role": "outer"}], "tags": {"amenity": "hospital", "building": "hospital", "healthcare": "hospital", "healthcare:speciality": "maternity", "name": "Luampa Mission Hospital", "type": "multipolygon"}}, {"type": "relation", "id": 10998867, "center": {"lat": -16.8077803, "lon": 26.9721208}, "members": [{"type": "way", "ref": 480793395, "role": "outer"}, {"type": "way", "ref": 480793401, "role": "outer"}, {"type": "way", "ref": 480793400, "role": "outer"}, {"type": "way", "ref": 480793399, "role": "outer"}, {"type": "way", "ref": 480793398, "role": "outer"}], "tags": {"addr:city": "Choma", "amenity": "hospital", "building": "yes", "healthcare": "hospital", "name": "Choma General Hospital", "operator": "Ministry of Health", "type": "multipolygon"}}, {"type": "relation", "id": 11092491, "center": {"lat": -15.8294027, "lon": 27.780438}, "members": [{"type": "way", "ref": 802822264, "role": "outer"}], "tags": {"amenity": "hospital", "building": "hospital", "healthcare": "hospital", "name": "Zambia Sugar Hospital", "type": "multipolygon"}}, {"type": "relation", "id": 11103862, "center": {"lat": -11.7072416, "lon": 27.4851528}, "members": [{"type": "way", "ref": 804302239, "role": "outer"}, {"type": "way", "ref": 281047193, "role": "inner"}], "tags": {"amenity": "hospital", "healthcare": "hospital", "name": "Centre de Sant\u00e9 Kenya", "type": "multipolygon"}}, {"type": "relation", "id": 11103863, "center": {"lat": -11.7141699, "lon": 27.4636503}, "members": [{"type": "way", "ref": 804302240, "role": "outer"}, {"type": "way", "ref": 281096839, "role": "inner"}], "tags": {"amenity": "hospital", "healthcare": "hospital", "name": "ORT Foyer", "type": "multipolygon"}}, {"type": "relation", "id": 11145140, "center": {"lat": -11.6296035, "lon": 27.4898844}, "members": [{"type": "way", "ref": 808443502, "role": "outer"}, {"type": "way", "ref": 368664775, "role": "inner"}], "tags": {"amenity": "hospital", "healthcare": "hospital", "name": "h\u00f4pital radem", "type": "multipolygon"}}, {"type": "relation", "id": 11519026, "center": {"lat": -14.4337479, "lon": 28.4288573}, "members": [{"type": "way", "ref": 399129287, "role": "outer"}, {"type": "way", "ref": 838507428, "role": "outer"}, {"type": "way", "ref": 838507430, "role": "outer"}], "tags": {"amenity": "hospital", "name": "Kabwe General Hospital", "type": "multipolygon"}}, {"type": "relation", "id": 12265050, "center": {"lat": -14.9059576, "lon": 27.991237}, "members": [{"type": "way", "ref": 792119294, "role": "outer"}, {"type": "way", "ref": 902942559, "role": "outer"}], "tags": {"amenity": "hospital", "healthcare": "hospital", "name": "Mwachisompola Clinic", "type": "multipolygon"}}, {"type": "relation", "id": 12453156, "center": {"lat": -15.4024881, "lon": 28.3063445}, "members": [{"type": "way", "ref": 917830300, "role": "outer"}, {"type": "way", "ref": 755232059, "role": "outer"}], "tags": {"amenity": "hospital", "check_date": "2023-05-20", "emergency": "yes", "healthcare": "hospital", "healthcare:speciality": "general", "name": "Medlands Hospital", "operator:type": "private", "type": "multipolygon"}}, {"type": "relation", "id": 12683727, "center": {"lat": -15.3889194, "lon": 28.3584658}, "members": [{"type": "way", "ref": 99317952, "role": "outer"}, {"type": "way", "ref": 940434941, "role": "outer"}], "tags": {"amenity": "hospital", "check_date": "2023-06-20", "dispensing": "yes", "electricity": "grid", "emergency": "no", "health_amenity:type": "laboratory", "healthcare": "blood_donation;doctor;hospital;laboratory", "healthcare:speciality": "blood_check;child_psychiatry;community", "name": "Chianama Hills Hospital", "opening_hours": "24/7", "operator:type": "public", "type": "multipolygon", "water_source": "manual_pump", "wheelchair": "yes"}}, {"type": "relation", "id": 12683728, "center": {"lat": -15.3850709, "lon": 28.3537388}, "members": [{"type": "way", "ref": 940434940, "role": "outer"}, {"type": "way", "ref": 940434941, "role": "outer"}], "tags": {"amenity": "hospital", "check_date": "2023-06-20", "dispensing": "yes", "electricity": "grid", "emergency": "yes", "healthcare": "hospital", "healthcare:speciality": "general", "insurance:health": "public", "name": "Levy Mwanawasa University Teaching Hospital", "opening_hours": "24/7", "operator:type": "public", "type": "multipolygon", "water_source": "powered_pump", "wheelchair": "yes"}}, {"type": "relation", "id": 14396455, "center": {"lat": -14.9972037, "lon": 28.1394254}, "members": [{"type": "way", "ref": 674185177, "role": "outer"}, {"type": "way", "ref": 1082099932, "role": "outer"}, {"type": "way", "ref": 1082099933, "role": "outer"}], "tags": {"amenity": "hospital", "healthcare": "hospital", "name": "Twalumba Clinic", "type": "multipolygon"}}, {"type": "relation", "id": 14702029, "center": {"lat": -15.416697, "lon": 28.2954381}, "members": [{"type": "way", "ref": 1104477177, "role": "inner"}, {"type": "way", "ref": 792116129, "role": "outer"}], "tags": {"amenity": "hospital", "building": "hospital", "check_date": "2023-06-16", "emergency": "yes", "healthcare:speciality": "general", "name": "Fairview Hospital", "operator:type": "private", "type": "multipolygon"}}, {"type": "relation", "id": 14703749, "center": {"lat": -15.4353727, "lon": 28.3357456}, "members": [{"type": "way", "ref": 1104605189, "role": "outer"}, {"type": "way", "ref": 1104605190, "role": "outer"}], "tags": {"amenity": "hospital", "name": "Maina Soko Military Hospital", "type": "multipolygon"}}, {"type": "relation", "id": 15012427, "center": {"lat": -16.520715, "lon": 28.7908088}, "members": [{"type": "way", "ref": 1122570229, "role": "outer"}, {"type": "way", "ref": 490182898, "role": "outer"}, {"type": "way", "ref": 1122570234, "role": "outer"}, {"type": "way", "ref": 1122570237, "role": "outer"}, {"type": "way", "ref": 1122570233, "role": "outer"}, {"type": "way", "ref": 1122570228, "role": "outer"}], "tags": {"amenity": "hospital", "healthcare": "hospital", "name": "Kariba Hospital", "type": "multipolygon"}}, {"type": "relation", "id": 15063240, "center": {"lat": -11.6619403, "lon": 27.4178859}, "members": [{"type": "way", "ref": 1125771826, "role": "inner"}, {"type": "way", "ref": 1125771825, "role": "inner"}, {"type": "way", "ref": 364572616, "role": "outer"}], "tags": {"amenity": "hospital", "building": "yes", "name": "H\u00f4pital G\u00e9n\u00e9ral du Cinquantenaire", "type": "multipolygon"}}]}