{"version": 0.6, "generator": "Overpass API 0.7.61.5 4133829e", "osm3s": {"timestamp_osm_base": "2023-10-31T20:48:30Z", "copyright": "The data included in this document is from www.openstreetmap.org. The data is made available under ODbL."}, "elements": [{"type": "node", "id": 59649330, "lat": -25.9581793, "lon": 31.2499653, "tags": {"amenity": "hospital", "healthcare": "hospital", "name": "Swaziland Red Cross"}}, {"type": "node", "id": 1460687699, "lat": -25.6852902, "lon": 30.0390233, "tags": {"amenity": "hospital", "healthcare": "hospital", "name": "Ha Grove Hospital"}}, {"type": "node", "id": 1911643436, "lat": -21.9942771, "lon": 35.3199865, "tags": {"amenity": "hospital"}}, {"type": "node", "id": 2123577985, "lat": -27.7644896, "lon": 30.0507578, "tags": {"amenity": "hospital", "healthcare": "hospital", "name": "Madadeni Provincial Hospital"}}, {"type": "node", "id": 2208086093, "lat": -28.7792407, "lon": 31.8648934, "tags": {"addr:city": "Empangeni,KZN", "addr:postcode": "3880", "addr:street": "Thandisiwe Road", "amenity": "hospital", "contact:phone": "+27 (0)35 901 7000", "emergency": "yes", "fax": "+27 (0)35 794 1684", "healthcare": "hospital", "healthcare:speciality": "general;paediatrics;critical_care;ophthalmology;psychiatry;audiology;dietetics;dental;social_worker;arv_clinic", "name": "Ngwelezana Hospital", "operator": "KZN Department Of Health", "operator:type": "public", "website": "www.kznhealth.gov.za/ngwelezanahospital.htm", "wheelchair": "yes"}}, {"type": "node", "id": 2330304109, "lat": -26.4684572, "lon": 31.9608969, "tags": {"addr:city": "Siteki", "addr:postcode": "L300", "amenity": "hospital", "emergency": "yes", "healthcare": "hospital", "name": "Good Shepherd Hospital", "operator": "Good Shepherd Mission"}}, {"type": "node", "id": 3623389782, "lat": -23.8228437, "lon": 30.1527727, "tags": {"amenity": "hospital", "healthcare": "hospital", "name": "Mediclinic Tzaneen"}}, {"type": "node", "id": 3656905715, "lat": -27.4849034, "lon": 32.5837576, "tags": {"amenity": "hospital"}}, {"type": "node", "id": 4181180093, "lat": -25.6858119, "lon": 31.491584, "tags": {"amenity": "hospital", "healthcare": "hospital", "name": "Shongwe Hospital"}}, {"type": "node", "id": 5232600228, "lat": -26.497322, "lon": 31.3798396, "tags": {"amenity": "hospital", "healthcare": "hospital", "name": "Bilharzia & Intestinal worm Control Program"}}, {"type": "node", "id": 5239781921, "lat": -25.9151483, "lon": 32.6099309, "tags": {"amenity": "hospital", "name": "Centro de Sa\u00fade Primeiro de Junho"}}, {"type": "node", "id": 6471968133, "lat": -26.9735117, "lon": 31.324405, "tags": {"amenity": "hospital", "healthcare": "hospital", "name": "Hlatikhulu General Hospital"}}, {"type": "node", "id": 6482074127, "lat": -24.5354251, "lon": 33.0054376, "tags": {"amenity": "hospital", "is_in:district": "Chokwe", "is_in:province": "Gaza", "name": "Hospital Rural de Chokwe", "source": "MSFsurvey", "source:date": "2017"}}, {"type": "node", "id": 6657000202, "lat": -29.838194, "lon": 30.9971535, "tags": {"addr:city": "Overport", "addr:housenumber": "28", "addr:postcode": "4092", "addr:street": "Mccord Road", "amenity": "hospital", "contact:phone": "+27 (0) 31 268 5700", "email": "rosemary.mbatha@kznhealth.gov.za", "emergency": "yes", "fax": "+27 (0) 31 268 5705", "healthcare": "hospital", "healthcare:speciality": "casualties;maternity;emergencies;eye_hospital;mortuary;eye_clinic", "name": "McCord Hospital", "operator": "KZN Department Of Health", "operator:type": "government"}}, {"type": "node", "id": 6977101285, "lat": -26.3187649, "lon": 31.1315651, "tags": {"amenity": "hospital", "email": "info@baylorswaziland.org.sz", "healthcare": "hospital", "name": "Baylor Childrens Clinic Eswatini", "opening_hours": "Mo-Fr 07:30-16:30", "phone": "+26824096000"}}, {"type": "node", "id": 7328937288, "lat": -24.8442996, "lon": 31.0551374, "tags": {"addr:city": "Bushbuckridge, Hazyview, Mbombela Local Municipality", "addr:housenumber": "1", "addr:postcode": "1280", "addr:street": "Graskop Road", "amenity": "hospital", "emergency": "yes", "healthcare": "hospital", "healthcare:speciality": "obstetrics;gynaecology;occupational_therapy;orthopaedics;psychiatry;paediatrics;physiotherapy;surgery;radiology;speech_therapy;neonatal;dentist;eye_care_service", "name": "Mapulaneng hospital", "opening_hours": "24/7", "operator": "Mpumalanga Department of Health", "operator:type": "public"}}, {"type": "node", "id": 7417427675, "lat": -29.7802313, "lon": 30.9791672, "tags": {"addr:city": "Newlands East, Durban", "addr:housenumber": "260", "addr:postcode": "4037", "addr:street": "John Dory Drive", "amenity": "hospital", "email": "rosemarey.vanheerdan@durban.gov.za", "emergency": "no", "healthcare": "hospital", "healthcare:speciality": "community", "name": "Glen Earle Clinic", "operator": "KZN Department Of Health", "operator:type": "government", "phone": "031 577 7503", "website": "www.kznhealth.gov.za/ethekwini.htm"}}, {"type": "node", "id": 7434219085, "lat": -25.4927908, "lon": 30.9619564, "tags": {"addr:city": "Mbombela", "addr:postcode": "1212", "addr:street": "Madiba Drive", "amenity": "hospital", "health_amenity:type": "operating_theater", "healthcare": "clinic;doctor;hospital", "insurance:health": "private", "name": "Nelspruit Mediclinic day clinic", "operational_status": "operational", "operator:type": "private", "water_source": "water_works", "wheelchair": "yes"}}, {"type": "node", "id": 7533760882, "lat": -26.4981038, "lon": 31.3768856, "tags": {"amenity": "hospital", "healthcare": "hospital", "name": "Kalamvelase"}}, {"type": "node", "id": 8375626718, "lat": -25.9782822, "lon": 32.5817727, "tags": {"amenity": "hospital", "healthcare": "hospital", "name": "Sociedad Medica de Mozambique - Corona test!"}}, {"type": "node", "id": 8654496264, "lat": -25.7357935, "lon": 32.7326254, "tags": {"amenity": "hospital", "healthcare": "hospital"}}, {"type": "node", "id": 9048285817, "lat": -29.5306275, "lon": 31.2021697, "tags": {"addr:city": "Dolphin Coast", "addr:postcode": "4420", "addr:street": "Kirsty Cl", "amenity": "hospital", "contact:phone": "+27 329466700", "emergency": "yes", "health_amenity:type": "emergency_department", "healthcare": "hospital", "healthcare:speciality": "general", "insurance:health": "private", "name": "Netcare Alberlito Hospital", "opening_hours": "24/7", "operational_status": "operational", "operator": "Netcare", "operator:type": "private", "operator:wikidata": "Q6998801", "operator:wikipedia": "en:Netcare", "wheelchair": "yes"}}, {"type": "node", "id": 9048293718, "lat": -29.3355422, "lon": 31.2844813, "tags": {"addr:city": "Durban", "addr:housenumber": "23A", "addr:postcode": "4450", "addr:street": "King Shaka Street", "amenity": "hospital", "contact:phone": "+27 324376000", "electricity": "grid", "emergency": "yes", "health_amenity:type": "emergency_department", "healthcare": "hospital", "healthcare:speciality": "general;dermatology;gynaecology;ophthalmology;orthopaedics;physiotherapy;psychology;speech_and_hearing_&_audiology;ptmtct;occupational_therapy", "insurance:health": "public", "name": "General Justice Gizenga Mpanza Regional Hospital (formerly Stanger Hospital)", "opening_hours": "24/7", "operational_status": "operational", "operator": "KwaZulu Natal Province", "operator:type": "public", "wheelchair": "yes"}}, {"type": "node", "id": 9213371219, "lat": -27.0179353, "lon": 30.8079728, "tags": {"addr:city": "Piet Ritief", "addr:housenumber": "11", "addr:postcode": "2380", "addr:street": "Pretorius", "amenity": "hospital", "contact:phone": "+27 (0)17 824 1200", "healthcare": "hospital", "healthcare:speciality": "obstetrics;paediatrics;psychiatry;eye_care;geriatrics;medicine;rehabilitation;family_medicine_and_primary_health_care", "name": "Piet Retief Hospital", "operator": "Mpumalanga Department of Health", "operator:type": "public"}}, {"type": "node", "id": 9609279403, "lat": -29.7895682, "lon": 30.7425105, "tags": {"addr:city": "Durban", "addr:housenumber": "954", "addr:postcode": "3610", "addr:street": "Old Main Road", "amenity": "hospital", "healthcare": "hospital", "name": "Busamed Hillcrest Private Hospital"}}, {"type": "node", "id": 9758783923, "lat": -29.9140742, "lon": 30.8868691, "tags": {"amenity": "hospital", "healthcare": "hospital", "name": "R. K. Khan Hospital", "operator": "RK KHAN", "wikidata": "Q30280568"}}, {"type": "node", "id": 9841503051, "lat": -20.3101771, "lon": 30.9312425, "tags": {"amenity": "hospital", "healthcare": "hospital", "name": "Morgenster Hospital"}}, {"type": "node", "id": 9843285998, "lat": -20.5983499, "lon": 31.1656894, "tags": {"amenity": "hospital", "healthcare": "hospital", "name": "Nyajena Rural Hospital"}}, {"type": "node", "id": 9901834158, "lat": -25.7762582, "lon": 32.5181856, "tags": {"addr:city": "Matola", "amenity": "hospital", "healthcare": "hospital", "name": "Hospital de Muhalaze", "name:pt": "HM"}}, {"type": "node", "id": 9942735518, "lat": -20.0336061, "lon": 32.8650123, "tags": {"amenity": "hospital", "name": "Rusitu Mission Hospital"}}, {"type": "node", "id": 9942735841, "lat": -20.4369949, "lon": 32.4977269, "tags": {"amenity": "hospital", "name": "Chikore Mission Hospital"}}, {"type": "node", "id": 9942735843, "lat": -20.4235815, "lon": 32.7028495, "tags": {"amenity": "hospital", "name": "Mt Selinda Hospital"}}, {"type": "node", "id": 9942736118, "lat": -20.7710792, "lon": 32.2154971, "tags": {"amenity": "hospital", "name": "St Peters Mission Hospital", "name:en": "St Peters Mission Hospital ( Chisumbaje)"}}, {"type": "node", "id": 10811094405, "lat": -21.040499, "lon": 31.4567005, "tags": {"amenity": "hospital", "name": "Collin Sanders Private Hospital"}}, {"type": "node", "id": 10923756915, "lat": -20.9103146, "lon": 30.2277123, "tags": {"amenity": "hospital", "name": "Musume Mission Hospital"}}, {"type": "node", "id": 10941342305, "lat": -20.9405514, "lon": 30.6464925, "tags": {"amenity": "hospital", "healthcare": "hospital", "name": "Neshuro District Hospital", "operator": "Government", "operator:type": "government_facility-public"}}, {"type": "node", "id": 11071006705, "lat": -20.0651987, "lon": 33.5595304, "tags": {"amenity": "hospital", "name": "Centro de Sa\u00fade de Chinhica"}}, {"type": "node", "id": 11208448672, "lat": -24.387606, "lon": 30.0754496, "tags": {"amenity": "hospital", "healthcare": "hospital", "name": "Mecklenburg Hospital"}}, {"type": "node", "id": 11277342876, "lat": -25.939378, "lon": 32.4602659, "tags": {"amenity": "hospital", "emergency": "yes", "healthcare": "hospital", "name": "Hospital Sunshine"}}, {"type": "node", "id": 11291888633, "lat": -26.4308269, "lon": 31.1834224, "tags": {"amenity": "hospital", "building": "yes", "healthcare": "hospital", "name": "Ezulwini Private Hospital"}}, {"type": "way", "id": 60659889, "center": {"lat": -25.9303953, "lon": 32.5861109}, "nodes": [759232147, 9937927126, 759232179, 759232145, 759232104, 759232234, 759232147], "tags": {"addr:city": "Maputo", "addr:housenumber": "798", "addr:street": "Avenidas das For\u00e7as Populares de Liberta\u00e7\u00e3o de Mo\u00e7ambique (FPLM)", "amenity": "hospital", "name": "Hospital Geral de Mavalane", "name:pt": "Hospital Geral de Mavalane", "name:zh": "\u603b\u533b\u9662Mavalane"}}, {"type": "way", "id": 61111320, "center": {"lat": -27.7578836, "lon": 30.7974813}, "nodes": [764553033, 764553061, 764553058, 764553044, 764553033], "tags": {"addr:city": "Vryheid", "addr:postcode": "3100", "addr:street": "Coswald Brown Street", "amenity": "hospital", "beds": "338", "emergency": "yes", "fax": "+27 (0) 34 980 9757", "healthcare": "hospital", "healthcare:speciality": "casualty_dept/trauma;cdc_clinic;dental_services;helipad;high_care;hiv_counselling;laboratory;medical_-_general;obstetrics_and_gynaecology;occupational_therapy;paediatrics;physiotherapy;rehabilitation_services;social_worker;stroke_unit;surgical_(medical_&_", "name": "Vryheid Hospital", "operator": "KZN Department of Health", "operator:type": "government", "phone": "+27 (0) 34 982 2111", "website": "www.kznhealth.gov.za/vryheidhospital.htm", "wheelchair": "yes"}}, {"type": "way", "id": 61190400, "center": {"lat": -25.4942961, "lon": 30.9622403}, "nodes": [765083731, 765083735, 4720229063, 4720229064, 4720229065, 4720229066, 4720229068, 4720229067, 4720229070, 4720229069, 4720229088, 4720229790, 4720229791, 4720229789, 4720229086, 4720229087, 4720229793, 4720229792, 765083737, 4720197156, 4720229062, 4720229061, 4720229059, 4720229060, 4720229058, 4720229057, 4720229056, 4720229055, 4720197155, 4720229794, 4720229795, 4720229796, 4720229797, 4720229798, 4720229799, 4720197154, 4720197153, 4720229800, 4720229801, 4720229802, 4720229803, 4720229804, 4720229807, 4720229806, 4720229805, 765083743, 4720229085, 4720229084, 4720229083, 4720229082, 4720229080, 4720229081, 4720229079, 4720229078, 4720229077, 4720229076, 4720229075, 4720229074, 4720229073, 4720229071, 4720229072, 765083731], "tags": {"addr:city": "Sonheuwel, Mbombela", "addr:housenumber": "1", "addr:postcode": "1200", "addr:street": "Louise Street", "amenity": "hospital", "building": "yes", "dispensing": "yes", "electricity": "grid", "emergency": "yes", "health_amenity:type": "dialysis;emergency_department;imaging_equipment;intensive_care_unit;laboratory;mri;operating_theater;ultrasound;x_ray", "healthcare": "birthing_center;doctor;hospital;laboratory;optometrist;pharmacy;physiotherapist;rehabilitation", "healthcare:speciality": "ct_scan;mri;pathology;radiology;renal_dialysis", "insurance:health": "private", "name": "Nelspruit Mediclinic", "opening_hours": "24/7", "operator": "Mediclinic", "operator:type": "private", "source": "extrapolation;hospital website", "water_source": "water_works", "wheelchair": "yes"}}, {"type": "way", "id": 70534422, "center": {"lat": -29.8619851, "lon": 31.0411465}, "nodes": [841770929, 2806107158, 2806107147, 2806107157, 2806107155, 6438737095, 9988787828, 9988787829, 9988787830, 9988787831, 841770985, 2806107159, 841770929], "tags": {"addr:city": "South Beach, Durban, Kwazulu-Natal", "addr:housenumber": "16", "addr:street": "Erskine Road", "amenity": "hospital", "beds": "471", "contact:fax": "+27 (0) 31 368 3300", "contact:phone": "+27 (0) 31 327 2000", "contact:website": "http://www.kznhealth.gov.za/addingtonhospital.htm", "email": "Zimhlophe.jali@kznhealth.gov.za", "emergency": "yes", "fax": "+27 (0) 31 368 3300", "healthcare": "hospital", "healthcare:speciality": "general;maternity;chronic", "landuse": "healthcare", "name": "Addington Hospital", "opening_hours": "24/7", "phone": "+27 (0) 31 327 2002", "website": "http://www.kznhealth.gov.za/addingtonhospital.htm", "wheelchair": "yes", "wikidata": "Q30254227"}}, {"type": "way", "id": 81244185, "center": {"lat": -25.9689715, "lon": 32.5888868}, "nodes": [946556067, 946556068, 4627855626, 946556069, 946556070, 946556071, 946556072, 946556076, 946556077, 946556067], "tags": {"amenity": "hospital", "emergency": "yes", "healthcare": "hospital", "name": "Hospital Central de Maputo", "name:ja": "\u30de\u30d7\u30fc\u30c8\u4e2d\u592e\u75c5\u9662", "name:pt": "Hospital Central de Maputo", "name:zh": "\u9a6c\u666e\u6258\u4e2d\u5fc3\u533b\u9662", "wikidata": "Q27440606"}}, {"type": "way", "id": 87299724, "center": {"lat": -29.5808866, "lon": 30.362583}, "nodes": [1015057726, 1364166210, 1015057201, 1015057257, 1015057799, 1015057519, 1015057116, 1015057826, 1015057022, 1015057794, 1015057803, 1015057420, 1016206688, 1016206591, 1015057873, 1015057087, 1015057288, 1016206679, 1015057383, 1015057093, 1015057849, 1015057769, 1016206597, 1015057189, 1015057927, 1015057497, 1015057726], "tags": {"addr:city": "Pietermaritzburg", "addr:housenumber": "201", "addr:street": "Town Bush Road", "alt_name": "Grey's Hospital", "amenity": "hospital", "contact:fax": "+27 (0) 33 345 5378", "contact:phone": "+27 (0) 33 897 3000", "contact:website": "http://www.kznhealth.gov.za/greyshospital.htm", "emergency": "yes", "healthcare": "hospital", "healthcare:speciality": "general;maternity;chronic;emergency", "name": "Greys Hospital", "website": "http://www.kznhealth.gov.za/greyshospital.htm", "wikidata": "Q30254236"}}, {"type": "way", "id": 91840918, "center": {"lat": -25.6481455, "lon": 30.338329}, "nodes": [1067266463, 1317299801, 1317299982, 9078711432, 1317300911, 1067266464, 1067266463], "tags": {"addr:city": "Waterval Boven", "addr:housenumber": "1", "addr:postcode": "1195", "addr:street": "Slaaihoek Pad", "amenity": "hospital", "healthcare": "hospital", "healthcare:speciality": "general;surgery;obstetics;paediatrics;psychiatry;ophthalmology;geriatrics", "layer": "1", "name": "Waterval Boven Hospital", "operator": "government", "operator:type": "public", "phone": "+27 13 257 0015"}}, {"type": "way", "id": 98473225, "center": {"lat": -29.576454, "lon": 30.40348}, "nodes": [1139287488, 1139287609, 1139287384, 1139287563, 1139287351, 1139287323, 9942489726, 1139287600, 1139287282, 9942489729, 1139287550, 9942452813, 1139287399, 1139287488], "tags": {"addr:city": "Northdale Pietermaritzburg", "addr:postcode": "3200", "addr:street": "Chota Motala Road", "amenity": "hospital", "email": "pro.northdale@kznhealth.gov.za", "emergency": "yes", "fax": "+27 (0) 33 397 9768", "healthcare": "hospital", "healthcare:speciality": "outpatient_services;casualty_services;dietetic_services;x-rays;ultrasound;pharmacy;dental_services;ear;nose;and_throat_(ent);eye_clinic;aids_counselling;maternity_(normal_deliveries_and_caesarean_section);gynaecological_services_(including_termination_of_", "name": "Northdale Hospital", "operator": "Kzn Department Of Health", "operator:type": "government", "phone": "+27 (0) 33 387 9000"}}, {"type": "way", "id": 121931107, "center": {"lat": -29.6092041, "lon": 30.3891737}, "nodes": [1363694676, 1363694647, 1363694671, 9292860656, 1363694688, 9292860649, 9292860650, 9292860651, 9292860652, 9292860653, 9292860654, 1363694692, 9292860655, 9292899319, 1363694697, 1363694705, 9292899320, 1363694691, 1363694676], "tags": {"addr:city": "Pietermaritzburg", "addr:housenumber": "90", "addr:postcode": "3200", "addr:street": "Payn Street", "amenity": "hospital", "emergency": "yes", "fax": "+27 33 845 3935", "healthcare": "hospital", "name": "Pietermaritzburg Mediclinic", "opening_hours": "24/7", "operator": "Mediclinic", "operator:type": "private", "operator:wikidata": "Q1916123", "phone": "+27 33 845 3700", "website": "https://www.mediclinic.co.za/"}}, {"type": "way", "id": 121991509, "center": {"lat": -29.5852001, "lon": 30.3677578}, "nodes": [1015057257, 1015057201, 1364166210, 1015057726, 1364159470, 1364159471, 7650744153, 1364159481, 1364159589, 1364159622, 1364159631, 1364159640, 1364159730, 1364159745, 1364159942, 1364159931, 1364159861, 1364159907, 1364159835, 1364159958, 1364159954, 1364159978, 1364159992, 1364159987, 1364159968, 1364159973, 1364159969, 1364160004, 1364159967, 1364159965, 1364159748, 1364159741, 1364159726, 1364159674, 1364161389, 1015057016, 1015057774, 1015057197, 1015057263, 1015057257], "tags": {"addr:city": "Pietermaritzburg", "addr:street": "Hyslop Road", "amenity": "hospital", "barrier": "fence", "contact:phone": "+27 33 345 5720", "healthcare": "hospital", "healthcare:speciality": "psychiatry", "name": "Townhill Mental Hospital", "operator": "government", "operator:type": "public", "wheelchair": "yes"}}, {"type": "way", "id": 126053570, "center": {"lat": -26.5019746, "lon": 31.3104309}, "nodes": [1398433751, 4696868199, 4696868198, 4696868197, 4696868196, 1398433776, 1398433834, 1398433870, 1398433751], "tags": {"amenity": "hospital", "building": "yes", "healthcare": "hospital", "name": "Matsapha health care centre", "source:name": "survey"}}, {"type": "way", "id": 131405773, "center": {"lat": -25.3450581, "lon": 31.1205813}, "nodes": [1446245665, 4421095176, 4421095177, 4421095178, 4421095180, 4421095173, 4421095174, 4421095175, 4421095172, 4421095171, 4421095170, 4421095169, 4421095168, 4421095167, 4421095166, 4421095165, 4421095164, 1446245663, 1446245662, 1446245664, 4421095198, 1446245665], "tags": {"addr:city": "Kabokweni, Mpumalanga", "addr:housenumber": "123", "addr:postcode": "1245", "addr:street": "Kabokweni Road", "amenity": "hospital", "emergency": "yes", "fax": "+27 (0)13 796 0339", "healthcare": "hospital", "healthcare:speciality": "maternity;general", "name": "Temba Hospital", "operator": "Mpumalanga Department Of Health", "operator:type": "government", "phone": "+27 (0)13 796 9400", "wheelchair": "yes"}}, {"type": "way", "id": 168965151, "center": {"lat": -29.3355014, "lon": 31.2843182}, "nodes": [1801464716, 1801464714, 1801464711, 1801464715, 4299721466, 1801464708, 1801464710, 1801464712, 4299721467, 1801464709, 1801464713, 1801464716], "tags": {"addr:city": "Kwadukuza, Stanger", "addr:postcode": "4449", "addr:street": "Corner of King Shaka and Patterson Street", "alt_name_1": "Stanger Hospital", "alt_name_2": "KwaDukuza Hospital", "amenity": "hospital", "beds": "545", "email": "pumla.mba@kznhealth.gov.za", "emergency": "yes", "fax": "+27 (0) 32 552 2767", "healthcare": "hospital", "healthcare:speciality": "general;maternity;chronic", "name": "General Justice Gizenga Mpanza Regional Hospital (formerly Stanger Hospital)", "operator": "Kwazulu Natal Department of Health", "operator:type": "public", "phone": "+27 (0) 32 437 6000", "wheelchair": "yes"}}, {"type": "way", "id": 171855833, "center": {"lat": -21.9935855, "lon": 35.320031}, "nodes": [1828269653, 5691185262, 5691185263, 1828269656, 1828269658, 1828269662, 5688666016, 5688666013, 1828269653], "tags": {"amenity": "hospital", "designation": "District Hospital", "emergency": "yes", "healthcare": "hospital", "name": "Hospital Rural de Vilankulo", "source": "survey"}}, {"type": "way", "id": 172293324, "center": {"lat": -22.0508043, "lon": 35.3206212}, "nodes": [1832130501, 1832130499, 1832130500, 1832130498, 1832130501], "tags": {"amenity": "hospital", "designation": "Posto de saude", "emergency": "no", "name": "Clinica IFP", "source": "survey"}}, {"type": "way", "id": 193114413, "center": {"lat": -29.648524, "lon": 30.3326716}, "nodes": [2036321681, 2036321703, 2036321736, 2036321705, 2797703410, 2036321750, 2036321671, 2797703409, 2797703408, 2036321676, 2797703407, 2036321694, 2797703405, 2797703403, 2036321695, 2036321723, 2797703404, 2036321687, 2797703406, 2036321681], "tags": {"amenity": "hospital", "contact:fax": "+27 (0) 33 3954094 / 33 3954087", "contact:phone": "+27 (0) 33 395 4911", "contact:website": "http://www.kznhealth.gov.za/edendalehospital.htm", "healthcare": "hospital", "healthcare:speciality": "anaesthetics;psychiatry;ophthalmology;dentistry;orthopaedics", "name": "Edendale Hospital", "wikidata": "Q5336985"}}, {"type": "way", "id": 201126596, "center": {"lat": -24.5355511, "lon": 33.0055008}, "nodes": [2110809102, 2110809097, 2110809100, 2110809106, 2110809113, 2110809150, 2110809153, 2110809088, 2110809089, 2110809195, 2110809096, 2110809136, 2110809101, 2110809105, 2110809103, 2110809138, 2110809085, 2110809083, 2110809090, 2110809157, 2110809091, 2110809086, 2110809084, 2110809141, 2110809102], "tags": {"amenity": "hospital", "emergency": "yes", "name": "Hospital Rural de Ch\u00f3kw\u00e8"}}, {"type": "way", "id": 201131362, "center": {"lat": -24.5284614, "lon": 33.0038928}, "nodes": [2110857902, 2110857837, 2068356678, 2110857799, 2110857733, 2110857752, 2110857750, 2110857881, 2110857902], "tags": {"amenity": "hospital", "emergency": "no", "name": "Hospital do Carmelo"}}, {"type": "way", "id": 225382770, "center": {"lat": -24.4956822, "lon": 35.1696946}, "nodes": [2341653556, 2341653569, 2341653558, 2341653589, 2341653563, 2341653590, 2341653519, 2341653595, 2341653604, 2341653539, 2341653542, 2341653561, 2341653548, 2341653556], "tags": {"amenity": "hospital", "building": "yes"}}, {"type": "way", "id": 228245061, "center": {"lat": -26.0032425, "lon": 32.9203198}, "nodes": [2368765380, 2368765381, 2368765382, 2368765383, 2368765380], "tags": {"amenity": "hospital", "building": "yes"}}, {"type": "way", "id": 228795676, "center": {"lat": -22.9961289, "lon": 30.697432}, "nodes": [2374693906, 2374693907, 2374693908, 2374693909, 2374693910, 2374693911, 2374693906], "tags": {"addr:city": "Malamuele, Limpopo", "addr:postcode": "0982", "addr:street": "Malamulele Village, Malamulele Street", "amenity": "hospital", "emergency": "yes", "fax": "+27 (0)15 851 0239 / 0620", "healthcare": "hospital", "healthcare:speciality": "health;hospitals;government_departments", "name": "Malamulele Hospital", "operator": "Limpopo Health Department", "operator:type": "government", "phone": "+27 (0)15 851 0026", "wheelchair": "yes"}}, {"type": "way", "id": 239868556, "center": {"lat": -25.9741852, "lon": 32.5831705}, "nodes": [2476482034, 2476482035, 2476482036, 2476482037, 2476482034], "tags": {"addr:street": "Avenida Patrice Lubumba, 421", "amenity": "hospital", "building": "office", "building:levels": "2", "category": "D", "name": "Centro de Sa\u00fade de Mexaquene", "owner": "publico", "ref": "D21-312", "status": "Razo\u00e1vel"}}, {"type": "way", "id": 244925858, "center": {"lat": -24.59043, "lon": 31.0610576}, "nodes": [2521992043, 2521992047, 2521992049, 2521992051, 2521992053, 2521992055, 2521992057, 2521992066, 2521992068, 2521992070, 2521992072, 2521992043], "tags": {"addr:city": "Acornhoek", "addr:postcode": "1360", "addr:street": "Chavelagaza Road", "amenity": "hospital", "beds": "423", "contact:phone": "+27 (0)13 795 5490", "emergency": "yes", "healthcare": "hospital", "healthcare:speciality": "paediarics;obstetrics;gynaecology;psychiatric;surgery;casualty;high_care;eye_care;geriatrics", "name": "Tintswalo Hospital", "operator": "Mpumalanga Departmentof Health", "operator:type": "public", "wheelchair": "yes"}}, {"type": "way", "id": 246966078, "center": {"lat": -25.6952492, "lon": 31.7863147}, "nodes": [2539240315, 2539240316, 2539240317, 2539240318, 2539240319, 2539240320, 2539240321, 2539240322, 2539240323, 2539240324, 2539240325, 2539240326, 2539240315], "tags": {"amenity": "hospital", "building": "yes", "healthcare": "hospital"}}, {"type": "way", "id": 251483314, "center": {"lat": -25.9476189, "lon": 32.5440296}, "nodes": [2576989993, 4039016562, 2576989995, 3713204244, 2576989997, 2576989999, 2576990001, 2576990004, 2576990006, 2576989993], "tags": {"addr:city": "Maputo", "addr:street": "Avenida da Organiza\u00e7\u00e3o da Unidade Africana", "amenity": "hospital", "healthcare": "hospital", "name": "Hospital Geral de J. Macamo", "name:pt": "J. Macamo"}}, {"type": "way", "id": 255400974, "center": {"lat": -25.8600683, "lon": 31.7038437}, "nodes": [2610929964, 2610929965, 2610929966, 2610929967, 2610929964], "tags": {"addr:city": "Mpumalanga, South Africa", "addr:housenumber": "1334", "addr:street": "Mgobode", "amenity": "hospital", "building": "no", "emergency": "yes", "healthcare": "hospital", "name": "Mgobodi Community Clinic", "operator": "Mpumalanga Department Of Health", "operator:type": "public"}}, {"type": "way", "id": 255778036, "center": {"lat": -25.962972, "lon": 32.594458}, "nodes": [2614644344, 2614644345, 2614644346, 2614644347, 2614644344], "tags": {"addr:street": "Avenida Kim Il Sung", "amenity": "hospital", "building": "yes", "name": "Centro de Sa\u00fade de Polana Cimento"}}, {"type": "way", "id": 256535711, "center": {"lat": -25.9346052, "lon": 32.6046364}, "nodes": [759470818, 759470812, 759520495, 759520505, 759520539, 8225454466, 759470818], "tags": {"amenity": "hospital", "name": "Hospital Polana Cani\u00e7o A"}}, {"type": "way", "id": 256672714, "center": {"lat": -23.8810077, "lon": 35.1530019}, "nodes": [2623091510, 2623124098, 2623124096, 2623124106, 2623124086, 2623124108, 2623124111, 2623124150, 2623124146, 2623124148, 2623124152, 2623124114, 2623124113, 2623124088, 2623124090, 2623124092, 2623124094, 2623091512, 2623091514, 2623091516, 2623091510], "tags": {"amenity": "hospital", "building": "yes", "emergency": "yes", "name": "Centro de Sa\u00fade de Homo\u00edne"}}, {"type": "way", "id": 256716507, "center": {"lat": -28.8902212, "lon": 31.4662189}, "nodes": [2623527492, 2623527493, 2623527494, 2623527495, 2623527496, 2623527497, 2623527498, 2623527499, 2623527500, 2623527501, 2623527504, 2623527505, 2623527506, 2623527503, 2623527502, 2623527492], "tags": {"addr:city": "Eshowe", "addr:postcode": "3815", "addr:street": "Kangela Street", "amenity": "hospital", "contact:fax": "+27 (0) 35 474 4914", "contact:phone": "+27 (0) 35 473 4500", "contact:website": "http://www.kznhealth.gov.za/eshowehospital.htm", "emergency": "yes", "healthcare": "hospital", "name": "Eshowe District Hospital"}}, {"type": "way", "id": 256960866, "center": {"lat": -25.9572621, "lon": 32.5921066}, "nodes": [5287358625, 5287358624, 5287378621, 5287358623, 5287358625], "tags": {"amenity": "hospital", "healthcare": "hospital", "name": "Hospital Militar", "name:zh": "\u519b\u961f\u533b\u9662"}}, {"type": "way", "id": 258778176, "center": {"lat": -26.4884323, "lon": 31.4089601}, "nodes": [2641017367, 2641017368, 2641017369, 2641017370, 2641017371, 2641017372, 2641017373, 2641017374, 2641017367], "tags": {"amenity": "hospital", "healthcare": "hospital", "name": "National TB Hospital"}}, {"type": "way", "id": 258779633, "center": {"lat": -26.4858461, "lon": 31.4207496}, "nodes": [2641029285, 2641029287, 2641029289, 2641029291, 2641029285], "tags": {"amenity": "hospital", "healthcare": "hospital"}}, {"type": "way", "id": 258822222, "center": {"lat": -26.5006483, "lon": 31.3655521}, "nodes": [2641377422, 2641377423, 2641377424, 2641377425, 2641377426, 2641377427, 2641377428, 9259468173, 2641377429, 2641377422], "tags": {"amenity": "hospital", "emergency": "yes", "healthcare": "hospital", "name": "Raleigh Fitkin Memorial Hospital", "operator": "Eswatini Nazarene Health Institution", "short_name": "RFM Hospital"}}, {"type": "way", "id": 259004406, "center": {"lat": -26.4953233, "lon": 31.3863808}, "nodes": [2643210784, 2643210786, 2643210787, 2643210790, 2643210788, 2643210784], "tags": {"amenity": "hospital", "healthcare": "hospital", "name": "Women and Childrens Hospital"}}, {"type": "way", "id": 263350070, "center": {"lat": -28.9358139, "lon": 31.195552}, "nodes": [2689703601, 5055837778, 5055837777, 5068703585, 5055837776, 2689703604, 2689703605, 5055837775, 5068777048, 5055837774, 5068703541, 2689703611, 2689703612, 5055837773, 5055837772, 2689703613, 2689703614, 5068777052, 2689703615, 2689703616, 2689703617, 5055837780, 5055837763, 2689703618, 2689703619, 2689703620, 2689703621, 2689703622, 2689703623, 2689703624, 2689703625, 2689703627, 5055837779, 2689703601], "tags": {"amenity": "hospital", "barrier": "fence", "beds": "162", "emergency": "yes", "healthcare": "hospital", "healthcare:speciality": "communicable_disease_and_geriatrics;crisis_centre;general_medical;general_surgical_and_general_orthopaedic;health_promotion_programme;infectious_cases;laboratory;maternity;maternal_child_and_women's_health_programme;medical_laboratory_services;mental_heal", "name": "Mbongolwane District Hospital", "note": "There is a lot of work happening, boundaries have moved some. I have stuck with the aerial imagery.", "opening_hours": "24/7", "operator": "government", "operator:type": "public", "phone": "+27 35 476 6103/4", "wheelchair": "yes"}}, {"type": "way", "id": 263454519, "center": {"lat": -28.6417993, "lon": 30.8930935}, "nodes": [2690750327, 2690750249, 2690750233, 2690750200, 2690750149, 2690750161, 2690750164, 2690750183, 2690750236, 2690750179, 2690750148, 2690750137, 2690750170, 2690750247, 2690750260, 2690750327], "tags": {"amenity": "hospital", "building": "yes", "healthcare": "hospital", "source": "RSA CD:NGI Aerial"}}, {"type": "way", "id": 263454520, "center": {"lat": -28.6419764, "lon": 30.8933826}, "nodes": [2690750591, 2690750446, 2690750350, 2690750385, 2690750296, 2690750280, 2690750234, 2690750251, 2690750230, 2690750284, 2690750293, 2690750308, 2690750429, 2690750463, 2690750527, 2690750498, 2690750591], "tags": {"amenity": "hospital", "building": "yes", "healthcare": "hospital", "source": "RSA CD:NGI Aerial"}}, {"type": "way", "id": 263454524, "center": {"lat": -28.6418615, "lon": 30.8931734}, "nodes": [2690750102, 2690750120, 2690750402, 2690750284, 2690750230, 2690750234, 2690750280, 2690750350, 2690750446, 2690750456, 2690750561, 2690750586, 2690750555, 2690750536, 2690750487, 2690750502, 2690750460, 2690750411, 2690750433, 2690750330, 2690750271, 2690750211, 2690750199, 2690750249, 2690750327, 2690750346, 2690750269, 2690750260, 2690750247, 2690750256, 2690750125, 2690750116, 2690750102], "tags": {"amenity": "hospital", "building": "yes", "healthcare": "hospital", "source": "RSA CD:NGI Aerial"}}, {"type": "way", "id": 263454616, "center": {"lat": -28.6423286, "lon": 30.893805}, "nodes": [2690751024, 2690750979, 2690750951, 2690750898, 2690750921, 2690750837, 2690750779, 2690750760, 2690750804, 2690750765, 2690750714, 2690750683, 2690750769, 2690750712, 2690750586, 2690750555, 2690750519, 2690750831, 2690750820, 2690750792, 2690750744, 2690750777, 2690750767, 2690750816, 2690750882, 2690750902, 2690750833, 2690750896, 2690750848, 2690750913, 2690750938, 2690751017, 2690751046, 2690751022, 2690751051, 2690751006, 2690750970, 2690751011, 2690751000, 2690751015, 2690751040, 2690751002, 2690751024], "tags": {"amenity": "hospital", "building": "yes", "healthcare": "hospital", "source": "RSA CD:NGI Aerial"}}, {"type": "way", "id": 263454683, "center": {"lat": -28.64214, "lon": 30.8918869}, "nodes": [2690750532, 2690750540, 2690750548, 2690750576, 2690750589, 2690750612, 2690750629, 2690750652, 2690750677, 2690750685, 2690750679, 2690750648, 2690750627, 2690750614, 2690750595, 2690750580, 2690750552, 2690750542, 2690750534, 2690750532], "tags": {"amenity": "hospital", "man_made": "reservoir_covered", "source": "RSA CD:NGI Aerial"}}, {"type": "way", "id": 263454685, "center": {"lat": -28.6411502, "lon": 30.8932557}, "nodes": [2690751048, 2690750876, 2690797785, 2690797777, 2690749948, 2690749763, 2690797750, 2690749737, 2690749718, 2690749717, 2690749731, 2690749742, 2690749876, 2690749906, 2690750053, 2690750320, 2690751077, 2690751296, 2690751240, 2690751196, 2690751250, 2690751263, 2690751284, 2690751299, 2690751201, 2690751128, 2690751048], "tags": {"addr:city": "Nkandla, Kwazulu Natal", "addr:postcode": "3268", "addr:street": "Kranskop Road", "amenity": "hospital", "contact:fax": "+27 (0) 35 834 8012", "contact:phone": "+27 (0) 35 834 8000", "contact:website": "http://www.kznhealth.gov.za/ekombehospital.htm", "emergency": "yes", "healthcare": "hospital", "healthcare:speciality": "general;emergency;maternity;chronic", "name": "Ekombe Hospital", "operator": "Kzn Department Of Health", "operator:type": "government", "source": "RSA CD:NGI Aerial", "wheelchair": "yes"}}, {"type": "way", "id": 265785950, "center": {"lat": -20.1797908, "lon": 31.32315}, "nodes": [2713994952, 2713994958, 2713994960, 2713994963, 2713994966, 2713994968, 4950551956, 2713994974, 2713994977, 2713994979, 2713994981, 2713994983, 2713994984, 2713994986, 2713994952], "tags": {"amenity": "hospital", "name": "Ndanga District Hospital"}}, {"type": "way", "id": 267018756, "center": {"lat": -20.2808993, "lon": 31.3675221}, "nodes": [2725012529, 2725012530, 2725012531, 2725012532, 2725012529], "tags": {"amenity": "hospital", "name": "Nemauku Rural Health Care Centre"}}, {"type": "way", "id": 267023828, "center": {"lat": -20.8465658, "lon": 31.2203358}, "nodes": [2725071898, 2725071899, 2725071900, 2725071901, 2725071898], "tags": {"amenity": "hospital", "name": "Nyikavanhu Health Care Centre"}}, {"type": "way", "id": 267173274, "center": {"lat": -20.9401683, "lon": 30.6471887}, "nodes": [2726492056, 2726492057, 2726492058, 2726492059, 4508925601, 2726492060, 2726492056], "tags": {"amenity": "hospital", "name": "Neshuro District Hospital"}}, {"type": "way", "id": 267216722, "center": {"lat": -20.2410501, "lon": 30.0161205}, "nodes": [2726876294, 2726876296, 2726876298, 2726876300, 2726876328, 2726876303, 2726876294], "tags": {"amenity": "hospital", "name": "Lundi Rural Hospital"}}, {"type": "way", "id": 267236976, "center": {"lat": -28.6985351, "lon": 31.123749}, "nodes": [2727062031, 2727062032, 2727062033, 2727062034, 2727062035, 2727062036, 2727062031], "tags": {"addr:city": "Qhudeni Area Nkandla Municipality Nkandla", "addr:postcode": "3855", "addr:street": "Kranskop Road", "amenity": "hospital", "contact:phone": "+27 (0)35 834 8000", "emergency": "yes", "healthcare": "hospital", "healthcare:speciality": "gynaecology;antenatal;infectious_diseases;maternal_child_and_women's_health;orthopaedic_services;surgical;pharmaceutical_services;psychiatric_community_services;eye_care_service;chronic_diseases;post_natal_and_under_5_clinic", "name": "Ekhombe Hospital", "operator": "Kwazulu Ntal Department of Health", "operator:type": "public"}}, {"type": "way", "id": 267970236, "center": {"lat": -28.9978252, "lon": 31.4757391}, "nodes": [2733548263, 2733548264, 2733548267, 2733548269, 2733548271, 11240675080, 11240675079, 2733548274, 2733548273, 2733548276, 2733548270, 2733548275, 2733548282, 2733548278, 2733548283, 11240675053, 2733548279, 2733548281, 2733548280, 2733548277, 2733548272, 2733548265, 2733548263], "tags": {"addr:city": "Amatikulu", "addr:postcode": "3801", "addr:street": "KwaKhoza Reserve", "amenity": "hospital", "barrier": "fence", "emergency": "yes", "fax": "(0) 35 474 7694", "healthcare": "hospital", "healthcare:speciality": "art_\u2013adults_&_paediatrics;crisis_centre_and_forensic;dental_service_(new);diagnostic_imaging_service;dietetics;eye_clinic;family_planning;general_out_patients;laboratory;maternal_and_child_care;medical_and_surgical_in_patient;mortuary_department;occupatio", "name": "Catherine Booth Hospital", "operator": "Kzn Department Of Health", "operator:type": "government", "phone": "(0)35 474 8407"}}, {"type": "way", "id": 267992828, "center": {"lat": -29.3897132, "lon": 30.8430538}, "nodes": [2733702324, 2733702328, 2733702331, 2733702340, 2733702338, 2733702344, 2733702343, 2733702336, 2733702334, 2733702329, 2733702324], "tags": {"addr:city": "Ozwathini", "addr:postcode": "3242", "addr:street": "R614 Wartburg Road", "amenity": "hospital", "contact:fax": "+27 (0) 32 294 0126", "contact:phone": "+27 (0) 32 294 8000", "contact:website": "http://www.kznhealth.gov.za/appelsboschhospital.htm", "email": "thami.mngadi@kznhealth.gov.za", "emergency": "yes", "healthcare": "hospital", "healthcare:speciality": "arv_clinic;audiology;dental_services;casualty_department_(24_hours);dietetics;gateway_clinic;general_medical;general_surgical;laboratory;maternity;medical_laboratory_services;out_patient_department;paediatric_ward;pharmacy;physiotherapy;occupational_thera", "name": "Appelbosch Hospital", "operator": "KZN Department of Health", "operator:type": "public"}}, {"type": "way", "id": 267992829, "center": {"lat": -27.8934415, "lon": 31.6398498}, "nodes": [2733702195, 2733702201, 2733702206, 2733702211, 2733702213, 2733702223, 2733702221, 10117436262, 2733702219, 2733702217, 2733702215, 2733702209, 2733702204, 2733702199, 2733702197, 2733702191, 2733702195], "tags": {"addr:city": "Nongoma", "addr:street": "Main Road", "amenity": "hospital", "contact:phone": "+27(0) 35 831 7000", "contact:website": "http://kznhealth.gov.za/benedictinehospital.htm", "email": "Thembekile.Zulu@kznhealth.gov.za", "emergency": "yes", "fax": "+27 (0) 35 35 831 0740", "healthcare": "hospital", "healthcare:speciality": "casualty_dept/trauma;crisis_center;dental_facilities;dentistry_services;dietetics_services;eye_services;family_planning_services;general_medical;general_surgical;high_care;intensive_care;maternity;neonatal_&_pediatrics_services;occupational_health_&_safet", "name": "Benedictine Provincial Hospital", "opening_hours": "24/7", "operator": "KZN Department of Health", "operator:type": "government", "start_date": "1926", "wheelchair": "yes"}}, {"type": "way", "id": 267992830, "center": {"lat": -27.5735301, "lon": 32.0819094}, "nodes": [2733702188, 2733702186, 10117054326, 10117054327, 10117054328, 10117054325, 2733702150, 2733702174, 2733702177, 2733702179, 2733702184, 10117054318, 10117054317, 2733702188], "tags": {"addr:city": "Ubombo", "addr:postcode": "3970", "addr:street": "N2 North to Mkuze, left at T-junction", "amenity": "hospital", "contact:fax": "+27 (0) 35 5951007", "contact:phone": " +27 (0) 35 595 3100", "contact:website": "http://www.kznhealth.gov.za/bethesdahospital.htm", "emergency": "yes", "health_amenity:type": "emergency_department;x_ray", "healthcare": "hospital;laboratory;physiotherapist;rehabilitation", "healthcare:speciality": "emergency;occupational;orthopaedics;surgery", "insurance:health": "public", "name": "Bethesda Hospital", "opening_hours": "24/7", "operator": "KZN Department of Health", "operator:type": "government"}}, {"type": "way", "id": 267992831, "center": {"lat": -27.9965777, "lon": 31.3757685}, "nodes": [2733702256, 2733702252, 2733702250, 2733702242, 2733702240, 2733702238, 2733702233, 2733702229, 2733702225, 2733702231, 2733702235, 2733702245, 2733702247, 2733702257, 2733702260, 2733702262, 2733702265, 2733702256], "tags": {"addr:city": "Echibini Area, Ceza", "addr:postcode": "3866", "addr:street": "Echibini Road", "amenity": "hospital", "beds": "214", "contact:fax": "+27 (0) 32 832 0027", "contact:phone": "+27 (0) 35 832 5000", "contact:website": "http://www.kznhealth.gov.za/cezahospital.htm", "email": "londiwe.dlamini2@kznhealth.gov.za", "emergency": "yes", "healthcare": "hospital", "healthcare:speciality": "medicine;surgery;dental_services;arv_clinic;obstetrics_&_gynaecology;paediatrics;outpatient;gateway_clinic;24hr_casualty;chronic_care;geriatrics;clinical_forensic_services;mental_health;occupational_health;eye_care;infection_control;rehabilitation_and_the", "name": "Ceza Provincial Hospital", "opening_hours": "24/7", "operator": "KZN Department of Health", "operator:type": "government"}}, {"type": "way", "id": 267992833, "center": {"lat": -28.211045, "lon": 30.6736785}, "nodes": [2733702286, 2733702281, 2733702277, 2733702272, 2733702267, 10120012743, 10120012742, 10120012806, 2733702274, 10120012808, 10120012809, 2733702279, 2733702283, 2733702286], "tags": {"addr:city": "Nquthu", "addr:housenumber": "Lot 92", "addr:street": "Hlubi Street", "amenity": "hospital", "beds": "385", "contact:fax": "+27 (0) 34 271 6400", "contact:phone": "+27 (0) 34 271 6400", "contact:website": "http://www.kznhealth.gov.za/cjmhospital.htm", "email": "sthabiso.ngwenya@kznhealth.gov.za", "emergency": "yes", "healthcare": "hospital", "healthcare:speciality": "casualty;trauma_&_out_patients;crisis_centre;dental;dietician;general_medical;general_surgical;geriatric_and_chronic_clinic;infectious_cases;maternity;medical_laboratory;neonatal_and_paediatric;obstetric_and_gynaecology;occupational_health;orthopaedics;ph", "name": "Charles Johnson Memorial Hospital", "opening_hours": "24/7", "operator": "KZN Department of Health", "operator:type": "government", "website": "www.kznhealth.gov.za/cjmhospital.htm", "wheelchair": "yes"}}, {"type": "way", "id": 267992835, "center": {"lat": -28.7466056, "lon": 30.4506679}, "nodes": [2733702305, 2733702311, 2733702309, 2733702322, 11181824595, 2733702319, 2733702316, 2733702314, 2733702306, 9998927432, 9998927476, 2733702297, 2733702290, 2733702294, 2733702296, 2733702300, 2733702302, 2733702305], "tags": {"addr:city": "Tugela Ferry", "addr:street": "Main Dundee Road", "amenity": "hospital", "contact:fax": "+27 (0) 33 493 1124", "contact:phone": "+27 (0) 33 493 1000", "contact:website": "http://www.kznhealth.gov.za/coshospital.htm", "email": "mahlang.nhlankanipho@kznhealth.gov.za", "emergency": "yes", "healthcare": "hospital", "healthcare:speciality": "aged_and_chronic_sick;casualty_dept/trauma;general_outpatients_department;dental_department_\u2013_scaling_and_polishing;extractions_and_fillings;general_medical;general_surgical;paediatrics;infectious_diseases;maternity;medical_laboratory_services;theatres;oc", "name": "Church of Scotland Hospital", "operator": "KwaZulu-Natal Department of Health", "operator:type": "government", "operator:wikidata": "Q116647976", "wheelchair": "yes"}}, {"type": "way", "id": 273908451, "center": {"lat": -23.8353386, "lon": 30.1646124}, "nodes": [2787084529, 2787084531, 2787084533, 2787084536, 2787084538, 2787084540, 2787084542, 2787084544, 2787084546, 9950203355, 2787084549, 2787084551, 9950203347, 9950203346, 2787084529], "tags": {"addr:city": "Tzaneen, Limpopo, South Africa", "addr:housenumber": "Medipark", "addr:postcode": "0850", "addr:street": "Third Avenue", "amenity": "hospital", "emergency": "yes", "fax": "+27 (0)15 307 3512", "healthcare": "hospital", "healthcare:speciality": "general;chronic;maternity", "name": "Van Velden Memorial Hospital", "operator": "Limpopo Health Department", "operator:type": "government", "phone": "+27 (0)15 307 8800"}}, {"type": "way", "id": 273908666, "center": {"lat": -23.823026, "lon": 30.1527443}, "nodes": [2787087465, 2787087466, 2787087467, 2787087468, 9209233518, 9209233519, 9209233520, 2787087469, 9209226677, 9209226678, 9209226679, 2787087465], "tags": {"addr:city": "Tzaneen", "addr:postcode": "0850", "addr:street": "Wolkberg Avenue R71", "amenity": "hospital", "contact:phone": "+27 15 306 8500", "emergency": "yes", "healthcare": "hospital", "healthcare:speciality": "general;pathology;radiology;renal_dialysis;neonatal", "name": "Mediclinic Tzaneen", "operator": "Mediclinic", "operator:type": "private"}}, {"type": "way", "id": 274555379, "center": {"lat": -21.6744912, "lon": 31.328004}, "nodes": [2792567204, 2792567206, 2792567208, 2792567210, 2792567212, 2792567214, 2792567221, 2792567204], "tags": {"amenity": "hospital", "name": "Chikombedzi Mission Hospital"}}, {"type": "way", "id": 274734024, "center": {"lat": -21.2534046, "lon": 31.8048167}, "nodes": [2794116341, 2794116342, 2794116343, 2794116344, 2794116345, 2794116346, 2794116341], "tags": {"amenity": "hospital", "name": "Rural Health Care Centre"}}, {"type": "way", "id": 275113724, "center": {"lat": -28.1741674, "lon": 30.2288012}, "nodes": [2797702746, 2797702745, 2797702743, 2797702742, 2797702740, 2797702741, 2797702739, 2797702738, 2797702744, 2797702747, 2797702746], "tags": {"addr:city": "Dundee,KwazuluNatal", "addr:housenumber": "121", "addr:postcode": "3000", "addr:street": "McKenzie Street", "amenity": "hospital", "contact:fax": "+27 (0) 34 212 3245", "contact:phone": "+27 (0) 34 212 1111", "contact:website": "http://www.kznhealth.gov.za/dundeehospital.htm", "email": "Sbonelo.Dube@kznhealth.gov.za", "emergency": "yes", "fax": "+27 (0) 34 212 3245", "healthcare": "hospital", "healthcare:speciality": "casualty_dept/trauma;general_medical;general_surgical;heliport/helipad;infectious_cases;maternity;medical_laboratory_services;theatres;orthopaedics;physiotherapy;x-ray;dental_clinic;eye_clinic;primary_health_care_services;family_planning_clinic;crisis_cen", "name": "Dundee Hospital", "operator": "KZN Department Of Health", "operator:type": "government", "phone": "+27 (0) 34 212 1111"}}, {"type": "way", "id": 275113728, "center": {"lat": -29.7863159, "lon": 30.9690807}, "nodes": [2797703423, 2797703420, 2797703419, 2797703416, 10782420606, 10174149363, 10782376695, 10782376693, 10782376692, 7492660369, 10782376694, 2797703411, 10782376696, 10782376698, 10782376697, 10782420607, 2797703412, 2797703413, 10782420605, 2797703417, 2797703421, 10782376691, 10782376690, 10782376688, 563759614, 10782376687, 10782376686, 10782376689, 2797703423], "tags": {"addr:city": "Newlands West, Kwazulu Natal", "addr:housenumber": "60", "addr:postcode": "4037", "addr:street": "Fosa Road", "amenity": "hospital", "barrier": "fence", "contact:fax": "+27 (0) 31 577 1265", "contact:phone": "+27 (0) 31 577 1215", "contact:website": "http://www.kznhealth.gov.za/fosahospital.htm", "healthcare": "hospital", "healthcare:speciality": "tb_treatment", "name": "FOSA TB Hospital", "operator": "KwaZulu-Natal Department of Health", "operator:type": "public", "service_times": "24/7"}}, {"type": "way", "id": 275113729, "center": {"lat": -29.6124164, "lon": 30.3684278}, "nodes": [2797703401, 2797703402, 2797703399, 2797703400, 2797703398, 1335787499, 1335787634, 1335787421, 1335787989, 1335787704, 1335787541, 1335788183, 1335787456, 1335788151, 2797703401], "tags": {"addr:city": "Pietermaritzburg, Kwazulu Natal", "addr:housenumber": "1", "addr:postcode": "3200", "addr:street": "Devonshire Road", "amenity": "hospital", "beds": "450", "contact:fax": "+27 (0) 33 345 5730", "contact:phone": "+27 (0) 33 260 4300", "contact:website": "http://www.kznhealth.gov.za/fortnapierhospital.htm", "email": "spha.buthelezi@kznhealth.gov.za", "healthcare": "hospital", "name": "Fort Napier Hospital", "operator": "KZN Department Of Health", "operator:type": "government"}}, {"type": "way", "id": 275113731, "center": {"lat": -29.0665422, "lon": 30.5999355}, "nodes": [2797703392, 2797703390, 2797703391, 2797703393, 2797703397, 2797703396, 2797703394, 2797703395, 2797703392], "tags": {"addr:city": "Greytown", "addr:street": "Bell Street", "amenity": "hospital", "contact:fax": "+27 33 413 2809", "contact:phone": "+27 33 413 9400", "contact:website": "http://www.kznhealth.gov.za/greytownhospital.htm", "emergency": "yes", "healthcare": "hospital", "name": "Greytown Hospital", "opening_hours": "24/7", "operator": "government", "operator:type": "public"}}, {"type": "way", "id": 275113732, "center": {"lat": -29.7899825, "lon": 30.7610514}, "nodes": [2797703431, 2797703430, 2797703427, 2797703425, 2797703424, 2797703418, 2797703415, 2797703414, 2797703422, 2797703426, 2797703428, 2797703429, 2797703431], "tags": {"addr:city": "Hillcrest, Kwazulu Natal", "addr:housenumber": "50", "addr:postcode": "3650", "addr:street": "Hospital Road", "amenity": "hospital", "beds": "175", "contact:fax": "+27 (0) 31 765 3172", "contact:phone": "+27 (0) 31 765 1316", "contact:website": "http://www.kznhealth.gov.za/hillcresthospital.htm", "healthcare": "hospital", "healthcare:speciality": "chronic_care_nursing;occupational_therapy;rehabilitatin_and_chornic_medication_outpatient_clinic", "name": "Hillcrest Hospital", "operator": "Kwazulu Natal", "operator:type": "public"}}, {"type": "way", "id": 275113733, "center": {"lat": -28.1449869, "lon": 31.8812411}, "nodes": [2797702736, 2797702737, 2797702735, 2797702734, 2797702733, 2797702731, 2797702730, 2797702728, 2797702727, 2797702726, 2797702725, 2797702724, 2797702723, 2797702729, 2797702732, 2797702736], "tags": {"addr:city": "Hlabisa", "addr:housenumber": "60", "addr:postcode": "3997", "addr:street": "Saunders Street", "amenity": "hospital", "beds": "265", "contact:fax": "+27 (0) 35 838 1117", "contact:phone": "+27 (0) 35 838 8600", "contact:website": "http://www.kznhealth.gov.za/hlabisahospital.htm", "healthcare": "hospital", "healthcare:speciality": "chronic_disease_management;audiology;maternity;orthopaedics;speeach_theraphy;physiotherapy;x-ray;medial_laboratory", "name": "Hlabisa Hospital", "wikidata": "Q30279920"}}, {"type": "way", "id": 275113734, "center": {"lat": -27.2768974, "lon": 31.3461658}, "nodes": [2797702707, 2797702712, 2797702716, 2797702718, 2797702721, 2797702722, 2797702720, 2797702719, 2797702717, 2797702715, 2797702714, 2797702713, 2797702711, 2797702710, 2797702708, 2797702709, 2797702707], "tags": {"addr:city": "about 30 km past Pongola, Kwazulu Natal", "addr:postcode": "3170", "addr:street": "N2 north, about 30 km past Pongola, Kwazulu Natal", "amenity": "hospital", "contact:fax": "+27 (0) 34 413 2545", "contact:phone": "+27 (0) 34 413 4000", "contact:website": "http://www.kznhealth.gov.za/itshelejubahospital.htm", "emergency": "yes", "healthcare": "hospital", "healthcare:speciality": "pharmacy;dentistry;occupational_therapy;gynaecology;obstetrics;hast;genreal_surgical;mortuary_services;vct/pmtct", "name": "Itshelejuba Hospital", "operator": "KwaZulu Natal Department of Health", "operator:type": "public"}}, {"type": "way", "id": 275113735, "center": {"lat": -28.6303819, "lon": 31.3407735}, "nodes": [2797702767, 2797703370, 2797702760, 5121874924, 5121874923, 5121874922, 2797702753, 5121874921, 5121874820, 2797702752, 5121874411, 5121874819, 5121874818, 5121874817, 5121874816, 5121874815, 5121874814, 5121874813, 5121874812, 5121874811, 5121874810, 5121874809, 5121874808, 5121874807, 5121874806, 5121874805, 5121874804, 5121874803, 5121874802, 5121874801, 2797702767], "tags": {"addr:city": "Melmoth", "addr:postcode": "3835", "addr:street": "KwaMagwaza Road", "amenity": "hospital", "barrier": "wall", "beds": "147", "contact:fax": "+27 (0) 32 035 450 2286", "contact:phone": "+27 (0) 035 450 8200", "contact:website": "http://www.kznhealth.gov.za/KwaMagwazahospital.htm", "healthcare": "hospital", "healthcare:speciality": "general;clinical_psychology;dental;acute_&_chronic_care;child_&_women's_health;counselling;environmental_health;eye_care;orthopaedics;physiotherapy_and_occupational_therapy;psychiatry;surgical;x-ray_&_ultrasonography;social_work;primary_and_community_heal", "name": "KwaMagwaza Hospital", "operator": "KwaZulu Ntal Department of Health", "operator:type": "public"}}, {"type": "way", "id": 275962855, "center": {"lat": -29.8643939, "lon": 31.0424225}, "nodes": [2806107146, 2806107156, 2806107148, 2806107149, 2806107150, 2806107151, 2806107152, 2806107154, 2806107153, 10002153499, 2806107146], "tags": {"addr:city": "Durban", "addr:housenumber": "10", "addr:postcode": "4001", "addr:street": "Prince Street", "alt_name": "KZN Children's Hospital", "amenity": "hospital", "healthcare": "hospital", "healthcare:speciality": "paediatrics", "landuse": "healthcare", "name": "KwaZulu-Natal Children\u2019s Hospital", "phone": "+27 31 812 1400", "website": "https://kznchildrenshospital.org/"}}, {"type": "way", "id": 279501301, "center": {"lat": -22.1023657, "lon": 31.1449777}, "nodes": [2837268601, 2837268602, 2837268603, 2837268604, 2837268596, 2837268605, 2837268606, 2837268607, 2837268608, 2837268601], "tags": {"amenity": "hospital", "name": "Rural Health Care Centre"}}, {"type": "way", "id": 308003673, "center": {"lat": -20.0594989, "lon": 30.827386}, "nodes": [3132852576, 4293458612, 4293458610, 3132852577, 3132852578, 3132852579, 4293457588, 4293458139, 4293458124, 3132852580, 3132852581, 4293458234, 4293458296, 3132852582, 3132852583, 3132852576], "tags": {"amenity": "hospital", "healthcare": "hospital", "name": "Masvingo General Hospital"}}, {"type": "way", "id": 310949290, "center": {"lat": -20.3917251, "lon": 31.4391768}, "nodes": [3164496980, 3164496981, 3164496982, 3164496983, 3164496984, 3164496985, 3164496986, 3164496987, 3164496988, 3164496989, 3164496990, 3164496991, 3164496992, 3164496993, 3164496980], "tags": {"amenity": "hospital", "name": "St Antony's Hospital"}}, {"type": "way", "id": 342986340, "center": {"lat": -25.1087167, "lon": 30.4514585}, "nodes": [4107488452, 4107488455, 4107488446, 4107488447, 4107488449, 4107488452], "tags": {"addr:city": "Lydenburg", "addr:housenumber": "No 32", "addr:postcode": "1120", "addr:street": "Berg Street", "amenity": "hospital", "contact:phone": "+27 (0)13 235 2233", "emergency": "yes", "fax": "+27 (0)13 235 3381", "healthcare": "hospital", "healthcare:speciality": "maternity;medicine;surgery;general;paediatrics;psychiatry;eye_care;emergency;family_medicine_and_primary_health_care;primary_healthcare;hiv_and_aids;tuberculosis;chronic_illnesses", "name": "Lydenburg Hospital", "operator": "Mpumalanga Department Of Health", "operator:type": "public", "website": "http://www.mpuhealth.gov.za"}}, {"type": "way", "id": 352868093, "center": {"lat": -23.8864083, "lon": 35.4710549}, "nodes": [3586462179, 3586462180, 3586462181, 3586463297, 3586462182, 3586462179], "tags": {"amenity": "hospital", "name": "Hospital da Salela"}}, {"type": "way", "id": 353069287, "center": {"lat": -20.4530212, "lon": 32.7716574}, "nodes": [6482074136, 3588508562, 3588508559, 3588508552, 3588508551, 3588508547, 3588508545, 3588508544, 3588508543, 3588508564, 3588508566, 3588508590, 6482074136], "tags": {"alt_name": "Espungabera I", "amenity": "hospital", "fixme": "Centro de Saude?", "healthcare": "hospital", "name": "Posto de Saude de Cife", "source": "MSFsurvey", "source:date": "2017"}}, {"type": "way", "id": 365674994, "center": {"lat": -25.9675517, "lon": 32.4385358}, "nodes": [3696775792, 5919106979, 5919106978, 3696775724, 3696775806, 3696774495, 3696775654, 3696775849, 3696775667, 3696775761, 3696775792], "tags": {"addr:city": "Matola", "amenity": "hospital", "name": "Hospital Provincial da Matola"}}, {"type": "way", "id": 366652654, "center": {"lat": -25.9429383, "lon": 32.6110087}, "nodes": [3706413720, 3706413847, 3706413625, 11283903830, 8830436945, 8830436949, 3706413849, 3706413647, 3706413720], "tags": {"amenity": "hospital", "emergency": "yes", "healthcare": "hospital", "name": "Hospital Privado de Maputo", "wikidata": "Q6754247"}}, {"type": "way", "id": 366776914, "center": {"lat": -29.8652135, "lon": 30.2753226}, "nodes": [3707578388, 3707578307, 3707576782, 3707578246, 3707576778, 3707576806, 3707576805, 3707578382, 3707578399, 3707578396, 3707578395, 3707578388], "tags": {"addr:city": "Richmond,Durban", "addr:postcode": "3780", "addr:street": "Durban Road", "amenity": "hospital", "beds": "180", "email": "Hlanganani.Bhengu@kznhealth.gov", "emergency": "yes", "fax": "+27 (0) 33 212 3450", "healthcare": "hospital", "healthcare:speciality": "arv_literacy_classes_and_drugs;laboratory_services;medical;pharmacy;social_worker;tuberculosis;vct_(voluntary_counselling_and_testing)", "name": "Richmond Chest Hospital", "opening_hours": "24/7", "operator": "KZN Department Of Health", "operator:type": "government", "phone": "+27 (0) 33 212 2170", "source": "RSA CD:NGI Aerial", "wheelchair": "yes"}}, {"type": "way", "id": 367128292, "center": {"lat": -25.9149784, "lon": 32.6099379}, "nodes": [3710808552, 3710808553, 3710808554, 3710808555, 3710808556, 5592661880, 3710808552], "tags": {"amenity": "hospital", "name": "Centro de Saude Primeiro de Junho"}}, {"type": "way", "id": 367290254, "center": {"lat": -25.4087202, "lon": 32.8071508}, "nodes": [3712320717, 3712320718, 3712320719, 3712320720, 3712320721, 3712320722, 3712320723, 3712320717], "tags": {"amenity": "hospital", "name": "Centro de Sa\u00fade da Manhi\u00e7a"}}, {"type": "way", "id": 384686534, "center": {"lat": -27.3595326, "lon": 32.5360691}, "nodes": [3880421868, 3880421869, 3880421870, 3880421871, 3880421872, 3880421873, 3880421868], "tags": {"addr:city": "Kwazulu Natal", "addr:postcode": "3967", "addr:street": "Mseleni Reserve, Sibhayi", "amenity": "hospital", "healthcare": "hospital", "healthcare:speciality": "tb;hiv/aids;psychiatry;dental_clinic;obstetrics_and_gynae;orthopaedics;x_\u2013_ray/ultra_sound;pmtct;hip_replacement;laboratory_services", "name": "Mseleni Hospital", "operator": "KwaZulu NatalDepartment of Health", "operator:type": "public"}}, {"type": "way", "id": 390520071, "center": {"lat": -29.8442848, "lon": 30.9783926}, "nodes": [3936731430, 7298212995, 3936731431, 3936731432, 7298212994, 7298212993, 7298212992, 7298212989, 10903394009, 10903394010, 7298212988, 3936731433, 7298212987, 7298212986, 7298161084, 7298161082, 3936731436, 7298212999, 7298212997, 7298212996, 3936731430], "tags": {"amenity": "hospital", "emergency": "yes", "healthcare": "hospital", "healthcare:speciality": "general_surgeons;ent;nephrologist;neurologist;obstetrics_&_gynaecology;oncologist;ophthalmologist;orthopaedic_surgeons;paedriticians;physicians;plastic_surgeons;psychiatrist;pulmonologist;radiologists;rheumatologist;urologist", "name": "Ahmed Al-Kadi Private Hospital", "operator": "Islamic Medical Association of South Africa", "operator:type": "private", "phone": "+27 31 4923416", "wheelchair": "yes"}}, {"type": "way", "id": 391965944, "center": {"lat": -29.5406362, "lon": 30.2999775}, "nodes": [3952448968, 3952448969, 3952448970, 7262702138, 3952448971, 7262702137, 7262702151, 7262702136, 3952448972, 3952448973, 7262702135, 7262702134, 7262702133, 3952448974, 7262702132, 7262702131, 7262702130, 3952448975, 7262702129, 3952448976, 7262702157, 7262702158, 7262702128, 7262702127, 7262702159, 7262702126, 3952448977, 7262702125, 7262702161, 3952448978, 7262702160, 3952448979, 7262702150, 3952448980, 3952448981, 3952448982, 3952448983, 7262702149, 7262702147, 3952448984, 7262702146, 7262702145, 7262702148, 3952448985, 7262702144, 3952448986, 7262702143, 7262702142, 7262702141, 7262702156, 7262702155, 7262702154, 7262702140, 7262702152, 7262702153, 7262702139, 3952448968], "tags": {"addr:city": "Hilton", "addr:postcode": "3245", "addr:street": "Corner of Hilton Avenue & Monzali Drive", "amenity": "hospital", "contact:phone": "033 329 5600", "email": "support.hilton@lifehealthcare.co.za", "emergency": "yes", "healthcare": "hospital", "healthcare:speciality": "medical_&_surgical;paediatrics;intensive_care;neonatal_icu;endocrinology;endoscopic_surgery;gastroenterology;general_surgery;gynaecology;internal_medicine;nephrology;neurosurgery;obstetrics;ophthalmology;orthopaedic_surgery;pathology;radiology;renal_dialy", "name": "Life Hilton Private Hospital", "operator": "Life Health Care", "operator:type": "private", "wheelchair": "yes"}}, {"type": "way", "id": 392477936, "center": {"lat": -29.7281869, "lon": 30.990293}, "nodes": [3956954934, 3956954935, 3956954936, 3956954937, 3956954938, 3956954939, 3956954940, 3956954941, 3956954942, 3956954943, 3956954934], "tags": {"addr:city": "KwaMashu, Durban", "addr:housenumber": "310", "addr:postcode": "4360", "addr:street": "Bhejane Street", "amenity": "hospital", "beds": "500", "healthcare": "hospital", "healthcare:speciality": "ophthalmology;ear;nose_and_throat_(ent);dentistry;dermatology;urology;physiotherapy;dietetics;occupational_therapy;speech_therapy;audiology;clinical_psychology;social_work_services;pharmacy", "name": "Dr Pixley Ka Isaka Seme Memorial Hospital", "operator": "Kwazulu Natal Department of Health", "operator:type": "public"}}, {"type": "way", "id": 392672595, "center": {"lat": -27.1214754, "lon": 31.2081464}, "nodes": [3958624339, 3958624340, 3958624341, 3958624342, 3958624343, 3958624344, 3958624345, 3958624346, 3958624347, 3958624376, 3958624348, 3958624349, 3958624350, 3958624351, 3958624352, 3958624353, 3958624354, 3958624355, 3958624369, 3958624356, 3958624365, 3958624357, 3958624358, 3958624359, 3958624360, 3958624361, 3958624362, 3958624363, 3958624364, 3958624339], "tags": {"amenity": "hospital", "building:levels": "1", "healthcare": "hospital", "name": "Nhlangano Health Center"}}, {"type": "way", "id": 393402376, "center": {"lat": -26.331552, "lon": 31.1436141}, "nodes": [3966028893, 3966028894, 3966028895, 3966028896, 3966028897, 7442671059, 3966028898, 3966028899, 3966028900, 3966028901, 3966028884, 3966028885, 3966028886, 3966028887, 3966028902, 3966028903, 3966028904, 3966028905, 3966028893], "tags": {"amenity": "hospital", "healthcare": "hospital", "healthcare:speciality": "general", "name": "Mbabane Government Hospital", "operator": "Ministry of Health", "wikidata": "Q6799563"}}, {"type": "way", "id": 404385518, "center": {"lat": -29.7177663, "lon": 31.0289721}, "nodes": [4066633296, 4066633297, 4066633298, 4066633299, 4066633300, 4066633301, 4066633302, 4066633303, 4066633304, 4066633305, 4066633296], "tags": {"addr:city": "Phoenix, Kwazulu Natal", "addr:housenumber": "100", "addr:street": "Phoenix Highway", "amenity": "hospital", "beds": "350", "healthcare": "hospital", "healthcare:speciality": "obstetrics_and_gynaecology;family_planning_clinic;dietetics_department;neo_\u2013_natal_high_care;physiotherapy;x_ray_service_\u2013_telemedicine_linked_to_ultra_sound;hiv/aids_counselling;operating_theatre;social_work_dept.;pharmacy;inpatients_wards;outpatients_de", "name": "Mahatma Gandhi Memorial Hospital", "operator": "Kwazulu Natal Department of health", "operator:type": "public", "phone": "+27 (0) 31 502 1719", "website": "https://www.kznhealth.gov.za/mahatmagandhihospital.htm"}}, {"type": "way", "id": 418656867, "center": {"lat": -26.9838256, "lon": 32.7550665}, "nodes": [4190202873, 4190202874, 4190202875, 4190202876, 4190202877, 4190202878, 4190202879, 4190202880, 4190202881, 4190202882, 4190202883, 4190202884, 4190202885, 4190202886, 4190202887, 4190202888, 4190202873], "tags": {"addr:city": "Manguzi Town, Kwa-Ngwanase (Kosi Bay)", "addr:street": "Off main road, Ithala Centre", "amenity": "hospital", "emergency": "yes", "fax": "+27 (0) 35 592 0158", "healthcare": "hospital", "healthcare:speciality": "aged_and_chronic_sick;audiology;casualty_department/trauma;child_health_services_including_immunizations;dietetic_services;eye_care_services-_optometry_once_per_month;forensic_services;general_medical;general_outpatient_department;general_surgical;hiv_cou", "name": "Manguzi Hospital", "operator": "Kzn Deaprtment Of Health", "operator:type": "public", "phone": "+27 (0) 35 592 0150"}}, {"type": "way", "id": 418656897, "center": {"lat": -27.3267763, "lon": 32.5570637}, "nodes": [9742408580, 4190224425, 9742423687, 4190224426, 9798397624, 4190224427, 9742423698, 4190224428, 9798397626, 4190224429, 3880397093, 4190224430, 4190224431, 9798397625, 4190224432, 9742408581, 9742408580], "tags": {"amenity": "hospital", "contact:phone": "+27 (0) 35 574 1004", "email": "PRO@kznhealth.gov.za", "emergency": "yes", "fax": "+27 (0) 35 574 1559", "healthcare": "hospital", "healthcare:speciality": "art;communicable_diseases;dental_clinic;family_planning;hct;hip_replacement;laboratory_services;mcwhc_services;medical;mobile_clinics;mortuary;nursing_training;obstetrics_and_gynae;occupational_therapy;opd_\u2013_medical;paediatrics;surgical;casualty_and_traum", "name": "Mseleni Hospital", "operator": "Kzn Department Of Health", "operator:type": "public", "wheelchair": "yes"}}, {"type": "way", "id": 426803880, "center": {"lat": -29.4399931, "lon": 30.8071452}, "nodes": [4260725302, 4260725318, 4260725330, 4260725335, 4260725337, 4260725345, 4260725354, 4260725374, 4260725370, 4260725367, 4260725361, 4260725353, 4260726323, 4260726817, 4260726819, 4260726828, 4260726770, 4260726772, 4260726774, 4260726702, 4260726693, 4260726694, 4260726696, 4260726374, 4260726347, 4260726348, 4260726290, 4260726289, 4260726065, 4260726064, 4260726047, 4260725726, 4260725716, 4260725302], "tags": {"addr:city": "Dalton", "addr:housenumber": "P614", "addr:postcode": "3236", "addr:street": "Noordsberg Road", "amenity": "hospital", "email": "sinothando.mthembu@kznhealth.gov.za", "emergency": "yes", "fax": "+27 (0) 33 506 0102", "healthcare": "hospital", "healthcare:speciality": "trauma_and_emergency_\u2013_24_hour_service;internal_medicine;surgery;orthopaedics_and_mental_health;obstetrics_and_gynaecology_(o_&_g);paediatrics_and_neonatology;dental_/_oral_health_services;pharmacy_services;medical_social_work;dietetics;speech_therapy;phy", "name": "Montebello Provincial Hospital", "opening_hours": "24/7", "operator": "KZN Department Of Health", "operator:type": "government", "phone": "+27 (0) 33 506 7000", "start_date": "1950"}}, {"type": "way", "id": 428869809, "center": {"lat": -29.6902856, "lon": 30.9966141}, "nodes": [4279882065, 4279882066, 4279882067, 4279882068, 4279882065], "tags": {"addr:city": "Phoenix", "addr:housenumber": "315", "addr:postcode": "4068", "addr:street": "Lenhan Drive", "amenity": "hospital", "contact:phone": "+27 31 508 0700;+27 31 508 0702", "healthcare": "hospital", "healthcare:speciality": "nursing_and_medical_services;occupational_therapy;physiotherapy;psychology;social_work;speech_therapy_and_audiology", "name": "Phoenix Assessment & Therapy Centre", "operator": "Kwazulu Natal department of Health", "operator:type": "public"}}, {"type": "way", "id": 429714741, "center": {"lat": -26.4684485, "lon": 31.9608962}, "nodes": [4288820010, 4288820011, 4288820012, 4288820013, 4288820010], "tags": {"amenity": "hospital", "building": "hospital", "healthcare": "hospital", "name": "Good Shepherd Hospital"}}, {"type": "way", "id": 429850201, "center": {"lat": -25.7302823, "lon": 32.673149}, "nodes": [4290495803, 4290495804, 4290495805, 4290495806, 4290495807, 4290495808, 4290501970, 4290495809, 4290495810, 4290495811, 4290495812, 4290495813, 4290495814, 4290495815, 4290495816, 4290495803], "tags": {"amenity": "hospital", "healthcare": "hospital", "name": "Centro de Saude de Marracuene"}}, {"type": "way", "id": 429850646, "center": {"lat": -25.7312408, "lon": 32.6732974}, "nodes": [4290499657, 4290499658, 4290499659, 4290499660, 4290499661, 4290499662, 4290501969, 4290499663, 4290499664, 4290499657], "tags": {"amenity": "hospital", "healthcare": "hospital", "name": "Centro de Saude de Marracuene"}}, {"type": "way", "id": 429850788, "center": {"lat": -25.7308382, "lon": 32.6729891}, "nodes": [4290495808, 4290499660, 4290501969, 4290501970, 4290495808], "tags": {"amenity": "hospital", "healthcare": "hospital", "name": "Centro de Saude de Marracuene"}}, {"type": "way", "id": 429851700, "center": {"lat": -25.7305158, "lon": 32.67179}, "nodes": [4290504596, 4290504597, 4290504598, 4290504599, 4290504596], "tags": {"amenity": "hospital", "healthcare": "hospital", "name": "Hospital Housing"}}, {"type": "way", "id": 436673436, "center": {"lat": -29.8215186, "lon": 30.9884465}, "nodes": [4345522287, 4345522288, 4345522289, 4345522290, 4345522291, 4345522292, 7227649042, 4345522293, 4345522294, 4345522295, 4345522296, 4345522297, 4345522298, 4345522299, 4345522300, 4345522301, 4345522302, 4345522303, 4345522304, 4345522305, 4345522306, 4345522307, 4345522308, 4345522309, 4345522310, 4345522311, 4345522312, 4345522313, 4345522314, 4345522315, 4345522316, 4345522317, 4345522318, 4345522319, 4345522320, 4345522287], "tags": {"addr:city": "Sydenham Durban", "addr:street": "Corner of Dr R D Naidoo drive and Viola Road", "alt_name": "King George V hospital", "amenity": "hospital", "healthcare": "hospital", "healthcare:speciality": "multi_drug_resistant_(mdr)_and_complicated_tb;orthopaedic_spinal_surgery;psychiatric;family_planning_(sterilization)", "name": "King Dinuzulu Hospital", "operator": "KwaZulu-Natal Department of Health", "operator:type": "government", "operator:wikidata": "Q116647976", "phone": "+2731 242 6000", "website": "https://www.kznhealth.gov.za/kingdinuzuluhospital.htm"}}, {"type": "way", "id": 441288793, "center": {"lat": -29.9545777, "lon": 30.9349091}, "nodes": [4390509662, 10590368208, 10654456630, 4390509663, 4390509664, 4390509665, 4390509666, 4390509667, 10172658091, 4390509668, 4390509669, 4390509670, 4390509671, 4390509672, 4390509673, 10246179886, 4390509674, 4390509675, 4390509676, 4390509677, 4390509678, 4390509679, 4390509680, 4390509681, 4390509682, 4390509683, 4390509684, 4390509685, 4390509686, 4390509687, 4390509688, 4390510389, 4390510390, 4390510391, 4390510392, 10654456629, 10654456628, 4390509662], "tags": {"addr:city": "Umlazi", "addr:street": "Mshiyeni Road", "amenity": "hospital", "beds": "1075", "email": "maxwell.mbanjwa@kznhealth.gov.za", "emergency": "yes", "fax": "+27 (0) 31 907 3334", "healthcare": "hospital", "healthcare:speciality": "general_medical;general_surgical;heliport/helipad;high_care;infectious_cases;intensive_care;maternity;medical_laboratory_services;neo-natal_intensive_care;obstetric_and_gynaecological_services", "name": "Prince Mshiyeni Memorial Hospital", "phone": "+27 (0) 31 907 8111", "wheelchair": "yes"}}, {"type": "way", "id": 452219860, "center": {"lat": -28.610697, "lon": 30.4071751}, "nodes": [4490077513, 4490077512, 4490077511, 4490077509, 4490077510, 4490077513], "tags": {"amenity": "hospital", "healthcare": "hospital"}}, {"type": "way", "id": 457924093, "center": {"lat": -24.7143315, "lon": 34.7474682}, "nodes": [4539840822, 4539840823, 4539840824, 5083334875, 4539840825, 4539840826, 5083334876, 4539840827, 4539840828, 4539840829, 4539840830, 4539840822], "tags": {"amenity": "hospital", "name": "Hospital Distrital de Quissico"}}, {"type": "way", "id": 458295835, "center": {"lat": -25.8971084, "lon": 32.5702552}, "nodes": [4538971190, 4543256123, 4543256124, 4543256125, 4538971190], "tags": {"amenity": "hospital", "name": "Centro de Saude de Bagamoyo"}}, {"type": "way", "id": 458300526, "center": {"lat": -25.8599209, "lon": 32.5659137}, "nodes": [4543292062, 4543292063, 4543292064, 4543292065, 4543292066, 4543292067, 4543292062], "tags": {"amenity": "hospital", "name": "Hospital de Infulene"}}, {"type": "way", "id": 461210947, "center": {"lat": -25.6864238, "lon": 31.493803}, "nodes": [4567474148, 4567474149, 4567474150, 4567474151, 4567474152, 4567474153, 4567474154, 4567474155, 4567474156, 4567474157, 4567474158, 4567474159, 4567474148], "tags": {"addr:city": "schoemansdal", "addr:housenumber": "kamatsamo shongwe mission hospital", "addr:postcode": "1331", "addr:street": "Jeppies rief road", "amenity": "hospital", "contact:phone": "+27 13 781 3000", "emergency": "yes", "fax": "+27 (0)13 781 3012", "healthcare": "hospital", "healthcare:speciality": "maternity;paediatrics;gynaecology;emergency;general;oncology;radiology", "name": "Shongwe Hospital", "operator": "Mpumalanga Department Of Health", "operator:type": "public"}}, {"type": "way", "id": 468966258, "center": {"lat": -25.6968419, "lon": 30.0449063}, "nodes": [4634037362, 4634037363, 4634037364, 4634037365, 4634037366, 4634037362], "tags": {"addr:city": "Belfast, Mpumalanga", "addr:postcode": "1100", "addr:street": "Corner Duggan and Vermooten Street", "amenity": "hospital", "emergency": "yes", "fax": "+27 (0)13 253 0040", "healthcare": "hospital", "healthcare:speciality": "general;maternity;chronic", "name": "H.A. Grove Hospital", "operator": "Mpumalanga Department of Health", "operator:type": "government", "phone": "27 (0)13 253 118", "wheelchair": "yes"}}, {"type": "way", "id": 470129625, "center": {"lat": -25.9592405, "lon": 32.5959953}, "nodes": [1286837917, 4643631101, 4643631102, 4643631100, 4643631098, 4643631096, 4643631090, 4643631093, 4643631091, 4643631097, 1286837917], "tags": {"addr:housenumber": "32", "addr:street": "Rua Frente de Liberta\u00e7\u00e3o", "amenity": "hospital", "building": "hospital", "emergency": "yes", "name": "Sommerschield Clinic", "name:en": "Sommerschield Clinic", "name:zh": "Sommerschield \u8bca\u6240", "opening_hours": "24/7", "phone": "823056240 21493924 21493925 21493926"}}, {"type": "way", "id": 475557816, "center": {"lat": -24.6164303, "lon": 30.1716687}, "nodes": [4692985808, 4692985809, 4692985810, 4692985811, 4692985812, 4692985813, 4692985814, 4692985815, 4692985816, 4692985817, 4692985818, 4692985808], "tags": {"addr:city": "Gowe Village,Driekop", "addr:street": "Cnr R37 & Modikwa Road", "amenity": "hospital", "emergency": "yes", "healthcare": "hospital", "healthcare:speciality": "general;chronic;maternity", "name": "Dilokong Hospital", "opening_hours": "24/7", "operator": "Limpopo", "operator:type": "government", "phone": "+27 13 214 7265", "website": "http://http://dilokonghospital.yellowleads.co.za"}}, {"type": "way", "id": 475877685, "center": {"lat": -22.8988869, "lon": 30.1954153}, "nodes": [4695618952, 4695618953, 4695618954, 4695618955, 4695618956, 4695618957, 4695618958, 4695618959, 4695618952], "tags": {"addr:city": "Makhado Local Municipality", "addr:postcode": "0920", "addr:street": "Venda Sun Road", "amenity": "hospital", "contact:phone": "+27 159730004", "email": "info@sadoctors.co.za", "emergency": "yes", "healthcare": "hospital", "healthcare:speciality": "maternity;general", "name": "Siloam Hospital", "operator": "Siloam Hospital", "operator:type": "private"}}, {"type": "way", "id": 476903672, "center": {"lat": -23.9262497, "lon": 31.0382399}, "nodes": [4703268416, 4703268417, 4703268418, 4703268419, 4703268420, 4703268421, 4703268422, 4703268423, 4703268424, 4703268416], "tags": {"addr:city": "Namakgale, Phalaborwa", "addr:postcode": "1391", "addr:street": "Maphutha Malatji Street", "amenity": "hospital", "email": "rebecca.peta@dhsd.limpopo.gov.za", "emergency": "yes", "fax": "+27 (0)15 769 3531", "healthcare": "hospital", "healthcare:speciality": "general;maternity;chronic", "name": "Maphutha Malatji Hospital", "operator": "Limpopo Department Of Health", "operator:type": "government", "phone": "+27 (0)15 769 1520 / 4", "wheelchair": "limited"}}, {"type": "way", "id": 483630294, "center": {"lat": -28.224286, "lon": 31.4769595}, "nodes": [4763738311, 4763738310, 4763738309, 4763738308, 4763738311], "tags": {"addr:city": "Ulundi", "addr:street": "King Dinizulu Highway", "amenity": "hospital", "beds": "79", "email": "phumzile.msane@kznhealth.gov.za", "emergency": "yes", "healthcare": "hospital", "healthcare:speciality": "community_health_workers_programme;out_patients_services;social_welfare_services;rehabilitation_services_for_the_disabled;pharmaceutical_services;counselling_services;maternal_child_and_women's_health;geriatric_services_and_chronics;primary_health_care_se", "name": "ST. FRANCIS HOSPITAL - MAHLABATHINI", "operator": "KwaZulu-Natal Department of Health", "operator:type": "government", "phone": "+27 35 873 0203/4/5", "website": "http://www.kznhealth.gov.za/stfrancishospital.htm"}}, {"type": "way", "id": 485744005, "center": {"lat": -28.226934, "lon": 31.4161125}, "nodes": [4785140459, 4785140458, 4785140457, 6960635182, 6960635181, 6960635180, 4785140456, 4785140455, 4785140454, 4785140453, 4785140452, 4785140451, 4785140450, 4785140449, 4785140448, 4785140459], "tags": {"amenity": "hospital", "email": "pro.nkonjenihospital@kznhealth.gov.za", "emergency": "yes", "fax": "+27 (0) 35 873 0031", "healthcare": "hospital", "healthcare:speciality": "general;chronic;maternity", "name": "Nkonjeni Provincial Hospital", "operator": "KZN Department of Health", "operator:type": "government", "phone": "+27 35 873 0013", "website": "http://www.kznhealth.gov.za/nkonjenihospital.htm"}}, {"type": "way", "id": 500030935, "center": {"lat": -25.9142358, "lon": 32.5315617}, "nodes": [4911930854, 4911930853, 4911930852, 4911930851, 4911930850, 4911930849, 4911930848, 4911930847, 4847491373, 4911930845, 4911930854], "tags": {"amenity": "hospital", "name": "Hospital Geral da Machava"}}, {"type": "way", "id": 506146797, "center": {"lat": -23.874195, "lon": 30.2664899}, "nodes": [4959240279, 4959240280, 4959240281, 4959240282, 4959240283, 4959240284, 4959240285, 4959240286, 4959240287, 4959240288, 4959240289, 4959240290, 4959240291, 4959240292, 4959240293, 4959240300, 4959240301, 4959240299, 4959240298, 4959240297, 4959240296, 4959240295, 4959240294, 4959240279], "tags": {"addr:city": "Tzaneen", "addr:housenumber": "letaba hospital", "addr:street": "Lydenburg Road", "amenity": "hospital", "contact:phone": "+27(0)15 303 8200", "emergency": "yes", "fax": "+27(0)15 303 0207", "healthcare": "hospital", "healthcare:speciality": "clinical_psycholog;oral_health;nursing;forensic_pathology_services;paediatrics;general;maternity;pharmacy", "name": "Letaba Hospital", "operator": "Limpopo Department of Health", "operator:type": "public"}}, {"type": "way", "id": 518247731, "center": {"lat": -28.8970587, "lon": 31.0805609}, "nodes": [5055739990, 5055739989, 5055739988, 5055739987, 5055739986, 5055739985, 5055739984, 5055739983, 5055739982, 5055739990], "tags": {"addr:city": "Eshowe, uMlalazi", "amenity": "hospital", "barrier": "fence", "emergency": "yes", "healthcare": "hospital", "healthcare:speciality": "general;maternity;chronic", "name": "Mathungela Clinic", "operator": "KZN Department Of Health", "operator:type": "public", "phone": "+27 35 476 1008"}}, {"type": "way", "id": 529481967, "center": {"lat": -27.7715899, "lon": 30.7753949}, "nodes": [5143262081, 5143262080, 5143262079, 5143262078, 5143262077, 5143262076, 5143262075, 5143262081], "tags": {"addr:city": "Vryheid,KwazuluNatal", "addr:housenumber": "25", "addr:postcode": "3100", "addr:street": "Utrecht Street", "amenity": "hospital", "email": "admin@abaqulusiph.co.za", "emergency": "yes", "healthcare": "hospital", "healthcare:speciality": "24-hour_accident_and_emergency;medical;surgical;paediatrics;maternity;adult_icu_and_high_care;radiology;pathology;retail_pharmacy;coffee_shop", "name": "AbaQulusi Private Hospital", "opening_hours": "24/7", "phone": "+27 (0)34 981 1000", "wheelchair": "yes"}}, {"type": "way", "id": 532996153, "center": {"lat": -25.7250507, "lon": 32.654549}, "nodes": [5171670719, 5171670720, 5171670721, 5171670722, 5171670719], "tags": {"amenity": "hospital", "healthcare": "hospital", "name": "Firefly Hospital"}}, {"type": "way", "id": 544468714, "center": {"lat": -26.8539748, "lon": 32.0425868}, "nodes": [5263199927, 5263199926, 5263199925, 5263199924, 5263199923, 5263199915, 5263199922, 5263199921, 5263199920, 5263199919, 5263199918, 5263199917, 5263199916, 5263199927], "tags": {"amenity": "hospital", "barrier": "fence", "contact:phone": "035 591 0627", "emergency": "yes", "healthcare": "hospital", "healthcare:speciality": "general;maternity", "name": "Ekuhlehleni Clinic", "operator": "Kzn Department Of Health", "operator:type": "public"}}, {"type": "way", "id": 544551568, "center": {"lat": -26.9321396, "lon": 32.7183889}, "nodes": [5263822492, 5263822491, 5263822490, 5263822489, 5263822488, 5263822484, 5263822487, 5263822486, 5263822485, 5263822492], "tags": {"addr:city": "Kwa Ngwanase - Kwazulu-Natal", "addr:housenumber": "257", "addr:postcode": "3973", "addr:street": "Manguzi Road", "amenity": "hospital", "barrier": "fence", "contact:phone": "+27 35 592 9100;+27 72 140 2420", "emergency": "yes", "healthcare": "hospital", "healthcare:speciality": "general;chronic;maternity", "name": "Mshudu Clinic", "operator": "Kwazulu Natal Department of Health", "operator:type": "public"}}, {"type": "way", "id": 544849289, "center": {"lat": -29.8381947, "lon": 30.9971974}, "nodes": [5266421651, 5266421644, 6814263578, 6814263579, 6814263580, 6814277739, 6814263581, 10941953882, 6814263584, 5266421651], "tags": {"amenity": "hospital", "healthcare": "hospital"}}, {"type": "way", "id": 544962346, "center": {"lat": -27.0201656, "lon": 32.691029}, "nodes": [5267496588, 5267496587, 5267496586, 5267496576, 5267496585, 5267496588], "tags": {"addr:city": "Richards Bay", "addr:housenumber": "P522", "addr:postcode": "3973", "amenity": "hospital", "barrier": "fence", "contact:phone": "+27 35 592 0158", "emergency": "yes", "healthcare": "hospital", "healthcare:speciality": "maternity", "name": "Thengane Clinic", "operator": "medical clinics", "operator:type": "public"}}, {"type": "way", "id": 547096611, "center": {"lat": -20.023757, "lon": 31.686476}, "nodes": [5286297990, 5281880923, 5286297989, 5286297988, 5286297987, 5286297986, 5286297985, 5286297984, 5286297990], "tags": {"amenity": "hospital", "healthcare": "hospital", "name": "Silveire Mission Hospital", "name:en": "Silveire Mission Hospital"}}, {"type": "way", "id": 547096617, "center": {"lat": -20.0237807, "lon": 31.6865838}, "nodes": [5286297996, 5286297995, 5286298006, 5286298005, 5286297994, 5286298004, 5286297997, 5286297996], "tags": {"amenity": "hospital", "healthcare": "hospital"}}, {"type": "way", "id": 547096618, "center": {"lat": -20.0237684, "lon": 31.686765}, "nodes": [5286298010, 5286298009, 5286298008, 5286298007, 5286298010], "tags": {"amenity": "hospital", "healthcare": "hospital"}}, {"type": "way", "id": 547096619, "center": {"lat": -20.0237536, "lon": 31.6869269}, "nodes": [5286298014, 5286298011, 5286298012, 5286298013, 5286298014], "tags": {"amenity": "hospital", "healthcare": "hospital"}}, {"type": "way", "id": 547096621, "center": {"lat": -20.0234921, "lon": 31.6867626}, "nodes": [5286298622, 5286298621, 5286298020, 9481407161, 5286298019, 5286298622], "tags": {"amenity": "hospital", "healthcare": "hospital"}}, {"type": "way", "id": 555009559, "center": {"lat": -27.7668833, "lon": 30.0517045}, "nodes": [5355689776, 5355689777, 5355689778, 5355689779, 5355689780, 5355689781, 5355689782, 5355689783, 5355689784, 5355689776], "tags": {"addr:city": "Madadeni.New Castle", "addr:postcode": "2951", "addr:street": "Section 5", "amenity": "hospital", "beds": "1620", "emergency": "yes", "healthcare": "hospital", "healthcare:speciality": "maternity;general;emergency;chronic", "name": "Madadeni Provincial Hospital", "operator": "government", "operator:type": "public", "phone": "+27 34 328 8000"}}, {"type": "way", "id": 560559754, "center": {"lat": -22.2524065, "lon": 35.111886}, "nodes": [5405928907, 5405928908, 5405928909, 5405928910, 5405928911, 5405928912, 5405928907], "tags": {"amenity": "hospital", "healthcare": "hospital"}}, {"type": "way", "id": 565747206, "center": {"lat": -29.8515581, "lon": 30.9328998}, "nodes": [5447834407, 5447834406, 7371528799, 5447834405, 5447834404, 5447836660, 7371501878, 5447836661, 5447836662, 7371501884, 5447836663, 5447836664, 7371528785, 5447836665, 7371528788, 7371528786, 7371528787, 7371528789, 7371528791, 7371528790, 7371528792, 277358674, 5447836666, 7371528793, 7371528794, 7371528795, 5447836667, 7371528798, 7371528797, 5447836668, 5447836669, 5447836670, 5447836671, 7371501882, 7371528796, 7371501880, 5447836672, 7371501881, 5447834368, 5447834410, 7371501879, 5447834409, 5447834408, 5447834407], "tags": {"addr:city": "Westville", "addr:housenumber": "7", "addr:postcode": "3630", "addr:street": "Spine Road", "amenity": "hospital", "contact:phone": "+27 31 251 6911", "fax": "031 265 0952", "healthcare": "hospital", "healthcare:speciality": "bone_densitometry;cardiac_rehabilitation;cardiology;cardiothoracic_surgery;dentistry;dermatology;endoscopic;ent_surgery;ophthalmology;paedetrics;pathology;oncology;psychiatry;pulmonology;urology;neurology;neonatalogy;gynaecology;obstetrics;rheumalogy", "name": "Life Westville Hospital", "operator": "Life Health Care", "operator:type": "public"}}, {"type": "way", "id": 578519829, "center": {"lat": -27.9893384, "lon": 30.7255785}, "nodes": [5542870688, 5542870689, 5542870690, 5542870691, 5542870688], "tags": {"addr:city": "Vryheid", "amenity": "hospital", "healthcare": "clinic", "healthcare:speciality": "maternity;chronic", "name": "Mondlo clinic", "operator": "KZN Department Of Health", "operator:type": "government", "phone": "+27 34 933 1135"}}, {"type": "way", "id": 592177816, "center": {"lat": -20.3159445, "lon": 30.5075284}, "nodes": [5652371780, 5652371779, 5652371778, 5652371777, 5652371776, 5651792421, 5652371775, 5652371774, 5652371773, 5652371772, 5652371771, 5652371770, 5652371769, 5652371768, 5652371767, 5652371766, 5652371765, 5652371764, 5652371763, 5652371762, 5652371780], "tags": {"amenity": "hospital", "name": "Chivi District Hospital"}}, {"type": "way", "id": 592184957, "center": {"lat": -20.7509119, "lon": 30.4867373}, "nodes": [5652444025, 5652444024, 5516924536, 5652443998, 5652443997, 5651791724, 5652444008, 5652444007, 5652444006, 5652444005, 5652444025], "tags": {"amenity": "hospital", "name": "Matibi Mission Hospital"}}, {"type": "way", "id": 592800097, "center": {"lat": -21.0366119, "lon": 31.6728584}, "nodes": [5656786463, 5656786462, 5656786461, 5656786460, 5656786459, 5656786458, 5380973123, 5656786946, 5656786945, 5656786944, 5656786943, 5656786942, 5656786941, 5656786463], "tags": {"amenity": "hospital", "name": "Chiredzi General Hospital"}}, {"type": "way", "id": 597888151, "center": {"lat": -20.4609984, "lon": 30.4312947}, "nodes": [5680149324, 5691463271, 5691463270, 5691463269, 5680149324], "tags": {"amenity": "hospital", "name": "Davira", "name:en": "Davira"}}, {"type": "way", "id": 597888172, "center": {"lat": -20.3999006, "lon": 30.3719348}, "nodes": [5691463321, 5680147926, 5691463020, 5691463019, 5691463321], "tags": {"amenity": "hospital", "name": "Masinire", "name:en": "Masinire"}}, {"type": "way", "id": 598397099, "center": {"lat": -21.5395483, "lon": 35.1885853}, "nodes": [1911162173, 5695353920, 5695355921, 5695355922, 5695355923, 5695355924, 5695355925, 5695355926, 5695355927, 5695355928, 5695355929, 5695355930, 5695355931, 5695355932, 5695355933, 5695355934, 5695355935, 5695355936, 5695355937, 5695355938, 1911162173], "tags": {"amenity": "hospital", "building": "yes", "healthcare": "hospital", "name": "Centro de Sa\u00fade - Inhassoro"}}, {"type": "way", "id": 609683003, "center": {"lat": -20.0489629, "lon": 30.2566535}, "nodes": [5774585638, 5774585626, 5774585632, 5774585633, 5774585629, 5770537753, 5774585635, 5774585634, 5774585636, 5774585637, 5774585638], "tags": {"amenity": "hospital", "name": "Vuranda Cliniv", "name:en": "Vuranda Cliniv"}}, {"type": "way", "id": 653335273, "center": {"lat": -27.7399629, "lon": 31.509807}, "nodes": [6123013939, 6123013938, 6123013937, 6123013936, 6123013929, 6123013935, 6123013934, 6123013933, 6123013932, 6123013931, 6123013930, 6123013939], "tags": {"addr:city": "E L C Dlomo Dlomo Farm, Louwsburg, Vryheid", "addr:postcode": "3100", "amenity": "hospital", "barrier": "fence", "contact:phone": "+27 34 907 5288", "healthcare": "hospital", "healthcare:speciality": "tb_treatment", "name": "Siloah Lutheran Mission TB Hospital", "operator": "Kwazulu Natal Department of health", "operator:type": "public"}}, {"type": "way", "id": 666778079, "center": {"lat": -28.7782814, "lon": 31.8660746}, "nodes": [6242918362, 6242918363, 6242918364, 6242918365, 6242918366, 6242918367, 6242918368, 6242918369, 6242918370, 6242918371, 6242918372, 6242918373, 6242918374, 6242918375, 6242918376, 6242918377, 6242918382, 6242918381, 6242918380, 6242918379, 6242918378, 6242918362], "tags": {"amenity": "hospital", "healthcare": "hospital"}}, {"type": "way", "id": 678093067, "center": {"lat": -20.1954386, "lon": 32.6245149}, "nodes": [7725486501, 7725486493, 9942735659, 7725486492, 7725470275, 7725486491, 7725486487, 7725470276, 6349135095, 6349135094, 6349135096, 7725486490, 7725486489, 7725486498, 7725486499, 7725486500, 7725486501], "tags": {"amenity": "hospital", "name": "Chipenge District Hospital"}}, {"type": "way", "id": 678363865, "center": {"lat": -20.3380632, "lon": 32.6994069}, "nodes": [6351860877, 6351860878, 6351860879, 6351860880, 6351860877], "tags": {"amenity": "hospital", "healthcare": "hospital"}}, {"type": "way", "id": 678991495, "center": {"lat": -29.8309231, "lon": 30.9850274}, "nodes": [6357643142, 6357643143, 6357645837, 6357643144, 6357645838, 6357643145, 7049921322, 448911408, 7489235865, 7489235864, 448911407, 6357643147, 6357643142], "tags": {"addr:city": "Sydenham, Berea", "addr:housenumber": "482", "addr:postcode": "4091", "addr:street": "Randles Road", "amenity": "hospital", "beds": "133", "emergency": "yes", "healthcare": "hospital", "name": "Lenmed Shifa Private Hospital", "operator": "Lenmed", "operator:type": "private", "phone": "+27 87 087 0641"}}, {"type": "way", "id": 688392327, "center": {"lat": -29.7779147, "lon": 30.995626}, "nodes": [6455100171, 7357411576, 7357411537, 7357411577, 7357411538, 7357411578, 7357411540, 7357411541, 7357411579, 7357411539, 7357411580, 7357411542, 7357411581, 7357411582, 7357411583, 7357411543, 6455100173, 7357411584, 1224666860, 7357411544, 7357431985, 7357431986, 7357432765, 7357431987, 7357411545, 7357431988, 7357431989, 7357411547, 7357431990, 7357411546, 7357431991, 7357411548, 7357431992, 7357431993, 7357411549, 7357431994, 7357431995, 7357411550, 7357411551, 7357431996, 7357411552, 7357411553, 7357431997, 7357411554, 7357431998, 7357411555, 7357411556, 7357431999, 7357411557, 7357432000, 7357432001, 7357432002, 7357411558, 7357432003, 7357411559, 7357432004, 7357432008, 7357411560, 7357411561, 7357411562, 7357432007, 7357432006, 7357432005, 7357432009, 7357432010, 7357432011, 7357411563, 7357432012, 7357411564, 7357432013, 7357411565, 7357411566, 7357432014, 7357432015, 7357411568, 7357411569, 7357411567, 7357432016, 7357411570, 7357411571, 7357411572, 7357411573, 7357411575, 7357411574, 6455100171], "tags": {"addr:city": "Durban", "addr:housenumber": "11", "addr:street": "Riverhorse Road", "amenity": "hospital", "beds": "373", "emergency": "yes", "healthcare": "hospital", "healthcare:speciality": "general;surgery;psychiatry;cardiology;emergency;internal;paediatric_cardiac_surgery;cardiac_catheterisation_labs;stroke_centre_of_excellence", "name": "Lenmed Ethekwini Hospital & Heart Centre", "operator": "Lenmed", "operator:type": "private"}}, {"type": "way", "id": 691885059, "center": {"lat": -29.8511333, "lon": 31.0107132}, "nodes": [5370363686, 5370363685, 5370363683, 5370363822, 5370363832, 6494076874, 10864482020, 6698964746, 6698964744, 6698964745, 5370363686], "tags": {"addr:city": "Durban", "addr:housenumber": "33", "addr:street": "Centenary Road", "amenity": "hospital", "contact:phone": "+27 (0) 31 314 2200", "email": "Hlengiwe.Mncwabe@kznhealth.gov.za", "fax": "+27 (0) 31 309 3222", "healthcare": "hospital", "healthcare:speciality": "urology;plastic_surgery;haemodialysis;peritoneal_dialyses;and_mmc", "name": "St Aiden's Hospital", "operator": "KZN Department Of Health", "operator:type": "government"}}, {"type": "way", "id": 708281068, "center": {"lat": -29.8516161, "lon": 31.0149607}, "nodes": [10852646802, 10852646808, 10852646807, 10852646806, 10852646804, 10852646805, 10852646803, 10852646809, 10852646810, 10852646802], "tags": {"addr:city": "Durban", "addr:housenumber": "52", "addr:postcode": "4001", "addr:street": "Ismail C Meer Street,", "amenity": "hospital", "contact:phone": "+27 31 314 3000", "email": "shalan@jmh.co.za", "emergency": "yes", "fax": "0313096322", "healthcare": "hospital", "healthcare:speciality": "clinic;maternity;nursing;trauma;healthcare;emergency_ambulance_service;casualty;dental;hospitals;medical;surgical;emergency", "name": "City Hospital", "website": "https://jmh.co.za/downloads/City-Hospital_A5_Flyer.pdf"}}, {"type": "way", "id": 712521483, "center": {"lat": -29.8559675, "lon": 30.9912719}, "nodes": [6699182352, 10261736432, 10261736410, 10261736411, 7371714497, 6699182353, 7371714498, 269700540, 6699182354, 7652343960, 6699182355, 7652343958, 7227551042, 7371714499, 10261736437, 6699182352], "tags": {"addr:city": "Bulwer, Berea", "addr:housenumber": "107", "addr:postcode": "4001", "addr:street": "J.B. Marks Road", "amenity": "hospital", "beds": "464", "contact:website": "https://www.netcarehospitals.co.za/Hospital/Netcare-St-Augustines-Hospital", "emergency": "yes", "healthcare": "hospital", "healthcare:speciality": "bariatric;transplant;cardiac_unit;hyperbaric_oxygen_therapy;renal_dialysis_unit", "name": "Netcare St. Augustine's Hospital", "opening_hours": "24/7", "operator": "Netcare", "operator:type": "private", "operator:wikidata": "Q6998801", "operator:wikipedia": "en:Netcare", "phone": "+27 31 268 5000"}}, {"type": "way", "id": 743149769, "center": {"lat": -29.6021062, "lon": 30.3847416}, "nodes": [9177776587, 9177776588, 9177776589, 9177776590, 6956108656, 6956108655, 6956108654, 9177776578, 9177776579, 9177776580, 9177776581, 9177776582, 9177776583, 9177776584, 9177776585, 9177776586, 6956108652, 6956108653, 1066416994, 9177776587], "tags": {"addr:city": "Pietermaritzburg", "addr:housenumber": "331", "addr:postcode": "3201", "addr:street": "Burger Street  Central", "amenity": "hospital", "emergency": "yes", "healthcare": "hospital", "healthcare:speciality": "paediatrics;surgery;cardiology;psychiatry;dermatology;gynaecology", "name": "Saint Anne's Hospital", "operator": "Netcare", "operator:type": "private", "operator:wikidata": "Q6998801", "operator:wikipedia": "en:Netcare"}}, {"type": "way", "id": 743150231, "center": {"lat": -29.8734212, "lon": 30.9580028}, "nodes": [6956179142, 6956179123, 6956179124, 6956179125, 6956179126, 6956179127, 6956179128, 6956179129, 6956179130, 6956179131, 6956179132, 6956179133, 6956179134, 471355954, 6956179135, 6956179136, 6956179137, 6956179138, 6956179139, 6956179140, 6956179141, 6956179151, 6956179150, 6956179149, 6956179148, 6956179147, 6956179146, 6956179145, 6956179144, 6956179143, 6956179142], "tags": {"addr:city": "Cato Manor, Durban", "addr:housenumber": "800", "addr:postcode": "4058", "addr:street": "Bellair Road", "amenity": "hospital", "beds": "846", "contact:phone": "+27 (0)31 240 1000", "emergency": "yes", "fax": "+27 (0)31 240 1050", "healthcare": "hospital", "healthcare:speciality": "assisted_conception_unit;cardiothoracic_surgery;dietetics;eyecare;forensic_pathology;gastrointestinal;general_surgery;haematology;helistop;medical_physics;neurology;nuclear_medicine;obstetrics;oncology_&_radiotherapy;orthopaedic_surgery;paediatric_intensi", "name": "Inkosi Albert Luthuli Central Hospital", "operator": "Kwazulu Natal Department Of Health", "operator:type": "public", "website": "https://www.ialch.co.za/"}}, {"type": "way", "id": 743150546, "center": {"lat": -29.728059, "lon": 31.0690173}, "nodes": [6956108676, 6956108675, 7307802519, 7307802518, 5448315599, 7307802517, 5026429068, 6956108674, 6956108673, 7307802521, 7307802524, 7307802522, 276887681, 7307802514, 7307802523, 6956108672, 7307802535, 7307802515, 7307802534, 7307802536, 6956108671, 7307802513, 6956108670, 6956108669, 6956108668, 7307802533, 7307802532, 6956108667, 7307802531, 7307802530, 7307802529, 7307802528, 7307802527, 7307802526, 6956108666, 7307802500, 6956108664, 6956108663, 6956108662, 7307911687, 6956108661, 7055346211, 7307802516, 7055346213, 7307802520, 6956108676], "tags": {"addr:city": "Umhlanga Ridge, Durban", "addr:housenumber": "321", "addr:street": "Umhlanga Rocks Drive", "amenity": "hospital", "contact:phone": "031 582 5479", "emergency": "yes", "healthcare": "hospital", "healthcare:speciality": "24_-hour_accident_&_emergency_department_cardiology;cardio-thoracic_surgery;dermatology;dentistry;eye_and_laser_institute;gastroenterology;general_surgery;gynaecology;intensive_care_unit;maternity;maxillo_facial_surgery;neurology;neuro_surgery;orthopaedic", "name": "Netcare uMhlanga Hospital", "operator": "Netcare", "operator:type": "private", "operator:wikidata": "Q6998801", "operator:wikipedia": "en:Netcare", "wheelchair": "yes"}}, {"type": "way", "id": 760847778, "center": {"lat": -29.7375166, "lon": 30.739975}, "nodes": [7108164380, 7108164381, 7108164382, 7108164383, 7108164384, 7108164385, 7108164386, 7108164387, 7108164388, 7108164389, 7108164390, 7108164391, 7108164392, 7108164393, 7108164394, 7108164395, 7108164396, 7108164397, 7108164398, 7108164399, 7108164400, 7108164401, 7108164402, 7108164403, 7108164404, 7108164405, 7108164406, 7108164407, 7108164408, 7108164409, 7108164410, 7108164411, 7108164380], "tags": {"addr:city": "Botha's Hill", "addr:street": "Zulu reserve road", "amenity": "hospital", "emergency": "yes", "fax": "+27 (0) 31 777 1717", "healthcare": "hospital", "healthcare:speciality": "chronic;general;maternity", "name": "Don Mckenzie Hospital", "operator": "KZN Department of Health", "operator:type": "government", "phone": "+27 (0) 31 777 1155", "website": "www.kznhealth.gov.za/donmckenziehospital.htm"}}, {"type": "way", "id": 784170811, "center": {"lat": -26.4433862, "lon": 31.1873561}, "nodes": [7325106243, 7325106244, 2117062469, 7325106245, 7325106246, 7325106247, 7325106248, 7325106243], "tags": {"amenity": "hospital", "designation": "Private Hospital", "emergency": "yes", "healthcare": "hospital", "name": "Medisun Clinic", "source": "Bing"}}, {"type": "way", "id": 784171533, "center": {"lat": -27.1221307, "lon": 31.2076865}, "nodes": [2276767778, 7325110027, 7325110028, 7325110029, 7325110030, 7325110031, 7325110032, 7325110033, 7325110034, 7325110035, 2276767778], "tags": {"amenity": "hospital", "healthcare": "hospital", "name": "Nhlangano Health Center"}}, {"type": "way", "id": 784171841, "center": {"lat": -26.5074917, "lon": 31.3030007}, "nodes": [4377396900, 4377396899, 7325115288, 4377396897, 4377396902, 9255595003, 4181147815, 9255595004, 4377396900], "tags": {"amenity": "hospital", "healthcare": "hospital", "name": "Matsapha Clinic", "operator": "MSF OCA"}}, {"type": "way", "id": 784172517, "center": {"lat": -25.9580603, "lon": 31.2482575}, "nodes": [7325119773, 7325119774, 7325119775, 7325119776, 5279928622, 7325119778, 7325119779, 7325119780, 7325119773], "tags": {"amenity": "hospital", "healthcare": "hospital", "name": "Piggs Peak Public Hospital"}}, {"type": "way", "id": 784172577, "center": {"lat": -26.3283656, "lon": 31.1347194}, "nodes": [7123980195, 7123980194, 7123980193, 7123980192, 1972422181, 1972422106, 1972422046, 1972421802, 1972422217, 1972421836, 1972422348, 1972421904, 1972422151, 7123980197, 1972422132, 7123980196, 7123980186, 7123980187, 7325115124, 7123980188, 7123980189, 7123980190, 7123980191, 6409365587, 7325115125, 9263537803, 7325115126, 7123980195], "tags": {"amenity": "hospital", "healthcare": "hospital", "name": "Mbabane Clinic"}}, {"type": "way", "id": 784172762, "center": {"lat": -26.973082, "lon": 31.3240733}, "nodes": [7325125519, 7325125520, 7325125521, 7325125522, 7325125523, 7325125524, 7325125525, 7325125526, 7325125527, 7325125528, 7325125529, 7325125530, 7325125531, 7325125532, 7325125533, 7325125534, 7325125535, 7325125536, 7325125537, 7325125538, 7325125519], "tags": {"amenity": "hospital", "healthcare": "hospital", "name": "Hlatikhulu General Hospital"}}, {"type": "way", "id": 784173087, "center": {"lat": -26.3187769, "lon": 31.1316242}, "nodes": [7325126042, 7325126043, 7325126044, 7325126045, 7325126046, 7325126042], "tags": {"amenity": "hospital", "healthcare": "hospital", "name": "Baylor Childrens Clinic Eswatini"}}, {"type": "way", "id": 785522474, "center": {"lat": -20.228527, "lon": 31.4061523}, "nodes": [7342464323, 2623460500, 7342464325, 7342464326, 7342464327, 7342464323], "tags": {"amenity": "hospital", "name": "Gumbo Clinic"}}, {"type": "way", "id": 785523104, "center": {"lat": -20.048347, "lon": 31.0090698}, "nodes": [2631083252, 2631083253, 2631083254, 2631083255, 2631083249, 2631083250, 2631083251, 2631083252], "tags": {"amenity": "hospital", "healthcare": "hospital", "name": "Clinic"}}, {"type": "way", "id": 787019391, "center": {"lat": -29.8546777, "lon": 30.9867897}, "nodes": [7357676029, 7357676028, 450877439, 7357676027, 7357649979, 7357649980, 7357676026, 7357676025, 7357676024, 7357676023, 7357676022, 7357676021, 7357676020, 7357676019, 7357751417, 7357676018, 7357676017, 7357676016, 7357676015, 7357676014, 7357676013, 7357676012, 7357649981, 7357649982, 7357738746, 7357676011, 7357676010, 7357676009, 7357676008, 7357676007, 7357676006, 7357676005, 7357676004, 7357676003, 7357675999, 7357675998, 10880993497, 7357675997, 7357675996, 7357675995, 7357675994, 7357675993, 7357675992, 7357675991, 7357675990, 7357675989, 7357675988, 7357675987, 7357675986, 7357675985, 7357649984, 7357649972, 7357649983, 7357676029], "tags": {"addr:city": "Berea, Durban", "addr:housenumber": "48", "addr:street": "Mazisi Kunene (South Ridge Road),", "amenity": "hospital", "healthcare": "hospital", "healthcare:speciality": "cardiology;cardiothoracic_surgery;ent_surgery;epilepsy_surgery;dermatology;gastroenterology;general_surgery;nephrology;neurosurgery;oncology;ophthalmology;orthopaedic_surgery;paediatrics;paediatric_nephrology;paediatric_neurology;pathology;plastic_and_rec", "name": "Life Entabeni Hospital", "operator": "Life Health Care", "operator:type": "private", "operator:wikidata": "Q6458636"}}, {"type": "way", "id": 787346993, "center": {"lat": -29.4773459, "lon": 30.2182222}, "nodes": [7361600524, 7361600511, 7361600529, 7361600528, 7361641060, 7361600527, 610736341, 7361600526, 7361600506, 7361600525, 7361600523, 7361600524], "tags": {"addr:city": "Howick", "addr:housenumber": "107", "addr:street": "Main Road", "amenity": "hospital", "contact:phone": "+27 33 330 2456", "emergency": "yes", "healthcare": "hospital", "name": "Lenmed Howick Private Hospital", "operator": "Lenmed", "operator:type": "private"}}, {"type": "way", "id": 787558350, "center": {"lat": -25.4926997, "lon": 30.9620101}, "nodes": [7363513493, 7363513494, 7363513495, 7363513496, 7363513497, 7363513498, 4720197158, 7363513499, 7363513500, 7363513501, 7363513502, 7363513503, 7363513504, 7363513505, 7363513493], "tags": {"addr:city": "Sonheuwel, Mbombela", "addr:housenumber": "1", "addr:postcode": "1200", "addr:street": "Louise Street", "amenity": "hospital", "day_clinic": "16 beds", "emergency": "yes", "healthcare": "hospital", "healthcare:speciality": "emergency;neonatal;woundcare_clinic;pathology;oncology;radiology;renal_dialysis;vaccination", "name": "Mediclinic Nelspruit & Day Clinic", "operator": "Mediclinic", "operator:type": "private", "phone": "+27 13 759 0500"}}, {"type": "way", "id": 788330665, "center": {"lat": -28.7500877, "lon": 32.0532483}, "nodes": [7370532996, 7370532995, 7370532994, 7370532993, 7370535137, 7370532992, 7370532991, 7370532990, 7370532989, 7370532988, 7370532987, 7370550600, 7370512178, 7370535138, 7370535139, 704060463, 7370512177, 7370532996], "tags": {"addr:city": "Richards Bay", "addr:postcode": "3900", "addr:street": "Kruger Rand Road", "amenity": "hospital", "beds": "198", "emergency": "yes", "fax": "035 789 8283", "healthcare": "hospital", "healthcare:speciality": "anaesthesiology;cardiology;dentistry;dermatology;ear;nose_and_throat_surgery_(otorhinolaryngology);general_practice;general_surgery;gynaecology;internal_medicine;nephrology;ophthalmology;orthopaedic_surgery;paediatrics;urology", "name": "Netcare The Bay Hospital", "opening_hours": "24/7", "operator": "Netcare", "operator:type": "private", "operator:wikidata": "Q6998801", "phone": "035 780 6111", "wheelchair": "yes"}}, {"type": "way", "id": 788400162, "center": {"lat": -29.811113, "lon": 30.8644807}, "nodes": [7371042494, 9213730064, 7371042491, 7371042490, 7371042489, 7371042488, 7371042487, 7371384491, 7371384490, 7371042486, 7371042485, 7371384492, 9213730053, 7371036081, 7371036080, 7371036079, 7371036078, 7371036077, 7371036076, 10680658928, 10680658927, 10680658926, 10680658925, 7371036075, 7371036073, 7371036072, 7371036070, 7371036069, 7371036066, 7371036065, 7371036064, 9213730067, 7371036063, 7371036062, 7371036061, 7371036060, 7371036059, 7371036058, 7371036057, 7371036056, 4382115089, 7371036055, 7371042494], "tags": {"addr:city": "Pinetown", "addr:housenumber": "102", "addr:postcode": "3610", "addr:street": "Crompton Street", "amenity": "hospital", "healthcare": "hospital", "healthcare:speciality": "gynaecology;nephrology;obstetrics;ophthalmology;orthopaedics;paediatrics;pathology;psychiatry;pulmonology;radiology;urology;plastic_&_reconstructive_surgery", "name:en": "Life The Crompton Hospital", "operator": "Life health care", "operator:type": "private"}}, {"type": "way", "id": 790272713, "center": {"lat": -29.7154763, "lon": 31.0362296}, "nodes": [7388155319, 7388155318, 7388155317, 7388155316, 7388155315, 7388155314, 7388155313, 7388135984, 7388155312, 7388155311, 7388155310, 7388155309, 7388135983, 7388155308, 7388135982, 7388155307, 7388155306, 7388155305, 7388155304, 7388155303, 7388155302, 7388155301, 9938437122, 7388155300, 7388155299, 7388155298, 9938437139, 7388155297, 7388155296, 7388155295, 7388155294, 7388155293, 7388155292, 7388155291, 7388155290, 7388155289, 7388155288, 7388155287, 7388155286, 7388155285, 7388155319], "tags": {"addr:city": "Phoenix", "addr:housenumber": "163 - 179", "addr:postcode": "4068", "addr:street": "Redberry Road", "amenity": "hospital", "emergency": "yes", "healthcare": "hospital", "healthcare:speciality": "cardiology;dermatology;endoscopic_surgery;ent_surgery;gastroenterology;general_practice;gynaecology;internal_medicine;laparoscopic_surgery;maxillofacial_&_oral_surgery;nephrology;neurology;obstetrics;ophthalmology;orthopaedic_surgery;paediatrics;pulmonolo", "name": "Life Mount Edgecombe Hospital", "operator": "Life Health Care", "operator:type": "private", "operator:wikidata": "Q6458636", "phone": "031 537 4000", "wheelchair": "yes"}}, {"type": "way", "id": 791215335, "center": {"lat": -29.8339123, "lon": 30.9988422}, "nodes": [7396740309, 7396740308, 7396905127, 7396740307, 7396905126, 7396905125, 7396740305, 7396905124, 7396905136, 7396905135, 10936808381, 7396740297, 7396740294, 7396740293, 7396740291, 7396740290, 7396740289, 7396905123, 7396740288, 7396740286, 7396700284, 7396700283, 7396700282, 7396700278, 7396700277, 7396700276, 7396700274, 7396700273, 10936808382, 7396700272, 7396700270, 7396700266, 7396700264, 7396700263, 7396700261, 7396922049, 7396905131, 7396922050, 7396905132, 7396700260, 7396905133, 7396922048, 7396700259, 7396700258, 7396700257, 7396700256, 7396700255, 7396700254, 7396700253, 7396700252, 7396700251, 7396700250, 7396700249, 7396700248, 6616342444, 7396740309], "tags": {"addr:city": "Overport Durban", "addr:postcode": "4001", "addr:street": "Hopelands Road", "amenity": "hospital", "beds": "193", "emergency": "yes", "fax": "031 207 3368", "healthcare": "hospital", "healthcare:speciality": "diabetic_clinic;endocrinology;eye_clinic;gastroenterology;general_physicians;general_surgery;gynaecology;maxillo-facial_surgery;neonatalogy;oncology_including_paediatric_haemotology;paediatric_and_paediatric_surgery;pulmonology;radiology;urology", "name": "Netcare Parklands Hospital", "opening_hours": "24/7", "operator": "Netcare", "operator:type": "private", "operator:wikidata": "Q6998801", "phone": "031 242 4000"}}, {"type": "way", "id": 791343453, "center": {"lat": -26.048043, "lon": 30.8166115}, "nodes": [7397941348, 7397941349, 7397941350, 7397941351, 7397941352, 7397941353, 7397941354, 7397941355, 7397941356, 7397941357, 7397941358, 7397941359, 7397941348], "tags": {"addr:city": "Elukwatini-B, Mpumalanga", "addr:postcode": "1192", "addr:street": "Stand 40, Main Road", "amenity": "hospital", "healthcare": "hospital", "healthcare:speciality": "family_medicine_and_primary_helath_care;rehabilitation;medicine;surgery;obstetrics;paediatrics;eye_care;geriatrics", "name": "Embhuleni District Hospital", "operator": "Mpumalanga Department of Health", "operator:type": "public"}}, {"type": "way", "id": 791438230, "center": {"lat": -29.8807244, "lon": 30.9915216}, "nodes": [7398803370, 7398803371, 7398803372, 7398803373, 7398803374, 7398803375, 10682087481, 10682087482, 7398803376, 7398803377, 7398803378, 10682087480, 10682087479, 7398803379, 7398803380, 7398803381, 7398803370], "tags": {"addr:city": "Berea,kzn", "addr:housenumber": "5", "addr:street": "Rick Turner Road", "amenity": "hospital", "building": "yes", "email": "nontobeko.ndlela@kznhealth.gov.za", "emergency": "yes", "fax": "+27 (0) 31 206 1457.", "healthcare": "hospital", "healthcare:speciality": "athritis_clinic;general;emergency;maternity;chronic", "name": "King Edward VIII Hospital - Casualty", "operator": "Kzn Department Of Health", "operator:type": "government", "phone": "+27 (0) 31 360 3111", "wheelchair": "yes"}}, {"type": "way", "id": 791441600, "center": {"lat": -29.8814737, "lon": 30.989561}, "nodes": [7398824794, 7398824795, 7398824796, 7398824797, 7398824798, 7398824794], "tags": {"addr:city": "Congella", "addr:postcode": "4013", "addr:street": "Cnr Sydney & Rick Turner Road", "amenity": "hospital", "beds": "852", "emergency": "yes", "healthcare": "hospital", "name": "King Edward VIII Hospital", "operator": "government", "operator:type": "public", "phone": "+27 31 360 3111"}}, {"type": "way", "id": 791665305, "center": {"lat": -29.5729933, "lon": 31.117949}, "nodes": [7401025166, 7401025165, 7401025164, 7401025163, 7401025162, 7401025161, 7401025160, 7401025159, 7401025158, 7401025157, 7401025156, 7401025140, 7401025155, 7401025139, 7401025154, 7401025153, 7401025152, 7401025151, 7401025150, 7401025149, 7401025148, 7401025142, 7401860784, 7401025141, 7401025147, 7401868185, 7401025138, 7401868186, 7401025146, 7401025145, 7401025144, 7401025143, 7401025166], "tags": {"addr:city": "Tongaat", "addr:housenumber": "35", "addr:postcode": "4400", "addr:street": "High Street", "amenity": "hospital", "beds": "127", "emergency": "yes", "fax": "+27 32 944 8200", "healthcare": "hospital", "healthcare:speciality": "ent;audiology;cardiology;cardiothoracic_surgeon;dentistry;dermatologist;neurophysiology;pulmonology;reproductive_medicine;dietitian;electrophysiology;endocrinology;gastroenterology;general_surgery;gynaecologist_&_obstetrician;haematologist;neurology;neuro", "name": "Mediclinic Victoria", "opening_hours": "24/7", "operator": "Mediclinic", "operator:type": "private", "operator:wikidata": "Q1916123", "phone": "+27 32 945 8200", "wheelchair": "yes"}}, {"type": "way", "id": 791678927, "center": {"lat": -28.7358651, "lon": 31.8931866}, "nodes": [7401168549, 7401168550, 7401168551, 7401168552, 7401168553, 7401168554, 7401168555, 7401168549], "tags": {"addr:city": "Empangeni", "addr:postcode": "3880", "addr:street": "Cnr Biyela and Ukula Street", "amenity": "hospital", "beds": "174", "email": "support.empangeni@lifehealthcare.co.za", "emergency": "yes", "healthcare": "hospital", "healthcare:speciality": "24-hour_emergency_unit;adult_and_neonatal_icu;day_ward_facility;ear;nose_and_throat_surgery;general_surgery;laminar_flow_theatre;maternity;medical_units;nephrology;neurology;neurosurgery;obstetrics;oncology;ophthalmology;orthopaedics;paediatrics;pathology", "name": "Life Empangeni Private Hospital", "opening_hours": "24/7", "operator": "Life Health Care", "operator:type": "private", "operator:wikidata": "Q6458636", "phone": "035 902 8000", "wheelchair": "yes"}}, {"type": "way", "id": 791718764, "center": {"lat": -25.477081, "lon": 30.9709178}, "nodes": [7401476666, 7401511187, 7401476667, 7401476668, 7401476669, 7401511186, 7401476670, 7401476671, 7401476672, 7401476673, 7401476674, 7401476675, 7401476676, 7401476677, 7401476678, 7401511188, 7401511189, 7401511190, 7401476684, 7401476679, 7401476680, 7401511185, 7401476681, 7401476682, 7401476683, 7401476666], "tags": {"addr:city": "Nelspruit, Mpumalanga", "addr:postcode": "1200", "addr:street": "Corner Piet Retief Street and Madiba Drive", "amenity": "hospital", "emergency": "yes", "fax": "+27 (0)13 741 1394", "healthcare": "hospital", "healthcare:speciality": "eye_care;family_medicine_and_primary_health_care;geriatrics;medicine;obstetrics;paediatrics;psychiatry;rehabilitation;surgery", "name": "Rob Ferreira Hospital", "operator": "Mpumalanga Department Of Health", "operator:type": "government", "phone": "27 (0)13 741 6100", "wheelchair": "yes"}}, {"type": "way", "id": 791731477, "center": {"lat": -29.502776, "lon": 30.2342651}, "nodes": [7401622998, 7401622999, 7401623000, 7401623001, 7401623002, 7401623003, 7401623004, 7401623005, 7401623006, 7401623007, 7401623008, 7401623009, 10117365323, 7401623010, 7401623011, 7401623012, 7401623013, 7401623014, 7401623015, 7401623016, 7401623017, 7401623018, 10117365322, 10117365321, 10117365320, 10117365319, 10117365318, 10117365315, 10117365316, 10117365317, 7401623019, 7401623020, 7401623021, 7401623022, 7401622998], "tags": {"addr:city": "Howick", "addr:postcode": "3290", "addr:street": "Main Street", "amenity": "hospital", "beds": "411", "email": "ayanda.mazwana@kznhealth.gov.za", "emergency": "yes", "fax": "+27 (0) 33 330 5564", "healthcare": "hospital", "healthcare:speciality": "medical_services;nursing_services;physiotherapy_services;social_work_services;pharmaceutical_services;occupational_therapy_services;care_and_rehabilitation;health_promotion_programme;psychotherapeutic_programme;occupational_health_&_safety;employee_assist", "name": "Umgeni Hospital", "opening_hours": "24/7", "operator": "KZN Department of Health", "operator:type": "government", "phone": "+27 (0) 33330 6146", "wheelchair": "yes"}}, {"type": "way", "id": 791744884, "center": {"lat": -23.9336397, "lon": 31.1363323}, "nodes": [7401749403, 7401749404, 7401749405, 7401749406, 7401749410, 7401749407, 7401749411, 7401749408, 7401749409, 7401749403], "tags": {"addr:city": "Phalaborwa", "addr:street": "Grosvenor Crescent", "amenity": "hospital", "emergency": "yes", "healthcare": "hospital", "healthcare:speciality": "general;maternity;chronic", "name": "Phalaborwa Health Centre", "wheelchair": "yes"}}, {"type": "way", "id": 791791727, "center": {"lat": -27.661698, "lon": 30.3161148}, "nodes": [7402186601, 7402186602, 7402186603, 7402186604, 7402186605, 7402186606, 7402186607, 7402186601], "tags": {"addr:city": "Utrecht", "addr:housenumber": "32", "addr:street": "Kantoor Street", "amenity": "hospital", "contact:phone": "+27 (0) 34 331 3011", "email": "nkosi.bongani@kznhealth.gov.za", "emergency": "yes", "fax": "+27 (0) 34 331 4498", "healthcare": "hospital", "healthcare:speciality": "covid-19_related_services;preventive;promotive;curative_and_rehabilitation_services;support_services;phc_services;general", "name": "Niemeyer Memorial Hospital", "operator": "KZN Department Of Health", "operator:type": "public"}}, {"type": "way", "id": 791847066, "center": {"lat": -29.4869256, "lon": 30.2315848}, "nodes": [7402647511, 7402647512, 7402647513, 7402647514, 7402647511], "tags": {"addr:city": "Howick, Kwazulu-Natal", "addr:housenumber": "26A", "addr:street": "Morling Street", "amenity": "hospital", "email": "umngeni@telkomsa.net", "emergency": "yes", "healthcare": "hospital", "healthcare:speciality": "general;chronic;maternity", "name": "Howick Clinic", "phone": "033 2399243", "website": "http://www.kznhealth.gov.za"}}, {"type": "way", "id": 791870933, "center": {"lat": -22.341242, "lon": 30.0436828}, "nodes": [7402896244, 7402896245, 7402896246, 7402896247, 7402896248, 7402896249, 7402896250, 7402896251, 7402896252, 7402896253, 7402896254, 7402896255, 7402896256, 7402896257, 7402896258, 7402896244], "tags": {"addr:city": "Musina", "addr:housenumber": "N1 Building", "addr:street": "Cnr National and Whyte Road", "amenity": "hospital", "emergency": "yes", "fax": "+27 (0)15 534 0819", "healthcare": "hospital", "healthcare:speciality": "general;emergency;maternity;chronic", "name": "Messina Provincial Hospital", "operator": "Limpopo Department Of Health", "operator:type": "public", "phone": "+27 15 534 0446"}}, {"type": "way", "id": 792049047, "center": {"lat": -24.7109873, "lon": 33.8852433}, "nodes": [4503757605, 7404649966, 7404649967, 7404649968, 7404649969, 7404649971, 7404649972, 7404649973, 4503757605], "tags": {"amenity": "hospital", "building": "hospital", "emergency": "no", "healthcare": "hospital", "name": "Centro Nutricional de Nossa Senhora de F\u00e1tima"}}, {"type": "way", "id": 792093613, "center": {"lat": -25.4844499, "lon": 30.9512095}, "nodes": [7405121311, 7405121312, 7405121313, 7405121314, 7405121315, 7405121316, 7405121317, 7405121318, 7405121311], "tags": {"addr:city": "Nelspruit", "addr:postcode": "1201", "addr:street": "Orange St, West Acres", "amenity": "hospital", "building": "yes", "emergency": "yes", "fax": "013 741 3106", "healthcare": "hospital", "healthcare:speciality": "general;emergency;maternity", "name": "M-Care Private Hospital", "operator": "M-care", "operator:type": "private", "phone": "013 741 1530"}}, {"type": "way", "id": 792179611, "center": {"lat": -29.3365797, "lon": 31.2888425}, "nodes": [7405969303, 7405969304, 7405969305, 7405969306, 7405969307, 7405969308, 7405969303], "tags": {"addr:city": "KwaDukuza", "addr:housenumber": "133", "addr:postcode": "4449", "addr:street": "Mahatma Ghandi Street", "amenity": "hospital", "building": "hospital", "contact:mobile": "083 777 6468", "contact:phone": "+27 32 551 1335", "emergency": "no", "healthcare": "hospital", "healthcare:speciality": "genera_practitioner", "name": "Dr UN Naidoo", "operator": "Dr UN Naidoo", "operator:type": "private"}}, {"type": "way", "id": 792208963, "center": {"lat": -28.736188, "lon": 31.8981035}, "nodes": [7406163579, 7406163580, 7406163581, 7406163582, 7406163579], "tags": {"addr:city": "Noordsig, Empangeni", "addr:housenumber": "530", "addr:postcode": "3880", "addr:street": "Union Street", "amenity": "hospital", "area": "yes", "building": "yes", "emergency": "yes", "healthcare": "hospital", "name": "Medicross Tamela", "operator": "Medicross", "operator:type": "private"}}, {"type": "way", "id": 792481543, "center": {"lat": -28.7398654, "lon": 31.8965644}, "nodes": [7410405019, 7410405020, 7410405021, 7410405022, 7410405023, 7410405024, 7410405019], "tags": {"addr:city": "Empangeni, Kwazulu Natal", "addr:housenumber": "29", "addr:postcode": "3381", "addr:street": "Union Street", "amenity": "hospital", "emergency": "yes", "fax": "+27 (0)35 792 2596", "healthcare": "hospital", "healthcare:speciality": "antenatal_ward_-_24_hours;labour_ward_-_24_hours;gynae_ward_-_24hours;post_natal_ward_-_24_hours;specialist_gynaecological_clinic_-_monday_&_thursday;neonatal_unit_-_24_hours;vct_clinic_-_monday-_friday;pmtct_clinic_-_monday_\u2013_thursday_08h00-14h00;termina", "name": "Lower Umfolozi Regional War Memorial Hospital", "operator": "KZN Department Of Health", "operator:type": "government", "phone": "+27 (0)35 907 7000", "website": "www.kznhealth.gov.za/luwmhospital.htm", "wheelchair": "yes"}}, {"type": "way", "id": 792525547, "center": {"lat": -25.4762723, "lon": 30.9771818}, "nodes": [7410822424, 7410822425, 7410822426, 7410822427, 7410822428, 7410822429, 7410822430, 7410822424], "tags": {"addr:city": "Mbombela", "addr:housenumber": "11", "addr:street": "Rothery Street", "amenity": "hospital", "emergency": "yes", "healthcare": "hospital", "healthcare:speciality": "general;emergency;maternity;chronic", "name": "Busamed Lowveld Hospital", "operator": "Busamed", "operator:type": "private"}}, {"type": "way", "id": 792539951, "center": {"lat": -25.6962248, "lon": 31.7468765}, "nodes": [7410932036, 7410932037, 7410932038, 7410932039, 7410932036], "tags": {"amenity": "hospital", "emergency": "no", "healthcare": "hospital", "name": "Mzinti clinic"}}, {"type": "way", "id": 792541984, "center": {"lat": -25.6951671, "lon": 31.788038}, "nodes": [7410973945, 7410973946, 7410973947, 7410973948, 7410973949, 7410973945], "tags": {"addr:city": "Tonga Village,Mpumalanga", "amenity": "hospital", "contact:phone": "+27 (0)13 780 9000", "emergency": "yes", "fax": "+27 (0)13 780 9051", "healthcare": "hospital", "healthcare:speciality": "general;emergency;maternity", "name": "Tonga Hospital", "operator": "Mpumalanga Department Of Heakth", "operator:type": "government", "website": "www.tongahospital.co.za", "wheelchair": "yes"}}, {"type": "way", "id": 792549539, "center": {"lat": -25.0930866, "lon": 30.7819238}, "nodes": [7411055978, 7411055979, 7411055980, 7411055981, 7411055982, 7411055983, 7411055984, 7411063685, 7411063686, 7411063687, 7411055978], "tags": {"amenity": "hospital", "healthcare": "hospital", "name": "Sabie Hospital"}}, {"type": "way", "id": 792554734, "center": {"lat": -24.8344254, "lon": 31.1461883}, "nodes": [7411088874, 7411088875, 7411088876, 7411088878, 7411088877, 7411088874], "tags": {"amenity": "hospital", "healthcare": "hospital", "name": "Clinic", "source": "GPS"}}, {"type": "way", "id": 792575028, "center": {"lat": -29.6563736, "lon": 30.3421058}, "nodes": [7411251439, 7411251440, 7411251441, 7411251442, 7411251443, 7411251444, 7411251445, 7411251446, 7411251447, 7411251448, 7411251449, 7411251450, 7411251451, 7411251452, 7411251453, 7411251454, 7411251439], "tags": {"addr:city": "Unit 3, Imbali, Pietermaritzburg", "addr:country": "ZA", "addr:postcode": "3201", "addr:province": "KwaZulu-Natal", "addr:street": "Thwala Road,", "alt_name": "Imbalenhle Clinic", "alt_name:en": "Imbalenhle Community Health Centre", "amenity": "hospital", "contact:phone": "+27 33 398 9100", "healthcare": "hospital", "healthcare:speciality": "maternity;chronic_disease_management;basic_health_care", "name": "Imbalenhle CHC", "operator": "Kwazulu Natal Departmet of Health", "operator:type": "public"}}, {"type": "way", "id": 792576192, "center": {"lat": -29.2739448, "lon": 31.3553963}, "nodes": [7411321494, 7411321495, 7411321496, 7411321497, 7411321498, 7411321499, 7411321494], "tags": {"amenity": "hospital", "healthcare": "hospital", "name": "Darnall PHC"}}, {"type": "way", "id": 792592764, "center": {"lat": -23.649046, "lon": 30.2170313}, "nodes": [7411453435, 7411453436, 7411453437, 7411453438, 7411453435], "tags": {"addr:city": "Duiwelskloof, Modjadjiskloof, Limpopo", "addr:housenumber": "Gakgapane Location", "addr:postcode": "0838", "addr:street": "Modgadji Road", "amenity": "hospital", "building": "yes", "emergency": "yes", "fax": "+27 (0)15 328 3506", "healthcare": "hospital", "name": "Kgapane Hospital", "operator": "Limpopo Department Of Health", "operator:type": "government", "phone": "+27 (0)15 328 3510 / 1", "wheelchair": "yes"}}, {"type": "way", "id": 792595436, "center": {"lat": -27.3769502, "lon": 31.6187756}, "nodes": [7411473576, 7411473577, 7411473578, 7411473579, 7411473576], "tags": {"amenity": "hospital", "emergency": "yes", "healthcare": "hospital", "name": "Pongola Hospital", "operator": "Kzn Department Of Health", "operator:type": "public"}}, {"type": "way", "id": 792598506, "center": {"lat": -24.5886334, "lon": 31.0982201}, "nodes": [7411509802, 7411509803, 7411509804, 7411509805, 7411509802], "tags": {"amenity": "hospital", "healthcare": "hospital", "name": "Sigagule"}}, {"type": "way", "id": 805487032, "center": {"lat": -21.9506474, "lon": 35.3130383}, "nodes": [5524946224, 5709481592, 7533395145, 7533395146, 7533395147, 5524946224], "tags": {"amenity": "hospital", "healthcare": "hospital", "name": "Netcare Nhamacunda"}}, {"type": "way", "id": 805499066, "center": {"lat": -21.7179575, "lon": 35.0944099}, "nodes": [6875959420, 7533473362, 7605070187, 7605070188, 7605070186, 7533473363, 7533473364, 6875959420], "tags": {"amenity": "hospital", "healthcare": "hospital"}}, {"type": "way", "id": 818091577, "center": {"lat": -26.0269673, "lon": 32.5437154}, "nodes": [7640525909, 7640525908, 7640525907, 7640525906, 7640525909], "tags": {"amenity": "hospital", "name": "Centro de Sa\u00fade O Salvador - Chamissava"}}, {"type": "way", "id": 819071536, "center": {"lat": -24.2528883, "lon": 30.4478327}, "nodes": [7649212870, 3623406188, 7649212871, 7649212872, 7649212873, 7649212874, 7649212875, 7649212876, 7649212877, 7649212878, 7649212879, 7046467026, 7046467027, 7046467028, 7046467029, 7046467058, 7046467030, 7649212870], "tags": {"addr:city": "Trichardt,\tLimpopo", "addr:postcode": "0890", "addr:street": "Paul Kruger Street", "amenity": "hospital", "emergency": "yes", "fax": "+27 (0)15 383 0059 / 0156", "healthcare": "hospital", "name": "Sekororo Hospital", "phone": "+27 (0)15 383 9400"}}, {"type": "way", "id": 821121703, "center": {"lat": -26.0230764, "lon": 32.5786198}, "nodes": [7633702538, 7666878423, 7666878422, 7666878421, 7666878420, 7666878419, 7666878418, 7666878417, 7633702538], "tags": {"amenity": "hospital", "name": "Centro de Sa\u00fade Katembe"}}, {"type": "way", "id": 821123013, "center": {"lat": -25.9961394, "lon": 32.5306871}, "nodes": [7640634356, 7666951720, 7666951719, 7666951718, 7666951717, 7640634356], "tags": {"amenity": "hospital", "name": "Centro de Saude de Incassane"}}, {"type": "way", "id": 821135461, "center": {"lat": -26.0300607, "lon": 32.5282713}, "nodes": [7666725580, 7667044436, 7667044435, 7667044434, 7667044433, 7666725580], "tags": {"amenity": "hospital", "name": "Centro de Sa\u00fade de Mutsekwa"}}, {"type": "way", "id": 833983023, "center": {"lat": -24.4762048, "lon": 35.017044}, "nodes": [7785227927, 7785227928, 7785227929, 7785227930, 7785227931, 7785227932, 7785227927], "tags": {"addr:city": "Vila de Inharrime", "amenity": "hospital", "healthcare": "hospital", "healthcare:speciality": "general", "name": "Posto de Sa\u00fade de Inharrime"}}, {"type": "way", "id": 883732975, "center": {"lat": -24.588509, "lon": 30.7696704}, "nodes": [8219036349, 8219036350, 8219036351, 8219036352, 8219036353, 8219036354, 8219036355, 8219036349], "tags": {"addr:city": "Graskop", "addr:postcode": "1270", "addr:street": "Graskop Origstad Road", "amenity": "hospital", "emergency": "yes", "fax": "013 769 8091", "healthcare": "hospital", "healthcare:speciality": "family_medicine_and_primary_health_care;rehabilitation;medicine;surgery;obstetrics;paediatrics;psychiatry;eye_care;geriatrics", "name": "Matibidi Hospital", "operator": "Mpumalanga Department Of Health", "operator:type": "government", "phone": "013 769 8092"}}, {"type": "way", "id": 892989915, "center": {"lat": -28.6247179, "lon": 31.0862815}, "nodes": [8299571317, 8299571321, 8299571318, 8299571322, 8299571319, 8299571320, 8299571317], "tags": {"addr:city": "Nkandla", "addr:street": "Mbatha lane", "amenity": "hospital", "email": "jabulani.zwane@kznhealth.gov.za", "emergency": "yes", "fax": "+27 (0) 35 833 0054", "healthcare": "hospital", "healthcare:speciality": "general_medical;general_surgical;obstetric_and_gynaecology;theatres;paediatrics;general_opd;dental_and_eye_clinic;x-ray;orthopaedics;psychiatric;tuberculosis;crisis_center;arv_clinic;primary_health_care_(phc_wing);pmct_and_vct;infection_control;eap;mobile", "name": "Nkandla Hospital", "operator": "KZN Health Department", "operator:type": "government", "phone": "+27 (0) 35 833 5000"}}, {"type": "way", "id": 909634808, "center": {"lat": -25.0471652, "lon": 33.6920127}, "nodes": [5691273773, 5699208681, 5699208680, 5691273772, 5691273773], "tags": {"amenity": "hospital", "healthcare": "hospital"}}, {"type": "way", "id": 914727135, "center": {"lat": -29.9003872, "lon": 31.0260595}, "nodes": [8497176491, 8497176492, 10042992754, 10042992755, 10042992752, 10042992753, 10042992750, 10042992751, 8497176493, 8497176494, 8497176491], "tags": {"addr:city": "Durban,Kzn", "addr:housenumber": "1302", "addr:postcode": "4052", "addr:street": "Bluff Road", "amenity": "hospital", "healthcare": "hospital", "healthcare:speciality": "general;maternity;chroic", "name": "Bluff Clinic", "phone": "0314661970"}}, {"type": "way", "id": 916377973, "center": {"lat": -27.0200073, "lon": 30.8048534}, "nodes": [8511260827, 8511260826, 8511260825, 8511260824, 8511260827], "tags": {"amenity": "hospital", "healthcare": "hospital"}}, {"type": "way", "id": 924478895, "center": {"lat": -29.6166164, "lon": 30.3933699}, "nodes": [8579977790, 8579977791, 8579977792, 8579977793, 8579977790], "tags": {"addr:city": "Pietermaritzburg", "addr:housenumber": "50", "addr:postcode": "3200", "addr:street": "Coronation Road", "amenity": "hospital", "emergency": "no", "healthcare": "hospital", "healthcare:speciality": "dentistry;general;ophthalmology;pharmacy", "name": "Scottsville Family Clinic", "opening_hours": "Mo-Su 07:00-19:00", "phone": "+27 33 342 1011 / +27 33 342 1115 / +27 82 7786933"}}, {"type": "way", "id": 926404525, "center": {"lat": -25.7823629, "lon": 31.0407416}, "nodes": [8596951051, 8596951036, 8596951037, 8596951038, 8596951039, 8596951050, 8596951049, 8596951048, 8596951047, 8596951046, 3496661006, 3496661005, 8596951045, 8596951044, 8596951043, 8596951042, 8596951041, 8596951040, 8596951051], "tags": {"addr:city": "Barberton, Mpumalanga", "addr:housenumber": "1", "addr:postcode": "1300", "addr:street": "Hospital Street", "amenity": "hospital", "contact:phone": "+27 (0)13 712 3011", "emergency": "yes", "fax": "+27 (0)13 712 6595", "healthcare": "hospital", "healthcare:speciality": "general;emergency;maternity;chronic", "name": "Barberton Provincial Hospital", "operator": "Mpumalanga Department Of Health", "operator:type": "public"}}, {"type": "way", "id": 932302849, "center": {"lat": -25.8087014, "lon": 32.5627389}, "nodes": [8642554959, 8642554958, 8642554957, 8642554956, 8642554955, 8642554954, 8642554953, 8642554952, 8642554951, 8642554950, 8642554949, 8642554948, 8642554959], "tags": {"amenity": "hospital"}}, {"type": "way", "id": 949874445, "center": {"lat": -29.5927587, "lon": 30.3911192}, "nodes": [8793388253, 8793388252, 8793388251, 9810935319, 8793388250, 8793388253], "tags": {"addr:housenumber": "162", "addr:street": "Masukwana Street", "amenity": "hospital", "email": "info@medstep.co.za", "emergency": "yes", "healthcare": "hospital", "name": "Midlands Medical Centre Private Hospital", "phone": "+27 33 341-5000", "website": "https://midlandsmedicalcentre.co.za/", "youtube": "https://www.youtube.com/channel/UCsmvGc8HgtVFM5rntbRut8g"}}, {"type": "way", "id": 1019511734, "center": {"lat": -25.9616081, "lon": 32.4716054}, "nodes": [9403077480, 9403077477, 9403077478, 9403077479, 9403077480], "tags": {"addr:district": "Matola", "addr:subdistrict": "Matola A", "amenity": "hospital", "building": "hospital", "source": "#ProjectoDeRedu\u00e7\u00e3oDeRiscoDeDesastresUrbano #UrbanDisasterRiskReductionProject #CruzVermelhadeMo\u00e7ambique \u00a0#CruzVermelhaAlem\u00e3 #MozambicanRedCross #GermanRedCross"}}, {"type": "way", "id": 1019511735, "center": {"lat": -25.9614446, "lon": 32.4717822}, "nodes": [9403077484, 9403077481, 9403077482, 9403077483, 9403077484], "tags": {"addr:district": "Matola", "addr:subdistrict": "Matola A", "amenity": "hospital", "building": "hospital", "source": "#ProjectoDeRedu\u00e7\u00e3oDeRiscoDeDesastresUrbano #UrbanDisasterRiskReductionProject #CruzVermelhadeMo\u00e7ambique \u00a0#CruzVermelhaAlem\u00e3 #MozambicanRedCross #GermanRedCross"}}, {"type": "way", "id": 1019511736, "center": {"lat": -25.9614043, "lon": 32.4722153}, "nodes": [9403077488, 9403077485, 9403077486, 9403077487, 9403077488], "tags": {"addr:district": "Matola", "addr:subdistrict": "Matola A", "amenity": "hospital", "building": "hospital", "source": "#ProjectoDeRedu\u00e7\u00e3oDeRiscoDeDesastresUrbano #UrbanDisasterRiskReductionProject #CruzVermelhadeMo\u00e7ambique \u00a0#CruzVermelhaAlem\u00e3 #MozambicanRedCross #GermanRedCross"}}, {"type": "way", "id": 1025927092, "center": {"lat": -23.2816849, "lon": 30.5098343}, "nodes": [9458848996, 9458848997, 9458848998, 9458848999, 9458848996], "tags": {"amenity": "hospital", "healthcare": "hospital"}}, {"type": "way", "id": 1029028708, "center": {"lat": -20.6039477, "lon": 32.2805674}, "nodes": [9487148789, 9487148790, 9487148791, 9487148792, 9487148793, 9487148794, 9487148795, 9487148796, 9487148797, 9487148789], "tags": {"amenity": "hospital", "healthcare": "hospital", "name": "Gumira Clinic", "operator": "Ministry of Health and Child Care", "operator:type": "government"}}, {"type": "way", "id": 1039275522, "center": {"lat": -25.9669395, "lon": 32.4386995}, "nodes": [9570398543, 9570398542, 9570398541, 9570398540, 9570398539, 9570398538, 9570398537, 9570398536, 9570398535, 9570398534, 9570398533, 9570398532, 9570398531, 9570398530, 9570398529, 9570398528, 9570398527, 9570398526, 9570398525, 9570398524, 9570398523, 9570398522, 9570398521, 9570398520, 9570398519, 9570398518, 9570398517, 9570392816, 9570392815, 9570392814, 9570392813, 9570392812, 9570392811, 9570392810, 9570392809, 9570392808, 9570392807, 9570392806, 9570392805, 9570392804, 9570392803, 9570392802, 9570392801, 9570392800, 9570392799, 9570392798, 9570392797, 9570392796, 9570392795, 9570392794, 9570392793, 9570392792, 9570392791, 9570392790, 9570392789, 9570392788, 9570392787, 9570392786, 9570392785, 9570392784, 9570392783, 9570392782, 9570392781, 9570392780, 9570392779, 9570392778, 9570392777, 9570398543], "tags": {"addr:district": "Matola", "addr:subdistrict": "Matola C", "amenity": "hospital", "building": "hospital", "name": "Hospital Provincial da Matola", "source": "#ProjectoDeRedu\u00e7\u00e3oDeRiscoDeDesastresUrbano #UrbanDisasterRiskReductionProject #CruzVermelhadeMo\u00e7ambique \u00a0#CruzVermelhaAlem\u00e3 #MozambicanRedCross #GermanRedCross"}}, {"type": "way", "id": 1039275523, "center": {"lat": -25.9663476, "lon": 32.4401351}, "nodes": [9570398551, 9570398550, 9570398549, 9570398548, 9570398547, 9570398546, 9570398545, 9570398544, 9570398551], "tags": {"addr:district": "Matola", "addr:subdistrict": "Matola C", "amenity": "hospital", "building": "hospital", "name": "Centro de Sa\u00fade", "source": "#ProjectoDeRedu\u00e7\u00e3oDeRiscoDeDesastresUrbano #UrbanDisasterRiskReductionProject #CruzVermelhadeMo\u00e7ambique \u00a0#CruzVermelhaAlem\u00e3 #MozambicanRedCross #GermanRedCross"}}, {"type": "way", "id": 1046871408, "center": {"lat": -28.3307686, "lon": 32.1006788}, "nodes": [9626713185, 9626713186, 9626713187, 9626713188, 9626713189, 9626713190, 9626713191, 9626713192, 9626713185], "tags": {"amenity": "hospital", "healthcare": "clinic", "name": "Somkhele Clinic"}}, {"type": "way", "id": 1050096232, "center": {"lat": -23.4681105, "lon": 30.3116288}, "nodes": [9650247544, 9650247545, 9650247546, 9650247547, 9650247544], "tags": {"amenity": "hospital", "healthcare": "hospital"}}, {"type": "way", "id": 1053260030, "center": {"lat": -24.8196541, "lon": 31.2617895}, "nodes": [9679362660, 9679362661, 9679362662, 9679362663, 9679362664, 9679362665, 9679362666, 9679362667, 9679362668, 9679362669, 9679362670, 9679362671, 9679362672, 9679362673, 9679362674, 9679362660], "tags": {"addr:city": "Acornhoek", "addr:housenumber": "Stand 1257", "addr:postcode": "1365", "addr:street": "Thulamahashe", "amenity": "hospital", "contact:phone": "013 708 7940", "emergency": "yes", "healthcare": "hospital", "healthcare:speciality": "general;maternity;chronic;emergency", "name": "Agincourt Community Health Center", "operator": "Mpumlanga Department of Health", "operator:type": "public"}}, {"type": "way", "id": 1054039723, "center": {"lat": -28.027918, "lon": 32.1598619}, "nodes": [9686376251, 9686376252, 9686376253, 9686376254, 9686376255, 9686376256, 9686376257, 9686376251], "tags": {"amenity": "hospital", "healthcare": "hospital"}}, {"type": "way", "id": 1060193292, "center": {"lat": -24.7273114, "lon": 31.2073878}, "nodes": [9740683797, 9740683798, 9740683799, 9740683800, 9740683801, 9740705622, 9740683797], "tags": {"addr:city": "thulamahashe", "addr:postcode": "1365", "amenity": "hospital", "contact:phone": "013 773 1350", "emergency": "yes", "healthcare": "hospital", "name": "Thulamahashe Community Health C entre", "operator": "Mpumalanga Department Of Health", "operator:type": "public"}}, {"type": "way", "id": 1062257272, "center": {"lat": -28.3673353, "lon": 32.1741229}, "nodes": [9758830355, 9758830356, 9758830357, 9758830358, 9758830359, 9758830360, 9758830361, 9758830362, 9758830363, 9758830355], "tags": {"amenity": "hospital", "healthcare": "hospital"}}, {"type": "way", "id": 1062395929, "center": {"lat": -23.3077615, "lon": 30.2946845}, "nodes": [9760114625, 9760114626, 9760114627, 9760114628, 9760114629, 9760114630, 9760114631, 9760114632, 9760114633, 9760114634, 9760114635, 9760114636, 9760114625], "tags": {"addr:city": "Thohoyandou", "addr:street": "Tiyani Village,", "amenity": "hospital", "contact:phone": "+27 15 873 0019", "emergency": "yes", "healthcare": "hospital", "healthcare:speciality": "general;emergency;maternity", "name": "Tiyani Health Centre", "operator": "Limpopo Department Of Health", "operator:type": "public"}}, {"type": "way", "id": 1083634599, "center": {"lat": -29.8706667, "lon": 30.8309068}, "nodes": [9930546259, 9930546260, 9930546261, 9930546262, 9930546264, 9930546265, 9930546266, 9930546267, 9930546268, 9930546259], "tags": {"amenity": "hospital", "healthcare": "hospital"}}, {"type": "way", "id": 1084283757, "center": {"lat": -28.3293141, "lon": 32.0048276}, "nodes": [9935951675, 9935951676, 9935951677, 9935951678, 9935951679, 9935951680, 9935951681, 9935951682, 9935951675], "tags": {"amenity": "hospital", "healthcare": "hospital"}}, {"type": "way", "id": 1084388075, "center": {"lat": -23.6493228, "lon": 30.2173577}, "nodes": [9936935080, 9936935081, 9936935082, 9936935083, 9936935084, 7060488819, 7060415059, 9936935080], "tags": {"amenity": "hospital", "healthcare": "hospital"}}, {"type": "way", "id": 1084446808, "center": {"lat": -23.4154447, "lon": 30.2060349}, "nodes": [9937478334, 9937478335, 9937478336, 9937478337, 9937478334], "tags": {"amenity": "hospital", "healthcare": "hospital", "name": "Middlewater clinic"}}, {"type": "way", "id": 1084540945, "center": {"lat": -28.245057, "lon": 32.0880761}, "nodes": [9938306412, 9938306413, 9938306414, 9938306415, 9938306416, 9938399317, 9938399318, 9938306412], "tags": {"amenity": "hospital", "healthcare": "hospital"}}, {"type": "way", "id": 1085114438, "center": {"lat": -28.2166902, "lon": 31.6345275}, "nodes": [9942829864, 9942829865, 9942829866, 9942829867, 9942829868, 9942829869, 9942829870, 9942829871, 9942829864], "tags": {"amenity": "hospital", "healthcare": "hospital", "name": "LOMO CLINIC", "operator": "KZN Department of Health", "operator:type": "government", "phone": "+27 35 879 9014", "website": "https://www.healthsites.org.za/kwazulu-natal-zululand-mahlabatini-lomo-clinic.html"}}, {"type": "way", "id": 1085919581, "center": {"lat": -25.7618915, "lon": 31.0514188}, "nodes": [9950226526, 9950226527, 9950226528, 9950226529, 9950226530, 9950226531, 9950226526], "tags": {"addr:city": "Barberton", "addr:postcode": "1300", "addr:street": "Havelock Stree", "amenity": "hospital", "emergency": "yes", "fax": "013 712 4592", "healthcare": "hospital", "healthcare:speciality": "general;chronic;maternity", "name": "MediClinic Barberton", "operator": "Mediclinic", "operator:type": "private", "operator:wikidata": "Q1916123", "phone": "+27 13 712 4279", "website": "https://www.mediclinic.co.za/hospitals/Pages/about.aspx?h=33"}}, {"type": "way", "id": 1086104696, "center": {"lat": -28.1997241, "lon": 32.1683524}, "nodes": [9951771255, 9951771256, 9951771257, 9951771258, 9951771255], "tags": {"amenity": "hospital", "healthcare": "hospital"}}, {"type": "way", "id": 1090998649, "center": {"lat": -25.7806868, "lon": 31.0285004}, "nodes": [9992805986, 9992805987, 9992805988, 9992805989, 9992805990, 9992805986], "tags": {"amenity": "hospital", "healthcare": "hospital", "name": "Barberton TB Hospital", "operator": "SANTA"}}, {"type": "way", "id": 1091801145, "center": {"lat": -28.0172756, "lon": 31.9743582}, "nodes": [9999223527, 9999223528, 9999223529, 9999223530, 9999223531, 9999223527], "tags": {"amenity": "hospital", "healthcare": "hospital"}}, {"type": "way", "id": 1098754984, "center": {"lat": -25.8891431, "lon": 32.6537762}, "nodes": [10060380983, 10060380984, 10060380985, 10060380986, 10060380983], "tags": {"addr:city": "Bairro de Mapulene", "addr:street": "Rua da Farm\u00e1cia", "amenity": "hospital", "healthcare": "hospital", "healthcare:speciality": "general", "name": "Farm\u00e1cia Unida"}}, {"type": "way", "id": 1099025046, "center": {"lat": -24.8916026, "lon": 30.0132978}, "nodes": [10063222017, 10063194111, 10063194112, 10063222019, 10063194113, 10063194114, 10063194115, 10063222017], "tags": {"amenity": "hospital", "healthcare": "hospital"}}, {"type": "way", "id": 1100730707, "center": {"lat": -23.3458266, "lon": 30.3697958}, "nodes": [10074034312, 10074034313, 10074034314, 10074034315, 10074034316, 10074042717, 10074042718, 10074042719, 10074034312], "tags": {"amenity": "hospital", "healthcare": "hospital"}}, {"type": "way", "id": 1101308010, "center": {"lat": -28.1326365, "lon": 31.9411702}, "nodes": [10078223549, 10078223550, 10078223551, 10078223552, 10078223549], "tags": {"amenity": "hospital", "healthcare": "hospital"}}, {"type": "way", "id": 1102668258, "center": {"lat": -23.4118452, "lon": 30.4209942}, "nodes": [10090188195, 10090188196, 10090188197, 10090188198, 10090188199, 10090188200, 10090188201, 10090188195], "tags": {"amenity": "hospital", "healthcare": "hospital"}}, {"type": "way", "id": 1104366081, "center": {"lat": -29.7802502, "lon": 30.9791991}, "nodes": [10105974129, 10105974130, 10105974131, 10105974132, 10105974133, 9923319752, 10105974134, 10105974135, 10105974136, 10105974137, 10105974129], "tags": {"addr:city": "Newlands East, Durban", "addr:postcode": "4037", "addr:street": "John Dory Drive", "amenity": "hospital", "healthcare": "hospital"}}, {"type": "way", "id": 1104376088, "center": {"lat": -28.1738077, "lon": 30.2295644}, "nodes": [10106049831, 10106049832, 10106049833, 10106049834, 10106049835, 10106049836, 10106049837, 10106049838, 10106049839, 10106049840, 10106049841, 10106049842, 10106049843, 10106049844, 10106049845, 10106049846, 10106049847, 10106049848, 10106049849, 10106049850, 10106049851, 10106049852, 10106049853, 10106049854, 10106049831], "tags": {"amenity": "hospital", "healthcare": "hospital"}}, {"type": "way", "id": 1104376091, "center": {"lat": -28.1731427, "lon": 30.2288529}, "nodes": [10106049875, 10106049876, 10106049877, 10106049878, 10106049879, 10106049880, 10106049881, 10106049882, 10106049883, 10106049884, 10106049885, 10106049886, 10106049887, 10106049888, 10106049875], "tags": {"amenity": "hospital", "healthcare": "hospital"}}, {"type": "way", "id": 1105111308, "center": {"lat": -23.3697116, "lon": 30.5193791}, "nodes": [10112873505, 10112873506, 10112873507, 10112873508, 10112873509, 10112873510, 10112873511, 10112873512, 10112873513, 10112873514, 10112873505], "tags": {"amenity": "hospital", "healthcare": "hospital"}}, {"type": "way", "id": 1105301322, "center": {"lat": -23.4638148, "lon": 30.3672477}, "nodes": [10114664860, 10114664861, 10114664862, 10114664863, 10114664864, 10114664865, 10114664866, 10114664860], "tags": {"amenity": "hospital", "healthcare": "hospital"}}, {"type": "way", "id": 1105603783, "center": {"lat": -27.4829146, "lon": 32.2130124}, "nodes": [10117175267, 10117175268, 10117175269, 10117175270, 10117175271, 10117175272, 10117175267], "tags": {"amenity": "hospital", "healthcare": "hospital"}}, {"type": "way", "id": 1105659895, "center": {"lat": -23.1687851, "lon": 30.2175237}, "nodes": [10117642031, 10117642032, 10117642033, 10117642034, 10117642031], "tags": {"amenity": "hospital", "healthcare": "hospital"}}, {"type": "way", "id": 1106016362, "center": {"lat": -23.3159363, "lon": 30.4060854}, "nodes": [10120619744, 10120619745, 10120619746, 10120619747, 10120619748, 10120619769, 10120619749, 10120619744], "tags": {"amenity": "hospital", "healthcare": "hospital"}}, {"type": "way", "id": 1106081078, "center": {"lat": -27.9606417, "lon": 32.1404323}, "nodes": [10121129698, 10121129699, 10121129700, 10121129701, 10121129698], "tags": {"amenity": "hospital", "healthcare": "hospital"}}, {"type": "way", "id": 1110372199, "center": {"lat": -20.3063305, "lon": 30.0476208}, "nodes": [10157768811, 10157768810, 10157768809, 10157768808, 10157768807, 10157768806, 9942736018, 10157768811], "tags": {"amenity": "hospital", "name": "Zvishavane District Hospital"}}, {"type": "way", "id": 1118673428, "center": {"lat": -29.9595804, "lon": 30.8499484}, "nodes": [10231190074, 10231190075, 10231190080, 10231190090, 10231190076, 10231190077, 10231190078, 10231190079, 10231190074], "tags": {"amenity": "hospital", "healthcare": "hospital"}}, {"type": "way", "id": 1173413636, "center": {"lat": -26.4980458, "lon": 31.3767529}, "nodes": [10902638432, 10902638433, 10902638434, 10902638435, 10902638432], "tags": {"amenity": "hospital", "building": "yes"}}, {"type": "way", "id": 1173413637, "center": {"lat": -26.4981634, "lon": 31.3764277}, "nodes": [10902638436, 10902638437, 10902638438, 10902638439, 10902638436], "tags": {"amenity": "hospital", "building": "yes"}}, {"type": "way", "id": 1173413641, "center": {"lat": -26.4985074, "lon": 31.3768841}, "nodes": [10902638450, 10902638451, 10902638452, 10902638453, 10902638454, 10902638455, 10902638456, 10902638457, 10902638450], "tags": {"amenity": "hospital", "building": "yes"}}, {"type": "way", "id": 1173413642, "center": {"lat": -26.4986543, "lon": 31.3766434}, "nodes": [10902638458, 10902638459, 10902638460, 10902638461, 10902638458], "tags": {"amenity": "hospital", "building": "yes"}}, {"type": "way", "id": 1173413643, "center": {"lat": -26.4987218, "lon": 31.3768699}, "nodes": [10902638462, 10902638463, 10902638464, 10902638465, 10902638462], "tags": {"amenity": "hospital", "building": "yes"}}, {"type": "way", "id": 1173413644, "center": {"lat": -26.4987247, "lon": 31.3765346}, "nodes": [10902638466, 10902638467, 10902638468, 10902638469, 10902638466], "tags": {"amenity": "hospital", "building": "yes"}}, {"type": "way", "id": 1173413645, "center": {"lat": -26.4987882, "lon": 31.3765913}, "nodes": [10902638470, 10902638471, 10902638472, 10902638473, 10902638470], "tags": {"amenity": "hospital", "building": "yes"}}, {"type": "way", "id": 1173413646, "center": {"lat": -26.4985665, "lon": 31.3770468}, "nodes": [10902638474, 10902638475, 10902638476, 10902638477, 10902638478, 10902638479, 10902638480, 10902638481, 10902638474], "tags": {"amenity": "hospital", "building": "yes"}}, {"type": "way", "id": 1201807541, "center": {"lat": -29.9374023, "lon": 30.9547161}, "nodes": [1424967509, 7495905976, 11142462708, 11142462707, 11142462706, 11142462705, 11142462704, 11142462703, 11142462702, 11142462701, 11142462700, 11142462699, 11142462698, 11142462697, 11142462696, 11142462695, 11142462694, 11142462693, 11142462692, 11142462691, 11142462690, 11142462689, 11142462688, 11142462687, 11142462686, 11142462685, 11142462684, 11142462683, 11142462682, 11142462681, 11142462680, 11142462679, 11142462678, 11142463007, 7519415215, 11142462677, 11142462676, 11142462675, 11142462674, 11142462673, 11142462672, 11142462671, 11142462670, 11142462669, 11142462668, 11142462667, 11142462666, 11142462665, 11142462664, 11142462663, 11142462662, 11142462661, 11142462660, 11142462659, 11142462658, 11142462657, 6956194637, 11142462723, 11142462722, 11142462721, 1424967509], "tags": {"addr:city": "Mobeni", "addr:housenumber": "1", "addr:street": "1 Higginson Highway", "amenity": "hospital", "barrier": "fence", "email": "mbuso.khuboni@kznhealth.gov.za", "emergency": "yes", "fax": "+27 (0) 31 462 1993", "healthcare": "hospital", "name": "Clairwood Hospital", "operator": "KZN Department Of Health", "operator:type": "government", "phone": "+27 (0) 31 451 5000"}}, {"type": "way", "id": 1215523125, "center": {"lat": -21.1906348, "lon": 30.538953}, "nodes": [11262093387, 11262067732, 11262093388, 11262093389, 11262093387], "tags": {"addr:city": "Masvingo", "addr:street": "Dine", "amenity": "hospital", "boundary": "landuse", "healthcare": "hospital", "healthcare:speciality": "general", "name": "Dine Clinic/Maranda Mission Clinic"}}, {"type": "way", "id": 1215688717, "center": {"lat": -29.0713079, "lon": 30.5823795}, "nodes": [11263750258, 11263701228, 11263701229, 11263701230, 11263701231, 11263701232, 11263750261, 11263750260, 11263750259, 11263750258], "tags": {"amenity": "hospital"}}, {"type": "relation", "id": 3854518, "center": {"lat": -29.78995, "lon": 30.7426972}, "members": [{"type": "way", "ref": 288982246, "role": "outer"}, {"type": "way", "ref": 290137037, "role": "outer"}, {"type": "way", "ref": 290137024, "role": "outer"}], "tags": {"amenity": "hospital", "emergency": "yes", "healthcare": "hospital", "name": "Busamed Hillcrest Private Hospital", "operator": "Ross Healthcare", "operator:type": "private", "type": "multipolygon", "website": "http://www.hillcresthospital.co.za/"}}, {"type": "relation", "id": 4334500, "center": {"lat": -23.8636197, "lon": 35.3848998}, "members": [{"type": "way", "ref": 318558432, "role": "outer"}, {"type": "way", "ref": 318558434, "role": "inner"}, {"type": "way", "ref": 318558436, "role": "inner"}, {"type": "way", "ref": 318558433, "role": "inner"}], "tags": {"amenity": "hospital", "building": "yes", "healthcare": "hospital", "name": "Centro de Sa\u00fade Urbano", "type": "multipolygon"}}, {"type": "relation", "id": 4487584, "center": {"lat": -23.879567, "lon": 35.383771}, "members": [{"type": "way", "ref": 322111715, "role": "inner"}, {"type": "way", "ref": 322111771, "role": "inner"}, {"type": "way", "ref": 322111657, "role": "inner"}, {"type": "way", "ref": 322111729, "role": "inner"}, {"type": "way", "ref": 322111747, "role": "inner"}, {"type": "way", "ref": 446545474, "role": "inner"}, {"type": "way", "ref": 446545475, "role": "inner"}, {"type": "way", "ref": 322111687, "role": "inner"}, {"type": "way", "ref": 446545482, "role": "inner"}, {"type": "way", "ref": 322111728, "role": "inner"}, {"type": "way", "ref": 322111767, "role": "inner"}, {"type": "way", "ref": 322111672, "role": "inner"}, {"type": "way", "ref": 447121500, "role": "inner"}, {"type": "way", "ref": 322111724, "role": "inner"}, {"type": "way", "ref": 322111761, "role": "inner"}, {"type": "way", "ref": 322111676, "role": "inner"}, {"type": "way", "ref": 322111714, "role": "inner"}, {"type": "way", "ref": 322111690, "role": "inner"}, {"type": "way", "ref": 322111688, "role": "inner"}, {"type": "way", "ref": 322111726, "role": "inner"}, {"type": "way", "ref": 322111698, "role": "inner"}, {"type": "way", "ref": 322111712, "role": "inner"}, {"type": "way", "ref": 322111701, "role": "inner"}, {"type": "way", "ref": 447121502, "role": "inner"}, {"type": "way", "ref": 322111694, "role": "inner"}, {"type": "way", "ref": 322111759, "role": "inner"}, {"type": "way", "ref": 322111683, "role": "inner"}, {"type": "way", "ref": 322111744, "role": "inner"}, {"type": "way", "ref": 447121508, "role": "inner"}, {"type": "way", "ref": 322111710, "role": "inner"}, {"type": "way", "ref": 322111661, "role": "inner"}, {"type": "way", "ref": 322111667, "role": "inner"}, {"type": "way", "ref": 447121499, "role": "inner"}, {"type": "way", "ref": 322111674, "role": "inner"}, {"type": "way", "ref": 322111762, "role": "inner"}, {"type": "way", "ref": 322111721, "role": "inner"}, {"type": "way", "ref": 447121503, "role": "inner"}, {"type": "way", "ref": 322111681, "role": "inner"}, {"type": "way", "ref": 322111765, "role": "inner"}, {"type": "way", "ref": 322111693, "role": "inner"}, {"type": "way", "ref": 447121506, "role": "inner"}, {"type": "way", "ref": 322111702, "role": "inner"}, {"type": "way", "ref": 447121478, "role": "inner"}, {"type": "way", "ref": 322111677, "role": "inner"}, {"type": "way", "ref": 322111691, "role": "inner"}, {"type": "way", "ref": 322111704, "role": "inner"}, {"type": "way", "ref": 322111737, "role": "inner"}, {"type": "way", "ref": 322111735, "role": "inner"}, {"type": "way", "ref": 322111739, "role": "inner"}, {"type": "way", "ref": 322111742, "role": "inner"}, {"type": "way", "ref": 291775657, "role": "outer"}, {"type": "way", "ref": 322111719, "role": "inner"}, {"type": "way", "ref": 446545484, "role": "inner"}, {"type": "way", "ref": 322111685, "role": "inner"}, {"type": "way", "ref": 322111653, "role": "inner"}, {"type": "way", "ref": 322111669, "role": "inner"}, {"type": "way", "ref": 322111740, "role": "inner"}, {"type": "way", "ref": 322111718, "role": "inner"}, {"type": "way", "ref": 322111663, "role": "inner"}, {"type": "way", "ref": 322111709, "role": "inner"}, {"type": "way", "ref": 243212421, "role": "inner"}, {"type": "way", "ref": 322111722, "role": "inner"}, {"type": "way", "ref": 322111723, "role": "inner"}, {"type": "way", "ref": 322111699, "role": "inner"}, {"type": "way", "ref": 446545483, "role": "inner"}, {"type": "way", "ref": 322111707, "role": "inner"}, {"type": "way", "ref": 322111655, "role": "inner"}, {"type": "way", "ref": 322111665, "role": "inner"}, {"type": "way", "ref": 345124197, "role": "inner"}, {"type": "way", "ref": 322111652, "role": "inner"}, {"type": "way", "ref": 322111679, "role": "inner"}, {"type": "way", "ref": 322111756, "role": "inner"}, {"type": "way", "ref": 322111753, "role": "inner"}, {"type": "way", "ref": 322111659, "role": "inner"}, {"type": "way", "ref": 389034386, "role": "inner"}, {"type": "way", "ref": 389034385, "role": "inner"}, {"type": "way", "ref": 322111654, "role": "inner"}, {"type": "way", "ref": 322111731, "role": "inner"}], "tags": {"addr:housenumber": "53", "addr:street": "Av Eduardo Mondlane", "amenity": "hospital", "contact:phone": "+258 29 320345", "name": "Hospital Provincial de Inhambane", "type": "multipolygon"}}, {"type": "relation", "id": 5307675, "center": {"lat": -29.8488527, "lon": 30.8251717}, "members": [{"type": "way", "ref": 302901042, "role": "outer"}, {"type": "way", "ref": 355423224, "role": "outer"}], "tags": {"addr:city": "Pinetown", "addr:housenumber": "1", "addr:postcode": "3610", "addr:street": "Hospital Road", "amenity": "hospital", "emergency": "yes", "name": "St Mary's Hospital", "type": "multipolygon", "wikidata": "Q30262034"}}, {"type": "relation", "id": 6674457, "center": {"lat": -20.0910481, "lon": 30.8345903}, "members": [{"type": "way", "ref": 449723086, "role": "inner"}, {"type": "way", "ref": 258620220, "role": "outer"}], "tags": {"amenity": "hospital", "building": "yes", "name": "Clinic", "type": "multipolygon"}}, {"type": "relation", "id": 7788717, "center": {"lat": -27.1378302, "lon": 32.0055617}, "members": [{"type": "way", "ref": 545177688, "role": "outer"}, {"type": "way", "ref": 545182501, "role": "outer"}], "tags": {"amenity": "hospital", "name": "Mosvold District Hosiptal", "type": "multipolygon"}}, {"type": "relation", "id": 15060330, "center": {"lat": -29.9151679, "lon": 30.8874494}, "members": [{"type": "way", "ref": 1125605520, "role": "outer"}, {"type": "way", "ref": 1125644935, "role": "outer"}, {"type": "way", "ref": 1062249592, "role": "outer"}, {"type": "way", "ref": 1125635036, "role": "outer"}, {"type": "way", "ref": 1125605523, "role": "outer"}], "tags": {"addr:city": "Westcliff, Chatsworth", "addr:housenumber": "336", "addr:postcode": "4092", "addr:street": "R K Khan Circle", "amenity": "hospital", "contact:phone": "+27 (0) 31 459 6000", "email": "mbali.mthalane@kznhealth.gov.za", "emergency": "yes", "fax": "+27 (0) 31 401 1247", "healthcare": "hospital", "healthcare:speciality": "c.a.t._scanner;casualty_dept/trauma;dental_facilities;general_medical;general_surgery;high_care;intensive_care;maternity;medical_laboratory_services;theatres;occupational_therapy;orthopaedics;physiotherapy_services;internal_medicine;paediatrics;obstetrics", "name": "R.K Khan Hospital", "operator": "KZN Department Of Health", "operator:type": "government", "type": "multipolygon", "website": "www.kznhealth.gov.za/rkkhanhospital.htm", "wheelchair": "yes"}}, {"type": "relation", "id": 15270501, "center": {"lat": -29.9264953, "lon": 30.924954}, "members": [{"type": "way", "ref": 1131200720, "role": "outer"}, {"type": "way", "ref": 1131200724, "role": "outer"}, {"type": "way", "ref": 1131200722, "role": "outer"}, {"type": "way", "ref": 1131214533, "role": "outer"}, {"type": "way", "ref": 1130725858, "role": "outer"}, {"type": "way", "ref": 1131200725, "role": "outer"}], "tags": {"amenity": "hospital", "type": "multipolygon"}}]}