{"version": 0.6, "generator": "Overpass API 0.7.61.5 4133829e", "osm3s": {"timestamp_osm_base": "2023-10-31T20:48:30Z", "copyright": "The data included in this document is from www.openstreetmap.org. The data is made available under ODbL."}, "elements": [{"type": "node", "id": 9396172217, "lat": -22.6705313, "lon": 14.5300562, "tags": {"amenity": "hospital", "name": "Swakopmund State Hospital - Covid Vaccination Center"}}, {"type": "node", "id": 10777479691, "lat": -21.9803539, "lon": 16.9111258, "tags": {"amenity": "hospital", "healthcare": "hospital"}}, {"type": "node", "id": 11247664825, "lat": -22.5415648, "lon": 17.0906586, "tags": {"addr:city": "Windhoek", "addr:postcode": "9000", "addr:street": "Heliodoor Street", "amenity": "hospital", "email": "Windhoek@Mediclinic.co.za", "healthcare": "hospital", "name": "Mediclinic Windhoek", "operator": "Mediclinic", "operator:type": "private", "operator:wikidata": "Q1916123", "phone": "+264 61 433 1000", "website": "https://www.mediclinic.co.za/en/windhoek/home.html"}}, {"type": "way", "id": 97021029, "center": {"lat": -27.9660545, "lon": 16.7587865}, "nodes": [1256673294, 7605130996, 1124025030, 1124025037, 1124025043, 7605130997, 1124025044, 1124025054, 1124025059, 1124025061, 1256673294], "tags": {"amenity": "hospital", "healthcare": "hospital", "name": "Rosh Care Clinic", "source": "bing aerial"}}, {"type": "way", "id": 117335243, "center": {"lat": -22.5442966, "lon": 17.0858329}, "nodes": [1321459764, 1321459762, 1321459766, 1321459804, 1321459792, 1321459814, 1321459820, 1321459791, 1321459764], "tags": {"addr:postcode": "9000", "addr:street": "General Murtala Mohammed Avenue", "amenity": "hospital", "building": "yes", "check_date": "2023-10-08", "emergency": "no", "health_facility": "health_centre", "name": "Paramount Healthcare Centre", "opening_hours": "24/7", "phone": "+264 61 287 1106", "website": "https://www.paramounthcc.com/"}}, {"type": "way", "id": 122000497, "center": {"lat": -22.5528937, "lon": 17.0694737}, "nodes": [1364260395, 1364260361, 1364260386, 1364260344, 1364260311, 1364260331, 1364260300, 1364260366, 1364260368, 1364260337, 1364260389, 1364260313, 1364260309, 1364260363, 1364260377, 1364260385, 1364260357, 1364260301, 1364260383, 4108160850, 4108160851, 4108160852, 4108160853, 4108160854, 4108160855, 4108160856, 4108160857, 4108160858, 4108160859, 4108160860, 4108160861, 4108160862, 4108160863, 4108160864, 4108160865, 4108160866, 4108160867, 1364260307, 1364260398, 1364260375, 1364260376, 1364260374, 1364260380, 1364260325, 1364260388, 1364260315, 10049750512, 1364260395], "tags": {"amenity": "hospital", "healthcare": "hospital", "name": "Windhoek Central Hospital", "wikidata": "Q8024212"}}, {"type": "way", "id": 122249961, "center": {"lat": -22.5464236, "lon": 17.0753058}, "nodes": [11141616130, 7171537010, 7171537032, 7171537078, 11141616132, 11141616133, 7171537044, 1366655581, 11141616131, 11141616130], "tags": {"addr:city": "Windhoek", "addr:postcode": "9000", "addr:street": "Rhino St", "amenity": "hospital", "emergency": "yes", "healthcare": "hospital", "name": "Rhino Park Private Hospital", "opening_hours": "24/7", "phone": "+26461375000", "website": "https://www.hospital-namibia.com"}}, {"type": "way", "id": 122899777, "center": {"lat": -21.4224878, "lon": 15.9617524}, "nodes": [7605130989, 1252336998, 7605130990, 1371858014, 7605130991, 7605130992, 7605130993, 1371858018, 7605130994, 7605130995, 7605130989], "tags": {"amenity": "hospital", "barrier": "fence", "healthcare": "hospital"}}, {"type": "way", "id": 241222101, "center": {"lat": -21.0787569, "lon": 17.3693945}, "nodes": [2489116330, 2489185446, 2489185448, 2489185449, 2489185451, 2489185452, 7606307518, 7606307517, 2489116330], "tags": {"amenity": "hospital", "healthcare": "hospital", "name": "Osire Health Center"}}, {"type": "way", "id": 242368430, "center": {"lat": -22.621865, "lon": 17.0948599}, "nodes": [9252583435, 9252583420, 9252583421, 9252583422, 9252583423, 9252583446, 9252583426, 9252583432, 9252583431, 9252583439, 9252583436, 9252583437, 9252583434, 9252583429, 9252583433, 9252583447, 9252583425, 9252583430, 9252583428, 9252583424, 9252583440, 9252583448, 9252583438, 9252583445, 9252583444, 9252583443, 9252583419, 9252583427, 9252583449, 9252583418, 9252583441, 9252583417, 9252583442, 9252583435], "tags": {"addr:city": "Windhoek", "addr:street": "Frankie Fredericks Drive", "amenity": "hospital", "check_date": "2023-09-01", "emergency": "yes", "healthcare": "hospital", "name": "Lady Pohamba Private Hospital", "opening_hours": "24/7", "operator:type": "private", "payment:credit_cards": "yes", "payment:debit_cards": "yes", "phone": "+264833359040", "website": "https://lpph.com.na", "wheelchair": "yes"}}, {"type": "way", "id": 287685099, "center": {"lat": -22.4555252, "lon": 18.9760854}, "nodes": [2912556233, 2912556234, 5475579442, 2912556235, 2912556236, 5475579473, 2912556237, 2912556238, 2912556239, 2912556240, 2912556241, 5476155852, 5476155865, 5476155866, 5476155850, 5476155864, 2912556233], "tags": {"amenity": "hospital", "healthcare": "hospital", "name": "Gobabis District Hospital"}}, {"type": "way", "id": 359595673, "center": {"lat": -22.6130876, "lon": 17.0582619}, "nodes": [3642715118, 3642715119, 3642715120, 3642715121, 3642715122, 3642715123, 3642715124, 3642715125, 3642715126, 3642715127, 3642715128, 3642715129, 3642715130, 3642715131, 3642715132, 3642715133, 3642715134, 3642715135, 3642715136, 3642715137, 3642715138, 3642715139, 3642715140, 3649303017, 3642715141, 3642715118], "tags": {"amenity": "hospital", "building": "yes", "cash_withdrawal:type": "checkout", "healthcare": "hospital", "name": "Health Sciences Press M Block", "operator": "University of Namibia"}}, {"type": "way", "id": 359832849, "center": {"lat": -22.5644504, "lon": 17.0820211}, "nodes": [3644652975, 4745648417, 3644652976, 3644652977, 3644652978, 3644652979, 7229705981, 3644652981, 3644652983, 7229705982, 3644652984, 4745648418, 3644652985, 3644652975], "tags": {"addr:housenumber": "92", "addr:street": "Mandume Ndemufayo Avenue", "amenity": "hospital", "check_date": "2023-09-24", "denomination": "roman_catholic", "email": "helpdesk@rchna.org", "emergency": "yes", "healthcare": "hospital", "name": "Roman Catholic Hospital", "name:de": "R\u00f6misch-Katholisches Krankenhaus", "name:es": "Hospital Cat\u00f3lico Romano", "phone": "+264 61 270 2444", "religion": "christian", "website": "https://www.rchnam.com/", "wikidata": "Q7361850"}}, {"type": "way", "id": 369046415, "center": {"lat": -28.0169958, "lon": 18.7410153}, "nodes": [3728767718, 3728767719, 3728767720, 3728767721, 3728767718], "tags": {"addr:city": "Karasburg", "addr:postcode": "23008", "addr:street": "Johannes Nangura Street", "amenity": "hospital", "emergency": "yes", "healthcare": "hospital", "name": "Karasburg State Hospital"}}, {"type": "way", "id": 369069399, "center": {"lat": -26.5672281, "lon": 18.1556257}, "nodes": [1372572819, 3728944685, 3728944686, 3728944687, 3728944688, 3728944689, 3728944690, 3728944691, 3728944692, 3728944693, 7638579989, 3728944694, 10911172789, 3728944695, 1372572819], "tags": {"addr:city": "Keetmanshoop", "amenity": "hospital", "emergency": "yes", "healthcare": "hospital", "name": "Keetmanshoop District Hospital", "phone": "+264 63 2209000"}}, {"type": "way", "id": 369187635, "center": {"lat": -22.5344366, "lon": 17.0648235}, "nodes": [8401672601, 6654012502, 3729987654, 3729987655, 3729987641, 8399315465, 592236771, 3729987642, 3729987643, 3729987644, 8401676668, 8401676642, 8401672569, 8401672606, 8401672567, 8401672593, 8401676663, 8401676618, 8401672545, 8401676644, 8401672587, 8401672601], "tags": {"amenity": "hospital", "emergency": "yes", "healthcare": "hospital", "name": "Katutura Hospital"}}, {"type": "way", "id": 413928934, "center": {"lat": -21.9321073, "lon": 15.8637734}, "nodes": [4151387132, 4151387133, 4151387139, 4151387140, 4151387132], "tags": {"amenity": "hospital", "healthcare": "hospital", "name": "Karibib Health Centre"}}, {"type": "way", "id": 438744905, "center": {"lat": -26.6397381, "lon": 15.1667538}, "nodes": [4364264866, 8333774232, 8333679469, 8274452348, 4364264867, 8274452413, 8274452414, 8274452412, 2517666010, 8324096870, 4364264794, 8274452411, 8274452344, 8274452338, 8274452345, 8274452346, 4364264866], "tags": {"addr:city": "L\u00fcderitz", "addr:postcode": "23016", "addr:street": "Hoof Street", "amenity": "hospital", "emergency": "yes", "healthcare": "hospital", "name": "L\u00fcderitz Hospital"}}, {"type": "way", "id": 439913826, "center": {"lat": -22.9651533, "lon": 14.5015659}, "nodes": [4375900322, 4375900323, 4375900324, 4375900325, 4375900326, 4375900327, 4375900322], "tags": {"addr:city": "Walvis Bay", "addr:postcode": "13013", "addr:street": "Tom Swemmer Street", "amenity": "hospital", "healthcare": "hospital", "name": "Walvis Bay State Hospital"}}, {"type": "way", "id": 474227415, "center": {"lat": -20.4693427, "lon": 16.6512917}, "nodes": [4682296698, 4682296702, 9245289295, 9245289296, 9245289297, 4682296698], "tags": {"addr:city": "Otjiwarongo", "addr:postcode": "12001", "addr:street": "Son Road", "amenity": "hospital", "emergency": "yes", "healthcare": "hospital", "name": "Otjiwarongo Medi-Clinic"}}, {"type": "way", "id": 474582741, "center": {"lat": -20.4627334, "lon": 16.6561386}, "nodes": [4685017908, 4685017909, 4685017910, 4685017911, 4685017900, 4685017901, 4685017902, 4685017903, 4685017904, 4685017905, 4685017906, 4685017907, 4685017908], "tags": {"addr:city": "Otjiwarongo", "addr:postcode": "12001", "addr:street": "Dr. Libertina Amathila Avenue", "amenity": "hospital", "barrier": "fence", "emergency": "yes", "healthcare": "hospital", "name": "Otjiwarongo State Hospital", "opening_hours": "24/7", "phone": "+264 67300900"}}, {"type": "way", "id": 485398251, "center": {"lat": -22.957137, "lon": 14.5100354}, "nodes": [4781710553, 8936614030, 4644924078, 8936614093, 10561962670, 2179737380, 10561962663, 2179737377, 4644924087, 8936614096, 8936614095, 4644924006, 4644924013, 4781710548, 4781710550, 4781710551, 4644924017, 4781710554, 8936705385, 4781710553], "tags": {"addr:city": "Walvis Bay", "addr:postcode": "13013", "addr:street": "Dr. Putch Harries Drive", "amenity": "hospital", "emergency": "yes", "healthcare": "hospital", "name": "Welwitschia Private Hospital", "website": "https://welwitschiahospital.com"}}, {"type": "way", "id": 550834436, "center": {"lat": -20.37845, "lon": 14.9693735}, "nodes": [5319959337, 5319959338, 5319959339, 5319959340, 10079872993, 5319959341, 5319959337], "tags": {"addr:city": "Khorixas", "amenity": "hospital", "healthcare": "hospital", "name": "Khorixas Hospital"}}, {"type": "way", "id": 552795937, "center": {"lat": -20.5898737, "lon": 17.451784}, "nodes": [5336585610, 5777731804, 5777731803, 5777731801, 5777731802, 5336585611, 5336585612, 4974470401, 4974470407, 4974470412, 5336585613, 5336585610], "tags": {"addr:city": "Okakarara", "addr:street": "John Tjikua Street", "amenity": "hospital", "healthcare": "hospital", "name": "Okakarara Hospital"}}, {"type": "way", "id": 568588818, "center": {"lat": -22.4467011, "lon": 18.9915492}, "nodes": [5470076366, 5470076348, 5470076356, 5470079393, 5470076363, 5470076378, 5470076366], "tags": {"amenity": "hospital", "barrier": "fence", "healthcare": "hospital", "name": "Epako Clinic"}}, {"type": "way", "id": 568848412, "center": {"lat": -22.4490726, "lon": 18.9802816}, "nodes": [3414952161, 5472162517, 5472162510, 5472163938, 8757901466, 5472163928, 5472163940, 8757901467, 5472163931, 5472163944, 5472163923, 5472163930, 3414952161], "tags": {"amenity": "hospital", "healthcare": "hospital", "name": "Gobabis Private Hospital"}}, {"type": "way", "id": 586401770, "center": {"lat": -22.6328391, "lon": 14.5383328}, "nodes": [5602857315, 5602857316, 5602857317, 5602857318, 5602857319, 5602857320, 11224985537, 11224985538, 11224985539, 11224985540, 11224985541, 5602857322, 5602857323, 5602857324, 5602857325, 5602857326, 5602857315], "tags": {"amenity": "hospital", "healthcare": "hospital", "name": "Spescare"}}, {"type": "way", "id": 608960142, "center": {"lat": -20.5510205, "lon": 17.4498039}, "nodes": [5768395216, 5768395217, 5768395218, 5768395219, 5768395220, 5768395221, 5768395222, 5768395223, 5768395216], "tags": {"addr:city": "Okakarara", "amenity": "hospital", "healthcare": "hospital"}}, {"type": "way", "id": 701777430, "center": {"lat": -22.5616666, "lon": 17.0853552}, "nodes": [6590555710, 6590555711, 6590555712, 6590555713, 6590555714, 6590555715, 6590555716, 6590555710], "tags": {"addr:city": "Windhoek", "amenity": "hospital", "check_date": "2023-06-17", "healthcare": "hospital", "name": "Robert Mugabe Clinic"}}, {"type": "way", "id": 723255529, "center": {"lat": -23.3265355, "lon": 17.0765321}, "nodes": [6834310912, 1046543447, 1046542431, 1041981440, 6834310983, 6834310976, 6834310940, 6834310912], "tags": {"addr:city": "Rehoboth", "addr:street": "Maharero St", "amenity": "hospital", "healthcare": "hospital", "name": "St Mary's Hospital", "opening_hours": "24/7", "phone": "0625222006"}}, {"type": "way", "id": 724174222, "center": {"lat": -21.9906154, "lon": 15.5859033}, "nodes": [10935401611, 1371276159, 10935411810, 258969090, 10935401612, 10935401611], "tags": {"amenity": "hospital", "emergency": "yes", "healthcare": "hospital", "name": "Usakos Hospital"}}, {"type": "way", "id": 759921057, "center": {"lat": -21.4300708, "lon": 15.9496777}, "nodes": [7098833769, 7098891687, 7098833767, 7098833781, 7098833770, 7098833782, 7098833784, 7098833769], "tags": {"amenity": "hospital", "barrier": "fence", "emergency": "yes", "healthcare": "hospital", "name": "Omaruru State Hospital"}}, {"type": "way", "id": 775685997, "center": {"lat": -21.9803641, "lon": 16.9111287}, "nodes": [7236445937, 7236445938, 7236445939, 7236445940, 7236445937], "tags": {"amenity": "hospital", "emergency": "yes", "healthcare": "hospital", "name": "Okahandja State Hospital"}}, {"type": "way", "id": 792160516, "center": {"lat": -20.1051563, "lon": 16.1563606}, "nodes": [973574962, 7405830101, 7405830102, 7405830103, 7405830108, 2281017310, 7405830113, 973574962], "tags": {"addr:city": "Outjo", "addr:street": "Ernst Fanuel Amporo Street", "amenity": "hospital", "emergency": "yes", "healthcare": "hospital", "name": "Outjo District Hospital", "phone": "+264 67 313250"}}, {"type": "way", "id": 792584959, "center": {"lat": -29.6769843, "lon": 17.0656006}, "nodes": [7411394418, 7411394419, 7411394420, 7411394421, 7411394422, 7411394423, 7411394418], "tags": {"addr:city": "Kleinsee", "addr:street": "Hospital Road", "amenity": "hospital", "emergency": "yes", "healthcare": "hospital", "healthcare:speciality": "general;maternity;chronic", "name": "Kleinzee Hospital", "operator": "Northern", "operator:type": "government", "phone": "+27 27 807 3759", "wheelchair": "yes"}}, {"type": "way", "id": 794542075, "center": {"lat": -24.6229391, "lon": 17.9663489}, "nodes": [7605130985, 7605130986, 7605130987, 7605130988, 7605130985], "tags": {"addr:city": "Mariental", "addr:housenumber": "1135", "addr:street": "Dr. Alphie Grobler Road", "amenity": "hospital", "emergency": "yes", "healthcare": "hospital", "name": "Mariental State Hospital", "phone": "+264 63 245250", "wheelchair": "yes"}}, {"type": "way", "id": 805296204, "center": {"lat": -24.1386028, "lon": 19.1176307}, "nodes": [7605102775, 7605102776, 7605102777, 7605102778, 7605102779, 7605102775], "tags": {"amenity": "hospital", "emergency": "yes", "healthcare": "hospital", "name": "Aranos State Clinic"}}, {"type": "way", "id": 805500338, "center": {"lat": -22.6700011, "lon": 14.5301555}, "nodes": [943445320, 9245216543, 9245216542, 9245216541, 9245216547, 9245216546, 9245216545, 9245216544, 9245216540, 9245216539, 9245216538, 9245216537, 7533434738, 8362709362, 8362709361, 8362709360, 8362709359, 8362709358, 8362709353, 8362709354, 8362709355, 7533434739, 7533434740, 9245216536, 9245216535, 9245216534, 8362714149, 8362714389, 8362709357, 7533434741, 8362709363, 8362709364, 8362709365, 7533434742, 7533434743, 943445320], "tags": {"amenity": "hospital", "healthcare": "hospital", "name": "Swakopmund State Hospital"}}, {"type": "way", "id": 805501226, "center": {"lat": -22.6559862, "lon": 14.5435516}, "nodes": [1357875035, 1357875039, 1357875013, 1357875041, 8942334509, 1357875035], "tags": {"addr:city": "Swakopmund", "addr:street": "Franziska van Neel St", "amenity": "hospital", "emergency": "yes", "healthcare": "hospital", "name": "Tamariskia Clinic", "website": "https://www.mediclinic.co.za/"}}, {"type": "way", "id": 805501265, "center": {"lat": -22.5648413, "lon": 17.1007757}, "nodes": [1027880287, 7533465333, 7533465334, 7533465335, 1027880287], "tags": {"amenity": "hospital", "healthcare": "hospital", "name": "Utopia Medi Spa"}}, {"type": "way", "id": 805501496, "center": {"lat": -24.8421268, "lon": 16.9783714}, "nodes": [1029261734, 7533503501, 9001813891, 9001813890, 7533503502, 7533503503, 1029261734], "tags": {"addr:city": "Maltah\u00f6he", "amenity": "hospital", "healthcare": "hospital", "name": "Maltah\u00f6he Health Centre"}}, {"type": "way", "id": 805503001, "center": {"lat": -20.1072726, "lon": 16.1653941}, "nodes": [2281990683, 2281990687, 2281990690, 2281990689, 2281990688, 2281990683], "tags": {"amenity": "hospital", "healthcare": "hospital", "name": "Outjo State Clinic"}}, {"type": "way", "id": 805503362, "center": {"lat": -21.4224642, "lon": 15.9617422}, "nodes": [1371858023, 7533437815, 1371858021, 7533573287, 1371858022, 1371858025, 1371858019, 7533437816, 1371858023], "tags": {"amenity": "hospital", "emergency": "yes", "healthcare": "hospital"}}, {"type": "way", "id": 805505061, "center": {"lat": -28.5504503, "lon": 16.4221978}, "nodes": [2241609586, 7533515727, 10989338657, 10989338656, 10989338655, 7533515728, 7533515729, 10989338654, 2241609586], "tags": {"amenity": "hospital", "healthcare": "hospital", "name": "Oranjemund Private Hospital"}}, {"type": "way", "id": 805505594, "center": {"lat": -21.9771952, "lon": 17.2084301}, "nodes": [4231249089, 7533530896, 7533530897, 7533530898, 7533530899, 7533530900, 7533530901, 7533530902, 4231249089], "tags": {"amenity": "hospital", "healthcare": "hospital", "name": "Ovitoto Clinic"}}, {"type": "way", "id": 891478222, "center": {"lat": -29.661031, "lon": 17.8816216}, "nodes": [8286073752, 8286073754, 8286073777, 8286073780, 8286073752], "tags": {"amenity": "hospital", "healthcare": "hospital", "name": "Dr Van Niekerk Hospital(Springbok Hospital)"}}, {"type": "way", "id": 996366780, "center": {"lat": -29.6609909, "lon": 17.8820812}, "nodes": [9200385993, 9200385994, 9200385995, 9200385996, 9200385997, 9200385998, 9200385999, 9200386000, 9200386001, 9200386002, 9200386003, 9200386004, 9200386005, 9200386006, 9200385993], "tags": {"addr:city": "Northern Cape, South Africa", "addr:postcode": "8240", "addr:street": "Hospital Street, Springbok,", "amenity": "hospital", "beds": "40", "emergency": "yes", "healthcare": "hospital", "healthcare:speciality": "orthopaedics;genral_surgery;psychiatry;obstetrics_&_gynaecology;paediatrics", "name": "Springbok  (Dr Van Niekerk Hospital) Hospital", "operator": "Northern Cape Department of Health", "operator:type": "public", "phone": "027 712 2018"}}, {"type": "way", "id": 1081333313, "center": {"lat": -22.4915556, "lon": 17.0588412}, "nodes": [10985382270, 7458884553, 10985382276, 9911066422, 9911066423, 10985382272, 10985382270], "tags": {"addr:city": "Windhoek", "addr:street": "Tauno Hatuiikulipi Street", "amenity": "hospital", "check_date": "2023-06-02", "emergency": "yes", "healthcare": "clinic", "internet_access": "yes", "name": "Maxuilili Clinic", "opening_hours": "Mo-Fr 07:00-17:00", "operator:type": "government", "wheelchair": "yes"}}]}