{"version": 0.6, "generator": "Overpass API 0.7.61.5 4133829e", "osm3s": {"timestamp_osm_base": "2023-10-31T20:48:30Z", "copyright": "The data included in this document is from www.openstreetmap.org. The data is made available under ODbL."}, "elements": [{"type": "node", "id": 1339920613, "lat": -21.2858838, "lon": 55.4057178, "tags": {"addr:city": "Saint-Louis", "addr:postcode": "97450", "addr:street": "Avenue du Docteur Raymond Verg\u00e8s", "amenity": "hospital", "emergency": "no", "healthcare": "hospital", "healthcare:speciality": "general;gynaecology", "name": "CHU H\u00f4pital de Saint-Louis", "operator": "CHU de la R\u00e9union", "ref:FR:FINESS": "970400081", "source": "cadastre-dgi-fr source : Direction G\u00e9n\u00e9rale des Imp\u00f4ts - Cadastre. Mise \u00e0 jour : 2011", "type:FR:FINESS": "101"}}, {"type": "node", "id": 2153376271, "lat": -20.0085091, "lon": 57.5598529, "tags": {"amenity": "hospital", "emergency": "yes", "healthcare": "hospital", "name": "Clinique du Nord"}}, {"type": "node", "id": 2656293192, "lat": -20.4747703, "lon": 57.6175984, "tags": {"amenity": "hospital", "name": "L'Escalier Medi Clinic"}}, {"type": "node", "id": 2779197607, "lat": -21.0579111, "lon": 55.710153, "tags": {"addr:city": "Saint-Benoit", "addr:housenumber": "30", "addr:postcode": "97470", "addr:street": "route Nationale 3", "amenity": "hospital", "emergency": "yes", "fax": "02 62 98 80 10", "healthcare": "hospital", "healthcare:speciality": "radiology;surgery;paediatrics;general;biology;internal;gynaecology", "name": "Groupe hospitalier Est Reunion", "operator:type": "public", "phone": "02 62 98 80 00", "ref:FR:FINESS": "970400073", "short_name": "GHER", "type:FR:FINESS": "355", "website": "https://www.gher-reunion.fr/", "wikidata": "Q3117856"}}, {"type": "node", "id": 2998127795, "lat": -20.1930807, "lon": 57.718423, "tags": {"addr:city": "Centre de Flacq", "amenity": "hospital", "emergency": "yes", "healthcare": "hospital", "name": "Flacq Hospital (Casualty)"}}, {"type": "node", "id": 2998127796, "lat": -20.1918388, "lon": 57.71895, "tags": {"addr:city": "Centre de Flacq", "amenity": "hospital", "healthcare": "hospital", "name": "Flacq Hospital"}}, {"type": "node", "id": 3753991177, "lat": -20.1484001, "lon": 57.6840757, "tags": {"amenity": "hospital", "name": "Primary School", "note": "Ramsaroop RAmgutty Aryan Vedic Aided School"}}, {"type": "node", "id": 3754148453, "lat": -20.0288247, "lon": 57.5976273, "tags": {"amenity": "hospital", "healthcare": "hospital", "name": "The Vale Area Health Centre"}}, {"type": "node", "id": 3754488545, "lat": -20.0603374, "lon": 57.5554514, "tags": {"addr:city": "Triolet", "amenity": "hospital", "healthcare": "hospital", "name": "Triolet Medi Clinic"}}, {"type": "node", "id": 4381296790, "lat": -21.2852078, "lon": 55.4103022, "tags": {"amenity": "hospital", "healthcare": "hospital", "healthcare:speciality": "psychiatry", "name": "CHU", "name:fr": "CHU"}}, {"type": "node", "id": 4612335549, "lat": -20.4112976, "lon": 57.7031815, "tags": {"amenity": "hospital", "name": "Mahebourg Hospital"}}, {"type": "node", "id": 4621711885, "lat": -20.1483065, "lon": 57.6844591, "tags": {"amenity": "hospital", "name": "Primary Health Care"}}, {"type": "node", "id": 4625704622, "lat": -20.4925313, "lon": 57.4709686, "tags": {"amenity": "hospital", "name": "Chemin Grenier Dispensary"}}, {"type": "node", "id": 7719082736, "lat": -20.9532841, "lon": 55.6550324, "tags": {"amenity": "hospital", "healthcare": "hospital"}}, {"type": "node", "id": 8490011365, "lat": -20.9315043, "lon": 55.3353647, "tags": {"amenity": "hospital", "description": "Etablissement secondaire", "emergency": "no", "healthcare": "hospital", "healthcare:speciality": "psychiatry", "name": "EPMSR CMP & HDJ"}}, {"type": "node", "id": 9282312806, "lat": -20.2786876, "lon": 57.4773386, "tags": {"amenity": "hospital", "healthcare": "hospital", "healthcare:speciality": "orthopaedics", "name": "Princess Margaret Orthopaedic Centre", "short_name": "PMOC", "start_date": "1956"}}, {"type": "way", "id": 132223472, "center": {"lat": -21.3453814, "lon": 55.4938609}, "nodes": [1455018881, 1647488912, 4015122500, 4015122499, 4015122498, 4015122497, 1647489206, 4153979803, 1455018941, 6462547235, 1455019017, 1452982336, 1452982305, 1452982251, 1452982117, 1452982108, 1455019186, 1455019184, 1455019177, 1455019172, 1455019166, 1455019160, 4062163452, 1455019153, 1455019152, 4062163451, 1455019155, 4062163455, 1455019167, 1455019170, 1455019171, 1455019168, 4062163456, 4062186663, 4062186662, 4062186660, 4062186661, 1455019134, 1455019129, 1455019125, 1455019105, 1455019097, 1455019095, 1455019056, 1455019007, 4234339997, 1455018906, 1455018884, 1455018856, 1455018881], "tags": {"addr:city": "Saint-Pierre", "addr:postcode": "97410", "addr:street": "Avenue Pr\u00e9sident Mitterrand", "alt_name": "CHU Sud", "amenity": "hospital", "email": "direction.ghsr@chu-reunion.fr", "emergency": "yes", "fax": "0262 35 90 04", "healthcare": "hospital", "healthcare:speciality": "chiropractic;paediatrics;ophthalmology;orthopaedics;radiology;emergency;maternity;cardiology;intensive", "layer": "-4", "name": "CHU de Saint-Pierre", "operator": "CHU de la R\u00e9union", "operator:type": "public", "phone": "0262 35 90 00", "ref:FR:FINESS": "970400057", "source": "cadastre-dgi-fr source : Cadastre 2011", "type:FR:FINESS": "101", "website": "https://www.chu-reunion.fr/", "wikidata": "Q2945682"}}, {"type": "way", "id": 146929588, "center": {"lat": -20.8884373, "lon": 55.4495074}, "nodes": [1601234033, 1601233619, 1601232890, 1601232976, 1601234414, 1601234408, 1601235276, 1601235272, 1601236399, 1601236494, 1601236339, 1601236155, 1601235972, 1601236127, 1601235916, 1601232720, 1601232503, 1601232810, 1601232622, 1601235165, 1601235225, 1601235280, 1601235186, 1601235351, 1601234936, 1601236191, 1601237392, 1601237259, 1601238012, 1601237714, 1601234033], "tags": {"addr:city": "Saint-Denis", "addr:housenumber": "60", "addr:postcode": "97400", "addr:street": "Rue Bertin", "amenity": "hospital", "building": "yes", "name": "Hopital d'enfants"}}, {"type": "way", "id": 147871010, "center": {"lat": -20.9546708, "lon": 55.3393599}, "nodes": [1610163627, 1610163071, 1610163087, 1610162870, 1610162861, 1610161948, 1610161946, 1610161974, 1610161846, 1610161549, 1610160964, 1610160977, 1610160807, 1610160744, 1610160465, 1610159588, 1610160617, 1610163138, 1610163627], "tags": {"amenity": "hospital", "building": "yes", "healthcare": "hospital", "source": "cadastre-dgi-fr source : Direction G\u00e9n\u00e9rale des Imp\u00f4ts - Cadastre. Mise \u00e0 jour : 2010"}}, {"type": "way", "id": 224268361, "center": {"lat": -20.4051165, "lon": 57.5928237}, "nodes": [2330869105, 5409225598, 10696548506, 3765920182, 2330869108, 2330869111, 10696548481, 10696548482, 10696548483, 10696548484, 10696548485, 10696548486, 2330869114, 10696548479, 10696548478, 10696548480, 2330869105], "tags": {"addr:housenumber": "M2", "addr:street": "Rose Belle", "amenity": "hospital", "healthcare": "hospital", "name": "Jawaharnal Nehru Hospital", "phone": "+2306037000", "short_name": "Nehru Hospital", "source": "Bing"}}, {"type": "way", "id": 252101167, "center": {"lat": -20.8912792, "lon": 55.4440569}, "nodes": [2582152447, 6920521282, 6920521281, 6920521283, 2582152448, 2582152449, 2582152450, 1648295536, 1601255458, 1601257085, 2582152451, 2582152452, 2582152453, 2582152454, 2582152455, 2582152456, 6920521300, 6920521299, 6920521302, 6920521301, 6920521304, 6920521303, 6920521305, 6920521313, 6920521314, 6920521315, 2582152457, 2582152458, 2582152459, 6920521284, 6920521285, 2582152460, 2582152461, 2582152447], "tags": {"addr:city": "Saint-Denis", "addr:postcode": "97400", "addr:street": "All\u00e9e des Topazes", "alt_name": "CHU Nord", "amenity": "hospital", "email": "direction.fguyon@chu-reunion.fr", "emergency": "yes", "fax": "+262 90 50 51", "healthcare": "hospital", "healthcare:speciality": "maternity;emergency;intensive", "name": "CHU F\u00e9lix Guyon", "operator": "CHU de la R\u00e9union", "operator:type": "public", "phone": "+262 90 50 50", "ref:FR:FINESS": "970400024", "type:FR:FINESS": "101", "wikidata": "Q2945665", "wikimedia_commons": "Category:Centre hospitalier F\u00e9lix-Guyon"}}, {"type": "way", "id": 252583112, "center": {"lat": -21.1331934, "lon": 55.4798161}, "nodes": [2586335720, 2586335721, 2586335722, 2586335723, 2586335724, 2586335725, 2586335726, 2586335727, 2586335728, 2586335729, 2586335730, 4833472986, 2586335731, 2586335732, 2586335733, 2586335734, 2586335735, 2586335736, 2586335737, 2586335720], "tags": {"addr:city": "Cilaos", "addr:postcode": "97413", "addr:street": "Rue des Fleurs Jaunes", "amenity": "hospital", "emergency": "no", "fax": "+262 2 62 31 80 37", "healthcare": "hospital", "healthcare:speciality": "general;paediatrics;gynaecology", "name": "CHU de la R\u00e9union - Site Sud Cilaos", "operator": "CHU de la R\u00e9union", "operator:type": "public", "phone": "+262 2 62 31 70 50", "ref:FR:FINESS": "970400099", "type:FR:FINESS": "101", "wikidata": "Q89586328"}}, {"type": "way", "id": 270988980, "center": {"lat": -20.2322621, "lon": 57.4957036}, "nodes": [2759372200, 2759372215, 2759372218, 2759372221, 2759372209, 2759372200], "tags": {"amenity": "hospital", "healthcare": "hospital", "name": "Clinique Mauricienne"}}, {"type": "way", "id": 371851055, "center": {"lat": -20.1484778, "lon": 57.6841827}, "nodes": [3753993215, 3753993216, 3753993217, 3753993218, 3753993219, 3753993220, 3753993221, 3753993222, 3753993223, 3753993224, 3753993215], "tags": {"amenity": "hospital", "healthcare": "hospital", "name": "Primary School"}}, {"type": "way", "id": 372014045, "center": {"lat": -20.1690032, "lon": 57.5020279}, "nodes": [4898024984, 4990803634, 4990803635, 4990803636, 4990803637, 4990803638, 4990803639, 4898024983, 6966161705, 4898024987, 6966161637, 6966161636, 6966161646, 6966161647, 4898024986, 6966161674, 6966161698, 4898024984], "tags": {"addr:city": "Port Louis", "addr:city:fr": "Port-Louis", "addr:street": "Volcy Pougnet Street", "addr:street:fr": "Rue Volcy Pougnet", "amenity": "hospital", "emergency": "yes", "healthcare": "hospital", "name": "Dr Abdool Gaffoor Jeetoo Hospital", "name:fr": "H\u00f4pital Docteur Abdool Gaffoor Jeetoo", "operator": "Ministry of Health and Quality of Life", "operator:fr": "Minist\u00e8re de la Sant\u00e9 et de la Qualit\u00e9 de Vie", "operator:type": "government"}}, {"type": "way", "id": 413639896, "center": {"lat": -20.0592359, "lon": 57.6852655}, "nodes": [4149212997, 4149212998, 4149212999, 4149213000, 4149213001, 4149213002, 4149213003, 4149213004, 4149213005, 4149213006, 4149213007, 4149213009, 5224548355, 4149212997], "tags": {"addr:city": "Poudre D'Or", "amenity": "hospital", "healthcare": "hospital", "name": "Poudre d'Or Hospital"}}, {"type": "way", "id": 445169724, "center": {"lat": -20.2837632, "lon": 57.6617225}, "nodes": [4426415588, 4426415889, 4426415890, 4426415891, 4426415892, 4426415893, 4426415588], "tags": {"addr:city": "Montage Blanche", "addr:street": "B54-Petit Paquet Road", "amenity": "hospital", "name": "Health Center Montagne Blanche", "phone": "437 5153"}}, {"type": "way", "id": 481987125, "center": {"lat": -20.9762611, "lon": 55.3008516}, "nodes": [1436601913, 4748604917, 4748604916, 4748604915, 4748604914, 1435364953, 1435364949, 1435364947, 1435364937, 1435364909, 1435364899, 1435364898, 6864438078, 1435364873, 6864438084, 1435364833, 6864438080, 1435364756, 6864438079, 1435364752, 1435364828, 1435364823, 1435364774, 1435364760, 1435364717, 1435364429, 1435364600, 1435364679, 1435364723, 1435364861, 1435364855, 1435364829, 1435364781, 1435364743, 1435364741, 1435364733, 4748604889, 4748604913, 4748604912, 4748604911, 4748604910, 4748604909, 4748604908, 4748604907, 4748604906, 4748604905, 4748604904, 4748604903, 4748604902, 4748604901, 4748604900, 4748604899, 4748604898, 4748604897, 4748604896, 4748604895, 4748604894, 4748604893, 4748604892, 4748604891, 4748604890, 1435364925, 1436601913], "tags": {"addr:street": "Impasse Plaine Chabrier", "amenity": "hospital", "emergency": "yes", "fax": "+262 2 62 45 30 00", "healthcare": "hospital", "healthcare:speciality": "general;paediatrics;chiropractic;internal;intensive", "layer": "-4", "name": "Centre hospitalier Ouest R\u00e9union", "old_name": "Centre hospitalier Gabriel Martin", "operator:type": "public", "phone": "+262 2 62 45 30 30", "ref:FR:FINESS": "970400065", "type:FR:FINESS": "355", "website": "http://www.chr-reunion.fr/", "wikidata": "Q2945668", "wikipedia": "fr:Centre hospitalier Ouest R\u00e9union"}}, {"type": "way", "id": 495859065, "center": {"lat": -20.2811393, "lon": 57.4845467}, "nodes": [4875896597, 4875896598, 4875896599, 4875896600, 4875896597], "tags": {"amenity": "hospital", "healthcare": "hospital", "name": "New Cancer Centre"}}, {"type": "way", "id": 533098326, "center": {"lat": -21.0558824, "lon": 55.7090991}, "nodes": [2643935704, 2643935711, 2643935722, 2643935715, 1647464782, 5172429862, 5172429859, 5172429858, 5172429857, 5172429856, 5172429855, 5172429854, 2643935704], "tags": {"amenity": "hospital", "emergency": "no", "healthcare": "hospital", "healthcare:speciality": "psychiatry", "name": "EPSMR H\u00f4pital psychiatrique", "operator:type": "public", "ref:FR:FINESS": "970410353", "type:FR:FINESS": "292"}}, {"type": "way", "id": 562247226, "center": {"lat": -21.3800469, "lon": 55.6191963}, "nodes": [5420346859, 5420346860, 5632768607, 5632768608, 5632768609, 5632768610, 5632768611, 5237022578, 5632768612, 5237015360, 5632768613, 5420346861, 1277286000, 574442778, 6906625907, 574442769, 6903202190, 6903202191, 574442765, 574442756, 5420346859], "tags": {"amenity": "hospital", "healthcare": "hospital", "name": "H\u00f4pital de Saint-Joseph", "wikidata": "Q89587465", "wikipedia": "fr:H\u00f4pital de Saint-Joseph"}}, {"type": "way", "id": 589891794, "center": {"lat": -21.3780639, "lon": 55.6118855}, "nodes": [5632768614, 5647824965, 5647824950, 5650822861, 5632768615, 5650822860, 5632768616, 5647824959, 5650822862, 5650822863, 5650822877, 5632768617, 5650822886, 5650822887, 5632768618, 5632768614], "tags": {"amenity": "hospital", "healthcare": "hospital", "name": "Clinique Saint-Joseph", "wikidata": "Q2979285", "wikipedia": "fr:Clinique Saint-Joseph"}}, {"type": "way", "id": 647952709, "center": {"lat": -20.0967639, "lon": 57.5593412}, "nodes": [6084091849, 6084091838, 6084091848, 6084091847, 1670801879, 6084091846, 6084091845, 6084091844, 6084091843, 6084091842, 6084091841, 6084091840, 6084091839, 6084091849], "tags": {"amenity": "hospital", "designation": "Public Hospital", "emergency": "yes", "name": "Sir Seewoosagur Ramgoolam National Hospital"}}, {"type": "way", "id": 677855079, "center": {"lat": -20.197226, "lon": 57.7750326}, "nodes": [6347039266, 6347039274, 6347039282, 6347039275, 6347039276, 6347039277, 6347039266], "tags": {"amenity": "hospital", "building:levels": "1", "healthcare": "hospital", "healthcare:speciality": "general", "name": "Belle Mare Community Health Centre", "opening_hours": "Mo-Fr 08:00-16:00; Sa 08:00-12:00", "parking": "surface"}}, {"type": "way", "id": 688997694, "center": {"lat": -21.0570014, "lon": 55.7105863}, "nodes": [6463003832, 6463003831, 6463003830, 6463003829, 6463003832], "tags": {"amenity": "hospital", "healthcare:speciality": "neurology;general;psychiatry", "name": "Fondation P\u00e8re Favron"}}, {"type": "way", "id": 742176651, "center": {"lat": -20.2934553, "lon": 57.4962678}, "nodes": [6948328305, 6948328306, 6948328307, 6948328308, 6948328309, 6948328312, 6948328313, 6948328320, 11259083764, 11259083763, 6948328305], "tags": {"addr:city": "Vacoas-Phoenix", "addr:street": "Stevenson Road", "alt_name": "Ear Nose and Throat Hospital", "amenity": "hospital", "building": "hospital", "healthcare": "hospital", "loc_name": "New ENT Hospital", "name": "ENT Hospital"}}, {"type": "way", "id": 784216854, "center": {"lat": -20.2781931, "lon": 57.4762798}, "nodes": [889891655, 7325631683, 4362137424, 4362137417, 889891655], "tags": {"amenity": "hospital", "emergency": "yes", "healthcare": "hospital", "healthcare:speciality": "cardiology;dermatology;emergency;general;gynaecology;oncology;orthopaedics;paediatrics;plastic_surgery;psychiatry;pulmonology;radiology;surgery;dentistry ;haemodyalisis", "name": "Victoria Hospital", "start_date": "1922"}}, {"type": "way", "id": 784217410, "center": {"lat": -20.3617355, "lon": 57.3724242}, "nodes": [1823071980, 7325616164, 7325616165, 7325616166, 7325616167, 7325616168, 1823071980], "tags": {"amenity": "hospital", "healthcare": "hospital", "name": "Dr. Yves Catin Community Hospital"}}, {"type": "way", "id": 784220266, "center": {"lat": -20.2219342, "lon": 57.5037267}, "nodes": [7325675545, 7325675546, 1891142592, 7325675548, 7325675549, 7325675550, 7325675551, 7325675552, 7325675545], "tags": {"amenity": "hospital", "healthcare": "hospital", "healthcare:speciality": "ophthalmology", "name": "Moka eye hospital"}}, {"type": "way", "id": 784223084, "center": {"lat": -20.0085033, "lon": 57.5598109}, "nodes": [7325694988, 7325694989, 7325694990, 7325694991, 7325694988], "tags": {"amenity": "hospital", "healthcare": "hospital", "name": "Clinique du Nord"}}, {"type": "way", "id": 784225078, "center": {"lat": -20.1306758, "lon": 57.4969293}, "nodes": [2162697266, 9280593885, 7325708380, 7325708381, 2162697266], "tags": {"amenity": "hospital", "emergency": "yes", "healthcare": "hospital", "name": "Clinique du Nord", "name:fr": "Clinique du Nord"}}, {"type": "way", "id": 784231561, "center": {"lat": -20.1930889, "lon": 57.7183929}, "nodes": [7325756726, 7325756727, 7325756728, 7325756729, 7325756726], "tags": {"amenity": "hospital", "healthcare": "hospital", "name": "Flacq Hospital (Casualty)"}}, {"type": "way", "id": 784236537, "center": {"lat": -20.1919129, "lon": 57.7189594}, "nodes": [7325708423, 7325708424, 7325708425, 7325708426, 7325708427, 7325708428, 7325708429, 7325708423], "tags": {"amenity": "hospital", "healthcare": "hospital", "name": "Flacq Hospital"}}, {"type": "way", "id": 784242066, "center": {"lat": -20.0288668, "lon": 57.5976184}, "nodes": [7325898902, 7325898903, 7325898904, 7325898905, 7325898902], "tags": {"amenity": "hospital", "healthcare": "hospital", "name": "The Vale Area Health Centre"}}, {"type": "way", "id": 784244087, "center": {"lat": -20.0605188, "lon": 57.5554675}, "nodes": [7325878958, 7325878959, 7325878960, 7325878961, 7325878958], "tags": {"amenity": "hospital", "healthcare": "hospital", "name": "Triolet Medi Clinic"}}, {"type": "way", "id": 784246258, "center": {"lat": -20.0693202, "lon": 57.5681865}, "nodes": [7325942762, 7325942763, 4353463758, 7325942765, 7325942762], "tags": {"amenity": "hospital", "healthcare": "hospital", "name": "Health Centre"}}, {"type": "way", "id": 784247368, "center": {"lat": -20.4112472, "lon": 57.7031896}, "nodes": [7325937551, 7325937552, 7325937553, 7325937554, 7325937555, 7325937551], "tags": {"addr:city": "Mahebourg", "addr:street": "Rue de I'Hospital", "amenity": "hospital", "healthcare": "hospital", "name": "Mahebourg Hospital"}}, {"type": "way", "id": 784247534, "center": {"lat": -20.1482964, "lon": 57.6844295}, "nodes": [7325938411, 7325938412, 7325938413, 7325938414, 7325938411], "tags": {"amenity": "hospital", "healthcare": "hospital", "name": "Primary Health Care"}}, {"type": "way", "id": 784247848, "center": {"lat": -20.1781319, "lon": 57.6619686}, "nodes": [7325964029, 7325964030, 7325964031, 7325964032, 7325964029], "tags": {"amenity": "hospital", "healthcare": "hospital", "name": "Lady Sushil Ramgoolam medi clinic"}}, {"type": "way", "id": 1033859389, "center": {"lat": -20.1661772, "lon": 57.4815704}, "nodes": [9524620135, 9820504738, 9524620136, 9524620137, 9524620138, 9524620135], "tags": {"addr:city": "Port-Louis", "addr:city:fr": "Port-Louis", "addr:street": "Menagerie Road", "addr:street:fr": "Route de la M\u00e9nagerie", "amenity": "hospital", "healthcare": "hospital", "healthcare:speciality": "general;dentistry;biology;emergency;surgery", "name": "Sihha Medical Centre", "name:fr": "Centre m\u00e9dical Sihha", "operator": "Sihha Medical Centre", "operator:fr": "Centre m\u00e9dical Sihha", "operator:type": "private"}}, {"type": "way", "id": 1213566565, "center": {"lat": -20.2997217, "lon": 57.4958585}, "nodes": [11243327034, 11243327035, 11243327036, 11243339537, 11243339538, 11243339539, 11243339540, 11243339541, 11243339542, 11243339543, 11243327034], "tags": {"amenity": "hospital", "healthcare": "hospital", "name": "Dr Nndagopen Narayanen"}}, {"type": "way", "id": 1214403419, "center": {"lat": -20.3016089, "lon": 57.488535}, "nodes": [11251688333, 11251688334, 11251688335, 11251688336, 11251688333], "tags": {"amenity": "hospital", "healthcare": "hospital", "healthcare:speciality": "dentistry", "name": "JMR | Clinique Dentaire. (Dr. Jaumeer)"}}, {"type": "way", "id": 1214458326, "center": {"lat": -20.2983043, "lon": 57.496003}, "nodes": [11252224205, 11252224206, 11252224207, 11252224208, 11252224205], "tags": {"amenity": "hospital", "healthcare": "hospital", "name": "Clinique du Sommeil et du Stresse"}}, {"type": "way", "id": 1214458327, "center": {"lat": -20.2981425, "lon": 57.4957499}, "nodes": [11252224209, 11252224210, 11252224211, 11252224212, 11252224213, 11252224214, 11252224209], "tags": {"amenity": "hospital", "healthcare": "hospital", "name": "Clinique du sommeil et stresse"}}, {"type": "way", "id": 1215253180, "center": {"lat": -20.300135, "lon": 57.4896738}, "nodes": [11259274424, 11259274425, 11259274426, 11259274427, 11259274428, 11259274429, 11259274424], "tags": {"amenity": "hospital", "healthcare": "hospital", "name": "Sri Sathya Sai Baba Centre of Vacoas"}}, {"type": "relation", "id": 3477060, "center": {"lat": -21.0579497, "lon": 55.7098629}, "members": [{"type": "way", "ref": 259064936, "role": "outer"}, {"type": "way", "ref": 259064874, "role": "outer"}, {"type": "way", "ref": 259064929, "role": "outer"}, {"type": "way", "ref": 259064909, "role": "outer"}, {"type": "way", "ref": 259064897, "role": "outer"}], "tags": {"addr:city": "Saint-Benoit", "addr:housenumber": "30", "addr:postcode": "97470", "addr:street": "Rue Nationale 3", "amenity": "hospital", "type": "multipolygon"}}, {"type": "relation", "id": 3477063, "center": {"lat": -21.0572433, "lon": 55.7092021}, "members": [{"type": "way", "ref": 259064877, "role": "outer"}, {"type": "way", "ref": 259064884, "role": "outer"}, {"type": "way", "ref": 225552880, "role": "outer"}, {"type": "way", "ref": 259064867, "role": "outer"}], "tags": {"amenity": "hospital", "building": "hospital", "email": "cpx@clinifutur.net", "fax": "0262 50 45 19", "name": "Clinique de la Paix", "operator": "Groupe de sant\u00e9 Clinifutur", "operator:type": "private", "phone": "0262 50 34 89", "ref:FR:FINESS": "970406203", "type": "multipolygon", "type:FR:FINESS": "109", "website": "https://www.clinifutur.net/departments/clinique-de-la-paix/"}}]}