{"version": 0.6, "generator": "Overpass API 0.7.61.5 4133829e", "osm3s": {"timestamp_osm_base": "2023-10-31T20:48:30Z", "copyright": "The data included in this document is from www.openstreetmap.org. The data is made available under ODbL."}, "elements": [{"type": "node", "id": 1057690887, "lat": -29.9026774, "lon": -71.2470155, "tags": {"addr:city": "La Serena", "addr:housenumber": "458", "addr:street": "Cienfuegos", "amenity": "hospital", "clothes": "women;children;men", "emergency": "no", "healthcare": "hospital", "name": "Cruz Roja La Serena", "operator": "Cruz Roja", "operator:wikidata": "Q7178"}}, {"type": "node", "id": 3482154268, "lat": -26.3923345, "lon": -70.0522938, "tags": {"addr:city": "Diego de Almagro", "addr:country": "CL", "addr:housenumber": "2200", "addr:street": "Juan Mart\u00ednez de Rozas", "amenity": "hospital", "healthcare": "hospital", "name": "Hospital Dr. Florencio Vargas D\u00edaz"}}, {"type": "node", "id": 8162398586, "lat": -29.9441987, "lon": -71.2418124, "tags": {"amenity": "hospital", "emergency": "yes", "healthcare": "hospital", "healthcare:speciality": "urgent;general;family_medicine", "name": "DocDoc", "operator": "Centro Medico", "operator:type": "private"}}, {"type": "node", "id": 9120756598, "lat": -29.9090406, "lon": -71.245236, "tags": {"addr:city": "La Serena", "addr:housenumber": "1475", "addr:street": "Cuarto Centenario", "amenity": "hospital", "healthcare": "hospital", "name": "Clinica Regional Elqui"}}, {"type": "way", "id": 85361712, "center": {"lat": -29.9094916, "lon": -71.2476487}, "nodes": [989535940, 989534946, 989536570, 989535516, 989535940], "tags": {"addr:city": "La Serena", "addr:housenumber": "1085", "addr:street": "Larra\u00edn Alcalde", "amenity": "hospital", "emergency": "yes", "healthcare": "hospital", "name": "CDT La Serena - Centro de Diagn\u00f3stico y Tratamiento Hospital de La Serena", "operator": "Servicio de Salud Regi\u00f3n de Coquimbo", "operator:type": "public"}}, {"type": "way", "id": 85504942, "center": {"lat": -29.9082769, "lon": -71.2489883}, "nodes": [991536979, 991536587, 5378602632, 5378602633, 991536829, 5377977174, 5726740389, 5752200679, 5752200675, 5752200678, 991536544, 5752200681, 5726740391, 991537054, 991536979], "tags": {"addr:city": "La Serena", "addr:country": "CL", "addr:housenumber": "916", "addr:street": "Jos\u00e9 Manuel Balmaceda", "amenity": "hospital", "emergency": "yes", "healthcare": "hospital", "healthcare:speciality": "general;emergency", "internet_access": "yes", "name": "Hospital San Juan de Dios de La Serena", "operator": "SServicio de Salud Coquimbo", "wheelchair": "yes", "wikidata": "Q5902884", "wikipedia": "es:Hospital San Juan de Dios (La Serena)"}}, {"type": "way", "id": 111359823, "center": {"lat": -27.3667748, "lon": -70.3271101}, "nodes": [1268915803, 1268915621, 1268915544, 1268915600, 1268915482, 1268915757, 1268915803], "tags": {"addr:city": "Copiapo", "addr:housenumber": "960", "addr:street": "Infante", "amenity": "hospital", "healthcare": "hospital", "name": "Cl\u00ednica Dial Vida", "operator": "Clinica Dial Vida copiapo", "operator:type": "private", "wikidata": "Q93741995"}}, {"type": "way", "id": 111372988, "center": {"lat": -27.3737655, "lon": -70.3222655}, "nodes": [1268968338, 1268969231, 1268969041, 1268968545, 1268968337, 1268968542, 1268968338], "tags": {"addr:housenumber": "1320", "addr:street": "Avenida Los Carrera", "amenity": "hospital", "emergency": "yes", "healthcare": "hospital", "name": "Hospital Regional de Copiap\u00f3 San Jos\u00e9 del Carmen", "wikidata": "Q5902847"}}, {"type": "way", "id": 114874530, "center": {"lat": -20.2144021, "lon": -70.1372968}, "nodes": [1300124993, 7772121959, 7651630672, 7651630673, 1300124940, 7772121960, 1300124950, 7772121958, 7772121957, 1300124987, 7772121954, 7772121953, 7772121955, 7772121956, 1300124984, 5512185454, 7651630669, 5512185453, 1300124938, 1300124935, 7772121952, 7772121951, 7772121950, 1300124996, 7772121949, 7772121948, 7772121939, 7772121947, 7772121940, 7772121941, 7772121942, 1300124975, 7772121943, 1300124991, 7772121944, 7772121945, 7651630670, 7772121946, 7772121964, 7772121965, 7772121961, 7772121962, 7772121963, 7651630671, 1300124993], "tags": {"amenity": "hospital", "healthcare": "hospital", "name": "Hospital Doctor Ernesto Torres Galdames Iquique"}}, {"type": "way", "id": 135548253, "center": {"lat": -22.0885056, "lon": -70.1926867}, "nodes": [1488657058, 1488657013, 1488656781, 1488656604, 1488657058], "tags": {"amenity": "hospital", "healthcare": "hospital", "name": "Hospital Comunitario de Tocopilla Marcos Macuada"}}, {"type": "way", "id": 145481478, "center": {"lat": -23.6666163, "lon": -70.4014957}, "nodes": [1588963070, 1981166533, 1981155340, 1981166531, 1981166527, 1588963062, 1280638532, 7709393636, 1280638456, 1588963057, 7709393635, 1588963058, 1280638497, 1909037816, 1909037842, 1909037852, 1588963070], "tags": {"addr:city": "Antofagasta", "addr:country": "CL", "addr:housenumber": "957", "addr:street": "General Jos\u00e9 Manuel Borgo\u00f1o", "amenity": "hospital", "healthcare": "hospital", "name": "Hospital Militar del Norte", "website": "https://www.hosmildelnorte.cl/hmn/index.php", "wikidata": "Q93741932"}}, {"type": "way", "id": 145488014, "center": {"lat": -23.6591215, "lon": -70.3956536}, "nodes": [1589014620, 8151623227, 8151623228, 1589014626, 1589014630, 1909225755, 1589014618, 1589014620], "tags": {"addr:city": "Antofagasta", "addr:country": "CL", "addr:housenumber": "1962", "addr:street": "Avenida Argentina", "amenity": "hospital", "emergency": "yes", "healthcare": "hospital", "name": "Hospital Cl\u00ednico Universidad de Antofagasta", "operator": "Universidad de Antofagasta", "start_date": "1959", "website": "https://www.hcua.cl/", "wikidata": "Q93744852", "wikipedia": "es:Hospital Regional de Antofagasta"}}, {"type": "way", "id": 161293568, "center": {"lat": -26.3470782, "lon": -70.6173066}, "nodes": [1732838364, 1732838308, 5224015809, 5224015810, 5224015811, 5224015812, 5224015813, 1732838303, 1732838328, 1732838330, 1732838372, 6509853760, 6509853761, 6509853762, 6509853763, 1732838365, 5224015805, 5239647831, 5239647832, 5224015804, 5239647838, 1732838349, 5239647836, 1732838319, 1732838329, 1732838334, 5224015808, 1732838364], "tags": {"addr:city": "Cha\u00f1aral", "addr:country": "CL", "addr:housenumber": "1000", "addr:street": "Avenida Arturo Prat", "amenity": "hospital", "healthcare": "hospital", "name": "Hospital de Cha\u00f1aral Doctor Jer\u00f3nimo M\u00e9ndez Arancibia", "wikidata": "Q93741966"}}, {"type": "way", "id": 195667890, "center": {"lat": -23.6540209, "lon": -70.4016096}, "nodes": [2060869724, 2060869722, 2060869720, 2060869704, 2060869682, 2060869706, 2060869726, 2060869724], "tags": {"addr:city": "Antofagasta", "addr:country": "CL", "addr:housenumber": "1945", "addr:street": "Manuel Antonio Matta", "amenity": "hospital", "building": "hospital", "emergency": "yes", "healthcare": "hospital", "name": "Cl\u00ednica Bupa Antofagasta", "website": "https://www.clinicaantofagasta.cl/"}}, {"type": "way", "id": 234844823, "center": {"lat": -23.6165321, "lon": -70.3870759}, "nodes": [1982180301, 1913332953, 1913332956, 3021040798, 2429704235, 7730213588, 7730213587, 7730213585, 7730213586, 2429704237, 1982180301], "tags": {"addr:city": "Antofagasta", "addr:country": "CL", "addr:housenumber": "5935", "addr:street": "Azapa", "amenity": "hospital", "emergency": "yes", "healthcare": "hospital", "healthcare:speciality": "general;psychiatry;surgery;emergency;gynaecology;radiology;paediatrics;neurology;otolaryngology;internal;dermatology;cardiology;maternity;ophthalmology", "name": "Hospital Regional de Antofagasta", "phone": "+56 55 244 2119", "website": "https://www.hospitalantofagasta.gob.cl/", "wheelchair": "yes", "wikidata": "Q5902851", "wikipedia": "es:Hospital Regional de Antofagasta"}}, {"type": "way", "id": 372539289, "center": {"lat": -20.2870911, "lon": -70.1038435}, "nodes": [4150255293, 4150255291, 9031125125, 4150255290, 5462402907, 4150255294, 4150255293], "tags": {"addr:city": "Alto Hospicio", "addr:country": "CL", "addr:housenumber": "3080", "addr:street": "Avenida Las Am\u00e9ricas", "amenity": "hospital", "healthcare": "hospital", "name": "Hospital Doctor H\u00e9ctor Reyno"}}, {"type": "way", "id": 431535527, "center": {"lat": -29.9538444, "lon": -71.3379327}, "nodes": [1861974486, 4307429299, 4307429300, 4307429301, 1861974486], "tags": {"addr:city": "Coquimbo", "addr:country": "CL", "addr:housenumber": "1035", "addr:street": "Juan de Dios Melgarejo", "amenity": "hospital", "building": "hospital", "building:levels": "2", "healthcare": "hospital", "name": "Cruz Roja Chilena", "operator": "Cruz Roja", "operator:wikidata": "Q7178", "wikidata": "Q93742227"}}, {"type": "way", "id": 478255245, "center": {"lat": -25.4081279, "lon": -70.4812096}, "nodes": [4714945240, 4714945241, 4714945242, 4714945243, 4714945240], "tags": {"amenity": "hospital", "healthcare": "hospital", "name": "Hospital Comunitario de Taltal 21 de Mayo"}}, {"type": "way", "id": 507654333, "center": {"lat": -23.1008956, "lon": -70.4465613}, "nodes": [4971186046, 4971186047, 4971186048, 4971186049, 4971186046], "tags": {"addr:city": "Mejillones", "addr:country": "CL", "addr:housenumber": "451", "addr:street": "Avenida Bernardo O'Higgins", "amenity": "hospital", "emergency": "yes", "healthcare": "hospital", "name": "Hospital Comunitario de Mejillones", "wikidata": "Q93741929"}}, {"type": "way", "id": 544888662, "center": {"lat": -20.2184075, "lon": -70.1549025}, "nodes": [5266787020, 5266793521, 5852366736, 5852366737, 5266793522, 5852366739, 5852366738, 5266793523, 5266787020], "tags": {"addr:city": "Iquique", "addr:street": "Bernardo O'Higgins", "amenity": "hospital", "building": "yes", "building:levels": "8", "healthcare": "hospital", "name": "Cl\u00ednica RedSalud Iquique"}}, {"type": "way", "id": 601072470, "center": {"lat": -29.9130941, "lon": -71.2570325}, "nodes": [1057727975, 1057727959, 1057727961, 5713608696, 1057727957, 7755302664, 5713608827, 5713608641, 7755302666, 5713608691, 7755302665, 1057727982, 1057727975], "tags": {"amenity": "hospital", "healthcare": "hospital", "healthcare:speciality": "emergency", "name": "Cl\u00ednica RedSalud Elqui", "operator": "Cl\u00ednica RedSalud Elqui"}}, {"type": "way", "id": 657459483, "center": {"lat": -29.9682916, "lon": -71.3369762}, "nodes": [6157806523, 5457026839, 5457026840, 6157806521, 2336570708, 7740353729, 7740353728, 2336570789, 2336570790, 2336570788, 2336570787, 2336570728, 10689036819, 2336570698, 2336570697, 2350314854, 2350314852, 7806412267, 7806412268, 2336570546, 2336570503, 10689036820, 2336570416, 2336570333, 2336570327, 2336570323, 2336570321, 2336570329, 2336570335, 2336570339, 2336570351, 2336570367, 2336570556, 2336570559, 2336570616, 2336570625, 2336570647, 2336570659, 2336570662, 2336570664, 6157806523], "tags": {"amenity": "hospital", "emergency": "yes", "healthcare": "hospital", "name": "Hospital San Pablo de Coquimbo", "wikidata": "Q5902890"}}, {"type": "way", "id": 664159093, "center": {"lat": -28.573882, "lon": -70.7821937}, "nodes": [6216438578, 6216438577, 6216438571, 6216438576, 6216438575, 6216438573, 6216438572, 6216438574, 6216438578], "tags": {"addr:city": "Vallenar", "addr:country": "CL", "addr:housenumber": "392", "addr:street": "Avenida Huasco", "amenity": "hospital", "emergency": "yes", "healthcare": "hospital", "name": "Hospital Provincial del Huasco Monse\u00f1or Fernando Arizt\u00eda Ruiz"}}, {"type": "way", "id": 781911364, "center": {"lat": -20.2952492, "lon": -70.0971401}, "nodes": [7300293202, 7300293201, 7300293200, 7300293199, 11254253052, 11254253053, 7300293198, 7300293202], "tags": {"addr:city": "Alto Hospicio", "addr:housenumber": "3240", "addr:street": "Alemania", "amenity": "hospital", "check_date": "2023-10-10", "emergency": "yes", "healthcare": "hospital", "healthcare:speciality": "general;emergency;surgery;dentistry;dialysis;cardiology;dermatology;endocrinology;gastroenterology;gynaecology;physiatry;geriatrics;internal;nephrology;urology;ophthalmology;paediatrics;paediatric_surgery;radiology;trauma", "name": "Hospital Alto Hospicio", "opening_hours": "24/7", "operator": "Servicio de Salud Iquique", "operator:type": "public", "start_date": "2023", "website": "https://www.hospitaldealtohospicio.cl/", "wheelchair": "yes", "wikidata": "Q5903013", "wikipedia": "es:Hospital de Alto Hospicio"}}, {"type": "way", "id": 806682754, "center": {"lat": -27.3647709, "lon": -70.3285195}, "nodes": [7543445129, 7543445128, 7543445127, 7543445126, 7543445125, 7543445122, 7543445105, 7543445124, 7543445123, 4451295589, 7543445108, 7543445107, 7543445129], "tags": {"amenity": "hospital", "healthcare": "hospital", "name": "Cl\u00ednica RCR Atacama"}}, {"type": "way", "id": 812380089, "center": {"lat": -20.2227466, "lon": -70.1475472}, "nodes": [7587904155, 7587904154, 7587904147, 7587904153, 7587904145, 7587904146, 7587904148, 7587904149, 7587904151, 7587904150, 7587904152, 4056585855, 7587904155], "tags": {"addr:city": "Iquique", "addr:country": "CL", "addr:housenumber": "1550", "addr:street": "Barros Arana", "amenity": "hospital", "building": "yes", "healthcare": "hospital", "name": "Cl\u00ednica Tarapac\u00e1", "phone": "(57)2397000", "website": "https://www.clinicatarapaca.cl/", "wikidata": "Q93741908"}}, {"type": "way", "id": 925543272, "center": {"lat": -29.9407802, "lon": -71.1465085}, "nodes": [5744655719, 8589558203, 8589558204, 8589558205, 8589558206, 5744655718, 5744655719], "tags": {"addr:city": "Algarrobito", "addr:street": "Callej\u00f3n Guillermo Mery", "amenity": "hospital", "emergency": "yes", "healthcare": "hospital", "healthcare:speciality": "general", "name": "Posta de Algarrobito", "nohousenumber": "yes", "operator": "Algarrobito", "operator:type": "public"}}, {"type": "way", "id": 986716908, "center": {"lat": -22.0959615, "lon": -70.2046276}, "nodes": [9120580659, 9120580660, 9120580661, 9120580662, 9120580659], "tags": {"addr:city": "Tocopilla", "addr:housenumber": "1201", "addr:street": "21 de Mayo", "amenity": "hospital", "healthcare": "hospital", "name": "Clinica Mutual de Seguridad de Tocopilla", "operator": "Cl\u00ednica Mutual de Seguridad de Tocopilla, Tocopilla", "operator:type": "private"}}, {"type": "way", "id": 986724500, "center": {"lat": -27.3688555, "lon": -70.329881}, "nodes": [9120676143, 9120676144, 9120676145, 9120676146, 9120676143], "tags": {"addr:city": "Copiap\u00f3", "addr:housenumber": "901", "addr:street": "Bernardo O'Higgins", "amenity": "hospital", "healthcare": "hospital", "name": "Clinica Indire", "wikidata": "Q93741986"}}, {"type": "way", "id": 986731646, "center": {"lat": -28.5764881, "lon": -70.7562207}, "nodes": [9120747088, 9120747089, 9120747090, 9120747091, 9120747088], "tags": {"addr:city": "Vallenar", "addr:housenumber": "1150", "addr:street": "Merced", "amenity": "hospital", "healthcare": "hospital", "name": "Clinica del Trabajador de Vallenar", "operator": "Clinica Mutual de Seguridad de Vallenar", "wikidata": "Q93741981"}}, {"type": "way", "id": 1063567212, "center": {"lat": -23.6470304, "lon": -70.3999611}, "nodes": [9769395819, 9120520202, 9769395818, 9769395817, 9769389216, 9769395819], "tags": {"addr:city": "Antofagasta", "addr:housenumber": "298", "addr:street": "General Manuel Baquedano", "amenity": "hospital", "building": "yes", "healthcare": "hospital", "name": "Cl\u00ednica Baquedano", "operator": "Centro Medico Baquedano", "wikidata": "Q93741936"}}, {"type": "way", "id": 1063948769, "center": {"lat": -23.6554868, "lon": -70.4019914}, "nodes": [9772163696, 9772163699, 9120565000, 9772163698, 10080222851, 10080222850, 9772163697, 9772163696], "tags": {"addr:city": "Antofagasta", "addr:housenumber": "1869", "addr:street": "Avenida Jos\u00e9 Miguel Carrera", "amenity": "hospital", "healthcare": "hospital", "name": "Clinica Oftalmologica Mas Vision", "operator": "Cl\u00ednica Oftalmol\u00f3gica Mas Visi\u00f3n", "wikidata": "Q93741944"}}, {"type": "way", "id": 1065817262, "center": {"lat": -23.6480581, "lon": -70.399515}, "nodes": [9787685459, 2495289427, 2495289429, 9120577326, 9787685457, 2495289426, 9787685459], "tags": {"addr:city": "Antofagasta", "addr:housenumber": "2447", "addr:street": "Jos\u00e9 de San Mart\u00edn", "amenity": "hospital", "building": "hospital", "healthcare": "hospital", "name": "Clinica Cumbres del Norte", "phone": "+56552450600", "website": "https://www.clinicacumbres.cl/"}}, {"type": "way", "id": 1176140129, "center": {"lat": -28.4701947, "lon": -71.224246}, "nodes": [7364414793, 11042792090, 7364414792, 7363652459, 7363652460, 7363652461, 7363569909, 7364414793], "tags": {"addr:city": "Huasco", "addr:housenumber": "107", "addr:street": "Caut\u00edn", "amenity": "hospital", "emergency": "yes", "healthcare": "hospital", "healthcare:speciality": "emergency;general", "name": "Hospital de Huasco", "operator": "Servicio de Salud Atacama", "operator:type": "public", "wikidata": "Q16576084", "wikipedia": "es:Hospital Manuel Magalhaes Medling"}}, {"type": "relation", "id": 4587756, "center": {"lat": -23.6455403, "lon": -70.3991166}, "members": [{"type": "way", "ref": 109688238, "role": "outer"}, {"type": "way", "ref": 192544110, "role": "outer"}, {"type": "way", "ref": 192544105, "role": "outer"}], "tags": {"addr:city": "Antofagasta", "addr:country": "CL", "addr:housenumber": "2648", "addr:street": "Avenida Jos\u00e9 Manuel Balmaceda", "amenity": "hospital", "building": "hospital", "emergency": "yes", "healthcare": "hospital", "name": "Cl\u00ednica La Portada", "type": "multipolygon", "website": "http://www.clinicaportada.cl/", "wikidata": "Q93741943"}}]}