{"version": 0.6, "generator": "Overpass API 0.7.61.5 4133829e", "osm3s": {"timestamp_osm_base": "2023-10-31T20:48:30Z", "copyright": "The data included in this document is from www.openstreetmap.org. The data is made available under ODbL."}, "elements": [{"type": "node", "id": 442954443, "lat": -26.1197251, "lon": 149.956649, "tags": {"amenity": "hospital", "healthcare": "hospital", "name": "Wandoan Hospital"}}, {"type": "node", "id": 1240519937, "lat": -20.8427653, "lon": 144.1878012, "tags": {"amenity": "hospital", "healthcare": "hospital", "name": "Hughenden Hospital"}}, {"type": "node", "id": 1333446311, "lat": -25.6388038, "lon": 149.7985396, "tags": {"amenity": "hospital", "emergency": "yes", "healthcare": "hospital", "name": "Taroom Hospital", "source": "Local"}}, {"type": "node", "id": 1392002516, "lat": -20.3466074, "lon": 148.9553673, "tags": {"amenity": "hospital", "name": "Medical Centre"}}, {"type": "node", "id": 1919766683, "lat": -24.8200724, "lon": 143.0704149, "tags": {"amenity": "hospital", "name": "Jundah Primary Health Care Centre", "source": "http://www.health.qld.gov.au"}}, {"type": "node", "id": 2049307656, "lat": -27.9975925, "lon": 143.8207934, "tags": {"amenity": "hospital", "healthcare": "hospital", "name": "Thargomindah Community Clinic", "operator": "South West Hospital and Health Service"}}, {"type": "node", "id": 2072712928, "lat": -24.4226064, "lon": 145.4495412, "tags": {"amenity": "hospital", "healthcare": "hospital", "name": "Blackall Hospital"}}, {"type": "node", "id": 2604145958, "lat": -21.0716164, "lon": 149.1551257, "tags": {"amenity": "hospital"}}, {"type": "node", "id": 2769351374, "lat": -21.3581199, "lon": 148.1188368, "tags": {"amenity": "hospital", "fixme": "Has this moved to town centre building?", "name": "Community Health Care"}}, {"type": "node", "id": 3608383226, "lat": -22.5938169, "lon": 144.5465739, "tags": {"addr:postcode": "4732", "addr:street": "Edkins Street", "addr:village": "Muttaburra", "amenity": "hospital", "contact:phone": "+61746587500", "emergency": "yes", "name": "Muttaburra Primary Health Centre", "source": "survey"}}, {"type": "node", "id": 3622936503, "lat": -24.2608202, "lon": 144.4397565, "tags": {"addr:postcode": "4731", "addr:street": "Saint Helena Street", "addr:village": "Isisford", "amenity": "hospital", "contact:phone": "+61746588500", "emergency": "yes", "name": "Isisford Primary Health Centre"}}, {"type": "node", "id": 8354579919, "lat": -20.7045943, "lon": 140.5277433, "tags": {"addr:postcode": "4824", "addr:street": "Musgrave Street", "amenity": "hospital", "healthcare": "hospital", "name": "Cloncurry Hospital", "opening_hours": "24/7", "phone": "+61 7 4742 4500", "website": "https://www.health.qld.gov.au/"}}, {"type": "node", "id": 8515870500, "lat": -27.1563789, "lon": 149.0637619, "tags": {"amenity": "hospital", "emergency": "yes", "healthcare": "hospital", "name": "Surat Multipurpose Health Service", "website": "https://www.southwest.health.qld.gov.au/healthcare-facilities/multipurpose-health-services/surat-multipurpose-health-service/"}}, {"type": "way", "id": 28611663, "center": {"lat": -20.7388203, "lon": 143.1507815}, "nodes": [314431549, 314431583, 314431572, 314431578, 314431580, 314431582, 5026439638, 314431549], "tags": {"amenity": "hospital", "emergency": "yes", "name": "Richmond Hospital", "source": "survey", "wikidata": "Q81095592"}}, {"type": "way", "id": 41991699, "center": {"lat": -26.5684876, "lon": 148.7755533}, "nodes": [520641078, 3634609336, 520641083, 520641085, 520641088, 3634609338, 3634609337, 520641092, 3634609339, 3634609340, 7901019902, 3634609341, 520641095, 520641078], "tags": {"addr:housenumber": "197-234", "addr:postcode": "4455", "addr:state": "QLD", "addr:street": "McDowall Street", "addr:suburb": "Roma", "amenity": "hospital", "emergency": "yes", "fax": "+61 7 4624 2711", "healthcare": "hospital", "name": "Roma Hospital", "operator": "Queensland Health", "operator:type": "government", "operator:wikidata": "Q17006271", "phone": "+61 7 4624 2700", "website": "https://www.southwest.health.qld.gov.au/healthcare-facilities/hospitals/roma-hospital/", "wheelchair": "yes"}}, {"type": "way", "id": 159938763, "center": {"lat": -21.0608635, "lon": 149.159265}, "nodes": [1720077435, 1720077436, 1720077437, 2078286500, 2078286498, 1720077438, 1720077439, 1720077440, 2078286496, 2078286495, 1720077435], "tags": {"amenity": "hospital", "healthcare": "hospital", "name": "GP Super Clinic"}}, {"type": "way", "id": 160307943, "center": {"lat": -21.4210718, "lon": 149.2100967}, "nodes": [1723590526, 1723590527, 1723590528, 1723590529, 1723590530, 1723590531, 1723590532, 1723590533, 1723590534, 1723590535, 1723590526], "tags": {"amenity": "hospital", "building": "yes", "emergency": "yes", "name": "Sarina Hospital", "source": "Bing", "wikidata": "Q85138824"}}, {"type": "way", "id": 173113424, "center": {"lat": -23.5717335, "lon": 148.8786631}, "nodes": [1839451765, 1839451764, 1839451800, 3135073598, 1839451805, 1839451765], "tags": {"addr:housenumber": "41", "addr:postcode": "4717", "addr:state": "qld", "addr:street": "Mackenzie Street", "addr:suburb": "Blackwater", "amenity": "hospital", "emergency": "yes", "healthcare": "hospital", "name": "Blackwater Hospital", "source": "bing;Blackwater UDA"}}, {"type": "way", "id": 175696883, "center": {"lat": -21.1138521, "lon": 149.1673869}, "nodes": [1862618476, 1862618477, 1862618478, 1862618479, 1862618476], "tags": {"amenity": "hospital", "emergency": "no", "healthcare": "hospital", "name": "North Mackay Private Hospital", "source": "Bing"}}, {"type": "way", "id": 177482393, "center": {"lat": -21.1293805, "lon": 149.1651675}, "nodes": [1879195258, 1879195307, 2003711796, 1879195262, 2003711720, 1879195260, 1879195258], "tags": {"amenity": "hospital", "name": "Mackay Day Surgery", "source": "Bing"}}, {"type": "way", "id": 177482396, "center": {"lat": -21.130745, "lon": 149.1662548}, "nodes": [1879195316, 1879195318, 1879195319, 1879195320, 1879195321, 1887830814, 1879195322, 1879195323, 1879195337, 1879195340, 1879195344, 1879195347, 1879195351, 1879195354, 1879195357, 1879195360, 1879195364, 1879195366, 2921447148, 2921447150, 1879195316], "tags": {"amenity": "hospital", "name": "Mater Misericordiae Hospital", "source": "Bing", "website": "https://www.mercycq.com/hospital_mackay.htm", "wikidata": "Q48785405"}}, {"type": "way", "id": 184704503, "center": {"lat": -21.1631308, "lon": 149.1827842}, "nodes": [1952082145, 1913935113, 1952082147, 1952082157, 1952082156, 1952082166, 1952082145], "tags": {"amenity": "hospital", "name": "Blue Care Respite Care"}}, {"type": "way", "id": 187774709, "center": {"lat": -23.4390367, "lon": 144.2611036}, "nodes": [1836889665, 1984101198, 1836889619, 1836889618, 1836889665], "tags": {"amenity": "hospital", "emergency": "yes", "healthcare": "hospital", "name": "Longreach Base Hospital"}}, {"type": "way", "id": 192854416, "center": {"lat": -26.6163882, "lon": 144.2745387}, "nodes": [2033968941, 9140973492, 9140973491, 2033968916, 5565767279, 2033968912, 2033968799, 9140973493, 2033968941], "tags": {"addr:housenumber": "30", "addr:postcode": "4480", "addr:state": "Qld", "addr:street": "Gyrica Street", "addr:suburb": "Quilpie", "amenity": "hospital", "healthcare": "hospital", "name": "Quilpie Hospital", "website": "https://www.southwest.health.qld.gov.au/healthcare-facilities/multipurpose-health-services/quilpie-multipurpose-health-service/", "wikidata": "Q81096581"}}, {"type": "way", "id": 192882344, "center": {"lat": -26.4117062, "lon": 146.2390492}, "nodes": [2034241092, 2034241094, 2034241096, 2034241090, 2034241081, 2034241080, 2034241076, 2034241082, 2034241083, 2034241084, 2034241085, 2034241092], "tags": {"addr:housenumber": "72", "addr:postcode": "4470", "addr:state": "QLD", "addr:street": "King Street", "addr:suburb": "Charleville", "amenity": "hospital", "emergency": "yes", "healthcare": "hospital", "name": "Charleville Hospital", "not:operator:wikidata": "Q17006271", "operator": "Queensland Health", "operator:type": "government", "phone": "+61 7 4621 2200", "website": "https://www.southwest.health.qld.gov.au/healthcare-facilities/hospitals/charleville-hospital/"}}, {"type": "way", "id": 194422047, "center": {"lat": -28.0710743, "lon": 145.6899406}, "nodes": [2049256759, 2049256764, 2049256807, 2049256811, 2049256821, 2049256823, 2049256830, 11028322664, 2049256835, 2049256770, 2049256759], "tags": {"amenity": "hospital", "emergency": "yes", "healthcare": "hospital", "name": "Cunnamulla Hospital", "operator": "South West Hospital and Heath Service", "operator:type": "public", "website": "https://www.health.qld.gov.au/services/southwest/swest_cunna_hosp.asp"}}, {"type": "way", "id": 196975499, "center": {"lat": -24.4227958, "lon": 145.4491223}, "nodes": [2072713074, 2072713056, 2072713022, 2072713012, 2072713017, 2072713008, 2072713068, 2072713074], "tags": {"amenity": "hospital", "healthcare": "hospital"}}, {"type": "way", "id": 223531574, "center": {"lat": -22.8254052, "lon": 147.6319056}, "nodes": [2324212065, 2324212066, 2324212067, 2324212068, 2324212069, 2324212070, 2324212071, 2324212072, 2324212073, 2324212074, 2324212075, 2324212065], "tags": {"amenity": "hospital", "emergency": "yes", "name": "Clermont Hospital", "source": "KNowledge"}}, {"type": "way", "id": 231048030, "center": {"lat": -22.3811585, "lon": 143.0407701}, "nodes": [2394661126, 2394661133, 2394661122, 2394661123, 2394661140, 2394661135, 2394661126], "tags": {"amenity": "hospital", "healthcare": "hospital", "name": "Winton Hospital"}}, {"type": "way", "id": 233224216, "center": {"lat": -20.0070305, "lon": 148.2398081}, "nodes": [2415793086, 2441062165, 2415793101, 2415793100, 2415793097, 2415793102, 2415793103, 2415812373, 2429078419, 2429078423, 2429111606, 2415793105, 2415793106, 2415793086], "tags": {"amenity": "hospital", "emergency": "yes", "healthcare": "hospital", "name": "Bowen Hospital", "operator": "Mackay Hospital and Health Services", "operator:type": "public"}}, {"type": "way", "id": 240451380, "center": {"lat": -28.9724556, "lon": 148.9891342}, "nodes": [2481887158, 2481887190, 2481887197, 2481887199, 2481887198, 2481887196, 2481887195, 2481887179, 2481887145, 2481887143, 2481887142, 2481887140, 2481887139, 2481887141, 2481887144, 2481887158], "tags": {"addr:housenumber": "90", "addr:postcode": "2406", "addr:state": "Qld", "addr:street": "Barwon Street", "addr:suburb": "Mungindi", "amenity": "hospital", "bing": "hospital", "emergency": "yes", "healthcare": "hospital", "name": "Mungindi Multipurpose Health Service", "operator": "Qld Health", "operator:type": "government", "phone": "+61 2 6705 6100", "source": "LPI Base Map, LPI Imagery", "source:name": "voice", "voice": "yes", "website": "https://www.southwest.health.qld.gov.au/healthcare-facilities/multipurpose-health-services/mungindi-multipurpose-health-service/"}}, {"type": "way", "id": 245931031, "center": {"lat": -20.2719936, "lon": 148.7054668}, "nodes": [2530293595, 2530293598, 2530292238, 2530293601, 2530293595], "tags": {"amenity": "hospital", "name": "Health Care Centre", "source": "Bing"}}, {"type": "way", "id": 250067089, "center": {"lat": -21.4233639, "lon": 149.2221593}, "nodes": [2565829698, 2253475271, 2253475270, 2253475269, 2253475258, 2253475256, 2379019002, 2379019001, 2565829698], "tags": {"amenity": "hospital", "emergency": "no", "name": "Sarina Community Care - Respite Centre"}}, {"type": "way", "id": 250488325, "center": {"lat": -20.0108327, "lon": 148.2411043}, "nodes": [2569235086, 2569235084, 2569235088, 2569235083, 2569235086], "tags": {"amenity": "hospital", "name": "Blue Care Respite Centre"}}, {"type": "way", "id": 254608577, "center": {"lat": -21.0716665, "lon": 149.1551383}, "nodes": [2604145961, 2604145966, 2604145969, 2604145959, 2604145960, 2604145965, 2604145968, 2604145961], "tags": {"amenity": "hospital", "name": "Respite Centre"}}, {"type": "way", "id": 259144815, "center": {"lat": -20.5462865, "lon": 147.8380038}, "nodes": [2644944170, 2644944171, 2644944172, 2644944174, 2644944175, 2644944176, 2644944178, 2644944170], "tags": {"amenity": "hospital", "healthcare": "hospital", "name": "Collinsville Multi-Purpose Health Service", "source": "Bing", "wikidata": "Q85138643"}}, {"type": "way", "id": 259893757, "center": {"lat": -20.4003751, "lon": 148.584847}, "nodes": [2653573549, 2653573543, 2653573542, 2653573541, 2653571089, 2653573550, 2653573551, 2653573552, 2653573553, 2653573549], "tags": {"amenity": "hospital", "emergency": "yes", "name": "Proserpine Hospital", "operator": "Queensland Health", "source": "Bing", "wikidata": "Q24189446"}}, {"type": "way", "id": 267933095, "center": {"lat": -22.0024441, "lon": 148.05589}, "nodes": [2733231117, 2733231118, 2733231119, 2733231120, 2733231121, 2733231122, 2733231123, 2733231124, 2733231125, 2733231126, 2733231127, 2733231128, 2733231129, 2733231130, 2733231131, 2733231132, 2733231133, 2733231134, 2733231117], "tags": {"amenity": "hospital", "name": "Moranbah Hospital", "wikidata": "Q85138452"}}, {"type": "way", "id": 292984451, "center": {"lat": -23.5533651, "lon": 145.2940855}, "nodes": [2965429687, 2965429689, 2965429688, 2965429686, 2965429687], "tags": {"amenity": "hospital", "name": "Barcaldine Hospital", "source": "Bing", "source:name": "survey"}}, {"type": "way", "id": 309202858, "center": {"lat": -23.57485, "lon": 148.8882871}, "nodes": [3145321136, 3145321137, 3145321134, 3145321135, 3145321136], "tags": {"amenity": "hospital"}}, {"type": "way", "id": 312068113, "center": {"lat": -23.0802501, "lon": 148.0218975}, "nodes": [3178830810, 3178830811, 3178830798, 3178830799, 3178830810], "tags": {"amenity": "hospital", "name": "Capella Health Services"}}, {"type": "way", "id": 352542557, "center": {"lat": -24.5757332, "lon": 149.9764712}, "nodes": [3583080752, 3583080761, 11018988313, 3583080764, 3583082179, 3583082178, 3583082137, 3583080752], "tags": {"addr:housenumber": "14", "addr:street": "Nott Street", "amenity": "hospital", "emergency": "yes", "healthcare": "hospital", "name": "Moura Multipurpose Health Service", "operator": "Queensland Health", "operator:type": "government", "operator:wikidata": "Q17006271", "phone": "+61 7 7 4997 2900", "website": "https://www.cq.health.qld.gov.au/hospitals-and-health-centres/moura-multipurpose-health-service"}}, {"type": "way", "id": 373859385, "center": {"lat": -29.110274, "lon": 147.4561213}, "nodes": [3772865145, 3772865147, 3772865148, 2562398430, 3772865145], "tags": {"amenity": "hospital", "emergency": "yes", "healthcare": "hospital", "name": "Goodooga Health Service", "website": "https://www.healthdirect.gov.au/australian-health-services/23008899/goodooga-health-service/services/goodooga-2838-49-hammond-street"}}, {"type": "way", "id": 373863849, "center": {"lat": -29.7040741, "lon": 144.123962}, "nodes": [3772935281, 3772935280, 3772935276, 3772935277, 3772935281], "tags": {"amenity": "hospital", "building": "hospital", "emergency": "yes", "fixme": "Is this correct? No signage on nearby main roads and airstrip for RFDS/Wanaaring is on other side of town? Found a \"Health Clinic\" in town. Moved?", "healthcare": "hospital", "name": "Wanaaring Community Health service", "source": "Mapbox for outline, Natvander for the rest."}}, {"type": "way", "id": 374035529, "center": {"lat": -29.9616174, "lon": 146.8642178}, "nodes": [3774385925, 3774386072, 3774386083, 3774386061, 9443666994, 9443666995, 9443666993, 3774385927, 3774385925], "tags": {"amenity": "hospital", "emergency": "Brewarrina Multi Purpose Service", "healthcare": "hospital", "operator": "NSW Health", "operator:wikidata": "Q6867095", "operator:wikipedia": "en:Ministry of Health (New South Wales)"}}, {"type": "way", "id": 389464763, "center": {"lat": -20.6560113, "lon": 141.7501916}, "nodes": [3926402299, 3926402690, 3926402307, 3926402318, 3926402299], "tags": {"amenity": "hospital", "healthcare": "hospital", "name": "Julia Creek Hospital"}}, {"type": "way", "id": 422791419, "center": {"lat": -29.4332036, "lon": 142.0129774}, "nodes": [1956303352, 4225189589, 4225189591, 4225189590, 4225189592, 4225188688, 4225188687, 4225188685, 4225188686, 4225188684, 4225188682, 4225188683, 1956303352], "tags": {"amenity": "hospital", "building": "yes", "emergency": "yes", "healthcare": "hospital", "name": "Tibooburra Health Service", "website": "https://www.service.nsw.gov.au/nswgovdirectory/tibooburra-health-service"}}, {"type": "way", "id": 500397105, "center": {"lat": -28.0274054, "lon": 148.5929224}, "nodes": [4914620636, 4914620635, 4914620634, 4914588014, 4914588015, 4914620633, 4914620636], "tags": {"addr:city": "St George", "addr:country": "AU", "addr:postcode": "4487", "addr:state": "QLD", "addr:street": "Victoria Street", "amenity": "hospital", "emergency": "yes", "fax": "+61 7 4620 2200", "healthcare": "hospital", "name": "St George Hospital", "operator": "Queensland Health", "operator:type": "government", "operator:wikidata": "Q17006271", "phone": "+61 7 4620 2222", "website": "https://www.southwest.health.qld.gov.au/healthcare-facilities/hospitals/st-george-hospital/"}}, {"type": "way", "id": 515818556, "center": {"lat": -29.4703328, "lon": 149.8399466}, "nodes": [9409189555, 9409189556, 9409189557, 9409189558, 3732765665, 3732765676, 5036615907, 5036615908, 9409189555], "tags": {"amenity": "hospital", "emergency": "yes", "healthcare": "hospital", "name": "Moree Hospital"}}, {"type": "way", "id": 591106984, "center": {"lat": -29.4301121, "lon": 147.9817135}, "nodes": [9448663262, 5642913950, 5642913952, 5642913943, 5642913944, 5642913945, 5642913946, 5642913947, 5642913948, 5642913949, 9448663263, 9448663266, 9448663267, 9448663264, 9448663265, 9448663262], "tags": {"alt_name": "Lightning Ridge Multi Purpose Service", "amenity": "hospital", "emergency": "yes", "healthcare": "hospital", "name": "Lightning Ridge Hospital"}}, {"type": "way", "id": 621842234, "center": {"lat": -20.0760008, "lon": 146.2642398}, "nodes": [5874408598, 5874408612, 5874408596, 5874408617, 5874408615, 5874408598], "tags": {"amenity": "hospital", "healthcare": "hospital", "name": "Charters Towers Hospital"}}, {"type": "way", "id": 843379454, "center": {"lat": -22.5829329, "lon": 148.353138}, "nodes": [7867128900, 7867128901, 7867128902, 7867128903, 7867128904, 7867128905, 7867128906, 7867128900], "tags": {"addr:housenumber": "28", "addr:postcode": "4745", "addr:state": "Qld", "addr:street": "Queen Elizabeth Drive", "addr:suburb": "Dysart", "amenity": "hospital", "emergency": "yes", "healthcare": "hospital", "name": "Dysart Hospital", "phone": "+61 7 4941 1911", "website": "https://www.mackay.health.qld.gov.au/your-hospitals/dysart-hospital/"}}, {"type": "way", "id": 844881045, "center": {"lat": -28.5796258, "lon": 148.2289439}, "nodes": [7882272148, 7882272149, 7882272150, 7882272151, 7882272152, 7882272153, 7882272154, 7882272148], "tags": {"addr:postcode": "4486", "addr:state": "Qld", "addr:street": "Crothers Street", "addr:suburb": "Dirranbandi", "amenity": "hospital", "emergency": "yes", "healthcare": "hospital", "name": "Dirranbandi Multipurpose Health Service", "operator": "Qld Health", "operator:type": "government", "phone": "+61 7 4625 8222", "website": "https://www.southwest.health.qld.gov.au/healthcare-facilities/multipurpose-health-services/dirranbandi-multipurpose-health-service/", "wikidata": "Q81096052"}}, {"type": "way", "id": 846797582, "center": {"lat": -26.4900647, "lon": 147.9721854}, "nodes": [7900998785, 7900998786, 7900998787, 7900998788, 7900998785], "tags": {"addr:housenumber": "95", "addr:postcode": "4465", "addr:state": "QLD", "addr:street": "Ann Street", "addr:suburb": "Mitchell", "amenity": "hospital", "emergency": "yes", "healthcare": "hospital", "name": "Mitchell Multipurpose Health Service", "operator": "Qld Health", "operator:type": "government", "phone": "+61 7 4623 1277", "website": "https://www.southwest.health.qld.gov.au/healthcare-facilities/multipurpose-health-services/mitchell-multipurpose-health-service/"}}, {"type": "way", "id": 846800609, "center": {"lat": -25.8470065, "lon": 148.5625362}, "nodes": [7901030002, 7901030003, 7901030004, 7901030005, 7901030006, 7901030002], "tags": {"addr:postcode": "4454", "addr:state": "QLD", "addr:street": "Fifth Avenue", "addr:suburb": "Injune", "amenity": "hospital", "emergency": "yes", "healthcare": "hospital", "name": "Injune Hospital", "operator": "Qld Health", "operator:type": "government", "phone": "+61 7 4626 1188", "source": "survey", "website": "https://www.southwest.health.qld.gov.au/healthcare-facilities/multipurpose-health-services/injune-multipurpose-health-service/"}}, {"type": "way", "id": 846803651, "center": {"lat": -26.5816938, "lon": 149.1810965}, "nodes": [1273742393, 7900960273, 7900960274, 7900960275, 7900960276, 1273742393], "tags": {"addr:postcode": "4428", "addr:state": "Qld", "addr:street": "Stakeyard Road", "addr:suburb": "Wallumbilla", "amenity": "hospital", "emergency": "yes", "healthcare": "hospital", "name": "Wallumbilla Community Clinic", "operator": "Qld  Health", "operator:type": "government", "phone": "+61 7 4623 4233", "website": "https://www.southwest.health.qld.gov.au/healthcare-facilities/community-clinics/wallumbilla-community-clinic/"}}, {"type": "way", "id": 909229847, "center": {"lat": -23.6490444, "lon": 146.6329966}, "nodes": [8442093011, 8442119958, 8442119959, 8442093012, 8442119982, 8442119985, 8442093013, 8442093014, 8442093011], "tags": {"amenity": "hospital", "emergency": "yes", "healthcare": "hospital", "name": "Alpha Emergency Hub"}}, {"type": "way", "id": 911687275, "center": {"lat": -22.9664868, "lon": 145.2447815}, "nodes": [8465050937, 8465050938, 8465050939, 8465050940, 8465050941, 8465050942, 8465050937], "tags": {"addr:housenumber": "2", "addr:postcode": "4726", "addr:state": "Qld", "addr:street": "Lodge Street", "addr:suburb": "Aramac", "amenity": "hospital", "emergency": "yes", "healthcare": "hospital", "name": "Aramac Primary Health Centre", "operator": "Queensland Health", "operator:type": "government", "operator:wikidata": "Q17006271", "phone": "+61 7 4652 9000", "source": "https://www.health.qld.gov.au/services", "website": "https://www.health.qld.gov.au/centralwest/menu/locations-and-services/aramac"}}, {"type": "way", "id": 911689336, "center": {"lat": -25.7958585, "lon": 146.5906089}, "nodes": [8465092832, 8465092833, 8465092834, 8465092835, 8465092836, 8465092837, 8465092838, 8465092839, 8465092840, 8465092841, 8465092842, 8465092843, 8465092844, 8465092845, 8465092846, 8465092832], "tags": {"addr:postcode": "4477", "addr:state": "QLD", "addr:street": "Cavanagh Street", "addr:suburb": "Augathella", "amenity": "hospital", "emergency": "yes", "healthcare": "hospital", "name": "Augathella Multipurpose Health Service", "operator": "Queensland Health", "operator:type": "government", "operator:wikidata": "Q17006271", "phone": "+61 7 4656 7100", "source": "https://www.health.qld.gov.au/services", "website": "https://www.southwest.health.qld.gov.au/healthcare-facilities/multipurpose-health-services/augathella-multipurpose-health-service/"}}, {"type": "way", "id": 924071847, "center": {"lat": -20.7042602, "lon": 140.5278865}, "nodes": [8578030202, 8578030203, 8578030204, 8578030205, 8578030206, 8578030207, 8578030208, 8578030209, 8578030210, 8578030211, 8578030202], "tags": {"amenity": "hospital", "area": "yes", "emergency": "yes", "healthcare": "hospital", "name": "Cloncurry Hospital", "operator": "Queensland Health", "operator:type": "public"}}, {"type": "way", "id": 1025064216, "center": {"lat": -29.5449552, "lon": 148.5821057}, "nodes": [2562428890, 9451701560, 9451701559, 9451701567, 9451701566, 9451701565, 9451701564, 9451701563, 2562428890], "tags": {"alt_name": "Collarenebri Multi Purpose Service", "amenity": "hospital", "emergency": "yes", "healthcare": "hospital", "name": "Collarenebri Hospital"}}, {"type": "way", "id": 1087648579, "center": {"lat": -23.5152187, "lon": 148.1547407}, "nodes": [9965338296, 9965338297, 9965338298, 9965338299, 9965338296], "tags": {"addr:housenumber": "69", "addr:postcode": "4720", "addr:state": "QLD", "addr:street": "Hospital Road", "addr:suburb": "Emerald", "amenity": "hospital", "emergency": "yes", "healthcare": "hospital", "name": "Emerald Hospital", "not:operator:wikidata": "Q17006271", "operator": "Queensland Health", "operator:type": "government"}}, {"type": "relation", "id": 13929725, "center": {"lat": -21.1467939, "lon": 149.1549387}, "members": [{"type": "way", "ref": 179081759, "role": "outer"}, {"type": "way", "ref": 1040795409, "role": "outer"}, {"type": "way", "ref": 1040795410, "role": "outer"}], "tags": {"amenity": "hospital", "emergency": "yes", "healthcare": "hospital", "name": "Mackay Base Hosiptal", "type": "multipolygon"}}]}