{"version": 0.6, "generator": "Overpass API 0.7.61.5 4133829e", "osm3s": {"timestamp_osm_base": "2023-10-31T20:48:30Z", "copyright": "The data included in this document is from www.openstreetmap.org. The data is made available under ODbL."}, "elements": [{"type": "node", "id": 297840787, "lat": -27.1666997, "lon": 151.2802577, "tags": {"amenity": "hospital", "name": "Dalby Hospital Accident and Emergency"}}, {"type": "node", "id": 410885543, "lat": -26.9409782, "lon": 152.5613436, "tags": {"amenity": "hospital", "name": "Kilcoy Hospital", "wikidata": "Q85141968"}}, {"type": "node", "id": 429736286, "lat": -23.6449843, "lon": 150.392429, "tags": {"amenity": "hospital", "name": "Mount Morgan Hospital"}}, {"type": "node", "id": 761884589, "lat": -26.6215184, "lon": 152.9526867, "tags": {"amenity": "hospital", "emergency": "yes", "healthcare": "hospital", "name": "Nambour General Hospital Emergency", "operator": "Queensland Health", "toilets:wheelchair": "yes", "wheelchair": "yes"}}, {"type": "node", "id": 1015750214, "lat": -26.6663911, "lon": 152.0076137, "tags": {"amenity": "hospital", "name": "Nanango Hospital"}}, {"type": "node", "id": 1749098543, "lat": -26.5325754, "lon": 151.8381578, "tags": {"amenity": "hospital", "emergency": "yes", "name": "Kingaroy Hospital"}}, {"type": "node", "id": 1749098840, "lat": -26.5427881, "lon": 151.8369508, "tags": {"amenity": "hospital", "name": "South Burnett Comunity Private Hospital"}}, {"type": "node", "id": 1921815591, "lat": -25.631327, "lon": 151.6043912, "tags": {"amenity": "hospital", "healthcare": "hospital", "name": "Gayndah Hospital", "source": "survey", "wikidata": "Q85139603"}}, {"type": "node", "id": 2291365021, "lat": -26.8005642, "lon": 153.1198046, "tags": {"amenity": "hospital", "name": "Caloundra Hospital"}}, {"type": "node", "id": 3015811259, "lat": -23.9463135, "lon": 151.3533021, "tags": {"amenity": "hospital", "emergency": "no", "name": "Tara Place Family Practice"}}, {"type": "node", "id": 4545657388, "lat": -23.3775383, "lon": 150.4963197, "tags": {"amenity": "hospital", "emergency": "yes", "healthcare": "hospital", "name": "Hillcrest Private Hospital", "operator": "Ramsey Health"}}, {"type": "node", "id": 5045571764, "lat": -27.9590925, "lon": 153.3820581, "tags": {"amenity": "hospital", "name": "Emergency"}}, {"type": "node", "id": 5045644127, "lat": -28.0703561, "lon": 153.3763389, "tags": {"amenity": "hospital", "name": "Emergency"}}, {"type": "node", "id": 5946604285, "lat": -25.2998455, "lon": 152.8238108, "tags": {"amenity": "hospital", "name": "St Stephen's Hospital", "wikidata": "Q30280913"}}, {"type": "node", "id": 6222899784, "lat": -27.4926679, "lon": 152.9816513, "tags": {"addr:housenumber": "28", "addr:postcode": "4068", "addr:state": "QLD", "addr:street": "Morrow Street", "addr:suburb": "Taringa", "amenity": "hospital", "healthcare": "hospital", "name": "Westside Private Hospital"}}, {"type": "node", "id": 6255283296, "lat": -27.4246865, "lon": 153.0002372, "tags": {"addr:city": "Brisbane", "addr:housenumber": "24", "addr:postcode": "4051", "addr:street": "South Pine Road", "addr:suburb": "Alderley", "addr:unit": "4", "amenity": "hospital", "emergency": "no", "healthcare": "hospital", "name": "Alderley Child Health", "operator": "Queensland Health", "operator:type": "public", "operator:wikidata": "Q17006271", "phone": "1300 366 039", "source": "Brisbane City Council", "source:date": "2018-12-14", "website": "https://www.childrens.health.qld.gov.au/service-child-health/"}}, {"type": "node", "id": 6702477576, "lat": -28.1537887, "lon": 153.488234, "tags": {"amenity": "hospital", "emergency": "emergency_ward_entrance", "healthcare": "hospital", "name": "Emergency"}}, {"type": "node", "id": 9699426671, "lat": -27.6754076, "lon": 153.1316733, "tags": {"amenity": "hospital", "healthcare": "hospital", "name": "Logan Cardiology & Specialist Centre", "operator": "Mediclinic", "phone": "+61 7 3200 2900"}}, {"type": "node", "id": 9706248456, "lat": -27.7173882, "lon": 153.1995205, "tags": {"amenity": "hospital", "healthcare": "hospital", "name": "Beenleigh Medical Centre", "operator": "Mediclinic"}}, {"type": "node", "id": 9930480188, "lat": -27.5666908, "lon": 152.27638, "tags": {"addr:housenumber": "103", "addr:street": "William Street", "amenity": "hospital", "name": "Gatton Hospital"}}, {"type": "node", "id": 11056431342, "lat": -26.6722667, "lon": 153.0873278, "tags": {"addr:housenumber": "Suite 11 /76", "addr:postcode": "4558", "addr:state": "QLD", "addr:street": "Wises Road", "addr:suburb": "Maroochydore", "addr:unit": "Level 1", "amenity": "hospital", "contact:facebook": "https://www.facebook.com/integrativeclinicalpsychology", "description": "Integrative Clinical Psychology, situated in the beautiful Sunshine Coast, Australia, provides comprehensive mental health care. Our team of psychologists takes into account the physical, psychological, social, and spiritual dimensions of  clients' lives", "email": "admin@icpsych.com.au", "healthcare": "hospital", "healthcare:speciality": "psychology;hypnosis", "image": "https://www.icpsych.com.au/", "mobile": "(07) 5370 8858", "name": "Integrative Clinical Psychology", "opening_hours": "Mo-Fr 09:00-17:00", "source": "local knowledge", "start_date": "2017-07-01", "website": "https://www.icpsych.com.au/"}}, {"type": "node", "id": 11078418718, "lat": -27.2400493, "lon": 152.4182325, "tags": {"amenity": "hospital", "healthcare": "hospital", "name": "Esk District Hospital"}}, {"type": "node", "id": 11150416770, "lat": -27.4247635, "lon": 152.9906196, "tags": {"addr:housenumber": "289", "addr:postcode": "4051", "addr:state": "QLD", "addr:street": "Wardell Street", "addr:suburb": "Enoggera", "amenity": "hospital", "healthcare": "hospital", "healthcare:speciality": "child_psychiatry", "name": "Evolve Therapeutic Services", "operator": "Queensland Health", "operator:type": "public", "operator:wikidata": "Q17006271", "phone": "(07) 3355 8999", "website": "https://www.childrens.health.qld.gov.au/service-evolve-therapeutic/"}}, {"type": "way", "id": 9858809, "center": {"lat": -27.447703, "lon": 153.0268862}, "nodes": [268384226, 268384227, 79385098, 79385099, 9115684112, 268384230, 268384231, 79385102, 79385103, 79385104, 79385107, 79385109, 7043067121, 79385110, 79385111, 5392678536, 5392678535, 9090092002, 9115719726, 79385113, 457812487, 567930122, 567930121, 79385114, 1638820897, 4149145598, 79385116, 4149145597, 311435067, 417856127, 9118865470, 79385118, 79385120, 268384225, 268384226], "tags": {"addr:postcode": "4029", "addr:state": "QLD", "addr:street": "Butterfield Street", "addr:suburb": "Herston", "amenity": "hospital", "emergency": "yes", "healthcare": "hospital", "name": "Royal Brisbane and Women\u2019s Hospital", "operator": "Queensland Health", "operator:type": "government", "operator:wikidata": "Q17006271", "phone": "+61 7 3646 8111", "short_name": "RBWH", "website": "https://www.health.qld.gov.au/rbwh/", "wikidata": "Q7373845", "wikipedia": "en:Royal Brisbane and Women's Hospital"}}, {"type": "way", "id": 9934636, "center": {"lat": -27.3888227, "lon": 153.0238033}, "nodes": [81495921, 80775702, 80775701, 80775700, 80775699, 80775698, 81498175, 80775695, 260100583, 559949201, 559949209, 559949219, 559949208, 559949217, 559949216, 81498177, 9527029293, 81498178, 9527029301, 559941442, 559941443, 81498179, 81495912, 81495913, 559941541, 559941540, 9579630536, 81495914, 559949467, 81495915, 559949604, 81495916, 81495917, 9579692083, 9579692086, 81495918, 9579691969, 559943788, 559943784, 608090691, 83326316, 7892246001, 7892246007, 7892246006, 7892246005, 7892246004, 81495920, 7892246003, 559926728, 81495921], "tags": {"addr:postcode": "4032", "addr:state": "QLD", "addr:street": "Rode Road", "addr:suburb": "Chermside", "amenity": "hospital", "emergency": "yes", "healthcare": "hospital", "name": "The Prince Charles Hospital", "operator": "Queensland Health", "operator:type": "government", "operator:wikidata": "Q17006271", "operator:wikipedia": "en:Queensland Health", "phone": "+61 7 3139 4000", "website": "https://metronorth.health.qld.gov.au/tpch/"}}, {"type": "way", "id": 12295272, "center": {"lat": -27.4611598, "lon": 153.0213809}, "nodes": [111438349, 111438376, 111438396, 111438428, 111438441, 111438535, 111438560, 111438584, 111438607, 111438627, 2848225410, 111438349], "tags": {"addr:housenumber": "457", "addr:postcode": "4000", "addr:state": "QLD", "addr:street": "Wickham Terrace", "addr:suburb": "Spring Hill", "amenity": "hospital", "emergency": "yes", "healthcare": "hospital", "name": "St Andrews War Memorial Private Hospital", "operator": "Uniting Care", "operator:type": "religious", "phone": "+61 7 3834 4444", "website": "http://standrewshospital.com.au/"}}, {"type": "way", "id": 23139985, "center": {"lat": -26.1844171, "lon": 152.6582637}, "nodes": [249846571, 249846575, 1837118770, 1837118768, 249846584, 249846603, 249846604, 249846606, 249846570, 9970117732, 9970117731, 249846571], "tags": {"addr:housenumber": "12", "addr:postcode": "4570", "addr:state": "QLD", "addr:street": "Henry Street", "addr:suburb": "Gympie", "amenity": "hospital", "emergency": "yes", "healthcare": "hospital", "name": "Gympie General Hospital"}}, {"type": "way", "id": 27129399, "center": {"lat": -27.4779572, "lon": 152.9978636}, "nodes": [297651444, 610736586, 610736587, 297651445, 610736588, 610736589, 610736591, 610736592, 610736593, 610736594, 297651446, 297651447, 610736595, 11290154285, 610736596, 11290119538, 11290119539, 610737015, 297651450, 610736281, 297651451, 610736282, 610736283, 610736948, 610736284, 297651452, 610736598, 610736285, 297651453, 610736599, 610736600, 297651454, 297651455, 297651456, 297651457, 610736601, 297651458, 297651459, 610736602, 610747244, 610736604, 610736605, 610736606, 610736607, 610736608, 610736609, 610736610, 610736611, 610736612, 297651460, 297651444], "tags": {"addr:housenumber": "451", "addr:postcode": "4066", "addr:state": "QLD", "addr:street": "Coronation Drive", "addr:suburb": "Auchenflower", "amenity": "hospital", "emergency": "yes", "healthcare": "hospital", "name": "Wesley Hospital", "operator": "WH", "operator:type": "private", "phone": "+61 7 3232 7000", "website": "https://wesley.com.au/", "wikidata": "Q7983933"}}, {"type": "way", "id": 29336955, "center": {"lat": -27.4646242, "lon": 153.0225948}, "nodes": [322734125, 322734126, 322734127, 322734128, 322734129, 322734130, 322734146, 322734196, 322734131, 322734132, 322734133, 322734134, 322734135, 322734136, 322734137, 322734197, 322734198, 1332823781, 322734125], "tags": {"addr:housenumber": "259", "addr:postcode": "4000", "addr:state": "Qld", "addr:street": "Wickham Terrace", "addr:suburb": "Brisbane", "amenity": "hospital", "emergency": "no", "healthcare": "hospital", "name": "Brisbane Private Hospital", "operator": "Damascus Health", "operator:type": "private", "phone": "+61 7 3834 6111", "website": "https://brisbaneprivatehospital.com.au/"}}, {"type": "way", "id": 30182117, "center": {"lat": -27.559617, "lon": 153.0488105}, "nodes": [332568978, 9820138612, 9820138566, 4072581833, 4072581850, 332568979, 332568981, 9438487975, 9819920938, 9819920939, 9819920940, 9438487977, 9819920945, 9819920941, 9438487976, 9819920946, 9819920947, 9819920948, 9819921039, 9819920949, 9819921035, 4072584004, 9819921097, 9819920950, 9819947209, 9819947208, 5073343927, 5450578217, 5450578216, 332568982, 9438487974, 5073343926, 9819975699, 9819975690, 9438489531, 9438487989, 9438489529, 9438489528, 4072581858, 4072581854, 4072581857, 9820145920, 4072581838, 332568978], "tags": {"addr:postcode": "4108", "addr:state": "Qld", "addr:street": "Troughton Road", "addr:suburb": "Coopers Plains", "alt_name": "QE2 Hospital", "amenity": "hospital", "emergency": "yes", "healthcare": "hospital", "name": "Queen Elizabeth II Jubilee Hospital", "operator": "Queensland Health", "operator:type": "government", "operator:wikidata": "Q17006271", "operator:wikipedia": "en:Queensland Health", "phone": "+61 7 3182 6111", "short_name": "QEII Hospital", "website": "https://metrosouth.health.qld.gov.au/qeii-jubilee-hospital", "wikidata": "Q7270363"}}, {"type": "way", "id": 31248188, "center": {"lat": -27.1666199, "lon": 151.278706}, "nodes": [347413034, 347413036, 347413037, 347413038, 347413039, 1837826990, 1837826986, 347413040, 1837826944, 1837826982, 1837826935, 347413041, 1837826967, 1837826962, 1837826958, 1837826977, 1837826975, 1837826950, 347413043, 347413034], "tags": {"amenity": "hospital", "name": "Dalby Health Services", "source": "Bing", "source:name": "unknown"}}, {"type": "way", "id": 31294433, "center": {"lat": -27.5725597, "lon": 153.0613656}, "nodes": [348176474, 348176475, 348176476, 9859483419, 9859483456, 9859483453, 1977804556, 348176477, 9859443614, 9859443615, 348176474], "tags": {"addr:housenumber": "245", "addr:postcode": "4109", "addr:state": "Qld", "addr:street": "McCullough Street", "addr:suburb": "Sunnybank", "amenity": "hospital", "check_date": "2023-10-03", "emergency": "no", "healthcare": "hospital", "name": "Sunnybank Private Hospital", "operator": "SPH", "operator:type": "private", "phone": "+61 7 3344 9333", "website": "https://sunnybankprivatehospital.com.au/"}}, {"type": "way", "id": 32224646, "center": {"lat": -28.8200083, "lon": 153.2886546}, "nodes": [361365965, 3510053050, 3510053049, 3510053046, 3510053048, 361365966, 3510053045, 3510053043, 3510053044, 3510053047, 361365967, 361365969, 361365965], "tags": {"addr:housenumber": "20", "addr:postcode": "2480", "addr:state": "NSW", "addr:street": "Dalley Street", "addr:suburb": "Lismore", "amenity": "hospital", "healthcare": "hospital", "name": "Saint Vincents Private Hospital Lismore", "operator": "St Vincents", "operator:type": "religious", "phone": "+61 2 6627 9600", "toilets:wheelchair": "yes", "website": "https://www.svh.org.au/", "wheelchair": "yes"}}, {"type": "way", "id": 34240262, "center": {"lat": -27.3940596, "lon": 152.9929387}, "nodes": [392679610, 392679630, 392679620, 3645869366, 3645869365, 3645869364, 3645869363, 392679741, 392679610], "tags": {"addr:housenumber": "137", "addr:postcode": "4053", "addr:state": "Qld", "addr:street": "Flockton Street", "addr:suburb": "Everton Park", "amenity": "hospital", "emergency": "no", "healthcare": "hospital", "name": "North West Private Hospital", "operator": "Ramsay Health", "operator:type": "private", "phone": "+61 7 3246 3133", "website": "https://www.northwestprivatehospital.com.au/"}}, {"type": "way", "id": 36307548, "center": {"lat": -27.6194641, "lon": 152.7589306}, "nodes": [423554551, 423554552, 7891671005, 7891671004, 7891671003, 7891671002, 7891671001, 7891671000, 7891670999, 7891670998, 7891670994, 7891670997, 7891670996, 7891670995, 10046105993, 423554553, 423554554, 423554555, 423554556, 423554557, 423554558, 423554551], "tags": {"addr:postcode": "4305", "addr:state": "Qld", "addr:street": "Chelmsford Avenue", "addr:suburb": "Ipswich", "amenity": "hospital", "designation": "Ipswich Hospital", "emergency": "yes", "healthcare": "hospital", "name": "Ipswich Hospital", "operator": "Queensland Health", "operator:type": "government", "operator:wikidata": "Q17006271", "operator:wikipedia": "en:Queensland Health", "phone": "+61 7 3810 1111", "website": "https://www.westmoreton.health.qld.gov.au/location/ipswich-health", "wikidata": "Q6065590"}}, {"type": "way", "id": 36308871, "center": {"lat": -27.6190114, "lon": 152.7632329}, "nodes": [423568204, 7883599372, 7891638891, 423568205, 7891638890, 423568870, 7883599358, 7883599359, 423568206, 423568207, 9174416600, 9174416599, 423568204], "tags": {"addr:housenumber": "12", "addr:postcode": "4305", "addr:state": "Qld", "addr:street": "Roderick Street", "addr:suburb": "Ipswich", "amenity": "hospital", "emergency": "yes", "fax": "+61 7 3816 9900", "healthcare": "hospital", "name": "St Andrews Private Hospital", "operator": "Ramsay Health Care", "operator:type": "private", "operator:wikidata": "Q17054333", "phone": "+61 7 3816 9999", "website": "https://www.standrewsipswich.com.au/"}}, {"type": "way", "id": 36669997, "center": {"lat": -23.3800321, "lon": 150.4950574}, "nodes": [563310832, 8763010359, 6652268860, 426362864, 426362858, 426362859, 60689064, 8797771918, 426362860, 563310832], "tags": {"amenity": "hospital", "emergency": "yes", "healthcare": "hospital", "name": "Rockhampton Base Hospital", "operator": "Queensland Health", "operator:type": "public", "source": "survey"}}, {"type": "way", "id": 42295626, "center": {"lat": -27.5693925, "lon": 151.9442677}, "nodes": [4692143197, 4692143193, 4692143194, 4692143195, 4698482709, 527771722, 4698482383, 4698482384, 527771718, 4692393960, 4692393961, 4692393962, 4692393963, 4698482713, 4698482712, 4692393964, 4692393965, 527771717, 4698482385, 4698482386, 4698482387, 4698482388, 4698482689, 4698482690, 4698482691, 4698482693, 4698482696, 4692220294, 4698482695, 4692220295, 4698482364, 4698482363, 4698482362, 4698482366, 4693134622, 527771734, 4693432703, 4693432707, 4693432705, 4693432723, 4693155429, 4693155424, 4692266309, 4766339063, 4692266308, 4766470965, 527771733, 527771725, 4692393929, 527771724, 527771719, 4768934302, 4768934306, 4768934292, 4768934305, 4692351526, 8311108395, 527771720, 8311108393, 4692351524, 4692351506, 4692351507, 4692431547, 527771716, 4692143198, 4692143197], "tags": {"addr:postcode": "4350", "addr:state": "QLD", "addr:street": "Pechey Street", "addr:suburb": "Toowoomba", "amenity": "hospital", "area": "yes", "emergency": "yes", "healthcare": "hospital", "name": "Toowoomba Base Hospital", "operator": "Queensland Health", "operator:type": "government", "operator:wikidata": "Q17006271", "operator:wikipedia": "en:Queensland Health", "phone": "+61 7 4616 6000", "source": "http://data.australia.gov.au/152", "website": "https://www.health.qld.gov.au/services/darlingdowns/ddowns-toowoomba-hs"}}, {"type": "way", "id": 42336221, "center": {"lat": -27.540168, "lon": 151.934492}, "nodes": [528518872, 528518873, 10315903215, 10315903216, 10315903221, 528518875, 10315903373, 10315903372, 10315903371, 7888967208, 528518874, 7888967203, 10935519174, 10935519173, 528518862, 528518864, 7888967207, 528518865, 10315903226, 10313883464, 10313883465, 10313883454, 10313883440, 10313883453, 10313883466, 10313883467, 10313883436, 10313883450, 10313883468, 10313883449, 10313883448, 10313883469, 10313883470, 528518869, 10315903230, 10315903229, 528518870, 528518871, 10315903228, 10315903227, 528518872], "tags": {"addr:housenumber": "280", "addr:postcode": "4350", "addr:state": "Qld", "addr:street": "North Street", "addr:suburb": "Rockville", "amenity": "hospital", "emergency": "no", "healthcare": "hospital", "name": "St Andrews Private Hospital", "operator": "St Andrews", "operator:type": "private", "phone": "+61 7 4646 3000", "source": "http://data.australia.gov.au/152", "website": "https://www.sath.org.au/about-us/"}}, {"type": "way", "id": 42336452, "center": {"lat": -27.5666001, "lon": 151.9720309}, "nodes": [528521052, 10302232866, 528521054, 528521055, 528521056, 5982334526, 528521052], "tags": {"addr:housenumber": "22-36", "addr:postcode": "4350", "addr:state": "QLD", "addr:street": "Scott Street", "addr:suburb": "Toowoomba", "amenity": "hospital", "emergency": "yes", "healthcare": "hospital", "name": "St Vincent's Private Hospital", "operator": "St Vincents Health", "operator:type": "religious", "phone": "+61 7 4690 4000", "source": "http://data.australia.gov.au/152", "website": "https://www.svpht.org.au/"}}, {"type": "way", "id": 46150715, "center": {"lat": -26.4033064, "lon": 153.0459522}, "nodes": [588396610, 588396630, 588396613, 9467548411, 588396614, 588396611, 588396615, 588396606, 588396607, 588396610], "tags": {"addr:housenumber": "111", "addr:postcode": "4566", "addr:state": "Qld", "addr:street": "Goodchap Street", "addr:suburb": "Noosaville", "amenity": "hospital", "emergency": "yes", "healthcare": "hospital", "name": "Noosa Hospital", "operator": "Ramsay Health", "operator:type": "private", "phone": "+61 7 5455 9200", "website": "https://www.noosahospital.com.au/"}}, {"type": "way", "id": 51653416, "center": {"lat": -24.8690121, "lon": 152.3352765}, "nodes": [659639283, 659639284, 659639285, 659639286, 659639287, 3639401351, 3639401347, 659639341, 659639396, 3671686463, 3811021703, 659639421, 3639401326, 3639401325, 659639422, 659639435, 659639432, 659639433, 659639434, 11157792617, 11157792618, 3638251455, 3638251460, 3639401313, 659639352, 659639353, 659639354, 619677079, 619677080, 659639351, 619677072, 659639317, 619677073, 659639288, 659639292, 619677064, 619677065, 659639283], "tags": {"amenity": "hospital", "healthcare": "hospital", "name": "Bundaberg Base Hospital", "name:vi": "B\u1ec7nh vi\u1ec7n Bundaberg", "website": "https://www.health.qld.gov.au/services/widebay/wb-bundaberg.asp", "wikidata": "Q4997483"}}, {"type": "way", "id": 51653459, "center": {"lat": -24.8702894, "lon": 152.3298348}, "nodes": [659639684, 659639682, 659639679, 659639675, 659639678, 659639684], "tags": {"addr:city": "Bundaberg", "addr:housenumber": "313", "addr:postcode": "4670", "addr:street": "Bourbong Street", "amenity": "hospital", "emergency": "yes", "name": "Mater Misericordiae Hospital Bundaberg", "note": "Visiting hours for general wards: 10:00am - 8:00pm", "phone": "+61 7 4153 9539", "website": "https://www.mercycq.com/hospital_bundaberg.htm"}}, {"type": "way", "id": 56063795, "center": {"lat": -27.473516, "lon": 152.9951272}, "nodes": [703692399, 703692381, 703692387, 3868367238, 703692403, 703692406, 703692404, 703692383, 4964993508, 703692385, 703692399], "tags": {"addr:housenumber": "401", "addr:postcode": "4066", "addr:state": "Qld", "addr:street": "Milton Road", "addr:suburb": "Auchenflower", "amenity": "hospital", "emergency": "no", "healthcare": "hospital", "name": "RiverCity Private Hospital", "operator": "RC", "operator:type": "private", "phone": "+61 7 3736 3010", "website": "https://rivercityph.com.au/"}}, {"type": "way", "id": 67975538, "center": {"lat": -27.4843621, "lon": 153.0289486}, "nodes": [820048355, 820048357, 1166155743, 820048359, 820048362, 820048364, 2430980090, 6056833457, 6056833454, 1215827317, 6359886757, 6359886763, 4977035638, 4977035639, 1215827318, 1215827307, 1215827325, 1215827297, 1215827310, 1215827321, 1215827343, 4977035580, 4977035581, 1375327656, 1215827337, 1215827336, 1370852558, 6656826380, 1375327654, 1215827301, 1370850383, 1370850384, 820048399, 820048401, 820048404, 820048406, 820048409, 820048410, 820048411, 1215827319, 1215827315, 820048412, 820048355], "tags": {"amenity": "hospital", "emergency": "yes", "healthcare": "hospital", "name": "Mater Private Hospital", "wikidata": "Q30280917"}}, {"type": "way", "id": 68191791, "center": {"lat": -27.2303711, "lon": 153.0929971}, "nodes": [821573304, 821573287, 10155823638, 10155823639, 821573311, 821573315, 821573304], "tags": {"addr:postcode": "4021", "addr:state": "QLD", "addr:street": "Florence Street", "addr:suburb": "Kippa-Ring", "amenity": "hospital", "emergency": "no", "healthcare": "hospital", "name": "Peninsula Private Hospital", "operator": "Healthscope", "operator:type": "private", "phone": "+61 7 3883 9300", "website": "https://peninsulaprivatehospital.com.au/"}}, {"type": "way", "id": 68328059, "center": {"lat": -27.4839991, "lon": 153.0265288}, "nodes": [822688900, 4968028102, 4968028072, 4968028054, 4968028444, 4968028446, 4968028053, 4968028070, 4968028052, 4968028447, 4968028445, 822688904, 4968260004, 4968259830, 4968028448, 4968028463, 4968028464, 4968028451, 4968028461, 4968028460, 4968028450, 4968028462, 4968028449, 4968259831, 4968028467, 4968028465, 6649314306, 6649314313, 4968028466, 4968028452, 11149869810, 4968028458, 11149869822, 4968028459, 11149869809, 4968028453, 4968028454, 4968028456, 4968028457, 4968028455, 4968028112, 822688900], "tags": {"addr:city": "Brisbane", "addr:housenumber": "501", "addr:postcode": "4101", "addr:street": "Stanley Street", "amenity": "hospital", "building": "yes", "building:levels": "12", "emergency": "yes", "healthcare": "hospital", "healthcare:speciality": "paediatrics", "layer": "1", "name": "Queensland Children's Hospital", "old_name": "Lady Cilento Children's Hospital", "operator": "Queensland Health", "operator:wikidata": "Q17006271", "phone": "+61 7 3068 1111", "website": "https://www.health.qld.gov.au/services/childrenshealthqld/childrenshealth-qch", "wikidata": "Q7270916", "wikipedia": "en:Queensland Children's Hospital"}}, {"type": "way", "id": 70069273, "center": {"lat": -27.6203519, "lon": 153.3075758}, "nodes": [836916454, 11141014068, 9935408574, 11141014041, 11141014073, 11141014072, 11141014040, 11141014039, 9935408575, 836916454], "tags": {"addr:housenumber": "22", "addr:postcode": "4165", "addr:state": "QLD", "addr:street": "Meissner Street", "addr:suburb": "Redland Bay", "amenity": "hospital", "healthcare": "hospital", "name": "Redlands Satellite Hospital", "opening_date": "2023", "operator": "Queensland Health", "operator:type": "government", "operator:wikidata": "Q17006271", "website": "https://www.qld.gov.au/health/services/satellite-hospitals/redlands-satellite-hospital"}}, {"type": "way", "id": 74140944, "center": {"lat": -27.9879693, "lon": 153.4153998}, "nodes": [877055464, 877055631, 877055336, 877055058, 877055654, 877055358, 877055086, 877055413, 877055511, 877055253, 877055597, 877055312, 877055464], "tags": {"amenity": "hospital", "building": "hospital"}}, {"type": "way", "id": 86808526, "center": {"lat": -27.9990782, "lon": 152.6788314}, "nodes": [1010066703, 1010066707, 3169155773, 3169155772, 7882493966, 1989012613, 1010066710, 7882493967, 1010066713, 1010066703], "tags": {"addr:housenumber": "11-17", "addr:postcode": "4310", "addr:state": "QLD", "addr:street": "Leonard Street", "addr:suburb": "Boonah", "amenity": "hospital", "emergency": "yes", "healthcare": "hospital", "name": "Boonah Hospital", "operator": "Qld Health", "operator:type": "government", "phone": "+61 7 5463 3300", "source": "survey", "website": "https://www.westmoreton.health.qld.gov.au/location/boonah-health"}}, {"type": "way", "id": 99661811, "center": {"lat": -28.8598274, "lon": 153.0358686}, "nodes": [1152338502, 1152338506, 1152338494, 1152338497, 9424427584, 9424427583, 9424427582, 10956601535, 9424427581, 9424427580, 10956601534, 9424427579, 9424427573, 9424427572, 9424427578, 9424427577, 9424427576, 9424427574, 9424427575, 1152338502], "tags": {"addr:postcode": "2470", "addr:state": "NSW", "addr:street": "Hotham Street", "addr:suburb": "Casino", "alt_name": "Casino Community Health Centre", "amenity": "hospital", "emergency": "yes", "healthcare": "hospital", "name": "Casino & District Memorial Hospital", "operator": "NSW Health", "operator:type": "government", "operator:wikidata": "Q6867095", "phone": "+61 2 6662 2111", "website": "https://nnswlhd.health.nsw.gov.au/about/hospitals/casino-district-memorial-hospital/"}}, {"type": "way", "id": 107311922, "center": {"lat": -29.4541343, "lon": 153.2012987}, "nodes": [1232533740, 9427052071, 9427052072, 9427052073, 9427052074, 9427052075, 9427052076, 9427052077, 9427052078, 1232533677, 9427052070, 1232533764, 1232533740], "tags": {"alt_name": "Maclean Community Health Centre", "amenity": "hospital", "emergency": "yes", "healthcare": "hospital", "name": "Maclean District Hospital"}}, {"type": "way", "id": 116673527, "center": {"lat": -28.6271201, "lon": 153.0017427}, "nodes": [1314737305, 1314737296, 7882391845, 7882391843, 7882391844, 1314737302, 7882391842, 1314737301, 7882391841, 7882391840, 1314737300, 1314737305], "tags": {"addr:housenumber": "199", "addr:postcode": "2474", "addr:state": "NSW", "addr:street": "Summerland Way", "addr:suburb": "Kyogle", "alt_name": "Kyogle Multi Purpose Service", "amenity": "hospital", "emergency": "yes", "healthcare": "hospital", "name": "Kyogle Memorial Hospital", "operator": "NSW Health", "operator:type": "government", "phone": "+61 2 6630 0400", "source": "survey", "website": "https://nnswlhd.health.nsw.gov.au/about/hospitals/kyogle-memorial-hospital/"}}, {"type": "way", "id": 141323808, "center": {"lat": -27.4859669, "lon": 153.0272217}, "nodes": [1545694249, 4968028466, 6649314313, 6649314306, 4968028465, 1547047170, 6813507712, 820046569, 265854288, 6813507714, 265854293, 1545690505, 1545690504, 6654715468, 6654715458, 10241316549, 1545690506, 1545690502, 820016376, 1547047171, 820016375, 820016374, 616538556, 820015416, 820015415, 616538649, 11149869786, 1545694249], "tags": {"addr:postcode": "4101", "addr:state": "QLD", "addr:street": "Raymond Terrace", "addr:suburb": "South Brisbane", "amenity": "hospital", "emergency": "yes", "healthcare": "hospital", "name": "Mater Hospital", "operator": "Mater", "operator:type": "private", "phone": "+61 7 3163 8111", "website": "https://www.mater.org.au/health/hospitals/mater-hospital-brisbane"}}, {"type": "way", "id": 145384729, "center": {"lat": -26.7550053, "lon": 152.8447969}, "nodes": [1587959377, 4566814193, 9072401071, 1587959378, 1587959382, 11252001095, 11252001094, 1587959380, 1587959377], "tags": {"amenity": "hospital", "healthcare": "hospital", "name": "Maleny Soldiers Memorial Hospital"}}, {"type": "way", "id": 173321032, "center": {"lat": -25.5218403, "lon": 152.6906452}, "nodes": [1841658700, 1841658660, 1841658692, 1841658704, 1841658700], "tags": {"amenity": "hospital", "healthcare": "hospital", "name": "Maryborough Base Public Hospital", "source": "visual survey; bing"}}, {"type": "way", "id": 182486563, "center": {"lat": -25.5063636, "lon": 152.0509933}, "nodes": [1928483020, 1928483068, 1928483069, 1928483035, 1928483023, 1928483022, 1928483020], "tags": {"amenity": "hospital", "name": "Biggenden Hospital"}}, {"type": "way", "id": 191176073, "center": {"lat": -28.2243586, "lon": 152.0174016}, "nodes": [2017746920, 2017746831, 2017746842, 2017746932, 2017746844, 2017746920], "tags": {"addr:housenumber": "56", "addr:postcode": "4370", "addr:state": "QLD", "addr:street": "Locke Street", "addr:suburb": "Warwick", "amenity": "hospital", "emergency": "yes", "healthcare": "hospital", "name": "Warwick Hospital", "operator": "Queensland Health", "operator:type": "government", "operator:wikidata": "Q17006271", "phone": "+61 7 4660 3900", "website": "https://www.health.qld.gov.au/services/darlingdowns/ddowns-warwick-hs"}}, {"type": "way", "id": 191213661, "center": {"lat": -27.5250689, "lon": 151.9377413}, "nodes": [2018127061, 5217441483, 2018127039, 2018127043, 2018127058, 2018127041, 5110357104, 2018127037, 5110357105, 2018127055, 2018127046, 2018127051, 2018127038, 3020050075, 3020050061, 10544221861, 2295466092, 2018127061], "tags": {"addr:housenumber": "1", "addr:street": "Hogg Street", "amenity": "hospital", "emergency": "no", "healthcare": "hospital", "healthcare:speciality": "psychiatry", "name": "Baillie Henderson Hospital", "operator": "Queensland Health", "operator:type": "government", "operator:wikidata": "Q17006271", "phone": "+61 7 4616 6000", "website": "https://www.health.qld.gov.au/services/darlingdowns/ddowns-baillie-hosp", "wikidata": "Q18356183", "wikipedia": "en:Baillie Henderson Hospital"}}, {"type": "way", "id": 203195048, "center": {"lat": -29.0451064, "lon": 152.0139027}, "nodes": [2131773333, 6097616689, 6097616692, 2131773336, 2131773331, 2131773335, 2131773316, 2131773313, 2131773333], "tags": {"alt_name": "Tenterfiled District Health Service", "amenity": "hospital", "emergency": "yes", "healthcare": "hospital", "name": "Tenterfield Community Hospital"}}, {"type": "way", "id": 203844106, "center": {"lat": -27.5007841, "lon": 153.0991327}, "nodes": [4162495665, 4162495664, 4162495663, 2163784419, 6606592451, 2163784489, 1435219542, 2138532446, 2138532454, 2138532449, 2138532450, 4162495665], "tags": {"addr:housenumber": "1220", "addr:postcode": "4152", "addr:state": "QLD", "addr:street": "Creek Road", "addr:suburb": "Carina Heights", "amenity": "hospital", "emergency": "no", "healthcare": "hospital", "healthcare:speciality": "psychiatry", "name": "Belmont Private Hospital", "operator": "Healthe Care", "operator:type": "private", "phone": "+61 7 3398 0111", "website": "https://belmontprivate.com.au/"}}, {"type": "way", "id": 207673151, "center": {"lat": -29.8637745, "lon": 150.5790918}, "nodes": [2179309662, 2179309752, 9409189548, 9409189547, 2179309754, 2179309647, 2179309659, 2179309657, 2179309662], "tags": {"amenity": "hospital", "emergency": "yes", "healthcare": "hospital", "name": "Bingara Multi Purpose Service"}}, {"type": "way", "id": 233813192, "center": {"lat": -28.1770908, "lon": 153.545653}, "nodes": [2421417894, 9424337911, 2421417892, 9424337910, 2421417891, 9424337912, 2421417893, 9424337913, 9424337914, 2421417894], "tags": {"addr:city": "Tweed Heads", "addr:postcode": "2485", "addr:street": "Powell Street", "alt_name": "The Tweed Hospital", "amenity": "hospital", "emergency": "yes", "healthcare": "hospital", "name": "Tweed Hospital", "operator": "NSW Health", "operator:wikidata": "Q6867095", "phone": "+61 7 5536 1133", "website": "https://nnswlhd.health.nsw.gov.au/about/hospitals/the-tweed-hospital/"}}, {"type": "way", "id": 238820756, "center": {"lat": -24.9431076, "lon": 150.0753095}, "nodes": [2466190503, 2466190502, 2466190506, 2466192832, 2466192833, 2540948509, 2540948512, 2540948514, 2540948516, 2466192834, 2466192835, 2466190503], "tags": {"amenity": "hospital", "building": "yes", "healthcare": "hospital", "name": "Theodore Hospital"}}, {"type": "way", "id": 257200524, "center": {"lat": -27.5664778, "lon": 151.9739098}, "nodes": [5982334501, 5982334500, 5982334499, 5982334498, 5982334497, 5982334475, 5982334496, 5982334501], "tags": {"addr:housenumber": "18", "addr:postcode": "4350", "addr:state": "QLD", "addr:street": "Scott Street", "addr:suburb": "East Toowoomba", "amenity": "hospital", "emergency": "no", "healthcare": "hospital", "name": "Toowoomba Surgicentre", "operator": "Cura Group", "operator:type": "private", "phone": "+61 7 4659 3100", "website": "https://www.curagroup.com.au/toowoomba-surgicentre"}}, {"type": "way", "id": 257201406, "center": {"lat": -27.5663183, "lon": 151.9735237}, "nodes": [5982334497, 5982334491, 5982334505, 5982334508, 5982334496, 5982334475, 5982334497], "tags": {"addr:housenumber": "20", "addr:street": "Scott Street", "amenity": "hospital", "healthcare": "hospital"}}, {"type": "way", "id": 282932225, "center": {"lat": -27.2277121, "lon": 153.1040298}, "nodes": [2868658968, 2868658931, 2868658919, 2868658903, 2868658753, 2868658765, 11300107307, 2868658773, 2868658777, 9580321246, 4406731369, 2868658985, 2868658974, 2868658971, 2868658968], "tags": {"addr:postcode": "4020", "addr:state": "QLD", "addr:street": "Anzac Avenue", "addr:suburb": "Redcliffe", "amenity": "hospital", "emergency": "yes", "healthcare": "hospital", "name": "Redcliffe Hospital", "operator": "Queensland Health", "operator:type": "government", "operator:wikidata": "Q17006271", "operator:wikipedia": "en:Queensland Health", "phone": "+61 7 3883 7777", "website": "https://metronorth.health.qld.gov.au/redcliffe/", "wikidata": "Q50036976"}}, {"type": "way", "id": 296429114, "center": {"lat": -27.0815029, "lon": 152.9640229}, "nodes": [3002277876, 7740435603, 7740435600, 7740435601, 7740435599, 7740435602, 7740435604, 7740435605, 7740435606, 3002277877, 6380018713, 6380018712, 3002277878, 6380018710, 6380018709, 6380018708, 6380018707, 8789238331, 8789238330, 835052730, 3002277879, 8789238329, 7617159844, 7617159841, 7617159840, 7617159839, 835052729, 3002277876], "tags": {"addr:postcode": "4510", "addr:state": "QLD", "addr:street": "McKean Street", "addr:suburb": "Caboolture", "amenity": "hospital", "emergency": "yes", "healthcare": "hospital", "name": "Caboolture Hospital", "operator": "Queensland Health", "operator:type": "government", "operator:wikidata": "Q17006271", "operator:wikipedia": "en:Queensland Health", "phone": "+61 7 5433 8888", "website": "https://metronorth.health.qld.gov.au/caboolture/", "wheelchair": "yes", "wikidata": "Q85142306"}}, {"type": "way", "id": 302254309, "center": {"lat": -24.3960674, "lon": 150.5176742}, "nodes": [3065064228, 3065064232, 3065064231, 3065064229, 3065064230, 3065012793, 3065012789, 3065012790, 3065012791, 3065064228], "tags": {"amenity": "hospital", "name": "Biloela Hospital"}}, {"type": "way", "id": 302375095, "center": {"lat": -27.5545839, "lon": 152.9636686}, "nodes": [3066339796, 7866779886, 3092157753, 7866779885, 3066339805, 3066339806, 3066339807, 3066339796], "tags": {"addr:housenumber": "169", "addr:postcode": "4075", "addr:state": "Qld", "addr:street": "Seventeen Mile Rocks Road", "addr:suburb": "Oxley", "amenity": "hospital", "emergency": "no", "healthcare": "hospital", "name": "Canossa Private Hospital", "phone": "+61 7 3717 5555", "website": "https://www.canossahospital.org.au/"}}, {"type": "way", "id": 304746676, "center": {"lat": -27.2391198, "lon": 153.0218759}, "nodes": [3093432590, 3093432591, 3093432599, 3093432600, 3093432590], "tags": {"addr:housename": "North Lakes Day Hospital", "addr:housenumber": "7", "addr:postcode": "4509", "addr:street": "Endeavour Boulevard", "addr:suburb": "North Lakes", "amenity": "hospital", "building": "hospital", "emergency": "no", "healthcare": "hospital", "name": "North Lakes Day Hospital", "phone": "+61 7 3833 6701", "website": "https://www.montserrat.com.au/hospitals/north-lakes-day-hospital/"}}, {"type": "way", "id": 306825486, "center": {"lat": -23.1434545, "lon": 150.7337802}, "nodes": [3118304969, 3118304970, 3118304971, 3118304972, 3118304980, 3118304975, 3118304976, 3118304979, 3118304974, 3118304973, 3118304977, 3118304969], "tags": {"addr:housenumber": "8", "addr:postcode": "4703", "addr:state": "QLD", "addr:street": "Hoskyn Drive", "addr:suburb": "Yeppoon", "amenity": "hospital", "emergency": "yes", "fax": "+61 7 4939 3517", "healthcare": "hospital", "name": "Capricorn Coast Hospital and Health Service", "operator": "Central Queensland Hospital and Health Service", "operator:type": "public", "phone": "+61 7 4913 3000", "website": "https://www.cq.health.qld.gov.au/hospitals-and-health-centres/capricorn-coast-hospital-and-health-service", "wikidata": "Q5036256", "wikipedia": "en:Capricorn Coast Hospital"}}, {"type": "way", "id": 312572527, "center": {"lat": -27.6009706, "lon": 152.9109787}, "nodes": [1869885785, 3191124541, 3191124542, 3191124543, 3191124544, 3191124539, 3191124538, 4073123274, 3184429082, 3184429083, 355806084, 3191124578, 3184429084, 3184429085, 3184429086, 3184429089, 3184429087, 3184429088, 5222560272, 5222560273, 1869885873, 5237388312, 5237388311, 1869885867, 1869885811, 1869885785], "tags": {"addr:postcode": "4076", "addr:state": "QLD", "addr:street": "Ellerton Drive", "addr:suburb": "Wacol", "amenity": "hospital", "emergency": "no", "healthcare": "hospital", "healthcare:speciality": "psychiatry", "name": "The Park Centre for Mental Health", "operator": "Qld Health", "operator:type": "government", "phone": "+61 7 3271 8222", "website": "https://www.westmoreton.health.qld.gov.au/location/park-mental-health", "wikidata": "Q7756132"}}, {"type": "way", "id": 319870754, "center": {"lat": -26.7408273, "lon": 150.6349955}, "nodes": [3263432572, 5245661539, 3263432575, 3263432573, 3263432576, 5245661573, 3263432571, 3263432572], "tags": {"amenity": "hospital", "name": "Chinchilla Hospital"}}, {"type": "way", "id": 329631219, "center": {"lat": -26.6209955, "lon": 152.9511888}, "nodes": [3365477979, 3365477980, 3365477981, 3365477982, 3365477983, 3365477984, 3365477985, 3365477986, 3365477987, 3365477988, 3365477989, 3365477990, 3365477991, 3365477992, 3365478293, 3365478294, 5315832781, 3365478295, 3365478296, 3365478297, 3365478298, 3365478299, 3365478300, 3365477979], "tags": {"addr:postcode": "4560", "addr:state": "QLD", "addr:street": "Hospital Road", "addr:suburb": "Nambour", "amenity": "hospital", "emergency": "yes", "healthcare": "hospital", "name": "Nambour General Hospital", "operator": "Sunshine Coast Hospital and Health Service", "operator:type": "public", "phone": "+61 7 5470 6600", "toilets:wheelchair": "yes", "website": "https://www.health.qld.gov.au/sunshinecoast/services-and-facilities/facilities/nambour-general-hospital", "wheelchair": "yes", "wikidata": "Q30280885"}}, {"type": "way", "id": 332532205, "center": {"lat": -28.8087526, "lon": 153.2916229}, "nodes": [3396788659, 3396788660, 3396788661, 3396788662, 3396788663, 3396788664, 3396788665, 3396788666, 3396788667, 3396788659], "tags": {"addr:housenumber": "60", "addr:postcode": "2480", "addr:state": "NSW", "addr:street": "Uralba Street", "addr:suburb": "Lismore", "amenity": "hospital", "emergency": "yes", "healthcare": "hospital", "name": "Lismore Base Hospital", "operator:type": "government", "phone": "+61 2 6624 0200", "website": "https://nnswlhd.health.nsw.gov.au/about/hospitals/lismore-base-hospital/", "wheelchair": "yes"}}, {"type": "way", "id": 350761126, "center": {"lat": -23.3981148, "lon": 150.4979403}, "nodes": [3565093197, 3565093198, 3565093196, 3565093195, 3565093194, 3565093193, 3565093197], "tags": {"addr:postcode": "4700", "addr:state": "QLD", "addr:street": "Ward Street", "addr:suburb": "Rockhampton", "amenity": "hospital", "emergency": "yes", "fee": "yes", "healthcare": "hospital", "name": "Mater Private Hospital Rockhampton", "operator": "Mater", "operator:type": "private", "phone": "+61 7 4931 3313", "source": "Bing", "website": "https://www.mater.org.au/health/hospitals/mater-private-hospital-rockhampton"}}, {"type": "way", "id": 354273903, "center": {"lat": -26.6839512, "lon": 153.0929747}, "nodes": [3600195375, 3600195376, 3600195377, 3600195378, 3600195379, 3600195380, 3600195381, 3600195382, 3600195383, 7521428099, 3600195384, 3600195385, 4097048417, 4097048418, 4097048419, 7521428098, 3600195388, 7521428097, 3600195389, 3600195390, 7521428096, 3600195375], "tags": {"addr:housenumber": "12", "addr:postcode": "4556", "addr:state": "Qld", "addr:street": "Elsa Wilson Drive", "addr:suburb": "Buderim", "amenity": "hospital", "emergency": "yes", "healthcare": "hospital", "name": "Buderim Private Hospital", "operator": "UnitingCare Health", "operator:type": "religious", "phone": "+61 7 5430 3303", "website": "https://buderimprivatehospital.com.au/"}}, {"type": "way", "id": 354318930, "center": {"lat": -27.4734911, "lon": 153.0349198}, "nodes": [3600515597, 3600515598, 3600515599, 380462755, 3600515596, 380462754, 3600515595, 3600515597], "tags": {"addr:housenumber": "441", "addr:postcode": "4169", "addr:state": "QLD", "addr:street": "Main Street", "addr:suburb": "Kangaroo Point", "amenity": "hospital", "emergency": "no", "healthcare": "hospital", "name": "Saint Vincent's Private Hospital Brisbane", "operator": "SVH", "operator:type": "religious", "phone": "+61 7 3240 1111", "website": "https://www.svphb.org.au/"}}, {"type": "way", "id": 355374798, "center": {"lat": -28.0710398, "lon": 153.3756555}, "nodes": [3609962088, 6311952504, 3609970294, 3609970302, 3609962085, 3609962092, 3609970299, 3609970303, 9285191727, 3609970295, 9285191728, 3609970296, 3609970304, 1394701776, 9285191726, 9285191725, 9285191724, 3609970293, 3609962091, 3609970301, 3609970298, 3609970297, 3609970300, 3609962090, 3609962087, 3609962086, 3609962089, 3609962088], "tags": {"addr:city": "Robina", "addr:housenumber": "2", "addr:postcode": "4226", "addr:street": "Bayberry Lane", "amenity": "hospital", "emergency": "yes", "name": "Robina Hospital", "operator": "Queensland Health", "phone": "+61 7 5668 6000", "website": "https://www.health.qld.gov.au/goldcoasthealth/html/facilities/gch_robina.asp", "wikidata": "Q7352917", "wikipedia": "en:Robina Hospital"}}, {"type": "way", "id": 359680923, "center": {"lat": -24.8884014, "lon": 152.3586634}, "nodes": [3643568393, 3643568394, 3643568395, 3643568396, 3643568393], "tags": {"amenity": "hospital", "name": "IWC"}}, {"type": "way", "id": 364129641, "center": {"lat": -29.674666, "lon": 152.9411028}, "nodes": [3682083143, 3682083142, 3682083140, 3682083139, 3682083138, 3682083137, 3682064119, 3682064118, 3682064120, 9424440298, 9424440297, 9424440296, 3682083141, 9424440299, 9424440300, 9424440301, 3682083143], "tags": {"addr:city": "Grafton", "addr:housenumber": "174", "addr:postcode": "2460", "addr:street": "Arthur Street", "alt_name": "Grafton Community Health Centre", "amenity": "hospital", "emergency": "yes", "healthcare": "hospital", "name": "Grafton Base Hospital", "operator": "NSW Health", "phone": "+61 2 66402222"}}, {"type": "way", "id": 365888762, "center": {"lat": -25.2986979, "lon": 152.8210921}, "nodes": [3698899621, 3698899640, 3708568380, 3698899689, 3698899678, 3698899621], "tags": {"amenity": "hospital", "name": "Hervey Bay Hospital"}}, {"type": "way", "id": 370853869, "center": {"lat": -28.1542492, "lon": 153.4882597}, "nodes": [3745314979, 5842737673, 3745314980, 5842737652, 3745314981, 3745314982, 3745314983, 3745314984, 3745314985, 3745314979], "tags": {"addr:housenumber": "42", "addr:postcode": "4224", "addr:state": "QLD", "addr:street": "Inland Drive", "addr:suburb": "Tugun", "amenity": "hospital", "emergency": "yes", "healthcare": "hospital", "name": "John Flynn Private Hospital", "operator": "Ramsay Health", "operator:type": "private", "phone": "+61 7 5598 9000", "website": "https://www.johnflynnprivate.com.au/", "wikidata": "Q24185303"}}, {"type": "way", "id": 376529263, "center": {"lat": -25.2396338, "lon": 152.2731513}, "nodes": [3800412563, 3800412564, 3799409306, 3799409307, 3799409308, 3799409309, 3800782500, 3655154044, 3800412562, 3800412563], "tags": {"addr:housenumber": "44", "addr:street": "Broadhurst Street", "amenity": "hospital", "emergency": "yes", "name": "Childers Hospital"}}, {"type": "way", "id": 376633768, "center": {"lat": -24.8710012, "lon": 152.3424726}, "nodes": [3634388970, 3800376089, 3800376090, 3800376155, 3634388991, 3634388992, 3800376092, 3800376093, 3634388970], "tags": {"addr:housenumber": "33", "addr:postcode": "4670", "addr:street": "Crofton Street", "amenity": "hospital", "emergency": "yes", "healthcare": "hospital", "name": "Friendly Society Private Hospital", "phone": "+61 7 4331 1000", "website": "https://thefriendlies.org.au/"}}, {"type": "way", "id": 379322714, "center": {"lat": -26.3236021, "lon": 151.8787039}, "nodes": [3826158904, 3826158918, 3826158927, 3826158913, 3826158921, 3826158908, 3826158904], "tags": {"amenity": "hospital", "name": "Wondai Hospital"}}, {"type": "way", "id": 399149634, "center": {"lat": -28.6609058, "lon": 151.9285562}, "nodes": [4018938905, 4018938908, 4018938898, 4018938899, 4018938895, 4018938893, 4018938588, 4018938587, 4018938585, 11254269918, 4018938583, 4018938905], "tags": {"addr:housenumber": "8", "addr:postcode": "4380", "addr:state": "QLD", "addr:street": "McGregor Terrace", "addr:suburb": "Stanthorpe", "amenity": "hospital", "emergency": "yes", "fax": "+61 7 4683 3500", "healthcare": "hospital", "name": "Stanthorpe Hospital", "opening_hours:visitors": "Mo-Su 10:00-20:00", "operator": "Queensland Health", "operator:type": "government", "operator:wikidata": "Q17006271", "phone": "+61 7 4683 3400", "website": "https://www.darlingdowns.health.qld.gov.au/hospitals-and-health-centres/stanthorpe-hospital"}}, {"type": "way", "id": 415194318, "center": {"lat": -27.9303565, "lon": 151.9115693}, "nodes": [4594905327, 4594905328, 4594905322, 4594905334, 4162505234, 4594905333, 4594967063, 4594967065, 4594967067, 4594905343, 4595128781, 4594905336, 4595129913, 4595129899, 4595129912, 4594905337, 4595129908, 4595128779, 4595129907, 4595129904, 4595129903, 4595128774, 4595129926, 4594903848, 4594903849, 4595129931, 4594905335, 4594905319, 4594905321, 4595129935, 4594905325, 4594905324, 4595129937, 4594905327], "tags": {"addr:city": "Clifton", "addr:country": "AU", "addr:housenumber": "20", "addr:postcode": "4361", "addr:state": "QLD", "addr:street": "Norman Street", "amenity": "hospital", "emergency": "no", "healthcare": "hospital", "name": "Clifton Co-Op Hospital", "operator": "Clifton Co-Op", "operator:type": "private_non_profit", "phone": "+61 7 4697 3377", "website": "https://www.cliftonhospital.org/"}}, {"type": "way", "id": 415385427, "center": {"lat": -26.4199204, "lon": 152.9087497}, "nodes": [4164240378, 4164240376, 4164240381, 4164240380, 4164240377, 9494666684, 4164240379, 4164240382, 4164240378], "tags": {"addr:housenumber": "50", "addr:postcode": "4563", "addr:state": "QLD", "addr:street": "Maple Street", "addr:suburb": "Cooroy", "amenity": "hospital", "email": "eden.private@healthecare.com.au", "fax": "+61 7 5447 7592", "healthcare": "hospital", "name": "Eden Private Hospital", "operator": "Aurora Healthcare", "operator:type": "private", "operator:website": "https://aurorahealth.com.au", "phone": "+61 7 5472 6472", "source": "https://edenprivate.com.au", "website": "https://edenprivate.com.au"}}, {"type": "way", "id": 417248060, "center": {"lat": -28.0075242, "lon": 153.3935671}, "nodes": [1444326240, 7805211636, 1444326207, 1444326136, 1444326244, 4178299797, 4178299796, 7745697340, 4178294786, 4178299790, 4178299789, 4178299792, 4178294787, 4178294788, 4178299794, 1444326138, 1444326235, 7803033407, 7803033408, 4178294785, 7745711178, 7805211635, 1444326240], "tags": {"amenity": "hospital", "emergency": "yes", "healthcare": "hospital", "name": "Pindara Private Hospital", "phone": "+61 7 5588 9888", "source": "Bing", "toilets:wheelchair": "yes", "website": "https://www.pindaraprivate.com.au/", "wheelchair": "yes", "wikidata": "Q24185311"}}, {"type": "way", "id": 421988719, "center": {"lat": -28.7342731, "lon": 152.6228581}, "nodes": [4217136298, 7882346272, 7882346273, 4217136299, 4217136300, 4217136301, 4217136302, 4217136303, 1222788517, 7882346258, 1222788514, 4217136298], "tags": {"addr:city": "Bonalbo", "addr:postcode": "2469", "addr:street": "Hospital Road", "alt_name": "Bonalbo Hospital", "amenity": "hospital", "emergency": "yes", "healthcare": "hospital", "name": "Bonalbo Multi Purpose Service", "operator": "NSW Health", "operator:type": "government", "phone": "+61 2 6665 4100", "website": "https://nnswlhd.health.nsw.gov.au/about/hospitals/bonalbo-hospital/"}}, {"type": "way", "id": 422791257, "center": {"lat": -28.5479514, "lon": 150.3020667}, "nodes": [6257063603, 4225188205, 4225188204, 4225188202, 6258996629, 6258996621, 4225188199, 4225188203, 6257063610, 6257063602, 6257063609, 6257063608, 6257063607, 6257063606, 6257063605, 6257063604, 4225188207, 4225188210, 4225188212, 4225188206, 4225188201, 4225188200, 4225188211, 4225188208, 4225188213, 4225188209, 6257063603], "tags": {"addr:postcode": "4390", "addr:state": "QLD", "addr:street": "Bowen Street", "addr:suburb": "Goondiwindi", "amenity": "hospital", "emergency": "yes", "healthcare": "hospital", "name": "Goondiwindi Hospital", "operator": "Qld Health", "operator:type": "government", "phone": "+61 7 4578 2400", "source": "LPI POI June 2016, LPI Imagery", "website": "https://www.health.qld.gov.au/services/darlingdowns/ddowns-goondiwind-hs"}}, {"type": "way", "id": 422791269, "center": {"lat": -28.6611051, "lon": 151.928578}, "nodes": [4225188247, 4225188248, 4225188254, 4225188258, 4225188257, 4225188255, 4225188251, 4225188256, 4225188259, 4225188260, 4225188252, 4225188250, 4225188253, 4225188246, 4225188245, 4225188243, 4225188244, 4225188242, 4225188239, 4225188236, 4225188241, 4225188237, 4225188240, 4225188235, 4225188238, 4225188249, 4225188247], "tags": {"amenity": "hospital", "building": "hospital", "name": "Stanthorpe Hospital", "source": "LPI POI June 2016, LPI Imagery"}}, {"type": "way", "id": 430675026, "center": {"lat": -28.1334462, "lon": 153.4869358}, "nodes": [4299408342, 4299408343, 4299408344, 4299408345, 4299408346, 4299408347, 4299408348, 4299408349, 4299408350, 4299408351, 4299408352, 4299408342], "tags": {"addr:city": "Currumbin", "addr:housenumber": "37", "addr:postcode": "4223", "addr:street": "Bilinga Street", "amenity": "hospital", "emergency": "no", "healthcare": "hospital", "healthcare:speciality": "psychiatry", "name": "Currumbin Private Clinic", "operator": "Healthe Care", "operator:type": "private", "phone": "+61 7 5534 4944", "website": "https://currumbinclinic.com.au/"}}, {"type": "way", "id": 438361661, "center": {"lat": -27.9850652, "lon": 153.0024375}, "nodes": [4360986306, 4360986309, 4360986310, 4360986314, 4360986306], "tags": {"addr:city": "Beaudesert", "addr:housenumber": "64", "addr:postcode": "4285", "addr:street": "Tina Street", "amenity": "hospital", "emergency": "yes", "name": "Beaudesert Hospital", "operator": "Qld Health", "phone": "+61 7 5541 9111", "website": "https://metrosouth.health.qld.gov.au/beaudesert-hospital"}}, {"type": "way", "id": 455387843, "center": {"lat": -28.3235647, "lon": 153.4003781}, "nodes": [4517964664, 4517964668, 4517964656, 4517964662, 9734396200, 4517964665, 4517964659, 4517964658, 4517964661, 4517964654, 4517964666, 4517964669, 4517964655, 4517964660, 4517964657, 7882450889, 4517964664], "tags": {"addr:city": "Murwillumbah", "addr:housenumber": "8-10", "addr:postcode": "2484", "addr:street": "Ewing Street", "alt_name": "Murwillumbay District Hospital", "amenity": "hospital", "emergency": "yes", "healthcare": "hospital", "name": "Murwillumbah Hospital", "operator": "NSW State Government Health Department", "operator:type": "government", "phone": "+61 2 6672 0000", "website": "https://nnswlhd.health.nsw.gov.au/about/hospitals/murwillumbah-district-hospital/"}}, {"type": "way", "id": 539205601, "center": {"lat": -24.9859365, "lon": 151.953401}, "nodes": [5217854384, 5217854383, 5217854382, 5217854381, 5217854380, 5217854379, 5217854384], "tags": {"amenity": "hospital", "name": "Gin Gin Hospital", "wikidata": "Q85139120"}}, {"type": "way", "id": 539434520, "center": {"lat": -25.1817444, "lon": 151.6460935}, "nodes": [5219778794, 5219778793, 5219778791, 5219778792, 5219778790, 5219778794], "tags": {"amenity": "hospital", "name": "Mount Perry Health Centre"}}, {"type": "way", "id": 542174617, "center": {"lat": -27.6122368, "lon": 152.9171832}, "nodes": [5241980507, 5241980508, 5241980509, 5241980510, 5241980511, 5241980512, 5241980513, 5241980514, 5241980515, 5241980516, 5241980517, 5241980518, 5241980507], "tags": {"addr:housenumber": "6", "addr:postcode": "4300", "addr:state": "QLD", "addr:street": "Baker Street", "addr:suburb": "Gailes", "addr:unit": "A", "amenity": "hospital", "healthcare": "hospital", "name": "Gailes Community Care Unit", "operator": "West Moreton Health", "operator:type": "government", "phone": "+61 73 183 3600"}}, {"type": "way", "id": 543864386, "center": {"lat": -28.8631826, "lon": 153.564441}, "nodes": [5257414714, 5257423727, 5257414684, 5257423721, 9424409627, 5257423724, 9424409628, 5257423731, 5257414688, 5257414714], "tags": {"addr:postcode": "2478", "addr:state": "NSW", "addr:street": "Cherry Street", "addr:suburb": "Ballina", "alt_name": "Ballina Community Health Centre", "amenity": "hospital", "emergency": "yes", "healthcare": "hospital", "name": "Ballina District Hospital", "operator": "NSW Health", "operator:type": "government", "phone": "+61 2 6620 6400", "source": "NSW LPI Base Map;NSW LPI Imagery", "website": "https://nnswlhd.health.nsw.gov.au/about/hospitals/ballina-district-hospital/"}}, {"type": "way", "id": 546916140, "center": {"lat": -26.6181772, "lon": 152.9562451}, "nodes": [5284800376, 5284800377, 5284800378, 5284800379, 5284800380, 5284800381, 7393964113, 5284800384, 9031162551, 5284800385, 5284800386, 5284800387, 5284800388, 5284800389, 5284800390, 5284800376], "tags": {"addr:housenumber": "62", "addr:postcode": "4560", "addr:state": "Qld", "addr:street": "Netherton Street", "addr:suburb": "Nambour", "amenity": "hospital", "emergency": "no", "healthcare": "hospital", "name": "Nambour Selangor Private Hospital", "operator": "Ramsay Health Care", "operator:type": "private", "phone": "+61 7 5459 7444", "website": "https://www.nambourselangor.com.au/"}}, {"type": "way", "id": 615799424, "center": {"lat": -27.4382875, "lon": 153.0322216}, "nodes": [5822730039, 5822730040, 5822730041, 5822730042, 5822730043, 5822730044, 5822730045, 5822730046, 5822730039], "tags": {"addr:housenumber": "189", "addr:postcode": "4030", "addr:state": "QLD", "addr:street": "Lutwyche Road", "addr:suburb": "Windsor", "amenity": "hospital", "emergency": "no", "healthcare": "hospital", "healthcare:speciality": "geriatrics", "name": "Rosemount Hospital", "operator": "Queensland Health", "operator:wikidata": "Q17006271", "operator:wikipedia": "en:Queensland Health"}}, {"type": "way", "id": 664761386, "center": {"lat": -28.0630329, "lon": 153.4368197}, "nodes": [6222311953, 6222311954, 6275940980, 6222311955, 6222311973, 6222311956, 6222311957, 6222311959, 6222311958, 6277594485, 6222311953], "tags": {"addr:housenumber": "24", "addr:postcode": "4220", "addr:state": "QLD", "addr:street": "Hillcrest Parade", "addr:suburb": "Miami", "amenity": "hospital", "building": "hospital", "building:levels": "2", "emergency": "no", "healthcare": "hospital", "name": "Miami Day Hospital", "phone:AU": "1800 111 634", "website": "https://www.miamidayhospital.com.au/"}}, {"type": "way", "id": 766374414, "center": {"lat": -24.8664833, "lon": 151.1125257}, "nodes": [7157594729, 7157594730, 7157594731, 7157594732, 7157594733, 7157594734, 7157594735, 7157594736, 7157594737, 7157594738, 7157594739, 7157594740, 7157594741, 7157594749, 7157594742, 7157594743, 7157594744, 7157594745, 7157594746, 7157594747, 7157594748, 7157594729], "tags": {"amenity": "hospital", "emergency": "yes", "healthcare": "hospital", "name": "Monto", "operator": "Queensland Health", "phone": "+61-7-4166-9300", "website": "https://www.health.qld.gov.au/wwwprofiles/sunshine_monto_hs.asp", "wikidata": "Q85139320"}}, {"type": "way", "id": 790227760, "center": {"lat": -29.7335981, "lon": 151.731942}, "nodes": [7387608528, 7387608529, 7387608530, 9411546033, 9411546030, 9411546031, 9411546032, 7387608531, 7387608532, 7387608533, 7387608528], "tags": {"alt_name": "Glen Innes District Hospital", "amenity": "hospital", "emergency": "yes", "healthcare": "hospital", "name": "Glen Innes Hospital"}}, {"type": "way", "id": 844677231, "center": {"lat": -28.6376172, "lon": 153.556357}, "nodes": [7880241605, 7880241606, 7880241617, 7880241616, 7880241615, 7880241607, 7880241608, 7880241609, 7880241610, 7880241611, 7880241612, 7880241613, 7880241614, 11138698060, 7880241605], "tags": {"addr:housenumber": "84", "addr:postcode": "2481", "addr:state": "NSW", "addr:street": "Ewingsdale Road", "addr:suburb": "Ewingsdale", "alt_name": "Byron Community Health Centre", "amenity": "hospital", "emergency": "yes", "healthcare": "hospital", "name": "Byron Central Hospital", "operator": "NSW Health", "operator:type": "government", "phone": "+61 2 6639 9400", "website": "https://nnswlhd.health.nsw.gov.au/about/hospitals/byron-central-hospital/"}}, {"type": "way", "id": 844885299, "center": {"lat": -28.8564497, "lon": 151.1797006}, "nodes": [7882331819, 7882331820, 7882331821, 7882331822, 7882331823, 7882331824, 7882331825, 7882331826, 7882331819], "tags": {"addr:postcode": "4385", "addr:state": "QLD", "addr:street": "Mingoola Road", "addr:suburb": "Texas", "amenity": "hospital", "emergency": "yes", "healthcare": "hospital", "name": "Texas Multipurpose Health Service", "operator": "Queensland Health", "operator:type": "government", "operator:wikidata": "Q17006271", "phone": "+61 7 4653 3200", "website": "https://www.health.qld.gov.au/services/darlingdowns/ddowns-texas-hs"}}, {"type": "way", "id": 844886469, "center": {"lat": -28.4180671, "lon": 151.0615973}, "nodes": [1960392228, 7882334542, 7882334543, 7882334544, 7882334545, 7882334546, 7882334547, 1960392228], "tags": {"addr:postcode": "4387", "addr:state": "QLD", "addr:street": "Cunningham Highway", "addr:suburb": "Inglewood", "amenity": "hospital", "emergency": "yes", "healthcare": "hospital", "name": "Inglewood Multipurpose Health Service", "operator": "Qld Health", "operator:type": "government", "phone": "+61 7 4652 0888", "website": "https://www.health.qld.gov.au/services/darlingdowns/ddowns-inglewood-hs"}}, {"type": "way", "id": 844887392, "center": {"lat": -27.8795814, "lon": 151.2627366}, "nodes": [1974603766, 7882347096, 1974603718, 1974603769, 1974603768, 1974603766], "tags": {"addr:housenumber": "50", "addr:postcode": "4357", "addr:state": "QLD", "addr:street": "Commens Street", "addr:suburb": "Millmerran", "amenity": "hospital", "emergency": "yes", "healthcare": "hospital", "name": "Millmerran Multipurpose Health Service", "operator": "Qld Health", "operator:type": "government", "phone": "+61 7 4695 3111", "website": "https://www.health.qld.gov.au/services/darlingdowns/ddowns-millmerran-hs"}}, {"type": "way", "id": 844889435, "center": {"lat": -28.4715108, "lon": 152.5428056}, "nodes": [7208184603, 7208184602, 7208184601, 7208184600, 7208184599, 7882337257, 7208201399, 7208201400, 7882337258, 7882337259, 7882337260, 7882337261, 7208184603], "tags": {"addr:housenumber": "45", "addr:postcode": "2475", "addr:state": "NSW", "addr:street": "Beaury Street", "addr:suburb": "Urbenville", "alt_name": "Urbenville and District Multi Purpose Service", "amenity": "hospital", "emergency": "yes", "healthcare": "hospital", "name": "Urbenville Multi-Purpose Service", "operator": "NSW Health", "operator:type": "government", "phone": "+61 2 6634 1600", "website": "https://nnswlhd.health.nsw.gov.au/about/hospitals/urbenville-rural-hospital/"}}, {"type": "way", "id": 845940088, "center": {"lat": -27.3911089, "lon": 153.0236398}, "nodes": [7892246006, 7892246007, 7892246001, 7892246008, 7892246009, 7892246010, 11237559249, 11237559248, 7892246003, 81495920, 7892246004, 7892246005, 7892246006], "tags": {"addr:housenumber": "627", "addr:postcode": "4032", "addr:state": "QLD", "addr:street": "Rode Road", "addr:suburb": "Chermside", "amenity": "hospital", "emergency": "yes", "healthcare": "hospital", "name": "St Vincent's Private Hospital Northside", "operator": "SVPH", "operator:type": "religious", "phone": "+61 7 3326 3000", "website": "https://www.svphn.org.au/"}}, {"type": "way", "id": 845941690, "center": {"lat": -27.3085474, "lon": 152.9948244}, "nodes": [7892252860, 7892252861, 7892252862, 7892252863, 7892252864, 7892252865, 273210528, 7892252860], "tags": {"addr:housenumber": "34", "addr:postcode": "4500", "addr:state": "QLD", "addr:street": "Dixon Street", "addr:suburb": "Strathpine", "amenity": "hospital", "emergency": "no", "healthcare": "hospital", "healthcare:speciality": "psychiatry", "name": "Pine Rivers Private Hospital", "operator": "Healthscope", "operator:type": "private", "phone": "+61 7 3881 7222", "website": "https://pineriversprivatehospital.com.au/"}}, {"type": "way", "id": 851929154, "center": {"lat": -27.5402473, "lon": 153.2517541}, "nodes": [81366363, 10817835210, 10817835208, 10817835207, 81366362, 7946247195, 10817835209, 1489367333, 10817782094, 10817782093, 10817782095, 10817782096, 10817782097, 10817782092, 3415740590, 10817782090, 10817782091, 81366363], "tags": {"addr:housenumber": "21", "addr:postcode": "4163", "addr:state": "QLD", "addr:street": "Weippin Street", "addr:suburb": "Cleveland", "amenity": "hospital", "area": "yes", "emergency": "yes", "healthcare": "hospital", "name": "Redland Hospital", "website": "https://metrosouth.health.qld.gov.au/redland-hospital", "wikidata": "Q7306019", "wikipedia": "en:Redland Hospital"}}, {"type": "way", "id": 998580714, "center": {"lat": -25.382519, "lon": 151.1259587}, "nodes": [9219911911, 9219911912, 9219911913, 9219911914, 9219911915, 9219911916, 9219911917, 9219911918, 9219911911], "tags": {"amenity": "hospital", "emergency": "yes", "healthcare": "hospital", "name": "Eidsvold Multipurpose Health Service"}}, {"type": "way", "id": 998927695, "center": {"lat": -25.5875392, "lon": 151.2934847}, "nodes": [9222696573, 9222696574, 9222696575, 9222696576, 9222696577, 9222696573], "tags": {"amenity": "hospital", "healthcare": "hospital", "name": "Mundubbera Multipurpose Health Service  Mundubbera Multipurpose Health Service"}}, {"type": "way", "id": 999464380, "center": {"lat": -26.7808383, "lon": 151.1051316}, "nodes": [9226727035, 9226727036, 9226727037, 9226727038, 9226727039, 9226727040, 9226727035], "tags": {"amenity": "hospital", "emergency": "yes", "healthcare": "hospital", "name": "Jandowae Hospital", "phone": "+617 4668 4555"}}, {"type": "way", "id": 1005484257, "center": {"lat": -27.2734362, "lon": 150.4564219}, "nodes": [9276900669, 9276900670, 9276900671, 9276900672, 9276900669], "tags": {"amenity": "hospital", "healthcare": "hospital", "name": "Darling Downs Hospital And Health Service"}}, {"type": "way", "id": 1017020342, "center": {"lat": -28.0750023, "lon": 153.4129594}, "nodes": [9380622137, 9380622138, 9380622139, 9380622140, 9380622141, 9380622142, 9380622143, 9380622144, 9380622145, 9380622137], "tags": {"amenity": "hospital", "emergency": "no", "healthcare": "hospital", "name": "Varsity Lakes Day Hospital", "phone": "+61 7 5619 0600", "website": "website=https://www.goldcoast.health.qld.gov.au/hospitals-and-centres/varsity-lakes-day-hospital"}}, {"type": "way", "id": 1020178696, "center": {"lat": -29.7707708, "lon": 151.1306618}, "nodes": [3780380669, 9409189561, 9409189560, 9409189559, 3780380669], "tags": {"addr:postcode": "2360", "addr:street": "Swanbrook Road", "addr:town": "Inverell", "alt_name": "Inverell Health Service", "amenity": "hospital", "contact:phone": "+61267219500", "emergency": "yes", "healthcare": "hospital", "name": "Inverell Hospital"}}, {"type": "way", "id": 1020423440, "center": {"lat": -29.538324, "lon": 150.579135}, "nodes": [9411485785, 9411485784, 9411485783, 9411485782, 9411485785], "tags": {"amenity": "hospital", "emergency": "yes", "healthcare": "hospital", "name": "Warialda Multi Purpose Service"}}, {"type": "way", "id": 1020713365, "center": {"lat": -29.4504335, "lon": 151.598971}, "nodes": [1693972437, 9414242076, 9414242075, 9414242074, 9414242073, 9414242071, 9414242072, 9414242070, 1693972437], "tags": {"alt_name": "Vegetable Creel Multi Purpose Service Emmaville", "amenity": "hospital", "emergency": "yes", "healthcare": "hospital", "name": "Vegetable Creek Health Centre (Emmaville Hospital)"}}, {"type": "way", "id": 1020713366, "center": {"lat": -29.9507468, "lon": 151.2069127}, "nodes": [2577731592, 9414242085, 9414242084, 9414242083, 9414242082, 9414242081, 9414242080, 9414242079, 9414242078, 9414242077, 2577731592], "tags": {"amenity": "hospital", "emergency": "yes", "healthcare": "hospital", "name": "Tingha Multi Purpose Service"}}, {"type": "way", "id": 1022141323, "center": {"lat": -28.597568, "lon": 153.2230702}, "nodes": [9427066548, 9427066547, 9427066546, 9427066545, 9427066544, 9427066548], "tags": {"addr:city": "Nimbin", "addr:housenumber": "35", "addr:postcode": "2480", "addr:street": "Cullen Street", "alt_name": "Nimbin Multi Purpose Service", "amenity": "hospital", "emergency": "yes", "healthcare": "hospital", "name": "Nimbin Health Service", "phone": "+61 02 6689 1400", "website": "https://nnswlhd.health.nsw.gov.au/about/community-health/nimbin-community-health/"}}, {"type": "way", "id": 1036417519, "center": {"lat": -27.6330806, "lon": 152.3997659}, "nodes": [9548528708, 1753488843, 9548528709, 1753546808, 9548528708], "tags": {"addr:housenumber": "75", "addr:postcode": "4341", "addr:state": "QLD", "addr:street": "William Street", "addr:suburb": "Laidley", "amenity": "hospital", "emergency": "yes", "healthcare": "hospital", "name": "Laidley Hospital", "operator": "Queensland Health", "operator:type": "government", "operator:wikidata": "Q17006271", "operator:wikipedia": "en:Queensland Health", "phone": "+61 7 5466 8100", "website": "https://www.westmoreton.health.qld.gov.au/location/laidley-health"}}, {"type": "way", "id": 1058302133, "center": {"lat": -27.4582167, "lon": 153.0271513}, "nodes": [6550786330, 9724634746, 9724634747, 9724634748, 9724634749, 9724634750, 9724634751, 9724634752, 9724634754, 9724634753, 6550786330], "tags": {"addr:city": "Brisbane", "addr:housenumber": "169", "addr:postcode": "4000", "addr:state": "QLD", "addr:street": "Water Street", "addr:suburb": "Spring Hill", "amenity": "hospital", "healthcare": "hospital", "name": "Child and Youth Mental Health Service", "operator": "Queensland Health", "operator:type": "government", "operator:wikidata": "Q17006271", "source": "Brisbane City Council", "source:date": "2018-12-14"}}, {"type": "way", "id": 1080937753, "center": {"lat": -27.0796605, "lon": 152.9555701}, "nodes": [9907531476, 9907531477, 9907531478, 9907531479, 9907531480, 9907531481, 9907531476], "tags": {"addr:housenumber": "15", "addr:postcode": "4510", "addr:state": "QLD", "addr:street": "Rowe Street", "addr:suburb": "Caboolture", "amenity": "hospital", "emergency": "yes", "healthcare": "hospital", "name": "Caboolture Satellite Hospital", "opening_date": "2023", "opening_hours": "Mo-Su 08:00-22:00", "operator": "Queensland Health", "operator:wikidata": "Q17006271", "phone": "+61 7 5433 7555", "website": "https://www.health.qld.gov.au/system-governance/strategic-direction/improving-service/satellite-hospitals/proposed-locations/caboolture", "wheelchair": "yes"}}, {"type": "way", "id": 1081661576, "center": {"lat": -28.178789, "lon": 153.5402696}, "nodes": [9913683231, 9913683239, 9913683240, 9913683232, 9913683233, 9913683244, 9913683234, 9913683235, 9913683236, 9913683255, 9913683231], "tags": {"addr:housenumber": "38-44", "addr:street": "Boyd Street", "amenity": "hospital", "emergency": "no", "healthcare": "hospital", "name": "Tweed Day Surgery", "phone": "+61 7 5506 6066", "website": "https://tweeddaysurgery.com.au/"}}, {"type": "way", "id": 1085966952, "center": {"lat": -23.849813, "lon": 151.2485547}, "nodes": [9950610149, 9950610150, 9950610151, 9950610152, 9950610149], "tags": {"aeroway": "helipad", "amenity": "hospital", "lit": "no", "name": "Gladstone Hospital", "ref": "YXDT", "source": "aerial imagery", "surface": "concrete", "website": "https://www.ozrunways.com/helipads/view/helipad.jsp?code=YXDT"}}, {"type": "way", "id": 1088171920, "center": {"lat": -26.74695, "lon": 153.1132717}, "nodes": [9970042609, 9970042610, 9970042611, 9970042612, 9970042613, 9970042614, 9970042615, 9970042616, 9970051817, 9970051818, 9970051819, 9970051820, 9970042609], "tags": {"addr:housenumber": "6", "addr:postcode": "4575", "addr:state": "Qld", "addr:street": "Doherty Street", "addr:suburb": "Birtinya", "amenity": "hospital", "emergency": "yes", "healthcare": "hospital", "name": "Sunshine Coast University Hospital", "operator": "Queensland Government", "operator:type": "government"}}, {"type": "way", "id": 1088171921, "center": {"lat": -26.7440208, "lon": 153.1140737}, "nodes": [9970051821, 9970051822, 9970051823, 9970051824, 9970051825, 9970051826, 9970051827, 9970051828, 9970051829, 9970051830, 9970051831, 9970051832, 9970051833, 9970051834, 9970051835, 9970051836, 9970051837, 9970051838, 9970051839, 9970051840, 9970051841, 9970051821], "tags": {"addr:housenumber": "3", "addr:postcode": "4575", "addr:state": "Qld", "addr:street": "Doherty Street", "addr:suburb": "Birtinya", "amenity": "hospital", "emergency": "no", "healthcare": "hospital", "name": "Sunshine Coast University Private Hospital", "operator": "Ramsay Health Care", "operator:type": "private"}}, {"type": "way", "id": 1116240495, "center": {"lat": -26.5322862, "lon": 151.8388133}, "nodes": [10209353936, 4064514616, 4064514615, 10209353937, 10209353938, 1750586881, 1750586853, 10209353939, 10209353940, 10209353941, 10209353942, 10209353936], "tags": {"amenity": "hospital", "healthcare": "hospital"}}, {"type": "way", "id": 1126665431, "center": {"lat": -27.5665633, "lon": 151.9745218}, "nodes": [10302250136, 10302250134, 10302250133, 10302250135, 10302250136], "tags": {"amenity": "hospital", "healthcare": "hospital"}}, {"type": "way", "id": 1126665435, "center": {"lat": -27.5654807, "lon": 151.9739186}, "nodes": [10302250174, 10302250175, 2295919558, 2295919460, 2295919466, 10302250176, 10302250174], "tags": {"amenity": "hospital", "healthcare": "hospital"}}, {"type": "way", "id": 1199328940, "center": {"lat": -28.6270291, "lon": 153.0015665}, "nodes": [8520840670, 8520840624, 8520840625, 8520840626, 8520840627, 8520840628, 8520840629, 8520840630, 8520840631, 8520840632, 8520840633, 8520840634, 8520840635, 8520840636, 8520840637, 8520840638, 8520840639, 8520840640, 8520840641, 8520840642, 8520840643, 8520840644, 8520840645, 8520840646, 8520840647, 8520840648, 8520840649, 8520840650, 8520840651, 8520840652, 8520840653, 8520840654, 8520840655, 8520840656, 8520840657, 8520840658, 8520840659, 8520840660, 8520840661, 8520840662, 8520840663, 8520840664, 8520840665, 8520840666, 8520840667, 8520840668, 8520840669, 8520840670], "tags": {"amenity": "hospital", "building": "hospital", "healthcare": "hospital", "name": "Kyogle Memorial Hospital", "operator": "NSW Health"}}, {"type": "way", "id": 1204639365, "center": {"lat": -24.8704817, "lon": 152.3396463}, "nodes": [11158588903, 11164757974, 11158588902, 11164757972, 11164757969, 11165154944, 11164757970, 11164757971, 11165154945, 11165154927, 11165154940, 11158588903], "tags": {"addr:housenumber": "97", "addr:postcode": "4670", "addr:state": "QLD", "addr:street": "Woongarra Street", "addr:suburb": "Bundaberg West", "amenity": "hospital", "healthcare": "hospital", "name": "CCU - Community Care Unit"}}, {"type": "way", "id": 1214276092, "center": {"lat": -27.4949582, "lon": 153.0333327}, "nodes": [11250575364, 11250575365, 5850656912, 11250575366, 11250575367, 11250575368, 11250575369, 11250575370, 11250575364], "tags": {"alt_name": "PA Hospital", "amenity": "hospital", "healthcare": "hospital", "name": "Princess Alexandra Hospital", "operator": "Queensland Health", "operator:type": "government", "operator:wikidata": "Q17006271"}}, {"type": "relation", "id": 1382193, "center": {"lat": -27.6700483, "lon": 153.1414456}, "members": [{"type": "way", "ref": 200717428, "role": "outer"}, {"type": "way", "ref": 165572737, "role": "outer"}, {"type": "way", "ref": 165572726, "role": "outer"}], "tags": {"addr:postcode": "4131", "addr:state": "Qld", "addr:street": "Armstrong Road", "addr:suburb": "Meadowbrook", "amenity": "hospital", "emergency": "yes", "healthcare": "hospital", "name": "Logan Hospital", "operator": "Queensland Health", "operator:type": "government", "operator:wikidata": "Q17006271", "operator:wikipedia": "en:Queensland Health", "phone": "+61 7 3299 8899", "type": "multipolygon", "website": "https://metrosouth.health.qld.gov.au/logan-hospital", "wikidata": "Q6667071"}}, {"type": "relation", "id": 6091450, "center": {"lat": -23.8505929, "lon": 151.2489457}, "members": [{"type": "way", "ref": 406581364, "role": "outer"}, {"type": "way", "ref": 406581358, "role": "outer"}], "tags": {"amenity": "hospital", "emergency": "yes", "healthcare": "hospital", "name": "Gladstone Hospital", "operator": "Queensland Government", "operator:type": "government", "type": "multipolygon"}}, {"type": "relation", "id": 11047995, "center": {"lat": -27.5125913, "lon": 153.045867}, "members": [{"type": "way", "ref": 18103175, "role": "outer"}, {"type": "way", "ref": 798029125, "role": "outer"}, {"type": "way", "ref": 798029123, "role": "outer"}, {"type": "way", "ref": 798029131, "role": "outer"}, {"type": "way", "ref": 798029132, "role": "outer"}], "tags": {"addr:postcode": "4120", "addr:state": "QLD", "addr:street": "Newdegate Street", "addr:suburb": "Greenslopes", "amenity": "hospital", "emergency": "yes", "healthcare": "hospital", "name": "Greenslopes Private Hospital", "operator": "Ramsay Health", "operator:type": "private", "phone": "+61 7 3394 7111", "type": "multipolygon", "website": "https://www.greenslopesprivate.com.au/", "wikidata": "Q5604548", "wikipedia": "en:Greenslopes Private Hospital"}}, {"type": "relation", "id": 15398548, "center": {"lat": -27.4988054, "lon": 153.0323358}, "members": [{"type": "way", "ref": 141581173, "role": "outer"}, {"type": "way", "ref": 1135684913, "role": "outer"}, {"type": "way", "ref": 1135684912, "role": "outer"}], "tags": {"addr:housenumber": "199", "addr:postcode": "4102", "addr:state": "QLD", "addr:street": "Ipswich Road", "addr:suburb": "Woolloongabba", "alt_name": "PA Hospital", "amenity": "hospital", "emergency": "yes", "healthcare": "hospital", "name": "Princess Alexandra Hospital", "operator": "Queensland Health", "operator:type": "government", "operator:wikidata": "Q17006271", "operator:wikipedia": "en:Queensland Health", "phone": "+61 7 3176 2111", "type": "multipolygon", "website": "https://metrosouth.health.qld.gov.au/princess-alexandra-hospital", "wikidata": "Q7244522"}}, {"type": "relation", "id": 15705758, "center": {"lat": -27.9596799, "lon": 153.3823746}, "members": [{"type": "way", "ref": 255954266, "role": "outer"}, {"type": "way", "ref": 1161230157, "role": "outer"}], "tags": {"addr:housenumber": "1", "addr:postcode": "4215", "addr:street": "Hospital Boulevard", "amenity": "hospital", "emergency": "yes", "healthcare": "hospital", "name": "Gold Coast University Hospital", "operator": "Queensland Health", "operator:type": "government", "operator:wikidata": "Q17006271", "operator:wikipedia": "en:Queensland Health", "phone:AU": "1300 744 284", "type": "multipolygon", "website": "https://www.goldcoast.health.qld.gov.au/hospitals-and-centres/gold-coast-university-hospital", "wikidata": "Q5578668", "wikipedia": "en:Gold Coast University Hospital"}}, {"type": "relation", "id": 15705759, "center": {"lat": -27.9616679, "lon": 153.3840664}, "members": [{"type": "way", "ref": 1161230158, "role": "outer"}, {"type": "way", "ref": 1161230157, "role": "outer"}, {"type": "way", "ref": 1161230160, "role": "outer"}, {"type": "way", "ref": 1161230159, "role": "outer"}], "tags": {"addr:housenumber": "14", "addr:postcode": "4215", "addr:state": "QLD", "addr:street": "Hill Street", "addr:suburb": "Southport", "amenity": "hospital", "emergency": "yes", "healthcare": "hospital", "name": "Gold Coast Private Hospital", "operator": "Healthscope", "operator:type": "private", "operator:wikidata": "Q5691366", "phone": "+61 7 5530 0300", "type": "multipolygon", "website": "https://www.goldcoastprivate.com.au/", "wikidata": "Q23057984", "wikipedia": "en:Gold Coast Private Hospital"}}, {"type": "relation", "id": 16511560, "center": {"lat": -27.4774412, "lon": 152.9917004}, "members": [{"type": "way", "ref": 56062073, "role": "outer"}, {"type": "way", "ref": 1216374223, "role": "outer"}, {"type": "way", "ref": 1216374222, "role": "outer"}], "tags": {"addr:housenumber": "496", "addr:postcode": "4066", "addr:state": "QLD", "addr:street": "Milton Road", "addr:suburb": "Toowong", "amenity": "hospital", "emergency": "no", "healthcare": "hospital", "healthcare:speciality": "psychiatry", "name": "Toowong Private Hospital", "operator": "TPH", "operator:type": "private", "phone": "+61 7 3721 8000", "type": "multipolygon", "website": "http://toowongprivatehospital.com.au/"}}, {"type": "relation", "id": 16511564, "center": {"lat": -27.4757954, "lon": 152.9973161}, "members": [{"type": "way", "ref": 864809225, "role": "outer"}, {"type": "way", "ref": 1216374955, "role": "outer"}, {"type": "way", "ref": 1216374956, "role": "outer"}], "tags": {"amenity": "hospital", "healthcare": "hospital", "type": "multipolygon"}}]}