{"version": 0.6, "generator": "Overpass API 0.7.61.5 4133829e", "osm3s": {"timestamp_osm_base": "2023-10-31T20:47:26Z", "copyright": "The data included in this document is from www.openstreetmap.org. The data is made available under ODbL."}, "elements": [{"type": "node", "id": 27288796, "lat": -37.8843792, "lon": 145.1455722, "tags": {"amenity": "hospital", "emergency": "no", "name": "Waverley Private Hospital", "website": "https://www.waverleyprivate.com.au/"}}, {"type": "node", "id": 206200909, "lat": -35.0511403, "lon": 142.8808925, "tags": {"amenity": "hospital", "healthcare": "hospital", "name": "Manangatang Hospital", "operator": "Robinvale District Health Service"}}, {"type": "node", "id": 249533321, "lat": -35.2083776, "lon": 149.0733245, "tags": {"amenity": "hospital", "healthcare": "hospital", "name": "Medical Centre", "toilets:wheelchair": "yes", "wheelchair": "yes"}}, {"type": "node", "id": 262777337, "lat": -37.8526149, "lon": 145.1649491, "tags": {"addr:housenumber": "321-345", "addr:postcode": "3151", "addr:state": "VIC", "addr:street": "Burwood Highway", "addr:suburb": "Burwood East", "amenity": "hospital", "emergency": "no", "fax": "+61-3-88042795", "healthcare": "hospital", "healthcare:speciality": "rehabilitation", "name": "Peter James Centre", "operator": "Eastern Health", "operator:type": "public", "phone": "+61-3-98811888", "website": "https://www.easternhealth.org.au/locations/peter-james-centre"}}, {"type": "node", "id": 332358446, "lat": -35.3214678, "lon": 149.0927323, "tags": {"amenity": "hospital", "healthcare": "hospital", "healthcare:speciality": "ophthalmology", "name": "Canberra Eye Hospital", "website": "https://www.canberraeye.com.au/"}}, {"type": "node", "id": 429184771, "lat": -37.9208228, "lon": 145.1224428, "tags": {"amenity": "hospital", "healthcare": "hospital", "name": "Jessie McPherson Private Hospital", "wikidata": "Q14935171"}}, {"type": "node", "id": 489359423, "lat": -37.0185154, "lon": 145.1381959, "tags": {"addr:city": "Seymour", "addr:housenumber": "1", "addr:postcode": "3717", "addr:street": "Brettoneaux Street", "amenity": "hospital", "healthcare": "hospital", "name": "Seymour Hospital", "phone": "+61 3 5793 6100", "website": "https://www.seymourhealth.org.au/"}}, {"type": "node", "id": 597972749, "lat": -37.9380359, "lon": 145.2127203, "tags": {"amenity": "hospital", "emergency_ward_entrance": "all", "entrance": "yes", "name": "Emergency", "wheelchair": "yes"}}, {"type": "node", "id": 600761782, "lat": -36.7329561, "lon": 146.9659735, "tags": {"addr:city": "Bright", "addr:housenumber": "36-42", "addr:postcode": "3741", "addr:street": "Cobden Street", "amenity": "hospital", "emergency": "yes", "fixme": "exact position", "healthcare": "hospital", "name": "Bright Hospital", "operator": "Alpine Health", "phone": "+61 3 5755 0100"}}, {"type": "node", "id": 687479687, "lat": -38.4860745, "lon": 142.9764969, "tags": {"amenity": "hospital", "name": "Timboon District Healthcare Service"}}, {"type": "node", "id": 704426805, "lat": -38.2393865, "lon": 142.9020584, "tags": {"amenity": "hospital", "healthcare": "hospital", "name": "Terang & Mortlake Health Service"}}, {"type": "node", "id": 832508110, "lat": -38.5454422, "lon": 143.9804248, "tags": {"addr:postcode": "3232", "addr:street": "Albert Street", "amenity": "hospital", "email": "enquiries@lch.org.au", "healthcare": "hospital", "internet_access": "wlan", "name": "Lorne Community Hospital", "name:de": "Lorne Gemeindekrankenhaus", "phone": "+61 3 5289 4300", "website": "https://lch.org.au"}}, {"type": "node", "id": 885893500, "lat": -37.8651567, "lon": 144.8387644, "tags": {"amenity": "hospital"}}, {"type": "node", "id": 945024594, "lat": -37.4200877, "lon": 143.8917602, "tags": {"addr:city": "Creswick", "addr:postcode": "3363", "addr:street": "Cushing Avenue", "amenity": "hospital", "emergency": "no", "name": "Creswick Hospital and Nursing Home"}}, {"type": "node", "id": 1257803645, "lat": -37.5995317, "lon": 144.2224358, "tags": {"addr:housenumber": "33", "addr:street": "Cowries Street", "amenity": "hospital", "name": "Ballan District Health and Care", "website": "www.ballanhospital.com.au"}}, {"type": "node", "id": 1279003446, "lat": -37.7558954, "lon": 145.0609462, "tags": {"addr:housenumber": "163", "addr:postcode": "3084", "addr:state": "VIC", "addr:street": "Studley Road", "addr:suburb": "Heidelberg", "amenity": "hospital", "emergency": "no", "healthcare": "hospital", "name": "Mercy Hospital for Women", "website": "https://www.mercyhealth.com.au", "wikidata": "Q14935222"}}, {"type": "node", "id": 1313697291, "lat": -37.8568969, "lon": 145.0940058, "tags": {"amenity": "hospital", "emergency": "no", "healthcare": "hospital", "name": "Delmont Private Hospital"}}, {"type": "node", "id": 1344388240, "lat": -31.5576776, "lon": 143.3854436, "tags": {"amenity": "hospital", "emergency": "yes", "healthcare": "hospital", "name": "Wilcannia Hospital"}}, {"type": "node", "id": 1518791350, "lat": -37.9763185, "lon": 146.784229, "tags": {"amenity": "hospital", "emergency": "yes", "name": "Heyfield Hospital"}}, {"type": "node", "id": 1556902795, "lat": -37.833742, "lon": 145.1657139, "tags": {"addr:city": "Melbourne", "addr:country": "AU", "addr:housenumber": "249", "addr:postcode": "3131", "addr:state": "VIC", "addr:street": "Canterbury Road", "addr:suburb": "Forest Hill", "amenity": "hospital", "building": "commercial", "designation": "Medical Clinic", "emergency": "no"}}, {"type": "node", "id": 1901522484, "lat": -37.558366, "lon": 149.7534583, "tags": {"amenity": "hospital", "emergency": "yes", "name": "Mallacoota Medical Centre"}}, {"type": "node", "id": 2037737699, "lat": -38.4600065, "lon": 145.2328124, "tags": {"addr:housename": "Grossard Court", "addr:housenumber": "1A", "addr:postcode": "3922", "addr:street": "Leslie Avenue", "amenity": "hospital", "cuisine": "coffee_shop", "name": "Grossard Court Home", "website": "http://cowes-cafe.com.au"}}, {"type": "node", "id": 2059452529, "lat": -37.7994568, "lon": 144.9564192, "tags": {"amenity": "hospital", "contact:phone": "+61 3 9342 7000", "emergency": "yes", "healthcare": "hospital", "name": "Royal Melbourne Hospital"}}, {"type": "node", "id": 2360480555, "lat": -33.8323871, "lon": 148.6922801, "tags": {"amenity": "hospital", "emergency": "yes", "healthcare": "hospital", "name": "Cowra Hospital"}}, {"type": "node", "id": 2375823214, "lat": -37.8843032, "lon": 144.7324904, "tags": {"amenity": "hospital", "emergency": "no", "name": "Boardwalk Health MedicalCentre"}}, {"type": "node", "id": 2405949093, "lat": -37.9219043, "lon": 145.1206698, "tags": {"addr:housenumber": "252 - 256", "addr:street": "Clayton Road", "amenity": "hospital", "emergency": "no", "name": "Monash Surgical Private", "source": "Survey"}}, {"type": "node", "id": 2458004387, "lat": -37.7233945, "lon": 144.9475073, "tags": {"amenity": "hospital", "name": "Dorset Rehabilitation Centre"}}, {"type": "node", "id": 2470481080, "lat": -37.9215323, "lon": 145.1193962, "tags": {"amenity": "hospital", "name": "Monash surgical private"}}, {"type": "node", "id": 2611190987, "lat": -38.4494851, "lon": 145.2372508, "tags": {"addr:city": "Cowes", "addr:housename": "Bass Coast Community Health", "addr:housenumber": "14", "addr:postcode": "3922", "addr:street": "Warley Avenue", "amenity": "hospital"}}, {"type": "node", "id": 2678679360, "lat": -37.7568145, "lon": 144.9717135, "tags": {"amenity": "hospital", "name": "Brunswick Private Hospital", "operator": "Healthe Care"}}, {"type": "node", "id": 3167261112, "lat": -37.6843343, "lon": 144.9131458, "tags": {"amenity": "hospital", "name": "Broadmeadows Hospital", "operator": "Northern Health", "wikidata": "Q88513184"}}, {"type": "node", "id": 3790049233, "lat": -38.021958, "lon": 145.954129, "tags": {"amenity": "hospital", "name": "Neerim District Soldiers Memorial Hospital", "phone": "+61 3 5628 1226", "website": "https://neerimhealth.org.au/"}}, {"type": "node", "id": 3818420288, "lat": -38.1379457, "lon": 141.624074, "tags": {"addr:city": "Heywood", "addr:housenumber": "21", "addr:street": "Barclay Street", "amenity": "hospital", "healthcare": "hospital", "name": "Heywood Rural Health", "phone": "+61 3 5527 0555", "source": "bing", "website": "https://swarh.com.au/hrh"}}, {"type": "node", "id": 3902455806, "lat": -37.723615, "lon": 144.8065555, "tags": {"amenity": "hospital", "name": "Keilor Downs Surgery"}}, {"type": "node", "id": 4214963285, "lat": -37.0519115, "lon": 144.2123435, "tags": {"addr:city": "Castlemaine", "addr:housenumber": "142", "addr:postcode": "3450", "addr:street": "Cornish Street", "amenity": "hospital", "healthcare": "hospital", "name": "Mt Alexander Hospital", "phone": "+61 3 5471 1555"}}, {"type": "node", "id": 4215016840, "lat": -36.315573, "lon": 145.0421803, "tags": {"addr:city": "Kyabram", "addr:housenumber": "88", "addr:postcode": "3620", "addr:street": "Fenaughty Street", "amenity": "hospital", "healthcare": "hospital", "name": "Kyabram Hospital", "phone": "+61 3 5857 0200"}}, {"type": "node", "id": 4246233623, "lat": -37.9386663, "lon": 145.2131512, "tags": {"amenity": "hospital", "name": "The Valley Private Hospital"}}, {"type": "node", "id": 4524199980, "lat": -37.9752194, "lon": 145.1859273, "tags": {"amenity": "hospital", "emergency": "no", "healthcare": "hospital", "name": "Chandler Road Medical Centre"}}, {"type": "node", "id": 4712754127, "lat": -37.7999274, "lon": 144.9562153, "tags": {"addr:city": "Parkville", "addr:housenumber": "305", "addr:street": "Grattan Street", "amenity": "hospital", "emergency": "no", "healthcare": "hospital", "name": "Victorian Comprehensive Cancer Centre", "wikidata": "Q24185397"}}, {"type": "node", "id": 4712755317, "lat": -37.8003879, "lon": 144.9567852, "tags": {"addr:city": "Melbourne", "addr:housenumber": "305", "addr:postcode": "3000", "addr:street": "Grattan Street", "amenity": "hospital", "contact:phone": "+61 3 8559 5000", "emergency": "no", "health_amenity:type": "imaging_equipment;intensive_care_unit;laboratory;mri;operating_theater;ultrasound;x_ray", "healthcare": "hospital", "insurance:health": "private;public", "name": "Peter MacCallum Cancer Centre", "url": "www.petermac.org", "wheelchair": "yes"}}, {"type": "node", "id": 4780137423, "lat": -37.7663129, "lon": 144.9658061, "tags": {"amenity": "hospital", "healthcare": "hospital"}}, {"type": "node", "id": 5127953776, "lat": -37.9523063, "lon": 145.1773168, "tags": {"amenity": "hospital", "healthcare": "hospital", "name": "Davell Lodge"}}, {"type": "node", "id": 5215342570, "lat": -37.9676778, "lon": 145.1738309, "tags": {"amenity": "hospital", "name": "Noble Manor Aged Care"}}, {"type": "node", "id": 5302929934, "lat": -38.2238248, "lon": 145.0419, "tags": {"amenity": "hospital", "name": "The Bays Hospital"}}, {"type": "node", "id": 5326446022, "lat": -36.7492359, "lon": 144.2801905, "tags": {"amenity": "hospital", "healthcare": "hospital", "healthcare:speciality": "emergency", "name": "Emergency Department", "wheelchair": "yes"}}, {"type": "node", "id": 5453073744, "lat": -36.1987616, "lon": 147.9030593, "tags": {"amenity": "hospital", "emergency": "yes", "name": "Upper Murray Health & Community Services, Corryong"}}, {"type": "node", "id": 5819905796, "lat": -37.8774755, "lon": 145.0241358, "tags": {"addr:housenumber": "187", "addr:postcode": "3161", "addr:state": "VIC", "addr:street": "Hawthorn Road", "addr:suburb": "caulfield north", "amenity": "hospital", "healthcare": "hospital", "healthcare:speciality": "orthodontics", "name": "Orthodontist", "operator": "Jeff Lipshatz"}}, {"type": "node", "id": 6797577951, "lat": -36.4499902, "lon": 142.0244485, "tags": {"amenity": "hospital", "healthcare": "hospital", "name": "Wimmera Health Care"}}, {"type": "node", "id": 7068030974, "lat": -37.8168201, "lon": 144.9940109, "tags": {"amenity": "hospital", "healthcare": "hospital"}}, {"type": "node", "id": 7295350185, "lat": -37.3849383, "lon": 140.8356972, "tags": {"amenity": "hospital", "healthcare": "hospital", "name": "Penola hospital"}}, {"type": "node", "id": 8072155250, "lat": -36.3629086, "lon": 145.405138, "tags": {"amenity": "hospital", "emergency": "yes", "healthcare": "hospital", "healthcare:speciality": "emergency", "name": "Emergency Ward", "operator": "Goulburn Valley health", "operator:type": "government"}}, {"type": "node", "id": 9406175024, "lat": -30.8507774, "lon": 143.0895209, "tags": {"addr:postcode": "2836", "addr:state": "NSW", "addr:street": "Johnston Street", "addr:suburb": "White Cliffs", "amenity": "hospital", "emergency": "yes", "healthcare": "hospital", "name": "White Cliffs Health Service", "opening_hours": "24/7", "phone": "+61 8 8091 6606"}}, {"type": "node", "id": 9406175025, "lat": -32.894419, "lon": 144.2953885, "tags": {"amenity": "hospital", "emergency": "yes", "healthcare": "hospital", "name": "Ivanhoe Hospital"}}, {"type": "node", "id": 9421595829, "lat": -34.8201364, "lon": 147.1991774, "tags": {"amenity": "hospital", "emergency": "yes", "healthcare": "hospital", "name": "Coolamon-Ganmain Multi Purpose Service"}}, {"type": "node", "id": 9576622181, "lat": -37.7565429, "lon": 145.351376, "tags": {"addr:housenumber": "25", "addr:postcode": "3140", "addr:state": "VIC", "addr:street": "Market Street", "addr:suburb": "Lilydale", "amenity": "hospital", "emergency": "no", "healthcare": "hospital", "name": "Yarra Ranges Health", "operator": "Eastern Health", "operator:type": "public", "phone:AU": "1300 342 255", "website": "https://www.easternhealth.org.au/locations/yarra-ranges-health/item/222"}}, {"type": "node", "id": 9962857372, "lat": -37.8440747, "lon": 145.2491055, "tags": {"amenity": "hospital", "name": "Knox Day Hospital"}}, {"type": "node", "id": 10185268719, "lat": -37.9208967, "lon": 145.1202487, "tags": {"addr:housenumber": "271", "addr:street": "Clayton Road", "amenity": "hospital", "name": "Monash house"}}, {"type": "node", "id": 11041628116, "lat": -37.7873942, "lon": 145.1328204, "tags": {"amenity": "hospital", "name": "Doncaster Private Hospital"}}, {"type": "way", "id": 4754494, "center": {"lat": -37.9200317, "lon": 145.1240614}, "nodes": [429184458, 9984607816, 429184461, 9984607776, 9984521488, 9984521490, 9984521489, 9984521491, 605262461, 9984521486, 9984521485, 9984521484, 9984521483, 9984521482, 9984521481, 9984521480, 9984521479, 9984521478, 9984521477, 9984521476, 9984521470, 9984521471, 9984521472, 5421659939, 9984521473, 9984521474, 9984521475, 30338758, 1893088530, 30338759, 30338760, 30338761, 429184437, 5419727405, 429184439, 5419727393, 9240094889, 9240094890, 9240094891, 429184442, 429184447, 3085778734, 30338762, 703002750, 703002751, 9240094882, 4956527352, 9240094880, 9240094879, 4956527351, 4956527350, 4956527349, 4956527339, 4956527348, 9240094878, 9242682582, 9240109622, 7725899357, 30338764, 30338765, 30338766, 429184463, 429184466, 9984607815, 429184458], "tags": {"amenity": "hospital", "emergency": "yes", "healthcare": "hospital", "name": "Monash Medical Centre, Clayton Campus", "website": "http://www.southernhealth.org.au/page/Hospitals/Monash_Medical_Centre/", "wheelchair": "yes"}}, {"type": "way", "id": 4787055, "center": {"lat": -37.8069112, "lon": 145.2543839}, "nodes": [30678222, 30678219, 9351728624, 6449257436, 30678220, 9351728648, 9351719572, 30678221, 4902979032, 30678222], "tags": {"addr:housenumber": "1-15", "addr:postcode": "3135", "addr:state": "VIC", "addr:street": "Davey Drive", "addr:suburb": "Ringwood East", "amenity": "hospital", "emergency": "yes", "healthcare": "hospital", "name": "Maroondah Hospital", "operator": "Eastern Health", "operator:type": "public/government", "phone": "+61 3 8804 9999", "start_date": "1976-07-03", "website": "https://www.easternhealth.org.au/locations/maroondah-hospital", "wheelchair": "yes", "wikidata": "Q115623672", "wikipedia": "en:Maroondah Hospital"}}, {"type": "way", "id": 5179320, "center": {"lat": -37.7986429, "lon": 144.9556144}, "nodes": [35990075, 778840703, 2528833958, 778840701, 11230454253, 778840751, 11230383764, 2528833956, 11230454255, 11230454254, 2528833955, 778842162, 274551046, 11230454251, 274551047, 274551048, 35990078, 778842938, 778842936, 778842934, 274551049, 778842531, 2528834046, 35990059, 573254193, 573254194, 35990056, 9932782793, 9932782792, 245808259, 3840291043, 9932782791, 11230454298, 35990075], "tags": {"addr:housenumber": "300", "addr:postcode": "3050", "addr:state": "VIC", "addr:street": "Grattan Street", "addr:suburb": "Parkville", "amenity": "hospital", "emergency": "yes", "healthcare": "hospital", "name": "The Royal Melbourne Hospital", "name:fr": "L'H\u00f4pital Royal de Melbourne", "name:vi": "B\u1ec7nh vi\u1ec7n Ho\u00e0ng gia Melbourne", "name:zh": "\u58a8\u723e\u672c\u7687\u5bb6\u91ab\u9662", "phone": "+61 3 9342 7000", "source": "bing;local knowledge", "website": "https://www.thermh.org.au/", "wikidata": "Q7374471"}}, {"type": "way", "id": 8655735, "center": {"lat": -37.8148988, "lon": 145.1192395}, "nodes": [61732419, 61732423, 5550128991, 61732426, 7889012438, 61732429, 61732419], "tags": {"amenity": "hospital", "healthcare": "hospital", "name": "Epworth Eastern Private Hospital"}}, {"type": "way", "id": 8655737, "center": {"lat": -37.8136201, "lon": 145.118406}, "nodes": [61732439, 61732653, 61732664, 61732667, 61732439], "tags": {"amenity": "hospital", "emergency": "yes", "healthcare": "hospital", "name": "Box Hill Hospital", "operator": "Eastern Health", "website": "https://www.easternhealth.org.au/locations/box-hill-hospital"}}, {"type": "way", "id": 9923714, "center": {"lat": -37.754276, "lon": 144.9588422}, "nodes": [81118181, 81118191, 81118198, 81118207, 81118181], "tags": {"addr:city": "Coburg", "addr:housenumber": "275", "addr:postcode": "3058", "addr:street": "Moreland Road", "amenity": "hospital", "healthcare": "hospital", "name": "John Fawkner Private Hospital", "phone": "+61 3 93852500", "website": "http://www.johnfawknerprivatehospital.com.au/"}}, {"type": "way", "id": 19692048, "center": {"lat": -37.8870949, "lon": 144.6979243}, "nodes": [204490359, 204490360, 5479416917, 204490367, 5479417123, 5479431687, 9380740021, 5479431688, 204490376, 5798069244, 5798069245, 204490377, 204490379, 204490359], "tags": {"amenity": "hospital", "emergency": "yes", "healthcare": "hospital", "name": "Werribee Mercy Hospital", "website": "https://www.mercyhealth.com.au/hcmhs/clinics/Pages/Werribee%20Mercy%20Hospital.aspx"}}, {"type": "way", "id": 24443980, "center": {"lat": -36.992834, "lon": 144.063668}, "nodes": [265661609, 265661610, 265661611, 265661612, 265661609], "tags": {"amenity": "hospital", "emergency": "no", "healthcare": "hospital", "name": "Maldon Hospital", "wheelchair": "yes"}}, {"type": "way", "id": 24530691, "center": {"lat": -37.806832, "lon": 144.974734}, "nodes": [266734086, 266734104, 2797967115, 2133326032, 2797967116, 2810335202, 2133326031, 266734151, 2323814591, 2323814595, 248838949, 9144675616, 266734190, 477078995, 266734205, 266734086], "tags": {"addr:city": "Fitzroy", "addr:housenumber": "41", "addr:postcode": "3065", "addr:street": "Victoria Parade", "amenity": "hospital", "emergency": "yes", "healthcare": "hospital", "name": "St Vincent's Hospital", "name:fr": "H\u00f4pital Saint-Vincent", "operator": "St Vincent's Health Australia", "phone": "+61 3 92882211", "website": "https://www.svhm.org.au/", "wheelchair": "yes", "wikidata": "Q7595606"}}, {"type": "way", "id": 24595717, "center": {"lat": -37.7566052, "lon": 145.0589139}, "nodes": [267373323, 9435498242, 267373325, 1256644350, 9073408668, 9073408667, 9073408666, 1256644314, 9073408672, 267373326, 267373370, 267373388, 11021414305, 11021414304, 9073408721, 9073408700, 9073408708, 267373399, 1257957673, 267373447, 267373473, 1343028093, 1343028109, 1343028103, 1343028131, 11021397569, 7121309376, 5978128856, 5978128862, 1256644342, 267373323], "tags": {"addr:housenumber": "145", "addr:postcode": "3084", "addr:state": "VIC", "addr:street": "Studley Road", "addr:suburb": "Heidelberg", "amenity": "hospital", "emergency": "yes", "healthcare": "hospital", "is_in": "Heidelberg,Victoria,Australia", "name": "Austin Hospital", "postal_code": "3084", "website": "http://www.austin.org.au/", "wikidata": "Q4823132", "wikipedia": "en:Austin Hospital, Melbourne"}}, {"type": "way", "id": 24690740, "center": {"lat": -37.7587979, "lon": 144.8174425}, "nodes": [5224036329, 268385887, 268385888, 268385889, 268385890, 466941124, 268385892, 268385893, 11061754029, 11061754037, 268385894, 11061754044, 268385895, 268385896, 8708601205, 8991445398, 5224036326, 5224036329], "tags": {"addr:city": "St Albans", "addr:housenumber": "176-190", "addr:postcode": "3021", "addr:street": "Furlong Road", "amenity": "hospital", "emergency": "yes", "healthcare": "hospital", "landuse": "commercial", "name": "Sunshine Hospital", "operator": "Western Health", "phone": "+61-3-83451333", "website": "https://www.westernhealth.org.au/OurSites/SunshineHospital/", "wikidata": "Q38250532"}}, {"type": "way", "id": 25520531, "center": {"lat": -38.3628832, "lon": 144.8849086}, "nodes": [278113218, 4142779988, 2005987916, 1687242602, 278113219, 278113220, 9772407510, 278113221, 278113222, 9772407364, 9772407356, 9772407357, 9772407358, 9772407359, 9772407360, 9158957434, 1687242606, 1687242544, 278113223, 4142779981, 278113218], "tags": {"addr:housenumber": "1527", "addr:postcode": "3939", "addr:street": "Point Nepean Road", "amenity": "hospital", "emergency": "yes", "healthcare": "hospital", "name": "Rosebud Hospital", "website": "https://www.peninsulahealth.org.au/locations/rosebud-hospital/"}}, {"type": "way", "id": 25583774, "center": {"lat": -37.7934267, "lon": 144.9499297}, "nodes": [4972218975, 4972218986, 4972218987, 4972218976, 5668886324, 4972218977, 1673979361, 278866860, 1280017712, 278866866, 1280018044, 279050022, 1280018051, 1280017853, 279050023, 1280017768, 1280037374, 571390705, 279050026, 279050029, 279050032, 279050035, 571390703, 571390704, 279050020, 4972218975], "tags": {"addr:city": "Parkville", "addr:housenumber": "50", "addr:street": "Flemington Road", "amenity": "hospital", "emergency": "yes", "healthcare": "hospital", "name": "Royal Children's Hospital", "name:fr": "H\u00f4pital Royal pour enfants de Melbourne", "phone": "+61 3 9345 5522", "short_name": "RCH", "website": "https://www.rch.org.au/", "wikidata": "Q7373942"}}, {"type": "way", "id": 26037242, "center": {"lat": -37.7485656, "lon": 144.8853992}, "nodes": [284562004, 284562010, 284562016, 284562022, 284562004], "tags": {"amenity": "hospital", "healthcare": "hospital", "name": "Essendon Private Hospital", "source": "yahoo", "source:name": "survey"}}, {"type": "way", "id": 26807304, "center": {"lat": -37.0521752, "lon": 144.2122531}, "nodes": [294072358, 1977730354, 4597817372, 294072360, 294072363, 294072368, 4597834644, 294072358], "tags": {"amenity": "hospital", "healthcare": "hospital", "name": "Castlemaine Health", "operator": "Castlemaine Health", "phone": "+61 3 5471 1555"}}, {"type": "way", "id": 26830083, "center": {"lat": -37.78921, "lon": 145.0123249}, "nodes": [294539327, 568293513, 8398862218, 7959245567, 7959214103, 7959214099, 7959889054, 4037118206, 4037118207, 4037118208, 4037118189, 568293525, 568293522, 568290957, 294539316, 294539320, 294539327], "tags": {"addr:city": "Fairfield", "addr:postcode": "3078", "addr:state": "VIC", "addr:street": "Yarra Bend Road", "amenity": "hospital", "contact:phone": "+61 3 94959100", "contact:website": "https://www.forensicare.vic.gov.au/our-services/thomas-embling/", "emergency": "no", "healthcare": "hospital", "name": "Thomas Embling Hospital", "operator": "Forensicare", "operator:type": "private", "wikidata": "Q7789350"}}, {"type": "way", "id": 27164568, "center": {"lat": -36.3637143, "lon": 145.4046626}, "nodes": [298036539, 9098521110, 9098521109, 9098521108, 9098521107, 9098521106, 298036598, 298036541, 637008679, 637008680, 637008681, 637008682, 8383896565, 298036599, 8072155254, 637008442, 8280978666, 8072155252, 637008443, 298036539], "tags": {"amenity": "hospital", "emergency": "yes", "healthcare": "hospital", "name": "Goulburn Valley Health (Shepparton)", "old_name": "Goulburn Valley Base Hospital", "source": "nearmap", "website": "https://www.gvhealth.org.au/"}}, {"type": "way", "id": 27704724, "center": {"lat": -37.8115078, "lon": 144.9774149}, "nodes": [11182932293, 3119864229, 11182932305, 11182932279, 304241597, 11182932304, 11182932301, 11182932302, 11182932303, 11182932300, 11182932299, 11182932298, 11182932297, 11182932276, 11182932275, 11182932296, 304241594, 11182932274, 11182932278, 11182932277, 11182932295, 11182932294, 11182932272, 304241595, 11182932292, 11182932273, 11182932293], "tags": {"addr:country": "AU", "addr:housenumber": "2-22", "addr:postcode": "3002", "addr:state": "VIC", "addr:street": "St Andrews Place", "addr:suburb": "East Melbourne", "amenity": "hospital", "building": "hospital", "disused:name": "St Andrews Hospital", "healthcare:speciality": "ophthalmology;otolaryngology", "name": "Eye and Ear on the Park", "old_name": "Peter MacCallum Cancer Institute", "operator": "Royal Victorian Eye and Ear Hospital", "phone": "+61 3 9929 8666", "source": "Vicmap Address", "website": "https://www.eyeandear.org.au/", "wikidata": "Q16899492"}}, {"type": "way", "id": 27877701, "center": {"lat": -38.1510173, "lon": 145.1288442}, "nodes": [4978638917, 4978638919, 4978638912, 306077117, 306077118, 306077119, 2192559288, 306077120, 9322473612, 306077121, 9322435430, 3291275935, 9322435431, 3291275938, 306077122, 306077123, 306077124, 306077125, 1688058662, 306077126, 306077127, 4978638928, 4978638927, 4978638917], "tags": {"addr:housenumber": "2", "addr:street": "Hastings Road", "amenity": "hospital", "emergency": "yes", "healthcare": "hospital", "name": "Frankston Hospital", "website": "https://www.peninsulahealth.org.au/locations/frankston/", "wikidata": "Q5492258"}}, {"type": "way", "id": 28135555, "center": {"lat": -37.8989403, "lon": 145.3144687}, "nodes": [309020461, 610743843, 610743844, 309020462, 610743845, 309020463, 610744307, 309020464, 610744309, 610744310, 610744311, 309020465, 610744878, 309020466, 610743846, 610743847, 610743848, 610743849, 610743850, 309020461], "tags": {"addr:housenumber": "39", "addr:street": "Albert Street", "amenity": "hospital", "emergency": "yes", "layer": "-2", "name": "Angliss Hospital", "website": "http://www.easternhealth.org.au/locations/angliss/default.aspx", "wikidata": "Q28220155"}}, {"type": "way", "id": 28135587, "center": {"lat": -35.3484029, "lon": 149.0962275}, "nodes": [309020897, 309020899, 309020900, 309020902, 1895743819, 309020904, 5789636110, 309020909, 1895743839, 309020897], "tags": {"amenity": "hospital", "emergency": "no", "healthcare": "hospital", "name": "Car Park", "note": "former site of Canberra Institute of Technology, Now Hospital Staff parking"}}, {"type": "way", "id": 28222442, "center": {"lat": -37.808403, "lon": 145.0527738}, "nodes": [309975984, 309975985, 5510190937, 309975986, 2815396502, 309975987, 309975989, 309975991, 309975984], "tags": {"addr:city": "Kew", "addr:housenumber": "283", "addr:postcode": "3101", "addr:street": "Cotham Road", "amenity": "hospital", "emergency": "no", "name": "St George's Health Service", "operator": "St Vincent's Hospital", "phone": "+61 3 98160444", "website": "https://www.svhm.org.au/"}}, {"type": "way", "id": 28738920, "center": {"lat": -37.9559492, "lon": 145.0784929}, "nodes": [3383800758, 9580013902, 9580013901, 3383800764, 3383800762, 315997494, 9580013990, 9580013900, 315997497, 315997499, 315997500, 315997501, 315997503, 315997504, 9580013909, 315997505, 9580013910, 315997506, 3042581083, 9580013907, 9580013908, 9580013905, 9580013906, 9580013904, 9580013903, 3383800758], "tags": {"addr:housenumber": "400", "addr:street": "Warrigal Road", "amenity": "hospital", "emergency": "no", "name": "Kingston Centre", "website": "www.monashhealth.org/page/Hospitals/Kingston_Centre/"}}, {"type": "way", "id": 28969758, "center": {"lat": -37.8332194, "lon": 145.1556104}, "nodes": [318548214, 318548215, 318548216, 318548217, 1566620680, 1566620661, 1566620658, 1566620655, 318548219, 318548220, 318548221, 318548222, 318548223, 318548214], "tags": {"amenity": "hospital", "name": "Bellbird Private Hospital"}}, {"type": "way", "id": 29548387, "center": {"lat": -37.8171818, "lon": 144.9930382}, "nodes": [325663844, 325663845, 325663846, 325663848, 325663849, 325663850, 9408834919, 9408834920, 325663851, 325663852, 325663844], "tags": {"addr:housenumber": "89", "addr:street": "Bridge Road", "alt_name": "Epworth Richmond", "alt_name_1": "Epworth Hospital", "amenity": "hospital", "emergency": "yes", "healthcare": "hospital", "name": "Epworth Richmond Hospital", "operator": "Epworth Foundation", "operator:type": "private_non_profit", "toilets:wheelchair": "yes", "website": "https://www.epworth.org.au/", "wheelchair": "yes"}}, {"type": "way", "id": 30409532, "center": {"lat": -38.152119, "lon": 144.3655917}, "nodes": [335605788, 882258881, 882258883, 335605790, 335605794, 338884313, 338884314, 335605795, 338884307, 335605788], "tags": {"addr:housenumber": "66", "addr:street": "Bellerine Street", "amenity": "hospital", "designation": "Public Hospital", "electricity": "grid", "emergency": "yes", "health_amenity:type": "emergency_department;operating_theater", "healthcare": "hospital", "insurance:health": "public", "name": "Barwon Health - University Hospital Geelong", "opening_hours": "24/7", "operator": "Barwon Health", "operator:type": "public", "phone:AU": "1800 675 398", "url": "https://www.barwonhealth.org.au/contact", "website": "https://www.barwonhealth.org.au/patients-visitors/column-1/geelong-hospital", "wheelchair": "yes", "wikidata": "Q5529844", "wikipedia": "en:Geelong Hospital"}}, {"type": "way", "id": 30929255, "center": {"lat": -37.9763627, "lon": 145.2180015}, "nodes": [343855515, 3511448901, 3511448894, 3511448903, 3511448898, 3511448914, 3496393950, 343855517, 343853807, 343853806, 2405994388, 2405994379, 2405994397, 2405994384, 3511448893, 343855515], "tags": {"amenity": "hospital", "name": "Dandenong Hospital", "website": "https://www.monashhealth.org/page/Dandenong", "wikidata": "Q30279798"}}, {"type": "way", "id": 30930361, "center": {"lat": -38.1509093, "lon": 144.3640222}, "nodes": [343906213, 343906221, 343906229, 343906237, 343906213], "tags": {"amenity": "hospital", "designation": "Public Hospital", "emergency": "no", "healthcare": "hospital", "name": "University Hospital Geelong - Building B", "operator": "Barwon Health"}}, {"type": "way", "id": 30967824, "center": {"lat": -37.7544339, "lon": 145.0476241}, "nodes": [344369527, 344369528, 344369529, 344369530, 344369531, 1270094558, 344369532, 1270094556, 1274249758, 7850058048, 344369533, 1274249787, 344369527], "tags": {"amenity": "hospital", "healthcare": "hospital", "name": "Heidelberg Repatriation Hospital", "website": "http://www.austin.org.au/heidelberg-repatriation-hospital", "wikidata": "Q30279835"}}, {"type": "way", "id": 31249152, "center": {"lat": -37.8045742, "lon": 145.015744}, "nodes": [347425783, 7613552426, 347425784, 347425785, 347425786, 347425783], "tags": {"amenity": "hospital", "emergency": "no", "healthcare": "hospital", "name": "Caritas Christi Hospice"}}, {"type": "way", "id": 32920232, "center": {"lat": -37.8551083, "lon": 144.9986594}, "nodes": [370729121, 370729122, 370729123, 370729124, 370729121], "tags": {"addr:housenumber": "40", "addr:street": "The Avenue", "amenity": "hospital", "healthcare": "hospital", "name": "The Avenue Hospital"}}, {"type": "way", "id": 32920650, "center": {"lat": -37.8828977, "lon": 145.0173669}, "nodes": [370737414, 1033324717, 1033324454, 1033324648, 370737416, 6690136855, 370737417, 370737418, 6690138615, 370737420, 370737421, 6690138610, 9526627486, 6690138609, 6690138608, 6690138607, 370737414], "tags": {"amenity": "hospital", "emergency": "no", "healthcare": "hospital", "healthcare:speciality": "community;rehabilitation;aged_care;aged_mental_health", "name": "Caulfield Hospital", "operator": "Alfred Health", "operator:type": "public", "website": "https://www.alfredhealth.org.au/caulfield", "wikidata": "Q30294629"}}, {"type": "way", "id": 33298249, "center": {"lat": -37.7919567, "lon": 144.8873484}, "nodes": [378630603, 378630605, 7274091693, 7274091696, 9036912786, 7274091695, 9036912787, 9036912795, 378630606, 378630608, 378630610, 378630611, 378630614, 378630616, 378630618, 378630619, 378630620, 378630622, 7274092088, 7274092085, 7274092084, 7274092081, 378630624, 378630625, 7412666111, 663516890, 2810300040, 378630603], "tags": {"addr:city": "Footscray", "addr:postcode": "3011", "addr:street": "Gordon Street", "amenity": "hospital", "emergency": "yes", "healthcare": "hospital", "name": "Western Hospital", "operator": "Western Health", "phone": "+61 3 83456666", "website": "https://www.westernhealth.org.au/OurSites/WesternHospital/"}}, {"type": "way", "id": 33479872, "center": {"lat": -37.861782, "lon": 145.0334329}, "nodes": [381133080, 381133090, 1777099031, 1777098989, 1777098966, 1777098954, 381133096, 1777098961, 1777098981, 381133102, 1777098994, 1777098982, 1777099018, 381133107, 1777099040, 381133110, 1777099007, 1777098993, 381133117, 1777098962, 1777098973, 1777098971, 381133123, 1777098959, 381133127, 1777098980, 381133133, 381133080], "tags": {"addr:city": "Malvern", "addr:housenumber": "181-183", "addr:postcode": "3144", "addr:street": "Wattletree Road", "amenity": "hospital", "emergency": "yes", "healthcare": "hospital", "name": "Cabrini Hospital", "ref": "http://www.cabrini.com.au/", "wikidata": "Q30293350"}}, {"type": "way", "id": 33765043, "center": {"lat": -37.653152, "lon": 145.0139408}, "nodes": [386431169, 8955481440, 10817764258, 386431170, 2406829357, 2406829349, 2089580933, 2089580926, 2089580927, 2089580920, 2089580921, 2089580924, 2089580931, 2089580922, 386431171, 2493725809, 1754390208, 775714067, 775714068, 775714069, 775714070, 775714072, 775714073, 1750579717, 775714075, 775698015, 775698017, 1754377965, 775690914, 386431169], "tags": {"addr:city": "Epping", "addr:housenumber": "185", "addr:postcode": "3076", "addr:street": "Cooper Street", "amenity": "hospital", "attribution": "Department of Human Services", "designation": "Public Hospital", "emergency": "yes", "healthcare": "hospital", "name": "The Northern Hospital", "phone": "+61 3 84058000", "source": "personal knowledge", "source:addr": "data.vic.gov.au", "website": "https://www.nh.org.au/", "wikidata": "Q7754368"}}, {"type": "way", "id": 34406728, "center": {"lat": -37.8486081, "lon": 145.2252814}, "nodes": [257881743, 257881744, 257881745, 257881746, 583475136, 583475137, 1261874393, 561003088, 561003978, 257881758, 1261874363, 1261874240, 257881748, 257881749, 561005273, 1261874390, 257881750, 561005276, 257881751, 256194450, 256194451, 561014313, 561006868, 9979028164, 9979028165, 9979028166, 9979028167, 9979028180, 9979028168, 9979028169, 9979028170, 9979028171, 9979028172, 9979028173, 9979028184, 257881743], "tags": {"addr:housenumber": "251", "addr:postcode": "3152", "addr:state": "VIC", "addr:street": "Mountain Highway", "addr:suburb": "Wantirna", "alt_name": "Eastern Health Wantirna", "amenity": "hospital", "emergency": "no", "healthcare": "hospital", "healthcare:speciality": "palliative;geriatrics", "name": "Wantirna Health", "operator": "Eastern Health", "operator:type": "public", "website": "https://www.easternhealth.org.au/locations/wantirna-health"}}, {"type": "way", "id": 34587543, "center": {"lat": -37.8695224, "lon": 145.0032963}, "nodes": [401520546, 401520547, 401520548, 401520549, 401520550, 9456926104, 401520551, 401520552, 401520546], "tags": {"access": "private", "amenity": "hospital", "healthcare": "hospital", "name": "Masada Private Hospital", "wheelchair": "yes"}}, {"type": "way", "id": 34804621, "center": {"lat": -37.8980962, "lon": 145.1604517}, "nodes": [407302029, 407302031, 407302032, 407302033, 407302029], "tags": {"amenity": "hospital", "emergency": "no", "name": "The Victorian Rehabilitation Centre", "ref": "http://www.healthscopehospitals.com.au/info/general/HospitalHome/get/20/hospitalId/"}}, {"type": "way", "id": 36024967, "center": {"lat": -37.8148469, "lon": 144.9989455}, "nodes": [421035418, 421035421, 1982454608, 421035426, 421035418], "tags": {"addr:city": "Richmond", "addr:housenumber": "130", "addr:postcode": "3121", "addr:street": "Church Street", "amenity": "hospital", "healthcare": "hospital", "name": "The Melbourne Clinic", "phone": "+61 3  94294688", "website": "http://www.themelbourneclinic.com.au/", "wikidata": "Q30270497"}}, {"type": "way", "id": 37519748, "center": {"lat": -37.7779502, "lon": 144.9478187}, "nodes": [310722658, 7712700272, 7712700273, 8041436491, 8041436490, 439200110, 4628605504, 310722661, 581814767, 6392376208, 581814763, 310722660, 581814741, 6392376209, 6392376210, 6392376211, 581814737, 581814734, 310722659, 310722658], "tags": {"addr:housenumber": "34-54", "addr:postcode": "3052", "addr:state": "VIC", "addr:street": "Poplar Road", "addr:suburb": "Parkville", "amenity": "hospital", "emergency": "no", "healthcare": "hospital", "name": "Royal Melbourne Hospital - Royal Park Campus", "phone": "+61 3 8387 2000", "website": "https://www.thermh.org.au"}}, {"type": "way", "id": 37520334, "center": {"lat": -37.7806303, "lon": 144.9473943}, "nodes": [316177076, 439204782, 289612706, 289612749, 289618025, 278443840, 5404670811, 8797678818, 8797678831, 8797678840, 316177057, 8797678838, 8797678905, 316177060, 316177063, 316177066, 316177070, 316177074, 316177076], "tags": {"addr:city": "Parkville", "addr:country": "AU", "addr:housenumber": "35", "addr:street": "Poplar Road", "amenity": "hospital", "healthcare": "hospital", "name": "Orygen Youth Health"}}, {"type": "way", "id": 37731396, "center": {"lat": -35.2525221, "lon": 149.0900199}, "nodes": [5254816245, 442571659, 673995846, 1945682046, 1945682071, 442571661, 6595815531, 442571663, 442571664, 442571665, 442571666, 442571667, 442571668, 1943775080, 6595821390, 442909676, 1943959620, 230936847, 230936848, 243666631, 1943959602, 1943959600, 243666632, 1946024762, 5254816247, 1943780972, 5254816245], "tags": {"addr:street": "Mary Potter Circuit", "amenity": "hospital", "emergency": "yes", "healthcare": "hospital", "name": "North Canberra Hospital", "old_name": "Calvary Public Hospital Bruce", "operator": "Canberra Health Services", "operator:wikidata": "Q110249215", "website": "https://www.health.act.gov.au/hospitals-and-health-centres", "wikidata": "Q14935650"}}, {"type": "way", "id": 38518848, "center": {"lat": -37.8494683, "lon": 145.228066}, "nodes": [455759415, 9802887334, 9802869012, 1146613019, 1146613079, 1146613012, 1146613075, 1146613066, 1146613007, 1146609472, 65745927, 1146606766, 1146601661, 1146601651, 1146601685, 1146601655, 1146601684, 1146601660, 1146601689, 1146609485, 1146609511, 1146609469, 1146609476, 1146609510, 65745928, 984954231, 984954257, 984954216, 984954237, 1146601659, 1146601641, 984954254, 1146601640, 984954253, 984954203, 984954265, 984954261, 984954268, 984954243, 984954249, 984954258, 984954262, 984954256, 455759415], "tags": {"addr:housenumber": "262", "addr:postcode": "3152", "addr:state": "VIC", "addr:street": "Mountain Highway", "addr:suburb": "Wantirna", "amenity": "hospital", "emergency": "yes", "healthcare": "hospital", "landuse": "commercial", "name": "Knox Private Hospital"}}, {"type": "way", "id": 39627063, "center": {"lat": -36.8553079, "lon": 143.7354601}, "nodes": [474992917, 474992918, 474992919, 474992920, 474992917], "tags": {"amenity": "hospital", "name": "Dunolly District Hospital"}}, {"type": "way", "id": 39798989, "center": {"lat": -37.8076843, "lon": 144.9760724}, "nodes": [477077893, 477077895, 477077898, 2318333331, 477077900, 477078649, 477077893], "tags": {"addr:city": "Fitzroy", "addr:housenumber": "59", "addr:postcode": "3065", "addr:street": "Victoria Parade", "amenity": "hospital", "building": "yes", "emergency": "no", "healthcare": "hospital", "name": "St Vincents Private Hospital Fitzroy", "operator": "St Vincent's Health Australia", "phone": "+61 3 94117111", "website": "http://www.stvincentsmercy.com.au", "wikidata": "Q7595619"}}, {"type": "way", "id": 42156312, "center": {"lat": -37.5594311, "lon": 143.8464896}, "nodes": [524610577, 1402604925, 1418765697, 1402604917, 1402604931, 1402604926, 1402604930, 1402604947, 524610580, 1402604946, 6185319515, 1607874737, 524610566, 1607874747, 1402604928, 1636873252, 1402604922, 1402604923, 1402604920, 524610577], "tags": {"amenity": "hospital", "emergency": "yes", "name": "Ballarat Base Hospital", "wheelchair": "yes", "wikidata": "Q4851455", "wikipedia": "en:Ballarat Base Hospital"}}, {"type": "way", "id": 42156313, "center": {"lat": -37.5575179, "lon": 143.8461714}, "nodes": [524610584, 1607796463, 1607796467, 1607796468, 1607796466, 1607796459, 1607796452, 524610595, 1607795007, 1607794911, 1402604921, 1402604919, 1417494348, 1607825902, 1402604918, 1402604924, 1402604916, 1402604915, 1402604948, 1402604914, 1402604913, 1607825905, 524610597, 524610584], "tags": {"addr:city": "Ballarat", "addr:country": "AU", "addr:housenumber": "101", "addr:postcode": "3350", "addr:state": "VIC", "addr:street": "Drummond Street North", "amenity": "hospital", "email": "info.ballarat@sjog.org.au", "emergency": "yes", "fax": "+61 3 53331682", "name": "St John of God Hospital", "phone": "+61 3 53202111", "website": "https://www.sjog.org.au/hospitals/ballarat.aspx", "wheelchair": "yes", "wikidata": "Q7593682", "wikipedia": "en:St John of God Hospital Ballarat"}}, {"type": "way", "id": 42744189, "center": {"lat": -37.6912917, "lon": 145.0620371}, "nodes": [534480699, 534480700, 534480701, 10083170846, 10083170859, 534480702, 10083170847, 10083170858, 10083170848, 534480703, 534480706, 5336685888, 10083170841, 534480707, 534480699], "tags": {"amenity": "hospital", "emergency": "private", "healthcare": "hospital", "name": "Northpark Private Hospital", "source": "vicmap", "website": "www.northparkprivatehospital.com.au"}}, {"type": "way", "id": 43419834, "center": {"lat": -37.8156878, "lon": 144.9874394}, "nodes": [547571619, 547571626, 2778777178, 2778777177, 547571634, 547571640, 547571648, 547571649, 547571619], "tags": {"addr:city": "East Melbourne", "addr:housenumber": "29", "addr:postcode": "3002", "addr:street": "Simpson Street", "amenity": "hospital", "building": "yes", "emergency": "no", "healthcare": "hospital", "name": "Epworth Cliveden", "old_name": "Cliveden Hill Private Hospital", "operator": "Epworth HealthCare", "operator:type": "private", "phone": "+61 3 94197122", "website": "https://www.epworth.org.au/our-hospitals/pages/epworth-cliveden.aspx", "wikidata": "Q5384060"}}, {"type": "way", "id": 47528828, "center": {"lat": -38.1574327, "lon": 145.1692688}, "nodes": [605153112, 7412733907, 7412733905, 7412733906, 605153115, 7412733904, 605153122, 605153125, 7412733918, 605153127, 7412733914, 7412733911, 7412733910, 7412733908, 7412733909, 7412733912, 7412733913, 7412733915, 7412733916, 7412733917, 605153129, 605153132, 7412733919, 605153136, 605153139, 605153141, 605153148, 605153150, 605153153, 605153155, 605153157, 605153160, 605153162, 605153164, 605153167, 605153169, 605153171, 605153174, 605153176, 605153178, 605153181, 605153184, 605153187, 605153190, 605153192, 605153201, 605153204, 605153207, 605153210, 605153212, 605153214, 605153216, 605153219, 605153221, 605153223, 605153226, 605153228, 605153230, 605153232, 605153235, 605153237, 605153240, 2172676245, 605153242, 605153245, 605153112], "tags": {"amenity": "hospital", "building": "office"}}, {"type": "way", "id": 48255597, "center": {"lat": -37.9386832, "lon": 145.2129698}, "nodes": [613218481, 613218482, 613218483, 3097993497, 613218486, 613218488, 613218489, 613218491, 613218481], "tags": {"amenity": "hospital", "emergency": "yes", "name": "The Valley Private Hospital", "source": "nearmap", "website": "www.thevalleyprivate.com.au"}}, {"type": "way", "id": 48849606, "center": {"lat": -38.0856449, "lon": 144.3568033}, "nodes": [8664229787, 8664229763, 10112498841, 8664229762, 619753469, 619753470, 619753471, 619753477, 10112498812, 6837136574, 8664229786, 8664229785, 8664229787], "tags": {"addr:housenumber": "155", "addr:postcode": "3214", "addr:state": "VIC", "addr:street": "Princes Highway", "addr:suburb": "Norlane", "amenity": "hospital", "check_date": "27/09/2019", "healthcare": "hospital", "name": "Barwon Health North", "website": "https://barwonhealthnorth.org.au"}}, {"type": "way", "id": 49671384, "center": {"lat": -38.1197673, "lon": 144.3365597}, "nodes": [3103194956, 631408812, 631408804, 631408801, 1081503027, 631408799, 631408793, 2483366902, 1081503051, 631408791, 1081502924, 631408788, 622599648, 622599802, 3103189632, 622599883, 622599882, 3103194956], "tags": {"addr:housenumber": "45 - 95", "addr:street": "Ballarat Road", "alt_name": "Grace McKellar Centre", "amenity": "hospital", "healthcare": "hospital", "name": "McKellar Centre", "operator": "Barwon Health"}}, {"type": "way", "id": 50814298, "center": {"lat": -36.4391099, "lon": 145.2254892}, "nodes": [648078903, 10025959408, 8404550044, 8071933021, 8071933022, 648078913, 648078903], "tags": {"addr:city": "Tatura", "addr:housenumber": "64-68", "addr:postcode": "3616", "addr:street": "Park Street", "amenity": "hospital", "attribution": "Department of Health (VIC)", "emergency": "no", "healthcare": "hospital", "name": "Goulburn Valley Health (Tatura)", "operator": "Goulburn Valley Health", "operator:type": "government", "source": "nearmap", "source:name": "data.australia.gov.au"}}, {"type": "way", "id": 51329555, "center": {"lat": -37.3372263, "lon": 144.1452929}, "nodes": [654992492, 654992494, 654992496, 654992497, 654992492], "tags": {"addr:city": "Daylesford", "addr:housenumber": "13", "addr:postcode": "3460", "addr:street": "Hospital Street", "amenity": "hospital", "attribution": "Department of Human Services", "emergency": "no", "name": "Daylesford Hospital and Nursing Home", "phone": "+61 3 53216500", "source": "nearmap", "source:addr": "data.vic.gov.au"}}, {"type": "way", "id": 51487548, "center": {"lat": -36.3592127, "lon": 145.4109254}, "nodes": [657950181, 657950183, 657950187, 657950191, 657950194, 657950197, 657950181], "tags": {"addr:city": "Shepparton", "addr:housenumber": "20", "addr:postcode": "3630", "addr:street": "Fitzgerald Street", "amenity": "hospital", "attribution": "Department of Health (VIC)", "emergency": "no", "healthcare": "hospital", "name": "Shepparton Private Hospital", "operator": "Ramsay health Care", "operator:type": "private", "source": "nearmap", "source:name": "data.australia.gov.au"}}, {"type": "way", "id": 52673674, "center": {"lat": -36.1318512, "lon": 146.8792483}, "nodes": [668723099, 668723100, 1426721987, 1426721988, 668723103, 668723104, 668723105, 668723106, 668723107, 668723108, 668723099], "tags": {"alt_name": "Wodonga District Hospital", "amenity": "hospital", "emergency": "yes", "healthcare": "hospital", "name": "Wodonga Regional Health Service", "operator": "Albury Wodonga Health", "operator:type": "public"}}, {"type": "way", "id": 53143332, "center": {"lat": -36.3666946, "lon": 144.6972727}, "nodes": [672567304, 5714204915, 672567305, 672567306, 672567307, 672567308, 672567309, 8110307620, 672567304], "tags": {"addr:city": "Rochester", "addr:postcode": "3561", "addr:street": "Pascoe Street", "amenity": "hospital", "attribution": "Department of Health (VIC)", "name": "Rochester and Elmore District Health Service", "phone": "+61 3 54844400", "source": "nearmap", "source:data": "data.australia.gov.au", "website": "https://www.redhs.com.au/"}}, {"type": "way", "id": 54237422, "center": {"lat": -36.348926, "lon": 146.3125365}, "nodes": [7025068729, 683899071, 683899072, 683899073, 683899074, 683899075, 7025068729], "tags": {"addr:city": "Wangaratta", "addr:housenumber": "134-150", "addr:postcode": "3677", "addr:state": "VIC", "addr:street": "Templeton Street", "amenity": "hospital", "attribution": "Department of Health", "emergency": "no", "healthcare": "hospital", "name": "Wangaratta Private Hospital", "source": "nearmap"}}, {"type": "way", "id": 54238205, "center": {"lat": -36.5549959, "lon": 145.9944956}, "nodes": [683933365, 683933366, 7678569094, 7678569088, 5003223332, 5003223333, 5003223330, 5003223327, 5003223324, 5003223325, 683933368, 683933370, 683933373, 5003223343, 5003223346, 5003223373, 5003223370, 5003223369, 5003223366, 5003223365, 5003223362, 5003223360, 683933375, 5003223359, 5003223374, 5003223377, 683933378, 683933380, 683933381, 683933384, 683933388, 683933365], "tags": {"addr:city": "Benalla", "addr:housenumber": "45-63", "addr:postcode": "3672", "addr:street": "Coster Street", "amenity": "hospital", "attribution": "Department of Health", "emergency": "yes", "name": "Benalla and District Memorial Hospital", "phone": "+61 3 57602222", "source": "data.vic.gov.au", "website": "http://www.benallahospital.com.au/"}}, {"type": "way", "id": 54329621, "center": {"lat": -36.75982, "lon": 145.5694044}, "nodes": [684851834, 684851837, 7106670408, 684851839, 684851840, 684851834], "tags": {"addr:city": "Euroa", "addr:housenumber": "36", "addr:postcode": "3666", "addr:state": "VIC", "addr:street": "Kennedy Street", "addr:suburb": "Euroa", "amenity": "hospital", "emergency": "no", "healthcare": "hospital", "name": "Euroa Health", "phone": "+61 3 5795 0200", "website": "https://euroahealth.com.au/"}}, {"type": "way", "id": 55687003, "center": {"lat": -36.3105348, "lon": 146.8457247}, "nodes": [699719360, 2451281071, 2451281018, 699719363, 699719364, 699719365, 699719360], "tags": {"addr:city": "Yackandandah", "addr:housenumber": "20", "addr:postcode": "3749", "addr:street": "Isaacs Avenue", "amenity": "hospital", "attribution": "Department of Human Services", "emergency": "no", "name": "Yackandandah Bush Nursing Hospital", "source": "nearmap", "source:name": "data.vic.gov.au"}}, {"type": "way", "id": 55687287, "center": {"lat": -36.3491879, "lon": 146.6911349}, "nodes": [4079408784, 4925297852, 4925297851, 4925297850, 4079408788, 4079408787, 699723771, 699723772, 9387387263, 699723773, 4079408784], "tags": {"addr:city": "Beechworth", "addr:housenumber": "52", "addr:postcode": "3747", "addr:street": "Sydney Road", "amenity": "hospital", "attribution": "Department of Human Services", "emergency": "no", "name": "Beechworth Health Service", "source": "nearmap", "source:name": "data.vic.gov.au"}}, {"type": "way", "id": 55770420, "center": {"lat": -36.0548627, "lon": 145.2047542}, "nodes": [700649558, 700649559, 700649560, 700649561, 700649558], "tags": {"addr:city": "Nathalia", "addr:housenumber": "Lot 1", "addr:postcode": "3638", "addr:street": "Elizabeth Street", "amenity": "hospital", "emergency": "no", "name": "Nathalia District Hospital", "source": "nearmap", "source:name": "data.vic.gov.au"}}, {"type": "way", "id": 55770489, "center": {"lat": -36.1000331, "lon": 145.4435742}, "nodes": [700651268, 700651269, 700651270, 700651271, 700651272, 700651273, 700651275, 700651276, 700651277, 700651278, 700651279, 700651268], "tags": {"addr:city": "Numurkah", "addr:housenumber": "2", "addr:postcode": "3636", "addr:street": "Katamatite Road", "amenity": "hospital", "attribution": "Department of Human Services", "name": "Numurkah District Health Service", "phone": "+61 3 58620555", "source": "nearmap", "source:addr": "data.vic.gov.au", "website": "http://www.numurkahhospital.org.au/"}}, {"type": "way", "id": 56019615, "center": {"lat": -37.2135471, "lon": 145.4308687}, "nodes": [703162259, 703162261, 703162262, 703162263, 703162264, 703162266, 703162267, 703162268, 703162269, 703162259], "tags": {"addr:city": "Yea", "addr:housenumber": "45", "addr:postcode": "3717", "addr:street": "Station Street", "amenity": "hospital", "attribution": "Department of Health", "emergency": "no", "healthcare": "hospital", "name": "Yea and District Memorial Hospital", "phone": "+61 3 57360400", "source": "nearmap", "source:addr": "data.vic.gov.au", "website": "https://yeahospital.org.au/"}}, {"type": "way", "id": 56191265, "center": {"lat": -37.1949719, "lon": 145.7166014}, "nodes": [705094949, 5268726357, 705094950, 2075733022, 705094953, 705094955, 705094957, 7888511300, 7888511311, 705094960, 705094963, 705094965, 705094968, 3128852720, 705094970, 705094949], "tags": {"addr:city": "Alexandra", "addr:housenumber": "12", "addr:postcode": "3714", "addr:street": "Cooper Street", "amenity": "hospital", "attribution": "Department of Human Services", "emergency": "no", "name": "Alexandra District Health", "old_name": "Alexandra District Hospital", "source": "nearmap", "source:addr": "data.vic.gov.au", "website": "http://www.alexandrahospital.org.au/"}}, {"type": "way", "id": 56191549, "center": {"lat": -36.5876225, "lon": 145.0085271}, "nodes": [705113000, 793801248, 793801196, 705113003, 705113004, 705113006, 705113008, 705113009, 705113011, 705113018, 705113000], "tags": {"addr:city": "Rushworth", "addr:housenumber": "14", "addr:postcode": "3612", "addr:street": "Coyle Street", "amenity": "hospital", "emergency": "no", "healthcare": "hospital", "name": "Waranga Memorial Hospital (Goulburn Valley Health)"}}, {"type": "way", "id": 57903063, "center": {"lat": -37.763531, "lon": 145.0310364}, "nodes": [718580400, 718580401, 718580402, 718580404, 718580400], "tags": {"addr:city": "Ivanhoe", "addr:housenumber": "134-142", "addr:postcode": "3079", "addr:street": "Ford Street", "amenity": "hospital", "emergency": "no", "name": "North Eastern Rehabilitation Centre", "phone": "+61 3 94748900", "website": "http://www.northeasternrehabilitationcentre.com.au/"}}, {"type": "way", "id": 58187331, "center": {"lat": -37.7982756, "lon": 144.9571111}, "nodes": [721691427, 721691428, 721691429, 721691430, 721691431, 721691432, 2528833996, 11230383740, 11230383739, 721691433, 721691427], "tags": {"addr:housenumber": "1F", "addr:postcode": "3052", "addr:state": "VIC", "addr:street": "Royal Parade", "addr:suburb": "Parkville", "amenity": "hospital", "building": "yes", "emergency": "no", "fax": "+61 3 9341 3421", "healthcare": "hospital", "healthcare:speciality": "cardiology;neurosurgery;oncology;orthopaedics", "layer": "1", "name": "Melbourne Private Hospital", "operator": "Healthscope", "operator:type": "private", "phone": "+61 3 8341 3400", "source": "nearmap", "website": "https://melbourneprivatehospital.com.au/"}}, {"type": "way", "id": 58404174, "center": {"lat": -37.5532312, "lon": 143.8450993}, "nodes": [724163978, 724163980, 1139483765, 724163982, 724163984, 724163986, 10554094130, 724163988, 724163990, 724163992, 724163994, 724163978], "tags": {"amenity": "hospital", "healthcare": "hospital", "name": "Nazareth House Aged Care", "source": "survey"}}, {"type": "way", "id": 58974175, "center": {"lat": -37.2547667, "lon": 144.4698525}, "nodes": [730792397, 730792398, 730792403, 730792404, 730792406, 730792407, 730792408, 730792409, 730792411, 730792412, 730792397], "tags": {"addr:city": "Kyneton", "addr:housenumber": "7-25", "addr:postcode": "3444", "addr:street": "Caroline Chisholm Drive", "amenity": "hospital", "attribution": "Department of Human Services", "emergency": "no", "healthcare": "hospital", "name": "Kyneton District Health Service", "phone": "+61 3 54229900", "source:addr": "data.vic.gov.au", "website": "http://www.kynetonhealth.org.au/"}}, {"type": "way", "id": 59525615, "center": {"lat": -37.9118012, "lon": 144.9911812}, "nodes": [738190272, 738190278, 738190279, 740299809, 738190280, 738190281, 738190282, 738190283, 738190272], "tags": {"addr:city": "Brighton", "addr:housenumber": "243", "addr:postcode": "3186", "addr:street": "New Street", "amenity": "hospital", "emergency": "no", "healthcare": "hospital", "name": "Brighton Cabrini", "phone": "+61 3 9508 5888"}}, {"type": "way", "id": 62344619, "center": {"lat": -37.7989136, "lon": 144.9550081}, "nodes": [274551389, 11230366396, 2528833960, 2528833961, 274551049, 778842934, 778842936, 778842938, 35990078, 274551048, 274551047, 11230454251, 274551046, 778842162, 2528833955, 11230454254, 11230454255, 2528833956, 11230383764, 778840751, 11230454253, 778840701, 2528833958, 778840703, 35990075, 274551389], "tags": {"amenity": "hospital", "healthcare": "hospital", "name": "Royal Women's Hospital", "name:fr": "H\u00f4pital Royal pour femmes", "note": "women's hospital", "phone": "+61 3 83452000", "website": "https://www.thewomens.org.au/", "wikidata": "Q7375028"}}, {"type": "way", "id": 62356732, "center": {"lat": -38.0449153, "lon": 145.3477591}, "nodes": [778918359, 778918362, 778918364, 7409096513, 10722900708, 10722900709, 7409096514, 10722900706, 778918366, 778918368, 10722900696, 10722900695, 10722900694, 10722900698, 10722900697, 778918370, 10722900693, 1214846660, 10722900692, 778918372, 10722900691, 1214846698, 10722900690, 10722900659, 778918375, 9234169970, 10722900621, 10722900648, 9234240677, 778912332, 10722900626, 9234169971, 10722900647, 10722900627, 10722900628, 10722900629, 778918377, 10722900630, 778918384, 778918359], "tags": {"amenity": "hospital", "emergency": "yes", "healthcare": "hospital", "name": "Casey Hospital", "operator": "Southern Health", "source": "nearmap", "url": "http://www.southernhealth.org.au/page/Hospitals/Caseyhospital/", "wikidata": "Q88488249"}}, {"type": "way", "id": 64613757, "center": {"lat": -36.5879123, "lon": 145.0084967}, "nodes": [793801217, 793801246, 793801206, 793801194, 793801247, 793801207, 793801162, 793801176, 793801227, 793801184, 793801236, 793801253, 793801214, 793801169, 793801220, 793801232, 793801190, 793801242, 793801217], "tags": {"amenity": "hospital", "building": "yes", "healthcare": "hospital", "name": "Warranga Hospital"}}, {"type": "way", "id": 67145045, "center": {"lat": -37.8114049, "lon": 145.2437941}, "nodes": [811028806, 9116045250, 3095092636, 811028807, 811028809, 811028810, 9116045244, 811028811, 811028812, 811028813, 811028814, 811028806], "tags": {"addr:housenumber": "36", "addr:postcode": "3135", "addr:state": "VIC", "addr:street": "Mount Dandenong Road", "addr:suburb": "Ringwood East", "amenity": "hospital", "emergency": "no", "healthcare": "hospital", "layer": "1", "name": "Ringwood Private Hospital", "source": "nearmap"}}, {"type": "way", "id": 74688930, "center": {"lat": -38.1516366, "lon": 144.3578379}, "nodes": [882325865, 882325849, 882325834, 2722453342, 882325863, 882325857, 882325861, 882325867, 882325873, 7889251679, 882325865], "tags": {"addr:housenumber": "80", "addr:street": "Myers Street", "amenity": "hospital", "designation": "Private Hospital", "emergency": "yes", "healthcare": "hospital", "name": "St John of God Hospital", "website": "https://www.sjog.org.au/hospitals/geelong.aspx", "wikidata": "Q7593689", "wikipedia": "en:St John of God Geelong Hospital"}}, {"type": "way", "id": 89532698, "center": {"lat": -38.1823884, "lon": 144.39339}, "nodes": [1037977065, 1037976854, 1037976973, 1037977098, 1037977219, 1037976805, 1037977065], "tags": {"amenity": "hospital", "name": "Geelong Clinic", "source": "nearmap"}}, {"type": "way", "id": 92031905, "center": {"lat": -37.2786493, "lon": 142.9328222}, "nodes": [1069129031, 3355432300, 3355432306, 8009763290, 3355432304, 3355432999, 1069129035, 3355432302, 1069129030, 1069129032, 1069129031], "tags": {"amenity": "hospital", "name": "East Grampians Health Service", "source": "knowledge", "website": "https://eghs.net.au/"}}, {"type": "way", "id": 94670969, "center": {"lat": -37.7895278, "lon": 145.023268}, "nodes": [299022765, 1099148075, 1099148077, 4323042832, 4323042846, 4323042865, 1793940836, 1099148080, 4323043193, 4323043199, 1793940800, 1099148076, 1793946463, 1793946452, 1793946471, 299022757, 4385196097, 1793946477, 1793946458, 4323042178, 299022758, 299022759, 299022765], "tags": {"addr:city": "Kew", "addr:country": "AU", "addr:housename": "Royal Talbot Rehabilitation Centre", "addr:housenumber": "1", "addr:state": "VIC", "addr:street": "Yarra Boulevard", "amenity": "hospital", "email": "Royal.Talbot@austin.org.au", "emergency": "no", "fax": "+61-3-94907501", "healthcare": "hospital", "name": "Royal Talbot Rehabilitation Centre", "note": "Referrals phone: +61-3-94907577", "operator": "Austin Health", "phone": "+61-3-94965000", "source": "vicmap", "website": "http://www.austin.org.au/royal-talbot-rehabilitation-centre", "wheelchair": "yes"}}, {"type": "way", "id": 96668840, "center": {"lat": -36.7127994, "lon": 142.2088921}, "nodes": [1119597425, 1119597373, 1119597417, 1119597420, 1119597387, 1119597384, 5978136428, 5978136429, 5978136430, 5978136427, 1119597369, 1119597404, 1119597429, 1119597431, 1119597425], "tags": {"addr:housenumber": "83", "addr:street": "Baillie Street", "amenity": "hospital", "emergency": "yes", "full_name": "Wimmera Health Care Group: Horsham Campus", "healthcare": "hospital", "landuse": "commercial", "name": "Wimmera Base Hospital", "source": "nearmap"}}, {"type": "way", "id": 97923439, "center": {"lat": -37.9207641, "lon": 145.0638995}, "nodes": [1133425273, 8004945769, 8004945758, 1133425275, 1133425278, 8004966988, 8004945757, 1133425284, 8004945751, 1133425282, 8004945750, 1133425280, 8004945770, 1133425273], "tags": {"amenity": "hospital", "emergency": "no", "name": "Monash Medical Centre Moorabbin", "website": "http://www.southernhealth.org.au/page/Hospitals/Monash_Medical_Centre_Moorabbin"}}, {"type": "way", "id": 99998610, "center": {"lat": -37.7546344, "lon": 145.0609121}, "nodes": [1156203468, 11204050675, 1156203496, 1156203503, 1156203491, 1156203495, 1156203483, 1615227731, 1156203468], "tags": {"addr:city": "Heidelberg", "addr:housenumber": "216", "addr:street": "Burgundy Street", "amenity": "hospital", "emergency": "no", "healthcare": "hospital", "name": "Warringal Private Hospital", "operator": "Ramsay Health Care", "phone": "+61 3 92741300", "website": "https://www.warringalprivate.com.au/", "wheelchair": "yes"}}, {"type": "way", "id": 103943339, "center": {"lat": -37.0575825, "lon": 146.0861213}, "nodes": [1199770617, 6555519199, 6555519198, 6555519194, 6555519195, 6555519197, 6555519196, 1199770617], "tags": {"addr:housenumber": "53", "addr:street": "Highett St8", "amenity": "hospital", "name": "Mansfield District Hospital"}}, {"type": "way", "id": 107640692, "center": {"lat": -36.2133741, "lon": 147.1835489}, "nodes": [1236740300, 1236740478, 3031237422, 1236740286, 3031238144, 1236740282, 1236740476, 1236740303, 3031238139, 1236740480, 1236740312, 1236740269, 1236740296, 1236740270, 1236740300], "tags": {"amenity": "hospital", "name": "Tallangatta Health Service"}}, {"type": "way", "id": 112554668, "center": {"lat": -37.756879, "lon": 145.0593209}, "nodes": [1279003444, 1279003472, 1279003485, 11021414271, 11021414272, 11021414273, 11021414301, 11021414302, 11021414303, 11021414300, 11021414299, 11021414298, 11021414297, 11021414296, 11021414294, 1256644326, 1256644317, 1256644318, 1279003519, 11021414286, 1256644319, 11021414288, 11021414289, 11021414290, 11021414285, 11021414284, 1279003501, 11021414283, 11021414282, 11021414280, 11021414281, 11021414279, 11046256291, 11021414278, 1279003447, 1279003503, 11021414277, 11021414276, 11021414275, 11021414274, 1279003444], "tags": {"amenity": "hospital", "building": "hospital", "building:levels": "7", "healthcare": "hospital", "name": "Olivia Newton-John Cancer and Wellness Centre"}}, {"type": "way", "id": 116778899, "center": {"lat": -37.0593531, "lon": 142.7814653}, "nodes": [1315709206, 1315709211, 1315709204, 3331276641, 811349042, 1315709213, 4677425183, 1315709218, 1315709205, 1315709203, 3331276721, 1315709216, 1315709215, 1315709206], "tags": {"amenity": "hospital", "emergency": "yes", "name": "Stawell District Hospital", "website": "https://www.srh.org.au/"}}, {"type": "way", "id": 120493258, "center": {"lat": -37.8669157, "lon": 145.0607088}, "nodes": [1351007148, 1351007144, 1351007145, 1351007147, 1351007146, 1351007148], "tags": {"amenity": "hospital", "name": "Malvern Private Hospital", "source": "Bing"}}, {"type": "way", "id": 120623418, "center": {"lat": -38.1089016, "lon": 147.0809089}, "nodes": [1352102738, 1352102747, 1352102740, 1352102748, 3110936415, 3110936412, 1352102739, 1352102738], "tags": {"addr:city": "Sale", "addr:postcode": "3850", "addr:street": "Guthridge Parade", "alt_name": "Central Gippsland Health Service [Sale]", "amenity": "hospital", "emergency": "yes", "name": "Gippsland Base Hospital", "operator": "Central Gippsland Health Service"}}, {"type": "way", "id": 126552820, "center": {"lat": -37.5635116, "lon": 143.8426697}, "nodes": [1402641262, 1402641247, 1636816136, 1402642267, 1402642240, 1636816153, 1636816155, 1402642193, 1636816208, 1402642169, 1402641262], "tags": {"addr:city": "Ballarat", "addr:country": "AU", "addr:housenumber": "102", "addr:postcode": "3350", "addr:state": "VIC", "addr:street": "Ascot Street South", "amenity": "hospital", "name": "Queen Elizabeth Centre", "operator": "Ballarat Health Services", "website": "https://www.bhs.org.au/", "wikidata": "Q7270313", "wikipedia": "en:Queen Elizabeth Centre, Ballarat"}}, {"type": "way", "id": 127478931, "center": {"lat": -37.85557, "lon": 145.2688589}, "nodes": [1410856999, 1410857002, 1410856988, 1410856990, 1410856999], "tags": {"addr:housenumber": "157", "addr:postcode": "3155", "addr:state": "VIC", "addr:street": "Scoresby Road", "addr:suburb": "Boronia", "amenity": "hospital", "healthcare": "hospital", "name": "The Melbourne Eastern Private Hospital"}}, {"type": "way", "id": 131476925, "center": {"lat": -38.2186793, "lon": 146.4721033}, "nodes": [1446878177, 5417749507, 5417749505, 5417749506, 5417749504, 5417749503, 1446878149, 1446878188, 3442718097, 3442718095, 1446878187, 1446878177], "tags": {"amenity": "hospital", "emergency": "yes", "healthcare": "hospital", "name": "Latrobe Regional Hospital", "website": "https://lrh.com.au/", "wikidata": "Q30280658"}}, {"type": "way", "id": 132510713, "center": {"lat": -38.4876263, "lon": 145.9504979}, "nodes": [1457526495, 1457526525, 1457526511, 1457526500, 1457526512, 1457526522, 1457526521, 1457526494, 1457526495], "tags": {"alt_name": "Gippsland Southern Health Service [Leongatha]", "amenity": "hospital", "name": "Leongatha Memorial Hospital", "website": "https://www.gshs.com.au/"}}, {"type": "way", "id": 135642318, "center": {"lat": -38.157646, "lon": 145.1689877}, "nodes": [1489452602, 5314524049, 3269608913, 5314524064, 3665789351, 5314524062, 1489452601, 1489452600, 3665789355, 1489452599, 1489452597, 1489452598, 1489452602], "tags": {"amenity": "hospital", "emergency": "yes", "name": "Peninsula Private Hospital", "website": "https://www.peninsulaph.com.au/"}}, {"type": "way", "id": 140637129, "center": {"lat": -38.2393505, "lon": 142.9020499}, "nodes": [1540355636, 1540355637, 1540355635, 1540355634, 1540355636], "tags": {"amenity": "hospital", "healthcare": "hospital", "name": "Terang & Mortlake Health Services"}}, {"type": "way", "id": 140642845, "center": {"lat": -38.3324466, "lon": 143.0758189}, "nodes": [1684139634, 1540420586, 1540420587, 1540420588, 1684139634], "tags": {"amenity": "hospital", "name": "Cobden Hospital"}}, {"type": "way", "id": 141913324, "center": {"lat": -38.1813029, "lon": 144.3385468}, "nodes": [1553405304, 1553405319, 1553405309, 1553405307, 2722572062, 1553405304], "tags": {"addr:city": "Belmont", "addr:country": "AU", "addr:housenumber": "120", "addr:postcode": "3216", "addr:state": "VIC", "addr:street": "Settlement Road", "amenity": "hospital", "fax": "+61 3 52432756", "healthcare": "hospital", "name": "Barwon Health - Community Rehabilitation Centre", "opening_hours": "Mo-Fr 08:00-16:30; PH off", "phone": "+61 3 52603290"}}, {"type": "way", "id": 141913570, "center": {"lat": -38.1892604, "lon": 144.326035}, "nodes": [1553410071, 1553410054, 1553410031, 1553410082, 1553410098, 1553410044, 11277389403, 1553410058, 1553410100, 1553410068, 1553410008, 1553410027, 1553410050, 1553410009, 1553410029, 1553410052, 1553410081, 1553410084, 1553410096, 1553410026, 1553410007, 1553410094, 1553410077, 1553410005, 1553410092, 1553410074, 1553410047, 1553410056, 1553410040, 1553410018, 1553410103, 1553410033, 1553410011, 1553410102, 1553410083, 1553410010, 1553410105, 1553410060, 1553410087, 1553410002, 1553410022, 1553410089, 1553410004, 1553410024, 1553410071], "tags": {"addr:city": "Belmont", "addr:country": "AU", "addr:housenumber": "1 - 17", "addr:postcode": "3216", "addr:state": "VIC", "addr:street": "Reynolds Road", "amenity": "hospital", "healthcare": "hospital", "name": "Belmont Community Health Centre", "note": "Wednesday 9am-1pm (by appointment only), Wednesday and Friday 1.30pm to 4.45pm (no appoinment required), Saturday mornings 9.00 - 11.45am by appointment only.", "phone": "+61 3 52267176"}}, {"type": "way", "id": 143665654, "center": {"lat": -38.3036793, "lon": 145.189635}, "nodes": [1572247531, 1572247533, 1572247535, 1572247532, 1572247534, 1572247531], "tags": {"amenity": "hospital", "healthcare": "hospital", "name": "The Bays Hospital"}}, {"type": "way", "id": 149637251, "center": {"lat": -37.5408439, "lon": 143.832199}, "nodes": [1625955230, 1625955232, 1625845917, 1625845695, 1625845677, 1625955672, 1625955670, 1625955221, 1625955219, 1625845668, 1625955669, 5007201864, 1625955666, 5007201865, 1625955665, 1625955668, 1625955667, 1625955664, 1625845663, 1625845907, 5007201863, 5007201862, 1625955688, 1625955685, 5007201861, 1625845953, 1625955230], "tags": {"addr:city": "Ballarat", "addr:country": "AU", "addr:housenumber": "1119-1123", "addr:postcode": "3350", "addr:state": "VIC", "addr:street": "Howitt Street", "amenity": "hospital", "building": "yes", "name": "Ballarat Day Procedural Centre", "phone": "+61 3 53382666"}}, {"type": "way", "id": 153513681, "center": {"lat": -37.8527443, "lon": 145.1645738}, "nodes": [10292298665, 628488703, 628489395, 628489399, 628489402, 628489405, 628489409, 628547418, 628547419, 628547404, 628547405, 628547406, 628547408, 628547382, 628547383, 628547384, 628547385, 628547369, 261345945, 628547370, 628547367, 628547368, 261345939, 10292298665], "tags": {"amenity": "hospital", "healthcare": "hospital"}}, {"type": "way", "id": 158029744, "center": {"lat": -38.1731361, "lon": 145.1493226}, "nodes": [1702683670, 1702682788, 364863659, 10036236841, 364863663, 1704171293, 1704171353, 1702683670], "tags": {"addr:housenumber": "125", "addr:postcode": "3199", "addr:street": "Golf Links Road", "amenity": "hospital", "healthcare": "hospital", "name": "Golf Links Road Rehabilitation Centre", "website": "https://www.peninsulahealth.org.au/locations/golf-links-road-rehabilitation-centre/"}}, {"type": "way", "id": 158308079, "center": {"lat": -38.2304515, "lon": 145.0410907}, "nodes": [1705344866, 9526670108, 278911286, 9526670105, 9526670092, 1705344949, 9580412693, 9526670068, 9577786684, 9577786680, 9577786698, 9526670069, 9526670070, 7847804358, 1705344970, 9526670088, 9526670087, 9577786972, 3430759173, 1705344866], "tags": {"addr:housenumber": "24", "addr:street": "Separation Street", "amenity": "hospital", "emergency": "no", "healthcare": "hospital", "name": "The Mornington Centre", "website": "https://www.peninsulahealth.org.au/locations/mornington-centre/"}}, {"type": "way", "id": 162347888, "center": {"lat": -38.1726046, "lon": 144.3955008}, "nodes": [1742558151, 1742558150, 1742558148, 1742558149, 3155758266, 1742558151], "tags": {"amenity": "hospital", "name": "Barwon Health - Newcomb"}}, {"type": "way", "id": 164675865, "center": {"lat": -38.2006794, "lon": 145.4842578}, "nodes": [3440959725, 3440959696, 1762945599, 1762945594, 3440959725], "tags": {"amenity": "hospital", "emergency": "no", "healthcare": "hospital", "name": "Koo Wee Rup Hospital", "website": "https://kooweeruphospital.net.au/"}}, {"type": "way", "id": 166549401, "center": {"lat": -37.8313765, "lon": 147.6077027}, "nodes": [1779976515, 1779976527, 1779976502, 1779976488, 1779976504, 1779976485, 1779976524, 1779976487, 1779976483, 1779976514, 1779976513, 1779976500, 1779976499, 1779976497, 1779976492, 1779976517, 1779976523, 1779976480, 1779976525, 1779976481, 1779976518, 1779976519, 1779976522, 1779976479, 1779976520, 1779976494, 1779976521, 1779976495, 1779976478, 1779976516, 1779976477, 1779976490, 1779976515], "tags": {"amenity": "hospital", "building": "yes", "emergency": "yes", "name": "Bairnsdale Regional Health Service", "website": "https://www.brhs.com.au/"}}, {"type": "way", "id": 174881688, "center": {"lat": -31.9475314, "lon": 141.4544354}, "nodes": [1855282452, 9406175045, 1855282450, 9467515216, 1855282453, 9467548417, 3998255855, 3998255843, 1855282451, 10536258178, 9406175046, 9406175043, 6308064976, 9406175044, 1855282452], "tags": {"amenity": "hospital", "emergency": "yes", "healthcare": "hospital", "name": "Broken Hill Base Hospital", "website": "https://www.healthdirect.gov.au/australian-health-services/20056182/broken-hill-base-hospital/services/broken-hill-2880-thomas"}}, {"type": "way", "id": 175988933, "center": {"lat": -35.7241839, "lon": 147.3202922}, "nodes": [1865536447, 1775814222, 1775814200, 1863843691, 9419621607, 1863843690, 1865536447], "tags": {"addr:city": "Holbrook", "addr:country": "AU", "addr:postcode": "2644", "addr:state": "NSW", "addr:street": "Bowler Street", "amenity": "hospital", "emergency": "yes", "fax": "+61-2-60362782", "healthcare": "hospital", "name": "Holbrook Hospital", "phone": "+61-2-60362522"}}, {"type": "way", "id": 176174104, "center": {"lat": -33.4061669, "lon": 149.5722462}, "nodes": [889605590, 862649053, 889605557, 8815918050, 8815918049, 8815918052, 8815918053, 8815918051, 862649119, 340367870, 889605665, 889605590], "tags": {"addr:city": "Bathurst", "addr:country": "AU", "addr:housenumber": "361-365", "addr:postcode": "2795", "addr:state": "NSW", "addr:street": "Howick Street", "alt_name": "Bathurst Base Hospital", "amenity": "hospital", "contact:phone": "+61 2 6330 5311", "contact:website": "http://www.myhospitals.gov.au/hospital/1157L2010/bathurst-hospital", "emergency": "yes", "healthcare": "hospital", "hospital:type": "public", "name": "Bathurst Hospital"}}, {"type": "way", "id": 178259147, "center": {"lat": -36.1383484, "lon": 144.7475568}, "nodes": [1886305482, 1886305480, 1886305478, 1886305479, 1886305482], "tags": {"amenity": "hospital", "emergency": "yes", "healthcare": "hospital", "name": "Echuca Regional Health", "website": "www.erh.org.au"}}, {"type": "way", "id": 178735795, "center": {"lat": -37.3019393, "lon": 144.9581572}, "nodes": [1890932664, 1890932638, 1890932642, 1890932649, 1890932667, 1890932633, 1890932677, 1890932681, 1890932679, 1890932664], "tags": {"addr:city": "Kilmore", "addr:housenumber": "1", "addr:postcode": "3764", "addr:street": "Rutledge Street", "amenity": "hospital", "emergency": "yes", "name": "Kilmore & District Hospital", "phone": "+61 3 57342000", "source": "Bing", "website": "https://www.kilmoredistricthospital.org.au/"}}, {"type": "way", "id": 179102074, "center": {"lat": -35.3467658, "lon": 149.102109}, "nodes": [1894432942, 1894432946, 8898877280, 8898877271, 8898877272, 8898877275, 8898877277, 8898877279, 8898877273, 8557046028, 1894433028, 2087121770, 1894433026, 2209235245, 2209235220, 2209235205, 7125227948, 2209235261, 1894433024, 1894433015, 1894432985, 1894432979, 1894432978, 1894432955, 1894432944, 6592296962, 1894432940, 1894432938, 1894432942], "tags": {"amenity": "hospital", "area": "yes", "emergency": "yes", "healthcare": "hospital", "name": "Canberra Hospital", "operator": "Canberra Health Services", "operator:wikidata": "Q110249215", "website": "https://www.health.act.gov.au/hospitals-and-health-centres", "wikidata": "Q5031265"}}, {"type": "way", "id": 179411627, "center": {"lat": -36.7618366, "lon": 144.2635971}, "nodes": [1897826106, 10696887867, 10696887872, 10696887871, 1897826105, 10696887870, 10696887869, 10696887868, 10696887873, 1897826109, 1897826110, 1897826106], "tags": {"addr:housenumber": "133 - 145", "addr:postcode": "3550", "addr:state": "VIC", "addr:street": "Lily Street", "addr:suburb": "Bendigo", "amenity": "hospital", "emergency": "no", "healthcare": "hospital", "name": "St John of God Bendigo Hospital", "operator": "St John of God Healthcare", "operator:type": "religious"}}, {"type": "way", "id": 182807929, "center": {"lat": -37.9608788, "lon": 145.018102}, "nodes": [1026011860, 1931499549, 1931499557, 6222417148, 1931499564, 1931499559, 1931499555, 1931499543, 1931499544, 1931499573, 1931499546, 1931499568, 6222417103, 6222417236, 1931759101, 1931759103, 1931759100, 6222417174, 6222417178, 1931759102, 6222417131, 1931499567, 355357208, 1931493932, 1021500380, 761849591, 761849590, 761849589, 1931493911, 1931493944, 1026011860], "tags": {"addr:city": "Sandringham", "addr:housenumber": "193", "addr:postcode": "3191", "addr:state": "VIC", "addr:street": "Bluff Road", "addr:suburb": "Sandringham", "amenity": "hospital", "emergency": "yes", "healthcare": "hospital", "healthcare:speciality": "general;emergency;paediatrics;surgery;orthopaedics", "name": "Sandringham & District Memorial Hospital", "operator": "Alfred Health", "operator:type": "public", "phone": "+61390761000", "website": "https://www.alfredhealth.org.au/sandringham"}}, {"type": "way", "id": 183857711, "center": {"lat": -36.0784572, "lon": 146.9381363}, "nodes": [1942756620, 8882797648, 1942756615, 1942756626, 1942756621, 1942756617, 1942756624, 1942756622, 1942756625, 1942756618, 1942756623, 1942756629, 1942756627, 1942756630, 1942756614, 3003932585, 1942756619, 1942756620], "tags": {"amenity": "hospital", "emergency": "yes", "healthcare": "hospital", "name": "Albury Base Hospital", "website": "https://www.awh.org.au/About-Us"}}, {"type": "way", "id": 188745684, "center": {"lat": -37.7369881, "lon": 142.0310146}, "nodes": [1993657251, 1993657246, 1993657248, 1993657247, 1993657250, 1993657245, 1993657244, 1993657252, 1993657249, 1993657251], "tags": {"amenity": "hospital", "emergency": "yes", "name": "Hamilton Base Hospital", "operator": "Western District Health Service", "source": "AGRI", "website": "http://www.wdhs.net"}}, {"type": "way", "id": 190582877, "center": {"lat": -35.7238648, "lon": 143.9178256}, "nodes": [2012287016, 2012287026, 2012287028, 2012287024, 2012287022, 2012287011, 8894902891, 2012287014, 8894902892, 2012287018, 2012287020, 2012287016], "tags": {"amenity": "hospital", "emergency": "no", "name": "Kerang District Health"}}, {"type": "way", "id": 190697775, "center": {"lat": -37.8478799, "lon": 145.1140729}, "nodes": [2013375313, 2013375312, 2013375314, 2013375311, 2013375313], "tags": {"amenity": "hospital", "building": "yes", "building:levels": "2", "emergency": "no", "name": "Medical Centre", "source": "Survey http://goo.gl/7JHlu"}}, {"type": "way", "id": 192849484, "center": {"lat": -36.5719833, "lon": 143.8737725}, "nodes": [2033951216, 2033951211, 2033951205, 2033951203, 5402825952, 5402825941, 2033951206, 2033951220, 2033951236, 2033951242, 5402826135, 5402825951, 5402826009, 2033951243, 2033951239, 2033951216], "tags": {"amenity": "hospital", "healthcare": "hospital", "name": "Inglewood Hospital"}}, {"type": "way", "id": 192884557, "center": {"lat": -37.4311502, "lon": 143.3824179}, "nodes": [2034262894, 2034262996, 2034263021, 2034262942, 2034821683, 2034262894], "tags": {"addr:city": "Beaufort", "addr:country": "AU", "addr:housenumber": "28", "addr:postcode": "3373", "addr:state": "VIC", "addr:street": "Havelock Street", "amenity": "hospital", "email": "bashs@bashs.org.au", "name": "Beaufort Hospital", "operator": "Beaufort & Skipton Health Service", "phone": "+61-3-53491625", "phone:hospital": "+61-3-53491600", "phone:hostel": "+61-3-53491623", "phone:medical_practice": "+61-3-53491610", "phone:nursing_home": "+61-3-53491624", "smoking": "no", "source": "bing", "source:name": "survey", "website": "http://www.bashs.org.au/", "wheelchair": "yes"}}, {"type": "way", "id": 197277666, "center": {"lat": -36.3666367, "lon": 142.9763509}, "nodes": [2075465012, 2075464993, 2075464990, 2075465001, 2075464991, 2075465003, 2075465012], "tags": {"amenity": "hospital", "name": "East Wimmera Health Service - Donald Campus"}}, {"type": "way", "id": 197451936, "center": {"lat": -38.7538618, "lon": 143.6640055}, "nodes": [2076934253, 2076934255, 2076934251, 2076934249, 2076934253], "tags": {"addr:city": "Apollo Bay", "addr:housenumber": "37-43", "addr:postcode": "3233", "addr:state": "VIC", "addr:street": "McLachlan Street", "alt_name": "Apollo Bay Hospital", "amenity": "hospital", "contact:phone": "+61 3 52378500", "name": "Otway Health & Community Services Apollo Bay", "operator": "South West Alliance of Rural Health", "source": "Bing"}}, {"type": "way", "id": 197853012, "center": {"lat": -37.5901747, "lon": 141.3923568}, "nodes": [2080503797, 2080503803, 2080503806, 2080503800, 2080503797], "tags": {"addr:city": "Casterton", "addr:housenumber": "63\u201369", "addr:postcode": "3311", "addr:state": "VIC", "addr:street": "Russell Street", "amenity": "hospital", "contact:phone": "+61 3 55542555", "contact:website": "http://www.cmh.org.au/", "name": "Casterton Memorial Hospital", "operator": "South West Alliance of Rural Health", "source": "Bing"}}, {"type": "way", "id": 200384051, "center": {"lat": -37.5636617, "lon": 149.151655}, "nodes": [2103789122, 2103789108, 2103789110, 2103789112, 2103789107, 2103789122], "tags": {"addr:city": "Cann River", "addr:housenumber": "27", "addr:postcode": "3890", "addr:street": "Monaro Highway", "amenity": "hospital", "email": "cvbncadmin@gha.net.au", "emergency": "no", "name": "Cann Valley Bush Nursing Centre", "phone": "+61 3 51586274", "source": "Bing"}}, {"type": "way", "id": 200882123, "center": {"lat": -38.6048803, "lon": 145.5878939}, "nodes": [2108417954, 2108417951, 2108417952, 2108417953, 2108417954], "tags": {"amenity": "hospital", "building": "yes", "emergency": "no", "healthcare": "hospital", "name": "Wonthaggi Medical Centre"}}, {"type": "way", "id": 201073947, "center": {"lat": -30.9452834, "lon": 149.0664992}, "nodes": [2110316904, 2110316905, 2110316877, 9451368706, 9451368705, 2110316874, 2110316904], "tags": {"alt_name": "Baradine Multi Purpose Service", "amenity": "hospital", "emergency": "yes", "healthcare": "hospital", "name": "Baradine Hospital"}}, {"type": "way", "id": 201084041, "center": {"lat": -31.2746306, "lon": 149.2843418}, "nodes": [2110409154, 9873562922, 9873562923, 9873562924, 2110409158, 2110409160, 2110409131, 2110409155, 9448633355, 2110409154], "tags": {"alt_name": "Coonabarabran Health Service", "amenity": "hospital", "emergency": "yes", "healthcare": "hospital", "name": "Coonabarabran Hospital"}}, {"type": "way", "id": 202901843, "center": {"lat": -35.3197588, "lon": 149.095603}, "nodes": [2128373937, 2128373936, 2128373879, 2130405537, 2128373937], "tags": {"amenity": "hospital", "emergency": "no", "healthcare": "hospital", "name": "John James Healthcare Campus"}}, {"type": "way", "id": 203432526, "center": {"lat": -31.8215353, "lon": 149.7099862}, "nodes": [2134461642, 4681483119, 2134461546, 2134461562, 2134461651, 2134461642], "tags": {"addr:housenumber": "111-135", "addr:postcode": "2843", "addr:state": "NSW", "addr:street": "Martin Street", "addr:suburb": "Coolah", "alt_name": "Coolah Multi Purpose Service", "amenity": "hospital", "emergency": "yes", "fax": "+61 2 6377 9181", "healthcare": "hospital", "name": "Coolah Hospital", "operator": "Western NSW Local Health District", "operator:type": "public", "phone": "+61 2 6377 9100", "website": "https://www.nsw.gov.au/health/wnswlhd/service-directory/coolah-health-service", "wheelchair": "yes"}}, {"type": "way", "id": 213482233, "center": {"lat": -36.9255596, "lon": 144.708717}, "nodes": [2231689755, 6617771134, 3926238736, 3327968529, 2231689748, 6611355510, 2231689734, 2231689753, 2231689755], "tags": {"amenity": "hospital", "healthcare": "hospital", "name": "Heathcote Hospital", "operator": "Heathcote Health", "operator:type": "public", "start_date": "1859", "website": "https://www.heathcotehealth.org/"}}, {"type": "way", "id": 218426176, "center": {"lat": -38.3715271, "lon": 142.4791594}, "nodes": [2276754933, 2276754935, 2276754934, 7871399476, 7871399477, 2276754936, 7871399479, 2276754933], "tags": {"addr:city": "Warrnambool", "addr:housenumber": "136", "addr:postcode": "3280", "addr:street": "Botanic Road", "amenity": "hospital", "name": "St John of God Hospital", "phone": "+61 3 55640600", "website": "https://www.sjog.org.au/hospitals/warrnambool_hospital.aspx", "wikidata": "Q7593697"}}, {"type": "way", "id": 219503952, "center": {"lat": -37.7020906, "lon": 148.4654221}, "nodes": [2286539972, 2286539974, 2286539980, 2286539977, 2286539972], "tags": {"addr:city": "Orbost", "addr:street": "Boundary Road", "amenity": "hospital", "emergency": "yes", "name": "Orbost Regional Health", "source": "Survey", "website": "https://orbostregionalhealth.com.au/"}}, {"type": "way", "id": 219506349, "center": {"lat": -37.9609588, "lon": 146.9837554}, "nodes": [2286563924, 2286563927, 2286563897, 2286563894, 2286563901, 2286563898, 2286563924], "tags": {"alt_name": "Central Gippsland Health Service [Maffra]", "amenity": "hospital", "name": "Mafra District Hospital"}}, {"type": "way", "id": 219509937, "center": {"lat": -38.2154042, "lon": 146.4186882}, "nodes": [2286602753, 2286602754, 2286602716, 2286602706, 2286602753], "tags": {"amenity": "hospital", "name": "Maryvale Private Hospital", "source": "bing"}}, {"type": "way", "id": 219515373, "center": {"lat": -34.2818437, "lon": 146.0439067}, "nodes": [2286649290, 1956109123, 3969504727, 9956273556, 3969504897, 9956273557, 2286649296, 3969505176, 2286649294, 3683555700, 2286649295, 3969504913, 2286649301, 3969504716, 2286649293, 3683555628, 2286649297, 2286649299, 3683555854, 3683555923, 2286649300, 2286649298, 2286649292, 9956273551, 9956273553, 2286649290], "tags": {"amenity": "hospital", "emergency": "yes", "healthcare": "hospital", "name": "Griffith Base Hospital", "website": "https://www.service.nsw.gov.au/nswgovdirectory/griffith-hospital"}}, {"type": "way", "id": 219759856, "center": {"lat": -38.5572842, "lon": 146.6781974}, "nodes": [2288959242, 2288959244, 2288959249, 2288959250, 2288959206, 2288959204, 2288959203, 2288959199, 2288959242], "tags": {"addr:city": "Yarram", "addr:housenumber": "85", "addr:postcode": "3971", "addr:street": "Commercial Road", "amenity": "hospital", "name": "Yarram and District Health Service", "source": "bing"}}, {"type": "way", "id": 219760833, "center": {"lat": -38.6589781, "lon": 146.2066291}, "nodes": [2288970930, 2288970927, 2682641461, 2288970923, 2288970928, 2682641459, 2682641458, 2682641457, 2682641456, 2682641455, 7055903134, 2682641454, 2682641453, 2682641452, 2682641451, 2682641450, 2288970930], "tags": {"addr:city": "Foster", "addr:housenumber": "87", "addr:postcode": "3960", "addr:street": "Station Road", "amenity": "hospital", "healthcare": "hospital", "name": "South Gippsland Hospital"}}, {"type": "way", "id": 219893484, "center": {"lat": -38.6082884, "lon": 145.5810851}, "nodes": [2290232832, 2290232831, 2290232822, 9880365196, 9880365194, 2290232824, 2290232832], "tags": {"addr:housenumber": "235", "addr:postcode": "3995", "addr:state": "VIC", "addr:street": "Graham Street", "addr:suburb": "Wonthaggi", "amenity": "hospital", "emergency": "yes", "healthcare": "hospital", "name": "Wonthaggi Hospital", "operator": "Bass Coast Health", "operator:type": "public", "source": "bing", "website": "https://www.basscoasthealth.org.au/"}}, {"type": "way", "id": 220078647, "center": {"lat": -37.6468481, "lon": 145.5289892}, "nodes": [2291993126, 5330880934, 2291993124, 5330880930, 2291993122, 2291993116, 2291993115, 2291993126], "tags": {"addr:city": "Healesville", "addr:housenumber": "377", "addr:postcode": "3777", "addr:street": "Maroondah Highway", "amenity": "hospital", "emergency": "no", "healthcare": "hospital", "name": "Healesville & District Hospital", "source": "bing"}}, {"type": "way", "id": 220094117, "center": {"lat": -36.7434327, "lon": 147.1698301}, "nodes": [2292164470, 2531484469, 243910634, 2292164476, 2292164475, 2292164474, 2292164472, 2292164470], "tags": {"addr:city": "Mount Beauty", "addr:housenumber": "10", "addr:postcode": "3699", "addr:street": "Hollonds Street", "amenity": "hospital", "healthcare": "hospital", "name": "Alpine Health [Mount Beauty]", "source": "bing"}}, {"type": "way", "id": 220229825, "center": {"lat": -35.6820249, "lon": 142.6653918}, "nodes": [2293582246, 2293582248, 2293582247, 2293582249, 2293582246], "tags": {"addr:city": "Woomelang", "addr:housenumber": "16", "addr:postcode": "3485", "addr:street": "Proctor Street", "amenity": "hospital", "emergency": "no", "healthcare": "hospital", "name": "Woomelang & District Bush Nursing Centre", "opening_hours": "Mo-Fr 9:00-17:00", "phone": "+61 3 50812165", "wheelchair": "yes"}}, {"type": "way", "id": 220229876, "center": {"lat": -37.805261, "lon": 140.7868982}, "nodes": [2293582704, 2293582690, 2293582708, 2293582714, 2293582734, 2293582699, 2293582704], "tags": {"amenity": "hospital", "emergency": "yes", "name": "Mount Gambier & Districts Health Service", "website": "http://www.countryhealthsa.sa.gov.au/Services/LocalCountryHealthServices/MountGambier.aspx"}}, {"type": "way", "id": 220413058, "center": {"lat": -35.5005726, "lon": 142.8578057}, "nodes": [2295377768, 5308162320, 2295377767, 2295377771, 2295377770, 7895769930, 2295377772, 2295377769, 2295377768], "tags": {"addr:city": "Sea Lake", "addr:postcode": "3533", "addr:street": "McClelland Avenue", "amenity": "hospital", "healthcare": "hospital", "name": "Sea Lake & District Health Service", "phone": "+61 3 50702155"}}, {"type": "way", "id": 220463642, "center": {"lat": -35.9802129, "lon": 142.9158769}, "nodes": [2295770200, 9755002983, 2295770199, 9755002985, 2295770197, 2295770198, 2295770200], "tags": {"addr:city": "Birchip", "addr:housenumber": "26", "addr:postcode": "3483", "addr:street": "Duncan Street", "amenity": "hospital", "emergency": "yes", "healthcare": "hospital", "name": "East Wimmera Health Service (Birchip Campus)", "operator": "East Wimmera Health Service", "phone": "+61 3 54777100", "website": "https://ewhs.org.au/birchip-campus/"}}, {"type": "way", "id": 220738911, "center": {"lat": -35.9038922, "lon": 141.9953713}, "nodes": [2298309184, 2298309185, 2298309181, 2298309186, 2298309182, 2298309183, 2298309180, 2298309184], "tags": {"addr:city": "Rainbow", "addr:housenumber": "2", "addr:postcode": "3424", "addr:street": "Swinbourne Avenue", "amenity": "hospital", "healthcare": "hospital", "name": "Rainbow Bush Nursing Hospital", "operator": "West Wimmera Health Service"}}, {"type": "way", "id": 221179743, "center": {"lat": -37.5449333, "lon": 142.7459647}, "nodes": [2302341388, 2302341394, 2302341414, 2302341398, 2302341392, 2302341419, 2302341388], "tags": {"amenity": "hospital", "healthcare": "hospital", "name": "East Grampians Health Service", "source": "Bing"}}, {"type": "way", "id": 221447439, "center": {"lat": -38.1134128, "lon": 145.2811056}, "nodes": [2304823614, 2304823618, 2304823621, 9488762319, 9488762331, 8370076488, 593112377, 244284879, 244284880, 2304823628, 2304823630, 2304823632, 9944149340, 8370076485, 2304823614], "tags": {"amenity": "hospital", "healthcare": "hospital", "name": "Cranbourne Integrated Care Centre", "website": "https://www.monashhealth.org/page/Hospitals/Cranbourne_Integrated_Care_Centre/"}}, {"type": "way", "id": 221689275, "center": {"lat": -34.2762778, "lon": 140.6015322}, "nodes": [2307260866, 2307260867, 2307260868, 2307260869, 2307260870, 5812390380, 2307260871, 5798158588, 2307260866], "tags": {"amenity": "hospital", "healthcare": "hospital", "name": "Berri Hospital"}}, {"type": "way", "id": 221690306, "center": {"lat": -34.1646989, "lon": 140.7448661}, "nodes": [2307271831, 2307271832, 5643038207, 2307271833, 2307271834, 2307271831], "tags": {"amenity": "hospital", "name": "Renmark Paringa District Hospital"}}, {"type": "way", "id": 221802620, "center": {"lat": -36.6365522, "lon": 142.6319211}, "nodes": [2308068218, 2308068214, 2308068220, 2308068222, 2308068218], "tags": {"addr:city": "Rupanyup", "addr:housenumber": "89", "addr:postcode": "3388", "addr:street": "Cromie Street", "amenity": "hospital", "healthcare": "hospital", "name": "Rupanyup Hospital & Nursing Home", "operator": "Dunmunkle Health Services", "phone": "+61 3 53855700", "source": "Bing", "website": "http://www.rupanyup.com.au/health"}}, {"type": "way", "id": 222307236, "center": {"lat": -36.4633352, "lon": 142.5917725}, "nodes": [2312877492, 2312877496, 2312877495, 2312877494, 2312877493, 2312877497, 2312877492], "tags": {"addr:city": "Minyip", "addr:housenumber": "23-25", "addr:postcode": "3392", "addr:street": "Church Street", "amenity": "hospital", "fax": "+61 3 53857238", "name": "Community Health Centre", "opening_hours": "Mo-Fr 8:30-17:00", "operator": "Dunmunkle Health Services", "phone": "+61 3 53631200"}}, {"type": "way", "id": 222413475, "center": {"lat": -36.6198007, "lon": 142.4707724}, "nodes": [2313824265, 2313824264, 2313824263, 2313824266, 2313824265], "tags": {"addr:city": "Murtoa", "addr:housenumber": "28", "addr:postcode": "3390", "addr:street": "Marma Street", "amenity": "hospital", "name": "Murtoa Community Health Centre", "operator": "Dunmunkle Health Services", "phone": "+61 3 53630400"}}, {"type": "way", "id": 222622253, "center": {"lat": -35.7320215, "lon": 142.366548}, "nodes": [2315716838, 2315716843, 2315716828, 2315716832, 2315716844, 2315716830, 2315716829, 2315716831, 2315716845, 2315716846, 2315716836, 2315716833, 2315716841, 2315716835, 2315716838], "tags": {"addr:city": "Hopetoun", "addr:housenumber": "12", "addr:postcode": "3396", "addr:street": "Mitchell Place", "amenity": "hospital", "healthcare": "hospital", "name": "Rural Northwest Health Hopetoun", "operator": "Rural Northwest Health", "phone": "+61 3 50832000", "source": "Bing", "website": "https://www.rnh.net.au/"}}, {"type": "way", "id": 222882730, "center": {"lat": -37.8096448, "lon": 144.9832424}, "nodes": [11197708488, 2318265868, 2318265902, 2318265887, 2318265882, 2318265901, 2318265900, 11197708488], "tags": {"addr:city": "East Melbourne", "addr:country": "AU", "addr:housenumber": "21-29", "addr:postcode": "3002", "addr:state": "VIC", "addr:street": "Clarendon Street", "addr:suburb": "East Melbourne", "amenity": "hospital", "building": "yes", "emergency": "no", "healthcare": "hospital", "name": "East Melbourne Specialist Day Hospital", "phone": "+61 3 94734600", "source": "Vicmap Address", "website": "https://www.emsdh.com.au/"}}, {"type": "way", "id": 222882734, "center": {"lat": -37.8094605, "lon": 144.9823363}, "nodes": [11197708519, 3281073184, 3281070327, 11197708493, 11197708506, 11197708523, 11197708525, 11197708505, 11197708504, 11197708503, 11197708502, 11197708494, 11197708497, 11197708496, 11197708495, 11197708498, 11197708500, 11197708499, 11197708501, 2318265896, 11197708492, 11197708519], "tags": {"addr:country": "AU", "addr:housenumber": "298-336", "addr:postcode": "3002", "addr:state": "VIC", "addr:street": "Victoria Parade", "addr:suburb": "East Melbourne", "amenity": "hospital", "building": "yes", "emergency": "no", "healthcare": "hospital", "name": "Epworth Freemasons", "operator": "Epworth Healthcare", "phone": "+61 3 94188188", "source": "Vicmap Address", "website": "https://www.epworth.org.au/our-hospitals/pages/epworth-freemasons.aspx", "wikidata": "Q5501076"}}, {"type": "way", "id": 223101843, "center": {"lat": -38.3800614, "lon": 142.4729942}, "nodes": [2320384810, 2320384811, 2320384809, 2320384808, 7871049635, 2320384810], "tags": {"addr:city": "Warrnambool", "addr:housenumber": "25", "addr:postcode": "3280", "addr:street": "Ryot Street", "amenity": "hospital", "emergency": "yes", "healthcare": "hospital", "name": "Warrnambool Base Hospital", "operator": "South West Healthcare", "phone": "+61 3  55631666", "website": "https://swarh.com.au/swh"}}, {"type": "way", "id": 223482326, "center": {"lat": -37.8090201, "lon": 144.9763018}, "nodes": [11187427050, 11187427051, 11187427052, 11187427048, 2323815210, 11187427054, 11187427053, 11187427049, 2323815218, 2323815219, 2323815221, 2323815207, 2323815220, 2323815222, 2323815206, 2323815213, 2323815209, 11187427083, 11187427084, 2323815217, 11187427041, 7053356135, 11187427089, 11187427043, 11187427042, 11187427082, 11187427074, 11187427071, 11187427072, 11187427073, 11187427077, 11187427076, 11187427075, 11187427078, 11187427080, 11187427079, 2323815215, 11187427081, 2323815208, 2323815205, 2323815211, 2323815212, 2323815216, 2323815204, 11187427046, 11187427069, 11187427070, 11187427045, 11187427067, 11187427066, 11187427065, 11187427068, 11187427063, 11187427062, 11187427061, 11187427064, 11187427059, 11187427058, 11187427057, 11187427060, 11187427047, 11187427040, 11187427039, 2323815214, 11187427056, 11187427044, 11187427055, 11187427050], "tags": {"addr:country": "AU", "addr:housenumber": "32", "addr:postcode": "3002", "addr:state": "VIC", "addr:street": "Gisborne Street", "addr:suburb": "East Melbourne", "amenity": "hospital", "building": "yes", "building:levels": "10", "healthcare": "hospital", "name": "Royal Victorian Eye & Ear Hospital", "phone": "+61 3 9929 8666", "source": "Vicmap Address", "website": "https://www.eyeandear.org.au/", "wikidata": "Q16899492"}}, {"type": "way", "id": 226170038, "center": {"lat": -36.1991271, "lon": 147.9027828}, "nodes": [2350241997, 2350241998, 2350241996, 2350241994, 2497277927, 2350241995, 2350241997], "tags": {"amenity": "hospital", "emergency": "yes", "healthcare": "hospital", "name": "Corryong Hospital"}}, {"type": "way", "id": 226969414, "center": {"lat": -36.0784881, "lon": 143.2341181}, "nodes": [2357062953, 9796407460, 9796407461, 2357062960, 2357062962, 2357062955, 2357062953], "tags": {"amenity": "hospital", "healthcare": "hospital", "name": "Wycheproof Hospital", "source": "bing"}}, {"type": "way", "id": 228776740, "center": {"lat": -36.2523238, "lon": 142.3818904}, "nodes": [2374518310, 2374518313, 2374518315, 2374518317, 2374518319, 2374518321, 2374518310], "tags": {"addr:city": "Warracknabeal", "addr:postcode": "3393", "addr:street": "Dimboola Road", "amenity": "hospital", "emergency": "yes", "name": "Rural Northwest Health Warracknabeal Campus", "phone": "+61 3 53961200", "toilets:wheelchair": "yes", "wheelchair": "yes"}}, {"type": "way", "id": 229235643, "center": {"lat": -35.0514751, "lon": 148.1022061}, "nodes": [2378576511, 2378576512, 9421600201, 4426148203, 2378576506, 2378576504, 2378576508, 2378576509, 2378576511], "tags": {"alt_name": "Gundagai Multi Purpose Service", "amenity": "hospital", "emergency": "yes", "healthcare": "hospital", "name": "Gundagai Hospital"}}, {"type": "way", "id": 229238510, "center": {"lat": -35.5227219, "lon": 148.148114}, "nodes": [2378599218, 2378599217, 2378599216, 2378599214, 2378599208, 10873191964, 2378599209, 2378599215, 2378599219, 2378599218], "tags": {"alt_name": "Batlow-Adelong Multi Purpose Service", "amenity": "hospital", "emergency": "yes", "healthcare": "hospital", "name": "Batlow Hospital", "website": "https://www.service.nsw.gov.au/nswgovdirectory/batlow-adelong-multi-purpose-service-hospital"}}, {"type": "way", "id": 229626099, "center": {"lat": -35.3075152, "lon": 148.2192019}, "nodes": [2381944322, 8324605317, 2381944326, 2381944346, 8324605318, 2381944340, 2381944322], "tags": {"alt_name": "Tumut Hospital", "amenity": "hospital", "emergency": "yes", "fixme": "redevelopement completed, needs survey.", "healthcare": "hospital", "name": "Tumut District Hospital", "website": "https://www.service.nsw.gov.au/nswgovdirectory/tumut-hospital", "wheelchair": "yes"}}, {"type": "way", "id": 230220219, "center": {"lat": -33.2815856, "lon": 149.1215183}, "nodes": [2387474738, 9467537134, 9467537133, 2385339996, 2387474738], "tags": {"amenity": "hospital", "emergency": "no", "healthcare": "hospital", "name": "Dudley Private Hospital", "operator:type": "private", "website": "https://www.dudleyprivate.com.au"}}, {"type": "way", "id": 230226038, "center": {"lat": -35.9382726, "lon": 142.4216616}, "nodes": [2387512026, 2387512027, 2387512028, 2387512025, 2387512026], "tags": {"amenity": "hospital", "emergency": "no", "healthcare": "hospital", "name": "Rural Northwest Health Beulah Campus", "operator": "Rural Northwest Health", "phone": "+61 3 53968200"}}, {"type": "way", "id": 230341836, "center": {"lat": -33.3181931, "lon": 149.095322}, "nodes": [2388556108, 7340045705, 7911212135, 2388556097, 7911212134, 7911212133, 7340048901, 2388556095, 2388556017, 947901800, 5423637219, 1143675762, 1143663923, 2388556025, 2388556028, 2388556092, 2389607213, 2389607211, 2389607212, 2389607209, 2389607147, 2389607145, 2389607140, 2389607138, 2389607117, 2389607107, 1143674692, 1143674694, 1143674697, 1143674698, 1143674699, 1143674700, 1143674701, 1143674703, 1143674704, 7911212130, 7911212131, 7911212129, 1143674706, 1143674707, 616005227, 616005228, 2388556010, 9446015897, 9446015894, 2388556013, 2388556027, 2388556090, 9446015895, 9446015896, 9446015898, 2388556180, 2388556182, 2388556181, 7340048903, 7340048902, 2388556108], "tags": {"amenity": "hospital", "emergency": "no", "healthcare": "hospital", "healthcare:speciality": "psychiatry", "name": "Bloomfield Hospital", "wikipedia": "en:Bloomfield Hospital, Orange"}}, {"type": "way", "id": 230341839, "center": {"lat": -33.3170265, "lon": 149.0930661}, "nodes": [616005226, 7911212132, 9446015900, 9446015899, 1143674691, 2388556019, 2388556021, 2388556023, 2388556025, 1143663923, 1143675762, 5423637219, 947901800, 2388556017, 616005226], "tags": {"amenity": "hospital", "emergency": "yes", "healthcare": "hospital", "name": "Orange Health Service"}}, {"type": "way", "id": 232322242, "center": {"lat": -37.6495529, "lon": 145.0092869}, "nodes": [6469532197, 2406829305, 2406829297, 2406829292, 2406829302, 2406829313, 2406829315, 2406829317, 2406829319, 2406829323, 2406829326, 2406829331, 2406829337, 2406829334, 2406829339, 2406829343, 2406829345, 2406829341, 6469532199, 6469532198, 6469532197], "tags": {"addr:housenumber": "230", "addr:street": "Cooper Street", "amenity": "hospital", "building": "yes", "emergency": "no", "name": "Epping Private Hospital", "operator": "Healthe Care Australia", "rooms": "24"}}, {"type": "way", "id": 232630255, "center": {"lat": -36.5542331, "lon": 146.7287677}, "nodes": [2409717909, 3238876616, 2409717911, 2409717868, 2409717866, 3401238514, 2409717910, 2409717882, 3238876617, 2409717904, 2409717865, 2409717923, 2409717860, 2409717928, 2409717909], "tags": {"amenity": "hospital", "healthcare": "hospital", "name": "Myrtleford Memorial Hospital"}}, {"type": "way", "id": 237757013, "center": {"lat": -36.0816742, "lon": 146.9108585}, "nodes": [2456377061, 2456377086, 2456377069, 4780438977, 2456377132, 4780438978, 2456377092, 2456377096, 2456377061], "tags": {"alt_name": "Garden Medical Centre", "amenity": "hospital", "emergency": "no", "healthcare": "hospital", "name": "Insight Private Hospital", "operator:type": "private", "website": "https://www.nexushospitals.com.au/locations/insight-private-hospital/"}}, {"type": "way", "id": 237931110, "center": {"lat": -37.7232499, "lon": 144.9477122}, "nodes": [2458004390, 2458004392, 2458004395, 2458004391, 2458004390], "tags": {"amenity": "hospital", "name": "Dorset Private Hospital"}}, {"type": "way", "id": 238150175, "center": {"lat": -34.5841361, "lon": 142.7814959}, "nodes": [2460055587, 2460055588, 2460055589, 2460055590, 2460055587], "tags": {"addr:city": "Robinvale", "addr:housenumber": "128", "addr:postcode": "3549", "addr:street": "Latje Road", "amenity": "hospital", "healthcare": "hospital", "name": "Robinvale District Health Services", "phone": "+61 3 50518111", "website": "https://www.rdhs.com.au/"}}, {"type": "way", "id": 241060687, "center": {"lat": -36.0692191, "lon": 146.9166011}, "nodes": [2487486682, 2487486679, 2487486681, 2487486676, 2487486677, 2487486678, 2487486680, 4376648382, 4376648383, 4376648384, 4376648380, 4376648381, 2487486682], "tags": {"amenity": "hospital", "emergency": "no", "healthcare": "hospital", "name": "Mercy Health Albury", "operator:type": "private", "website": "https://health-services.mercyhealth.com.au/our-health-services/mercy-health-albury/"}}, {"type": "way", "id": 245023786, "center": {"lat": -37.6842068, "lon": 143.3675052}, "nodes": [2522867193, 3086038117, 2522867192, 2522867190, 2522867196, 2522867191, 2522867195, 2522867194, 2522867193], "tags": {"amenity": "hospital", "name": "Skipton Hospital"}}, {"type": "way", "id": 245398973, "center": {"lat": -37.6846139, "lon": 144.9122158}, "nodes": [5965159504, 2526090925, 2526090946, 2526091091, 2526091118, 2526091123, 2526091126, 2526091129, 2526091101, 2526091094, 2526091095, 2526091072, 2526091025, 2526090976, 2526090972, 2526090967, 2526090961, 2526090958, 9380016865, 2526090945, 2526090936, 5965159504], "tags": {"amenity": "hospital", "emergency": "no", "healthcare": "hospital", "name": "Broadmeadows Health Services"}}, {"type": "way", "id": 255432030, "center": {"lat": -38.4494658, "lon": 145.2371718}, "nodes": [2611190983, 2611190984, 2611190985, 2611190986, 2611190983], "tags": {"addr:city": "Cowes", "addr:housename": "Bass Coast Community Health", "addr:housenumber": "14", "addr:postcode": "3922", "addr:street": "Warley Avenue", "amenity": "hospital", "building": "yes", "name": "Bass Coast Community Health"}}, {"type": "way", "id": 255503956, "center": {"lat": -32.9212859, "lon": 147.7042779}, "nodes": [2611862175, 2611862176, 2611862177, 2611862178, 2611862175], "tags": {"amenity": "hospital", "emergency": "yes", "healthcare": "hospital", "name": "Trundle Multi Purpose Health Service"}}, {"type": "way", "id": 256149913, "center": {"lat": -36.1414052, "lon": 141.9846467}, "nodes": [1500894338, 2618416424, 2908362005, 2618415693, 2618415695, 1500895484, 2618416420, 705063100, 1500894338], "tags": {"amenity": "hospital", "name": "Jeparit Hospital"}}, {"type": "way", "id": 256787493, "center": {"lat": -36.6895139, "lon": 149.8579626}, "nodes": [5788930457, 5788930456, 5788930455, 5788930458, 2624213205, 2624213203, 5313235061, 2624213209, 2624213219, 5313235141, 5788930457], "tags": {"addr:city": "Bega", "addr:housenumber": "4", "addr:postcode": "2550", "addr:province": "New South Wales", "addr:state": "NSW", "addr:street": "Viginia Drive", "addr:suburb": "Bega", "alt_name": "Bega District Hospital", "amenity": "hospital", "emergency": "yes", "healthcare": "hospital", "name": "South East Regional Hospital", "operator": "NSW Health", "operator:wikidata": "Q6867095", "phone": "+61 2 6491 9999"}}, {"type": "way", "id": 257374229, "center": {"lat": -30.965185, "lon": 148.3877386}, "nodes": [2629305713, 2629305669, 2629305688, 2629305720, 2629305730, 2629305733, 2629305732, 2629305713], "tags": {"alt_name": "Coonamnle Multi Purpose Service", "amenity": "hospital", "emergency": "yes", "healthcare": "hospital", "name": "Coonamble Hospital"}}, {"type": "way", "id": 257761520, "center": {"lat": -37.7174134, "lon": 144.9972479}, "nodes": [2632328928, 6648580127, 2632328926, 2632328925, 2632328924, 2632328929, 6648580128, 2632328930, 2632328933, 2632328934, 2632328931, 2632328932, 2632328928], "tags": {"amenity": "hospital", "emergency": "no", "healthcare": "hospital", "name": "Reservoir Private Hospital"}}, {"type": "way", "id": 258244752, "center": {"lat": -37.8104805, "lon": 145.1947515}, "nodes": [2636378379, 2636378380, 2636378375, 2636378381, 2636378382, 2636378383, 2636378378, 2636378379], "tags": {"addr:housenumber": "27", "addr:postcode": "3132", "addr:state": "VIC", "addr:street": "Doncaster East Road", "addr:suburb": "Mitcham", "amenity": "hospital", "fax": "+61 3 9210 3223", "healthcare": "hospital", "name": "Mitcham Private Hospital", "operator": "Ramsay Health Care", "operator:type": "private", "phone": "+61 3 9210 3222", "website": "https://www.mitchamprivate.com.au/", "wheelchair": "yes"}}, {"type": "way", "id": 265723966, "center": {"lat": -37.4205108, "lon": 143.8920283}, "nodes": [2713389223, 2713389226, 2713389228, 2713389231, 7076383775, 7076383842, 7076383794, 7076383722, 7076347783, 7076383719, 7076383713, 2713389233, 2713389223], "tags": {"amenity": "hospital", "emergency": "no", "name": "Creswick Hospital and Nursing Home", "website": "http://humanservicesdirectory.vic.gov.au/SiteDetails.aspx?SiteID=33281"}}, {"type": "way", "id": 265910010, "center": {"lat": -37.8461529, "lon": 144.9825885}, "nodes": [2715169754, 9634982479, 9634982478, 9634982485, 9634982486, 9634982489, 9634982490, 2715169757, 2715169760, 9634982370, 9634982371, 9177277100, 2272562795, 9634973611, 9634982334, 9634973607, 9634973612, 9634982390, 9634982396, 9634982393, 9634982391, 10948374581, 302534069, 302534072, 9634973616, 9634982218, 9634982217, 9634982373, 9634982372, 9634973613, 9634973614, 10948374580, 9634973615, 9634973608, 7869654826, 9634973610, 2715169754], "tags": {"addr:housenumber": "55", "addr:street": "Commercial Road", "amenity": "hospital", "emergency": "yes", "healthcare": "hospital", "name": "Alfred Hospital", "website": "http://www.alfred.org.au/", "wikidata": "Q7713086"}}, {"type": "way", "id": 266067397, "center": {"lat": -38.2431107, "lon": 143.9857983}, "nodes": [2716421059, 2716421062, 2716421060, 2716421063, 2716421065, 6282046350, 6282046349, 2716421058, 2716421064, 2716421061, 2716421059], "tags": {"amenity": "hospital", "name": "Winchelsea Hospital", "website": "https://www.hesseruralhealth.net.au/"}}, {"type": "way", "id": 270504290, "center": {"lat": -36.3120739, "lon": 140.766464}, "nodes": [2755158249, 2755158250, 2755158252, 2755158253, 2755158251, 2755158254, 2755158249], "tags": {"amenity": "hospital", "healthcare": "hospital", "name": "Bordertown Memorial Hospital", "website": "https://www.sahealth.sa.gov.au/bordertownhospital"}}, {"type": "way", "id": 272720512, "center": {"lat": -37.8160051, "lon": 144.9925006}, "nodes": [2776561973, 2776562612, 8968478736, 8968478737, 2776562624, 10108296985, 2776561975, 2776561976, 2776561977, 2776561978, 7500052129, 2776561973], "tags": {"addr:city": "Richmond", "addr:housenumber": "29", "addr:postcode": "3121", "addr:street": "Erin Street", "amenity": "hospital", "healthcare": "hospital", "name": "Epworth Rehabilitation", "toilets:wheelchair": "yes", "wheelchair": "yes"}}, {"type": "way", "id": 276434644, "center": {"lat": -37.7931868, "lon": 144.8858737}, "nodes": [2810300040, 663516890, 663516891, 663516882, 7274091620, 2810300041, 2810300040], "tags": {"addr:city": "Footscray", "addr:housenumber": "1-9", "addr:postcode": "3011", "addr:street": "Marion Street", "amenity": "hospital", "emergency": "no", "name": "Western Private Hospital", "phone": "+61 3 93183177", "website": "http://westernprivatehospital.com.au/"}}, {"type": "way", "id": 276893325, "center": {"lat": -39.9299034, "lon": 143.8585772}, "nodes": [2814557923, 2814557922, 2814557918, 2814557926, 2814557917, 2814557920, 2814557919, 2814557924, 2814557923], "tags": {"amenity": "hospital", "healthcare": "hospital", "name": "King Island District Hospital and Health Centre"}}, {"type": "way", "id": 288191361, "center": {"lat": -37.6779418, "lon": 144.4335569}, "nodes": [2917397036, 3072721067, 5421574922, 2917397037, 2917397038, 2917397039, 2917397036], "tags": {"addr:city": "Bacchus Marsh", "addr:housenumber": "29-35", "addr:postcode": "3340", "addr:street": "Grant Street", "amenity": "hospital", "emergency": "yes", "name": "Bacchus Marsh & Melton Regional Hospital", "operator": "Djerriwarrh Health Services", "phone": "+61 3 53672000", "website": "https://djhs.com.au/"}}, {"type": "way", "id": 288404912, "center": {"lat": -37.6874106, "lon": 144.5581184}, "nodes": [5716027816, 5716027810, 2919712656, 7708835939, 2919712657, 7708835944, 2919712658, 2919712659, 8813221768, 2919712660, 5716027816], "tags": {"addr:city": "Melton West", "addr:housenumber": "195-209", "addr:postcode": "3337", "addr:street": "Barries Road", "amenity": "hospital", "emergency": "no", "healthcare": "hospital", "name": "Melton Health", "operator": "Djerriwarrh Health Services", "phone": "+61 3 97477600", "website": "https://djhs.com.au/"}}, {"type": "way", "id": 290512590, "center": {"lat": -37.8065263, "lon": 145.0236936}, "nodes": [2940375852, 2940375853, 2940375854, 2940375855, 2940375852], "tags": {"addr:city": "Kew", "addr:country": "AU", "addr:housenumber": "5", "addr:postcode": "3101", "addr:state": "VIC", "addr:street": "Studley Avenue", "amenity": "hospital", "emergency": "no", "fax": "+61-3-98531415", "healthcare": "hospital", "name": "St Vincent's Private Hospital Kew", "phone": "+61-3-98518888", "website": "http://www.svpm.com.au"}}, {"type": "way", "id": 291605090, "center": {"lat": -32.6028941, "lon": 149.5876553}, "nodes": [2950755620, 2950759454, 2950759446, 1286194786, 2950755620], "tags": {"alt_name": "Mudgee Health Service", "amenity": "hospital", "emergency": "yes", "healthcare": "hospital", "name": "Mudgee District Hospital"}}, {"type": "way", "id": 293187632, "center": {"lat": -37.9242465, "lon": 141.2754502}, "nodes": [2967575355, 2967575356, 2967575357, 2967575358, 2967575355], "tags": {"addr:city": "Dartmoor", "addr:housenumber": "28", "addr:postcode": "3304", "addr:street": "Ascot Street", "amenity": "hospital", "emergency": "no", "name": "Dartmoor & District Bush Nursing Centre", "opening_hours": "Mo-Fr 8:30-17:00", "phone": "+61 3 55281381", "website": "http://home.glenelgnow.net.au/dartmoorbnc/"}}, {"type": "way", "id": 295344938, "center": {"lat": -34.1862443, "lon": 142.1430602}, "nodes": [2990582167, 2990582109, 10861760328, 10790236435, 2990582134, 2990582161, 2990582177, 2990582190, 2990582193, 10768459211, 10768459212, 10768459213, 10768459214, 2990582212, 2990582167], "tags": {"addr:housenumber": "216", "addr:postcode": "3500", "addr:state": "VIC", "addr:street": "Ontario Avenue", "addr:suburb": "Mildura", "amenity": "hospital", "emergency": "yes", "healthcare": "hospital", "name": "Mildura Base Public Hospital", "phone": "+61 3 5022 3333", "website": "https://www.mbph.org.au/"}}, {"type": "way", "id": 297312580, "center": {"lat": -36.1387214, "lon": 146.876716}, "nodes": [3416855558, 2005537171, 2005536972, 2005536970, 3011870523, 3011871145, 698240687, 698240688, 698240689, 698240690, 698240691, 698240692, 698240693, 698240694, 698240695, 698240696, 698240697, 698240698, 698240699, 698240700, 698240680, 1426761281, 1426761283, 3416855558], "tags": {"addr:city": "Wodonga", "addr:postcode": "3690", "amenity": "hospital", "emergency": "no", "name": "Murray Valley Private Hospital", "phone": "+61 2 60553100", "source": "nearmap", "source:addr": "Nordsvan Drive", "website": "http://www.mvph.com.au/"}}, {"type": "way", "id": 298932579, "center": {"lat": -38.1531882, "lon": 145.1558477}, "nodes": [3028922880, 3028922884, 3028922881, 3028922878, 3028922891, 3028922890, 3028922883, 3028922886, 3028922879, 3028922887, 3028922885, 3028922882, 3028922889, 3028922880], "tags": {"amenity": "hospital", "name": "St John Of God Frankston Rehabilitation Hospital", "wikidata": "Q17055642"}}, {"type": "way", "id": 300745775, "center": {"lat": -37.386382, "lon": 144.3277083}, "nodes": [3048475369, 3048475405, 3048475380, 3048475399, 3048475369], "tags": {"amenity": "hospital", "healthcare": "hospital", "name": "Trentham Aged Care Hostel"}}, {"type": "way", "id": 302399578, "center": {"lat": -37.9662383, "lon": 145.1920132}, "nodes": [3066572168, 3066572177, 9880229706, 9880229705, 9880229707, 3066572161, 3066572157, 3066572158, 3066572171, 3066572167, 3066572169, 3066572160, 4546383315, 3066572168], "tags": {"addr:housenumber": "313", "addr:street": "Princes Highway", "amenity": "hospital", "healthcare": "hospital", "name": "South Eastern Private Hospital", "website": "www.southeasternprivate.com.au"}}, {"type": "way", "id": 305358576, "center": {"lat": -35.2223676, "lon": 146.7191872}, "nodes": [4758812536, 4758812537, 4758812538, 4758812535, 4758812536], "tags": {"alt_name": "Lockhart Multi Purpose Service", "amenity": "hospital", "emergency": "yes", "healthcare": "hospital", "name": "Lockhart District Hospital"}}, {"type": "way", "id": 306193479, "center": {"lat": -34.5004053, "lon": 144.8515906}, "nodes": [3110403496, 9419622819, 3110403500, 9419622820, 3110403495, 3110403498, 3110403497, 3110403494, 3110403499, 3110403496], "tags": {"addr:city": "Hay", "addr:country": "AU", "addr:housenumber": "351", "addr:postcode": "2711", "addr:state": "NSW", "addr:street": "Murray Street", "alt_name": "Hay Community Health Centre", "amenity": "hospital", "emergency": "yes", "healthcare": "hospital", "name": "Hay District Hospital", "phone": "+61 2 6990 8700", "website": "https://www.service.nsw.gov.au/nswgovdirectory/hay-district-hospital"}}, {"type": "way", "id": 306963576, "center": {"lat": -37.8111881, "lon": 144.9777173}, "nodes": [11182932271, 11182932292, 304241595, 11182932272, 11182932271], "tags": {"addr:country": "AU", "addr:housenumber": "11", "addr:postcode": "3002", "addr:state": "VIC", "addr:street": "Cathedral Place", "addr:suburb": "East Melbourne", "amenity": "hospital", "building": "yes", "building:colour": "grey", "building:levels": "10", "description": "COVID19 hospital opened July 2020", "healthcare": "hospital", "name": "St Vincents on the Park", "old_name": "Loti & Victor Smorgon Wing", "source": "Vicmap Address"}}, {"type": "way", "id": 309527369, "center": {"lat": -36.0118521, "lon": 146.0065935}, "nodes": [3148760964, 3148760941, 3148760944, 3148760986, 3148760964], "tags": {"amenity": "hospital", "healthcare": "hospital", "name": "Yarrawonga Hospital", "website": "https://www.yh.org.au/"}}, {"type": "way", "id": 311852621, "center": {"lat": -37.5957885, "lon": 144.919516}, "nodes": [3175952762, 10286824499, 3175952763, 10286824498, 3175952764, 3175952765, 3175952766, 3175952767, 3175952768, 3175952769, 3175952770, 3175952771, 3175952762], "tags": {"addr:city": "Craigieburn", "addr:housenumber": "274-304", "addr:postcode": "3064", "addr:street": "Craigieburn Road West", "amenity": "hospital", "emergency": "no", "healthcare": "hospital", "name": "Craigieburn Health Service", "note": "Craigieburn Health Service is an alternative to hospital-based services for many day procedures and outpatient visits. It is able to treat people for a range of health conditions that require specialist medical care, but do not require an overnight stay i", "operator": "Northern Health", "phone": "+61 3 83383000", "website": "https://www.nh.org.au/locations/craigieburn-health-service"}}, {"type": "way", "id": 314666737, "center": {"lat": -34.6347167, "lon": 148.0125287}, "nodes": [3207137415, 3207137391, 3207137436, 3207137399, 3207137388, 3207137432, 3207137419, 3207137405, 3207137415], "tags": {"amenity": "hospital", "emergency": "yes", "healthcare": "hospital", "name": "Cootamundra Hospital"}}, {"type": "way", "id": 314667299, "center": {"lat": -34.8650059, "lon": 147.5792293}, "nodes": [3207139995, 9421721828, 9421721827, 3207139999, 3207139998, 3207139997, 3207139996, 3207139995], "tags": {"alt_name": "Junee Multi Purpose Service", "amenity": "hospital", "emergency": "yes", "healthcare": "hospital", "name": "Junee District Hospital"}}, {"type": "way", "id": 317070811, "center": {"lat": -37.7016085, "lon": 145.0555902}, "nodes": [2976850271, 3232910767, 3232910768, 3232910769, 3232910770, 3232910771, 3232910772, 3232910773, 3232910774, 3232910775, 3232910776, 3232910777, 3232910778, 3232910779, 3232910780, 3232910781, 11089041404, 3232910782, 3232910783, 3232910784, 11089041403, 11089041402, 11089041401, 11089041400, 11089041399, 11089041398, 3232910787, 3232910788, 3232910789, 3232910790, 3232910791, 3232910792, 3232910793, 2976850287, 2976850286, 2976850285, 2976850284, 2976850283, 2976850282, 2976850281, 2976850280, 10175596710, 2976850279, 2976850278, 2976850277, 2976850276, 2976850809, 2976850275, 2976850274, 2976850273, 2976850272, 2976850271], "tags": {"addr:housenumber": "1231", "addr:street": "Plenty Road", "amenity": "hospital", "emergency": "no", "healthcare": "hospital", "name": "Bundoora Extended Care Centre", "website": "www.nh.org.au/locations/bundoora-extended-care-centre"}}, {"type": "way", "id": 320493071, "center": {"lat": -36.714911, "lon": 141.4833686}, "nodes": [3270165467, 3270165469, 3270165470, 3270165471, 3270165467], "tags": {"amenity": "hospital", "name": "Goroke Community Health Centre", "phone": "+61-3-53632200", "website": "https://www.wwhs.net.au/about_us/our-facilities/goroke"}}, {"type": "way", "id": 328660783, "center": {"lat": -37.8173592, "lon": 145.1210359}, "nodes": [3354787014, 3354787039, 3354786999, 10708229447, 3354787034, 3354787030, 3354786993, 3354787014], "tags": {"addr:housenumber": "901", "addr:postcode": "3128", "addr:state": "VIC", "addr:street": "Whitehorse Road", "addr:suburb": "Box Hill", "amenity": "hospital", "emergency": "no", "healthcare": "hospital", "healthcare:speciality": "general", "name": "Sexual Health Victoria"}}, {"type": "way", "id": 329374268, "center": {"lat": -38.1737894, "lon": 145.9281489}, "nodes": [3362477799, 3362477802, 3362477810, 3362477796, 3362477809, 3362477812, 3362477800, 6511341478, 6511341483, 6511341479, 6511346585, 6511341474, 6511341484, 6511341473, 3362477811, 6511341477, 6511341475, 6511347353, 3362477801, 6511341476, 6511341482, 3362477799], "tags": {"amenity": "hospital", "healthcare": "hospital", "name": "West Gippsland Hospital", "website": "https://www.wghg.com.au/", "wikidata": "Q7985227"}}, {"type": "way", "id": 330039069, "center": {"lat": -36.6095617, "lon": 143.2468538}, "nodes": [3369992839, 3369992842, 3369992840, 3369992843, 3369992839], "tags": {"amenity": "hospital", "emergency": "yes", "name": "East Wimmera Health Service St Arnaud Campus", "source": "Local knowledge"}}, {"type": "way", "id": 330040789, "center": {"lat": -36.2683933, "lon": 143.3524959}, "nodes": [3370015891, 3370016793, 5391126242, 5391126244, 5391126235, 5391126241, 3370016794, 5391126243, 3370015892, 3370015891], "tags": {"amenity": "hospital", "name": "East Wimmera Health Service - Charlton Campus", "source": "Local Knowledge"}}, {"type": "way", "id": 332359171, "center": {"lat": -36.0757559, "lon": 146.8832616}, "nodes": [3394740457, 3003883266, 3003883267, 9406175049, 9470391553, 9406175050, 3003883269, 3003883196, 9406175048, 3394740444, 3394740443, 9406175051, 3394740457], "tags": {"amenity": "hospital", "emergency": "no", "healthcare": "hospital", "name": "Albury Wodonga Private Hospital", "operator:type": "private", "website": "https://www.alburywodongaprivate.com.au/"}}, {"type": "way", "id": 342028767, "center": {"lat": -37.0982657, "lon": 147.597229}, "nodes": [621766462, 3490805896, 3490805904, 3490805908, 3490805368, 3490805307, 3486908059, 3486908060, 621766462], "tags": {"addr:city": "Omeo", "addr:housenumber": "12", "addr:postcode": "3898", "addr:street": "Easton Street", "amenity": "hospital", "name": "Omeo District Health"}}, {"type": "way", "id": 351040236, "center": {"lat": -36.3542232, "lon": 146.3131755}, "nodes": [683799710, 683799711, 3567524390, 7024801572, 3567526393, 3567526504, 3567526435, 3567526488, 7024801539, 7024801538, 7024801537, 3567526505, 683799712, 7024801540, 7024801569, 683799713, 7024853831, 7024853840, 7024853828, 8320399428, 7024853837, 7024853834, 683799710], "tags": {"addr:city": "Wangaratta", "addr:housenumber": "35-47", "addr:postcode": "3677", "addr:street": "Green Street", "amenity": "hospital", "emergency": "yes", "healthcare": "hospital", "name": "Northeast Health Wangaratta", "phone": "+61 3 57220111", "website": "http://nhw.hume.org.au/"}}, {"type": "way", "id": 352050532, "center": {"lat": -36.7511052, "lon": 144.2806943}, "nodes": [11247497558, 3578253704, 9526604894, 5326445925, 5326445927, 9526608722, 5326446223, 5326445924, 9526608707, 9526608708, 3578253703, 9526608690, 9526608689, 9526608696, 3578253706, 9526604891, 10749956251, 10749956250, 11237553604, 10749956249, 11247497558], "tags": {"amenity": "hospital", "healthcare": "hospital", "landuse": "healthcare", "name": "Anne Caudle Campus", "operator": "Bendigo Health", "website": "https://www.bendigohealth.org.au/"}}, {"type": "way", "id": 366939649, "center": {"lat": -34.5452396, "lon": 146.4090693}, "nodes": [3709161406, 3709161580, 3709161420, 3709161407, 3709161378, 3709161387, 3709161422, 3709161490, 3709161469, 3709161488, 3709161472, 3709161426, 3709161545, 3709161406], "tags": {"amenity": "hospital", "emergency": "yes", "healthcare": "hospital", "name": "Leeton Hospital"}}, {"type": "way", "id": 367369801, "center": {"lat": -34.7431914, "lon": 146.547373}, "nodes": [3712997255, 3712997250, 3712997262, 3712997266, 3712997255], "tags": {"alt_name": "Narrandera Health Service", "amenity": "hospital", "emergency": "yes", "healthcare": "hospital", "name": "Narrandera Community Health Centre"}}, {"type": "way", "id": 370667820, "center": {"lat": -35.1186, "lon": 147.357543}, "nodes": [3743636801, 9419622827, 9419622830, 3743636809, 8460204478, 8460204485, 10075706781, 10075706780, 10075706779, 8460204465, 8460204472, 10075706786, 8460204473, 4664827587, 4664827588, 10075706791, 10075741990, 4664827590, 8460204474, 4664827589, 3743636804, 9419622829, 9419622828, 3743636801], "tags": {"alt_name": "Wagga Wagga Community Health Centre", "amenity": "hospital", "emergency": "yes", "healthcare": "hospital", "healthcare:speciality": "dentistry;emergency;intensive;surgery", "name": "Wagga Wagga Base Hospital", "operator": "NSW Health", "operator:type": "public", "operator:wikidata": "Q6867095", "website": "https://www.service.nsw.gov.au/nswgovdirectory/wagga-wagga-base-hospital", "wikidata": "Q7959526", "wikipedia": "en:Wagga Wagga Base Hospital"}}, {"type": "way", "id": 372008303, "center": {"lat": -34.747867, "lon": 149.7132041}, "nodes": [3755485479, 5857637210, 3755485486, 5857636983, 3755485467, 5857637192, 3755485483, 5857637207, 5857637201, 5857637141, 3755485479], "tags": {"amenity": "hospital", "emergency": "yes", "healthcare": "hospital", "name": "Goulburn Base Hospital", "website": "https://www.service.nsw.gov.au/nswgovdirectory/goulburn-base-hospital"}}, {"type": "way", "id": 376320463, "center": {"lat": -37.8280503, "lon": 145.104643}, "nodes": [3797641942, 3797641938, 3797641944, 3797641943, 3797641945, 3797641936, 3797641937, 3797641940, 3797641946, 3797641941, 3797641942], "tags": {"amenity": "hospital", "name": "BlueCross Broughtonlea", "old_name": "Mont Albert Surrey Hills (MASH) Private Hospital"}}, {"type": "way", "id": 377682365, "center": {"lat": -35.9157383, "lon": 145.6507258}, "nodes": [3810689779, 3810689780, 3810689781, 3810689782, 3810689783, 3810689784, 3810689785, 3810689786, 3810689787, 3810689779], "tags": {"addr:city": "Cobram", "addr:postcode": "3644", "addr:street": "Broadway Street", "amenity": "hospital", "healthcare": "hospital", "name": "Cobram District Hospital", "operator": "Cobram District Health", "phone": "+61 3 58710777", "website": "https://www.cobramdistricthealth.org.au/", "wheelchair": "yes"}}, {"type": "way", "id": 377719598, "center": {"lat": -36.2414017, "lon": 149.1305876}, "nodes": [3811079668, 3811079671, 3811079662, 3811079664, 9438434127, 3811079668], "tags": {"amenity": "hospital", "emergency": "yes", "healthcare": "hospital", "name": "Cooma Hospital", "website": "https://www.service.nsw.gov.au/nswgovdirectory/cooma-hospital-and-health-service"}}, {"type": "way", "id": 386442122, "center": {"lat": -33.8319459, "lon": 148.6924763}, "nodes": [3897708310, 3897708327, 3897708323, 3897708306, 3897708310], "tags": {"addr:postcode": "2794", "addr:state": "NSW", "addr:street": "Liverpool Street", "addr:suburb": "Cowra", "alt_name": "Cowra Health Service", "amenity": "hospital", "emergency": "yes", "fax": "+61 2 6342 2284", "healthcare": "hospital", "name": "Cowra Hospital", "operator": "Western NSW Local Health District", "operator:type": "public", "phone": "+61 2 5338 5500l", "website": "https://www.nsw.gov.au/health/wnswlhd/service-directory/cowra-health-service", "wheelchair": "yes"}}, {"type": "way", "id": 389781737, "center": {"lat": -37.9908387, "lon": 145.0725043}, "nodes": [3929450633, 3929450629, 3929450632, 3929450634, 3929450633], "tags": {"amenity": "hospital", "emergency": "no", "name": "Como Private Hospital", "toilets:wheelchair": "yes", "website": "https://www.comoprivatehospital.com.au/", "wheelchair": "yes"}}, {"type": "way", "id": 392705956, "center": {"lat": -35.5241322, "lon": 144.9632214}, "nodes": [3958961139, 3958961121, 3958961094, 3958961134, 11209192313, 11209192314, 3958961104, 3958961093, 3958961139], "tags": {"alt_name": "Deniliquin Hospital", "amenity": "hospital", "emergency": "yes", "healthcare": "hospital", "name": "Deniliquin Health Service"}}, {"type": "way", "id": 394521916, "center": {"lat": -34.4431013, "lon": 147.5430104}, "nodes": [3975204601, 3975204622, 3975204608, 3975204599, 3975204603, 3748769865, 3748769872, 3975204618, 3975204617, 3975204614, 3975204594, 3975204601], "tags": {"alt_name": "Temora Hospital", "amenity": "hospital", "emergency": "yes", "healthcare": "hospital", "name": "Temora Health Service"}}, {"type": "way", "id": 398097479, "center": {"lat": -31.7045005, "lon": 148.6648746}, "nodes": [7435541771, 4008774546, 7435548195, 7435548193, 7435548191, 7435548189, 7435548187, 7435548185, 4008736333, 7435548198, 4008774577, 4008774573, 7435541777, 7435541776, 7435541775, 7435541774, 7435541773, 7435541772, 7435541771], "tags": {"amenity": "hospital", "emergency": "yes", "healthcare": "hospital", "name": "Gilgandra Multi Purpose Service", "operator": "Western NSW Local Health District", "operator:type": "public"}}, {"type": "way", "id": 400977080, "center": {"lat": -37.8217033, "lon": 145.0228479}, "nodes": [10656722446, 4034587644, 4034587646, 4034587647, 4034587648, 4034587649, 4169720815, 10656722446], "tags": {"addr:housenumber": "46-52", "addr:street": "Burwood Road", "amenity": "hospital", "healthcare": "hospital", "name": "Epworth Hawthorn"}}, {"type": "way", "id": 401709588, "center": {"lat": -35.6240703, "lon": 144.1330509}, "nodes": [9421507469, 9421507440, 9421507439, 4041214348, 4041214347, 4041214343, 4041214344, 9421507470, 9421507468, 9421507469], "tags": {"addr:city": "Barham", "addr:postcode": "2732", "addr:street": "Punt Road", "alt_name": "Barham-Koondrook Soldiers Memorial Hospital", "amenity": "hospital", "emergency": "yes", "healthcare": "hospital", "name": "Barham Health Service", "operator": "Services NSW", "phone": "+61 3 5453 1000", "website": "https://www.service.nsw.gov.au/nswgovdirectory/barham-koondrook-soldiers-memorial-hospital", "wheelchair": "yes"}}, {"type": "way", "id": 403000168, "center": {"lat": -36.7330363, "lon": 146.9660291}, "nodes": [4053925615, 4053925619, 4053925617, 4053925627, 4053925630, 4053925616, 4053925623, 4053925618, 4053925631, 4053925622, 4053925624, 4053925628, 4053925632, 4053925634, 4053925633, 4053925626, 4053925620, 4053925625, 4053925629, 4053925621, 4053925615], "tags": {"amenity": "hospital", "building:levels": "1", "healthcare": "hospital", "name": "Bright District Hospital & Health Services"}}, {"type": "way", "id": 415013671, "center": {"lat": -32.2393476, "lon": 148.620953}, "nodes": [4161139569, 9446023518, 4161139571, 9446023517, 9474270537, 4161139582, 9474270535, 4742841341, 10086784186, 4742841372, 10086784189, 4455956055, 4455956058, 4455956059, 4455956057, 4455956056, 4161139578, 4161139569], "tags": {"addr:city": "Dubbo", "addr:postcode": "2830", "addr:street": "Myall Street", "alt_name": "Dubbo Hospital", "amenity": "hospital", "emergency": "yes", "healthcare": "hospital", "name": "Dubbo Base Hospital", "operator": "NSW Health, Western NSW Local Health District", "source": "LPI NSW Base Map"}}, {"type": "way", "id": 421754844, "center": {"lat": -36.3155336, "lon": 145.0423672}, "nodes": [4215016834, 4215016835, 4215016836, 4215016837, 4215016838, 11158312058, 11158312059, 4215016839, 5224686791, 5224686792, 5224686793, 4215016834], "tags": {"addr:city": "Kyabram", "addr:housenumber": "88", "addr:postcode": "3620", "addr:street": "Fenaughty Street", "amenity": "hospital", "healthcare": "hospital", "name": "Kyabram Hospital", "phone": "+61 3 5857 0200"}}, {"type": "way", "id": 423399148, "center": {"lat": -35.7786982, "lon": 148.0064412}, "nodes": [7601169999, 5018789812, 4230112947, 5018789810, 4230112953, 7601169995, 7601169998, 7601169999], "tags": {"addr:housenumber": "15", "addr:street": "Mitchell Street", "alt_name": "Tumbarumba Multi Purpose Service", "amenity": "hospital", "emergency": "yes", "healthcare": "hospital", "name": "Tumbarumba Hospital", "note": "web suggests house number 4 .. yet DCS has only odd numbers."}}, {"type": "way", "id": 426328412, "center": {"lat": -37.8861135, "lon": 145.0092029}, "nodes": [4256381007, 4256381008, 4256381009, 1021408155, 4256381007], "tags": {"addr:city": "Elsternwick", "addr:housenumber": "494", "addr:postcode": "3185", "addr:street": "Glen Huntly Road", "amenity": "hospital", "healthcare": "hospital", "name": "Cabrini Rehabilitation - Glen Huntly", "phone": "+61 3 9508 5200"}}, {"type": "way", "id": 426339014, "center": {"lat": -37.8848433, "lon": 145.0103836}, "nodes": [4256462535, 4256462538, 4256462556, 4256462554, 4256462564, 4256462562, 4256462535], "tags": {"addr:city": "Elsternwick", "addr:housenumber": "2-6", "addr:postcode": "3185", "addr:state": "VIC", "addr:street": "Hopetoun Street", "amenity": "hospital", "healthcare": "hospital", "name": "Cabrini Rehabilitation - Hopetoun Road", "operator": "Cabrini", "phone": "+61 3 9508 5100"}}, {"type": "way", "id": 430461708, "center": {"lat": -35.6676105, "lon": 147.0424387}, "nodes": [4297353238, 4297353067, 4297273548, 4297273545, 4297273552, 4297273549, 4297353238], "tags": {"amenity": "hospital", "emergency": "yes", "healthcare": "hospital", "name": "Culcairn Multi Purpose Service"}}, {"type": "way", "id": 430754098, "center": {"lat": -38.3412731, "lon": 143.5828381}, "nodes": [4300211365, 4300211356, 4300211382, 4300211369, 4300211365], "tags": {"amenity": "hospital", "name": "Colac Hospital", "website": "https://www.swarh2.com.au/cah"}}, {"type": "way", "id": 432304254, "center": {"lat": -35.6417791, "lon": 145.5680699}, "nodes": [4313831928, 3600113719, 3600113730, 4313832053, 9419622823, 9419622824, 9419622825, 9419622826, 4313831928], "tags": {"alt_name": "Finley Hospital", "amenity": "hospital", "emergency": "yes", "healthcare": "hospital", "name": "Finley Health Service"}}, {"type": "way", "id": 435140411, "center": {"lat": -37.754257, "lon": 144.958928}, "nodes": [4330922459, 4330922462, 4330922451, 4330922429, 4330922432, 4330922449, 4330922434, 4330922459], "tags": {"addr:city": "Coburg", "addr:housenumber": "275", "addr:postcode": "3058", "addr:street": "Moreland Road", "amenity": "hospital", "building": "yes", "name": "John Fawkner Private Hospital", "phone": "+61 3 93852500", "website": "http://www.johnfawknerprivatehospital.com.au/"}}, {"type": "way", "id": 435140412, "center": {"lat": -37.7540879, "lon": 144.9590938}, "nodes": [4330922466, 4330922440, 4330922431, 4330922448, 4330922442, 4330922433, 4330922466], "tags": {"addr:city": "Coburg", "addr:housenumber": "275", "addr:postcode": "3058", "addr:street": "Moreland Road", "amenity": "hospital", "building": "yes", "healthcare": "hospital", "name": "John Fawkner Private Hospital", "phone": "+61 3 93852500", "website": "http://www.johnfawknerprivatehospital.com.au/"}}, {"type": "way", "id": 435140414, "center": {"lat": -37.7543099, "lon": 144.9585262}, "nodes": [4330922468, 4330922467, 4330922452, 4330922445, 4330922439, 4330922444, 4330922454, 4330922436, 4330922427, 4330922434, 4330922449, 4330922428, 4330922463, 4330922464, 4330922458, 4330922460, 4330922450, 4330922437, 4330922446, 4330922435, 4330922443, 4330922468], "tags": {"addr:city": "Coburg", "addr:housenumber": "275", "addr:postcode": "3058", "addr:street": "Moreland Road", "amenity": "hospital", "building": "yes", "name": "John Fawkner Private Hospital", "phone": "+61 3 93852500", "website": "http://www.johnfawknerprivatehospital.com.au/"}}, {"type": "way", "id": 439643798, "center": {"lat": -35.9936314, "lon": 146.3834034}, "nodes": [4373173169, 4373173170, 4373173171, 4373173172, 4373173173, 3141158666, 4373173169], "tags": {"alt_name": "Corowa District Hospital", "amenity": "hospital", "healthcare": "hospital", "name": "Corowa Hospital"}}, {"type": "way", "id": 440702532, "center": {"lat": -37.9186315, "lon": 145.1214795}, "nodes": [4384836345, 4384836346, 4384836347, 9984547537, 9984547536, 4384836348, 9984547535, 9984547534, 9984547533, 9984547532, 9984547531, 9984547530, 9984547529, 4384836345], "tags": {"addr:city": "Clayton", "addr:housenumber": "212-220", "addr:postcode": "3168", "addr:street": "Clayton Road", "amenity": "hospital", "emergency": "no", "name": "Sir John Monash Private Hospital", "wikidata": "Q26802977"}}, {"type": "way", "id": 445910480, "center": {"lat": -37.5979252, "lon": 140.359103}, "nodes": [4432583109, 7111899423, 4432583111, 4432583113, 4432583114, 4432583112, 4432583110, 4432583115, 4432583109], "tags": {"amenity": "hospital", "healthcare": "hospital", "name": "Millicent and Districts Hospital and Health Service", "website": "https://www.sahealth.sa.gov.au/millicenthospital"}}, {"type": "way", "id": 450185203, "center": {"lat": -38.3411647, "lon": 141.6055578}, "nodes": [4471025364, 7360222590, 7360222597, 4471025616, 4471025621, 4471025370, 4471025371, 10038541609, 7360203932, 4471025602, 4471025630, 4471025364], "tags": {"amenity": "hospital", "name": "Portland District Hospital", "website": "https://swarh.com.au/pdh"}}, {"type": "way", "id": 459140274, "center": {"lat": -33.292687, "lon": 146.3741796}, "nodes": [4550544437, 4550545097, 4550545096, 4550544436, 4550544437], "tags": {"alt_name": "Lake Cargelligo Multi Purpose Service", "amenity": "hospital", "emergency": "yes", "healthcare": "hospital", "name": "Lake Cargelligo District Hospital", "phone": "+61 2 6898 0200", "website": "https://www.service.nsw.gov.au/nswgovdirectory/lake-cargelligo-district-hospital"}}, {"type": "way", "id": 462666237, "center": {"lat": -33.9165246, "lon": 147.19684}, "nodes": [4580391506, 4580391544, 4580389666, 9421747289, 4580389683, 9421747290, 9421747291, 4580389677, 9421747292, 4580391506], "tags": {"addr:street": "Ungarie Road", "amenity": "hospital", "emergency": "yes", "healthcare": "hospital", "name": "Wyalong Hospital"}}, {"type": "way", "id": 463976898, "center": {"lat": -33.7053435, "lon": 149.8533045}, "nodes": [4591696890, 4591696891, 4591696892, 4591696893, 4591696890], "tags": {"alt_name": "Oberon Multi Purpose Service", "amenity": "hospital", "emergency": "yes", "healthcare": "hospital", "name": "Oberon Hospital"}}, {"type": "way", "id": 469370525, "center": {"lat": -35.3481209, "lon": 149.2324783}, "nodes": [4637051364, 4637051365, 4637051366, 4637051367, 4637051368, 9443368573, 9443368572, 9443368571, 4637051369, 9443368568, 9443368569, 9443368570, 9443368574, 4637051364], "tags": {"amenity": "hospital", "emergency": "yes", "healthcare": "hospital", "name": "Queanbeyan Hospital"}}, {"type": "way", "id": 474103843, "center": {"lat": -35.0744335, "lon": 142.3125486}, "nodes": [4681231963, 4681231960, 4681231958, 4681231961, 4681231959, 4681231962, 4681231964, 4681231963], "tags": {"amenity": "hospital", "name": "Ouyen Hospital"}}, {"type": "way", "id": 475188176, "center": {"lat": -33.3536592, "lon": 149.9734251}, "nodes": [4689767728, 4689767679, 4689767694, 4689767665, 4689767730, 4689767733, 4689767717, 4689767685, 4689767689, 4689767728], "tags": {"amenity": "hospital", "healthcare": "hospital", "name": "Portland District Hospital"}}, {"type": "way", "id": 477798846, "center": {"lat": -37.7510259, "lon": 145.7052691}, "nodes": [4711014658, 4711014668, 4711015517, 4711015504, 4711015514, 4711015503, 4711014676, 4711014658], "tags": {"amenity": "hospital", "healthcare": "hospital", "name": "Warburton Hospital", "wikidata": "Q7968870"}}, {"type": "way", "id": 480675917, "center": {"lat": -37.7159482, "lon": 145.044581}, "nodes": [4736441460, 4736441461, 4736441462, 9798874695, 4736441460], "tags": {"amenity": "hospital", "emergency": "no", "healthcare": "hospital", "name": "LaTrobe University Podiatry Clinic", "operator": "LaTrobe University"}}, {"type": "way", "id": 481317349, "center": {"lat": -32.2368891, "lon": 148.6208721}, "nodes": [4742556455, 4742556456, 4742556457, 4742556458, 4742556459, 4742556460, 4742556461, 4742556462, 4742556463, 4742556455], "tags": {"addr:city": "Dubbo", "addr:postcode": "2830", "addr:street": "Moran Drive", "amenity": "hospital", "healthcare": "hospital", "name": "Dubbo Private Hospital", "operator": "Healthe Care Australia Pty Ltd", "operator:type": "private", "source": "LPI NSW Base Map"}}, {"type": "way", "id": 481480684, "center": {"lat": -36.334103, "lon": 141.6558135}, "nodes": [4744152278, 4744152279, 4744152280, 4744152281, 4744152278], "tags": {"addr:city": "Nhill", "addr:housenumber": "43-51", "addr:postcode": "3418", "addr:street": "Nelson Street", "amenity": "hospital", "name": "West Wimmera Health Service"}}, {"type": "way", "id": 481494062, "center": {"lat": -35.3404822, "lon": 143.5562221}, "nodes": [4744256790, 4744256791, 4744256792, 4744256793, 4744256794, 4744256795, 4744256796, 4744256797, 4744256798, 4744256799, 4744256790], "tags": {"addr:city": "Swan Hill", "addr:housenumber": "48", "addr:postcode": "3585", "addr:street": "Splatt Street", "amenity": "hospital", "emergency": "yes", "healthcare": "hospital", "name": "Swan Hill District Health"}}, {"type": "way", "id": 483020532, "center": {"lat": -37.9358992, "lon": 145.0509009}, "nodes": [6748861731, 4926239361, 6751613290, 6751613289, 6751613292, 6751613294, 6751613293, 4926239369, 6747879611, 750490734, 6748861731], "tags": {"addr:city": "Moorabbin", "addr:housenumber": "490", "addr:postcode": "3189", "addr:street": "South Road", "amenity": "hospital", "emergency": "yes", "healthcare": "hospital", "name": "Holmesglen Private Hospital", "operator": "Healthscope"}}, {"type": "way", "id": 487975558, "center": {"lat": -33.1529894, "lon": 148.1698859}, "nodes": [4803559347, 8857044399, 4803559348, 8857044403, 8857044401, 8857044408, 8857044407, 8857044406, 8857044332, 8857044404, 8857044411, 4803559347], "tags": {"addr:housenumber": "2", "addr:postcode": "2870", "addr:state": "NSW", "addr:street": "Morrissey Way", "addr:suburb": "Parkes", "alt_name": "Lachlan Health Service Parkes", "amenity": "hospital", "emergency": "yes", "healthcare": "hospital", "healthcare:speciality": "general;emergency;radiology", "name": "Parkes Hospital", "operator": "Lachlan Health Service-Parkes Hospital", "operator:type": "public/government", "source": "maxar premium", "source_ref": "https://www.hinfra.health.nsw.gov.au/our-projects/project-search/parkes-hospital"}}, {"type": "way", "id": 494418420, "center": {"lat": -37.9702786, "lon": 145.2132527}, "nodes": [4861769370, 4861769375, 4861769376, 4861769367, 4861769368, 4861769369, 4861769370], "tags": {"amenity": "hospital", "name": "Saint John of God"}}, {"type": "way", "id": 495571476, "center": {"lat": -35.1194653, "lon": 147.3528541}, "nodes": [4873122569, 4873122570, 10831421022, 10831421023, 10831421024, 10831421025, 10831421026, 10831421027, 10831421028, 10831421029, 4873122573, 4873122574, 4873122575, 4873122576, 4873122577, 4873122578, 10821227858, 4873122579, 4873122580, 10111515679, 4873122581, 4873122582, 4873122583, 4873122584, 4196537230, 4873122585, 4873122586, 8932788986, 4873122569], "tags": {"alt_name": "Calvary Health Care Riverina", "amenity": "hospital", "emergency": "no", "healthcare": "hospital", "name": "Calvary Hospital", "website": "https://www.calvarycare.org.au/riverina-private-hospital/services-and-clinics/riverina-surgicentre/", "wikidata": "Q5024192", "wikipedia": "en:Calvary Hospital, Wagga Wagga"}}, {"type": "way", "id": 503901378, "center": {"lat": -36.9662407, "lon": 140.7432402}, "nodes": [4941445133, 4941445142, 4941444720, 4941445137, 4941445144, 4941444707, 4941445143, 4941445140, 4941445130, 4941445126, 4941445133], "tags": {"amenity": "hospital", "emergency": "yes", "name": "Naracoorte Health Service"}}, {"type": "way", "id": 510072764, "center": {"lat": -36.0968651, "lon": 140.3450709}, "nodes": [4991677432, 4991677440, 4991677438, 4991677437, 6600211633, 6600211632, 6600211631, 6600211630, 4991677432], "tags": {"amenity": "hospital", "emergency": "yes", "healthcare": "hospital", "name": "Keith & District Hospital"}}, {"type": "way", "id": 511921065, "center": {"lat": -37.8878943, "lon": 144.7022004}, "nodes": [5006533044, 6639447257, 5006533045, 5006533046, 6639447266, 6639447267, 5006533047, 5006533048, 5006533049, 5006533044], "tags": {"addr:city": "Werribee", "addr:housenumber": "240", "addr:postcode": "3030", "addr:state": "VIC", "addr:street": "Hoppers Lane", "addr:suburb": "Werribee", "amenity": "hospital", "healthcare": "hospital", "name": "St Vincent's Private Hospital Werribee", "operator": "St Vincent's Health Australia", "operator:type": "religious", "phone": "+61 3 9218 8000", "website": "https://www.svphw.org.au/"}}, {"type": "way", "id": 511921069, "center": {"lat": -37.8865835, "lon": 144.7014367}, "nodes": [4060933039, 5479431694, 5006533069, 5006533050, 5006533051, 5479431696, 5006533052, 5479431703, 5006533053, 5006533062, 5006533063, 5006533054, 4060933039], "tags": {"addr:city": "Werribee", "addr:housenumber": "242", "addr:postcode": "3030", "addr:street": "Hoppers Lane", "amenity": "hospital", "email": "info@wyndhamclinic.com.au", "fax": "+61-3-97490972", "healthcare": "hospital", "name": "Wyndham Private Medical Centre", "phone": "+61-3-97316646", "website": "https://www.wyndhamprivate.com.au/"}}, {"type": "way", "id": 545775020, "center": {"lat": -37.8634159, "lon": 144.8923841}, "nodes": [250286941, 250286947, 7408370836, 7408370845, 250287021, 250286956, 250287016, 250286928, 4923870805, 250286927, 250286941], "tags": {"amenity": "hospital", "emergency": "yes", "healthcare": "hospital", "name": "Williamstown Hospital"}}, {"type": "way", "id": 545921886, "center": {"lat": -35.4434845, "lon": 149.8056778}, "nodes": [5276117432, 3711414722, 5276117434, 5276117435, 5276117436, 5276117437, 5276117438, 5276117439, 5276117440, 5276117441, 5276117442, 5276117443, 5276117444, 5276117432], "tags": {"addr:city": "Braidwood", "addr:housenumber": "73", "addr:postcode": "2622", "addr:province": "NSW", "addr:street": "Monkittee Street", "alt_name": "Braidwood District Hospital", "amenity": "hospital", "emergency": "yes", "healthcare": "hospital", "name": "Braidwood Multipurpose Service"}}, {"type": "way", "id": 551537848, "center": {"lat": -36.7491263, "lon": 144.281255}, "nodes": [3578253703, 9526608691, 8947609578, 10895464577, 9526604890, 9526608680, 9526604888, 9526604889, 9526608683, 5326446222, 9526608678, 9526608677, 9526608676, 8947609576, 9526608670, 9526608636, 5326445931, 5326446232, 5326445932, 9526604883, 9526604882, 9526604884, 9526604881, 5326446231, 5326445933, 10895521353, 10895521354, 10895521355, 10895521356, 10895521357, 10895521358, 10895521359, 10895521360, 5326446226, 5326446227, 9526604879, 9526604880, 9526604878, 9526608759, 9526604877, 9526604876, 9526604875, 9526604874, 9526604873, 9526604872, 9526604871, 9526604870, 9526604869, 9526604868, 9526604867, 9526604866, 9526608762, 9526604865, 9526608763, 5326446230, 5326446229, 5326446228, 5326445934, 9526608635, 5326445935, 5326445936, 5326445927, 9526608722, 5326446223, 5326445924, 9526608707, 9526608708, 3578253703], "tags": {"amenity": "hospital", "healthcare": "hospital", "landuse": "healthcare", "name": "Bendigo Health", "operator": "Bendigo Health", "toilets:wheelchair": "yes", "wheelchair": "yes"}}, {"type": "way", "id": 562158800, "center": {"lat": -37.9194124, "lon": 145.123559}, "nodes": [5419727404, 5419727405, 429184437, 30338761, 5421659976, 5419727406, 5421659977, 5419727408, 429184587, 5419727409, 9984594940, 5419732031, 5419727410, 9240094897, 9240094898, 5419727404], "tags": {"amenity": "hospital", "healthcare": "hospital", "name": "Monash Children's Hospital", "toilets:wheelchair": "yes", "wheelchair": "yes", "wikidata": "Q6898227"}}, {"type": "way", "id": 565943117, "center": {"lat": -35.3281809, "lon": 140.5142202}, "nodes": [3078596203, 5449203884, 5449203885, 5449203886, 3078596230, 3078596215, 3078596220, 3078596203], "tags": {"amenity": "hospital", "healthcare": "hospital", "name": "Lameroo District Hospital"}}, {"type": "way", "id": 566097293, "center": {"lat": -35.2576224, "lon": 140.9021694}, "nodes": [5450832316, 5450832317, 5450832314, 2104765152, 5450832318, 2104765153, 5450832315, 5450832316], "tags": {"amenity": "hospital", "healthcare": "hospital", "name": "Pinnaroo Soldiers' Memorial Hospital", "operator": "Mallee Health Service"}}, {"type": "way", "id": 569916788, "center": {"lat": -35.2324951, "lon": 149.0812117}, "nodes": [5479963215, 5479969727, 5479963220, 5479969731, 5479969734, 5479969752, 5479963214, 5479969754, 5479969728, 5479969745, 5479963206, 5479969726, 5479963215], "tags": {"amenity": "hospital", "emergency": "no", "healthcare": "hospital", "name": "University of Canberra Public Hospital", "source:geometry": "ACTBlocks", "source:name": "ACTNames"}}, {"type": "way", "id": 578308375, "center": {"lat": -36.9266354, "lon": 149.8791101}, "nodes": [5541743916, 5541744223, 9443502250, 5541743920, 9443502248, 9443502249, 5541743918, 5541743916], "tags": {"amenity": "hospital", "emergency": "yes", "healthcare": "hospital", "name": "Pambula Hospital"}}, {"type": "way", "id": 585601642, "center": {"lat": -32.2379202, "lon": 148.6269491}, "nodes": [4161139561, 4161139556, 10086784207, 4161139573, 4161139574, 4161139583, 4392851997, 5595897225, 4161139579, 5595897221, 4742841362, 4161139561], "tags": {"addr:city": "Dubbo", "addr:postcode": "2830", "addr:street": "Tony McGrane Place", "amenity": "hospital", "emergency": "no", "healthcare": "hospital", "name": "Lourdes Hospital & Community Health Service", "operator": "Catholic Healthcare"}}, {"type": "way", "id": 606038923, "center": {"lat": -37.6041005, "lon": 141.685943}, "nodes": [5746941758, 5746941760, 5746941771, 5746941780, 5746941758], "tags": {"amenity": "hospital", "healthcare": "hospital", "name": "Coleraine Hospital"}}, {"type": "way", "id": 611049200, "center": {"lat": -34.454724, "lon": 140.5643188}, "nodes": [5786201167, 5786201168, 5786201169, 5786201166, 5786201163, 5786201164, 5786201167], "tags": {"amenity": "hospital", "emergency": "yes", "name": "Loxton Hospital", "website": "https://www.sahealth.sa.gov.au/loxtonhospital"}}, {"type": "way", "id": 615520995, "center": {"lat": -36.7621968, "lon": 144.2615474}, "nodes": [5820362793, 9676315636, 9676315637, 9676315638, 5820362794, 5820362795, 5820362796, 5820362797, 5820362798, 5820362799, 5820362800, 5820362801, 5820362802, 5820362803, 5820362804, 9676315633, 9676315634, 9676315635, 5820362793], "tags": {"addr:housenumber": "1", "addr:postcode": "3550", "addr:state": "VIC", "addr:street": "Chum Street", "addr:suburb": "Bendigo", "amenity": "hospital", "building": "yes", "healthcare": "hospital", "healthcare:speciality": "otolaryngology;gastroenterology;surgery;gynaecology;orthopaedics;dental_oral_maxillo_facial_surgery;plastic_surgery;urology;podiatry;anaesthetics", "name": "Bendigo Day Surgery", "phone": "+61 3 5444 3533", "website": "https://bendigodaysurgery.com.au/"}}, {"type": "way", "id": 622687520, "center": {"lat": -38.0451795, "lon": 145.3443914}, "nodes": [2684848701, 2684848710, 5881279724, 2443732290, 5881278149, 1513612762, 5881279685, 2731106006, 10722900607, 10722900608, 10722900609, 5881279708, 5881278179, 5881279701, 5881279700, 10722900610, 10722900611, 5881278182, 5881278177, 2684848701], "tags": {"amenity": "hospital", "healthcare": "hospital"}}, {"type": "way", "id": 630869157, "center": {"lat": -31.9744969, "lon": 141.4626278}, "nodes": [5956404640, 5956404641, 5956404642, 5956404643, 5956404644, 5956404645, 5956404646, 5956404647, 5956404640], "tags": {"addr:housenumber": "267", "addr:street": "Eyre Street", "amenity": "hospital", "healthcare": "hospital", "name": "Southern Cross Hospital", "operator": "Southern Cross"}}, {"type": "way", "id": 631993572, "center": {"lat": -38.2247714, "lon": 145.0493429}, "nodes": [3426408339, 5967654397, 3059196360, 5967653677, 5967653683, 5967654389, 5967654396, 5967653680, 5967654394, 5967653679, 3059196388, 5967654398, 5967653684, 5967654390, 5967654387, 5967654400, 3426408339], "tags": {"amenity": "hospital", "healthcare": "hospital", "name": "Beleura Private Hospital", "operator": "Ramsay Health Care"}}, {"type": "way", "id": 665503968, "center": {"lat": -37.9426777, "lon": 145.0033614}, "nodes": [6228957738, 6228959956, 7888926800, 6228957749, 7888926799, 6228959958, 6228959964, 6228959931, 6228959906, 6228959929, 6228959892, 6228957738], "tags": {"addr:city": "Hampton", "addr:housenumber": "12-16", "addr:postcode": "3188", "addr:street": "Linacre Road", "amenity": "hospital", "emergency": "no", "healthcare": "hospital", "name": "Linacre Private Hospital", "phone": "+61 3 8530 5400", "website": "https://www.linacreprivate.com.au/"}}, {"type": "way", "id": 682014490, "center": {"lat": -30.3258296, "lon": 149.7768089}, "nodes": [3732403587, 9409189553, 6386881577, 6386881578, 6386881579, 3732403592, 3732403588, 3732403587], "tags": {"alt_name": "Narrabri District Health Service", "amenity": "hospital", "emergency": "yes", "healthcare": "hospital", "name": "Narrabri Hospital"}}, {"type": "way", "id": 694499348, "center": {"lat": -34.46439, "lon": 149.4674884}, "nodes": [6521236682, 6521236683, 6521236684, 8074723511, 6521252285, 6521252286, 6521252287, 6521252288, 6521252289, 6521236682], "tags": {"amenity": "hospital", "emergency": "yes", "healthcare": "hospital", "name": "Crookwell District Hospital"}}, {"type": "way", "id": 709867400, "center": {"lat": -37.8488256, "lon": 145.1220633}, "nodes": [6673452487, 6673452488, 6673452489, 6673452490, 6673452491, 6673452492, 6673452493, 6673452494, 6673452495, 6673452496, 6673452497, 6673452498, 6673452499, 6673452500, 6673452501, 6673452502, 6673452487], "tags": {"amenity": "hospital", "healthcare": "hospital"}}, {"type": "way", "id": 725232147, "center": {"lat": -37.9130448, "lon": 145.139492}, "nodes": [6801043009, 9207197690, 9207197691, 9207197692, 6801043010, 9207197693, 6801043011, 6801043012, 6801043013, 6801043014, 6801043015, 6801043016, 6801043017, 6801043009], "tags": {"amenity": "hospital", "construction": "hospital", "healthcare": "hospital", "opening_date": "2022"}}, {"type": "way", "id": 847382591, "center": {"lat": -38.1378177, "lon": 141.6242342}, "nodes": [7907443985, 7907443986, 7907443987, 7907443988, 7907443985], "tags": {"amenity": "hospital", "healthcare": "hospital"}}, {"type": "way", "id": 852230687, "center": {"lat": -38.3814122, "lon": 142.2271986}, "nodes": [7949456526, 7949456527, 7949456528, 7949456529, 7949456530, 7885753301, 7885753304, 7949456531, 7949456532, 7949456533, 7949456534, 7949456526], "tags": {"amenity": "hospital", "healthcare": "hospital", "name": "Moyne Health"}}, {"type": "way", "id": 866035797, "center": {"lat": -36.3636384, "lon": 145.4064908}, "nodes": [9098568081, 9098572670, 9098572671, 9098572672, 9098572673, 8072155251, 8280978663, 8280978666, 9098572674, 8280978667, 8280978668, 9098572694, 9098572695, 9098572691, 9098568084, 9098572702, 8383890059, 8383890058, 9098572675, 9098568081], "tags": {"amenity": "hospital", "healthcare": "hospital", "layer": "1", "name": "Psychiatric ward"}}, {"type": "way", "id": 875934629, "center": {"lat": -36.7188915, "lon": 144.2509915}, "nodes": [8152688881, 8152688883, 9395735811, 8152688884, 9345219938, 9395735810, 8152688885, 8212026435, 8152688886, 8152688887, 9395680492, 8152688889, 8018004618, 9395680493, 4098908091, 8152688881], "tags": {"amenity": "hospital", "healthcare": "hospital"}}, {"type": "way", "id": 894881008, "center": {"lat": -36.1117788, "lon": 143.7273499}, "nodes": [8318163887, 8318163884, 8318163885, 8318163886, 8318163887], "tags": {"amenity": "hospital", "name": "Boort District Health", "operator": "Victorian Government", "phone": "+61 3 5451 5200", "website": "http://bdh.vic.gov.au/"}}, {"type": "way", "id": 903540987, "center": {"lat": -35.8002454, "lon": 144.2149088}, "nodes": [8391810083, 8391810084, 8391810085, 8391810087, 8391810088, 8391810278, 8391810279, 8391810277, 8391810280, 8391810086, 8391810083], "tags": {"addr:housenumber": "144-148", "addr:postcode": "3568", "addr:state": "VIC", "addr:street": "King George Street", "addr:suburb": "Cohuna", "amenity": "hospital", "emergency": "no", "healthcare": "hospital", "name": "Cohuna District Hospital"}}, {"type": "way", "id": 948578377, "center": {"lat": -33.4245577, "lon": 148.3669433}, "nodes": [8780281753, 8780281754, 8780281755, 8780281756, 8780281753], "tags": {"amenity": "hospital", "healthcare": "hospital", "name": "Eugowra Multi-Purpose Service"}}, {"type": "way", "id": 960996340, "center": {"lat": -34.3206304, "lon": 148.2882828}, "nodes": [8889780596, 8889780597, 8889780598, 8889780599, 8889780600, 8889780601, 8889780596], "tags": {"amenity": "hospital", "emergency": "yes", "healthcare": "hospital", "name": "Young Health Service"}}, {"type": "way", "id": 960996372, "center": {"lat": -34.3212031, "lon": 148.2888214}, "nodes": [8889780598, 8889783395, 8889780600, 8889780599, 8889780598], "tags": {"addr:housenumber": "69", "addr:street": "Demondrille Street", "amenity": "hospital", "healthcare": "hospital", "healthcare:speciality": "geriatric;palliative;rehabilitation", "name": "Mercy Care Centre Young", "operator": "Mercy Health", "phone": "+61 2 6382 8444", "religion": "christian", "website": "https://health-services.mercyhealth.com.au/our-health-services/mercy-care-centre-young/"}}, {"type": "way", "id": 965598409, "center": {"lat": -35.1211895, "lon": 147.3544554}, "nodes": [8932786702, 8932786703, 10099206062, 8932786704, 8932786705, 10099206114, 10099206063, 10099206116, 8932786706, 8932786707, 8932786702], "tags": {"addr:housenumber": "2-8", "addr:street": "Meurant Avenue", "amenity": "hospital", "email": "rivadmin@riverinadaysurgery.com.au", "fax": "+61 2 6925 6257", "healthcare": "hospital", "healthcare:speciality": "paediatrics;gynaecology;general;surgery;urology;maxillofacial_surgery;plastic_surgery;gastroenterology", "name": "Riverina Day Surgery", "operator": "Cura Day Hospitals Group", "operator:type": "private", "phone": "+61 2 6925 6256", "website": "https://www.curagroup.com.au/riverina-day-surgery"}}, {"type": "way", "id": 965598445, "center": {"lat": -35.1160005, "lon": 147.3525106}, "nodes": [8932789250, 10078045873, 8932789251, 8932789252, 10078045876, 8932789253, 8932789250], "tags": {"addr:housenumber": "329", "addr:street": "Edward Street", "alt_name": "Calvary Day Procedure Centre", "amenity": "hospital", "healthcare": "hospital", "name": "Calvary Riverina Surgicentre", "operator": "Calvary", "operator:type": "religious", "phone": "+61 2 6925 4700", "website": "https://www.calvarycare.org.au/riverina-private-hospital/services-and-clinics/riverina-surgicentre/"}}, {"type": "way", "id": 974861664, "center": {"lat": -37.0183175, "lon": 145.1392414}, "nodes": [783628497, 305591401, 305591398, 3196439964, 9021534955, 9021534956, 9021534957, 9021534958, 9021534959, 9021534960, 783628497], "tags": {"amenity": "hospital", "healthcare": "hospital", "name": "Seymour Hospital"}}, {"type": "way", "id": 983072159, "center": {"lat": -37.79249, "lon": 145.3184779}, "nodes": [5973935757, 6084656179, 10017467078, 10017467079, 10017467080, 10017467077, 6084656178, 6084656177, 5973935757], "tags": {"addr:housenumber": "73A", "addr:postcode": "3138", "addr:state": "VIC", "addr:street": "Cambridge Road", "addr:suburb": "Mooroolbark", "amenity": "hospital", "emergency": "no", "healthcare": "hospital", "name": "Mooroolbark Residential Aged Care Facility", "operator": "Eastern Health", "operator:type": "public"}}, {"type": "way", "id": 987544205, "center": {"lat": -37.8582155, "lon": 145.1996514}, "nodes": [595492169, 101982332, 9128040101, 9128040102, 9128040103, 9128040104, 9128040105, 9128040106, 9128040107, 9128040108, 9128040109, 9128040110, 9128040111, 9128040112, 101982328, 101982329, 595492169], "tags": {"addr:housenumber": "645-647", "addr:postcode": "3133", "addr:state": "VIC", "addr:street": "Burwood Highway", "addr:suburb": "Vermont South", "amenity": "hospital", "emergency": "no", "healthcare": "hospital", "name": "Vermont Private Hospital"}}, {"type": "way", "id": 1005668821, "center": {"lat": -30.0309782, "lon": 148.1160976}, "nodes": [2565828801, 2565828807, 9278741550, 9278741551, 2565828801], "tags": {"alt_name": "Walgett Multi Purpose Service", "amenity": "hospital", "emergency": "yes", "healthcare": "hospital", "name": "Walgett Hospital", "operator": "NSW Health", "operator:wikidata": "Q6867095", "operator:wikipedia": "en:Ministry of Health (New South Wales)"}}, {"type": "way", "id": 1010493960, "center": {"lat": -38.1546964, "lon": 145.1330459}, "nodes": [4333160841, 4333160842, 9323308417, 9323308416, 9323308415, 9323308414, 4333160841], "tags": {"access": "private", "amenity": "hospital", "healthcare": "hospital", "name": "Frankston Private Hospital"}}, {"type": "way", "id": 1014120833, "center": {"lat": -37.6494642, "lon": 145.0095274}, "nodes": [764950807, 9356210605, 9356210604, 764950802, 764950804, 764950806, 764950807], "tags": {"amenity": "hospital"}}, {"type": "way", "id": 1019442437, "center": {"lat": -35.1463947, "lon": 147.2858569}, "nodes": [9402493537, 9402493538, 9402493539, 9402493540, 9402493537], "tags": {"amenity": "hospital", "healthcare": "hospital"}}, {"type": "way", "id": 1019853502, "center": {"lat": -34.6445298, "lon": 143.5685755}, "nodes": [1950345362, 9406175039, 9406175038, 9406175037, 9406175036, 9406175035, 1950345362], "tags": {"alt_name": "Balranald Multipurose Service", "amenity": "hospital", "emergency": "yes", "healthcare": "hospital", "name": "Balranald Multipurpose Services", "website": "https://www.healthdirect.gov.au/australian-health-services/20102154/balranald-multi-purpose-service/services/balranald-2715-court#d334a168-e54f-72e8-fe31-a845e6300c86"}}, {"type": "way", "id": 1019853503, "center": {"lat": -32.390316, "lon": 142.4150138}, "nodes": [2344021614, 9406175042, 9406175041, 9406175040, 2344021614], "tags": {"addr:postcode": "2879", "addr:street": "Perry Street", "amenity": "hospital", "emergency": "yes", "healthcare": "hospital", "name": "Menindee Health Service"}}, {"type": "way", "id": 1020423439, "center": {"lat": -30.2253779, "lon": 149.4484121}, "nodes": [2075578866, 9411485781, 9411485780, 9411485779, 9411485778, 9411485777, 9411485776, 2075578866], "tags": {"alt_name": "Wee Waa Hospital", "amenity": "hospital", "emergency": "yes", "healthcare": "hospital", "name": "Wee Waa Community Health Centre"}}, {"type": "way", "id": 1020735530, "center": {"lat": -31.6941139, "lon": 147.8358453}, "nodes": [2259728118, 9414434244, 9414434243, 9414434242, 9414434241, 9414434240, 9414434239, 9414434238, 9414434237, 9414434236, 9414434235, 9414434234, 9414434233, 9414434232, 9414434231, 9414434230, 9414434229, 9414434228, 2259728118], "tags": {"addr:street": "Doctor Kater Drive", "amenity": "hospital", "emergency": "yes", "healthcare": "hospital", "name": "Warren Multipurpose Health Service", "operator": "NSW Health"}}, {"type": "way", "id": 1021317406, "center": {"lat": -35.5155428, "lon": 147.0314025}, "nodes": [9419622818, 9419622817, 9419621616, 9419621615, 9419621614, 9419621613, 9419621612, 9419621611, 9419622818], "tags": {"amenity": "hospital", "emergency": "yes", "healthcare": "hospital", "name": "Henty Multi Pupose Service"}}, {"type": "way", "id": 1021530817, "center": {"lat": -35.6625978, "lon": 145.8121777}, "nodes": [9421590913, 9421590912, 9421590911, 9421590910, 9421590909, 9421590908, 9421590907, 9421590906, 9421590901, 9421590905, 9421590904, 9421590913], "tags": {"amenity": "hospital", "emergency": "yes", "healthcare": "hospital", "name": "Berrigan Multi Purpose Service"}}, {"type": "way", "id": 1021531091, "center": {"lat": -34.4431321, "lon": 148.7269865}, "nodes": [9421566085, 9421566084, 9421566083, 9421566082, 9421566081, 9421566080, 9421566079, 9421566078, 9421566077, 9421566076, 9421566075, 9421566074, 9421566085], "tags": {"amenity": "hospital", "emergency": "yes", "healthcare": "hospital", "name": "Boorowa Multi Purpose Service"}}, {"type": "way", "id": 1021533285, "center": {"lat": -33.4788889, "lon": 145.5389454}, "nodes": [2302362892, 9421511405, 9421511404, 9421511403, 9421511402, 9421511401, 2302362892], "tags": {"alt_name": "Hillston Multi Purpose Service", "amenity": "hospital", "emergency": "yes", "healthcare": "hospital", "name": "Hillston Hospital"}}, {"type": "way", "id": 1021533723, "center": {"lat": -35.3564209, "lon": 145.7205024}, "nodes": [9421620209, 9421620208, 9421620207, 9421620206, 9421620205, 9421620209], "tags": {"amenity": "hospital", "emergency": "yes", "healthcare": "hospital", "name": "Jerilderie Multi Purpose Service"}}, {"type": "way", "id": 1021548833, "center": {"lat": -34.5557325, "lon": 148.3602646}, "nodes": [2305844738, 9421734265, 9421734264, 9421734263, 9421734262, 9421734261, 2305844738], "tags": {"addr:street": "Swift Street", "amenity": "hospital", "emergency": "yes", "healthcare": "hospital", "name": "Murrumburrah Harden District Hospital"}}, {"type": "way", "id": 1021549391, "center": {"lat": -35.8153489, "lon": 145.5690649}, "nodes": [1901660562, 9421737637, 9421737636, 9421737635, 1901660562], "tags": {"alt_name": "Tocumwal Multi Purpose Service", "amenity": "hospital", "emergency": "yes", "healthcare": "hospital", "name": "Tocumwal Hospital", "website": "https://www.service.nsw.gov.au/nswgovdirectory/tocumwal-hospital"}}, {"type": "way", "id": 1021549887, "center": {"lat": -35.3254103, "lon": 146.2674914}, "nodes": [9421756656, 9421756655, 9421756654, 9421756653, 9421756656], "tags": {"amenity": "hospital", "emergency": "yes", "healthcare": "hospital", "name": "Urana Multi Purpose Service"}}, {"type": "way", "id": 1024092271, "center": {"lat": -36.9176335, "lon": 149.2350914}, "nodes": [2562217192, 9443467833, 9443467832, 9443467831, 9443467830, 9443467829, 2562217192], "tags": {"alt_name": "Bombala Multi Purpose Service", "amenity": "hospital", "emergency": "yes", "healthcare": "hospital", "name": "Bombala Hospital"}}, {"type": "way", "id": 1024099005, "center": {"lat": -34.8441077, "lon": 148.9066126}, "nodes": [9443504052, 9443504051, 9443504050, 9443504049, 9443504048, 9443504047, 9443504046, 9443504045, 9443504044, 9443504052], "tags": {"amenity": "hospital", "healthcare": "hospital", "name": "Yass District Hospital", "website": "https://www.service.nsw.gov.au/nswgovdirectory/yass-district-hospital"}}, {"type": "way", "id": 1024099646, "center": {"lat": -37.0447155, "lon": 148.945966}, "nodes": [9443462398, 9443462397, 9443462396, 9443462395, 9443462398], "tags": {"amenity": "hospital", "emergency": "yes", "healthcare": "hospital", "name": "Delegate Multi Purpose Service"}}, {"type": "way", "id": 1024143049, "center": {"lat": -37.7897205, "lon": 145.1715281}, "nodes": [9443906218, 9443906219, 9443906220, 9443906221, 4465561936, 4465561935, 9443906218], "tags": {"addr:housenumber": "1119", "addr:postcode": "3111", "addr:state": "VIC", "addr:street": "Doncaster Road", "addr:suburb": "Donvale", "amenity": "hospital", "emergency": "no", "healthcare": "hospital", "name": "Donvale Rehabilitation Hospital"}}, {"type": "way", "id": 1024384089, "center": {"lat": -33.4350865, "lon": 149.5888835}, "nodes": [9446037474, 9446037473, 9446037472, 9446037471, 9446037470, 9446037469, 9446037468, 9446037474], "tags": {"amenity": "hospital", "emergency": "no", "healthcare": "hospital", "hospital:type": "private", "name": "Bathurst Private Hospital", "website": "https://www.bathurstprivate.com.au/"}}, {"type": "way", "id": 1024448397, "center": {"lat": -33.3963508, "lon": 148.0138321}, "nodes": [9446530081, 9446530080, 9446530079, 9446530078, 9446530077, 9446530076, 9446530075, 9446530074, 9446530081], "tags": {"amenity": "hospital", "emergency": "yes", "healthcare": "hospital", "name": "Lachlan Health Service Forbes"}}, {"type": "way", "id": 1024452957, "center": {"lat": -30.0929277, "lon": 145.9479994}, "nodes": [9446615085, 9446615088, 1700534544, 9446615090, 9446615089, 9446615086, 9446615087, 9446615084, 9446615085], "tags": {"alt_name": "Bourke Multi Purpose Service", "amenity": "hospital", "emergency": "yes", "healthcare": "hospital", "name": "Bourke District Hospital"}}, {"type": "way", "id": 1024682467, "center": {"lat": -31.5090993, "lon": 145.8252235}, "nodes": [1994994852, 9448612548, 9448612547, 9448612546, 1994994852], "tags": {"amenity": "hospital", "emergency": "yes", "healthcare": "hospital", "name": "Cobar Health Service"}}, {"type": "way", "id": 1024683247, "center": {"lat": -33.0820962, "lon": 147.1542558}, "nodes": [9448615357, 9448615356, 9448615355, 9448615354, 9448615353, 9448615357], "tags": {"alt_name": "Condobolin Health Service", "amenity": "hospital", "emergency": "yes", "healthcare": "hospital", "name": "Condobolin Hospial"}}, {"type": "way", "id": 1025034445, "center": {"lat": -33.5377339, "lon": 149.2507025}, "nodes": [1124812249, 9451448021, 9451448020, 9451448019, 9451448018, 9451448017, 9451397916, 9451397915, 9451397914, 9451397913, 1124812249], "tags": {"amenity": "hospital", "emergency": "yes", "healthcare": "hospital", "name": "Blayney Hospital and Health Service"}}, {"type": "way", "id": 1025036292, "center": {"lat": -33.5569708, "lon": 148.6766159}, "nodes": [9451430135, 9451430134, 9451430133, 9451430132, 9451430131, 9451430130, 9451430135], "tags": {"amenity": "hospital", "emergency": "yes", "healthcare": "hospital", "name": "Canowindra Soldiers Memorial Hospital", "website": "https://www.healthdirect.gov.au/australian-health-services/23008476/canowindra-health-service-emergency-department/services/canowindra-2804-browns"}}, {"type": "way", "id": 1025067737, "center": {"lat": -32.0170209, "lon": 149.3973201}, "nodes": [9451761866, 9451761865, 9451761864, 9451761863, 9451761862, 9451761861, 9451761866], "tags": {"addr:housenumber": "70", "addr:postcode": "2844", "addr:street": "Digilah Street", "addr:town": "Dunedoo", "amenity": "hospital", "emergency": "yes", "healthcare": "hospital", "name": "Dunedoo Multipurpose Health Service"}}, {"type": "way", "id": 1025089938, "center": {"lat": -33.8943629, "lon": 148.1679041}, "nodes": [8724942406, 9451918275, 9451918274, 9451918271, 9451918272, 9451918273, 8724942406], "tags": {"amenity": "hospital", "emergency": "yes", "healthcare": "hospital", "name": "Grenfell Multi Purpose Service"}}, {"type": "way", "id": 1025092422, "center": {"lat": -32.3668248, "lon": 149.5221716}, "nodes": [9451943912, 9451943911, 9451943910, 9451943909, 9451943912], "tags": {"addr:postcode": "2852", "addr:street": "Goolma Road", "addr:town": "Gulgong", "amenity": "hospital", "emergency": "yes", "healthcare": "hospital", "name": "Gulgong Multipurpose Health Service", "website": "https://www.healthdirect.gov.au/australian-health-services/23010946/gulgong-multi-purpose-service/services/gulgong-2852-34-goolma-road"}}, {"type": "way", "id": 1025093125, "center": {"lat": -33.0876831, "lon": 148.8598199}, "nodes": [1417094080, 9451967852, 9451967851, 9451967850, 1417094080], "tags": {"alt_name": "Molong Multi Purpose Service", "amenity": "hospital", "emergency": "yes", "healthcare": "hospital", "name": "Molong District Hospital"}}, {"type": "way", "id": 1025359066, "center": {"lat": -32.2429455, "lon": 148.2389773}, "nodes": [9454156322, 9454156321, 9454156320, 9454156319, 9454156322], "tags": {"addr:housenumber": "128", "addr:postcode": "2821", "addr:street": "Cathundril Street", "addr:town": "Narromine", "amenity": "hospital", "emergency": "yes", "healthcare": "hospital", "name": "Narromine Health Service"}}, {"type": "way", "id": 1025360017, "center": {"lat": -31.5616975, "lon": 147.2019433}, "nodes": [1344564037, 9454170777, 9454170776, 9454170775, 1344564037], "tags": {"alt_name": "Nyngan Multi Purpose Service", "amenity": "hospital", "emergency": "yes", "healthcare": "hospital", "name": "Nyngan Health Service"}}, {"type": "way", "id": 1025361733, "center": {"lat": -32.7355255, "lon": 148.1988823}, "nodes": [2494870649, 9454177379, 9454177378, 9454177377, 2494870649], "tags": {"addr:housenumber": "4746", "addr:postcode": "2869", "addr:state": "NSW", "addr:street": "Newell Highway", "addr:suburb": "Peak Hill", "amenity": "hospital", "emergency": "yes", "healthcare": "hospital", "name": "Peak Hill Multi Purpose Service", "operator": "NSW Health", "operator:type": "government", "operator:wikidata": "Q6867095"}}, {"type": "way", "id": 1025362665, "center": {"lat": -32.8043104, "lon": 149.9754448}, "nodes": [9454205073, 9454205072, 9454205071, 9454205070, 9454205073], "tags": {"alt_name": "Rylstone Multi Purpose Service", "amenity": "hospital", "emergency": "yes", "healthcare": "hospital", "name": "Rylstone Hospital and Health Service"}}, {"type": "way", "id": 1025364244, "center": {"lat": -32.0306936, "lon": 147.9768545}, "nodes": [9454216646, 9454216645, 9454216644, 9454216643, 9454216646], "tags": {"amenity": "hospital", "emergency": "yes", "healthcare": "hospital", "name": "Trangie Multi Purpose Service"}}, {"type": "way", "id": 1025364993, "center": {"lat": -32.6348654, "lon": 147.5688798}, "nodes": [9454218813, 9454218812, 9454218811, 9454218810, 9454218813], "tags": {"amenity": "hospital", "emergency": "yes", "healthcare": "hospital", "name": "Tullamore Multi Purpose Health Service"}}, {"type": "way", "id": 1025366278, "center": {"lat": -32.5498451, "lon": 148.9522099}, "nodes": [478810971, 9454213035, 9454213034, 9454213033, 9454213032, 9454213028, 9454213031, 478810971], "tags": {"alt_name": "Wellington Multi Purpose Service", "amenity": "hospital", "emergency": "yes", "healthcare": "hospital", "name": "Wellington District Hospital"}}, {"type": "way", "id": 1027255041, "center": {"lat": -35.2952149, "lon": 149.1678934}, "nodes": [9470460941, 9470460940, 9470460939, 9470460938, 9470460937, 9470460936, 9470460935, 9470460941], "tags": {"alt_name": "Duntroon Health Centre", "amenity": "hospital", "healthcare": "hospital", "name": "Duntroon Military Hospital"}}, {"type": "way", "id": 1031857292, "center": {"lat": -37.8462394, "lon": 145.0544834}, "nodes": [3132796230, 9509348580, 9509348581, 9509348579, 9509348578, 3132796230], "tags": {"addr:housenumber": "888", "addr:postcode": "3214", "addr:state": "VIC", "addr:street": "Toorak Road", "addr:suburb": "Camberwell", "amenity": "hospital", "emergency": "no", "healthcare": "hospital", "name": "Epworth Camberwell"}}, {"type": "way", "id": 1057051180, "center": {"lat": -37.0353015, "lon": 141.2891656}, "nodes": [9712853426, 9712853427, 9712853428, 9712853429, 9712853426], "tags": {"amenity": "hospital", "healthcare": "hospital", "name": "Edenhope and District Memorial Hospital"}}, {"type": "way", "id": 1113180120, "center": {"lat": -36.381404, "lon": 141.2460378}, "nodes": [10184551944, 10184551945, 10184551946, 10184551947, 10184551944], "tags": {"amenity": "hospital", "healthcare": "hospital", "name": "Kaniava Hospital"}}, {"type": "way", "id": 1159318064, "center": {"lat": -38.1026363, "lon": 147.1289852}, "nodes": [10781107609, 10781107610, 10781107611, 10781107612, 10781107613, 10781107614, 10781107615, 10781107616, 10781107617, 10781107618, 10781107619, 10781107609], "tags": {"amenity": "hospital", "healthcare": "hospital"}}, {"type": "way", "id": 1167905350, "center": {"lat": -34.1848421, "lon": 142.1457019}, "nodes": [10861871368, 10861871369, 10861871370, 10861871371, 10861871368], "tags": {"addr:housenumber": "220-228", "addr:postcode": "3500", "addr:state": "VIC", "addr:street": "Thirteenth Street", "addr:suburb": "Mildura", "amenity": "hospital", "emergency": "no", "healthcare": "hospital", "name": "Mildura Health Private Hospital", "phone": "+61 3 5022 2611", "website": "https://www.milduraprivatehospital.com.au/"}}, {"type": "way", "id": 1212664866, "center": {"lat": -31.3299504, "lon": 148.4692386}, "nodes": [11235129906, 11235129907, 11235129908, 11235129909, 11235129906], "tags": {"amenity": "hospital", "healthcare": "hospital", "name": "Gulargambone Multi Purpose Service", "operator": "NSW Health", "operator:wikidata": "Q6867095"}}, {"type": "relation", "id": 2170880, "center": {"lat": -37.7164983, "lon": 145.044287}, "members": [{"type": "way", "ref": 162177314, "role": "outer"}, {"type": "way", "ref": 162177315, "role": "inner"}], "tags": {"alt_name": "LMC", "amenity": "hospital", "building": "yes", "healthcare": "hospital", "name": "La Trobe University Medical Centre", "type": "multipolygon"}}, {"type": "relation", "id": 2170881, "center": {"lat": -37.7159645, "lon": 145.0445826}, "members": [{"type": "way", "ref": 162177313, "role": "outer"}, {"type": "way", "ref": 162177312, "role": "inner"}], "tags": {"addr:housenumber": "920", "addr:postcode": "3083", "addr:street": "Plenty Road", "alt_name": "HSC", "amenity": "hospital", "building": "yes", "name": "La Trobe Private Hospital", "phone": "+61-3-94738591", "type": "multipolygon", "website": "http://www.latrobeprivate.com.au/"}}, {"type": "relation", "id": 2223496, "center": {"lat": -38.2371404, "lon": 143.1379434}, "members": [{"type": "way", "ref": 166785817, "role": "outer"}, {"type": "way", "ref": 166785816, "role": "outer"}, {"type": "way", "ref": 166785807, "role": "outer"}, {"type": "way", "ref": 166785814, "role": "outer"}, {"type": "way", "ref": 166785811, "role": "outer"}], "tags": {"amenity": "hospital", "emergency": "yes", "healthcare": "hospital", "name": "South West Healthcare - Camperdown Campus", "type": "multipolygon"}}, {"type": "relation", "id": 11017712, "center": {"lat": -37.812296, "lon": 144.984391}, "members": [{"type": "way", "ref": 27704708, "role": "outer"}], "tags": {"addr:city": "East Melbourne", "addr:housenumber": "159", "addr:postcode": "3002", "addr:state": "VIC", "addr:street": "Grey Street", "addr:suburb": "East Melbourne", "amenity": "hospital", "building:levels": "6", "emergency": "yes", "healthcare": "hospital", "name": "St Vincent's Private Hospital East Melbourne", "old_name": "Mercy Private Hospital", "operator": "St Vincent's Health Australia", "phone": "+61 3 99286555", "type": "multipolygon", "website": "http://www.stvincentsmercy.com.au", "wheelchair": "yes", "wikidata": "Q56676110"}}, {"type": "relation", "id": 12813873, "center": {"lat": -34.1100868, "lon": 141.9227973}, "members": [{"type": "way", "ref": 197292089, "role": "outer"}, {"type": "way", "ref": 951590279, "role": "outer"}], "tags": {"amenity": "hospital", "emergency": "yes", "healthcare": "hospital", "name": "Wentworth District Hospital", "source": "DCS NSW Base Map", "type": "multipolygon"}}, {"type": "relation", "id": 15618280, "center": {"lat": -38.4518364, "lon": 145.241041}, "members": [{"type": "way", "ref": 1155330640, "role": "outer"}, {"type": "way", "ref": 1155406769, "role": "inner"}], "tags": {"addr:housenumber": "50", "addr:street": "Church Street", "amenity": "hospital", "building": "hospital", "emergency": "yes", "healthcare": "hospital", "name": "Phillip Island Health Hub", "opening_hours": "24/7", "operator": "Bass Coast Health", "operator:website": "https://basscoasthealth.org.au", "phone": "+61 3 5951 2101", "type": "multipolygon"}}, {"type": "relation", "id": 16340387, "center": {"lat": -37.8110509, "lon": 144.9841976}, "members": [{"type": "way", "ref": 1208487402, "role": "inner"}, {"type": "way", "ref": 223479850, "role": "outer"}], "tags": {"amenity": "hospital", "building": "yes", "healthcare": "hospital", "name": "Epworth Freemasons", "operator": "Epworth Healthcare", "operator:type": "private", "phone": "+61 3 9483 3833", "type": "multipolygon", "website": "https://www.epworth.org.au/our-hospitals/pages/epworth-freemasons.aspx"}}]}