{"version": 0.6, "generator": "Overpass API 0.7.61.5 4133829e", "osm3s": {"timestamp_osm_base": "2023-10-31T20:47:26Z", "copyright": "The data included in this document is from www.openstreetmap.org. The data is made available under ODbL."}, "elements": [{"type": "node", "id": 50159939, "lat": -33.9866104, "lon": 18.4665444, "tags": {"amenity": "hospital", "healthcare": "hospital", "name": "Claremont Hospital"}}, {"type": "node", "id": 60482323, "lat": -33.942054, "lon": 18.4633143, "tags": {"addr:city": "Observatory, Cape Town", "addr:housenumber": "D18", "addr:postcode": "7925", "addr:street": "Anzio Road & Groote Schuur Avenue", "amenity": "hospital", "contact:phone": "(021) 442 1800", "email": "uct.info@netcare.co.za", "emergency": "yes", "healthcare": "hospital", "healthcare:speciality": "heart_and_lung_centre;paediatric_unit;uterine_fibroid_embolisation;thyroid_clinic;orthopaedic_specialised_unit;cape_pulmonology;intensive_care_unit;centre_for_diabetes_&_endocrinology_(cde", "name": "UCT Private Academic Hospital", "wheelchair": "yes"}}, {"type": "node", "id": 6638438865, "lat": -33.9365369, "lon": 18.4103896, "tags": {"addr:city": "Cape Town", "addr:housenumber": "21", "addr:postcode": "8001", "addr:street": "Hof Street", "amenity": "hospital", "email": "ctmc.dep@pathcare.co.za", "emergency": "yes", "fax": "021 422 0938", "healthcare": "hospital", "healthcare:speciality": "general;chronic;maternity", "name": "PathCare MediClinic Cape Town", "operator": "Mediclinic", "operator:type": "private", "operator:wikidata": "Q1916123", "phone": "021 422 0439"}}, {"type": "node", "id": 7352636272, "lat": -33.9178545, "lon": 18.4303698, "tags": {"addr:city": "Cape Town", "addr:postcode": "8001", "addr:street": "Cnr DF Malan Street and, Rua Bartholomeu Dias Plain, Foreshore", "amenity": "hospital", "beds": "248", "emergency": "yes", "healthcare": "hospital", "healthcare:speciality": "gynaecology;ophthalmology;orthopaedics;dentist;dermatology", "name": "Netcare Christiaan Barnard Memorial Hospital", "operator": "Netcare", "operator:type": "private", "operator:wikidata": "Q6998801", "operator:wikipedia": "en:Netcare", "phone": "+27 21 441 0000", "website": "https://www.netcarehospitals.co.za/Hospital/Netcare_Christiaan_Barnard_Memorial_Hospital"}}, {"type": "node", "id": 8866159617, "lat": -33.9011923, "lon": 18.6115614, "tags": {"amenity": "hospital", "healthcare": "hospital", "name": "Covid Testing"}}, {"type": "node", "id": 9265769424, "lat": -33.9694568, "lon": 18.659018, "tags": {"addr:city": "Wesbank", "addr:housenumber": "7", "addr:postcode": "7100", "addr:street": "Silversands Main Road", "amenity": "hospital", "healthcare": "hospital", "name": "Wesbank Clinic"}}, {"type": "node", "id": 9307289817, "lat": -33.9449229, "lon": 18.8514818, "tags": {"amenity": "hospital", "name": "Pathcare"}}, {"type": "way", "id": 4353198, "center": {"lat": -33.9542087, "lon": 18.4887086}, "nodes": [26506203, 285537264, 7057952455, 26506199, 7028620942, 386145982, 7057952435, 26506198, 386145945, 285537228, 386145948, 7057952433, 7057952221, 7057952493, 7057952491, 1612596079, 1612596082, 7057952490, 7057952492, 7057952187, 7057952636, 7057952631, 7057952632, 7057952633, 7057952634, 7057952629, 7057952628, 7057952627, 7057952425, 1612596107, 7057952626, 7057952622, 7057952621, 1612596122, 7057952618, 1612596138, 7057952613, 7057952610, 6970010766, 7057952619, 7057952620, 7057952630, 7057952635, 7057952204, 26506206, 7028620943, 1612596125, 1612596159, 26506205, 7057952479, 26506204, 26506203], "tags": {"addr:city": "Cape Town", "addr:postcode": "7700", "addr:street": "Klipfontein Road", "amenity": "hospital", "barrier": "fence", "emergency": "yes", "fax": "+27 (0)21 685 3891", "healthcare": "hospital", "healthcare:speciality": "emergency;chronic_illness;mental", "name": "Red Cross War Memorial Children's Hospital", "phone": "+27 21 658 5111", "website": "https://www.westerncape.gov.za/redcrosshospital", "wikidata": "Q7303965", "wikipedia": "en:Red Cross War Memorial Children's Hospital"}}, {"type": "way", "id": 4627773, "center": {"lat": -33.9395823, "lon": 18.480423}, "nodes": [9980162302, 9980162303, 9980162304, 9980162305, 9980162306, 9980162307, 9980162308, 9980162309, 9980162310, 9980162311, 9980162312, 9980162313, 9980162314, 9980162315, 9980162316, 9980180217, 9980180218, 9980180219, 9980180220, 9980180221, 9980180222, 9980180223, 9980180224, 9980180225, 9980180226, 9980180227, 9980180228, 4700020642, 4700020641, 4700020640, 4700020639, 4700020638, 29389253, 4700020636, 4700020635, 4700020632, 29389254, 4700020625, 29389255, 9980180229, 9980180230, 9980180231, 9980162302], "tags": {"addr:city": "Cape Town", "addr:postcode": "7925", "addr:street": "Valkenberg Hospital Road", "amenity": "hospital", "contact:phone": "+27 21 440 3111", "healthcare": "hospital", "healthcare:speciality": "psychiatry", "name": "Valkenberg Psychiatric Hospital", "wikidata": "Q7911755", "wikipedia": "en:Valkenberg Hospital"}}, {"type": "way", "id": 5098997, "center": {"lat": -33.9001392, "lon": 18.4853267}, "nodes": [4285193424, 4285193422, 34867721, 34867722, 6746091401, 34867723, 6746091400, 266987425, 34867724, 34867725, 34867726, 4264343338, 4264343341, 4264343347, 4285193424], "tags": {"addr:city": "Ysterplaat", "addr:postcode": "7425", "addr:street": "Stanberry Road,", "amenity": "hospital", "barrier": "fence", "contact:phone": "+27 21 508 7401", "healthcare": "hospital", "healthcare:speciality": "tb_care_management", "name": "Brooklyn Chest Hospital", "wikidata": "Q50036558"}}, {"type": "way", "id": 17232452, "center": {"lat": -34.0040835, "lon": 18.4536292}, "nodes": [178695315, 178695331, 10685898544, 178695349, 178695364, 178695384, 178695399, 178695421, 178695439, 178695315], "tags": {"addr:city": "Wynberg,Cape Town,", "addr:housenumber": "Wynberg Military Base", "addr:postcode": "7800", "addr:street": "Hospital Street", "amenity": "hospital", "contact:phone": "021 799 6911", "emergency": "yes", "healthcare": "hospital", "healthcare:speciality": "general;emergency;maternity;chronic", "name": "2 Military Hospital", "website": "www.mhs.mil.za", "wheelchair": "yes"}}, {"type": "way", "id": 23883140, "center": {"lat": -33.9409864, "lon": 18.4625845}, "nodes": [364761877, 25929810, 25929811, 25929812, 364761686, 364761964, 5682211679, 364762705, 364762730, 364762750, 364762770, 364762789, 364762816, 364762835, 364762852, 364762877, 364762899, 9460808357, 6490994688, 9460808356, 364762919, 364762938, 364762965, 364762983, 364762999, 364763023, 364763045, 364763065, 364763080, 364761877], "tags": {"addr:city": "Observatory,Cape Town", "addr:housenumber": "Groote Schuur Hospital", "addr:postcode": "7937", "addr:street": "Main Road", "amenity": "hospital", "contact:phone": "021 404 9111", "email": "Gsh.c&c@westerncape.gov.za", "emergency": "yes", "fax": "021 404 3260", "healthcare": "hospital", "name": "Groote Schuur Hospital", "website": "https://www.gsh.co.za/", "wikidata": "Q368400", "wikimedia_commons": "Category:Groote Schuur Hospital", "wikipedia": "en:Groote Schuur Hospital"}}, {"type": "way", "id": 26103725, "center": {"lat": -33.825615, "lon": 18.6546072}, "nodes": [285738610, 285738611, 4460060881, 4528721522, 285738613, 10057321167, 285738614, 4528721521, 285738616, 285738617, 285738610], "tags": {"addr:city": "Durbanville", "addr:housenumber": "45", "addr:postcode": "7550", "addr:street": "Wellington Road", "amenity": "hospital", "beds": "205", "emergency": "yes", "fax": "+27 21 975 1880", "healthcare": "hospital", "healthcare:speciality": "general;maternity;chronic", "name": "Mediclinic Durbanville Hospital", "operator": "Mediclinic", "operator:type": "private", "operator:wikidata": "Q1916123", "phone": "+27 21 980 2100", "website": "https://www.mediclinic.co.za/Hospitals/HospitalDetails/id/5"}}, {"type": "way", "id": 62124861, "center": {"lat": -33.6213791, "lon": 19.4577376}, "nodes": [775015529, 775015461, 775015589, 2490173216, 775015428, 775015529], "tags": {"addr:city": "Worcester", "addr:postcode": "6850", "addr:street": "Haarlem Street, Panorama", "amenity": "hospital", "healthcare": "hospital", "healthcare:speciality": "tb_hospital", "name": "Brewelskloof Hospital", "wikidata": "Q57399588"}}, {"type": "way", "id": 68305686, "center": {"lat": -33.9443723, "lon": 18.4893303}, "nodes": [822361287, 822361296, 7620897433, 822361311, 9920535694, 822361289, 822361306, 822361303, 822361285, 822361314, 822361291, 822361310, 822361288, 822361304, 822361286, 822361301, 822361283, 822361299, 822361316, 822361298, 822361313, 822361290, 822361307, 822361287], "tags": {"addr:city": "Pinelands", "addr:housenumber": "Life Vincent Pallotti Hospital", "addr:postcode": "7405", "addr:street": "Alexandra Road", "amenity": "hospital", "contact:phone": "+27 21 506 5111", "emergency": "yes", "healthcare": "hospital", "healthcare:speciality": "cardiology;cardio-thoracic_surger;dermatology;ear;nose_&_throat_surgery;fertility_treatment;gastroenterology;general_surgery;gynaecology;joint_replacement_surgery;laparoscopic_surgery;neurology_including_acute_stroke_care;orthopaedic_surgery;oncology;paed", "name": "Vincent Pallotti Hospital", "operator": "Life Health Care", "operator:type": "private", "operator:wikidata": "Q6458636"}}, {"type": "way", "id": 88213144, "center": {"lat": -34.0757445, "lon": 18.8572391}, "nodes": [2771526359, 10977654230, 10977654234, 10977654233, 10977654231, 10977654232, 3236645243, 10977654236, 1024901422, 10977654235, 1024901437, 2771526356, 1024901407, 1024901421, 1024901457, 11156476434, 2771526359], "tags": {"addr:city": "Somerset West", "addr:postcode": "7130", "addr:street": "c/o Lourensford and Hospital Roads", "alt_name": "HHH Hospital", "amenity": "hospital", "beds": "120", "emergency": "yes", "healthcare": "hospital", "healthcare:speciality": "gynaecology;orthopaedics;ophthalmology;surgery;obstetrics;paediatrics", "name": "Helderberg Hospital", "old_name": "Hottentots Holand Provincial Hospital", "operator": "Western Cape Department of Health", "operator:type": "public", "phone": "+27 21 850 4700", "website": "http://www.helderberghospital.co.za/", "wheelchair": "yes"}}, {"type": "way", "id": 101362730, "center": {"lat": -33.9192475, "lon": 18.8463481}, "nodes": [1170473787, 1170474909, 1170472719, 1170472244, 1170473787], "tags": {"addr:city": "Kayamandi, Stellenbosch", "addr:housenumber": "56", "addr:street": "56 Bassi Street", "amenity": "hospital", "building": "yes", "contact:phone": "021 889 5061", "healthcare": "hospital", "healthcare:speciality": "primary_health_care", "name": "Kayamandi Clinic", "operator": "Western Cape Health department", "operator:type": "public"}}, {"type": "way", "id": 112854575, "center": {"lat": -30.5698917, "lon": 17.9917776}, "nodes": [1281785516, 1281786165, 1281785696, 1281785038, 1281785509, 1281784944, 2379556991, 1281785516], "tags": {"addr:city": "Garies", "addr:postcode": "8220", "addr:street": "Main Road", "amenity": "hospital", "healthcare": "hospital", "name": "Joe Slovo Community Health Centre", "wikidata": "Q58022107"}}, {"type": "way", "id": 164977363, "center": {"lat": -33.5648466, "lon": 18.4952593}, "nodes": [1765706379, 1765706373, 1765706370, 1765706369, 4480111917, 1765706367, 1765706368, 1765706371, 2698854893, 1765706375, 2698854899, 2698854897, 4480111977, 4480111978, 2698854895, 1765706379], "tags": {"addr:city": "Cape Town", "addr:country": "ZA", "addr:place": "Wesfleur Hospital", "addr:postcode": "7349", "addr:province": "Western Cape", "addr:street": "Wesfleur Circle", "amenity": "hospital", "emergency": "yes", "healthcare": "hospital", "healthcare:speciality": "general;emergency;maternity;psychiatry", "name": "Wesfleur Hospital", "phone": "+27 21 571 8043", "wikidata": "Q57399576"}}, {"type": "way", "id": 220545296, "center": {"lat": -33.8967876, "lon": 18.659206}, "nodes": [2296565772, 2296565753, 11274384792, 2296565685, 4472014116, 4472014117, 4472014118, 2296565692, 4472014119, 4472014120, 4472014121, 4472014110, 4472014108, 4472014109, 2296565695, 2296565698, 4472014107, 4472014106, 4472014105, 4472014104, 4472014112, 2296565765, 2296565766, 4472014111, 2296565769, 2296565768, 2296565770, 2296565772], "tags": {"addr:city": "Bellville", "addr:housenumber": "75", "addr:postcode": "7530", "addr:street": "De la Haye Avenue", "amenity": "hospital", "email": "Elizabeth.Botha@westerncape.gov.za", "healthcare": "hospital", "healthcare:speciality": "psychiatry", "name": "Stikland Psychiatric Hospital", "operator": "Department of Health and Wellness (Western Cape Government)", "operator:type": "public", "phone": "+27 21 9404400", "website": "http://www.stiklandhospital.co.za/"}}, {"type": "way", "id": 231762776, "center": {"lat": -33.9529335, "lon": 18.4812339}, "nodes": [2400961113, 8111807442, 2400961116, 8111807446, 8111807448, 8111807447, 8111807449, 8111807450, 8111807445, 8111807444, 2400961122, 2400961121, 2400961120, 2400961119, 8111807443, 2400961118, 2400961117, 2400961115, 2400961114, 2400961113], "tags": {"addr:city": "Rosebank", "addr:country": "ZA", "addr:housenumber": "46", "addr:postcode": "7700", "addr:street": "Sawkins Road", "amenity": "hospital", "healthcare": "hospital", "healthcare:speciality": "psychiatry", "name": "Red Cross War Memorial Children's Hospital: Division of Child and Adolescent Psychiatry"}}, {"type": "way", "id": 272205243, "center": {"lat": -33.9980223, "lon": 18.7192193}, "nodes": [2771526062, 2771526251, 2771526271, 2771526086, 2771526074, 2771526072, 2771526062], "tags": {"addr:city": "Perm Gardens, Eerste River", "addr:housenumber": "1", "addr:postcode": "7100", "addr:street": "Humbolt Avenue", "amenity": "hospital", "beds": "124", "healthcare": "hospital", "healthcare:speciality": "emergency_centre;medical;paediatrics;psychiatry;surgery", "name": "Eerste River Hospital", "phone": "+27 21 902 8000", "wikidata": "Q57399526"}}, {"type": "way", "id": 272205244, "center": {"lat": -34.131167, "lon": 18.4146495}, "nodes": [2771526364, 2771526371, 2771526374, 2771526384, 2771526391, 2771526397, 2771526399, 6478969396, 6478969402, 6478969400, 6478969401, 6478969397, 6478969407, 6478969406, 6478969399, 6478969404, 6478969403, 6478969405, 6478969398, 43153400, 2771526394, 6478969412, 6478969416, 1614562931, 6478969415, 6478969413, 6478969414, 2771526388, 2771526386, 2771526364], "tags": {"addr:city": "Fish Hoek", "addr:full": "17th Avenue", "addr:postcode": "7975", "addr:street": "Seventeenth Avenue", "amenity": "hospital", "barrier": "fence", "contact:phone": "+27 21 782 1121", "emergency": "yes", "fax": "021 782 2306", "healthcare": "hospital", "healthcare:speciality": "physiotherapy;dental_services;dietitian;psychiatry_and_psychology;echocardiography;surgery;obstetric_services;antenatal_care", "name": "False Bay Hospital", "phone": "+27 21 782 1121", "wikidata": "Q57399528"}}, {"type": "way", "id": 272205247, "center": {"lat": -34.0508969, "lon": 18.674575}, "nodes": [2771526346, 7344994924, 6236288833, 6236288834, 7344994923, 7344994922, 2771526350, 6236288835, 6236288837, 6236288836, 2771526353, 6236288831, 6236288828, 6236288830, 6236288829, 6236288832, 6236288843, 6236288842, 6236288841, 6236288840, 2771526348, 6236288838, 7344994947, 7344994946, 7344994945, 7344994944, 7344994943, 7344994942, 7344994941, 7344994940, 7344994939, 7344994938, 7344994937, 6236288839, 2771526344, 2771526339, 7344994936, 7344994935, 7344994934, 7344994933, 7344994932, 7344994931, 7344994930, 7344994929, 7344994928, 7344994927, 7344994926, 7344994925, 2771526336, 2771526333, 6236288825, 6236288826, 6236288827, 2771526341, 2771526346], "tags": {"addr:city": "Khayelitsha, Cape Town", "addr:postcode": "7784", "addr:street": "C/o Steve Biko and Walter Sisulu Drives", "amenity": "hospital", "beds": "340", "emergency": "yes", "healthcare": "hospital", "healthcare:speciality": "24_hour_casualty_and_emergency_service;ambulance_station;consulting_/_counselling_rooms;laboratory;maternity;modern_operating_theatres;mortuary;treatment_area", "name": "Khayelitsha Hospital", "operator": "provincial government", "operator:type": "government", "phone": "+27 21 360 4200", "wheelchair": "yes", "wikidata": "Q57399537"}}, {"type": "way", "id": 272205248, "center": {"lat": -34.0217081, "lon": 18.6125184}, "nodes": [2771526302, 7344878036, 7344878037, 7344878038, 7344878005, 7344878004, 7344878003, 7344878002, 7344878001, 7344878000, 2771526304, 7344877999, 7344877998, 2771526307, 7344877997, 7344877996, 7344878006, 7344878007, 2771526312, 2771526315, 7344878008, 7344878009, 7344878010, 7344878011, 2771526322, 7344878012, 7344878013, 7344878014, 2771526330, 8319050306, 7344878015, 7344878016, 2771526327, 7344878017, 7344878018, 7344878019, 2771526320, 2771526317, 7344878020, 7344878021, 7344878022, 2771526310, 7344878023, 7344878024, 7344878025, 7344878026, 7344878028, 7344878027, 7344878030, 7344878031, 2771526295, 7344878032, 7344878033, 7344878034, 2771526300, 7344878035, 2771526302], "tags": {"addr:city": "Mitchells Plain", "addr:housenumber": "8", "addr:postcode": "7789", "addr:street": "A.Z. Berman Drive", "amenity": "hospital", "emergency": "yes", "healthcare": "hospital", "name": "Mitchells Plain Hospital", "phone": "+27 21 377 4300", "wikidata": "Q57399547"}}, {"type": "way", "id": 272205250, "center": {"lat": -33.9051154, "lon": 18.4162457}, "nodes": [2771525943, 7283721353, 2771525954, 7283721354, 2771525957, 7283721355, 4220407923, 7283721356, 2771525960, 2771525963, 7283721357, 7283721358, 7283721359, 7283721360, 7283721361, 2771525975, 4220411410, 7283721362, 2771525978, 7283721339, 7283721340, 7283721363, 7283721364, 7283721365, 7283721366, 7283721367, 7283721368, 7283721369, 7283721370, 7283721371, 7283721372, 7283721373, 7283721374, 2771525986, 7283721375, 7283721376, 7283721377, 7283721378, 7283721379, 7283721380, 4220411430, 4220411428, 4220411426, 7283721381, 4220410482, 4220410483, 4220410484, 7283721382, 7283721383, 7283721384, 4220412322, 7283736585, 7283736586, 7283736587, 7283736588, 7283736589, 7283736590, 4220412321, 4220412320, 7283736591, 7283736592, 7283736593, 7283736594, 4220412317, 7283736595, 4220412319, 7283721343, 7283721342, 4220412315, 7283721341, 4220409757, 8341244891, 7283721344, 7283736596, 2771525983, 7283721349, 7283721350, 7283721351, 2771525980, 7283721345, 7283736597, 7283736598, 7283721352, 266672541, 7283736599, 7283736601, 7283736600, 7283721348, 7283721347, 2771525966, 7283721346, 7283736603, 7283736605, 2771525951, 2771525948, 2771525943], "tags": {"addr:city": "Green Point", "addr:postcode": "8001", "addr:street": "Portswood Road", "alt_name": "Somerset Hospital", "amenity": "hospital", "barrier": "fence", "emergency": "yes", "healthcare": "hospital", "healthcare:speciality": "general;emergency;maternity", "name": "New Somerset Hospital", "phone": "+27 21 402 6911", "wikidata": "Q7559879", "wikipedia": "en:Somerset Hospital (Cape Town)"}}, {"type": "way", "id": 272205252, "center": {"lat": -34.0121771, "lon": 18.4589682}, "nodes": [1638433305, 1638433307, 6815704329, 6815704366, 2771526289, 2771526292, 6815704367, 6434511239, 2771526283, 2771526278, 2771526280, 1638433305], "tags": {"addr:city": "Wynberg", "addr:postcode": "7800", "addr:street": "Alphen Hill Road", "amenity": "hospital", "email": "Jonathan.Vaughan@westerncape.gov.za", "emergency": "yes", "healthcare": "hospital", "name": "Victoria Hospital", "phone": "+27 21 799 1111", "wheelchair": "yes", "wikidata": "Q57399572"}}, {"type": "way", "id": 288199707, "center": {"lat": -33.4552281, "lon": 18.7223497}, "nodes": [2917474726, 2917474727, 2917474734, 2917474733, 2917474732, 2917474731, 2917474730, 2917474729, 2917474726], "tags": {"addr:city": "Malmesbury,Swartland", "addr:postcode": "7299", "addr:street": "P G Nelson Street", "amenity": "hospital", "emergency": "yes", "fax": "022 482 1505", "healthcare": "hospital", "name": "Hospitaal Swartland", "name:af": "Hospitaal Swartland", "name:en": "Swartland Hospital", "phone": "022 487 9203", "wikidata": "Q57399568"}}, {"type": "way", "id": 304733345, "center": {"lat": -33.9185129, "lon": 18.6749327}, "nodes": [3093274158, 3093274159, 3161727513, 3093274160, 3161727514, 3161727515, 3093274161, 3161727516, 3161727517, 3161727519, 3161727518, 3093274162, 3093274158], "tags": {"addr:city": "Kuils River", "addr:housenumber": "33", "addr:postcode": "7580", "addr:street": "Van Riebeeck Road", "amenity": "hospital", "building:levels": "5", "email": "clients@pathcare.co.za", "emergency": "yes", "healthcare": "hospital", "healthcare:speciality": "general_surgery;gynaecology_&_obstetrics;angiography;cardio_thoracic_surgery;cath_la;24_hour_trauma_unit;neuro-surgery;oncology;ophthalmology;orthopaedics;paediatrics;pathology;plastic_-_and_reconstructive_surgery;physiotherapy;psychiatry;radiology;urolog", "name": "Netcare Kuils River Hospital", "name:af": "Netcare Kuilsrivier Hospitaal", "operator": "Netcare", "operator:type": "private", "phone": "+27 21 900 6000"}}, {"type": "way", "id": 316841425, "center": {"lat": -34.0495362, "lon": 18.6232575}, "nodes": [1836197109, 3230260628, 3230260629, 1836197112, 6970325402, 7301939400, 1836197109], "tags": {"addr:city": "Mitchells Plain", "addr:postcode": "7785", "addr:street": "Symphony Walk", "amenity": "hospital", "building": "yes", "email": "mph.helpdesk@pathcare.co.za", "emergency": "yes", "fax": "021 3914777", "healthcare": "hospital", "healthcare:speciality": "general;maternity;chonic", "name": "Melomed Mitchells Plain Private Hospital", "opening_hours": "24/7", "operator": "MelMed", "operator:type": "private", "phone": "0213923126"}}, {"type": "way", "id": 336957966, "center": {"lat": -33.7186123, "lon": 18.969521}, "nodes": [3440516354, 9293124788, 9293124789, 9293124790, 3440516353, 9293124791, 3440516374, 3440516390, 9293124792, 9293124793, 3440516391, 9293124794, 9293124787, 3440516392, 9293124783, 9293124786, 3440516354], "tags": {"addr:city": "Paarl", "addr:postcode": "7646", "addr:street": "Berlyn Street, Noorder-Paarl", "amenity": "hospital", "contact:phone": "+27 21 807 8000", "emergency": "yes", "healthcare": "hospital", "healthcare:speciality": "critical/_highcare_unit;baby_wellness_clinic;pre-admission_centre;pathology;radiology", "name": "Mediclinic Paarl", "operator": "Mediclinic", "operator:type": "private", "operator:wikidata": "Q1916123"}}, {"type": "way", "id": 396735772, "center": {"lat": -32.9136685, "lon": 17.9906259}, "nodes": [3995627860, 3995627861, 3995627862, 3995627863, 3995627864, 3995627865, 3995627866, 3995627867, 3995627868, 3995627869, 3995627870, 3995627860], "tags": {"addr:city": "Vredenburg, Saldanha Bay", "addr:housenumber": "123", "addr:postcode": "7380", "addr:street": "Voortrekker Street", "amenity": "hospital", "contact:phone": "022 709 7200", "emergency": "yes", "fax": "022 713 3423", "healthcare": "hospital", "healthcare:speciality": "clinics_-_medical;hospitals;nursing_homes;dispensary;medical_clinics", "name": "Vredenburg Provincial Hospital", "name:af": "Vredenburg Provinsiale Hospitaal", "name:en": "Vredenburg Provincial Hospital", "operator": "Department of Health and Wellness (Western Cape Government)", "operator:type": "public"}}, {"type": "way", "id": 398951841, "center": {"lat": -33.9475026, "lon": 18.5436973}, "nodes": [4016913172, 4016913173, 4016913174, 4016913175, 4016913176, 4016913177, 4016913172], "tags": {"addr:city": "Bonteheuwel", "addr:housenumber": "49", "addr:postcode": "7764", "addr:street": "Corner Candlewood and Citrus Street", "amenity": "hospital", "contact:phone": "021 695 8238", "email": "luntu.mbanga@westerncape.gov.za", "emergency": "yes", "healthcare": "hospital", "healthcare:speciality": "general;maternity;emergency", "name": "Vanguard Community Health Centre", "operator": "Department of Health and Wellness (Western Cape Government)", "operator:type": "public"}}, {"type": "way", "id": 408816336, "center": {"lat": -33.3630505, "lon": 19.30035}, "nodes": [4107238362, 4107238363, 4107238364, 4107238365, 4107238366, 4107238362], "tags": {"addr:city": "Ceres, Witzenberg, Boland", "amenity": "hospital", "healthcare": "hospital", "healthcare:speciality": "24_hour_emergency_centre;paediatrics;maternity_ward;out_patient_department;theatre", "name": "Ceres Hospital", "service_times": "24/7", "wikidata": "Q57399522"}}, {"type": "way", "id": 412983686, "center": {"lat": -33.9377736, "lon": 18.4146866}, "nodes": [4143054322, 4143054325, 4143054326, 4143054324, 4143054323, 4143054321, 4143054320, 4143054322], "tags": {"addr:city": "Cape Town", "addr:country": "ZA", "addr:housenumber": "32", "addr:postcode": "8001", "addr:street": "Prince Street", "addr:suburb": "Oranjezicht", "amenity": "hospital", "email": "malcolmforster@boothhosp.org", "emergency": "yes", "fax": "+27 21 461 4106", "healthcare": "hospital", "healthcare:speciality": "general;maternity;chronic", "name": "Booth Memorial Hospital", "operator": "The Salvation Army", "operator:type": "public", "phone": "+27 21 465 4846", "website": "http://salvationarmy.org.za/hospitals/"}}, {"type": "way", "id": 412983690, "center": {"lat": -33.9364883, "lon": 18.4103367}, "nodes": [4143054316, 4143054317, 4143054319, 4143054318, 4143054314, 4143054315, 4143054316], "tags": {"addr:city": "Cape Town", "addr:country": "ZA", "addr:housenumber": "21", "addr:postcode": "8001", "addr:street": "Hof Street", "addr:suburb": "Oranjezicht", "amenity": "hospital", "email": "hospmngrcapet@mediclinic.co.za", "emergency": "yes", "fax": "+27 21 464 5501", "healthcare": "hospital", "healthcare:speciality": "obstetrics;orthopaedics;neonatal;arthroscopic_surgery;pathology;radiology;neuroscience", "name": "Mediclinic Cape Town", "opening_hours": "24/7", "operator": "Mediclinic", "operator:type": "private", "operator:wikidata": "Q1916123", "phone": "+27 21 464 5500", "website": "https://www.mediclinic.co.za/", "wheelchair": "yes"}}, {"type": "way", "id": 436877903, "center": {"lat": -34.2244592, "lon": 19.433513}, "nodes": [4347336428, 4347336429, 4347336430, 4347336431, 4347336432, 4347336433, 4347336434, 4347336435, 4347336436, 4347336437, 4347336438, 4347336439, 4347336428], "tags": {"addr:city": "Corner N2 and Nerina Way, Caledon, Western Cape, South Africa", "amenity": "hospital", "contact:phone": "+27 (0)28 212 1072", "healthcare": "hospital", "name": "Caledon Hospital", "wikidata": "Q57399521"}}, {"type": "way", "id": 444317607, "center": {"lat": -33.8761725, "lon": 18.5778448}, "nodes": [4418047183, 7361963887, 7361963886, 7361963885, 7361959884, 4418047181, 7361959883, 7361959882, 4418047179, 2271721074, 7361963904, 2271721071, 7361985415, 2271721069, 7361963903, 7361963902, 7361963901, 7361963900, 7361963899, 4418047177, 4418047178, 7361963898, 7361963897, 7361963896, 7361963895, 4418047182, 7361963894, 7361963893, 4418047184, 11029848972, 7361963892, 7361963891, 4418047180, 11029848991, 7361963890, 7361963889, 7361963888, 4418047187, 4418047186, 4418047185, 4418047183], "tags": {"addr:city": "Panorama, Cape Town", "addr:postcode": "7500", "addr:street": "Rothschild Boulevard", "amenity": "hospital", "beds": "400", "contact:phone": "+27 21 938 2111", "healthcare": "hospital", "healthcare:speciality": "24_hour_emergency_centre;endoscopy_unit;heart-lung_and_vascular_unit;neonatal_intensive_care;maternity_ward;theatre_complex", "name": "Mediclinic Panorama", "operator": "Mediclinic", "operator:type": "private"}}, {"type": "way", "id": 449962962, "center": {"lat": -33.9015376, "lon": 18.6244194}, "nodes": [4468809519, 7400791693, 7400791694, 7400791695, 4468809510, 7400791696, 7400791698, 4468809508, 7400791697, 4468809505, 4468809504, 7400791699, 7400791701, 7400791700, 7400791702, 7400791703, 7400791704, 7400791705, 7400791709, 7400791708, 7400791707, 7400791706, 4468809496, 7400791711, 7400791710, 7400791712, 7400791713, 7400791714, 7400791715, 4468809518, 7400791716, 7400791717, 7400791718, 7400791719, 9971634474, 7400791720, 7400791721, 7400791722, 7400791723, 4468809519], "tags": {"addr:city": "Cape Town", "addr:street": "Voortrekker Road", "amenity": "hospital", "building": "yes", "contact:phone": "+27 21 948 8131", "contact:website": "https://www.melomed.co.za/melomedbellville.asp", "emergency": "yes", "healthcare": "hospital", "healthcare:speciality": "maternity;chronic;general", "name": "Melomed Private Hospital Bellville", "opening_hours": "24/7", "operator": "Melomed Private Hospital", "operator:type": "private"}}, {"type": "way", "id": 450241608, "center": {"lat": -33.8719666, "lon": 18.6368726}, "nodes": [4471621801, 4471621802, 4471621803, 4471621804, 4471621805, 4471621806, 4471621807, 4471621808, 4471621809, 4471621810, 4471621811, 4471621812, 4471621813, 4471621801], "tags": {"addr:city": "Tyger Valley, Bellville", "addr:housenumber": "43", "addr:postcode": "7530", "addr:street": "Old Oak Road", "amenity": "hospital", "emergency": "no", "healthcare": "hospital", "healthcare:speciality": "general;dentistry;day_hospital;sub-acute_hospital;optometry;dietician;biokinetics;radiology;pharmacy;audiology;physiotherapy;travel_health", "name": "Intercare Medical & Dental Centre", "operator": "Intercare", "operator:type": "private", "phone": "+27 21 943 3500"}}, {"type": "way", "id": 450262906, "center": {"lat": -33.8939711, "lon": 18.5589546}, "nodes": [4471848115, 4471848116, 5985473484, 5985477988, 4471848117, 5985480085, 5985480087, 7522494325, 4471848118, 5985477990, 4471848119, 4471848120, 4471848121, 4471848122, 4471848123, 4471848124, 4471848125, 4471848126, 4471848127, 4471848128, 4471848129, 5942817712, 4471848131, 4471848132, 4471848115], "tags": {"addr:city": "Northern Suburbs, Goodwood", "addr:housenumber": "N1 City Hospital", "addr:postcode": "7460", "addr:street": "Louwtjie Rothman Avenue", "amenity": "hospital", "contact:phone": "021 590 4444", "contact:website": "https://www.netcarehospitals.co.za/Hospital/Netcare-N1-City-Hospital", "emergency": "yes", "healthcare": "hospital", "healthcare:speciality": "anaesthesiology;cardiology;cardiothoracic_surgery;dentistry;dermatology;ear;nose_and_throat_surgery;general_practice;general_surgery;geriatric_medicine;gynaecology;internal_medicine;maxillo-facial_and_oral_surgery;neonatology;nephrology;neurology;neurosur", "name": "Netcare N1 City Hospital", "operator": "Netcare", "operator:type": "private", "operator:wikidata": "Q6998801", "wheelchair": "yes"}}, {"type": "way", "id": 450308821, "center": {"lat": -33.9012259, "lon": 18.6132267}, "nodes": [4472250983, 7379449090, 4472250982, 4472251002, 7379449097, 7379443681, 11252598440, 7379449095, 4472251003, 7379449091, 7379443668, 7379443667, 4472250983], "tags": {"addr:city": "Bellville, Cape Town,", "addr:postcode": "7530", "addr:street": "Broadway Road", "amenity": "hospital", "contact:phone": "+27 21 957 6000", "emergency": "yes", "healthcare": "hospital", "healthcare:speciality": "antenatal_classes;maternity;speech_therapists;audiologists;institute_for_osteoporosis;optimal_wound_care_clinic;pathology;radiology;physiotherapists", "name": "Mediclinic Louis Leipoldt", "operator": "Mediclinic", "operator:type": "private"}}, {"type": "way", "id": 450680079, "center": {"lat": -33.3608841, "lon": 19.3081948}, "nodes": [4476005496, 4476005495, 4476005497, 4476005500, 4476005499, 4476005498, 4476005496], "tags": {"addr:city": "Ceres", "addr:housenumber": "2", "addr:postcode": "6835", "addr:street": "Faure Street", "amenity": "hospital", "beds": "28", "contact:phone": "+27 23 316 1304", "emergency": "yes", "healthcare": "hospital", "name": "Netcare Ceres Hospital", "operator": "Netcare", "operator:type": "private", "operator:wikidata": "Q6998801", "operator:wikipedia": "en:Netcare"}}, {"type": "way", "id": 453709045, "center": {"lat": -33.8484371, "lon": 18.6967267}, "nodes": [4504077947, 4504077948, 4504077967, 4504077949, 4504077965, 4504077950, 4504077964, 4504077963, 4504077951, 4504077959, 4504077952, 4504077962, 4504077961, 4504077953, 4504077954, 4504077960, 4504077947], "tags": {"addr:city": "Brackenfell Cape Town,", "addr:postcode": "7560", "addr:street": "Cnr Okavango and Tanner Roads", "amenity": "hospital", "emergency": "yes", "fax": "+27 21 983 5917", "healthcare": "hospital", "healthcare:speciality": "gynaec_&_obgyn;general_surgery;orthopedics;urology;ophthalmology;ent_surgery;maxillofacial_and_oral_surgery;cosmetic_surgery;anesthesiology", "name": "Cape Gate Medi Clinic", "operator": "Mediclinic", "operator:type": "private", "operator:wikidata": "Q1916123", "phone": "+27 21 983 5600", "wheelchair": "yes"}}, {"type": "way", "id": 469227007, "center": {"lat": -34.0952403, "lon": 18.8170285}, "nodes": [4636084124, 11051202105, 11049850830, 11051202106, 10102022165, 4636084125, 4636084126, 7298320726, 7298320727, 4636084127, 10102022149, 10102022148, 7298320728, 7298320729, 4636084129, 11052300194, 7298320724, 7298320723, 7298320722, 7298320721, 4636084124], "tags": {"addr:city": "Somerset West", "addr:housenumber": "4", "addr:postcode": "7130", "addr:street": "Gardner Williams Avenue", "amenity": "hospital", "beds": "100", "email": "bpphinfo@busamed.co.za", "emergency": "yes", "healthcare": "hospital", "name": "Busamed Paardevlei Private Hospital", "opening_hours": "24/7", "operator": "Busamed", "operator:type": "private", "phone": "+27 21 840 6600", "website": "https://www.busamed.co.za/paardevlei/"}}, {"type": "way", "id": 486566004, "center": {"lat": -33.6452862, "lon": 19.4575046}, "nodes": [4791586972, 4791586973, 4791586974, 4791586975, 4791586976, 4791586977, 4791586972], "tags": {"addr:city": "Worcester, Western Cape", "addr:street": "Murray Street", "amenity": "hospital", "contact:phone": "+27 (0)23 348 1100", "healthcare": "hospital", "healthcare:speciality": "primary_health_care", "name": "Eben Donges Provincial", "operator": "Western Cape Department of Health", "operator:type": "public"}}, {"type": "way", "id": 486603143, "center": {"lat": -33.6439257, "lon": 19.4517611}, "nodes": [4791892315, 4791892316, 4791892317, 10115165618, 10115165617, 4791892318, 4791892315], "tags": {"addr:city": "Worcester", "addr:housenumber": "67", "addr:postcode": "6849", "addr:street": "67 Fairbairn Street", "amenity": "hospital", "emergency": "yes", "fax": "+27 23 342 7951", "healthcare": "hospital", "healthcare:speciality": "general;maternity;chronic", "name": "Medi Clinic Worcester", "operator": "Mediclinic", "operator:type": "private", "operator:wikidata": "Q1916123", "phone": "+27 23 348 1500", "wheelchair": "yes"}}, {"type": "way", "id": 512262908, "center": {"lat": -33.9864658, "lon": 18.4682612}, "nodes": [50159943, 5009141695, 5009141696, 5009141697, 5009141698, 5009141699, 7652145242, 7652145241, 5009141700, 5009141701, 5009141702, 5009141703, 5009141704, 5009141705, 5009141706, 7652145248, 7652145243, 7652145247, 5009141707, 7652145244, 7652145245, 7652145246, 50159943], "tags": {"addr:city": "Claremont,Cape Town", "addr:postcode": "7700", "addr:street": "Wilderness Road", "amenity": "hospital", "email": "carmen.loots@lifehealthcare.co.za", "emergency": "yes", "healthcare": "hospital", "healthcare:speciality": "maternity_ward;(icu);general_wards;neonatal_icu_(nicu);paediatric_ward", "name": "Kingsbury Hospital", "operator": "Life Health Care", "operator:type": "private", "operator:wikidata": "Q6458636", "phone": "021 670 4000"}}, {"type": "way", "id": 530024132, "center": {"lat": -33.8999582, "lon": 18.6089854}, "nodes": [5147851921, 5147851922, 5147851923, 5147851924, 5147851921], "tags": {"addr:city": "Bellville", "addr:street": "Oosterzee Street", "amenity": "hospital", "contact:phone": "+27 21 948-8884", "email": "laser@cape-eye.co.za", "fax": "+27 21 948-8855", "healthcare": "hospital", "name": "Cape Eye Hospital"}}, {"type": "way", "id": 660760356, "center": {"lat": -31.4667569, "lon": 19.7708384}, "nodes": [6186374987, 9075722696, 9075722698, 9075722697, 6186375010, 6186374996, 6186375001, 6186374989, 6186375009, 9075722695, 6186374279, 6186374987], "tags": {"addr:city": "Calvinia", "addr:postcode": "8190", "addr:street": "Inry Street", "amenity": "hospital", "healthcare": "hospital", "name": "Abraham Esau Hospital", "operator": "Department of Health", "operator:type": "public", "phone": "+27 27 341 8020"}}, {"type": "way", "id": 698021762, "center": {"lat": -34.0678982, "lon": 18.4592646}, "nodes": [5162594826, 6555468595, 6555468596, 6555468597, 6555468598, 6555468599, 6555468600, 6555468601, 6555468602, 6555468651, 6555468644, 6555468603, 5162594826], "tags": {"addr:city": "Cape Town", "addr:postcode": "7945", "addr:street": "Cnr Keysers Road & Main Road", "amenity": "hospital", "beds": "148", "building": "yes", "building:levels": "6", "contact:phone": "+27 21 764 7500", "emergency": "yes", "healthcare": "hospital", "healthcare:speciality": "cardiology;emergency;heart_centre", "name": "Melomed Private Hospital", "operator": "Melomed", "operator:type": "private"}}, {"type": "way", "id": 698041976, "center": {"lat": -34.0628163, "lon": 18.4608352}, "nodes": [6555614582, 6558182828, 6558182827, 6555614583, 6586389505, 6586389506, 6586389501, 6586389504, 6586389502, 6586389503, 6586389496, 6586389500, 6586389499, 6586389498, 6586389495, 6586389491, 6586389492, 6586389480, 6586389493, 6586389494, 6586389535, 6554083072, 6554083071, 6555614584, 6555660485, 6555660486, 6555660487, 6555660500, 6555660492, 6555660491, 6555614582], "tags": {"addr:city": "Cape Town", "addr:postcode": "7945", "addr:street": "White Road", "amenity": "hospital", "email": "Sharon.Ehrenreich@westerncape.gov.za", "emergency": "yes", "fax": "+27 (0)21 713 0335", "healthcare": "hospital", "healthcare:speciality": "tb_hospital", "name": "D.P. Marais Hospital", "phone": "+27 21 713 7600", "wikidata": "Q57399591"}}, {"type": "way", "id": 714034606, "center": {"lat": -33.9135784, "lon": 18.6139459}, "nodes": [660690661, 660690865, 2776534774, 2776534767, 6712821838, 288684637, 6712821837, 6712718470, 6712718469, 6712718468, 6712718467, 6712718466, 6712821839, 6712718460, 6712718459, 6712718454, 6712718453, 6712718452, 6712718451, 6712718450, 6712718449, 6720656268, 6712718448, 6712718447, 6712718446, 6712718445, 6712718444, 6712718443, 6712718442, 6712718441, 6712718440, 9038049927, 9038049926, 660690661], "tags": {"addr:city": "Tygerberg", "addr:postcode": "7505", "addr:street": "Francie Van Zijl Drive", "amenity": "hospital", "healthcare": "hospital", "healthcare:speciality": "center_for_mental_health;clinical_retinal_laboratory;cochlear_implat_unit;complex_craniofacial_surgey_unit;complex_radiation_&_oncological_therapy;in-vintro_fertilization;kidney_transplant_unit;laboratory_for_human_genetics;neonatal_inten;oncology;adult_b", "name": "Tygerberg Hospital", "phone": "+27 21 938 4911", "wikidata": "Q18355381", "wikipedia": "en:Tygerberg Hospital"}}, {"type": "way", "id": 734176016, "center": {"lat": -33.9316898, "lon": 18.577058}, "nodes": [6875507146, 6875507145, 6875507144, 6875507143, 6875507142, 7613566810, 6875507141, 6875507140, 7613566809, 6875507139, 6875507138, 6875507137, 6875507146], "tags": {"addr:city": "Elnor, Cape Town", "addr:housenumber": "10", "addr:postcode": "7490", "addr:street": "29th Avenue", "amenity": "hospital", "barrier": "fence", "healthcare": "hospital", "name": "Elsies River Day Hospital", "operator": "government", "operator:type": "public", "phone": "+27 21 936 8885/6"}}, {"type": "way", "id": 738361970, "center": {"lat": -33.7258717, "lon": 18.9699672}, "nodes": [6913857678, 6913857677, 9810796533, 6913857676, 9810796534, 6913857675, 9810796535, 6913857674, 9810796536, 2358608709, 6913857673, 6913857679, 6913857672, 6913857671, 6913857678], "tags": {"addr:city": "Paarl, Western Cape", "addr:street": "Corner Hospital Street and Bergrivier Boulevard", "amenity": "hospital", "contact:phone": "+27 (0)21 860 2500", "emergency": "yes", "fax": "+27 (0)21 860 3050", "healthcare": "hospital", "healthcare:speciality": "anaesthesiology;dermatology_(part_time);emergency_medicine;endoscopy_unit;ear;nose_and_throat_(ent)_surgery;general_surgery;high_care_unit;gynaecology_&_obstetrics;internal_medicine;operating_theatre_complex;ophthalmology_(part_time);orthopaedics;paediatr", "name": "Paarl General Hospital", "operator": "Western Cape Department Of Health", "operator:type": "public"}}, {"type": "way", "id": 738362236, "center": {"lat": -34.0910055, "lon": 18.858929}, "nodes": [6913924397, 6913924396, 6913924395, 10981007498, 6913924394, 6913924393, 6913924392, 11044323445, 6913924391, 6913924390, 6913924389, 11155532704, 1311793788, 6913924387, 6913924386, 6913924397], "tags": {"addr:city": "Somerset West", "addr:postcode": "7130", "addr:street": "Main Road", "amenity": "hospital", "contact:phone": "+27 21 850 9000 /+27 21 850 6335", "emergency": "yes", "healthcare": "hospital", "healthcare:speciality": "antenatal_clinic;heart_unit;24_hour_stroke_treatment_clinic;pain_management_clinic;pre-admission_clinic;sleep_clinic;woundcare_clinic;catheterisation_laboratory_(cathlab);radiology;ct_scan;mri;pathology;renal_dialysis;oncology;dieticians;physiotherapy", "name": "Vergelegen Medi-Clinic", "operator": "Medi Clinic", "operator:type": "private"}}, {"type": "way", "id": 765484532, "center": {"lat": -33.8019668, "lon": 19.8912536}, "nodes": [7149406823, 7149406824, 7149406825, 7149406826, 7149406827, 7149406828, 7149406829, 7149406830, 7149406823], "tags": {"addr:city": "Robertson,Worcester", "addr:postcode": "6705", "addr:street": "Van Oudtshoorn Street", "amenity": "hospital", "contact:phone": "023 626 8500", "email": "maryke.cronje@westerncape.gov.za", "emergency": "yes", "fax": "+27 (0)23 626 1727", "healthcare": "hospital", "healthcare:speciality": "24_hour_emergency_centre;paediatrics;male_and_female_wards;theatres;general;emergency;maternity", "name": "Robertson Hospital", "phone": "+27 23 626 8040", "wheelchair": "yes", "wikidata": "Q57399562"}}, {"type": "way", "id": 766355679, "center": {"lat": -32.598587, "lon": 19.0169236}, "nodes": [7157462161, 7157462162, 7567504235, 2380424962, 2380424961, 7567504236, 2380424959, 7157462161], "tags": {"addr:city": "Citrusdal", "addr:street": "Vrede Street", "amenity": "hospital", "emergency": "yes", "fax": "022 921 2153", "healthcare": "hospital", "healthcare:speciality": "chronic;general", "name": "Citrusdal Hospital", "operator": "Western Cape Health Department", "operator:type": "government", "phone": "022 921 2153 / 4 / 5"}}, {"type": "way", "id": 766409798, "center": {"lat": -32.1840287, "lon": 18.8906219}, "nodes": [7157936221, 7157936222, 7157936223, 7157936224, 7157936225, 7157936226, 7157936227, 7157936228, 7157936221], "tags": {"addr:city": "Clanwilliam", "addr:postcode": "8135", "addr:street": "Ou Kaapse Road", "amenity": "hospital", "emergency": "yes", "fax": "027 482 2168", "healthcare": "hospital", "name": "Clanwilliam Hospital", "phone": "027 482 2166/07", "wikidata": "Q57399525"}}, {"type": "way", "id": 787363191, "center": {"lat": -34.1133658, "lon": 18.8383524}, "nodes": [7361750281, 7361750266, 7361750280, 7361750279, 7361750278, 7361750277, 7361750276, 7361765684, 705485403, 7361750275, 7361750274, 7361750273, 7361772916, 7361772917, 7361750256, 7361750257, 7361750272, 7361750265, 7361750264, 7361750263, 7361750271, 7361750258, 7361750270, 7361750259, 7361750260, 7361750261, 7361750262, 7361750269, 7361750268, 7361750267, 10992818983, 7361750281], "tags": {"addr:city": "Onverwacht, Strand", "addr:postcode": "7140", "addr:street": "Altena Road", "amenity": "hospital", "emergency": "yes", "fax": "021 854 7940", "healthcare": "hospital", "name": "Mediclinic Strand Private Hospital", "opening_hours": "24/7", "operator": "Mediclinic", "operator:type": "private", "operator:wikidata": "Q1916123", "phone": "+27 21 854 7663", "wheelchair": "yes"}}, {"type": "way", "id": 787446796, "center": {"lat": -33.8033943, "lon": 18.4833694}, "nodes": [2535392657, 2535392645, 7362382935, 7362382934, 7362382933, 7362382932, 7362382931, 7362382930, 7362382929, 7362382928, 7362382927, 7362382926, 7362382925, 7362382924, 2184665195, 2180596212, 2180596215, 7362382913, 7362382912, 7362382911, 2535392657], "tags": {"addr:city": "Table View", "addr:postcode": "7441", "addr:street": "Waterville Crescent", "amenity": "hospital", "contact:phone": "021 554 9000", "emergency": "yes", "healthcare": "hospital", "healthcare:speciality": "anaesthesiology;cardiology;cardiothoracic_surgery;dermatology;ear;nose_and_throat_surgery;emergency_medicine;general_practice;general_surgery;gynaecology;internal_medicine;maxillo-facial_and_oral_surgery;neonatology;neurology;ophthalmology;orthopaedic_sur", "name": "Netcare Blaauwberg Hospital", "operator": "Netcare", "operator:type": "private", "operator:wikidata": "Q6998801", "website": "https://www.netcare.co.za/", "wheelchair": "yes"}}, {"type": "way", "id": 788799642, "center": {"lat": -33.9866119, "lon": 18.4665662}, "nodes": [7374674132, 7374674131, 7374674130, 50159943, 5009141695, 5009141696, 7374674132], "tags": {"addr:city": "Claremont", "addr:postcode": "7700", "addr:street": "Wilderness Road", "amenity": "hospital", "email": "Ameen.Abrahams@lifehealthcare.co.za", "healthcare": "hospital", "name": "Life Peninsula Eye Hospital", "operator": "Life Health Care", "operator:type": "private", "operator:wikidata": "Q6458636", "phone": "021 670 4316"}}, {"type": "way", "id": 791728445, "center": {"lat": -34.3716967, "lon": 18.8891628}, "nodes": [7401572761, 7401572770, 7401572772, 7401572762, 7402401209, 7401572763, 7401572765, 7401572766, 7401572767, 7401572768, 7401572761], "tags": {"amenity": "hospital", "building": "yes", "healthcare": "hospital", "healthcare:speciality": "dementia", "name": "Bettiesbaai Oord / Mooihawens", "operator": "Western Cape Department of Health"}}, {"type": "way", "id": 792511436, "center": {"lat": -34.1480675, "lon": 18.3510295}, "nodes": [7410710293, 7410710294, 7410710295, 7410710296, 7410710293], "tags": {"addr:city": "Cape Town", "addr:street": "Carin CI, Ocean View", "amenity": "hospital", "healthcare": "hospital", "healthcare:speciality": "child_health;general_hiv_care;family;sti_assessment_and_treatment;chronic_medication;wmen_and_men's_health_care;general_tb", "name": "Ocean View Clinic", "operator": "Western Cape Department of Health", "operator:type": "public", "phone": "+27 21 400 5494"}}, {"type": "way", "id": 792562124, "center": {"lat": -33.7222721, "lon": 18.9880212}, "nodes": [7411172093, 7411172094, 7411172095, 7411172096, 7411172097, 7411172098, 7411172099, 7411172100, 7411172101, 7411172102, 7411172103, 7411172104, 7411172105, 7411172106, 7411172093], "tags": {"addr:city": "Paarl -  Charlston Hill, Western Cape", "addr:postcode": "7646", "addr:street": "Rosary Street", "amenity": "hospital", "contact:phone": "+27 21 877 6400", "healthcare": "hospital", "healthcare:speciality": "acute_ser;chronic_diseases_care;hiv_&_tb_care;men's_care;acute_service;physiotherapy;mental_health_services;oral_health_-_dentist", "name": "TC Newman Hospital", "operator": "Western Cape Department of Helath", "operator:type": "government"}}, {"type": "way", "id": 792842273, "center": {"lat": -31.669091, "lon": 18.5053387}, "nodes": [7413868491, 7413868492, 7413868493, 9936832973, 7413868494, 7413868495, 7413868496, 7413868491], "tags": {"addr:city": "Vredendal", "addr:postcode": "8160", "addr:street": "Van Der Stel Street", "amenity": "hospital", "emergency": "yes", "fax": "027 213 3706", "healthcare": "hospital", "healthcare:speciality": "maternity;general;chronic", "name": "Vredendal Hospital", "phone": "027 213 2039", "wheelchair": "yes", "wikidata": "Q57399575"}}, {"type": "way", "id": 792868440, "center": {"lat": -33.9168426, "lon": 18.5541122}, "nodes": [7414127735, 7414127736, 7414127737, 7414127738, 7414127735], "tags": {"amenity": "hospital", "healthcare": "hospital"}}, {"type": "way", "id": 792946987, "center": {"lat": -33.9545332, "lon": 18.8574648}, "nodes": [7414841519, 7414841520, 7414841521, 7414841522, 7414841523, 7414841524, 7414841519], "tags": {"addr:city": "Stellenbosch", "addr:housenumber": "1", "addr:postcode": "7600", "addr:street": "Elsie du Toit Street", "amenity": "hospital", "emergency": "yes", "health_amenity:type": "emergency_department", "healthcare": "hospital", "healthcare:speciality": "antenatal_clinic;pathology;radiology;neonatal_critical/_highcare_unit;critical_and_highcare_units", "name": "Mediclinic Stellenbosch", "operator": "Mediclinic Southern Africa", "operator:type": "private"}}, {"type": "way", "id": 821805760, "center": {"lat": -33.9444649, "lon": 18.850081}, "nodes": [7673397791, 7673397792, 7673397793, 7673397794, 7673397795, 7673397796, 7673397797, 7673397810, 7673397798, 7673397799, 7673397800, 7673397801, 7673397802, 7673397803, 7673397804, 7673397805, 7673397806, 7673397807, 7673397808, 7673397809, 1170471836, 7673397791], "tags": {"addr:city": "Stellenbosch", "addr:postcode": "7600", "addr:street": "Cnr. Rokewood & Saffraan Avenue", "amenity": "hospital", "barrier": "fence", "beds": "34", "email": "tertia.kruger @ mediclinic.co.za", "emergency": "yes", "healthcare": "hospital", "healthcare:speciality": "orthopaedics;rheumatology;knee_clinic", "name": "Mediclinic Winelands Orthopaedic Hospital", "operator": "Mediclinic", "operator:type": "private", "operator:wikidata": "Q1916123", "phone": "+27 21 861 6300", "wheelchair": "yes"}}, {"type": "way", "id": 894929092, "center": {"lat": -33.92872, "lon": 18.4260753}, "nodes": [8318648028, 8318648029, 8318648030, 8318648031, 8318648032, 8318648033, 8318648034, 8318648035, 8318648036, 8318648037, 8318648038, 8318648039, 8318648040, 8318648041, 8318648042, 8318648043, 8318648044, 8318648045, 8318648046, 8318648047, 8318648028], "tags": {"addr:city": "Cape Town", "addr:housenumber": "50", "addr:postcode": "8001", "addr:street": "Caledon Street", "amenity": "hospital", "building": "civic", "building:levels": "3", "healthcare": "yes", "healthcare:speciality": "community;chronic", "name": "District Six Community Day Centre"}}, {"type": "way", "id": 988706997, "center": {"lat": -33.9226831, "lon": 18.5243002}, "nodes": [73631082, 9138558932, 4498745522, 4498745523, 4498671333, 73631082], "tags": {"addr:city": "Pinelands", "addr:postcode": "7405", "addr:street": "Ext Forest Drive", "amenity": "hospital", "contact:phone": "021 531 5300", "healthcare": "hospital", "healthcare:speciality": "orthotic;prosthetic", "name": "Orthotic and Prosthetic Centre", "operator": "Department of Health and Wellness (Western Cape Government)", "operator:type": "public"}}, {"type": "way", "id": 1039378489, "center": {"lat": -34.4456665, "lon": 19.4530927}, "nodes": [9571218917, 9571218918, 9571218919, 9571218920, 9571218917], "tags": {"addr:city": "Stanford", "addr:postcode": "7210", "addr:street": "Mathilda May Street", "amenity": "hospital", "healthcare": "hospital", "healthcare:speciality": "general", "name": "Stanford community clinic"}}, {"type": "way", "id": 1051332896, "center": {"lat": -30.3193174, "lon": 17.278013}, "nodes": [9661311787, 9661311788, 9661311789, 9661311790, 9661311791, 9661311792, 9661311793, 9661311794, 9661311795, 9661311787], "tags": {"addr:city": "Hondeklip Bay", "addr:postcode": "8222", "addr:street": "Sunnyside Street", "amenity": "hospital", "contact:phone": "+27 27 692 3081", "emergency": "yes", "healthcare": "hospital", "healthcare:speciality": "general;maternity;chronic", "name": "Hondeklipbaai Kliniek - Medical Clinic", "operator": "Namaqua Department of Health"}}, {"type": "way", "id": 1053428880, "center": {"lat": -34.0134561, "lon": 18.6503488}, "nodes": [9680950616, 9681011417, 9681011418, 9681011419, 9681011420, 9681011421, 9681011422, 9681011423, 9680950616], "tags": {"amenity": "hospital", "healthcare": "hospital"}}, {"type": "way", "id": 1062584048, "center": {"lat": -33.9704588, "lon": 18.5330588}, "nodes": [9761556042, 9761556043, 9761556044, 9761556045, 9761556046, 9777631362, 9761556048, 9761556049, 9777606635, 9777606634, 9761556050, 9761556051, 9761556052, 9777631365, 9761556053, 9761556042], "tags": {"amenity": "hospital", "emergency": "yes", "healthcare": "hospital", "name": "Melomed Gatesville Private Hospital", "operator": "Melomed Hospital Holdings PTY LTD", "operator:type": "private", "website": "https://www.melomed.co.za/melomedgatesville.asp"}}, {"type": "way", "id": 1105073041, "center": {"lat": -33.9226431, "lon": 18.8568347}, "nodes": [10112346741, 10112346742, 10112346743, 10112346744, 10112346745, 10112346746, 10112346747, 10112346748, 10112346749, 10112346750, 10112346751, 10112346752, 10112346753, 10112346754, 10112346755, 10112346756, 10112346741], "tags": {"amenity": "hospital", "healthcare": "hospital"}}, {"type": "way", "id": 1106135220, "center": {"lat": -34.5906633, "lon": 19.350431}, "nodes": [10121560557, 10121560558, 10121560559, 10121560560, 10121560557], "tags": {"amenity": "hospital", "healthcare": "hospital"}}, {"type": "way", "id": 1190324255, "center": {"lat": -34.0922522, "lon": 18.8166859}, "nodes": [11052314875, 11052287303, 11052287304, 11052343205, 11052354285, 11052343206, 11052314875], "tags": {"amenity": "hospital", "healthcare": "hospital", "name": "Cure Somerset West Day Hospital"}}, {"type": "relation", "id": 1438985, "center": {"lat": -34.1192423, "lon": 18.9084511}, "members": [{"type": "way", "ref": 100776749, "role": "outer"}, {"type": "way", "ref": 100776754, "role": "inner"}], "tags": {"amenity": "hospital", "building": "yes", "type": "multipolygon"}}, {"type": "relation", "id": 2839608, "center": {"lat": -33.9494931, "lon": 18.47436}, "members": [{"type": "way", "ref": 212427479, "role": "outer"}, {"type": "way", "ref": 212427480, "role": "outer"}, {"type": "way", "ref": 152108279, "role": "outer"}, {"type": "way", "ref": 212427477, "role": "outer"}], "tags": {"amenity": "hospital", "healthcare": "hospital", "name": "Mowbray Maternity Hospital", "type": "multipolygon", "wikidata": "Q57399579"}}, {"type": "relation", "id": 3103077, "center": {"lat": -33.8654307, "lon": 18.5061213}, "members": [{"type": "way", "ref": 476867389, "role": "outer"}, {"type": "way", "ref": 4954709, "role": "outer"}, {"type": "way", "ref": 478292586, "role": "outer"}, {"type": "way", "ref": 478292585, "role": "outer"}, {"type": "way", "ref": 478292590, "role": "outer"}, {"type": "way", "ref": 478292589, "role": "outer"}, {"type": "way", "ref": 476862509, "role": "outer"}, {"type": "way", "ref": 478292601, "role": "outer"}, {"type": "way", "ref": 478292600, "role": "outer"}, {"type": "way", "ref": 231230369, "role": "outer"}], "tags": {"amenity": "hospital", "emergency": "yes", "healthcare": "hospital", "name": "Milnerton Medi-Clinic", "type": "multipolygon"}}, {"type": "relation", "id": 5373088, "center": {"lat": -33.8920569, "lon": 18.6080282}, "members": [{"type": "way", "ref": 272205246, "role": "outer"}, {"type": "way", "ref": 360915613, "role": "outer"}, {"type": "way", "ref": 360915607, "role": "outer"}], "tags": {"addr:city": "Bellville", "addr:postcode": "7530", "addr:street": "Mike Pienaar Boulevard", "amenity": "hospital", "healthcare": "hospital", "name": "Karl Bremer Hospital", "operator": "Western Cape Government", "operator:type": "government", "phone": "+27 21 918 1911", "type": "multipolygon", "wikidata": "Q30270054"}}, {"type": "relation", "id": 5503852, "center": {"lat": -34.0518318, "lon": 18.6704039}, "members": [{"type": "way", "ref": 370443537, "role": "inner"}, {"type": "way", "ref": 370443533, "role": "inner"}, {"type": "way", "ref": 370443535, "role": "inner"}, {"type": "way", "ref": 370443536, "role": "inner"}, {"type": "way", "ref": 370443534, "role": "inner"}, {"type": "way", "ref": 370443532, "role": "outer"}], "tags": {"addr:city": "Harare,Khayelitsha", "addr:street": "Steve Biko Road", "amenity": "hospital", "contact:phone": "021 361 3353", "email": "khanyisa.jacobs@westerncape.gov.za", "emergency": "yes", "fax": "021 363-2464", "healthcare": "hospital", "healthcare:speciality": "general;emergency;maternity;chronic", "name": "Michael Mapongwana Community Health Centre", "operator": "Department of Health and Wellness (Western Cape Government)", "operator:type": "public", "type": "multipolygon"}}, {"type": "relation", "id": 9585007, "center": {"lat": -34.026903, "lon": 18.4619992}, "members": [{"type": "way", "ref": 689648495, "role": "outer"}, {"type": "way", "ref": 972943841, "role": "outer"}, {"type": "way", "ref": 972943840, "role": "outer"}, {"type": "way", "ref": 148158421, "role": "outer"}, {"type": "way", "ref": 282637476, "role": "outer"}], "tags": {"amenity": "hospital", "emergency": "yes", "healthcare": "hospital", "name": "Mediclinic Constantiaberg", "phone": "+27 21 799 2911", "type": "multipolygon"}}, {"type": "relation", "id": 10412313, "center": {"lat": -33.954727, "lon": 18.4874472}, "members": [{"type": "way", "ref": 755624008, "role": "outer"}, {"type": "way", "ref": 755623995, "role": "inner"}], "tags": {"amenity": "hospital", "building": "hospital", "emergency": "yes", "healthcare": "hospital", "healthcare:speciality": "paediatrics", "opening_hours": "24/7", "type": "multipolygon", "wheelchair": "yes"}}, {"type": "relation", "id": 13886730, "center": {"lat": -34.4239344, "lon": 19.2272443}, "members": [{"type": "way", "ref": 743391093, "role": "outer"}, {"type": "way", "ref": 743393121, "role": "outer"}], "tags": {"addr:city": "Hermanus", "addr:postcode": "7200", "addr:street": "Ravenscroft Street", "amenity": "hospital", "building": "yes;clinic", "emergency": "yes", "healthcare": "hospital", "healthcare:speciality": "pre-natal_clinic;emergency_centre;intensive/_highcare_unit;physiotherapy;radiology;dietetics", "layer": "1", "name": "Hermanus Mediclinic;Hermanus Medical Centre", "opening_hours": "Mo-Fr 07:30-16:00, Sa 08:00-13:00", "opening_hours:covid19": "Mo-Fr 09:00-15:00", "operator": "Mediclinic", "operator:type": "private", "phone": "+27 28 313 0168;+27 28 312 2339", "type": "multipolygon"}}]}