{"version": 0.6, "generator": "Overpass API 0.7.61.5 4133829e", "osm3s": {"timestamp_osm_base": "2023-10-31T20:47:26Z", "copyright": "The data included in this document is from www.openstreetmap.org. The data is made available under ODbL."}, "elements": [{"type": "node", "id": 127843052, "lat": -33.3661629, "lon": 115.6486455, "tags": {"amenity": "hospital", "emergency": "yes", "healthcare": "hospital", "name": "Bunbury Regional Hospital", "operator": "Government of Western Australia", "operator:type": "government"}}, {"type": "node", "id": 148974559, "lat": -33.3677508, "lon": 115.648409, "tags": {"amenity": "hospital", "emergency": "yes", "healthcare": "hospital", "name": "St John of God Hospital"}}, {"type": "node", "id": 264138355, "lat": -30.9160405, "lon": 118.2073579, "tags": {"amenity": "hospital", "healthcare": "hospital"}}, {"type": "node", "id": 282895345, "lat": -30.5039781, "lon": 115.066037, "tags": {"amenity": "hospital", "name": "Cervantes Health Centre"}}, {"type": "node", "id": 436781741, "lat": -31.9181168, "lon": 115.8392142, "tags": {"addr:city": "Mount Hawthorn", "addr:country": "AU", "addr:housenumber": "100", "addr:postcode": "6018", "addr:street": "Flinders Street", "amenity": "hospital", "healthcare:speciality": "mental_health", "name": "Hawthorn House", "old_name": "Hawthorn Hospital", "operator": "North Metropolitan Health Service Mental Health (NMHS MH)", "phone": "+61 8 9201 9599"}}, {"type": "node", "id": 765595934, "lat": -33.3472447, "lon": 115.6443644, "tags": {"amenity": "hospital", "brand:wikidata": "Q122883324", "emergency": "no", "name": "Silver Chain"}}, {"type": "node", "id": 768968630, "lat": -32.3105585, "lon": 115.7630118, "tags": {"amenity": "hospital", "name": "Waikiki Private Hospital"}}, {"type": "node", "id": 902766181, "lat": -35.003256, "lon": 117.9026207, "tags": {"amenity": "hospital", "emergency": "yes", "healthcare": "hospital"}}, {"type": "node", "id": 1304645906, "lat": -33.9521621, "lon": 115.0711602, "tags": {"access": "yes", "addr:city": "Margaret River", "addr:country": "AU", "addr:housenumber": "17", "addr:postcode": "6285", "addr:street": "Farrelly Street", "amenity": "hospital", "emergency": "yes", "name": "Margaret River District Hospital", "opening_hours": "24/7", "phone": "+61 8 9757 0400", "wheelchair": "yes"}}, {"type": "node", "id": 1450793210, "lat": -31.8424924, "lon": 115.8087509, "tags": {"amenity": "hospital"}}, {"type": "node", "id": 1477499686, "lat": -33.8387293, "lon": 116.3916183, "tags": {"amenity": "hospital"}}, {"type": "node", "id": 1575275355, "lat": -32.2410407, "lon": 115.8072807, "tags": {"amenity": "hospital", "healthcare": "hospital", "name": "Kwinana Dental"}}, {"type": "node", "id": 1582113967, "lat": -31.2307962, "lon": 119.3377848, "tags": {"amenity": "hospital", "emergency": "no", "name": "Hospital"}}, {"type": "node", "id": 1815193389, "lat": -33.4462674, "lon": 116.3041447, "tags": {"amenity": "hospital", "emergency": "no", "name": "First Aid Muja Power Station"}}, {"type": "node", "id": 2377024408, "lat": -32.0709687, "lon": 115.8468144, "tags": {"amenity": "hospital", "ele": "Ground", "emergency": "yes", "level": "0", "name": "Fiona Stanley Hospital (Emergency Department)"}}, {"type": "node", "id": 3441478360, "lat": -31.649291, "lon": 117.240485, "tags": {"addr:city": "Cunderdin", "addr:housenumber": "55", "addr:postcode": "6407", "addr:state": "WA", "addr:street": "Lundy Avenue", "addr:suburb": "Cunderdin", "amenity": "hospital", "emergency": "yes", "healthcare": "hospital", "moved": "yes", "name": "Cunderdin Health Centre", "phone": "+61 8 9635 2222", "website": "https://www.health.wa.gov.au/Services/detail.cfm?Unit_ID=44"}}, {"type": "node", "id": 3925407701, "lat": -31.6574482, "lon": 116.6707108, "tags": {"amenity": "hospital", "healthcare": "hospital", "name": "Old Northam Hospital (abandoned)"}}, {"type": "node", "id": 4479250147, "lat": -31.109627, "lon": 117.9226997, "tags": {"amenity": "hospital", "healthcare": "hospital", "name": "Kununoppin Hospital", "operator": "WA State Government"}}, {"type": "node", "id": 6588931000, "lat": -31.9893086, "lon": 115.7573057, "tags": {"addr:housenumber": "36", "addr:postcode": "6011", "addr:state": "WA", "addr:street": "Eric Street", "addr:suburb": "Cottesloe", "addr:unit": "10", "amenity": "hospital", "check_date": "2023-07-21", "email": "info@clearorthodonticstudio.com.au", "healthcare": "hospital", "healthcare:speciality": "dentist", "name": "Clear Orthodontic Studio", "operator": "Clear Orthodontic Studio", "operator:type": "private", "phone": "+61 8 6594 3000", "website": "https://www.clearorthodonticstudio.com.au/"}}, {"type": "node", "id": 9029271292, "lat": -31.967636, "lon": 115.8152839, "tags": {"amenity": "hospital", "emergency": "yes", "healthcare": "hospital", "name": "Sir Charles Gairdner Hospital", "opening_hours": "24/7", "website": "https://scgh.health.wa.gov.au/", "wheelchair": "yes", "wikidata": "Q7526207"}}, {"type": "node", "id": 10162385054, "lat": -32.4890447, "lon": 118.2655506, "tags": {"amenity": "hospital", "healthcare": "hospital", "name": "Kondinin Hospital & Aged Care"}}, {"type": "node", "id": 10248163819, "lat": -31.6908927, "lon": 115.7034155, "tags": {"amenity": "hospital", "healthcare": "hospital"}}, {"type": "way", "id": 4827312, "center": {"lat": -31.9674991, "lon": 115.813723}, "nodes": [31032204, 33138185, 33138173, 571459767, 31032198, 571459768, 571459769, 5344906861, 31032197, 571459770, 571459771, 31032199, 31032200, 37852788, 37852729, 37852768, 571459773, 31032204], "tags": {"amenity": "hospital", "name": "Queen Elizabeth II Medical Centre", "short_name": "QEII", "website": "https://www.qeiimc.health.wa.gov.au/", "wikidata": "Q30280493", "wikipedia": "en:Queen Elizabeth II Medical Centre"}}, {"type": "way", "id": 4960577, "center": {"lat": -31.9532844, "lon": 115.8654571}, "nodes": [3297122359, 32536459, 32536460, 32536449, 32536351, 32536352, 5350646806, 32536346, 32536347, 32536348, 32536451, 32536452, 32536453, 32536454, 32536455, 32536182, 32536184, 32840320, 32536490, 32536491, 7087387376, 32536456, 32536457, 3297122359], "tags": {"access": "yes", "addr:city": "Perth", "addr:country": "AU", "addr:housenumber": "197", "addr:postcode": "6000", "addr:street": "Wellington Street", "amenity": "hospital", "emergency": "yes", "fee": "no", "healthcare": "hospital", "name": "Royal Perth Hospital", "operator": "Government of Western Australia", "operator:type": "government", "phone": "+61 8 9224 2244", "website": "https://www.rph.wa.gov.au/", "wikidata": "Q7374710", "wikipedia": "en:Royal Perth Hospital"}}, {"type": "way", "id": 4984426, "center": {"lat": -32.0678635, "lon": 115.8446253}, "nodes": [33056668, 33056669, 33056670, 33056671, 33056672, 33056673, 4691663964, 4691663963, 4691663958, 33056674, 33056676, 4689840251, 4691758758, 4691663955, 4691663954, 2057579401, 33056677, 4691663966, 33056678, 4691663968, 33056679, 33056680, 33056681, 33056668], "tags": {"access": "customers", "addr:city": "Murdoch", "addr:country": "AU", "addr:postcode": "6150", "addr:street": "Barry Marshall Parade", "amenity": "hospital", "emergency": "yes", "fee": "yes", "name": "Saint John of God Murdoch Hospital", "phone": "+61 8 9438 9000", "website": "https://www.sjog.org.au/our-locations/st-john-of-god-murdoch-hospital", "wikidata": "Q7593698", "wikipedia": "en:St John of God Murdoch Hospital"}}, {"type": "way", "id": 8073571, "center": {"lat": -31.9878752, "lon": 115.778916}, "nodes": [60448693, 60448696, 60448698, 60448700, 571458714, 571458716, 60448682, 571458717, 60448684, 60448686, 60448690, 60448693], "tags": {"access": "customers", "addr:city": "Claremont", "addr:country": "AU", "addr:housenumber": "25", "addr:postcode": "6010", "addr:street": "Queenslea Drive", "amenity": "hospital", "fee": "yes", "name": "Bethesda Hospital", "phone": "+61 8 9340 6300", "website": "http://www.bethesda.asn.au/"}}, {"type": "way", "id": 9518031, "center": {"lat": -31.9495315, "lon": 115.8187789}, "nodes": [73368780, 600416555, 9898583406, 9898583407, 9898583413, 9898583412, 9898583411, 9898583410, 9898583409, 9898583408, 73368846, 73368883, 73368910, 73368780], "tags": {"access": "yes", "addr:city": "Subiaco", "addr:country": "AU", "addr:housenumber": "374", "addr:street": "Bagot Road", "amenity": "hospital", "healthcare": "hospital", "local_name": "King Eddy\u2019s", "name": "King Edward Memorial Hospital", "phone": "+61 8 6458 2222", "short_name": "KEMH", "website": "https://kemh.health.wa.gov.au/", "wikidata": "Q6411472", "wikipedia": "en:King Edward Memorial Hospital for Women"}}, {"type": "way", "id": 15092401, "center": {"lat": -33.3667716, "lon": 115.6485196}, "nodes": [148974565, 7601736247, 2323853225, 7601736246, 7601736248, 8241763962, 8241763963, 8241763965, 8241763967, 8241763968, 5046424073, 7601736193, 7602001783, 2323853223, 2323853219, 2323853187, 2323853216, 148974565], "tags": {"amenity": "hospital", "emergency": "yes", "healthcare": "hospital", "name": "South West Health Campus"}}, {"type": "way", "id": 22916971, "center": {"lat": -32.132683, "lon": 116.0199904}, "nodes": [534705274, 246750763, 246750766, 246750768, 246750771, 534705274], "tags": {"addr:housenumber": "3056", "addr:postcode": "6112", "addr:state": "WA", "addr:street": "Albany Highway", "addr:suburb": "Mount Nasura", "amenity": "hospital", "emergency": "yes", "healthcare": "hospital", "name": "Armadale Kelmscott District Memorial Hospital", "operator:type": "public", "wikidata": "Q4792520", "wikipedia": "en:Armadale Kelmscott District Memorial Hospital"}}, {"type": "way", "id": 25004061, "center": {"lat": -31.9669553, "lon": 116.0601805}, "nodes": [271817303, 8748806197, 8748806196, 8748806195, 271817304, 271817305, 271817306, 1493207634, 271817307, 1493207401, 271817308, 271817309, 271817310, 271817303], "tags": {"amenity": "hospital", "healthcare": "hospital", "name": "Kalamunda District Hospital"}}, {"type": "way", "id": 25261058, "center": {"lat": -31.8126013, "lon": 115.8350278}, "nodes": [275266082, 10722830545, 10722830547, 10722830546, 10722830544, 10722830543, 10722830542, 10722830541, 275266083, 10722830540, 10722830530, 10722830529, 10722830539, 10722830538, 10722830537, 10722830536, 10722830535, 10722830534, 275266084, 275266085, 275266086, 10722830516, 10722830517, 10722830518, 10722830519, 275266088, 275266089, 275266090, 275266091, 10722830525, 275266092, 10722830526, 10722830527, 275266093, 275266094, 275266095, 10722830524, 10722830523, 10722830522, 10722830521, 275266082], "tags": {"amenity": "hospital", "healthcare": "hospital", "name": "Madeley Care Facility"}}, {"type": "way", "id": 25381937, "center": {"lat": -32.2909759, "lon": 115.7708368}, "nodes": [276653903, 276653904, 4690173583, 276653905, 4690174037, 276653906, 4690174038, 4690174039, 4690174040, 4690174041, 4690174042, 4690174043, 4690174044, 4690174045, 276653903], "tags": {"amenity": "hospital", "emergency": "yes", "name": "Rockingham General Hospital", "wikidata": "Q17025694", "wikipedia": "en:Rockingham General Hospital"}}, {"type": "way", "id": 25480829, "center": {"lat": -31.8943746, "lon": 116.7576481}, "nodes": [277654330, 277654332, 277654334, 4987536434, 4987536430, 277654263, 277654330], "tags": {"access": "yes", "addr:city": "York", "addr:country": "AU", "addr:housenumber": "9", "addr:postcode": "6302", "addr:street": "Trews Road", "alt_name": "York District Hospital", "amenity": "hospital", "name": "York Health Service", "opening_hours": "24/7", "phone": "+61 8 9641 0200", "website": "https://www.healthdirect.gov.au/australian-health-services/service/30169341/york,6302/emergency-department-services-nec/york-hospital"}}, {"type": "way", "id": 31660213, "center": {"lat": -32.9366109, "lon": 117.169783}, "nodes": [354357377, 354357378, 354357379, 354357380, 354357381, 354357382, 354357377], "tags": {"access": "yes", "addr:city": "Narrogin", "addr:country": "AU", "addr:housenumber": "43", "addr:postcode": "6312", "addr:street": "Williams Road", "alt_name": "Narrogin Service", "amenity": "hospital", "name": "Narrogin Health Service", "old_name": "Narrogin Regional Hospital", "opening_hours": "24/7", "phone": "+61 8 9881 0333"}}, {"type": "way", "id": 31665349, "center": {"lat": -33.3509521, "lon": 116.1624963}, "nodes": [354474667, 2385605275, 2385605277, 2385605276, 354474669, 354474670, 354474671, 354474672, 354474673, 354474674, 354474676, 354474677, 354474678, 354474679, 354474680, 354474667], "tags": {"amenity": "hospital", "emergency": "yes", "healthcare": "hospital", "name": "Collie Hospital", "operator:type": "government"}}, {"type": "way", "id": 37193791, "center": {"lat": -31.8866607, "lon": 115.8036328}, "nodes": [432850301, 432850302, 432850303, 432850304, 432850305, 10900952370, 10900952371, 432850307, 432850308, 432850309, 432850310, 1618437315, 432850311, 432850301], "tags": {"amenity": "hospital", "emergency": "no", "name": "Osborne Park Hospital", "website": "https://www.oph.health.wa.gov.au/", "wheelchair": "yes"}}, {"type": "way", "id": 45067264, "center": {"lat": -31.9689019, "lon": 115.8099847}, "nodes": [37852746, 6688222136, 7408979742, 7408979741, 31032200, 37852788, 37852729, 37852768, 7066027640, 7066027639, 5344906866, 571459481, 7066027638, 7066027637, 37852757, 5585704818, 37852746], "tags": {"addr:city": "Nedlands", "addr:country": "AU", "addr:postcode": "6009", "addr:street": "Monash Avenue", "amenity": "hospital", "healthcare": "hospital", "name": "Hollywood Private Hospital", "opening_hours": "24/7", "phone": "+61 8 9346 6000", "website": "https://www.hollywoodprivate.com.au/", "wheelchair": "yes", "wikidata": "Q5882887", "wikipedia": "en:Hollywood Private Hospital"}}, {"type": "way", "id": 47125731, "center": {"lat": -32.0574789, "lon": 115.7529939}, "nodes": [600863527, 5017313556, 600863603, 2153200634, 2153200602, 2153200561, 2153200262, 2153200260, 2153200259, 2153200263, 9740481036, 2153200265, 3797702652, 3797702651, 2153200304, 5368383445, 600863608, 2153200444, 600863593, 600863594, 5368383444, 11232905746, 600863596, 9740481060, 3270136093, 600863527], "tags": {"access": "yes", "addr:city": "Fremantle", "addr:country": "AU", "addr:housename": "Fremantle Hospital", "addr:postcode": "6160", "addr:street": "Alma Street", "amenity": "hospital", "emergency": "no", "healthcare": "hospital", "name": "Fremantle Hospital and Health Service", "phone": "+61 8 9431 3333", "website": "https://www.fhhs.health.wa.gov.au/", "wikidata": "Q5501490", "wikipedia": "en:Fremantle Hospital"}}, {"type": "way", "id": 71874422, "center": {"lat": -32.310469, "lon": 115.763164}, "nodes": [854215644, 273100533, 273100534, 273100535, 273100527, 273100528, 273100529, 273100530, 273100531, 854215644], "tags": {"amenity": "hospital"}}, {"type": "way", "id": 108263697, "center": {"lat": -31.8732165, "lon": 118.1463884}, "nodes": [1242490782, 1242490683, 1242490776, 1242490788, 1242490773, 1242490720, 1242490766, 1242490706, 1242490768, 1242490710, 1242490654, 1242490729, 1242490754, 1242490748, 1242490763, 1242490709, 1242490686, 1242490732, 1242490648, 1242490713, 1242490707, 1242490692, 1242490780, 1242490682, 1242490772, 1242490777, 1242490778, 1242490743, 1242490677, 1242490702, 1242490782], "tags": {"addr:city": "Bruce Rock", "addr:housenumber": "35", "addr:postcode": "6418", "addr:street": "Dunstall Street", "amenity": "hospital", "contact:fax": "+61 8 9061 1075", "contact:phone": "+61 8 9061 1311", "healthcare": "hospital", "name": "Bruce Rock Memorial Hospital"}}, {"type": "way", "id": 146222743, "center": {"lat": -31.9343418, "lon": 115.8743834}, "nodes": [1594958969, 9699879370, 1594958983, 9699879362, 313700482, 9699879358, 1594958969], "tags": {"addr:housenumber": "14", "addr:street": "Alvan Street", "amenity": "hospital", "name": "The Park Private Hospital", "website": "http://www.tpph.com.au/", "wikidata": "Q111745715"}}, {"type": "way", "id": 146355581, "center": {"lat": -31.9366964, "lon": 115.8848181}, "nodes": [1596748331, 566310287, 566310283, 261006831, 1596249117, 1596249143, 1596249157, 1596249113, 1596249169, 1596249092, 1596249109, 5362235356, 5362235357, 1596748331], "tags": {"addr:city": "Thirlmere Road, Mt Lawley WA 6050", "addr:street": "Thirlmere Road", "amenity": "hospital", "email": "info.mtlawley@sjog.org.au", "emergency": "no", "fax": "+61 8 9370 9488", "name": "St John of God Mt Lawley Hospital", "old_name": "Mercy Hospital", "phone": "+61 8 9370 9222", "website": "https://www.sjog.org.au/hospitals/mt_lawley.aspx", "wheelchair": "yes", "wikidata": "Q6818755"}}, {"type": "way", "id": 148287816, "center": {"lat": -31.9581745, "lon": 115.8456158}, "nodes": [1613917307, 1613917306, 1613917308, 1613917309, 1613917310, 1613917311, 1613917312, 1613917315, 1613917316, 1613917314, 1613917313, 1613917307], "tags": {"access": "customers", "addr:city": "Perth", "addr:country": "AU", "addr:housenumber": "150", "addr:postcode": "6000", "addr:street": "Mounts Bay Road", "amenity": "hospital", "fee": "yes", "healthcare": "hospital", "name": "Mount Hospital", "phone": "+61 8 9327 1100", "website": "https://mounthospital.com.au/"}}, {"type": "way", "id": 156620154, "center": {"lat": -31.9414369, "lon": 115.8256487}, "nodes": [1688538077, 1688538080, 1688538074, 4440679901, 1688538104, 1688538106, 4440679905, 4440680392, 5369747242, 4440680393, 4440680395, 5369747243, 4440680394, 1688538037, 1688538034, 1688538008, 1688538007, 1688538005, 1688538003, 1688537998, 1688537996, 1688538001, 1688538000, 1688538026, 1688538065, 1688538068, 1688538077], "tags": {"amenity": "hospital", "building": "hospital", "building:levels": "7", "emergency": "no", "healthcare": "hospital", "name": "North Block"}}, {"type": "way", "id": 158632205, "center": {"lat": -31.6663651, "lon": 116.0283033}, "nodes": [1707942975, 1707942951, 1707942957, 1707942959, 1707942954, 1707942964, 1707942992, 1707942980, 1707942975], "tags": {"amenity": "hospital", "emergency": "no", "name": "RAAF Pearce Medical"}}, {"type": "way", "id": 162376418, "center": {"lat": -33.6834219, "lon": 117.563162}, "nodes": [1742812048, 1742812059, 1742812058, 1742812064, 1742812065, 1742812069, 1742812066, 1742812071, 1742812070, 1742812068, 1742812067, 1742812063, 1742812062, 1742812061, 1742812060, 1742812053, 1742812054, 1742812051, 1742812057, 1742812056, 1742812055, 1742812044, 1742812048], "tags": {"amenity": "hospital", "building": "yes", "name": "Katanning Health Service"}}, {"type": "way", "id": 235109786, "center": {"lat": -31.8949448, "lon": 116.0093035}, "nodes": [2432041361, 1736286609, 709495098, 7676109022, 6078039249, 7676056013, 2432041360, 1842634459, 1842634465, 1842634474, 6685367133, 7676056014, 6685367136, 6685367134, 6685367135, 3944217320, 7676056015, 7676056016, 3944217321, 3944217309, 3944217313, 3944217314, 3944217315, 3944217316, 3944217317, 3944217300, 1835455833, 6244107491, 3944232225, 2432041359, 3944232229, 2432041361], "tags": {"amenity": "hospital", "emergency": "yes", "healthcare": "hospital", "name": "St John of God Midland Public and Private Hospitals", "phone": "+61 8 9462 4000", "website": "https://www.sjog.org.au/our-locations/st-john-of-god-midland-public-hospital/", "wikidata": "Q6842346", "wikipedia": "en:St John of God Midland Public and Private Hospitals"}}, {"type": "way", "id": 239391734, "center": {"lat": -32.5324462, "lon": 115.7634802}, "nodes": [2471829027, 2471829042, 2471829041, 2471829088, 2471829092, 2471829061, 2471829038, 2471829037, 2471829029, 2471829027], "tags": {"amenity": "hospital", "healthcare": "hospital", "name": "Peel Health Campus"}}, {"type": "way", "id": 244926877, "center": {"lat": -34.2407633, "lon": 116.153159}, "nodes": [2521998060, 3689000805, 3689000804, 2521998124, 2521998123, 2521998121, 2521998122, 2521998096, 2521998093, 2521998087, 2521998078, 3752499990, 2521998051, 2521998060], "tags": {"amenity": "hospital", "emergency": "yes", "name": "Warren District Hospital", "phone": "+61 8 9777 0300"}}, {"type": "way", "id": 245395867, "center": {"lat": -33.3101989, "lon": 117.740287}, "nodes": [2526067230, 2526067234, 2526067241, 2526067244, 2526067245, 2526067243, 2526067239, 2526067238, 2526067231, 2526067230], "tags": {"amenity": "hospital", "healthcare": "hospital", "name": "Dumbleyung Health Service"}}, {"type": "way", "id": 248632372, "center": {"lat": -31.6493656, "lon": 116.6576575}, "nodes": [2553979135, 2553979071, 2553979035, 2553979034, 2553979033, 1900802379, 2553979135], "tags": {"access": "yes", "addr:city": "Northam", "addr:country": "AU", "addr:postcode": "6401", "addr:street": "Robinson Street", "amenity": "hospital", "emergency": "yes", "healthcare": "hospital", "name": "Northam Hospital", "phone": "+61 8 9690 1300"}}, {"type": "way", "id": 250470703, "center": {"lat": -34.4450662, "lon": 116.0315637}, "nodes": [2569037427, 2569037401, 2569037390, 2569037389, 2569037393, 4096323420, 2569037347, 2569037328, 2569037322, 2569037325, 2569037326, 4096323427, 2569037324, 4096323429, 4096323430, 2569037397, 2569037427], "tags": {"amenity": "hospital", "name": "Pemberton District Hospital"}}, {"type": "way", "id": 250483981, "center": {"lat": -34.9559691, "lon": 117.357565}, "nodes": [2569190569, 2569190558, 9884183443, 2569190544, 9884183445, 9884183444, 2569190500, 2569190404, 2569190466, 2569190462, 2569190460, 2569190496, 2569190508, 2569190548, 2569190567, 2569190577, 2569190569], "tags": {"amenity": "hospital", "name": "Denmark Medical Service"}}, {"type": "way", "id": 250483995, "center": {"lat": -34.9564491, "lon": 117.3579867}, "nodes": [2569190539, 2569190554, 2569190563, 2569190553, 2569190539], "tags": {"amenity": "hospital", "building": "yes"}}, {"type": "way", "id": 250487543, "center": {"lat": -35.0034667, "lon": 117.9045598}, "nodes": [2569227001, 10741317218, 2569226989, 2569226960, 2569226887, 5272723536, 2569226873, 2569226872, 2569226870, 10741317217, 5272723546, 2569226865, 10741653241, 2569226881, 2569226884, 2569226882, 2569226921, 2569226963, 2569227001], "tags": {"amenity": "hospital", "emergency": "yes", "healthcare": "hospital", "name": "Albany Regional Hospital"}}, {"type": "way", "id": 251302312, "center": {"lat": -33.829296, "lon": 117.1531024}, "nodes": [2575422515, 5845546895, 5845546896, 2575422563, 2575422545, 2575422465, 2575422515], "tags": {"amenity": "hospital", "name": "Kojonup Hospital"}}, {"type": "way", "id": 252100598, "center": {"lat": -34.6259379, "lon": 117.6544315}, "nodes": [2582151949, 2582151986, 2582151754, 2582151752, 2582151949], "tags": {"amenity": "hospital"}}, {"type": "way", "id": 342678725, "center": {"lat": -31.9582029, "lon": 115.8020556}, "nodes": [59967311, 3496448785, 3496448786, 3496448787, 3496448788, 3496448789, 3496448791, 3496448790, 3496448792, 59967321, 571098202, 571098203, 571098204, 59967311], "tags": {"amenity": "hospital", "healthcare": "hospital", "name": "City Lower West Older Adult Mental Health Service (Selby OAMH)"}}, {"type": "way", "id": 389518483, "center": {"lat": -30.8941224, "lon": 116.7247833}, "nodes": [3926838612, 2450609803, 2450609804, 2450609796, 3926838616, 3926838613, 2450609788, 3926838614, 3926838615, 3926838612], "tags": {"amenity": "hospital", "name": "Wongan Hills Health Service"}}, {"type": "way", "id": 390680582, "center": {"lat": -30.6394128, "lon": 116.0016912}, "nodes": [3938387281, 3938387282, 2534449348, 2534449337, 3938308009, 2534449317, 3938387283, 3938387284, 3938387285, 3938387281], "tags": {"amenity": "hospital", "name": "Moora Hospital & Aged Care"}}, {"type": "way", "id": 393100440, "center": {"lat": -33.3045892, "lon": 117.3474509}, "nodes": [3963102316, 3963102317, 3963102318, 3963102319, 3963102320, 3963102321, 3963102316], "tags": {"amenity": "hospital", "healthcare": "hospital", "name": "Wagin Hospital"}}, {"type": "way", "id": 396486217, "center": {"lat": -32.8038156, "lon": 116.4758275}, "nodes": [3992996227, 6240784440, 3992996228, 3992996229, 3992996230, 3992996231, 3992996232, 3992996227], "tags": {"amenity": "hospital", "name": "Boddington Hospital"}}, {"type": "way", "id": 414832469, "center": {"lat": -33.654604, "lon": 115.3204588}, "nodes": [4159701041, 3743983919, 3743983926, 3743983929, 3743983923, 3743983920, 3743983906, 3743983909, 3743983903, 3743983893, 3743983874, 3743983899, 3743983905, 3743983927, 3743983915, 3743983921, 3743983922, 3743983939, 3743983938, 3743983941, 3743983948, 3743983960, 3743983955, 3743983966, 3743983969, 3743983984, 3743983975, 3743984050, 3743984047, 3743984062, 3743984043, 3743984030, 3743984025, 3743983981, 3743983982, 3743983974, 3743983973, 3743983968, 3743983962, 3743983959, 3743983961, 3743983953, 3743983952, 3743983947, 4159701041], "tags": {"access": "yes", "addr:city": "Busselton", "addr:country": "AU", "addr:postcode": "6280", "addr:street": "Mill Road", "amenity": "hospital", "building": "yes", "emergency": "yes", "name": "Busselton Health Campus", "phone": "+61 8 9753 6000", "website": "https://www.wacountry.health.wa.gov.au/", "wikidata": "Q63378093"}}, {"type": "way", "id": 475587981, "center": {"lat": -32.0677289, "lon": 115.8455374}, "nodes": [4693224790, 4693224791, 4693224792, 4693224793, 4693224790], "tags": {"amenity": "hospital"}}, {"type": "way", "id": 494037040, "center": {"lat": -32.0696897, "lon": 115.8463311}, "nodes": [2172917165, 7412182179, 7412182180, 2172917162, 2172917154, 2172917145, 7412185989, 6359632643, 2172917086, 2172917089, 2172917124, 3459155350, 4691663967, 2172917144, 2172917152, 2172917155, 4691663947, 4691758742, 4691663948, 2172917159, 4691663956, 2172917158, 4691663959, 4691663960, 4691663965, 2172917163, 2172917164, 4179661911, 4179661908, 4179661907, 7456702322, 2377024705, 2377024704, 7412092881, 5624323192, 7412092883, 7412092882, 2172917165], "tags": {"access": "yes", "addr:city": "Murdoch", "addr:country": "AU", "addr:housenumber": "11", "addr:postcode": "6150", "addr:street": "Robin Warren Drive", "amenity": "hospital", "emergency": "yes", "fee": "no", "healthcare": "hospital", "name": "Fiona Stanley Hospital", "phone": "+61 8 6152 2222", "website": "https://www.fsh.health.wa.gov.au/", "wikidata": "Q5451115", "wikipedia": "en:Fiona Stanley Hospital"}}, {"type": "way", "id": 504675502, "center": {"lat": -32.0055186, "lon": 115.9276597}, "nodes": [4948188121, 4948188143, 4948186718, 4948188129, 4948188142, 4948186715, 4948188128, 4948188139, 4948188150, 4948188126, 5371171315, 9885700103, 9885700102, 4948188121], "tags": {"access": "yes", "addr:city": "Bentley", "addr:country": "AU", "addr:housenumber": "18-56", "addr:postcode": "6102", "addr:street": "Mills Street", "amenity": "hospital", "emergency": "no", "fee": "no", "name": "Bentley Health Service", "phone": "+61 8 9416 3666", "website": "https://www.bhs.health.wa.gov.au/"}}, {"type": "way", "id": 507666827, "center": {"lat": -31.9626939, "lon": 115.7889208}, "nodes": [4971277215, 4971277207, 4971277214, 4971277216, 4971277205, 4971277197, 4971277203, 4971277195, 4971277211, 4971277194, 4971277202, 4971277199, 4971277212, 4971277193, 4971277192, 4971277201, 4971277210, 4971277208, 4971277217, 4971277200, 4971277191, 4971277206, 4971277213, 4971277204, 4971277196, 4971277198, 4971277215], "tags": {"access": "yes", "addr:city": "Mount Claremont", "addr:country": "AU", "addr:housenumber": "1", "addr:postcode": "6010", "addr:street": "Brockway Road", "amenity": "hospital", "name": "Graylands Hospital", "phone": "+61 8 9347 6600", "website": "https://ww2.health.wa.gov.au/", "wikidata": "Q5598317", "wikipedia": "en:Graylands Hospital"}}, {"type": "way", "id": 513626781, "center": {"lat": -31.7379834, "lon": 115.7723783}, "nodes": [5020136513, 5020136514, 5020136515, 5020136516, 5020136517, 5020136518, 5020136519, 5020136520, 5020139021, 5020139022, 5020139023, 5020139024, 5020139025, 5020139026, 5020139027, 5020139028, 5020139029, 5020139030, 5020139031, 5020139032, 5020136513], "tags": {"amenity": "hospital", "healthcare": "hospital", "name": "Joondalup Health Campus", "wikidata": "Q6276049", "wikipedia": "en:Joondalup Health Campus"}}, {"type": "way", "id": 669461891, "center": {"lat": -32.2143485, "lon": 115.7885692}, "nodes": [6269135527, 6269135528, 6269135529, 6269135530, 6269135527], "tags": {"amenity": "hospital", "healthcare": "hospital", "name": "First Aid Block"}}, {"type": "way", "id": 669497397, "center": {"lat": -34.9781961, "lon": 116.7328188}, "nodes": [6269479633, 6269479632, 6269479637, 6269479636, 6269479635, 6269479634, 6269479633], "tags": {"addr:city": "Walpole", "addr:housenumber": "2", "addr:postcode": "6398", "addr:province": "Western Australia", "addr:street": "Pier Street", "amenity": "hospital", "healthcare": "hospital", "healthcare:speciality": "Emergency, General Practice, Child Health, Immunisation", "name": "Silver Chain Health Service", "opening_hours": "Monday \u2013 Friday: 9am \u2013 4pm, Afterhours Available For Emergencies Only", "operator": "Silver Chain", "phone": "+61 8 9840 1173", "website": "https://www.silverchain.org.au/wa/health-care/country-services/remote-area-service-centres/", "wheelchair": "yes"}}, {"type": "way", "id": 669631283, "center": {"lat": -31.9418681, "lon": 115.8257367}, "nodes": [6270833922, 6270833921, 6270833920, 6270833919, 6270833918, 6270833917, 6270833916, 6270833915, 6270833914, 1688538260, 6270833913, 6285731940, 6270833912, 7555238058, 7555238059, 7555238013, 7555237992, 7555237993, 6270833911, 6270833922], "tags": {"access": "customers", "addr:country": "AU", "amenity": "hospital", "fee": "yes", "healthcare": "hospital", "name": "Saint John of God Hospital Subiaco", "website": "https://www.sjog.org.au/", "wikidata": "Q7593701", "wikipedia": "en:St John of God Subiaco Hospital"}}, {"type": "way", "id": 685186239, "center": {"lat": -33.930451, "lon": 118.0029703}, "nodes": [6420383238, 6420383237, 6420383236, 6420383235, 6420383238], "tags": {"amenity": "hospital", "building": "hospital", "healthcare": "hospital", "name": "Gnowangerup District Hospital"}}, {"type": "way", "id": 761389032, "center": {"lat": -31.9506027, "lon": 115.8197366}, "nodes": [7113645330, 7113645331, 7113645332, 7113645333, 7113645334, 7113645335, 7113645336, 7113645337, 7113645330], "tags": {"addr:housenumber": "365", "addr:street": "Bagot Road", "amenity": "hospital", "building": "hospital", "building:levels": "1", "local_ref": "N", "name": "N Block"}}, {"type": "way", "id": 792730013, "center": {"lat": -32.0679951, "lon": 115.8452979}, "nodes": [7412711541, 4693224623, 4693224622, 7412711517, 4693224621, 7412711519, 7412711518, 7412711520, 7412711521, 4693224620, 7412711522, 7412711523, 7412711524, 7412711525, 7412711526, 7412711527, 7412711528, 7412711529, 7412711530, 7412711531, 7412711532, 7412711533, 4693224619, 4693224684, 7412699175, 7412699176, 7412699177, 4693224685, 4693224686, 4693224789, 4693224688, 4693494937, 4693494936, 4693494935, 4693494934, 7412699178, 4693494927, 7412711485, 7412699179, 7412699180, 7412699184, 7412699182, 7412699181, 7412699183, 4693494926, 4693494925, 4693494924, 7412711489, 4693494923, 7412711486, 7412711488, 7412711487, 7412711490, 7412711493, 7412711492, 7412711495, 7412711491, 7412711494, 7412711498, 7412711497, 7412711496, 4693494913, 7412711499, 4693494914, 7412711500, 4693494915, 7412711501, 4693494917, 7412711503, 7412711502, 7412711504, 4693494922, 7412711505, 4693494921, 4693494920, 4693494919, 7412711512, 4693494918, 4693494916, 4693494910, 4693224607, 7412711511, 4693224676, 4693224675, 4693224674, 4693224673, 4693224672, 4693224671, 7412711513, 4693224670, 4693224669, 4693224668, 4693224667, 4693224666, 7412711509, 7412711510, 4693224664, 7412711514, 4693224662, 7412711508, 7412711507, 4693224660, 4693224659, 7412711506, 4693224658, 7412711515, 7412711516, 4693224794, 4693224795, 4693224796, 4693224797, 4693224798, 4693224799, 4693224800, 4693224801, 4693224656, 4693224655, 4693224654, 4693224803, 4176656239, 4693224653, 4693224652, 4693224651, 4693224650, 4693224649, 4693224648, 7412711542, 2341974115, 2341974119, 2341974117, 2341974110, 7412711539, 4693224647, 4693224646, 4693224645, 4693224644, 4693224643, 4693224642, 4693224641, 7412711538, 4693224640, 7412711540, 4693224638, 4693224637, 4693224636, 4693224635, 4693224634, 4693224633, 4693224632, 7412699173, 4693224628, 4176656232, 7412699174, 4693224624, 7412711541], "tags": {"amenity": "hospital", "building": "hospital", "name": "Murdoch Clinic"}}, {"type": "way", "id": 830703830, "center": {"lat": -31.8342027, "lon": 115.7846714}, "nodes": [7756256292, 7756256293, 7756256294, 7756256295, 7756256296, 7756256297, 7756256298, 7756256299, 7756256300, 7756256301, 7756256302, 7756256303, 7756256304, 7756256305, 7756256306, 7756256307, 7756256292], "tags": {"amenity": "hospital", "healthcare": "hospital", "name": "Glengarry Private Hospital"}}, {"type": "way", "id": 899228635, "center": {"lat": -31.9560516, "lon": 115.8144468}, "nodes": [8355259774, 8355259775, 8355259781, 8355259776, 8355259777, 8355259778, 8355259774], "tags": {"addr:city": "Perth", "addr:housenumber": "218", "addr:postcode": "6008", "addr:street": "Nicholson Road", "addr:suburb": "Subiaco", "amenity": "hospital", "building": "house", "name": "Concept Fertility Centre"}}, {"type": "way", "id": 940739663, "center": {"lat": -31.9693342, "lon": 115.8171383}, "nodes": [8712311628, 8875316243, 8712311630, 8712311674, 8712311632, 7196685505, 8712311633, 8712311634, 8712311635, 8289774996, 8712311642, 8712311647, 8712311652, 8712311653, 8712311654, 8292011409, 8712311665, 8712311667, 8292012128, 8292011410, 8712311628], "tags": {"addr:postcode": "6009", "addr:state": "WA", "addr:street": "Winthrop Avenue", "addr:suburb": "Nedlands", "amenity": "hospital", "building": "hospital", "building:levels": "6", "emergency": "yes", "healthcare": "hospital", "layer": "1", "name": "Perth Children's Hospital", "opening_hours": "24/7", "short_name": "PCH", "website": "https://www.pch.health.wa.gov.au/", "wheelchair": "yes", "wikidata": "Q48769668", "wikipedia": "en:Perth Children's Hospital"}}, {"type": "way", "id": 1125349886, "center": {"lat": -30.2771413, "lon": 116.6565457}, "nodes": [10290936610, 10290936611, 2399056666, 2399056670, 2399056669, 2399056664, 10290936610], "tags": {"amenity": "hospital", "healthcare": "hospital", "name": "Dalwallinu District Hospital"}}, {"type": "way", "id": 1126371985, "center": {"lat": -31.6287091, "lon": 117.7173361}, "nodes": [10299448917, 10299448918, 10299448919, 10299448920, 10299448921, 10299448922, 10299448923, 10299448917], "tags": {"amenity": "hospital", "healthcare": "hospital", "name": "Kellerberrin Memorial Hospital"}}, {"type": "way", "id": 1126806566, "center": {"lat": -32.1027565, "lon": 116.9230055}, "nodes": [10303573813, 10303573814, 10303573815, 10303573816, 10303573817, 10303573813], "tags": {"amenity": "hospital", "healthcare": "hospital", "name": "Beverley District Health Service"}}, {"type": "way", "id": 1131140133, "center": {"lat": -32.0147106, "lon": 117.4026852}, "nodes": [10542790321, 10542790322, 10542790323, 10542790324, 10542790321], "tags": {"amenity": "hospital", "healthcare": "hospital", "name": "Quairading Health Service"}}, {"type": "way", "id": 1133604833, "center": {"lat": -31.1759423, "lon": 117.386444}, "nodes": [10569085963, 10569085964, 10569085965, 10569085966, 10569085963], "tags": {"amenity": "hospital", "healthcare": "hospital", "name": "Wyalkatchem District Hospital", "note": "approx shape"}}, {"type": "way", "id": 1135903008, "center": {"lat": -33.1024706, "lon": 118.453087}, "nodes": [10588796390, 10588796391, 10588796392, 10588796393, 10588796394, 10588796395, 10588796396, 10588796397, 10588796390], "tags": {"amenity": "hospital", "healthcare": "hospital", "name": "Lake Grace Health Service"}}, {"type": "way", "id": 1167765261, "center": {"lat": -32.029683, "lon": 115.8106475}, "nodes": [10860612844, 10860612847, 10860612848, 310496814, 10860612843, 10860612849, 10876880000, 10860612846, 10860612845, 10860612842, 10876879939, 10860612844], "tags": {"access": "customers", "addr:country": "AU", "addr:housenumber": "21", "addr:postcode": "6156", "addr:state": "WA", "addr:street": "Hislop Road", "addr:suburb": "Attadale", "amenity": "hospital", "fee": "yes", "name": "Attadale Rehabilitation Hospital", "phone": "+61 8 9330 1000", "website": "https://www.attadalerehabilitation.com.au/"}}, {"type": "way", "id": 1185719033, "center": {"lat": -32.061656, "lon": 118.3911576}, "nodes": [11014064921, 11014064922, 11014064923, 11014064929, 11014064924, 11014064930, 11014064925, 11014064926, 11014064921], "tags": {"amenity": "hospital", "healthcare": "hospital", "name": "Narembeen District Memorial Hospita"}}, {"type": "way", "id": 1185896250, "center": {"lat": -31.4850948, "lon": 118.2764061}, "nodes": [11015344738, 11015344739, 11015344740, 11015344741, 11015344738], "tags": {"amenity": "hospital", "healthcare": "hospital"}}, {"type": "relation", "id": 1846265, "center": {"lat": -31.4851057, "lon": 118.2765342}, "members": [{"type": "way", "ref": 115389776, "role": "outer"}, {"type": "way", "ref": 115389767, "role": "inner"}, {"type": "way", "ref": 115389764, "role": "inner"}], "tags": {"addr:city": "Merredin", "addr:country": "AU", "addr:housename": "Merredin Hospital", "addr:postcode": "6415", "addr:street": "Kitchener Road", "amenity": "hospital", "building": "yes", "contact:email": "merredindistricthospital@health.wa.gov.au", "contact:fax": "9081 3340", "contact:phone": "9081 3222", "contact:website": "http://www.health.wa.gov.au/services/detail.cfm?Unit_ID=118", "name": "Merredin Hospital", "old_name": "Merredin Health Service", "type": "multipolygon"}}, {"type": "relation", "id": 6846402, "center": {"lat": -31.9880484, "lon": 115.8637786}, "members": [{"type": "way", "ref": 463590321, "role": "outer"}], "tags": {"amenity": "hospital", "name": "South Perth Community Centre Hospital", "type": "multipolygon"}}, {"type": "relation", "id": 15580663, "center": {"lat": -31.8125841, "lon": 115.8349605}, "members": [{"type": "way", "ref": 1152841924, "role": "outer"}, {"type": "way", "ref": 1152841926, "role": "inner"}, {"type": "way", "ref": 1152841928, "role": "inner"}, {"type": "way", "ref": 1152841927, "role": "inner"}, {"type": "way", "ref": 1152841925, "role": "inner"}], "tags": {"amenity": "hospital", "building": "hospital", "name": "Madeley Care Facility", "type": "multipolygon"}}]}