{"version": 0.6, "generator": "Overpass API 0.7.61.5 4133829e", "osm3s": {"timestamp_osm_base": "2023-10-31T20:47:26Z", "copyright": "The data included in this document is from www.openstreetmap.org. The data is made available under ODbL."}, "elements": [{"type": "node", "id": 264803415, "lat": -32.9982109, "lon": -71.5444561, "tags": {"addr:city": "Vi\u00f1a del Mar", "addr:street": "Avenida Alessandri", "alt_name": "Hospital Naval Almirante Nef", "amenity": "hospital", "emergency": "yes", "healthcare": "hospital", "healthcare:speciality": "gynaecology;general;paediatrics;psychiatry;ophthalmology;otolaryngology;radiology;urology;neurology;dermatovenereology", "name": "Hospital Naval Almirante Nef", "source:alt_name": "wikipedia:es", "wikidata": "Q5695973", "wikipedia": "es:Hospital Naval Almirante Nef"}}, {"type": "node", "id": 274842924, "lat": -33.0274915, "lon": -71.531715, "tags": {"amenity": "hospital", "name": "Cl\u00ednica Miraflores", "wikidata": "Q93742278"}}, {"type": "node", "id": 274844236, "lat": -33.0320309, "lon": -71.5227694, "tags": {"amenity": "hospital", "name": "Cl\u00ednica Los Abetos"}}, {"type": "node", "id": 338511118, "lat": -33.5745464, "lon": -70.5813935, "tags": {"amenity": "hospital", "healthcare": "hospital", "name": "Hospital de Ni\u00f1os", "wheelchair": "yes"}}, {"type": "node", "id": 661983064, "lat": -35.3392666, "lon": -72.4025364, "tags": {"amenity": "hospital", "emergency": "yes", "name": "Hospital Constituci\u00f3n", "wikidata": "Q93743562"}}, {"type": "node", "id": 687148571, "lat": -32.9894395, "lon": -71.2654006, "tags": {"amenity": "hospital", "name": "Capredena"}}, {"type": "node", "id": 966044584, "lat": -39.6406778, "lon": -72.3424592, "tags": {"addr:city": "Panguipulli", "addr:country": "CL", "addr:housenumber": "342", "addr:street": "Sor Mercedes", "amenity": "hospital", "emergency": "yes", "name": "Hospital de Panguipulli"}}, {"type": "node", "id": 1046495427, "lat": -37.4748025, "lon": -72.3542111, "tags": {"amenity": "hospital", "healthcare": "hospital", "name": "Cl\u00ednica Adventista"}}, {"type": "node", "id": 1234321003, "lat": -33.64094, "lon": -70.3518598, "tags": {"amenity": "hospital", "healthcare": "hospital", "name": "Hospital San Jos\u00e9 de Maipo", "wikidata": "Q93743273"}}, {"type": "node", "id": 1240478420, "lat": -33.5694728, "lon": -70.5542635, "tags": {"amenity": "hospital", "emergency": "no", "name": "Hospital Josefina Mart\u00ednez"}}, {"type": "node", "id": 1248850454, "lat": -36.7198639, "lon": -72.9755218, "tags": {"addr:city": "Penco", "addr:street": "Camino a tome", "amenity": "hospital", "emergency": "yes", "name": "Hospital Penco-Lirqu\u00e9n", "nohousenumber": "yes"}}, {"type": "node", "id": 1555786296, "lat": -33.2067295, "lon": -70.6761916, "tags": {"amenity": "hospital", "name": "Cl\u00ednica Marcos Cornejo"}}, {"type": "node", "id": 1713512990, "lat": -37.2402488, "lon": -71.942458, "tags": {"addr:city": "Hu\u00e9pil", "addr:housenumber": "233", "addr:street": "12 de Febrero", "amenity": "hospital", "healthcare": "hospital", "name": "Hospital de Hu\u00e9pil"}}, {"type": "node", "id": 1972846588, "lat": -34.0671344, "lon": -70.7311822, "tags": {"amenity": "hospital", "name": "Consultorio Graneros", "name:es": "Hospital Graneros"}}, {"type": "node", "id": 2077611334, "lat": -37.2507861, "lon": -73.3176504, "tags": {"amenity": "hospital", "name": "Hospital de Arauco"}}, {"type": "node", "id": 2386542660, "lat": -34.2696922, "lon": -70.9510331, "tags": {"amenity": "hospital", "name": "Clinica Dental"}}, {"type": "node", "id": 2461182751, "lat": -32.1795559, "lon": -70.8115035, "tags": {"amenity": "hospital", "name": "E.M.R Calle Larga"}}, {"type": "node", "id": 2461182752, "lat": -32.1875863, "lon": -70.803638, "tags": {"amenity": "hospital", "name": "E.M.R Chalaco."}}, {"type": "node", "id": 2946239261, "lat": -36.8456276, "lon": -73.0947063, "tags": {"amenity": "hospital", "healthcare": "hospital", "name": "Ex Cl\u00ednica Universitaria San Pedro"}}, {"type": "node", "id": 3050857760, "lat": -34.7014919, "lon": -71.0374989, "tags": {"addr:city": "Chimbarongo", "addr:housenumber": "990", "addr:street": "Miraflores", "amenity": "hospital", "name": "Hospital La Merced de Chimbarongo"}}, {"type": "node", "id": 3297806869, "lat": -38.9511084, "lon": -71.330192, "tags": {"addr:city": "Moquehue", "amenity": "hospital", "healthcare": "hospital", "name": "Sala de primeros auxilios"}}, {"type": "node", "id": 3518337197, "lat": -34.9354213, "lon": -72.1808056, "tags": {"amenity": "hospital", "name": "hospital viejo", "operator": "raul"}}, {"type": "node", "id": 3591080667, "lat": -39.7307596, "lon": -71.0775202, "tags": {"addr:city": "Paraje Atreuco Abajo", "addr:postcode": "8371", "amenity": "hospital", "name": "Posta Sanitaria"}}, {"type": "node", "id": 3989290559, "lat": -34.4030816, "lon": -71.3667566, "tags": {"amenity": "hospital", "name": "Minicentro de Salud Familiar"}}, {"type": "node", "id": 4087070045, "lat": -34.4054692, "lon": -70.8581275, "tags": {"amenity": "hospital", "healthcare": "hospital", "name": "Asociaci\u00f3n Chilena de Seguridad"}}, {"type": "node", "id": 4317695389, "lat": -36.8239738, "lon": -73.0378313, "tags": {"addr:city": "Concepcion", "addr:housenumber": "1582", "addr:street": "San Mart\u00edn", "amenity": "hospital", "name": "Hospital Traumatol\u00f3gico de Concepci\u00f3n", "opening_hours": "Mo-Th 07:30-17:00; Fr 07:30-16:00", "phone": "413270000", "website": "www.ssconcepcion.cl", "wikidata": "Q93743616"}}, {"type": "node", "id": 4349341405, "lat": -37.0453875, "lon": -70.3252466, "tags": {"addr:city": "Tricao Malal", "addr:full": "Volcan Tromen S/N", "addr:place": "Chos Malal", "addr:postcode": "8353", "amenity": "hospital", "description": "Bajo riesgo con internaci\u00f3n simple", "healthcare": "hospital", "name": "Hospital De Area Tricao Malal", "operator:type": "public", "ref:sisa_codigo": "10580422167029", "ref:sisa_tipologia": "ESCIG", "source": "sedronar.gov.ar | Public Domain (PD)"}}, {"type": "node", "id": 4397221694, "lat": -39.2354921, "lon": -70.9131734, "tags": {"addr:city": "Alumin\u00e9", "addr:full": "4 De Caballeria 547", "addr:place": "Alumine", "addr:postcode": "8345", "addr:street": "Teniente Lezcano y Av. 4 de Caballer\u00eda", "amenity": "hospital", "description": "Bajo riesgo con internaci\u00f3n simple", "emergency": "yes", "fax": "2942-496150", "healthcare": "hospital", "name": "Hospital De Area Alumine", "name:es": "Hospital Intercultural Alumin\u00e9", "operator:type": "public", "ref:sisa_codigo": "10580072167010", "ref:sisa_tipologia": "ESCIG", "source": "sedronar.gov.ar | Public Domain (PD)", "wikidata": "Q94562161"}}, {"type": "node", "id": 4709197989, "lat": -37.4700677, "lon": -72.3553217, "tags": {"amenity": "hospital", "healthcare": "hospital", "name": "La Araucana"}}, {"type": "node", "id": 5507021484, "lat": -37.1790117, "lon": -70.6720501, "tags": {"addr:city": "Andacollo", "addr:full": "Bahueve S/N", "addr:place": "Minas", "addr:postcode": "8353", "amenity": "hospital", "description": "Bajo riesgo con internaci\u00f3n simple", "healthcare": "hospital", "name": "Hospital De Area Andacollo - Dr. Antonio Gorgni", "operator:type": "public", "ref:sisa_codigo": "10580772167011", "ref:sisa_tipologia": "ESCIG", "source": "sedronar.gov.ar | Public Domain (PD)"}}, {"type": "node", "id": 5667542557, "lat": -37.7199758, "lon": -72.2405523, "tags": {"amenity": "hospital", "healthcare": "hospital", "name": "Hospital de Mulchen"}}, {"type": "node", "id": 6327932975, "lat": -39.6667735, "lon": -70.1407157, "tags": {"amenity": "hospital", "healthcare": "hospital", "name": "Posta Sanitaria"}}, {"type": "node", "id": 7009112985, "lat": -33.457119, "lon": -70.7018142, "tags": {"addr:housenumber": "4850", "addr:street": "Avenida Libertador Bernardo O'Higgins", "amenity": "hospital", "healthcare": "hospital", "name": "Cl\u00ednica RedSalud Santiago", "opening_hours": "24/7", "phone": "6008983600", "website": "http://www.redsalud.cl", "wikidata": "Q5775501", "wikimedia_commons": "Category:Cl\u00ednica RedSalud Santiago", "wikipedia": "es:Cl\u00ednica RedSalud Santiago"}}, {"type": "node", "id": 7376909750, "lat": -38.4066504, "lon": -70.0333363, "tags": {"addr:city": "Bajada Del Agrio", "addr:full": "Av. 25 De Mayo S/N", "addr:place": "Picunches", "addr:postcode": "8351", "amenity": "hospital", "description": "Bajo riesgo con internaci\u00f3n simple", "healthcare": "hospital", "name": "Hospital De Area Bajada Del Agrio", "operator:type": "public", "ref:sisa_codigo": "10581052167012", "ref:sisa_tipologia": "ESCIG", "source": "sedronar.gov.ar | Public Domain (PD)"}}, {"type": "node", "id": 8546386650, "lat": -38.7402622, "lon": -72.59118, "tags": {"addr:city": "Temuco", "addr:country": "CL", "addr:district": "Temuco", "addr:housenumber": "761", "addr:state": "Regi\u00f3n de La Araucan\u00eda", "addr:street": "Antonio Varas", "amenity": "hospital", "healthcare": "hospital", "name": "Cl\u00ednica OB de Temuco", "source:addr": "www.sii.cl, Cartograf\u00eda Digital SII Mapas", "wikidata": "Q93744864"}}, {"type": "node", "id": 8586833914, "lat": -38.7345037, "lon": -72.6140305, "tags": {"addr:city": "Temuco", "addr:country": "CL", "addr:district": "Temuco", "addr:housenumber": "560, of 604", "addr:state": "Regi\u00f3n de La Araucan\u00eda", "addr:street": "Hochstetter", "amenity": "hospital", "healthcare": "hospital", "name": "Cl\u00ednica Oncol\u00f3gica Cido", "source:addr": "www.sii.cl, Cartograf\u00eda Digital SII Mapas"}}, {"type": "node", "id": 8677836506, "lat": -34.084248, "lon": -70.3820883, "tags": {"amenity": "hospital", "healthcare": "hospital", "name": "Posta Sewell"}}, {"type": "node", "id": 9036505621, "lat": -33.4646923, "lon": -70.5896879, "tags": {"addr:city": "\u00d1u\u00f1oa", "addr:street": "Los Jardines", "amenity": "hospital", "healthcare": "hospital", "name": "Urgencia"}}, {"type": "node", "id": 9107758630, "lat": -36.6092335, "lon": -72.9451428, "tags": {"addr:city": "Tom\u00e9", "addr:housenumber": "2276", "addr:street": "Santiago Osorio", "amenity": "hospital", "healthcare": "hospital", "name": "Cecosf Cerro Estanque", "phone": "(41) 217 0393"}}, {"type": "node", "id": 10000636653, "lat": -34.1729699, "lon": -70.7159458, "tags": {"amenity": "hospital", "name": "UC Christus Plaza Am\u00e9rica"}}, {"type": "node", "id": 10738771014, "lat": -38.9056796, "lon": -70.0673012, "tags": {"addr:city": "Zapala", "addr:housenumber": "345", "addr:postcode": "Q8340", "addr:street": "Elena de la Vega", "amenity": "hospital", "healthcare": "hospital", "name": "Cl\u00ednica de Im\u00e1genes del Sur"}}, {"type": "node", "id": 11134190916, "lat": -36.6131906, "lon": -72.1321134, "tags": {"addr:city": "Chill\u00e1n", "addr:housenumber": "1795", "addr:street": "Luis Arellano", "amenity": "hospital", "healthcare": "hospital", "name": "Centro Comunitario de Salud Familiar Do\u00f1a Isabel"}}, {"type": "node", "id": 11174779691, "lat": -36.6122728, "lon": -72.1315816, "tags": {"addr:city": "Chill\u00e1n", "addr:housenumber": "1780", "addr:street": "Luis Arellano", "amenity": "hospital", "healthcare": "hospital", "name": "Centro Comunitario de Salud Familiar Do\u00f1a Isabel"}}, {"type": "node", "id": 11176586923, "lat": -38.7344197, "lon": -72.572141, "tags": {"addr:city": "Temuco", "addr:housenumber": "316", "addr:street": "Pircunche", "amenity": "hospital", "healthcare": "hospital", "name": "CESFAM Santa Rosa"}}, {"type": "way", "id": 23393396, "center": {"lat": -33.3964354, "lon": -70.5471208}, "nodes": [253278698, 7517438864, 7517438863, 7517438862, 7517438861, 7517438860, 253278700, 7517438859, 7517438858, 253278701, 7517438857, 253278702, 7517438856, 7517438855, 7517438854, 7517438853, 7517438852, 253278704, 7517438851, 7517438850, 253278705, 7517438849, 7517438848, 253278706, 7517438847, 253278707, 7517438846, 7517438845, 7517438844, 253278708, 7517438843, 253278698], "tags": {"addr:city": "Las Condes", "addr:country": "CL", "addr:housenumber": "8631", "addr:municipality": "Las Condes", "addr:postcode": "7550000", "addr:province": "Santiago", "addr:region": "Metropolitan", "addr:street": "Avenida Las Condes", "alt_name": "Hospital Cl\u00ednico Fuerza A\u00e9rea de Chile Gral. Dr. Ra\u00fal Yazigi J", "amenity": "hospital", "healthcare": "hospital", "name": "Hospital Cl\u00ednico de la Fuerza A\u00e9rea de Chile Doctor Ra\u00fal Yazigi", "name:en": "Air Force Clinical Hospital General Doctor Ra\u00fal Yazigi", "opening_hours": "24/7", "operational_status": "Operational", "operator:type": "private/for-profit", "phone": "+56229766000", "short_name": "Hospital FACh", "website": "https://www.hospitalfach.cl/home.php", "wikidata": "Q38043630", "wikimedia_commons": "Category:Hospital Cl\u00ednico de la Fuerza A\u00e9rea de Chile", "wikipedia": "es:Hospital Cl\u00ednico de la Fuerza A\u00e9rea de Chile"}}, {"type": "way", "id": 23672826, "center": {"lat": -33.4166848, "lon": -70.527774}, "nodes": [6859251471, 256369425, 256369428, 256369455, 256369456, 1678785401, 1678785375, 1678785334, 1678785158, 1678785135, 2346780195, 2346780116, 2346780090, 2346780191, 2346780110, 2346780261, 6859251470, 6859251464, 6859251472, 6859251468, 6859251467, 6859251469, 6859251466, 6859251461, 6859251463, 6859251462, 6859251465, 6859251460, 6859251471], "tags": {"addr:housenumber": "1200", "addr:street": "Vital Apoquindo", "alt_name": "Hospital DIPRECA", "amenity": "hospital", "healthcare": "hospital", "name": "Hospital de la Direcci\u00f3n de Previsi\u00f3n de Carabineros", "operator": "Carabineros de Chile", "operator:type": "government", "wikidata": "Q5902608", "wikipedia": "es:Hospital Dipreca"}}, {"type": "way", "id": 31926304, "center": {"lat": -33.4005251, "lon": -70.5086486}, "nodes": [5864273501, 5774125568, 1356259343, 357555408, 1356259102, 5864275138, 1356259334, 1744682966, 7769019720, 1356259083, 7769019721, 7769019722, 1744682967, 1744682965, 1356259009, 1744682964, 7769019723, 1356259099, 1356259263, 5864273497, 357555410, 2112253754, 7769019729, 7769019728, 357555403, 7769019727, 7769019726, 7769019724, 358797624, 7769019725, 5864273501], "tags": {"addr:housenumber": "12351", "addr:street": "Camino El Alba", "alt_name": "Clinica San Carlos de Apoquindo", "amenity": "hospital", "emergency": "yes", "name": "Cl\u00ednica UC San Carlos de Apoquindo"}}, {"type": "way", "id": 36977066, "center": {"lat": -33.3845465, "lon": -70.5305676}, "nodes": [429969322, 429969323, 429969325, 429969327, 429969328, 429969329, 8767479465, 583468083, 429969330, 429969332, 8767479464, 429969333, 8767479463, 429969336, 429969338, 8767479470, 8767479468, 8767479469, 8767479471, 429969340, 8767479466, 8767479467, 429969322], "tags": {"addr:city": "Las Condes", "addr:housenumber": "450", "addr:street": "Estoril", "amenity": "hospital", "name": "Cl\u00ednica Las Condes", "phone": "+56222104000", "website": "http://www.clc.cl", "wikidata": "Q19969389", "wikimedia_commons": "Category:Cl\u00ednica Las Condes", "wikipedia": "es:Cl\u00ednica Las Condes"}}, {"type": "way", "id": 36977067, "center": {"lat": -33.3820224, "lon": -70.5353601}, "nodes": [429969342, 309325885, 7730551537, 7730551539, 309325888, 309325889, 429969344, 7730551538, 429969345, 429969342], "tags": {"addr:housenumber": "1185", "addr:street": "Avenida Tabancura", "amenity": "hospital", "emergency": "yes", "internet_access": "wlan", "name": "Cl\u00ednica Tabancura", "opening_hours": "24/7", "source": "Reconocimiento cartogr\u00e1fico 2016 por KG.", "wikidata": "Q93742923"}}, {"type": "way", "id": 37356304, "center": {"lat": -33.4324389, "lon": -70.6285455}, "nodes": [436040156, 7771757336, 7771757337, 7771757338, 666952728, 7771757334, 7771757335, 7769922657, 7769922658, 7769922656, 7769922659, 7769922655, 7769922653, 7769922654, 436040158, 2305817387, 2305817389, 7546501588, 7647728738, 7647728731, 7647728739, 7546501587, 4423850432, 4423850435, 436040161, 7771757341, 7771757332, 7771757333, 7771757342, 7771757343, 7771757350, 7771757345, 7771757344, 7771757331, 7771757339, 7771757346, 7771757347, 7771757340, 7771757348, 7771757349, 436040156], "tags": {"addr:city": "Providencia", "addr:housenumber": "500", "addr:street": "Avenida Santa Mar\u00eda", "amenity": "hospital", "healthcare": "hospital", "name": "Cl\u00ednica Santa Mar\u00eda", "wikidata": "Q30274443", "wikimedia_commons": "Category:Cl\u00ednica Santa Mar\u00eda", "wikipedia": "es:Cl\u00ednica Santa Mar\u00eda"}}, {"type": "way", "id": 40034281, "center": {"lat": -33.029696, "lon": -71.5421376}, "nodes": [481383970, 7242332717, 481383973, 9532214650, 9532214651, 9532192886, 481383975, 9524920297, 9524920296, 8411678703, 8411678702, 312649381, 7045175459, 7045175460, 9495722328, 481383970], "tags": {"addr:city": "Vi\u00f1a del Mar", "addr:country": "CL", "addr:housenumber": "1532", "addr:street": "\u00c1lvarez", "amenity": "hospital", "emergency": "yes", "healthcare": "hospital", "healthcare:speciality": "general;gynaecology", "name": "Hospital Doctor Gustavo Fricke", "source": "Kaart Ground Survey 2017", "wikidata": "Q5902623", "wikipedia": "es:Hospital Dr. Gustavo Fricke"}}, {"type": "way", "id": 41391269, "center": {"lat": -33.5765765, "lon": -70.5793441}, "nodes": [7769114627, 7769114626, 7769114625, 511963851, 7474424846, 7443814165, 7769114624, 7769114623, 2878522328, 7769114622, 7769114621, 7474424847, 7014675151, 7014675152, 7474424848, 7769114619, 511963854, 2804000817, 7769114620, 511963856, 511963858, 511963860, 2073946762, 2073946763, 511963862, 7769114618, 5887825098, 2073946765, 7769425600, 2878518563, 511963864, 511963866, 6064288437, 511963867, 2804000818, 511963871, 511963873, 511963876, 2073946780, 7474424851, 7474424852, 7474424855, 7474424854, 7474424853, 11036548004, 2831897301, 2831897302, 2881917507, 2831897303, 2881917509, 511963835, 7769114646, 2881917501, 2881917508, 2878518565, 3441928093, 7769114644, 7769114645, 7474424884, 7474424885, 2824781797, 2878518566, 2824781798, 2831897101, 511963838, 1811439867, 511963840, 5370767308, 5370767309, 2824782205, 2803943515, 2824782207, 2824782208, 566441748, 5887825118, 7474424841, 7769114638, 2831412392, 7769511624, 7769114637, 2831675928, 9400408371, 9400408380, 7769114632, 7769473004, 7769425593, 7769425590, 9514030254, 2986438573, 7769114627], "tags": {"addr:city": "Puente Alto", "addr:housenumber": "3459", "addr:street": "Avenida Concha y Toro", "amenity": "hospital", "emergency": "yes", "healthcare": "hospital", "name": "Complejo Hospitalario S\u00f3tero del R\u00edo", "wheelchair": "yes", "wikidata": "Q93743272"}}, {"type": "way", "id": 41391275, "center": {"lat": -33.5003543, "lon": -70.5790444}, "nodes": [9115610387, 475726722, 4475401547, 4475401549, 9115610387], "tags": {"addr:city": "Pe\u00f1alol\u00e9n", "addr:housenumber": "5150", "addr:street": "Avenida Las Torres", "amenity": "hospital", "emergency": "yes", "healthcare": "hospital", "name": "Hospital Doctor Luis Tisn\u00e9", "wikidata": "Q5902614", "wikipedia": "es:Hospital Dr. Luis Tisn\u00e9 Brousse"}}, {"type": "way", "id": 41764746, "center": {"lat": -33.4431803, "lon": -70.6326181}, "nodes": [514589662, 514589663, 9084446381, 514589665, 514589666, 2019171029, 2019171028, 2019171026, 2019171021, 2019171037, 2019171039, 2019171023, 7067972870, 514589662], "tags": {"amenity": "hospital", "healthcare": "hospital", "name": "Hospital del Trabajador", "wikidata": "Q30280118", "wikimedia_commons": "Category:Hospital del Trabajador ACHS", "wikipedia": "es:Hospital del Trabajador ACHS"}}, {"type": "way", "id": 47202851, "center": {"lat": -34.3867346, "lon": -72.0136404}, "nodes": [601517533, 7746138429, 7746138430, 7746138431, 7746138432, 7746138433, 601517543, 601517552, 601517560, 601517566, 601517571, 601517533], "tags": {"addr:city": "Pichilemu", "addr:housenumber": "151", "addr:street": "Err\u00e1zuriz", "amenity": "hospital", "emergency": "yes", "name": "Hospital de Pichilemu"}}, {"type": "way", "id": 51706463, "center": {"lat": -38.4392615, "lon": -71.8913313}, "nodes": [659990540, 659990542, 659990541, 659990539, 659990540], "tags": {"addr:city": "Curacaut\u00edn", "addr:street": "Serrano", "amenity": "hospital", "name": "Hospital Curacaut\u00edn"}}, {"type": "way", "id": 56177886, "center": {"lat": -33.4188628, "lon": -70.6051128}, "nodes": [704987902, 8359769760, 5359480954, 5359480953, 8359769762, 8359769763, 2541615747, 704987908, 704987907, 704987902], "tags": {"addr:city": "Providencia", "addr:housenumber": "60", "addr:postcode": "7510021", "addr:street": "Avenida Holanda", "alt_name": "Hospital Metropolitano de Santiago", "amenity": "hospital", "email": "oirs.hosmet@redsalud.gov.cl", "emergency": "no", "healthcare": "hospital", "loc_name": "Hospital Metropolitano", "long_name": "Hospital Metropolitano de Santiago (ex Hospital Militar)", "name": "Hospital Metropolitano", "name:en": "Metropolitan Hospital", "official_name": "Hospital Metropolitano", "old_name": "Ex Hospital Militar", "operator": "SSMOC", "operator:type": "public", "phone": "+56 2 2568 1833", "website": "https://hospitalmetropolitano.minsal.cl", "wikidata": "Q108389870", "wikipedia": "es:Hospital Metropolitano"}}, {"type": "way", "id": 96772193, "center": {"lat": -39.8629908, "lon": -72.8100407}, "nodes": [1120657040, 11136326929, 1120656736, 1120656647, 1519302161, 8670394325, 8670394322, 11136326928, 1120657040], "tags": {"addr:city": "Los Lagos", "addr:housenumber": "246", "addr:street": "Lan\u00edn", "amenity": "hospital", "name": "Hospital de Los Lagos", "wikidata": "Q93743930"}}, {"type": "way", "id": 97875834, "center": {"lat": -35.8443085, "lon": -71.5910858}, "nodes": [1132846686, 1132846732, 1132846727, 1132846764, 1132846686], "tags": {"addr:city": "Linares", "addr:country": "CL", "addr:district": "Linares", "addr:housenumber": "753", "addr:state": "Regi\u00f3n del Maule", "addr:street": "Avenida Brasil", "amenity": "hospital", "healthcare": "hospital", "name": "Hospital Presidente Carlos Ib\u00e1\u00f1ez del Campo de Linares", "phone": "+56732566500"}}, {"type": "way", "id": 103510709, "center": {"lat": -30.5996236, "lon": -71.2000879}, "nodes": [1195203322, 1195203329, 1754719132, 1195203331, 7740327173, 1195203346, 1754719144, 1195203322], "tags": {"addr:housenumber": "7", "addr:street": "Arizt\u00eda Poniente", "amenity": "hospital", "healthcare": "hospital", "name": "Hospital de Ovalle Doctor Antonio Tirado Lanas", "phone": "053663190"}}, {"type": "way", "id": 103593736, "center": {"lat": -33.4501596, "lon": -70.5375866}, "nodes": [1152225581, 7694615180, 7694615176, 7694615179, 1196058995, 3672628932, 3672628935, 1196058930, 1196058946, 1196058941, 1713695334, 1870148941, 1855944979, 1855944978, 7694615178, 1152225583, 7694615177, 1855944980, 1152225581], "tags": {"amenity": "hospital", "name": "Hospital Militar de Santiago", "wikidata": "Q5902767"}}, {"type": "way", "id": 103648187, "center": {"lat": -32.846065, "lon": -70.5861346}, "nodes": [1196769795, 6765256631, 7531549499, 6765256634, 7531549498, 6765256633, 6765256632, 1196769811, 7531549501, 7531549500, 1196770034, 10210412519, 1196769852, 7531549497, 1196769913, 1196769891, 1196769745, 1196769795], "tags": {"addr:city": "Los Andes", "addr:housenumber": "777", "addr:street": "Santa Mar\u00eda", "amenity": "hospital", "emergency": "yes", "healthcare": "hospital", "name": "Cl\u00ednica R\u00edo Blanco", "wikidata": "Q93742308"}}, {"type": "way", "id": 103687709, "center": {"lat": -34.4110211, "lon": -70.8529357}, "nodes": [1197087474, 1197087345, 1197087397, 1197087424, 1197087603, 1197087474], "tags": {"addr:city": "Rengo", "addr:housenumber": "210", "addr:street": "Doctor Renato Correa", "amenity": "hospital", "healthcare": "hospital", "name": "Hospital Doctor Ricardo Valenzuela S\u00e1ez de Rengo"}}, {"type": "way", "id": 103924836, "center": {"lat": -31.1754017, "lon": -71.0079236}, "nodes": [1199530239, 1199530203, 1199530234, 1199530238, 7879977718, 1199530237, 1199530239], "tags": {"addr:city": "Combarbal\u00e1", "addr:housenumber": "650", "addr:street": "Comercio", "amenity": "hospital", "name": "Hospital San Juan de Dios Combarbala", "wikidata": "Q93742001"}}, {"type": "way", "id": 104014750, "center": {"lat": -31.776387, "lon": -70.9629603}, "nodes": [1200392198, 1200397384, 1200392109, 1200397235, 1200392198], "tags": {"addr:city": "Salamanca", "addr:housenumber": "113", "addr:street": "Matilde Salamanca", "amenity": "hospital", "healthcare": "hospital", "name": "Hopital Salamanca"}}, {"type": "way", "id": 104025922, "center": {"lat": -31.9155976, "lon": -71.5127787}, "nodes": [1200523563, 1200522966, 1200523054, 1200522969, 1200523563], "tags": {"addr:city": "Los Vilos", "addr:housenumber": "400", "addr:street": "Arauco", "amenity": "hospital", "emergency": "yes", "name": "Hospital San Pedro Los Vilos", "wikidata": "Q93742004"}}, {"type": "way", "id": 104049301, "center": {"lat": -34.5756894, "lon": -70.9924106}, "nodes": [5321263721, 6615156188, 5322562964, 6615156189, 6615156298, 6014606218, 5423735125, 6615234671, 6615156194, 6615156192, 6615156190, 1200778579, 6014606213, 5423735124, 6615234459, 6615234789, 6615156388, 5423735122, 5423734863, 5423734865, 5423734864, 5423735121, 6615156420, 6615156402, 5423734920, 5423734919, 6615234697, 5423734918, 6014606270, 5423734917, 6615156544, 5423734915, 5423734916, 7772289891, 5423734914, 7772289892, 6014606269, 1797747595, 5423734913, 6615156325, 5903446219, 6615204744, 6014606239, 6615234752, 5258692800, 5258692801, 6014606243, 5321263612, 6615234728, 5387908917, 6615234425, 6615234424, 5387909426, 5905198241, 4818924260, 4818924276, 6615234414, 6014606245, 6615234431, 5903444546, 5387908878, 5423734847, 6615234430, 1200779004, 5321263724, 5423735129, 6615204754, 5423734908, 6615156294, 6615156293, 1200778906, 7772305827, 6615156484, 6615156485, 5321263721], "tags": {"addr:city": "San Fernando", "addr:housenumber": "1401", "addr:street": "Negrete", "amenity": "hospital", "emergency": "yes", "healthcare": "hospital", "name": "Hospital San Juan de Dios de San Fernando", "name:en": "San Juan de Dios Hospital of San Fernando"}}, {"type": "way", "id": 106121250, "center": {"lat": -34.441214, "lon": -71.0808964}, "nodes": [1221898205, 4062050218, 4062050219, 4062050216, 4062050217, 4272338244, 4272338242, 4272338241, 4272338239, 4272338240, 1221898968, 1221899291, 1221899732, 1221898205], "tags": {"addr:city": "San Vicente de Tagua Tagua", "addr:housenumber": "1100", "addr:street": "Juan Bautista Pastenes", "amenity": "hospital", "healthcare": "hospital", "name": "Hospital San Vicente de Tagua Tagua", "wikidata": "Q93743316"}}, {"type": "way", "id": 107969490, "center": {"lat": -33.6101865, "lon": -70.9037623}, "nodes": [1239723893, 1239723795, 1239723956, 1239723809, 1239723908, 1239723893], "tags": {"amenity": "hospital", "healthcare": "hospital", "name": "Hospital de Pe\u00f1aflor", "wikidata": "Q93742582"}}, {"type": "way", "id": 108261881, "center": {"lat": -35.0931315, "lon": -72.0209283}, "nodes": [1242457698, 1242457731, 1242457713, 1242457709, 4750023928, 1242457711, 1242457715, 4750023929, 4750023930, 1242457730, 1242457698], "tags": {"amenity": "hospital", "emergency": "yes", "name": "Hospital de Curepto", "wikidata": "Q93743559"}}, {"type": "way", "id": 109908250, "center": {"lat": -36.7889785, "lon": -73.0636592}, "nodes": [1257043102, 7484518007, 1257043059, 1257043062, 1257043064, 7484517992, 7484518006, 1257043083, 6625209555, 1257043102], "tags": {"amenity": "hospital", "name": "Cl\u00ednica Biob\u00edo"}}, {"type": "way", "id": 111708175, "center": {"lat": -34.1861849, "lon": -70.7228656}, "nodes": [1272095719, 1859531705, 9028661261, 9028661257, 1272095684, 1272095762, 1272095889, 1272095773, 1757964732, 1272095719], "tags": {"addr:city": "Rancagua", "addr:country": "CL", "addr:housenumber": "884", "addr:street": "Carretera Presidente Eduardo Frei Montalva", "amenity": "hospital", "emergency": "yes", "name": "Clinica Isam\u00e9dica", "wikidata": "Q93743333"}}, {"type": "way", "id": 111708186, "center": {"lat": -34.1880624, "lon": -70.7204604}, "nodes": [1272095693, 1272095751, 7701459340, 7701459342, 7701459341, 1272095839, 9028713458, 7701459339, 9028713460, 1272095728, 9028713462, 7701459343, 9028713459, 7701459344, 9419613665, 9419584614, 9419584615, 9419613624, 9419613625, 9419613657, 1757981352, 1272095980, 9863114238, 1272095779, 1272095693], "tags": {"addr:housenumber": "1002", "addr:street": "Carretera Presidente Eduardo Frei Montalva", "amenity": "hospital", "emergency": "yes", "name": "Hospital Cl\u00ednico FUSAT", "wikidata": "Q5902573"}}, {"type": "way", "id": 112370769, "center": {"lat": -32.7593454, "lon": -70.7253002}, "nodes": [1277392210, 1277392248, 1277392251, 1277392116, 1277392270, 1277392187, 1277392216, 1277392190, 1277392218, 1277392084, 1277392175, 10202407424, 1277392210], "tags": {"amenity": "hospital", "name": "San Felipe El Real"}}, {"type": "way", "id": 112468738, "center": {"lat": -32.8288862, "lon": -70.5966887}, "nodes": [1278215601, 7543300374, 1278215578, 7543300375, 7543262092, 7543262091, 1278215609, 1278215588, 7543262090, 1278215571, 6345616039, 6345616030, 6345616038, 7543218576, 1278215570, 7543262093, 1278215601], "tags": {"addr:city": "Los Andes", "addr:housenumber": "315", "addr:street": "Avenida Argentina", "amenity": "hospital", "healthcare": "hospital", "name": "Hospital San Juan de Dios de Los Andes", "wikidata": "Q26708810"}}, {"type": "way", "id": 113308134, "center": {"lat": -36.8249351, "lon": -73.0382352}, "nodes": [1801271761, 1801271768, 1801271762, 1801271765, 1801271766, 1285258727, 2328248961, 2504513584, 1285258705, 1751553054, 1751553064, 2504513612, 1751553057, 1751553051, 1751553086, 1751553059, 7981376079, 1801271761], "tags": {"addr:housenumber": "1436", "addr:street": "San Mart\u00edn", "amenity": "hospital", "emergency": "yes", "healthcare": "hospital", "name": "Hospital Cl\u00ednico Regional de Concepci\u00f3n", "wikidata": "Q210869", "wikipedia": "es:Catedral de la Sant\u00edsima Concepci\u00f3n"}}, {"type": "way", "id": 113509743, "center": {"lat": -36.7405955, "lon": -73.1093819}, "nodes": [1286825194, 1286824582, 1286824624, 7764585755, 1286824626, 2178815803, 2178815866, 7764691713, 7764585757, 1286824814, 7764691714, 1286824563, 7764585756, 1286824531, 1286824438, 1286825164, 1286824949, 1286824785, 1286825194], "tags": {"addr:city": "Talcahuano", "addr:housenumber": "777", "addr:street": "Avenida Alto Horno", "amenity": "hospital", "emergency": "yes", "name": "Hospital Las Higueras", "wikidata": "Q22815260"}}, {"type": "way", "id": 113808316, "center": {"lat": -36.8423303, "lon": -73.1068798}, "nodes": [1290289098, 1290289101, 1290289100, 1290289097, 1303561708, 1290289098], "tags": {"amenity": "hospital", "healthcare": "hospital"}}, {"type": "way", "id": 115359188, "center": {"lat": -33.8327761, "lon": -70.6432854}, "nodes": [5935016326, 1303707286, 5935016327, 1278877165, 5935016326], "tags": {"amenity": "hospital", "emergency": "yes", "healthcare": "hospital", "name": "posta huelqu\u00e9n"}}, {"type": "way", "id": 115512963, "center": {"lat": -33.8123006, "lon": -70.7419339}, "nodes": [1304839049, 1304839048, 1304844142, 1304844136, 1304839049], "tags": {"amenity": "hospital", "name": "Santa Catalina"}}, {"type": "way", "id": 116377773, "center": {"lat": -36.4296765, "lon": -71.9597149}, "nodes": [1312021695, 7637572607, 7637572606, 7637513900, 6405382940, 1312020487, 6405382942, 7637555685, 1312020112, 1312020128, 1312021695], "tags": {"amenity": "hospital", "healthcare": "hospital", "name": "Hospital de San Carlos", "wikidata": "Q5902555"}}, {"type": "way", "id": 116394783, "center": {"lat": -35.1080043, "lon": -71.296015}, "nodes": [1312195616, 7614939475, 1312195615, 7614995616, 7614995615, 7614939477, 7614995619, 1312195624, 7614995617, 1312195643, 7614939476, 1312195616], "tags": {"addr:city": "Molina, Chile", "addr:street": "Avenida Luis Cruz Mart\u00ednez", "amenity": "hospital", "emergency": "yes", "name": "Hospital de Molina", "nohousenumber": "yes"}}, {"type": "way", "id": 116515388, "center": {"lat": -37.7821509, "lon": -73.3858553}, "nodes": [1313284851, 2852186664, 2852186643, 9407671967, 1313284868, 2851512905, 2851512904, 9407671968, 2852186652, 1313284848, 2851512907, 2851512906, 1313284852, 1313284851], "tags": {"addr:city": "Ca\u00f1ete", "addr:street": "Cruce Ruta 160 (Tres Pinos) - Contulmo - Cruce R-86 (Los Sauces), Sector: Tres Pinos - L\u00edmite Regional", "amenity": "hospital", "healthcare": "hospital", "name": "Hospital Intercultural Kallvu Llanka de Ca\u00f1ete", "nohousenumber": "yes", "wikidata": "Q93744221"}}, {"type": "way", "id": 121020882, "center": {"lat": -37.7200105, "lon": -72.2406567}, "nodes": [1355533884, 1355533854, 1355533805, 1355533830, 1355533884], "tags": {"amenity": "hospital", "name": "Hospital de Mulch\u00e9n", "wikidata": "Q76824857"}}, {"type": "way", "id": 121138661, "center": {"lat": -37.4734745, "lon": -73.3480707}, "nodes": [1356815403, 3357158932, 3357158936, 3357158937, 3357158944, 1356815326, 3357158943, 1356815569, 1356815314, 1356815329, 3357158942, 1356815263, 1356815337, 1356815251, 1356815584, 1356815293, 1356815408, 1356815403], "tags": {"amenity": "hospital", "name": "Hospital de Curanilahue"}}, {"type": "way", "id": 122126753, "center": {"lat": -34.9825281, "lon": -71.9904061}, "nodes": [1365440289, 1365440256, 1365440158, 1365440105, 1365440289], "tags": {"addr:city": "Licant\u00e9n", "addr:housenumber": "685", "addr:street": "Avenida Lautaro", "amenity": "hospital", "emergency": "yes", "name": "Hospital de Licant\u00e9n", "phone": "+56752565771"}}, {"type": "way", "id": 123041283, "center": {"lat": -32.8793453, "lon": -71.2574379}, "nodes": [1373287144, 3847542546, 1373287139, 1373286337, 5317368303, 5317368304, 7663709672, 1373286978, 7663709673, 5317368305, 5317368306, 5317368307, 7663777077, 5317368308, 7663709669, 7663709671, 7245853637, 7245853638, 7663534966, 7663534965, 7663709670, 1373287144], "tags": {"addr:city": "Quillota", "addr:country": "CL", "addr:housenumber": "1050", "addr:street": "La Concepci\u00f3n", "amenity": "hospital", "emergency": "yes", "healthcare": "hospital", "name": "Hospital San Mart\u00edn de Quillota", "wikidata": "Q5902887"}}, {"type": "way", "id": 124777279, "center": {"lat": -34.6495844, "lon": -71.2044001}, "nodes": [1387652789, 9194817159, 9194817160, 1387652692, 1387652712, 1387652531, 1387652792, 1387652789], "tags": {"addr:city": "Nancagua", "addr:housenumber": "464", "addr:street": "18 de Septiembre", "amenity": "hospital", "healthcare": "hospital", "name": "Hospital de Nancagua"}}, {"type": "way", "id": 126614190, "center": {"lat": -37.0286069, "lon": -73.1360655}, "nodes": [1403182013, 7614446394, 7614446391, 7614446392, 7614446393, 7614446397, 7614446395, 7614446396, 1403182015, 1174986300, 1174991193, 7614446389, 7614446390, 1403182013], "tags": {"addr:city": "Coronel", "addr:housenumber": "702", "addr:street": "Lautaro", "amenity": "hospital", "description": "Con el fin de enfrentar los problemas relacionados con la Salud, se fund\u00f3, el 6 de noviembre de 1867, una Junta Directora de Establecimientos de Beneficencia, de la que saldr\u00eda el Hospital, que nace oficialmente el 28 de abril de 1868.", "emergency": "yes", "healthcare": "hospital", "healthcare:speciality": "general;paediatrics;vaccination;surgery;gynaecology;internal;emergency;community;applied_kinesiology;blood_check", "internet_access": "wlan", "name": "Hospital San Jos\u00e9 de Coronel", "operator": "Servicio de salud Bio-bio", "operator:type": "public", "phone": "OIRS: +56 41 272 3255", "start_date": "6 de noviembre de 1867", "website": "http://hospitaldecoronel.cl/inicio/", "wheelchair": "yes", "wikidata": "Q93743618"}}, {"type": "way", "id": 128031984, "center": {"lat": -39.8316668, "lon": -73.2399747}, "nodes": [7719141566, 7719141565, 1329492781, 7717734766, 7727412760, 1329492736, 1329492789, 1415762881, 1415762890, 1415762876, 1415762887, 1415762868, 1415762879, 1415762880, 1415762882, 5600964198, 7729875853, 1415762883, 1415762888, 1752167884, 1415762874, 1415762889, 1329492721, 7729725467, 1329492756, 7727412766, 7719141566], "tags": {"addr:city": "Valdivia", "addr:country": "CL", "addr:district": "Valdivia", "addr:housenumber": "1003", "addr:state": "Regi\u00f3n de Los R\u00edos", "addr:street": "Santiago Bueras", "amenity": "hospital", "healthcare": "hospital", "name": "Hospital Regional de Valdivia"}}, {"type": "way", "id": 135176108, "center": {"lat": -38.0386678, "lon": -73.0751692}, "nodes": [1484759794, 10179033937, 1484759796, 1484761759, 1484761743, 1484759794], "tags": {"addr:city": "Puren", "addr:housenumber": "1562", "addr:street": "Imperial", "amenity": "hospital", "healthcare": "hospital", "name": "Hospital de Pur\u00e9n", "wikidata": "Q93744229"}}, {"type": "way", "id": 135537759, "center": {"lat": -38.7366632, "lon": -72.610734}, "nodes": [2406123368, 2073740396, 7746039634, 7745971075, 2073740393, 2073740392, 7745971076, 2406123372, 2406123370, 1488545767, 7745971071, 7746024274, 7745971070, 7745971069, 1488545766, 7746024266, 1488545754, 1488545744, 7746039638, 7745971072, 7745971073, 1488545756, 7746039637, 7745971074, 7746039633, 2406123368], "tags": {"addr:city": "Temuco", "addr:country": "CL", "addr:district": "Temuco", "addr:housenumber": "645", "addr:street": "Senador Est\u00e9banez", "amenity": "hospital", "emergency": "yes", "name": "Cl\u00ednica Alemana de Temuco", "toilets:wheelchair": "yes", "wheelchair": "yes"}}, {"type": "way", "id": 135783771, "center": {"lat": -33.6955381, "lon": -71.2146726}, "nodes": [1490607947, 1490607873, 8760411097, 7034121698, 1490608040, 1490608007, 4805894124, 1490607902, 1490607947], "tags": {"addr:city": "Melipilla", "addr:housenumber": "551", "addr:street": "O'Higgins", "amenity": "hospital", "emergency": "yes", "healthcare": "hospital", "name": "Hospital San Jos\u00e9 de Melipilla", "operator": "Servicio de Salud Metropolitano Occidente", "operator:type": "public", "website": "https://hospitaldemelipilla.cl/", "wikidata": "Q38009220"}}, {"type": "way", "id": 143576234, "center": {"lat": -34.178687, "lon": -70.7398721}, "nodes": [1571207729, 1571207742, 1571207739, 1571207724, 1571207729], "tags": {"amenity": "hospital", "name": "Samu"}}, {"type": "way", "id": 147223050, "center": {"lat": -36.6096249, "lon": -72.0912283}, "nodes": [1604373864, 3777655725, 3777702573, 3777702624, 1604373804, 1604373841, 3777702618, 3777702619, 3777702620, 4934722512, 3012884405, 7746118655, 3498101388, 1604373879, 3498101389, 1604373887, 1604373785, 3777655729, 3777655728, 1604373864], "tags": {"addr:city": "Chill\u00e1n", "addr:country": "CL", "addr:housenumber": "10", "addr:state": "Regi\u00f3n de \u00d1uble", "addr:street": "Avenida Francisco Ram\u00edrez", "amenity": "hospital", "emergency": "yes", "name": "Hospital Cl\u00ednico Herminda Mart\u00edn", "website": "http://www.hospitaldechillan.cl", "wikidata": "Q5902577"}}, {"type": "way", "id": 149021257, "center": {"lat": -32.4502966, "lon": -71.2381227}, "nodes": [1620584766, 4605817576, 1620584743, 1620584788, 1620584797, 1620584702, 1620584802, 1620584740, 4605817579, 10694084625, 1620584810, 1620584777, 1620584745, 1620584791, 1620584703, 1620584766], "tags": {"addr:city": "La Ligua", "addr:country": "CL", "addr:housenumber": "1020", "addr:street": "Avenida Diego Portales", "amenity": "hospital", "healthcare": "hospital", "name": "Hospital San Agust\u00edn de La Ligua"}}, {"type": "way", "id": 149924720, "center": {"lat": -32.7491248, "lon": -70.7093006}, "nodes": [1628610378, 7786358096, 7786358097, 7786358098, 1628610242, 7702006567, 7702127647, 7702127648, 7146294832, 7702006570, 7702006568, 7786358094, 7786358095, 1628610378], "tags": {"amenity": "hospital", "emergency": "yes", "healthcare": "hospital", "name": "Hospital San Camilo", "wikidata": "Q22814882"}}, {"type": "way", "id": 150120986, "center": {"lat": -38.7404086, "lon": -72.9585223}, "nodes": [1630419488, 1630419553, 1630419599, 1630419562, 1630419536, 1630419466, 1630419516, 1630419612, 1630419488], "tags": {"addr:city": "Nueva Imperial", "addr:country": "CL", "addr:district": "Nueva Imperial", "addr:housenumber": "0115", "addr:state": "Regi\u00f3n de La Araucan\u00eda", "addr:street": "Castell\u00f3n", "amenity": "hospital", "emergency": "yes", "name": "Hospital de Nueva Imperial", "wikidata": "Q28056855", "wikipedia": "es:Hospital Intercultural de Nueva Imperial"}}, {"type": "way", "id": 150133317, "center": {"lat": -36.6152831, "lon": -72.1071231}, "nodes": [1630526360, 1630526365, 4438473872, 7723910582, 1630526271, 4438473853, 410052651, 4438486564, 4438486565, 4438486562, 1630526360], "tags": {"addr:city": "Chill\u00e1n", "addr:country": "CL", "addr:state": "Regi\u00f3n de \u00d1uble", "amenity": "hospital", "name": "ACHS Cl\u00ednica del Trabajador"}}, {"type": "way", "id": 150133321, "center": {"lat": -36.6153948, "lon": -72.1076489}, "nodes": [1630526365, 4438473872, 7723910582, 1630526271, 4438473853, 1630526330, 1630526339, 4438473877, 7723871713, 5941829663, 5941829664, 5941831686, 1630526365], "tags": {"addr:city": "Chill\u00e1n", "addr:country": "CL", "addr:state": "Regi\u00f3n de \u00d1uble", "amenity": "hospital", "emergency": "yes", "healthcare": "hospital", "name": "Cl\u00ednica Chill\u00e1n", "wikidata": "Q93743610"}}, {"type": "way", "id": 150330779, "center": {"lat": -38.7119594, "lon": -73.1601119}, "nodes": [1632515137, 1632515136, 1632515140, 1632515135, 1632515137], "tags": {"amenity": "hospital", "emergency": "yes", "name": "Hospital de Carahue"}}, {"type": "way", "id": 150435042, "center": {"lat": -34.1549061, "lon": -70.7665677}, "nodes": [1633504773, 7719226089, 4227466927, 4227466875, 4227466870, 4227466869, 4227466865, 4227466864, 4227466863, 4227466861, 4227466900, 5994192518, 7719226086, 4227466932, 4227466931, 7719259385, 7719226087, 4227466930, 4227466929, 7719219282, 4227466765, 4227466857, 4227466856, 1838379510, 1838379525, 7719226088, 5994192540, 6938852674, 4227466316, 7719226091, 7719226090, 1633504773], "tags": {"addr:city": "Rancagua", "addr:housenumber": "3065", "addr:street": "Av. Libertador General Bernardo O'Higgins", "amenity": "hospital", "check_date": "2023-05-20", "emergency": "yes", "healthcare": "hospital", "healthcare:speciality": "general", "name": "Hospital Regional de Rancagua", "official_name": "Hospital Regional Libertador Bernardo O'Higgins", "operator": "Servicio de Salud O'Higgins", "operator:type": "public", "start_date": "2016-04-25", "website": "https://hospitalrancagua.cl/", "wheelchair": "yes", "wikidata": "Q22814969", "wikipedia": "es:Hospital Regional de Rancagua"}}, {"type": "way", "id": 150951540, "center": {"lat": -32.779326, "lon": -71.5310761}, "nodes": [1638096749, 7479136132, 7479136133, 1638096834, 7479136134, 1638096719, 7479136112, 7479136113, 7479136114, 7479166128, 7479136115, 7479166123, 7479136111, 7479136116, 7479136117, 7479136118, 1638096775, 7479136119, 1638096570, 7479136120, 7479136121, 7479136122, 1638096519, 7479136123, 7479136124, 1638096367, 7479136125, 7479136126, 1638096525, 7479136127, 1638096558, 7479136128, 7479136129, 7479136130, 7479136131, 1638096749], "tags": {"addr:city": "Quintero", "addr:country": "CL", "addr:housenumber": "380", "addr:street": "Aranguiz", "amenity": "hospital", "healthcare": "hospital", "name": "Hospital Adriana Cousi\u00f1o", "wikidata": "Q93742274"}}, {"type": "way", "id": 151478680, "center": {"lat": -38.7993772, "lon": -73.3926632}, "nodes": [1642952628, 1642952624, 660063281, 1642950503, 1642952636, 1642950328, 1642952655, 1642952620, 1642952645, 1642952638, 1642952650, 1642952628], "tags": {"amenity": "hospital", "emergency": "yes", "healthcare": "hospital", "name": "Hospital de Puerto Saavedra"}}, {"type": "way", "id": 151514391, "center": {"lat": -38.9895589, "lon": -72.6440879}, "nodes": [1643265984, 1643265953, 5035166208, 5035166206, 5035166207, 1643265914, 5035166203, 5035166204, 1643265960, 1643265986, 1643265955, 1643265977, 11033586897, 1643265984], "tags": {"addr:city": "Pitrufqu\u00e9n", "addr:country": "CL", "addr:district": "Pitrufqu\u00e9n", "addr:housenumber": "1223", "addr:state": "Regi\u00f3n de la Araucan\u00eda", "addr:street": "Manuel Rodr\u00edguez", "amenity": "hospital", "emergency": "yes", "healthcare": "hospital", "healthcare:speciality": "psychiatry;paediatrics;ophthalmology;gynaecology;internal;general;intensive;surgery", "name": "Hospital de Pitrufqu\u00e9n", "opening_hours": "Mo-Th 08:00-17:00 Fr 08:00-16:00", "operator": "Servicio de Salud Araucan\u00eda Sur", "operator:type": "public", "source:addr": "www.sii.cl, Cartograf\u00eda Digital SII Mapas", "wheelchair": "yes", "wikidata": "Q93743893"}}, {"type": "way", "id": 154083951, "center": {"lat": -33.5080114, "lon": -70.774133}, "nodes": [2576169503, 7716478892, 7716478891, 7716478890, 2576169490, 7637454471, 1666814771, 7637454472, 7698416138, 7698416137, 1824629229, 7698463865, 7637454473, 1824629227, 1824629225, 1666814774, 7887953466, 7637454474, 1666814772, 5716281326, 7698368769, 6531386652, 2576169448, 2576169503], "tags": {"addr:city": "Maip\u00fa", "addr:housenumber": "1201", "addr:street": "Camino a Rinconada", "amenity": "hospital", "emergency": "yes", "healthcare": "hospital", "healthcare:speciality": "general;paediatrics;gynaecology;dentistry", "name": "Hospital Metropolitano El Carmen Doctor Luis Valent\u00edn Ferrada", "operator": "Ministerio de Salud", "website": "https://www.hospitalelcarmen.cl/hec/", "wikidata": "Q5902629", "wikimedia_commons": "Category:Hospital El Carmen", "wikipedia": "es:Hospital El Carmen (Santiago de Chile)"}}, {"type": "way", "id": 155060961, "center": {"lat": -33.7345807, "lon": -70.7395648}, "nodes": [1675004834, 1675004830, 1675004833, 1675004829, 1675004834], "tags": {"addr:housenumber": "250", "addr:street": "Arturo Prat", "amenity": "hospital", "emergency": "yes", "name": "Hospital San Luis de Buin", "wikidata": "Q93743229"}}, {"type": "way", "id": 157653648, "center": {"lat": -33.4423751, "lon": -70.6399051}, "nodes": [9095393953, 10884039620, 1743401706, 9098063203, 1983500919, 1699103548, 1857757947, 1983500922, 1983500948, 1699101384, 1983500928, 10884039824, 10884039822, 10884039820, 10884039621, 10884039825, 10884039826, 1699101399, 1983500945, 1699101372, 1699103404, 9098063205, 1699111528, 10884039856, 10884039619, 10884039861, 10884039496, 10884039501, 1699111551, 1743401799, 1743401766, 10884039643, 1743401804, 1743401578, 1743401791, 9095393954, 9095394036, 9095394037, 9095394419, 9095393955, 9095394017, 1699108373, 1699108364, 1699108386, 1699108385, 11296483940, 9111282631, 9095393926, 9095394022, 9095394118, 9095393927, 9095394119, 9095394023, 9095393928, 9095394317, 9095393929, 9095394417, 9095394024, 9095394025, 9095394120, 9095393930, 9095394026, 9095393931, 9095393932, 9095394027, 9095394028, 9095393933, 9095394029, 9095394121, 9095393934, 9095394030, 9095393935, 9095393936, 9095393937, 9095394418, 9095394122, 9095393938, 9095394031, 9095394032, 9095393939, 9095393940, 9095393941, 9095393942, 9095393943, 9095393944, 9095393945, 9095393946, 9095394033, 9095394123, 9095393947, 9095393948, 9095393949, 9095394034, 9095394035, 9095393950, 9095394124, 9095393951, 9095393952, 9095393953], "tags": {"addr:city": "Santiago", "addr:housenumber": "352", "addr:street": "Marcoleta", "amenity": "hospital", "emergency": "no", "healthcare": "hospital", "name": "Centro de Especialidades M\u00e9dicas UC"}}, {"type": "way", "id": 158306848, "center": {"lat": -37.1218525, "lon": -72.0240621}, "nodes": [1705333212, 1705333211, 1705333208, 1705333207, 1705333210, 1705333209, 1705214464, 1705214439, 1705214437, 1919433440, 1705333212], "tags": {"amenity": "hospital", "name": "Hospital de Yungay", "wikidata": "Q5903131"}}, {"type": "way", "id": 161789404, "center": {"lat": -37.6102379, "lon": -73.659724}, "nodes": [1737485944, 1737485946, 1737485940, 1737485948, 1737485935, 1737485944], "tags": {"addr:housenumber": "54", "addr:street": "Doctor Octavio Orellana Fuentes", "amenity": "hospital", "name": "Hospital Santa Isabel de Lebu", "phone": "+56412724500", "website": "http://www.hospitaldelebu.cl", "wikidata": "Q26720771"}}, {"type": "way", "id": 161858246, "center": {"lat": -38.5262477, "lon": -72.4399919}, "nodes": [1738160508, 1738160147, 1738160052, 1738160510, 7275414424, 1738160508], "tags": {"addr:city": "Lautaro", "addr:country": "CL", "addr:district": "Lautaro", "addr:housenumber": "750", "addr:state": "Regi\u00f3n de La Araucan\u00eda", "addr:street": "General Erasmo Escala", "amenity": "hospital", "healthcare": "hospital", "name": "SAR Lautaro", "source:addr": "www.sii.cl, Cartograf\u00eda Digital SII Mapas"}}, {"type": "way", "id": 169402659, "center": {"lat": -39.2788409, "lon": -71.9742366}, "nodes": [1805697859, 11188410415, 1805697858, 1805697852, 1805697853, 1805697859], "tags": {"addr:city": "Puc\u00f3n", "addr:country": "CL", "addr:district": "Puc\u00f3n", "addr:housenumber": "325", "addr:postcode": "4920000", "addr:state": "Regi\u00f3n de La Araucan\u00eda", "addr:street": "Uruguay", "amenity": "hospital", "name": "Hospital San Francisco de Puc\u00f3n", "wikidata": "Q93743897"}}, {"type": "way", "id": 170265967, "center": {"lat": -38.4183763, "lon": -72.372246}, "nodes": [1814175209, 1814175207, 1814175206, 1814175208, 1814175209], "tags": {"amenity": "hospital", "emergency": "yes", "healthcare": "yes", "name": "Cesfam Perquenco"}}, {"type": "way", "id": 170744720, "center": {"lat": -35.9625894, "lon": -72.3249075}, "nodes": [1818900580, 1818913416, 1818913390, 1818913294, 1818913319, 1818900577, 1818900561, 1818900547, 1818900580], "tags": {"addr:city": "Cauquenes", "addr:street": "Montt", "amenity": "hospital", "name": "Hospital San Juan de Dios de Cauquenes", "nohousenumber": "yes", "wikidata": "Q93743568"}}, {"type": "way", "id": 174379646, "center": {"lat": -33.0387065, "lon": -71.356689}, "nodes": [6140625169, 1850737670, 1850737782, 7624206051, 1850737751, 1850737676, 6140625167, 6140625169], "tags": {"addr:city": "Villa Alemana", "addr:country": "CL", "addr:housenumber": "660", "addr:street": "Sargento Aldea", "amenity": "hospital", "name": "Hospital Juana Ross de Edwards"}}, {"type": "way", "id": 174857952, "center": {"lat": -33.4229197, "lon": -70.6513476}, "nodes": [1855079954, 8720543772, 8720543773, 8720537807, 6061645621, 6061645618, 5553315030, 8720632133, 8720543765, 1855079984, 8720537804, 6856261191, 1855079954], "tags": {"addr:city": "Independencia", "addr:housenumber": "750", "addr:street": "Avenida La Paz", "amenity": "hospital", "building": "yes", "building:levels": "4", "emergency": "no", "healthcare": "hospital", "name": "Cl\u00ednica Dental Universidad de Chile"}}, {"type": "way", "id": 175150076, "center": {"lat": -39.1058261, "lon": -72.6682315}, "nodes": [1857898678, 4559143801, 1857898637, 1857898631, 1857898829, 1857898691, 1857898678], "tags": {"addr:city": "Gorbea", "addr:country": "CL", "addr:district": "Gorbea", "addr:housenumber": "901", "addr:state": "Regi\u00f3n de la Araucan\u00eda", "addr:street": "Jos\u00e9 Miguel Carrera", "amenity": "hospital", "name": "Hospital de Gorbea", "source:addr": "www.sii.cl, Cartograf\u00eda Digital SII Mapas", "wikidata": "Q28057247", "wikipedia": "es:Hospital de Gorbea"}}, {"type": "way", "id": 179080452, "center": {"lat": -38.0199908, "lon": -73.2319146}, "nodes": [1894168771, 1894168770, 8764461246, 1894168765, 1894168766, 1894168767, 1894168772, 1894168768, 1894168769, 1894168771], "tags": {"amenity": "hospital", "emergency": "yes", "name": "Hospital de Contulmo", "wikidata": "Q93744224"}}, {"type": "way", "id": 180646078, "center": {"lat": -34.1802141, "lon": -70.6515816}, "nodes": [2085143697, 1910942315, 2085143695, 2085143700, 2085143698, 2085143699, 2085143694, 2085143697], "tags": {"amenity": "hospital", "emergency": "yes", "healthcare": "hospital", "name": "CESFAM Machal\u00ed"}}, {"type": "way", "id": 181156967, "center": {"lat": -38.2343472, "lon": -72.3407567}, "nodes": [1915977100, 1915977057, 1915976934, 7598951644, 7598951643, 1915977053, 1915977100], "tags": {"addr:city": "Victoria", "addr:housenumber": "1141", "addr:street": "Pedro Dartnell", "amenity": "hospital", "healthcare": "hospital", "name": "Hospital de Victoria"}}, {"type": "way", "id": 184699521, "center": {"lat": -36.6912507, "lon": -73.1134981}, "nodes": [1952018208, 1952018209, 1952018206, 1952018213, 7454667182, 7454667181, 7454667180, 1952018211, 7454667179, 10798195511, 10798187404, 10798187378, 1952018208], "tags": {"addr:city": "Talcahuano", "addr:street": "Michimalongo", "amenity": "hospital", "healthcare": "hospital", "name": "Hospital Naval de Talcahuano"}}, {"type": "way", "id": 185100546, "center": {"lat": -33.4571245, "lon": -70.7007123}, "nodes": [1956795699, 1956805500, 1956805501, 1956795707, 1956795740, 1956795699], "tags": {"addr:city": "Estaci\u00f3n Central", "addr:housename": "Mutual de Seguridad", "addr:housenumber": "4850", "addr:street": "Avenida Libertador Bernardo O'Higgins", "amenity": "hospital", "emergency": "yes", "healthcare": "hospital", "name": "Hospital Cl\u00ednico Mutual de Seguridad", "phone": "+56227879000", "wheelchair": "yes"}}, {"type": "way", "id": 185100548, "center": {"lat": -33.4577463, "lon": -70.7014377}, "nodes": [1956795707, 1956805501, 1956805500, 1956795787, 2614850026, 2614850023, 2614850025, 2614850022, 2614850020, 1956795706, 2614850031, 2614850029, 1956795704, 1956795708, 1956795703, 1956795746, 1956795707], "tags": {"addr:city": "Estaci\u00f3n Central", "addr:housename": "Cl\u00ednica Bicentenario", "addr:housenumber": "4850", "addr:street": "Avenida Libertador Bernardo O'Higgins", "amenity": "hospital", "emergency": "yes", "healthcare": "hospital", "name": "Cl\u00ednica Bicentenario", "phone": "600 8983600", "wheelchair": "yes"}}, {"type": "way", "id": 186405064, "center": {"lat": -36.8981024, "lon": -72.0349028}, "nodes": [1970887440, 1970887480, 1970887088, 1970887504, 1970887440], "tags": {"addr:city": "El Carmen", "addr:street": "General Baquedano", "amenity": "hospital", "healthcare": "hospital", "name": "Hospital de El Carmen"}}, {"type": "way", "id": 189011024, "center": {"lat": -34.6346188, "lon": -71.3571022}, "nodes": [1996606013, 1996606014, 5200643455, 5200643456, 1996606016, 10555101871, 10555101872, 1996606015, 1996606017, 3040106477, 1996606018, 3040106478, 10548981548, 1996606013], "tags": {"addr:city": "Santa Cruz", "addr:housenumber": "921", "addr:street": "Avenida Err\u00e1zuriz", "amenity": "hospital", "emergency": "yes", "healthcare": "hospital", "name": "Hospital de Santa Cruz", "old_name": "Hospital San Ram\u00f3n", "operator": "Servicio de Salud O'Higgins", "operator:type": "public", "website": "https://www.hospitalsantacruz.cl/", "wikidata": "Q9004955", "wikipedia": "es:Hospital de Santa Cruz"}}, {"type": "way", "id": 191621456, "center": {"lat": -37.6678975, "lon": -72.0166457}, "nodes": [2022045702, 2022045705, 2022045698, 6561931696, 2022045699, 6122271398, 2022045702], "tags": {"amenity": "hospital", "emergency": "yes", "healthcare": "hospital", "name": "Hospital Santa B\u00e1rbara"}}, {"type": "way", "id": 192077698, "center": {"lat": -33.483604, "lon": -70.6573558}, "nodes": [2026340024, 2026340099, 2026340101, 2026340080, 2026340011, 2026340024], "tags": {"amenity": "hospital", "emergency": "yes", "name": "Hospital Exequiel Gonz\u00e1lez Cortez"}}, {"type": "way", "id": 193123627, "center": {"lat": -37.3815325, "lon": -70.273885}, "nodes": [2036411447, 2036411451, 8653733585, 8653733584, 2036411448, 8653733583, 2036411441, 8653733582, 2036411447], "tags": {"addr:city": "Chos Malal", "addr:full": "Av. Estanislao Flores 650", "addr:housenumber": "650", "addr:place": "Chos Malal", "addr:postcode": "Q8353", "addr:street": "Avenida Estanislao Flores", "amenity": "hospital", "description": "Mediano riesgo con internaci\u00f3n con cuidados especiales", "emergency": "yes", "healthcare": "hospital", "name": "Hospital de \u00c1rea Chos Malal \"Doctor Gregorio \u00c1lvarez\"", "operator": "Ministerio de Salud - Gobierno de la Provincia del Neuqu\u00e9n", "operator:type": "public", "phone": "+54 294 842-1400", "ref:sisa_codigo": "10580422167034", "ref:sisa_tipologia": "ESCIG", "source": "sedronar.gov.ar | Public Domain (PD)", "wikidata": "Q94562172"}}, {"type": "way", "id": 193600675, "center": {"lat": -33.4610006, "lon": -70.6414639}, "nodes": [2041126399, 8378015670, 2041126405, 5683038603, 5683038604, 2041126401, 8378015667, 2041126399], "tags": {"addr:city": "Santiago", "addr:housenumber": "1234", "addr:street": "Avenida Santa Rosa", "alt_name": "Hospital San Borja Arriar\u00e1n", "amenity": "hospital", "emergency": "yes", "healthcare": "hospital", "name": "Hospital San Borja Arriar\u00e1n", "name:en": "San Borja Arriar\u00e1n Hospital", "official_name": "Hospital Cl\u00ednico San Borja Arriar\u00e1n", "old_name": "Hospital Paula Jaraquemada", "operator": "SSMC", "operator:type": "government", "phone": "+56 2 225749000", "short_name": "Hospital San Borja", "source": "Reconocimiento cartogr\u00e1fico por KG 2016", "wikidata": "Q16576127", "wikimedia_commons": "Category:Hospital Cl\u00ednico San Borja Arriar\u00e1n", "wikipedia": "es:Hospital Cl\u00ednico San Borja Arriar\u00e1n"}}, {"type": "way", "id": 193760181, "center": {"lat": -33.5523314, "lon": -70.6350899}, "nodes": [2042681869, 2042681880, 2042681854, 7478519369, 2042681882, 2042681859, 2042681849, 2042681867, 2042681857, 2042681879, 2042681869], "tags": {"addr:city": "San Ram\u00f3n", "addr:housenumber": "2150", "addr:street": "Esperanza", "amenity": "hospital", "emergency": "yes", "healthcare": "hospital", "healthcare:speciality": "general;emergency;internal;gynaecology;maternity;paediatrics;dialysis;community;surgery;intensive;cardiology;oncology;radiology;biology", "name": "Hospital Padre Hurtado", "operator": "Sistema de Salud Metropolitano Sur Oriente", "start_date": "1998", "website": "https://www.hph.cl/", "wheelchair": "yes", "wikidata": "Q18223554", "wikipedia": "es:Hospital Padre Hurtado"}}, {"type": "way", "id": 197537391, "center": {"lat": -37.2509594, "lon": -73.3184941}, "nodes": [2077611409, 2077611437, 9362636863, 9362636864, 2077611395, 2077611300, 2077611324, 2077611338, 2077611306, 2077611409], "tags": {"amenity": "hospital", "healthcare": "hospital", "name": "Hospital de Arauco"}}, {"type": "way", "id": 197579309, "center": {"lat": -38.2427813, "lon": -72.6716246}, "nodes": [2077964957, 2077964968, 2077964850, 2077964836, 2077964957], "tags": {"addr:city": "Traigu\u00e9n", "addr:housenumber": "751", "addr:street": "21 de Mayo", "amenity": "hospital", "name": "Hospital de Traigu\u00e9n"}}, {"type": "way", "id": 197800172, "center": {"lat": -33.4274125, "lon": -70.6481912}, "nodes": [2079931906, 10195739354, 10195739355, 8032341251, 8032341252, 2079931897, 2079931908, 2996716277, 2996716262, 2996716132, 2996716261, 2079931895, 4424173017, 2079931906], "tags": {"addr:housenumber": "464", "addr:street": "Avenida Recoleta", "amenity": "hospital", "emergency": "yes", "healthcare": "hospital", "name": "Cl\u00ednica D\u00e1vila", "website": "https://www.davila.cl/", "wikidata": "Q56599661", "wikimedia_commons": "Category:Cl\u00ednica D\u00e1vila"}}, {"type": "way", "id": 199523623, "center": {"lat": -39.4521241, "lon": -72.7684673}, "nodes": [2095089532, 6077162785, 2095089549, 2095089563, 2095089534, 2095089559, 2095089545, 2095089551, 2095089532], "tags": {"addr:city": "Lanco", "addr:housenumber": "595", "addr:street": "Santiago", "amenity": "hospital", "name": "Hospital de Lanco", "wikidata": "Q93743933"}}, {"type": "way", "id": 199840843, "center": {"lat": -33.5889861, "lon": -71.6093423}, "nodes": [2098443895, 2098443947, 7548050521, 7548050508, 7548050509, 7548050510, 7548050511, 7548050512, 7548050513, 7548050514, 2098443891, 7548050522, 2098443901, 2098443931, 9784180462, 7548050516, 7548050519, 7548050520, 2098443895], "tags": {"addr:city": "San Antonio", "addr:housenumber": "945", "addr:street": "Carmen Guerrero", "amenity": "hospital", "emergency": "yes", "healthcare": "hospital", "name": "Hospital Claudio Vicu\u00f1a", "operator": "Servicio de Salud Valpara\u00edso-San Antonio", "wheelchair": "yes", "wikidata": "Q6444833", "wikipedia": "es:Hospital Claudio Vicu\u00f1a"}}, {"type": "way", "id": 200088569, "center": {"lat": -33.5807667, "lon": -71.6082377}, "nodes": [2100744185, 2100744162, 2100744190, 2100744177, 2100744149, 2100744176, 2100744185], "tags": {"amenity": "hospital", "healthcare": "hospital", "name": "Cl\u00ednica San Antonio", "wikidata": "Q93742237"}}, {"type": "way", "id": 201664909, "center": {"lat": -31.6345989, "lon": -71.1737142}, "nodes": [2116884312, 2116884342, 2116884320, 2116884313, 2116884312], "tags": {"amenity": "hospital", "name": "Hospital Illapel"}}, {"type": "way", "id": 204831143, "center": {"lat": -38.9309238, "lon": -72.0375628}, "nodes": [2148052312, 2148052362, 2148052506, 2148052326, 2148052324, 2148052263, 2148052312], "tags": {"addr:city": "Cunco", "addr:housenumber": "31", "addr:street": "Avenida Santa Mar\u00eda", "amenity": "hospital", "name": "Hospital de Cunco"}}, {"type": "way", "id": 205217933, "center": {"lat": -36.7392431, "lon": -72.2962859}, "nodes": [2151921911, 2151921914, 2151921913, 2151921912, 2151921911], "tags": {"addr:city": "Bulnes", "addr:street": "Jos\u00e9 Miguel Balmaceda", "amenity": "hospital", "emergency": "yes", "healthcare": "hospital", "name": "Hospital de Bulnes", "nohousenumber": "yes"}}, {"type": "way", "id": 207655788, "center": {"lat": -33.052024, "lon": -71.4339538}, "nodes": [5551655256, 5551655253, 5551655254, 5551655252, 5551655251, 6445625719, 6445625720, 5551655257, 5551655258, 5551655255, 5551655256], "tags": {"addr:city": "Quilpu\u00e9", "addr:country": "CL", "addr:housenumber": "1270", "addr:street": "San Mart\u00edn", "amenity": "hospital", "emergency": "yes", "healthcare": "hospital", "name": "Hospital de Quilpu\u00e9"}}, {"type": "way", "id": 207694367, "center": {"lat": -33.6676822, "lon": -70.9198808}, "nodes": [2179458494, 7673158502, 10964534259, 2179458492, 7673158507, 2179458491, 2179458493, 2179458494], "tags": {"amenity": "hospital", "emergency": "yes", "healthcare": "hospital", "name": "Hospital de Talagante"}}, {"type": "way", "id": 222403435, "center": {"lat": -33.584746, "lon": -70.6747495}, "nodes": [2313724248, 2313724247, 2313724249, 2313724251, 2313724248], "tags": {"addr:city": "San Bernardo", "addr:housenumber": "13560", "addr:street": "Avenida Padre Hurtado", "amenity": "hospital", "emergency": "yes", "healthcare": "hospital", "name": "Hospital El Pino", "wikidata": "Q38015960", "wikipedia": "es:Hospital El Pino"}}, {"type": "way", "id": 223990111, "center": {"lat": -36.8248986, "lon": -73.0363441}, "nodes": [2328249037, 2328248991, 2328248966, 1751453670, 1751453640, 1751453672, 2328249037], "tags": {"addr:housenumber": "1582", "addr:street": "Roosevelt", "amenity": "hospital", "healthcare": "hospital", "name": "SAMU"}}, {"type": "way", "id": 225237053, "center": {"lat": -34.9898278, "lon": -71.2360671}, "nodes": [2340457603, 2340457601, 4229187754, 2340457600, 2340457602, 2340457603], "tags": {"amenity": "hospital", "name": "Hospital San Jos\u00e9 de Dios de Curic\u00f3"}}, {"type": "way", "id": 232168181, "center": {"lat": -33.4373595, "lon": -70.6240326}, "nodes": [6558950800, 6558950801, 8307469996, 6558950808, 6558950807, 7546539347, 7546539346, 8307678373, 8307678374, 4449467000, 8304511690, 8304511696, 8304511688, 6558926764, 8304511694, 8304511695, 8304511693, 8304511698, 8304511697, 8304511699, 7546539344, 5862551591, 5862551590, 7546539342, 5862551662, 8301562453, 9856221856, 7782922651, 8304510387, 5612316804, 7647707064, 5612316782, 8304510373, 5627820376, 8304510405, 5627820393, 8304510414, 5612316807, 8296793713, 8301562452, 5612316809, 8301562432, 2702815898, 5741781357, 8301562441, 8286659388, 8301562440, 5742168256, 7546539351, 7546539352, 8307469973, 8307469972, 6558926767, 6558926768, 6558950800], "tags": {"addr:city": "Providencia", "addr:housenumber": "364", "addr:street": "Avenida Salvador", "amenity": "hospital", "emergency": "yes", "healthcare": "hospital", "healthcare:speciality": "general;emergency;surgery;intensive;gynaecology;internal;psychiatry;dentistry;ophthalmology;cardiology;dermatology;physiatry;maternity", "loc_name": "Hospital Salvador", "name": "Hospital del Salvador", "start_date": "1871-12-07", "website": "https://www.hsalvador.cl", "wikidata": "Q5903189", "wikimedia_commons": "Category:Hospital del Salvador, Santiago de Chile", "wikipedia": "es:Hospital del Salvador (Santiago de Chile)"}}, {"type": "way", "id": 234509765, "center": {"lat": -33.3792483, "lon": -70.5827187}, "nodes": [2427533578, 2427533579, 2427533577, 2427533574, 2427533578], "tags": {"addr:city": "Vitacura", "addr:housenumber": "5950", "addr:street": "Avenida Santa Mar\u00eda", "amenity": "hospital", "building": "yes", "emergency": "yes", "name": "Cl\u00ednica Lo Curro"}}, {"type": "way", "id": 234619660, "center": {"lat": -33.04886, "lon": -71.4365141}, "nodes": [2428396424, 9202947971, 2428396423, 2428396419, 6814763820, 4876851985, 2428396426, 2428396425, 2428396418, 2428396427, 6814763823, 2428396424], "tags": {"amenity": "hospital", "emergency": "yes", "healthcare": "hospital", "name": "Cl\u00ednica Los Carrera", "wikidata": "Q93742284"}}, {"type": "way", "id": 242111217, "center": {"lat": -33.4072527, "lon": -70.5031993}, "nodes": [2496623371, 5481192692, 5577399718, 5481192693, 5481192695, 2496623366, 2496623363, 2496623361, 5980088171, 2496623367, 2496623372, 2496623358, 2496623360, 5481192691, 2496623357, 11175532566, 2496623365, 6533109536, 7765045555, 7169783689, 2496623371], "tags": {"amenity": "hospital", "healthcare": "hospital", "name": "Cl\u00ednica Universidad de los Andes"}}, {"type": "way", "id": 245861178, "center": {"lat": -32.7922529, "lon": -71.2048413}, "nodes": [2529667270, 2529667271, 2529667272, 2529667273, 2529667270], "tags": {"addr:city": "La Calera", "addr:housename": "Carrera 1603", "addr:housenumber": "1603", "addr:street": "Carrera", "amenity": "hospital", "emergency": "yes", "name": "Hospital Doctor Mario S\u00e1nchez Vergara", "website": "https://www.ssvq.cl/htm/hospitals/hcal.htm", "wheelchair": "yes", "wikidata": "Q93742267"}}, {"type": "way", "id": 251075037, "center": {"lat": -38.7360009, "lon": -72.5989454}, "nodes": [2573647581, 2573647580, 2573647561, 2573647560, 2573647542, 2573647547, 2573647581], "tags": {"addr:city": "Temuco", "addr:country": "CL", "addr:district": "Temuco", "addr:housenumber": "115", "addr:state": "Regi\u00f3n de La Araucan\u00eda", "addr:street": "Manuel Montt", "amenity": "hospital", "healthcare": "hospital", "name": "Hospital Doctor Hern\u00e1n Henr\u00edquez Aravena", "toilets:wheelchair": "yes", "wheelchair": "yes", "wikidata": "Q16576015"}}, {"type": "way", "id": 251275081, "center": {"lat": -33.4647018, "lon": -70.5894883}, "nodes": [2575198318, 2575198343, 2575198385, 2575198379, 2575198318], "tags": {"addr:city": "\u00d1u\u00f1oa", "addr:housenumber": "4000", "addr:street": "Avenida Grecia", "amenity": "hospital", "building": "yes", "emergency": "no", "healthcare": "hospital", "name": "Centro Asistencial \u00d1u\u00f1oa", "operator": "SSMO", "operator:type": "public", "source": "Bing"}}, {"type": "way", "id": 255796613, "center": {"lat": -33.4576668, "lon": -70.7025239}, "nodes": [2614850027, 2614850029, 2614850031, 1956795706, 2614850020, 2614850022, 2614850025, 2614850023, 2614850026, 2614850030, 2614850027], "tags": {"addr:city": "Estaci\u00f3n Central", "addr:housename": "Cl\u00ednica Hospital del Profesor", "addr:housenumber": "4860", "addr:street": "Avenida Libertador Bernardo O'Higgins", "amenity": "hospital", "emergency": "yes", "healthcare": "hospital", "name": "Cl\u00ednica Hospital del Profesor", "phone": "(2)22996000", "wheelchair": "yes"}}, {"type": "way", "id": 256302004, "center": {"lat": -32.9887721, "lon": -71.2779381}, "nodes": [2619709037, 2618685463, 2618685461, 5278613959, 5278613962, 2658743728, 2619709037], "tags": {"addr:city": "Limache", "addr:housenumber": "198", "addr:street": "Caupolic\u00e1n", "amenity": "hospital", "healthcare": "hospital", "name": "Hospital Geri\u00e1trico La Paz de la Tarde", "wikidata": "Q89412592", "wikipedia": "es:Hospital Geri\u00e1trico La Paz de la Tarde"}}, {"type": "way", "id": 257632279, "center": {"lat": -35.5907088, "lon": -71.7375802}, "nodes": [2631215654, 5854680670, 5854680669, 2631215657, 2631215654], "tags": {"addr:city": "San Javier", "addr:housenumber": "1131", "addr:street": "Riquelme", "amenity": "hospital", "name": "Hospital Doctor Abel Fuentealba Lagos", "wikidata": "Q93743564"}}, {"type": "way", "id": 262147750, "center": {"lat": -33.4377243, "lon": -70.7480196}, "nodes": [2614850054, 2678007749, 2614850047, 2678007752, 2614850054], "tags": {"addr:city": "Pudahuel", "addr:housenumber": "8545", "addr:street": "El Lazo", "amenity": "hospital", "healthcare": "hospital", "name": "Fundaci\u00f3n Gantz -Hospital de Ni\u00f1os con Fisuras", "phone": "+56 9 2 23386400", "source": "https://gantz.cl/", "website": "https://gantz.cl/", "wikidata": "Q93742593"}}, {"type": "way", "id": 264669448, "center": {"lat": -36.8002828, "lon": -73.0713979}, "nodes": [7679624982, 9813440010, 1475253454, 1257013111, 9813440013, 9813440014, 7679624970, 1257013085, 1257013213, 9813440011, 1257013076, 7679624972, 7679624977, 7679624978, 7679624979, 1257013066, 1257013062, 7679624976, 7679624975, 7679624974, 1257013209, 7679624973, 7679624980, 7679624981, 1257013205, 1257013195, 7679624971, 1257013082, 7679624982], "tags": {"addr:city": "Hualp\u00e9n", "addr:housenumber": "2047", "addr:street": "Avenida Jorge Alessandri", "amenity": "hospital", "emergency": "yes", "healthcare": "hospital", "name": "Cl\u00ednica Andes Salud Concepci\u00f3n", "website": "https://www.andessaludconcepcion.cl"}}, {"type": "way", "id": 307633936, "center": {"lat": -33.4298348, "lon": -70.6146222}, "nodes": [577332214, 8301324748, 8301324751, 3128340434, 8300930612, 3128340435, 8300930614, 3128321456, 8300930613, 5597130752, 5910046758, 5597130753, 3097671649, 3097671650, 8301072279, 3097671652, 3128321455, 8301303810, 8301324734, 8301303816, 8300930608, 1742363793, 1742363790, 8300930610, 3128321448, 8301303804, 8301072278, 8300948880, 3049576159, 8300948879, 8301298742, 8301427512, 8301303797, 8301303796, 8301303793, 8301303789, 3049517007, 8301303782, 3128321451, 577332214], "tags": {"addr:city": "Providencia", "addr:housenumber": "360", "addr:street": "Avenida Antonio Varas", "amenity": "hospital", "email": "oirs@calvomackenna.cl", "emergency": "yes", "healthcare": "hospital", "healthcare:speciality": "paediatrics", "loc_name": "Hospital Calvo Mackenna", "name": "Hospital de Ni\u00f1os Calvo Mackenna", "name:en": "Calvo Mackenna Children Hospital", "official_name": "Hospital de Ni\u00f1os Doctor Luis Calvo Mackenna", "phone": "+56 2 2575 5800", "start_date": "1942", "website": "https://calvomackenna.cl/", "wheelchair": "yes", "wikidata": "Q2842141", "wikimedia_commons": "Category:Hospital Dr. Luis Calvo Mackenna", "wikipedia": "es:Hospital Dr. Luis Calvo Mackenna"}}, {"type": "way", "id": 310010080, "center": {"lat": -35.4245005, "lon": -71.6712201}, "nodes": [3153661810, 3153661811, 3153661812, 3153661813, 3153661810], "tags": {"amenity": "hospital", "name": "Inmunom\u00e9dica"}}, {"type": "way", "id": 310246566, "center": {"lat": -35.4234447, "lon": -71.6532351}, "nodes": [3156435439, 3156435440, 3156435441, 3156435442, 3156435443, 3156435444, 3156435459, 3156435445, 3156435446, 3156435447, 3156435449, 3156435439], "tags": {"amenity": "hospital", "name": "Cl\u00ednica del Maule"}}, {"type": "way", "id": 317687409, "center": {"lat": -37.4410194, "lon": -70.645803}, "nodes": [1100747924, 8259873290, 8259873292, 3239752174, 8259873291, 8259873289, 8259873288, 8259873294, 3239752175, 8259873293, 8259873287, 1100747907, 1100747924], "tags": {"addr:city": "El Cholar", "addr:full": "Avenida G\u00fcemes S/N", "addr:place": "\u00d1orquin", "addr:postcode": "Q8353", "amenity": "hospital", "description": "Bajo riesgo con internaci\u00f3n simple", "healthcare": "hospital", "name": "Hospital Provincial El Cholar", "operator": "Ministerio de Salud - Gobierno de la Provincia de Neuqu\u00e9n", "operator:type": "public", "ref:sisa_codigo": "10580842167016", "ref:sisa_tipologia": "ESCIG", "source": "sedronar.gov.ar | Public Domain (PD)"}}, {"type": "way", "id": 319091039, "center": {"lat": -33.4255306, "lon": -70.5503935}, "nodes": [3255075171, 3255075162, 7601764995, 3255075161, 9856169243, 7601764994, 3255075171], "tags": {"amenity": "hospital", "name": "Cl\u00ednica Cordillera"}}, {"type": "way", "id": 332224077, "center": {"lat": -33.0453064, "lon": -71.6111178}, "nodes": [3393341088, 3393341089, 6820565903, 6820565901, 3393341562, 4415625972, 6579161350, 6820565902, 6820565897, 3393341088], "tags": {"addr:city": "Valpara\u00edso", "addr:country": "CL", "addr:housenumber": "2350", "addr:street": "Avenida Brasil", "amenity": "hospital", "healthcare": "hospital", "name": "Cl\u00ednica Valpara\u00edso", "phone": "+56 32 381 8100", "wikidata": "Q93742241"}}, {"type": "way", "id": 332925921, "center": {"lat": -34.3593953, "lon": -71.2832442}, "nodes": [3400484144, 4137540994, 3347134597, 4257155670, 4257155666, 4257155688, 4257155685, 4257155665, 4257155664, 6893964856, 4257155663, 4257155657, 4257155658, 4257155662, 4257155671, 4257155675, 4257155596, 3347134798, 10650914814, 3400484144], "tags": {"addr:city": "Pichidegua", "addr:housenumber": "160", "addr:postcode": "2980000", "addr:street": "O'Higgins", "amenity": "hospital", "healthcare": "hospital", "name": "Hospital Comunitario Pichidegua", "operator": "Ministerio de Salud", "operator:type": "public", "phone": "(72) 233 7000", "wikidata": "Q93743321"}}, {"type": "way", "id": 333200524, "center": {"lat": -38.7330314, "lon": -72.6187405}, "nodes": [3403146121, 3403146122, 3403146123, 3403146124, 3403146121], "tags": {"addr:city": "Temuco", "addr:country": "CL", "addr:district": "Temuco", "addr:housenumber": "558", "addr:street": "Porvenir", "amenity": "hospital", "ele": "4", "name": "Cl\u00ednica Integrada de Salud Univeridad Aut\u00f3noma", "operator": "Universidad Aut\u00f3noma", "toilets:wheelchair": "no", "wheelchair": "limited"}}, {"type": "way", "id": 389213110, "center": {"lat": -32.9946871, "lon": -71.5206309}, "nodes": [3923671301, 3923671302, 3923671303, 3923671304, 3923671305, 3923671306, 3923671307, 3923671308, 3923671309, 3923671310, 3923671311, 3923671312, 3923671313, 3923671314, 3923671326, 3923671315, 3923671316, 3923671317, 3923671318, 3923671319, 3923671320, 3923671321, 3923671322, 3923671323, 3923671324, 3923671325, 3923671301], "tags": {"amenity": "hospital", "building": "hospital", "healthcare": "hospital", "name": "Hospital Sanatorio Mar\u00edtimo San Juan de Dios", "wikidata": "Q5902903"}}, {"type": "way", "id": 389909377, "center": {"lat": -36.1417311, "lon": -71.813737}, "nodes": [3930696967, 3930696957, 3930696655, 3930696964, 3930696960, 3930696967], "tags": {"addr:city": "Parral", "addr:country": "CL", "addr:district": "Parral", "addr:housenumber": "1255", "addr:state": "Regi\u00f3n del Maule", "addr:street": "Avenida An\u00edbal Pinto", "amenity": "hospital", "name": "Hospital San Jos\u00e9 de Parral"}}, {"type": "way", "id": 404789962, "center": {"lat": -33.4238591, "lon": -70.7413918}, "nodes": [4070458075, 8368153340, 8368153339, 8368153343, 4070458076, 4070458077, 4070458078, 7443378462, 7447459302, 7442958011, 7442958012, 4070478338, 4070458075], "tags": {"addr:city": "Cerro Navia", "addr:housenumber": "7432", "addr:street": "Mapocho", "amenity": "hospital", "emergency": "yes", "healthcare": "hospital", "healthcare:speciality": "general;paediatrics;psychiatry;emergency;gynaecology;surgery;intensive;oncology", "name": "Hospital Cl\u00ednico F\u00e9lix Bulnes", "wikidata": "Q24934070", "wikipedia": "es:Hospital Cl\u00ednico F\u00e9lix Bulnes"}}, {"type": "way", "id": 407723201, "center": {"lat": -39.9484656, "lon": -71.0767431}, "nodes": [4097566433, 4097566434, 11057516178, 11057516173, 11063734062, 11057516172, 4097566447, 4097566446, 4097566433], "tags": {"addr:city": "Jun\u00edn de los andes", "addr:full": "Ant\u00e1rtida Argentina 150", "addr:place": "Huiliches", "addr:postcode": "8371", "addr:street": "Avenida Ant\u00e1rtida Argentina", "amenity": "hospital", "description": "Bajo riesgo con internaci\u00f3n simple", "emergency": "yes", "healthcare": "hospital", "name": "Hospital de \u00c1rea Jun\u00edn delos Andes", "operator:type": "public", "ref:sisa_codigo": "10580492167018", "ref:sisa_tipologia": "ESCIESM", "source": "sedronar.gov.ar | Public Domain (PD)"}}, {"type": "way", "id": 413771180, "center": {"lat": -33.5142061, "lon": -70.5986865}, "nodes": [4150272850, 4150272851, 4150272852, 4150272853, 4150272854, 4150272855, 4150272856, 4150272857, 4150272858, 4150272859, 4150272860, 4150272850], "tags": {"addr:city": "La Florida", "addr:housenumber": "6542", "addr:street": "Froil\u00e1n Roa", "amenity": "hospital", "emergency": "yes", "healthcare": "hospital", "name": "Hospital Cl\u00ednico Metropolitano de La Florida Doctora Elo\u00edsa D\u00edaz Insunza", "phone": "+56 22612 1600", "source": "Reconocimiento cartogr\u00e1fico 2016 por KG.", "website": "https://www.hospitallaflorida.cl/", "wheelchair": "yes"}}, {"type": "way", "id": 423240596, "center": {"lat": -34.9898146, "lon": -71.2357443}, "nodes": [4229187775, 4229187749, 4229187754, 4229187780, 8759881175, 4229187756, 4229187768, 8759881174, 4229187774, 4229187781, 4229187740, 4229187788, 4229187775], "tags": {"addr:city": "Curic\u00f3", "addr:street": "Chacabuco", "amenity": "hospital", "building": "hospital", "building:levels": "4", "emergency": "yes", "name": "Hospital de emergencia", "source": "Kaart Ground Survey 2018"}}, {"type": "way", "id": 430630569, "center": {"lat": -33.0098265, "lon": -71.549624}, "nodes": [257665316, 4298947143, 4298947144, 4298947112, 257665316], "tags": {"amenity": "hospital", "building": "yes", "healthcare": "hospital", "name": "Cl\u00ednica Ciudad del Mar"}}, {"type": "way", "id": 442002584, "center": {"lat": -33.0569321, "lon": -71.5895172}, "nodes": [4396971260, 4396971261, 7461233011, 7461233008, 7761202748, 7461233010, 4396971264, 4396971265, 4396971266, 4396971267, 7756328108, 4396971268, 4396971260], "tags": {"amenity": "hospital", "healthcare": "hospital", "name": "Hospital Doctor Eduardo Pereira"}}, {"type": "way", "id": 446168146, "center": {"lat": -33.416296, "lon": -70.6538728}, "nodes": [7580445545, 7764258863, 7580445544, 7764258862, 7764258864, 7764330761, 7764419498, 7764419499, 7764258865, 7764258866, 7580445542, 7764258867, 7764006818, 7764006819, 7764006820, 7764006814, 7764258868, 7764258869, 7764006815, 7764006816, 7764006817, 4434900493, 7764006822, 7764006821, 7764258855, 4434900494, 7764419500, 4434900495, 4434900496, 7764286110, 5572322474, 7764258854, 7764258853, 7764258852, 7764006830, 7764286114, 7764286112, 7764286111, 5572322475, 7764286113, 7764006829, 5572322476, 5572322477, 7764258861, 7764258860, 7764006828, 7764258859, 7764258857, 7764258858, 7764006827, 7764006826, 7764258856, 7764330760, 7764006825, 7580445546, 7580445545], "tags": {"addr:housenumber": "1196", "addr:street": "San Jos\u00e9", "amenity": "hospital", "emergency": "yes", "healthcare": "hospital", "name": "Hospital San Jos\u00e9", "source": "Reconocimiento cartogr\u00e1fico de campo 2016 por KG", "wikidata": "Q26718341", "wikimedia_commons": "Category:Hospital San Jos\u00e9, Santiago de Chile", "wikipedia": "es:Hospital San Jos\u00e9 (Santiago de Chile)"}}, {"type": "way", "id": 448425063, "center": {"lat": -36.6011584, "lon": -72.0908333}, "nodes": [4454337075, 7691128592, 4454337076, 4454337077, 4454337078, 4454337079, 4454337080, 4454337081, 4454337082, 4454337083, 4454337084, 4454350688, 4454350681, 7691128591, 4454337086, 4454337087, 4454337075], "tags": {"addr:city": "Chill\u00e1n", "addr:country": "CL", "addr:full": "Avenida Vicente Mendez 75, Chillan, Chile", "addr:housenumber": "75", "addr:state": "Regi\u00f3n de \u00d1uble", "addr:street": "Avenida Vicente M\u00e9ndez", "amenity": "hospital", "name": "Cl\u00ednica Las Amapolas", "phone": "+5642431900", "wikidata": "Q93743602"}}, {"type": "way", "id": 463462169, "center": {"lat": -39.1768397, "lon": -73.1643269}, "nodes": [4587214289, 4587214299, 4587214298, 4587213487, 4587214289], "tags": {"amenity": "hospital", "name": "Hospital de Tolt\u00e9n", "wikidata": "Q93743894"}}, {"type": "way", "id": 469810267, "center": {"lat": -37.027959, "lon": -73.1416661}, "nodes": [4641071987, 1558037213, 1558037446, 1558037393, 6856119044, 4641071988, 4641072989, 4641072990, 4641071987], "tags": {"addr:city": "Coronel", "addr:housenumber": "401", "addr:street": "Lautaro", "amenity": "hospital", "emergency": "yes", "healthcare": "hospital", "healthcare:speciality": "applied_kinesiology;radiology;occupational;emergency", "internet_access": "yes", "name": "Mutual de seguridad: CCHC", "operator": "Mutual de seguridad", "operator:type": "private", "phone": "+56 41 2 71 14 72", "website": "https://www.mutual.cl/", "wheelchair": "yes"}}, {"type": "way", "id": 486183584, "center": {"lat": -33.0216598, "lon": -71.6426098}, "nodes": [4788722367, 7760666745, 7089430243, 7760666746, 4788722369, 4788722370, 4018807231, 7760666747, 4018807217, 4788722371, 7760666748, 4788722372, 7760666749, 7760666751, 7760666750, 4788722373, 4788722374, 7760666744, 4788722375, 4788722376, 4788722377, 4788722378, 4788722379, 4788722380, 4788722381, 4788722382, 4788722367], "tags": {"addr:city": "Valpara\u00edso", "addr:country": "CL", "addr:housenumber": "200", "addr:street": "Leopoldo Carvallo", "amenity": "hospital", "healthcare": "hospital", "name": "Hospital Psiqui\u00e1trico del Salvador", "wikidata": "Q5902824", "wikipedia": "es:Hospital Psiqui\u00e1trico del Salvador"}}, {"type": "way", "id": 506812216, "center": {"lat": -30.0294964, "lon": -70.7124004}, "nodes": [4964670780, 4964670781, 8487614735, 4964670782, 4964670784, 4964670780], "tags": {"addr:city": "Vicu\u00f1a", "addr:street": "Calle Ignacio Carrera Pinto", "amenity": "hospital", "name": "Hospital San Juan de Dios", "nohousenumber": "yes", "wikidata": "Q93742002"}}, {"type": "way", "id": 507025362, "center": {"lat": -33.3190513, "lon": -71.4080821}, "nodes": [4966189511, 7642406757, 7642406755, 4966189512, 7642406756, 4966189513, 4966189514, 7642406758, 4966189511], "tags": {"addr:city": "Casablanca", "addr:housenumber": "124", "addr:street": "Yungay", "amenity": "hospital", "name": "Hospital San Jos\u00e9 Casablanca", "wikidata": "Q93742232"}}, {"type": "way", "id": 507028517, "center": {"lat": -33.0282021, "lon": -71.5421467}, "nodes": [11154540321, 481384351, 11154540322, 4966217244, 4966217245, 11154540321], "tags": {"addr:city": "Vi\u00f1a del Mar", "addr:country": "CL", "addr:housenumber": "1667", "addr:street": "Limache", "amenity": "hospital", "healthcare": "hospital", "healthcare:speciality": "paediatrics", "name": "Hospital Ni\u00f1os y Cunas", "wikidata": "Q5903048", "wikipedia": "es:Hospital de Ni\u00f1os y Cunas"}}, {"type": "way", "id": 507032336, "center": {"lat": -32.4284038, "lon": -71.0678652}, "nodes": [4966247875, 4966247876, 4966247877, 4966247878, 8973109696, 8973109697, 4966247875], "tags": {"addr:city": "Cabildo", "addr:street": "Zoila Gac", "amenity": "hospital", "healthcare": "hospital", "name": "Hospital Doctor V\u00edctor Hugo Moll (Cabildo)", "nohousenumber": "yes"}}, {"type": "way", "id": 507032873, "center": {"lat": -32.2520322, "lon": -70.9287959}, "nodes": [4966257312, 4966257313, 4966257314, 4966257315, 4966257312], "tags": {"addr:city": "Petorca", "addr:housenumber": "860", "addr:street": "Manuel Montt", "amenity": "hospital", "healthcare": "hospital", "name": "Hospital de Petorca", "surface": "paved", "wikidata": "Q93742273"}}, {"type": "way", "id": 507074448, "center": {"lat": -32.8427296, "lon": -70.9548072}, "nodes": [6157666135, 6157666129, 6157666133, 6157670205, 6157670206, 4966666279, 6157666135], "tags": {"addr:city": "Llay Llay", "addr:housenumber": "76", "addr:street": "San Francisco", "amenity": "hospital", "healthcare": "hospital", "name": "Hospital San Francisco  de Llay Llay"}}, {"type": "way", "id": 507332875, "center": {"lat": -34.26828, "lon": -70.9536386}, "nodes": [5073707672, 9831716645, 9831716643, 9831716644, 9831716658, 4968575786, 4968575787, 9831716672, 9831716677, 4968575788, 5073707672], "tags": {"addr:city": "Coinco", "addr:housenumber": "157", "addr:street": "Fernando D\u00edaz Mu\u00f1oz", "amenity": "hospital", "healthcare": "hospital", "name": "Hospital de Co\u00ednco", "wikidata": "Q93743313"}}, {"type": "way", "id": 507402501, "center": {"lat": -34.3890383, "lon": -71.1734818}, "nodes": [4969160865, 4969160866, 4969160867, 4969160868, 4969160865], "tags": {"addr:city": "Peumo", "addr:housenumber": "20", "addr:street": "Calle San Juan de Dios", "amenity": "hospital", "name": "Hospital del Salvador", "wikidata": "Q93743314"}}, {"type": "way", "id": 508497247, "center": {"lat": -34.1156345, "lon": -71.7291301}, "nodes": [4977980144, 4977980145, 4977980146, 4977980147, 4977980144], "tags": {"addr:city": "Litueche", "addr:housenumber": "728", "addr:street": "Cardenal Caro", "amenity": "hospital", "name": "Hospital de Litueche"}}, {"type": "way", "id": 508498387, "center": {"lat": -34.3990037, "lon": -71.6166581}, "nodes": [4977987077, 4977987078, 4977987079, 4977987080, 4977987077], "tags": {"addr:city": "Marchig\u00fce", "addr:housenumber": "410", "addr:street": "Cornejo", "amenity": "hospital", "healthcare": "hospital", "name": "Hospital de Marchig\u00fce", "wikidata": "Q93743324"}}, {"type": "way", "id": 508757779, "center": {"lat": -34.976402, "lon": -71.8057087}, "nodes": [4980058138, 10603353114, 4980058139, 4980058140, 4980058141, 4980058138], "tags": {"addr:city": "Huala\u00f1\u00e9", "addr:street": "Avenida Libertad", "amenity": "hospital", "emergency": "yes", "healthcare": "hospital", "name": "Hospital de Huala\u00f1\u00e9", "nohousenumber": "yes", "wikidata": "Q93743554"}}, {"type": "way", "id": 508775355, "center": {"lat": -36.8247958, "lon": -72.6595138}, "nodes": [4980224668, 4980224669, 4980224670, 4980224671, 4980224668], "tags": {"addr:city": "Florida", "addr:housenumber": "767", "addr:street": "Ignacio Serrano", "amenity": "hospital", "name": "Hospital de Florida"}}, {"type": "way", "id": 508776163, "center": {"lat": -37.0901857, "lon": -73.1556111}, "nodes": [4980237483, 4980237484, 4980237485, 4980237486, 4980237483], "tags": {"addr:city": "Lota", "addr:housenumber": "702", "addr:street": "Carrera", "amenity": "hospital", "emergency": "yes", "healthcare": "hospital", "name": "Hospital de Lota", "operator": "Subsecretar\u00eda de Salud", "operator:type": "public", "website": "http://www.hospitaldelota.cl/", "wheelchair": "yes", "wikidata": "Q93743619"}}, {"type": "way", "id": 510280609, "center": {"lat": -37.1685245, "lon": -72.9461232}, "nodes": [4993199502, 4993199503, 4993199504, 4993199505, 4993199502], "tags": {"addr:city": "Santa Juana", "addr:housenumber": "S/n", "addr:street": "Lautaro", "amenity": "hospital", "name": "Hospital Clorinda Avello", "wikidata": "Q93743620"}}, {"type": "way", "id": 523124527, "center": {"lat": -38.7675128, "lon": -72.6166423}, "nodes": [5093498534, 5093498533, 8455658056, 5093498532, 5093498531, 5093498534], "tags": {"amenity": "hospital", "name": "Hospital Padre las Casas", "wikidata": "Q89677609"}}, {"type": "way", "id": 526887902, "center": {"lat": -33.6259593, "lon": -70.7824004}, "nodes": [5122887673, 5122887674, 11036315304, 904781575, 5122887675, 5122887673], "tags": {"addr:city": "Calera de Tango", "addr:housenumber": "Paradero 13", "addr:street": "Avenida Calera de Tango", "amenity": "hospital", "healthcare": "hospital", "healthcare:speciality": "general", "name": "CESFAM Los Bajos de San Agust\u00edn", "opening_hours:covid19": "24/7"}}, {"type": "way", "id": 544814401, "center": {"lat": -33.4211292, "lon": -70.6183664}, "nodes": [7760096377, 7760096374, 9638303975, 5266112351, 9638303974, 7760096373, 7760096365, 7760096366, 7760096362, 7760096361, 7760096372, 5266112353, 5266112354, 7760096380, 7760096363, 7760096377], "tags": {"addr:housenumber": "1810", "addr:street": "Avenida Santa Mar\u00eda", "alt_name": "Indisa Clinica De Familia", "amenity": "hospital", "healthcare": "hospital", "name": "Cl\u00ednica Indisa", "operator": "Cl\u00ednica Indisa"}}, {"type": "way", "id": 550543836, "center": {"lat": -36.6133207, "lon": -72.9546036}, "nodes": [5317568209, 5317568210, 5317568211, 5317568212, 5317568213, 5317568209], "tags": {"amenity": "hospital", "healthcare": "hospital", "name": "Hospital de Tom\u00e9", "wheelchair": "yes", "wikidata": "Q93743644"}}, {"type": "way", "id": 555726710, "center": {"lat": -33.8049081, "lon": -70.7411108}, "nodes": [5361080413, 5361080409, 5361080410, 5361080405, 5361080412, 5361080407, 5361080413], "tags": {"addr:city": "Paine", "addr:housenumber": "214", "addr:street": "Avenida General Baquedano", "amenity": "hospital", "building:levels": "2", "emergency": "yes", "healthcare": "hospital", "name": "Centro de Salud Familiar Dr. Miguel Solar", "operator": "municipalidad de paine", "operator:type": "public"}}, {"type": "way", "id": 556866630, "center": {"lat": -32.7900666, "lon": -71.18353}, "nodes": [5371330350, 7517128804, 5371330351, 5371330352, 5371330353, 5371330350], "tags": {"addr:city": "La Calera", "addr:housenumber": "98", "addr:street": "Avenida Almirante Latorre", "amenity": "hospital", "healthcare": "clinic"}}, {"type": "way", "id": 563529534, "center": {"lat": -35.4287949, "lon": -71.6551488}, "nodes": [5430594244, 5430594243, 5430594242, 7693762386, 7693762385, 7693750284, 7693762387, 7693762388, 5430594241, 5430594240, 5430594239, 7693762389, 1239318035, 5430594244], "tags": {"addr:city": "Talca", "addr:housenumber": "1525", "addr:street": "Calle 2 Sur", "amenity": "hospital", "building": "yes", "email": "contacto@clinica.ucm.cl", "emergency": "no", "healthcare": "hospital", "healthcare:speciality": "general;paediatrics;orthopaedics;cardiology;gynaecology;dermatology;physiatry;internal;radiology;community;oncology;surgery;maternity", "name": "Cl\u00ednica Universidad Catolica de Maule", "operator": "Universidad Cat\u00f3lica del Maule", "phone": "+56712635600", "source": "Kaart Ground Survey 2018", "website": "https://clinicaucm.cl/", "wheelchair": "yes"}}, {"type": "way", "id": 565048176, "center": {"lat": -32.6221245, "lon": -70.7177728}, "nodes": [5442877209, 5442883032, 5442883033, 5340829619, 5340829620, 5442883049, 5340831996, 5340831999, 5442877209], "tags": {"addr:city": "Putaendo", "addr:housenumber": "186", "addr:street": "Alessandri", "amenity": "hospital", "emergency": "yes", "healthcare": "hospital", "name": "Hospital San Antonio de Putaendo"}}, {"type": "way", "id": 566811235, "center": {"lat": -34.1866691, "lon": -70.7231697}, "nodes": [5457772253, 5457772302, 5457772255, 7548835403, 7548835402, 7548835404, 7548835405, 7548835408, 7548835407, 7548835406, 7548835409, 5457772225, 5457772253], "tags": {"amenity": "hospital", "building": "yes", "name": "Torre M\u00e9dica"}}, {"type": "way", "id": 590569419, "center": {"lat": -37.5073258, "lon": -72.6767868}, "nodes": [5739892544, 5638202816, 5638203323, 5638203322, 5638203328, 8296989707, 5739892527, 7891554643, 7891554642, 5739892544], "tags": {"addr:city": "Nacimiento", "addr:country": "CL", "addr:housenumber": "711", "addr:postcode": "4550000", "addr:street": "Avenida Julio Hemmelmann", "amenity": "hospital", "emergency": "yes", "healthcare": "hospital", "name": "Hospital Comunitario y Familiar de Nacimiento", "wikidata": "Q93743873"}}, {"type": "way", "id": 590598721, "center": {"lat": -33.5106208, "lon": -70.5976373}, "nodes": [5638510343, 8254986272, 8254986273, 5638510350, 5638510336, 8254986259, 8254986270, 8254986271, 5638510334, 5638510343], "tags": {"addr:city": "La Florida", "addr:housenumber": "1455", "addr:street": "Avenida Departamental", "amenity": "hospital", "emergency": "yes", "healthcare": "hospital", "name": "Cl\u00ednica Bupa Santiago", "website": "https://www.clinicabupasantiago.cl/", "wheelchair": "yes", "wikidata": "Q93744830"}}, {"type": "way", "id": 591636172, "center": {"lat": -34.979163, "lon": -71.2125179}, "nodes": [4099946012, 4099946011, 4099946014, 5648032165, 1580890087, 1580889919, 4099946012], "tags": {"amenity": "hospital", "healthcare": "hospital", "name": "Hospital Base de Curic\u00f3"}}, {"type": "way", "id": 606928386, "center": {"lat": -33.4653126, "lon": -70.595861}, "nodes": [5753204430, 5753204428, 5753204426, 1726069219, 5753204430], "tags": {"amenity": "hospital", "emergency": "no", "name": "SEMDA Juan G\u00f3mez Millas"}}, {"type": "way", "id": 610546059, "center": {"lat": -37.7943233, "lon": -72.7053885}, "nodes": [5781878475, 5781878477, 5780233306, 5781878459, 5781878473, 5781878478, 5781878461, 5781878475], "tags": {"addr:city": "Angol", "addr:country": "CL", "addr:district": "Angol", "addr:housenumber": "537", "addr:state": "Regi\u00f3n de La Araucan\u00eda", "addr:street": "Ilabaca", "amenity": "hospital", "name": "Hospital de Angol", "opening_hours": "24/7"}}, {"type": "way", "id": 612667568, "center": {"lat": -36.81363, "lon": -73.031289}, "nodes": [1296778067, 7672861899, 7078742347, 7672943732, 7672943733, 7672943734, 7672943731, 7078742346, 7078742345, 7672861897, 7672943735, 7672877562, 7672861898, 1296778087, 1296778093, 1296778067], "tags": {"addr:city": "Concepci\u00f3n", "addr:housenumber": "36", "addr:street": "Cardenio Avello", "amenity": "hospital", "name": "Hospital Cl\u00ednico del Sur"}}, {"type": "way", "id": 614266669, "center": {"lat": -33.4349832, "lon": -70.6218317}, "nodes": [5280226497, 5280226513, 8300930604, 5280226515, 8286671549, 5597179554, 5597179555, 8312357144, 8312822603, 8312822602, 5743758841, 5743758845, 8286671550, 8164841897, 5742168268, 8296793701, 5742168269, 8332348586, 8332348587, 5282137243, 5282137244, 8332348595, 5280226497], "tags": {"addr:city": "Providencia", "addr:housenumber": "370", "addr:street": "Avenida Jos\u00e9 Manuel Infante", "amenity": "hospital", "description": "National Geriatric Hospital", "healthcare": "hospital", "healthcare:speciality": "geriatrics", "loc_name": "Hospital Geri\u00e1trico", "name": "Hospital Instituto Nacional de Geriatr\u00eda", "name:en": "National Geriatric Hospital", "official_name": "Instituto Nacional de Geriatr\u00eda Presidente Eduardo Frei Montalva", "phone": "+56 22 575 44 97", "start_date": "1976", "website": "https://www.ingerchile.cl", "wikidata": "Q38014449", "wikipedia": "es:Instituto Nacional de Geriatr\u00eda"}}, {"type": "way", "id": 618536526, "center": {"lat": -35.426603, "lon": -71.6463844}, "nodes": [4687744998, 7709596264, 7709596262, 7709596263, 7709596259, 7709596260, 1265206348, 4687744488, 7709596258, 7709715627, 7709715628, 4687745005, 1265206316, 4688056063, 1265206290, 7709715626, 7709715625, 1265206264, 1265206251, 5846297167, 5846297175, 7709687319, 5846297168, 7709596261, 5846297177, 4687744998], "tags": {"addr:city": "Talca", "addr:housenumber": "1990", "addr:street": "1 Norte", "amenity": "hospital", "name": "Hospital Regional de Talca", "wikidata": "Q16576212"}}, {"type": "way", "id": 620951356, "center": {"lat": -34.870834, "lon": -71.1642856}, "nodes": [5866263709, 10722491537, 5866263703, 5866263710, 1422372294, 1422372303, 7746153925, 7746153926, 5866263705, 5866263709], "tags": {"addr:city": "teno", "addr:street": "Calle Arturo Prat", "amenity": "hospital", "healthcare": "hospital", "name": "Hospital de Teno", "nohousenumber": "yes"}}, {"type": "way", "id": 622848545, "center": {"lat": -33.4740431, "lon": -70.6603996}, "nodes": [5882839030, 5882839031, 5882839032, 5882839033, 5882839030], "tags": {"addr:city": "Santiago", "addr:housenumber": "1982", "addr:street": "Avenida Pedro Montt", "amenity": "hospital", "healthcare": "hospital", "name": "Hospital Penitenciario, Santiago", "wikidata": "Q93742610"}}, {"type": "way", "id": 637361043, "center": {"lat": -33.472813, "lon": -70.6919275}, "nodes": [6008949596, 6008949597, 6008949598, 6008949599, 6008949596], "tags": {"addr:housenumber": "1854", "addr:street": "21 de Mayo", "alt_name": "CESFAM Padre Vicente Irarr\u00e1zaval", "amenity": "hospital", "healthcare": "hospital", "name": "Centro de Salud Familiar Padre Vicente Irarr\u00e1zaval"}}, {"type": "way", "id": 641647153, "center": {"lat": -34.3488955, "lon": -70.8376463}, "nodes": [6042249512, 6042249531, 6042249533, 6042249522, 6042249521, 6042249517, 6042249527, 7407851594, 6042249537, 7407851595, 6042249512], "tags": {"addr:city": "Rosario", "addr:housenumber": "145", "addr:street": "San Ignacio", "amenity": "hospital", "building:levels": "1", "healthcare": "hospital", "height": "0", "name": "Cesfam Rosario", "wheelchair": "yes"}}, {"type": "way", "id": 658255423, "center": {"lat": -38.8318341, "lon": -72.6934755}, "nodes": [6164371055, 6164371054, 6164371053, 6164371052, 6164371051, 6164371050, 6164371049, 6164371048, 6164371047, 6164371055], "tags": {"amenity": "hospital", "name": "Hospital Maquehue"}}, {"type": "way", "id": 680719982, "center": {"lat": -38.5371376, "lon": -72.4182172}, "nodes": [6374097918, 5143985401, 5143985402, 8746333298, 8746333299, 8746333300, 7278614345, 7274299887, 8746333304, 5745941500, 8746333305, 5745941499, 8746333306, 6374097918], "tags": {"addr:city": "Lautaro", "addr:country": "CL", "addr:district": "Lautaro", "addr:housenumber": "820", "addr:state": "Regi\u00f3n de La Araucan\u00eda", "addr:street": "Diego Barros Arana", "amenity": "hospital", "healthcare": "hospital", "name": "Hospital Abraham Godoy Pe\u00f1a", "operator": "Servico Salud Araucan\u00eda Sur"}}, {"type": "way", "id": 684878812, "center": {"lat": -33.5923763, "lon": -70.6967544}, "nodes": [4927046122, 6417027909, 6417030423, 6417030430, 6040367396, 5157818252, 10882326442, 6417027908, 4927046122], "tags": {"addr:city": "San Bernardo", "addr:housenumber": "04", "addr:street": "Libertador General Bernardo O'Higgins", "amenity": "hospital", "emergency": "yes", "healthcare": "hospital", "name": "Hospital Parroquial de San Bernardo"}}, {"type": "way", "id": 685639274, "center": {"lat": -33.4498217, "lon": -70.6089574}, "nodes": [6425686763, 429991208, 429991210, 429991212, 6425686766, 6425686762, 6425686764, 6425686765, 6425686761, 6425686763], "tags": {"addr:city": "\u00d1u\u00f1oa", "addr:housenumber": "2500", "addr:street": "Avenida Antonio Varas", "alt_name": "HOSCAR", "amenity": "hospital", "healthcare": "hospital", "name": "Hospital de Carabineros Hoscar", "wheelchair": "yes"}}, {"type": "way", "id": 691039185, "center": {"lat": -35.3827074, "lon": -71.4464942}, "nodes": [6483866537, 6483866536, 6483866540, 6483866539, 6483866538, 6483866537], "tags": {"amenity": "hospital", "name": "Hospital Pelarco"}}, {"type": "way", "id": 704208182, "center": {"lat": -32.9019622, "lon": -71.2531534}, "nodes": [6612251716, 9184208019, 9184208020, 9184203587, 9184208018, 6612251715, 6612251714, 9184208042, 7248848829, 1458061274, 1458061210, 6486832974, 1458061226, 6612251716], "tags": {"amenity": "hospital", "name": "Hospital Biprovincial Quillota - Petorca", "wikidata": "Q108194943", "wikipedia": "es:Hospital Biprovincial Quillota Petorca"}}, {"type": "way", "id": 722389641, "center": {"lat": -38.8785244, "lon": -71.1867608}, "nodes": [6776095938, 6776095939, 6776095940, 6776095941, 6776095942, 6776095943, 6776095944, 6776095945, 6776095938], "tags": {"amenity": "hospital", "building": "yes", "healthcare": "hospital", "name": "Centro de Salud de Villa Pehuenia"}}, {"type": "way", "id": 727641100, "center": {"lat": -38.4098962, "lon": -72.7854363}, "nodes": [2077839146, 2077839152, 2077839149, 2077839145, 11294443391, 11294443392, 2077839139, 2077839146], "tags": {"addr:city": "Galvarino", "addr:housenumber": "498", "addr:street": "Avenida Enrique Mac-Iver", "amenity": "hospital", "emergency": "yes", "healthcare": "hospital", "name": "Hospital de Galvarino", "wikidata": "Q21822558"}}, {"type": "way", "id": 736262269, "center": {"lat": -34.43708, "lon": -71.069792}, "nodes": [1745370054, 1745370078, 1745369947, 6892970235, 1035765531, 1745370054], "tags": {"amenity": "hospital", "healthcare": "hospital", "name": "SAPU de Alta Resolutividad (SAR)"}}, {"type": "way", "id": 743179128, "center": {"lat": -33.5613257, "lon": -70.5657183}, "nodes": [6956468641, 6956468642, 6956468643, 6956468644, 6956468641], "tags": {"amenity": "hospital", "healthcare": "hospital", "name": "Cl\u00ednica Familia", "wikidata": "Q93743288"}}, {"type": "way", "id": 746267440, "center": {"lat": -33.444064, "lon": -70.6380818}, "nodes": [6983795903, 7764406252, 7764406250, 6083958295, 7764541522, 7764541523, 8999030923, 7764406264, 7764406265, 7764406266, 5629753826, 6983795906, 6983795903], "tags": {"addr:city": "Santiago", "addr:housenumber": "345", "addr:postcode": "8330150", "addr:street": "Curic\u00f3", "alt_name": "HUAP", "amenity": "hospital", "emergency": "yes", "healthcare": "hospital", "healthcare:speciality": "emergency;general;intensive;surgery;radiology", "internet_access": "yes", "loc_name": "Ex Posta Central", "name": "Hospital de Urgencia Asistencia P\u00fablica", "name:en": "Emergency and Public Asistance Hospital", "old_name": "Posta Central", "phone": "+56 225681100", "short_name": "Posta Central", "start_date": "1911-08-07", "website": "https://huap.redsalud.gob.cl/", "wheelchair": "yes", "wikidata": "Q6083436", "wikipedia": "es:Hospital de Urgencia Asistencia P\u00fablica"}}, {"type": "way", "id": 754340881, "center": {"lat": -30.5784221, "lon": -71.1904633}, "nodes": [7047332702, 10155275283, 7047332703, 10155241884, 10155241883, 10155241882, 10155241881, 7434894976, 10155241880, 10155241879, 7434894975, 10155241878, 7434894974, 10155241877, 10155241876, 10155241875, 7434894973, 7434894978, 6024658731, 6024658730, 5058872161, 5491903837, 7047332699, 10155275330, 10155275329, 10155275328, 7047332701, 10155275327, 10155275326, 10155275325, 10155275324, 7047332710, 10155275323, 7434894968, 7047332712, 7047332713, 7047332702], "tags": {"amenity": "hospital", "healthcare": "hospital", "name": "Hospital de Ovalle"}}, {"type": "way", "id": 755494699, "center": {"lat": -33.487437, "lon": -70.5768716}, "nodes": [7057016161, 7057016162, 7057016163, 7057016164, 7057016165, 7057016166, 7057016167, 1274937257, 7057016148, 7057016149, 7057016151, 7057016152, 7057016154, 7057016155, 7057016156, 7057016157, 7057016158, 7057016159, 7057016146, 7057016161], "tags": {"amenity": "hospital", "brand": "Clinica universidad de Chile", "building": "yes", "healthcare": "hospital", "name": "Clinica Universidad de Chile Paseo Quilin"}}, {"type": "way", "id": 758606531, "center": {"lat": -39.9754679, "lon": -72.7091947}, "nodes": [7085048757, 7085048758, 7085048759, 7085048760, 7085048761, 7085048762, 7085048763, 7085048764, 7085048757], "tags": {"addr:city": "Los Lagos", "amenity": "hospital", "healthcare": "hospital"}}, {"type": "way", "id": 775148155, "center": {"lat": -38.9963745, "lon": -73.0886878}, "nodes": [7231828614, 7231828615, 7231828616, 7231828617, 7231828618, 7231828619, 7231828620, 7231828621, 7231828622, 7231828623, 7231828624, 7231828625, 7231828626, 7231828627, 7231828628, 7231828629, 7231828630, 7231828631, 7231828632, 7231828633, 7231828634, 7231828635, 7231828636, 7231828637, 7231828614], "tags": {"amenity": "hospital", "building": "public", "healthcare": "yes", "name": "Cesfam Teodoro Schmidt"}}, {"type": "way", "id": 791115486, "center": {"lat": -33.0872307, "lon": -70.924463}, "nodes": [7395722063, 2327454172, 7395722064, 10051060781, 7395722065, 7395722066, 7395722063], "tags": {"amenity": "hospital", "healthcare": "hospital", "name": "Hospital de Til Til"}}, {"type": "way", "id": 792313145, "center": {"lat": -34.3486419, "lon": -70.8373979}, "nodes": [7407851596, 7407851597, 7407851599, 7407851598, 7407851596], "tags": {"addr:city": "Rosario", "addr:street": "San Mart\u00edn", "amenity": "hospital", "healthcare": "hospital", "healthcare:speciality": "emergency", "name": "Sapu Rosario", "operator": "Hospital de Rengo", "operator:type": "public"}}, {"type": "way", "id": 793898206, "center": {"lat": -30.227612, "lon": -71.0858104}, "nodes": [7426218935, 7426218934, 7426218933, 7426218932, 7426218935], "tags": {"addr:city": "Andacollo", "addr:housenumber": "02", "addr:street": "Urmeneta", "amenity": "hospital", "emergency": "yes", "name": "Hospital Doctor Jos\u00e9 Luis Arra\u00f1o"}}, {"type": "way", "id": 795412834, "center": {"lat": -30.6962456, "lon": -70.9581695}, "nodes": [7439561389, 7439561388, 7439561437, 7439561386, 7686613370, 7439561385, 7686613369, 7439561389], "tags": {"addr:street": "Ponio", "amenity": "hospital", "healthcare": "hospital", "name": "Hospital Monte Patria"}}, {"type": "way", "id": 797133876, "center": {"lat": -31.7747362, "lon": -70.9718567}, "nodes": [7455101862, 7455101861, 7455101860, 7455101859, 7455101858, 7455101857, 7455101856, 7455101862], "tags": {"addr:city": "Salamanca", "addr:street": "Jos\u00e9 Miguel Infante", "amenity": "hospital", "healthcare": "hospital", "name": "Hospital de Salamanca"}}, {"type": "way", "id": 808893728, "center": {"lat": -32.9992509, "lon": -71.2686841}, "nodes": [7563785692, 7563785691, 7563785690, 9854366509, 9854366508, 7859849714, 7563785688, 7563785692], "tags": {"addr:city": "Limache", "addr:street": "Carelmapu", "amenity": "hospital", "emergency": "yes", "healthcare": "hospital", "name": "Hospital Santo Tom\u00e1s de Limache", "nohousenumber": "yes", "wikidata": "Q18812451"}}, {"type": "way", "id": 812714508, "center": {"lat": -33.0289244, "lon": -71.5389574}, "nodes": [7590946800, 7590946799, 7590946798, 6182608117, 6182608118, 7590946797, 7590946800], "tags": {"addr:city": "Vi\u00f1a del Mar", "addr:housenumber": "1741", "addr:street": "Limache", "amenity": "hospital", "name": "Hospital Cl\u00ednico Vi\u00f1a del Mar", "wikidata": "Q5902590"}}, {"type": "way", "id": 816360448, "center": {"lat": -33.5526481, "lon": -70.7646769}, "nodes": [7624378422, 7624378423, 7624378424, 9948341266, 7624378425, 7624378426, 7624378427, 7624378428, 9948560307, 7624378422], "tags": {"amenity": "hospital", "healthcare": "hospital"}}, {"type": "way", "id": 822509761, "center": {"lat": -39.8305533, "lon": -73.241464}, "nodes": [1329492777, 1385738768, 1385738779, 7680000201, 1329492768, 1393198971, 1393198975, 1329492790, 1329492777], "tags": {"access": "customers", "amenity": "hospital", "name": "SurM\u00e9dica"}}, {"type": "way", "id": 828332217, "center": {"lat": -39.8130656, "lon": -73.2426676}, "nodes": [7732877208, 1893263339, 7732877207, 7732877206, 7732877205, 7732877204, 7732877203, 7732877208], "tags": {"amenity": "hospital", "name": "Consalud"}}, {"type": "way", "id": 829563034, "center": {"lat": -33.4152641, "lon": -70.654831}, "nodes": [7742814976, 7742814975, 592746545, 7742814974, 7742814973, 7742814972, 7742814976], "tags": {"addr:city": "Independencia", "addr:street": "Avenida Domingo Santa Mar\u00eda", "amenity": "hospital", "building": "yes", "emergency": "yes", "healthcare": "hospital", "name": "Hospital de Ni\u00f1os Doctor Roberto del R\u00edo"}}, {"type": "way", "id": 831654714, "center": {"lat": -32.983962, "lon": -71.5329225}, "nodes": [7764483914, 7764483893, 7764409181, 7764409182, 7764483891, 7764483892, 7764483913, 7764483910, 7764737627, 7764483909, 7764483908, 7764483907, 7764483912, 7764409183, 7764483906, 7764409184, 7764483885, 7764483905, 7507249129, 7764483904, 7764737629, 7764737630, 7764483886, 7764483911, 7764483902, 7764483901, 7764483900, 7764483899, 7764483888, 7764483889, 7764483898, 7764483897, 7764483896, 256052077, 7764483895, 7764483894, 7764483914], "tags": {"amenity": "hospital", "name": "Cl\u00ednica Re\u00f1aca"}}, {"type": "way", "id": 832118050, "center": {"lat": -39.8186034, "lon": -73.239706}, "nodes": [2190831015, 2190831021, 7768926012, 7768926011, 7768926010, 7768926009, 7768926008, 7768926007, 7768926006, 7768926005, 7558124472, 4585895714, 7558124474, 7558124476, 1492715187, 1492715091, 1409003913, 8771457852, 1385723705, 1385723685, 2190831015], "tags": {"addr:city": "Valdivia", "addr:country": "CL", "addr:district": "Valdivia", "addr:housenumber": "765", "addr:state": "Regi\u00f3n de Los R\u00edos", "addr:street": "Beauchef", "amenity": "hospital", "emergency": "yes", "healthcare": "hospital", "name": "Cl\u00ednica Alemana Valdivia", "opening_hours": "24/7", "phone": "632246100", "wikidata": "Q93743941"}}, {"type": "way", "id": 832203189, "center": {"lat": -34.9878547, "lon": -71.2390903}, "nodes": [7769779508, 7769779507, 7769779506, 7769779505, 7769779504, 7769779503, 7769779502, 7769779501, 7769779500, 7769779499, 7769779498, 7769779497, 7663522896, 7663522895, 1488274895, 7663522894, 6541724405, 1488274893, 7663522893, 6541724404, 7769779496, 7769779495, 7769779494, 7769779493, 7769829058, 7769779492, 7769779491, 7769779490, 7769779489, 7769779508], "tags": {"addr:city": "Curic\u00f3", "addr:street": "Villota", "alt_name": "Hospital de Curico", "amenity": "hospital", "healthcare": "hospital", "name": "Cl\u00ednica Curic\u00f3"}}, {"type": "way", "id": 840220768, "center": {"lat": -37.7999423, "lon": -72.6902408}, "nodes": [7840366577, 5436489523, 1084506412, 1084506357, 8283238233, 7840366577], "tags": {"addr:city": "Angol", "addr:country": "CL", "addr:district": "Angol", "addr:housenumber": "750", "addr:state": "Regi\u00f3n de La Araucan\u00eda", "addr:street": "General \u00d3scar Bonilla", "amenity": "hospital", "healthcare": "hospital", "name": "Hospital de Angol"}}, {"type": "way", "id": 840359494, "center": {"lat": -34.3972222, "lon": -70.7819849}, "nodes": [7841596743, 11071846112, 7841596760, 7841596761, 7841596762, 7841596743], "tags": {"amenity": "hospital", "healthcare": "hospital", "healthcare:speciality": "general", "name": "Posta El Cerrillo", "operator": "Ilustre Municipalidad de Rengo"}}, {"type": "way", "id": 867032042, "center": {"lat": -38.7625334, "lon": -70.0364924}, "nodes": [8081832540, 8081832557, 8081832556, 8081832541, 8081832558, 8081832552, 8081832551, 8081832542, 8081832550, 8081832543, 8081832544, 8081832540], "tags": {"addr:city": "Mariano Moreno", "addr:postcode": "Q8351", "addr:street": "Nicol\u00e1s Levalle", "amenity": "hospital", "emergency": "yes", "healthcare": "hospital", "name": "Hospital de \u00c1rea Mariano Moreno \"Doctor Carlos Burdes\"", "operator": "Ministerio de Salud - Gobierno de la Provincia de Neuqu\u00e9n", "operator:type": "public"}}, {"type": "way", "id": 891550778, "center": {"lat": -33.438228, "lon": -70.6225215}, "nodes": [5862551662, 8301562449, 8318534617, 8318530416, 7546539346, 8307678373, 8307678374, 4449467000, 8304511690, 8304511696, 8304511688, 6558926764, 8304511694, 8304511695, 8304511693, 8304511698, 8304511697, 8304511699, 7546539344, 5862551591, 5862551590, 7546539342, 5862551662], "tags": {"addr:city": "Providencia", "addr:housenumber": "717", "addr:street": "Avenida Jos\u00e9 Manuel Infante", "amenity": "hospital", "email": "comunicaciones@torax.cl", "healthcare": "hospital", "healthcare:speciality": "intensive;internal;infectology;surgery", "loc_name": "Hospital del T\u00f3rax", "name": "Hospital Instituto Nacional del T\u00f3rax", "official_name": "Instituto Nacional del T\u00f3rax", "phone": "+56 225755000", "start_date": "1954-08-23", "website": "https://www.torax.cl/", "wheelchair": "yes", "wikidata": "Q5908717", "wikimedia_commons": "Category:Instituto Nacional del T\u00f3rax, Santiago de Chile", "wikipedia": "es:Instituto Nacional del T\u00f3rax"}}, {"type": "way", "id": 891550779, "center": {"lat": -33.4368946, "lon": -70.6227594}, "nodes": [7546539352, 7546539351, 5742168256, 8307560140, 8307560139, 8307560138, 7546539347, 6558950807, 6558950808, 8307469996, 6558950801, 6558950800, 6558926768, 6558926767, 8307469972, 8307469973, 7546539352], "tags": {"addr:city": "Providencia", "addr:housenumber": "553", "addr:street": "Avenida Jos\u00e9 Manuel Infante", "amenity": "hospital", "email": "informaciones@institutodeneurocirugia.cl", "healthcare": "hospital", "healthcare:speciality": "neurology;surgery", "name": "Instituto de Neurocirug\u00eda Doctor Alfonso Asenjo", "official_name": "Instituto de Neurocirug\u00eda Doctor Alfonso Asenjo", "phone": "+56 2 25754600", "start_date": "1939-10-20", "website": "https://www.institutodeneurocirugia.cl", "wheelchair": "yes", "wikidata": "Q38011917", "wikimedia_commons": "Category:Instituto de Neurocirug\u00eda Dr. Alfonso Asenjo", "wikipedia": "es:Instituto de Neurocirug\u00eda Dr. Alfonso Asenjo"}}, {"type": "way", "id": 895902098, "center": {"lat": -38.6663222, "lon": -72.2277059}, "nodes": [8327781915, 8327781914, 8327781913, 8327781912, 2305811039, 2305811070, 8327781911, 8327781910, 8327781909, 8327781915], "tags": {"addr:city": "Vilc\u00fan", "addr:housenumber": "680", "addr:street": "Manuel Bulnes", "amenity": "hospital", "name": "Hospital de Vilc\u00fan", "wikidata": "Q93743886"}}, {"type": "way", "id": 901976591, "center": {"lat": -33.4852435, "lon": -70.6452843}, "nodes": [4324080368, 4324080356, 4324080357, 8379222556, 4324080345, 8379222557, 4324080339, 4324080334, 4324080332, 8379222558, 7012163062, 7012163061, 7012163063, 335617813, 11162057580, 335617827, 8379222566, 4324080373, 4324080375, 4324080369, 4324080368], "tags": {"addr:city": "San Miguel", "amenity": "hospital", "healthcare": "hospital", "name": "Hospital de Enfermedades Infecciosas Lucio C\u00f3rdova"}}, {"type": "way", "id": 901976592, "center": {"lat": -33.4849123, "lon": -70.6481886}, "nodes": [4324080302, 4324080372, 6439129983, 8378248911, 8379222561, 8378548878, 8378548881, 8378548882, 8378248902, 8378248897, 8830513066, 4324080302], "tags": {"addr:city": "San Miguel", "addr:housenumber": "3300", "addr:street": "Gran Avenida Jos\u00e9 Miguel Carrera", "amenity": "hospital", "healthcare": "hospital", "name": "Hospital de Ni\u00f1os Doctor Exequiel Gonz\u00e1lez Cort\u00e9s"}}, {"type": "way", "id": 908503084, "center": {"lat": -38.7180238, "lon": -72.5621411}, "nodes": [8435689171, 8435689173, 8435689174, 8435689175, 8435689170, 8435689169, 8435689171], "tags": {"addr:city": "Temuco", "addr:country": "CL", "addr:district": "Temuco", "addr:housenumber": "2815", "addr:state": "Regi\u00f3n de La Araucan\u00eda", "addr:street": "Nahuelbuta", "amenity": "hospital", "healthcare": "hospital", "name": "Cesfam Pueblo Nuevo"}}, {"type": "way", "id": 908888514, "center": {"lat": -30.6968634, "lon": -70.9581173}, "nodes": [8439147156, 8439147157, 8439147158, 8439147159, 8439147160, 8584476698, 8584476699, 8584476700, 8584476701, 8584476702, 8439147161, 8439147156], "tags": {"addr:city": "Monte Patria", "addr:postcode": "1880000", "amenity": "hospital", "email": "sar@apsmontepatria.cl", "emergency": "yes", "healthcare": "hospital", "healthcare:speciality": "general;ophthalmology;gynaecology;emergency;radiology", "image": "https://i0.wp.com/apsmontepatria.cl/wp-content/uploads/2020/03/1-10.jpg?w=960&ssl=1", "name": "Centro de Salud Familiar Monte Patria", "operator": "CESFAM Monte Patria", "operator:type": "public", "phone": "+56532426022", "short_name": "CESFAM Monte Patria", "source": "https://apsmontepatria.cl/sar/", "website": "https://apsmontepatria.cl/", "wheelchair": "yes"}}, {"type": "way", "id": 945648773, "center": {"lat": -33.0281351, "lon": -71.5399455}, "nodes": [8754456437, 9951901336, 316377282, 9774094981, 8754456435, 8754456434, 8754456433, 8754456432, 9774094984, 8754456431, 8754456430, 8754456429, 8754456428, 8754456427, 8754456426, 8754456425, 8754456424, 8754456437], "tags": {"amenity": "hospital", "emergency": "yes", "healthcare": "hospital", "name": "Hospital de Ni\u00f1os y Cunas", "phone": "+56322385000", "url": "http://hospitaldeninos.cl/"}}, {"type": "way", "id": 949743895, "center": {"lat": -33.4155093, "lon": -70.6542914}, "nodes": [8792355317, 8792349016, 8792349015, 8792349014, 8792355317], "tags": {"amenity": "hospital", "healthcare": "hospital", "name": "Instituto Nacional del C\u00e1ncer", "wikidata": "Q30287455", "wikimedia_commons": "Category:Instituto Nacional del C\u00e1ncer, Chile", "wikipedia": "es:Instituto Nacional del C\u00e1ncer (Chile)"}}, {"type": "way", "id": 954762430, "center": {"lat": -33.4899259, "lon": -70.6521144}, "nodes": [8837139128, 8837139129, 8837139130, 8837139132, 8837139133, 8837139131, 8837139128], "tags": {"addr:city": "San Miguel", "addr:housenumber": "3965", "addr:street": "Llano Subercaseaux", "amenity": "hospital", "emergency": "no", "healthcare": "hospital", "name": "Integram\u00e9dica San Miguel", "operator": "Bupa Chile", "operator:type": "private", "phone": "+566006366666", "website": "https://www.integramedica.cl/"}}, {"type": "way", "id": 966288135, "center": {"lat": -39.2773035, "lon": -72.2265532}, "nodes": [8939784149, 8939784148, 8939784147, 8939784146, 8939784149], "tags": {"addr:city": "Villarrica", "addr:country": "CL", "addr:district": "Villarrica", "addr:housenumber": "460", "addr:state": "Regi\u00f3n de La Araucan\u00eda", "addr:street": "General San Mart\u00edn", "amenity": "hospital", "healthcare": "hospital", "name": "Hospital de Villarrica", "wikidata": "Q93743896"}}, {"type": "way", "id": 986480688, "center": {"lat": -34.433976, "lon": -70.7920825}, "nodes": [9118666976, 9118666977, 9118666978, 9118666979, 9118666976], "tags": {"amenity": "hospital", "healthcare": "hospital", "name": "Posta Popeta"}}, {"type": "way", "id": 986744055, "center": {"lat": -30.5951479, "lon": -71.1809002}, "nodes": [9120842411, 9120842412, 9236575034, 9236575035, 9236575036, 9236575037, 9236575038, 9236575039, 9236575040, 9236575041, 9120842413, 9120842414, 9236575049, 9236575048, 9236575047, 9236575046, 9236575045, 9236575044, 9236575043, 9236575042, 9120842411], "tags": {"addr:city": "Ovalle", "addr:housenumber": "386", "addr:street": "Camino Sotoqui 386", "amenity": "hospital", "healthcare": "hospital", "name": "Clinica Mutual de Seguridad de Ovalle"}}, {"type": "way", "id": 987497319, "center": {"lat": -34.7281132, "lon": -71.6467436}, "nodes": [9127477601, 9127477602, 9127477603, 9127477604, 9127477601], "tags": {"addr:city": "Lolol", "addr:housenumber": "35", "addr:street": "Avenida Los Alerces", "amenity": "hospital", "healthcare": "hospital", "name": "Hospital de Lolol", "wikidata": "Q93743327"}}, {"type": "way", "id": 987515043, "center": {"lat": -35.4277333, "lon": -71.6468784}, "nodes": [9127841635, 9127841636, 9127841637, 9127841638, 9127841635], "tags": {"addr:city": "Talca", "addr:housenumber": "2010", "addr:street": "Calle 1 Norte", "amenity": "hospital", "healthcare": "hospital", "name": "Hospital Dr. C\u00e9sar Garavagno Burotto"}}, {"type": "way", "id": 987540149, "center": {"lat": -33.0268723, "lon": -71.5531231}, "nodes": [4947711070, 9128043484, 9128043485, 9128043486, 9128043487, 9128043488, 9128043480, 9128043481, 4947711070], "tags": {"addr:city": "Vi\u00f1a del Mar", "addr:country": "CL", "addr:housenumber": "662", "addr:street": "\u00c1lvarez", "alt_name": "Hospital Cl\u00ednico IST", "amenity": "hospital", "emergency": "yes", "healthcare": "hospital", "name": "Hospital Cl\u00ednico Instituto de Seguridad del Trabajo", "wikidata": "Q5902579", "wikipedia": "es:Hospital Cl\u00ednico IST"}}, {"type": "way", "id": 987766838, "center": {"lat": -36.8228877, "lon": -72.6493727}, "nodes": [9130082072, 3656206594, 9130082074, 9130082075, 9130082072], "tags": {"addr:city": "Florida", "addr:housenumber": "1114", "addr:street": "Sargento Aldea", "amenity": "hospital", "healthcare": "hospital", "name": "Hospital San Agust\u00edn de Florida", "wikidata": "Q93743621"}}, {"type": "way", "id": 987777324, "center": {"lat": -36.7452608, "lon": -73.0974129}, "nodes": [9130162684, 9130162687, 9130162688, 11060532582, 9130162690, 9130162691, 9130162684], "tags": {"addr:city": "Talcahuano", "addr:housenumber": "3430", "addr:street": "Avenida Col\u00f3n", "amenity": "hospital", "healthcare": "hospital", "name": "Instituto de Seguridad del Trabajo de Talcahuano"}}, {"type": "way", "id": 987783391, "center": {"lat": -37.960144, "lon": -72.4360948}, "nodes": [9130232891, 9130232892, 9130232893, 9130232894, 9130232891], "tags": {"addr:city": "Collipulli", "addr:street": "Bulnes", "amenity": "hospital", "healthcare": "hospital", "name": "Hospital de Collipulli", "wikidata": "Q93744230"}}, {"type": "way", "id": 989656598, "center": {"lat": -37.7937496, "lon": -72.7064537}, "nodes": [9145797807, 9145797808, 9145797809, 9145797810, 9145797811, 9145797807], "tags": {"addr:city": "Angol", "addr:country": "CL", "addr:district": "Angol", "addr:housenumber": "811", "addr:state": "Regi\u00f3n de La Araucan\u00eda", "addr:street": "Ilabaca", "amenity": "hospital", "healthcare": "hospital", "name": "Hospital del trabajador de Angol"}}, {"type": "way", "id": 990494967, "center": {"lat": -33.4605929, "lon": -70.5699298}, "nodes": [9152624626, 11071992918, 9152624627, 11071992917, 9152624628, 11071956896, 9152624629, 9152624626], "tags": {"addr:city": "Pe\u00f1alol\u00e9n", "addr:housenumber": "5969", "addr:street": "Avenida Jos\u00e9 Arrieta", "amenity": "hospital", "healthcare": "hospital", "name": "Instituto Nacional de Rehabilitaci\u00f3n Pedro Aguirre Cerda"}}, {"type": "way", "id": 992275485, "center": {"lat": -33.5188246, "lon": -70.5966499}, "nodes": [9167952120, 9167952121, 9167952122, 9167952123, 9167952124, 9167952125, 9167952126, 9167952120], "tags": {"addr:city": "La Florida", "addr:housenumber": "190", "addr:street": "Seraf\u00edn Zamora", "amenity": "hospital", "healthcare": "hospital", "name": "D\u00e1vila Vespucio", "wikidata": "Q93743299"}}, {"type": "way", "id": 997208258, "center": {"lat": -38.710399, "lon": -73.1406166}, "nodes": [9208017975, 9208017974, 7616921282, 7616921281, 9208017975], "tags": {"amenity": "hospital", "name": "Hospital Carahue", "wikidata": "Q28056904", "wikipedia": "es:Hospital de Carahue"}}, {"type": "way", "id": 1018582071, "center": {"lat": -37.4673595, "lon": -72.3367344}, "nodes": [9394933198, 9394933197, 9394933200, 9394933196, 9394933198], "tags": {"addr:housenumber": "581", "addr:street": "Genaro Reyes", "amenity": "hospital", "name": "Cl\u00ednica Los Andes", "wikidata": "Q93743882"}}, {"type": "way", "id": 1030824578, "center": {"lat": -38.4550774, "lon": -71.3691227}, "nodes": [2142651309, 9501852951, 9501852952, 9501852953, 2142651309], "tags": {"addr:city": "Lonquimay", "addr:street": "Caupolic\u00e1n", "amenity": "hospital", "healthcare": "hospital", "name": "Hospital Dr. Pablo Lecumberri", "nohousenumber": "yes"}}, {"type": "way", "id": 1036346014, "center": {"lat": -36.4905158, "lon": -72.7054516}, "nodes": [889874613, 9547931838, 9547931839, 9547931840, 9547931841, 9547931842, 889874613], "tags": {"addr:city": "Coelemu", "addr:street": "Manuel Antonio Matta", "amenity": "hospital", "healthcare": "hospital", "name": "Hospital de Coelemu"}}, {"type": "way", "id": 1058912028, "center": {"lat": -33.5799102, "lon": -70.5811254}, "nodes": [9729981274, 9729981275, 9729981278, 9729981276, 9737965700, 9729981274], "tags": {"amenity": "hospital", "healthcare": "hospital", "name": "Complejo Hospitalario S\u00f3tero del R\u00edo"}}, {"type": "way", "id": 1073934609, "center": {"lat": -37.956856, "lon": -72.4248811}, "nodes": [9851011503, 9851011504, 9851011505, 9851011506, 9851011507, 9851011508, 9851011509, 9851011510, 9851011503], "tags": {"amenity": "hospital", "healthcare": "hospital", "name": "Hospital Intercultural de Collipulli"}}, {"type": "way", "id": 1074579642, "center": {"lat": -33.438902, "lon": -70.6223897}, "nodes": [7782922651, 8301562450, 9856221860, 9856221835, 8301562449, 5862551662, 7782922651], "tags": {"addr:city": "Providencia", "addr:housenumber": "805", "addr:postcode": "7501091", "addr:street": "Avenida Jos\u00e9 Manuel Infante", "alt_name": "Instituto Oncol\u00f3gico Fundaci\u00f3n Arturo L\u00f3pez P\u00e9rez", "amenity": "hospital", "emergency": "no", "healthcare": "hospital", "healthcare:speciality": "oncology", "image": "https://upload.wikimedia.org/wikipedia/commons/4/4b/Instituto_Oncol\u00f3gico_de_la_Fundaci\u00f3n_Arturo_L\u00f3pez_P\u00e9rez%2C_Providencia%2C_Santiago_20210905_06.jpg", "name": "FALP", "official_name": "Fundaci\u00f3n Arturo L\u00f3pez P\u00e9rez", "operator": "Fundaci\u00f3n Arturo L\u00f3pez P\u00e9rez", "operator:type": "private_non_profit", "phone": "+56 800 24 8000;+56 2 2712 8000", "phone:mobile": "+56 2 2712 8000", "website": "https://www.falp.cl", "wheelchair": "yes"}}, {"type": "way", "id": 1076674976, "center": {"lat": -33.5729477, "lon": -70.5839188}, "nodes": [9873101287, 7548550604, 9873101285, 11032903248, 11032903250, 9873101287], "tags": {"amenity": "hospital", "healthcare": "hospital", "name": "Centro de Salud Ancora San Francisco"}}, {"type": "way", "id": 1079186869, "center": {"lat": -33.4781629, "lon": -70.7544524}, "nodes": [10730762435, 9892862202, 9892862201, 9892862200, 9893619077, 9892862199, 9892862198, 9605968615, 9605968614, 10730762433, 10730762436, 10730762435], "tags": {"addr:city": "Maip\u00fa", "addr:housenumber": "901", "addr:street": "Santa Elena", "amenity": "hospital", "healthcare": "hospital", "name": "Cl\u00ednica Indisa Maip\u00fa", "opening_hours": "24/7", "operator": "Cl\u00ednica Indisa", "operator:type": "private"}}, {"type": "way", "id": 1089344802, "center": {"lat": -33.4223094, "lon": -70.6080401}, "nodes": [9978805336, 9978805374, 9978805375, 9978805337, 9978805343, 9978805338, 9978805339, 9978805340, 9978805341, 9978805342, 9978805336], "tags": {"addr:city": "Providencia", "addr:housenumber": "200", "addr:street": "Las Bellotas", "amenity": "hospital", "healthcare": "hospital", "name": "Integram\u00e9dica"}}, {"type": "way", "id": 1092666194, "center": {"lat": -36.7117062, "lon": -73.1373043}, "nodes": [10006894187, 10006894188, 10006894189, 2518111763, 10006894176, 10006894187], "tags": {"amenity": "hospital", "healthcare": "hospital"}}, {"type": "way", "id": 1095778894, "center": {"lat": -35.739565, "lon": -72.5313115}, "nodes": [10035407923, 2134312289, 10035407924, 10035407925, 10035407926, 10035407927, 10035407928, 10035407929, 10035407930, 2299095005, 10035407923], "tags": {"amenity": "hospital", "emergency": "yes", "healthcare": "hospital", "name": "Hospital de Chanco"}}, {"type": "way", "id": 1125064989, "center": {"lat": -33.4569201, "lon": -70.7427548}, "nodes": [10288381654, 10288381708, 10288381655, 10288381656, 10288381657, 10288381642, 10288381659, 10288381658, 10288381654], "tags": {"addr:city": "Pudahuel", "addr:housenumber": "7447", "addr:street": "Avenida Traves\u00eda", "amenity": "hospital", "healthcare": "hospital"}}, {"type": "way", "id": 1128457524, "center": {"lat": -39.3709659, "lon": -72.6259553}, "nodes": [979066823, 10316895492, 10316895493, 10316895494, 979066823], "tags": {"addr:city": "Loncoche", "addr:housenumber": "330", "addr:street": "Jos\u00e9 Miguel Carrera", "amenity": "hospital", "healthcare": "hospital", "name": "Hospital de Loncoche", "wikidata": "Q28057249", "wikipedia": "es:Hospital de Loncoche"}}, {"type": "way", "id": 1131313618, "center": {"lat": -33.7346255, "lon": -70.8618366}, "nodes": [10547432579, 5321136135, 5321150403, 10547432582, 10547432583, 10547432584, 5320314551, 10547432581, 10547432580, 10547432579], "tags": {"amenity": "hospital", "healthcare": "hospital", "name": "SESFAM La, Islita"}}, {"type": "way", "id": 1135479244, "center": {"lat": -35.6860334, "lon": -71.7346572}, "nodes": [10140134017, 10584554117, 10584554118, 10584554119, 10140134017], "tags": {"amenity": "hospital", "healthcare": "hospital", "name": "Cesfam VIlla Alegre"}}, {"type": "way", "id": 1149030741, "center": {"lat": -38.9020111, "lon": -70.0650394}, "nodes": [10689775339, 10689775344, 10689768402, 10689768401, 10689768400, 10689768397, 10689768396, 10689775349, 10689768389, 10689768377, 10689768376, 10689768375, 10689768374, 10689768373, 10689775348, 10689775347, 10689775307, 10689775306, 10689775338, 10689775339], "tags": {"addr:city": "Zapala", "addr:housenumber": "155", "addr:postcode": "Q8340", "addr:street": "Luis Monti", "amenity": "hospital", "emergency": "yes", "healthcare": "hospital", "name": "Hospital Interzonal Zapala \"Doctor Jorge Juan Pose\"", "operator": "Ministerio de Salud - Gobierno de la Provincia del Neuqu\u00e9n", "operator:type": "public", "phone": "+54 294 243-1516;+54 294 243-1517;+54 294 243-1555", "website": "https://hospitalzapala.org/", "wikidata": "Q94562227"}}, {"type": "way", "id": 1149681867, "center": {"lat": -33.5779961, "lon": -70.677965}, "nodes": [10695157062, 10695157074, 10695157075, 10695157076, 10695157077, 10695157065, 10695157064, 10695157063, 10695157062], "tags": {"amenity": "hospital", "healthcare": "hospital"}}, {"type": "way", "id": 1149802019, "center": {"lat": -33.5328143, "lon": -70.6426324}, "nodes": [10696274209, 10696274210, 10696274222, 10696274223, 10696274224, 10696274225, 10696274226, 10696246441, 10696274209], "tags": {"amenity": "hospital", "healthcare": "hospital"}}, {"type": "way", "id": 1151101958, "center": {"lat": -37.2642936, "lon": -72.7092393}, "nodes": [4347568794, 10708156618, 10708156619, 10708156620, 4347568794], "tags": {"addr:housenumber": "800", "addr:postcode": "4560000", "addr:street": "Avenida de los R\u00edos", "amenity": "hospital", "healthcare": "hospital", "name": "Hospital de la Familia y la Comunidad Doctor Juan Lobos Krause", "name:en": "Family and Community Hospital Doctor Juan Lobos Krause"}}, {"type": "way", "id": 1171271439, "center": {"lat": -34.7025636, "lon": -71.0364561}, "nodes": [10884079334, 10884079333, 1485561044, 1485561078, 1485561051, 10884079334], "tags": {"addr:city": "Chimbarongo", "addr:housenumber": "33", "addr:street": "Arturo Prat", "amenity": "hospital", "name": "Hospital de Mercedes de Chimbarongo"}}, {"type": "way", "id": 1174457908, "center": {"lat": -33.277477, "lon": -70.8753783}, "nodes": [10142799674, 3134193067, 10913151824, 10913151825, 10142799674], "tags": {"amenity": "hospital", "healthcare": "hospital", "name": "Consultorio Doctor Jos\u00e9 Bauza Frau"}}, {"type": "way", "id": 1188995270, "center": {"lat": -34.1840585, "lon": -70.7430227}, "nodes": [11040399423, 11040399424, 11040398278, 11040399425, 11040399423], "tags": {"addr:city": "Rancagua", "addr:housenumber": "1696", "addr:street": "San Pedro", "amenity": "hospital", "building": "no", "healthcare": "hospital", "healthcare:speciality": "general", "name": "SAPU N\u00b02"}}, {"type": "way", "id": 1192487595, "center": {"lat": -39.8622684, "lon": -73.436011}, "nodes": [11069890292, 11069890289, 11069890291, 11069890288, 11069890287, 11069890286, 11069890290, 11069890285, 11069890284, 11069890283, 11069890280, 11069890279, 11069890278, 11069890282, 11069890277, 11069890276, 11069890275, 11069890273, 11069890281, 11069890272, 11069890271, 11069890274, 11069890269, 11069890268, 11069890267, 11069890266, 11069890270, 11069890263, 11069890262, 11069890265, 11069890261, 11069890260, 11069890264, 11069890292], "tags": {"amenity": "hospital", "name": "Hospital de Corral"}}, {"type": "way", "id": 1192656294, "center": {"lat": -34.3783686, "lon": -70.8139975}, "nodes": [11071212089, 11071238105, 11071238106, 11071238107, 11071212094, 11071238108, 11071238109, 11071212092, 11071212093, 11071212088, 11071212089], "tags": {"amenity": "hospital", "healthcare": "hospital"}}, {"type": "way", "id": 1193026962, "center": {"lat": -34.4095514, "lon": -70.8501622}, "nodes": [6685601596, 6685601595, 6699543201, 6699543200, 6699543199, 6685601596], "tags": {"amenity": "hospital", "healthcare": "hospital"}}, {"type": "way", "id": 1193056222, "center": {"lat": -33.6140929, "lon": -70.6977993}, "nodes": [4927046159, 11074433220, 11074433222, 11074433230, 11074433223, 4927046159], "tags": {"amenity": "hospital", "healthcare": "hospital"}}, {"type": "way", "id": 1194171785, "center": {"lat": -33.8593997, "lon": -70.8506259}, "nodes": [11084848149, 11084848150, 11084848151, 11084848152, 11084848149], "tags": {"amenity": "hospital", "healthcare": "hospital"}}, {"type": "way", "id": 1194822892, "center": {"lat": -38.5227423, "lon": -70.3623899}, "nodes": [11090060489, 11090062211, 11090060493, 11090062208, 11090062210, 11090060494, 11090062212, 11090062213, 11090060496, 11090060497, 11090060500, 11090060501, 11090062239, 11090062237, 11090060492, 11090060491, 11090060490, 11090060489], "tags": {"addr:city": "Las Lajas", "addr:housenumber": "269", "addr:postcode": "Q8347", "addr:street": "Avenida Julio Argentino Roca", "amenity": "hospital", "emergency": "yes", "healthcare": "hospital", "name": "Hospital de \u00c1rea Programa Las Lajas \"Doctor Jos\u00e9 Venier\"", "operator": "Ministerio de Salud - Gobierno de la Provincia del Neuqu\u00e9n", "operator:type": "public", "phone": "+54 294 249-9427", "website": "https://www.saludneuquen.gob.ar/hospital-las-lajas-dr-jose-vernier/"}}, {"type": "way", "id": 1198724331, "center": {"lat": -33.4093648, "lon": -71.1457676}, "nodes": [11119520180, 11119520181, 11119520182, 11119520183, 11119520184, 11119520180], "tags": {"amenity": "hospital", "healthcare": "hospital", "name": "Hospital de Curacav\u00ed", "wikidata": "Q93742583"}}, {"type": "way", "id": 1211972985, "center": {"lat": -38.4583417, "lon": -71.3654979}, "nodes": [2069069101, 2069068820, 2069069010, 2069068826, 2069069101], "tags": {"addr:city": "Lonquimay", "addr:street": "Rodr\u00edguez", "amenity": "hospital", "healthcare": "hospital", "name": "Hospital Comunitario Intercultural de Lonquimay", "operator": "Servicio de Salud Araucan\u00eda Norte", "operator:type": "public"}}, {"type": "way", "id": 1213399538, "center": {"lat": -39.5415001, "lon": -72.9658745}, "nodes": [11241909769, 11241909768, 5932689890, 5932689891, 5932689892, 5932689893, 11241909766, 5629435831, 5629435956, 11241909769], "tags": {"addr:city": "San Jos\u00e9 de La Mariquina", "addr:housenumber": "955", "addr:street": "Garc\u00eda Reyes", "amenity": "hospital", "healthcare": "hospital", "name": "Hospital Santa Elisa"}}, {"type": "relation", "id": 6066032, "center": {"lat": -37.4747248, "lon": -72.3463664}, "members": [{"type": "way", "ref": 85220216, "role": "outer"}, {"type": "way", "ref": 404635141, "role": "outer"}], "tags": {"addr:housenumber": "0147", "addr:street": "Avenida Ricardo Vicu\u00f1a", "alt_name": "Hospital de Los \u00c1ngeles", "amenity": "hospital", "emergency": "yes", "healthcare": "hospital", "name": "Complejo Asistencial Doctor V\u00edctor R\u00edos Ruiz", "opening_hours": "24/7", "type": "multipolygon"}}, {"type": "relation", "id": 7345912, "center": {"lat": -38.7404114, "lon": -72.9582664}, "members": [{"type": "way", "ref": 502114850, "role": "outer"}, {"type": "way", "ref": 502114849, "role": "inner"}, {"type": "way", "ref": 502114844, "role": "inner"}, {"type": "way", "ref": 502114840, "role": "inner"}, {"type": "way", "ref": 502114847, "role": "inner"}], "tags": {"addr:city": "Nueva Imperial", "addr:housenumber": "115", "addr:street": "Castell\u00f3n", "amenity": "hospital", "healthcare": "hospital", "name": "Hospital de Nueva Imperial", "type": "multipolygon"}}, {"type": "relation", "id": 8886089, "center": {"lat": -37.0962815, "lon": -72.5575803}, "members": [{"type": "way", "ref": 90232941, "role": "outer"}, {"type": "way", "ref": 640522644, "role": "inner"}, {"type": "way", "ref": 640522641, "role": "inner"}, {"type": "way", "ref": 640522642, "role": "inner"}], "tags": {"amenity": "hospital", "building": "yes", "emergency": "yes", "name": "Hospital de Yumbel", "source": "Bing", "type": "multipolygon"}}, {"type": "relation", "id": 9541646, "center": {"lat": -33.0513839, "lon": -71.6103079}, "members": [{"type": "way", "ref": 444339456, "role": "outer"}, {"type": "way", "ref": 243179873, "role": "outer"}], "tags": {"addr:city": "Valpara\u00edso", "addr:country": "CL", "addr:housenumber": "725", "addr:street": "San Ignacio", "amenity": "hospital", "healthcare": "hospital", "name": "Hospital Carlos Van Buren", "type": "multipolygon", "wikidata": "Q5908381"}}, {"type": "relation", "id": 12245220, "center": {"lat": -33.44215, "lon": -70.6791051}, "members": [{"type": "way", "ref": 901195395, "role": "outer"}, {"type": "way", "ref": 900966261, "role": "outer"}, {"type": "way", "ref": 901195396, "role": "outer"}], "tags": {"addr:city": "Santiago", "addr:housenumber": "3255", "addr:street": "Hu\u00e9rfanos", "amenity": "hospital", "emergency": "yes", "healthcare": "hospital", "name": "Hospital San Juan de Dios", "operator": "Ministerio de Salud", "operator:type": "public", "phone": "+56 2574 1900", "type": "multipolygon", "website": "http://www.hsjd.cl", "wikidata": "Q5902881", "wikipedia": "es:Hospital San Juan de Dios (Santiago de Chile)"}}, {"type": "relation", "id": 12253128, "center": {"lat": -33.4853315, "lon": -70.6452502}, "members": [{"type": "way", "ref": 901976591, "role": "inner"}, {"type": "way", "ref": 686924198, "role": "outer"}], "tags": {"addr:city": "San Miguel", "addr:housenumber": "3204", "addr:street": "Gran Avenida Jos\u00e9 Miguel Carrera", "amenity": "hospital", "healthcare": "hospital", "name": "Hospital Barros Luco - Trudeau", "type": "multipolygon", "wikidata": "Q5902545"}}, {"type": "relation", "id": 13179277, "center": {"lat": -33.3924848, "lon": -70.572586}, "members": [{"type": "way", "ref": 31624010, "role": "outer"}, {"type": "way", "ref": 980596934, "role": "outer"}], "tags": {"addr:housenumber": "5951", "addr:street": "Avenida Vitacura", "amenity": "hospital", "emergency": "yes", "healthcare": "hospital", "name": "Cl\u00ednica Alemana", "type": "multipolygon", "wheelchair": "yes"}}]}