{"version": 0.6, "generator": "Overpass API 0.7.61.5 4133829e", "osm3s": {"timestamp_osm_base": "2023-10-31T20:47:26Z", "copyright": "The data included in this document is from www.openstreetmap.org. The data is made available under ODbL."}, "elements": [{"type": "node", "id": 843479012, "lat": -36.2431922, "lon": 175.4671225, "tags": {"amenity": "hospital", "name": "Medical Centre"}}, {"type": "node", "id": 966611096, "lat": -37.2525376, "lon": 174.7256509, "tags": {"amenity": "hospital", "healthcare": "hospital", "name": "Waiuku Health Plus"}}, {"type": "node", "id": 1010566516, "lat": -36.7092059, "lon": 174.7271176, "tags": {"addr:city": "Auckland", "addr:housenumber": "948", "addr:postcode": "0632", "addr:street": "East Coast Road", "addr:suburb": "Northcross", "amenity": "hospital", "emergency": "yes", "healthcare": "hospital", "healthcare:speciality": "general", "name": "Shorecare Urgent Care Northcross"}}, {"type": "node", "id": 1105901054, "lat": -36.8733295, "lon": 174.7826042, "tags": {"amenity": "hospital", "healthcare": "hospital", "name": "Birthright"}}, {"type": "node", "id": 1302906872, "lat": -36.7790864, "lon": 174.7503478, "tags": {"amenity": "hospital", "healthcare": "hospital", "name": "Nile Road Medical Centre"}}, {"type": "node", "id": 1731477981, "lat": -38.0066514, "lon": 177.2859784, "tags": {"amenity": "hospital", "healthcare": "hospital", "name": "Opotiki Health Centre"}}, {"type": "node", "id": 2453640940, "lat": -37.2746868, "lon": 175.4956683, "tags": {"amenity": "hospital", "emergency": "no", "name": "Medical Centre"}}, {"type": "node", "id": 2909911890, "lat": -37.729418, "lon": 175.274785, "tags": {"amenity": "hospital", "name": "Hamilton Radiology - Rototuna Branch"}}, {"type": "node", "id": 3377492262, "lat": -39.0665278, "lon": 174.1021232, "tags": {"amenity": "hospital", "healthcare": "hospital", "name": "Merrilands Medical Centre"}}, {"type": "node", "id": 3659973200, "lat": -36.9876277, "lon": 174.8832649, "tags": {"amenity": "hospital", "healthcare": "hospital", "name": "Surgery South"}}, {"type": "node", "id": 3663904508, "lat": -36.8924792, "lon": 174.9297557, "tags": {"amenity": "hospital", "healthcare": "hospital", "name": "Picton Street Surgery"}}, {"type": "node", "id": 3683343748, "lat": -36.8737084, "lon": 174.782235, "tags": {"amenity": "hospital", "healthcare": "hospital", "name": "Auckland City Surgical Services Limited"}}, {"type": "node", "id": 3683343750, "lat": -36.8797205, "lon": 174.791678, "tags": {"amenity": "hospital", "healthcare": "hospital", "name": "Auckland Skin and Cancer Foundation"}}, {"type": "node", "id": 3683343758, "lat": -36.8814718, "lon": 174.7998924, "tags": {"amenity": "hospital", "healthcare": "hospital", "name": "Juilan Lofts and Zachary Moaveni Plastic Surgeons"}}, {"type": "node", "id": 3683343767, "lat": -36.8796782, "lon": 174.7913607, "tags": {"amenity": "hospital", "healthcare": "hospital", "name": "Plastic and Cosmetic Surgery"}}, {"type": "node", "id": 3736955622, "lat": -38.1514988, "lon": 176.2568204, "tags": {"amenity": "hospital", "name": "Open Home Foundation"}}, {"type": "node", "id": 3790910607, "lat": -37.707794, "lon": 176.1584077, "tags": {"amenity": "hospital", "name": "Surgical Specialists"}}, {"type": "node", "id": 3933065334, "lat": -35.7086312, "lon": 174.3196256, "tags": {"amenity": "hospital", "healthcare": "hospital", "name": "Kensington Hospital"}}, {"type": "node", "id": 4998200752, "lat": -36.7979477, "lon": 174.7006253, "tags": {"addr:city": "Auckland", "addr:housenumber": "166", "addr:postcode": "0626", "addr:street": "Birkdale Road", "addr:suburb": "Birkdale", "amenity": "hospital", "emergency": "no", "name": "Te Puna Hauora Health Clinic", "ref:linz:address_id": "1031619"}}, {"type": "node", "id": 5608333692, "lat": -37.742462, "lon": 176.1370835, "tags": {"addr:housenumber": "281", "addr:postcode": "3112", "addr:street": "Cheyne Road", "addr:suburb": "Pyes Pa", "amenity": "hospital", "name": "Bay Radiology", "opening_hours": "Mo-Fr 08:00-17:00", "phone": "+6475780273", "ref:linz:address_id": "1137731", "website": "https://bayradiology.co.nz/"}}, {"type": "node", "id": 7113172786, "lat": -35.7267743, "lon": 174.326356, "tags": {"amenity": "hospital", "healthcare": "hospital", "name": "White cross doctors"}}, {"type": "node", "id": 7633934475, "lat": -36.8359151, "lon": 174.6577853, "tags": {"amenity": "hospital", "name": "Saint Margaret's Hospital"}}, {"type": "node", "id": 8076406481, "lat": -35.3862809, "lon": 174.0693937, "tags": {"addr:city": "Kawakawa", "addr:housenumber": "21", "addr:postcode": "0210", "addr:street": "Hospital Road", "amenity": "hospital", "healthcare": "hospital", "name": "Bay of Islands Hospital", "operator": "Northland District Health Board"}}, {"type": "node", "id": 8076430787, "lat": -35.1188767, "lon": 173.2614801, "tags": {"addr:city": "Kaitaia", "addr:housenumber": "29", "addr:postcode": "0410", "addr:street": "Redan Road", "amenity": "hospital", "healthcare": "hospital", "name": "Kaitaia Hospital", "operator": "Northland District Health Board"}}, {"type": "node", "id": 10208490217, "lat": -37.7420459, "lon": 176.1360928, "tags": {"addr:housenumber": "335", "addr:postcode": "3112", "addr:street": "Cheyne Road", "amenity": "hospital", "name": "Grace Orthopaedic Centre", "opening_hours": "Mo-Fr 08:00-17:00", "phone": "+6475431856"}}, {"type": "way", "id": 24454775, "center": {"lat": -36.8733593, "lon": 174.7704551}, "nodes": [265782991, 265782992, 265782993, 265782995, 265782996, 265782998, 3296302969, 10586419541, 10586419542, 265782999, 3296302970, 3296302971, 10586419550, 265783000, 3296301002, 2097747346, 265782991], "tags": {"amenity": "hospital", "healthcare": "hospital", "name": "Mercy Ascot Hospital", "wikidata": "Q30270189"}}, {"type": "way", "id": 28771917, "center": {"lat": -36.8632302, "lon": 174.7700165}, "nodes": [316335346, 316335341, 4673705995, 4673705994, 10829465697, 10829465696, 4673705991, 10829465695, 10829465692, 10829465693, 10829465694, 4673705992, 4673705999, 4673706003, 3333758384, 10829465718, 259352624, 316335346], "tags": {"amenity": "hospital", "healthcare": "hospital", "name": "Cancer Society"}}, {"type": "way", "id": 32841838, "center": {"lat": -36.8874924, "lon": 174.8005227}, "nodes": [369969070, 2776331869, 2776331865, 2776331867, 1686540186, 369969071, 1903593195, 1903593186, 1903593202, 369969072, 2995281169, 2995281168, 369969073, 2776331870, 369969070], "tags": {"amenity": "hospital", "healthcare": "hospital", "name": "Ascot Hospital"}}, {"type": "way", "id": 32868818, "center": {"lat": -36.8597388, "lon": 174.770482}, "nodes": [5334533412, 10829465567, 9422311897, 9422311898, 9422311899, 9422311900, 9422311901, 10829465308, 10829459477, 10829459476, 10829459464, 259132920, 10829459465, 10829465327, 259132921, 10829459472, 3601970397, 49601931, 49601930, 49601927, 49601926, 10769905509, 49601924, 49601921, 49601920, 49601919, 9581985994, 9581985993, 259132923, 259132924, 9581985992, 259132925, 1667802283, 259132926, 921101291, 9581977353, 422695065, 927587513, 9581977346, 259132927, 259132928, 2584394524, 5334533410, 5334533411, 10829465570, 10829465569, 10829465568, 5334533412], "tags": {"addr:city": "Auckland", "addr:housenumber": "2", "addr:postcode": "1023", "addr:street": "Park Road", "addr:suburb": "Grafton", "amenity": "hospital", "beds": "1165", "emergency": "yes", "healthcare": "hospital", "name": "Auckland City and Starship Childrens Hospitals", "name:ja": "\u30aa\u30fc\u30af\u30e9\u30f3\u30c9\u5e02\u7acb\u75c5\u9662", "name:mi": "Te H\u014dhipera o T\u0101maki Makaurau", "wikidata": "Q4819504", "wikipedia": "en:Auckland City Hospital"}}, {"type": "way", "id": 39140651, "center": {"lat": -37.0233724, "lon": 174.8876561}, "nodes": [1302807524, 1302807764, 468453110, 1302807370, 468453111, 468453112, 1302807473, 1302807524], "tags": {"amenity": "hospital", "area": "yes", "healthcare": "hospital", "name": "Erin Park Rest Home and Hospital"}}, {"type": "way", "id": 45101020, "center": {"lat": -36.8695826, "lon": 174.6306761}, "nodes": [8377367440, 8377367443, 8377367441, 571796828, 7304587016, 976461009, 5991358621, 571796831, 571796832, 571796833, 571796834, 571796835, 4168532705, 571796836, 571796837, 707079267, 571796821, 571796822, 571796823, 571796824, 571796825, 8377372712, 976461010, 8377367440], "tags": {"addr:city": "Auckland", "addr:housenumber": "55-75", "addr:postcode": "0610", "addr:street": "Lincoln Road", "addr:suburb": "Henderson", "amenity": "hospital", "emergency": "yes", "healthcare": "hospital", "name": "Waitakere Hospital", "operator": "Waitemat\u0101 District Health Board", "operator:type": "public/government", "ref:linz:address_id": "982174", "wikidata": "Q7960449"}}, {"type": "way", "id": 57766322, "center": {"lat": -37.7078277, "lon": 176.1477798}, "nodes": [716351108, 716351113, 5674595423, 5674595492, 5674595424, 5674595497, 5674595425, 716351112, 5674595499, 5674595500, 5674595503, 5674595427, 5674595426, 5674593558, 5674593559, 5674595428, 716351105, 5674593560, 5674593561, 2312771516, 716351109, 716351111, 716351107, 716351108], "tags": {"amenity": "hospital", "emergency": "yes", "healthcare": "hospital", "name": "Tauranga Hospital", "wheelchair": "yes", "wikidata": "Q30281075"}}, {"type": "way", "id": 58379525, "center": {"lat": -36.781628, "lon": 174.7569805}, "nodes": [724020240, 4714882875, 854451424, 815924744, 3610477415, 8826628385, 815924782, 3610348487, 724020263, 724020265, 724020268, 31235384, 724020270, 31235383, 6615635667, 724020272, 724023505, 724023507, 8649455181, 8649455182, 10175198035, 10175198034, 8649455189, 8649455183, 10175198033, 724020278, 10175198032, 10175198031, 10582826577, 3574150770, 3574150780, 3574150783, 3574151200, 3574151193, 3574151208, 8649455176, 1307620596, 724020282, 8649455177, 8649455178, 3610348515, 724020284, 3610348511, 3610348509, 10675030357, 724020286, 815917079, 815917072, 3610348494, 10675030359, 3610348493, 724020240], "tags": {"addr:city": "Auckland", "addr:housenumber": "124", "addr:postcode": "0620", "addr:street": "Shakespeare Road", "addr:suburb": "Takapuna", "amenity": "hospital", "emergency": "yes", "healthcare": "hospital", "name": "North Shore Hospital", "name:mk": "\u0411\u043e\u043b\u043d\u0438\u0446\u0430 \u201e\u0421\u0435\u0432\u0435\u0440\u0435\u043d \u0411\u0440\u0435\u0433\u201c", "wheelchair": "yes", "wikidata": "Q14956766"}}, {"type": "way", "id": 66260556, "center": {"lat": -37.8086517, "lon": 175.7788905}, "nodes": [803472131, 803472171, 1507956056, 1507956053, 803472613, 803471755, 803472131], "tags": {"amenity": "hospital", "name": "Pohlen Hospital", "source": "LINZ & NZ Open GIS"}}, {"type": "way", "id": 79568229, "center": {"lat": -36.8736604, "lon": 174.7118551}, "nodes": [928536177, 422726479, 3838167184, 3838167182, 3838167181, 422726482, 422726484, 3838167176, 3838167160, 422726487, 422726464, 4462630849, 928536179, 928536181, 928536177], "tags": {"amenity": "hospital", "healthcare": "hospital", "name": "Buchanan Rehabilitation and Carrington Haemodialysis"}}, {"type": "way", "id": 87217449, "center": {"lat": -36.9567658, "lon": 174.8553017}, "nodes": [1014164571, 1014164576, 1014164581, 1014164578, 1014164568, 1014164574, 1014164573, 1297104987, 1014164567, 1014164569, 1014164579, 1014164570, 1014164572, 6907675617, 1014164571], "tags": {"addr:city": "Auckland", "addr:housenumber": "30", "addr:postcode": "2025", "addr:street": "Bairds Road", "amenity": "hospital", "email": "info@nzspinaltrust.org.nz", "healthcare": "hospital", "healthcare:speciality": "spinal_cord_impairments", "name": "Auckland Spinal Rehabilitation Unit", "phone": "+6492709070", "website": "https://nzspinaltrust.org.nz"}}, {"type": "way", "id": 87341103, "center": {"lat": -38.2309847, "lon": 175.8603696}, "nodes": [1015646396, 3014147285, 1015646221, 1015646083, 1015646198, 1015646396], "tags": {"amenity": "hospital", "healthcare": "hospital", "name": "Tokoroa Hospital"}}, {"type": "way", "id": 87894283, "center": {"lat": -37.5450642, "lon": 175.6968809}, "nodes": [1021540386, 1021540469, 1021540457, 1021540369, 1021540438, 1021540498, 1021540443, 1021540476, 1021540500, 1021540386], "tags": {"amenity": "hospital", "healthcare": "hospital", "name": "Te Aroha Community Hospital"}}, {"type": "way", "id": 90278285, "center": {"lat": -38.3336091, "lon": 175.153027}, "nodes": [1046796657, 1509408264, 1509408261, 1509408252, 1509408254, 1046796804, 7801921563, 3017815769, 1509408268, 1509408267, 1509408265, 1509408253, 1046796777, 1046796753, 1046796773, 1046796552, 1046796798, 1046796803, 1046796819, 1046796627, 1046796796, 1046796566, 1046796586, 1046796610, 1046796571, 1046796657], "tags": {"amenity": "hospital", "healthcare": "hospital", "name": "Te Kuiti Hospital"}}, {"type": "way", "id": 91381633, "center": {"lat": -36.9971775, "lon": 174.8837281}, "nodes": [1061494562, 8140279163, 773541863, 773541862, 8140279154, 773541861, 773541860, 1298281062, 773539538, 1298281111, 1061494444, 1061494520, 7166004665, 8584522820, 7166004666, 1061494407, 1061494562], "tags": {"amenity": "hospital", "healthcare": "hospital", "name": "Bethesda Home and Hospital"}}, {"type": "way", "id": 91381647, "center": {"lat": -37.0027477, "lon": 174.8813933}, "nodes": [1061495118, 1061494800, 1061495191, 7628866818, 1061494821, 1061494455, 8807961708, 7628870333, 1061495118], "tags": {"amenity": "hospital", "healthcare": "hospital", "name": "Hayman Home and Hospital"}}, {"type": "way", "id": 95011460, "center": {"lat": -38.6989105, "lon": 176.099181}, "nodes": [1102453856, 1102453731, 4856690796, 4856690795, 1102453620, 1102453599, 1102453681, 1102453855, 1102453764, 1102453775, 1102453689, 1102453619, 1102453760, 1102453633, 1102453705, 1102453856], "tags": {"amenity": "hospital", "name": "Taupo Hospital"}}, {"type": "way", "id": 96300971, "center": {"lat": -39.0418758, "lon": 177.4153302}, "nodes": [1116208739, 1116208687, 4619348073, 1116208798, 4619348068, 1116208689, 1116208809, 1116208892, 1116208747, 1116208900, 1116208739], "tags": {"amenity": "hospital", "name": "Wairoa Hospital"}}, {"type": "way", "id": 96928177, "center": {"lat": -38.63781, "lon": 178.0048213}, "nodes": [1123261043, 8462949422, 1123260910, 8462949421, 1123261203, 8462949420, 8462949419, 8462949418, 8462949417, 8462949416, 8462949415, 1123260951, 8462948928, 8462948927, 8462948925, 1123260874, 8462948924, 1123261123, 1123261052, 8462948922, 1123260914, 8462948921, 1123261224, 8462948725, 8462948726, 1123261087, 8462948727, 1123261016, 1123260942, 1123260867, 1123261112, 8462948728, 8462948729, 1123260984, 1123260904, 1123261166, 1123261079, 1123261145, 8462949271, 8462949270, 8462949269, 8462949268, 1123261071, 8462949263, 1123261043], "tags": {"addr:city": "Gisborne", "addr:housenumber": "421", "addr:postcode": "4010", "addr:street": "Ormond Road", "amenity": "hospital", "emergency": "yes", "healthcare": "hospital", "name": "Gisborne Hospital", "operator": "Tairawhiti District Health Board", "operator:type": "public", "source": "LINZ"}}, {"type": "way", "id": 102531615, "center": {"lat": -38.1583289, "lon": 176.2389187}, "nodes": [1184132336, 1184132391, 11301560491, 11301560492, 1184132374, 1184132418, 1184132304, 1184132336], "tags": {"amenity": "hospital", "healthcare": "hospital", "name": "Southern Cross Rotorua Hospital", "operator": "Southern Cross Hospitals", "operator:type": "private"}}, {"type": "way", "id": 102538087, "center": {"lat": -38.1319677, "lon": 176.2480871}, "nodes": [1509268402, 1509268555, 9090442822, 9090442821, 1184179459, 9090442817, 9090442818, 9090442820, 9090442819, 1509268549, 1184179255, 9090442812, 9090442810, 9090442809, 9090442808, 9090442811, 1184179272, 9090442751, 1184179418, 1184179442, 9100180398, 1184179312, 9100180399, 1184179352, 9090442752, 1184179252, 9100180397, 1509267814, 9100180396, 1184179260, 9100180395, 9100180375, 9100180394, 9100180393, 9090442768, 9100180376, 9100180377, 9090435082, 1184179265, 9090442774, 9090442773, 9090442777, 1184179301, 3480421035, 1184179452, 7808345015, 7808345014, 1184179351, 11107165812, 1509268401, 3480421295, 1509268406, 1509268407, 11107165811, 11107165820, 3480421325, 1184179425, 1509268402], "tags": {"addr:city": "Rotorua", "addr:housenumber": "1", "addr:postcode": "3040", "addr:street": "Pukeroa Street", "amenity": "hospital", "emergency": "yes", "healthcare": "hospital", "name": "Rotorua Hospital", "operator": "Lakes District Health Board", "wikidata": "Q30280754"}}, {"type": "way", "id": 102656013, "center": {"lat": -37.8053768, "lon": 175.2832454}, "nodes": [1185605926, 4894871246, 1185605928, 1185605929, 1185605930, 1185605931, 2470826076, 2470826071, 2470826068, 11085135707, 2470826074, 4894872277, 11085135706, 2470826070, 2470826072, 2470826073, 1185605935, 1185605936, 1894130984, 1185605940, 11085135887, 1185605943, 1801579433, 1185605946, 1185605949, 1185605950, 1185605951, 1185605952, 1185605953, 1185605955, 1185605956, 6075241051, 1185605959, 1185605961, 3617197104, 1185605965, 1185605968, 3617197183, 1185605969, 1185605970, 1185605926], "tags": {"amenity": "hospital", "emergency": "yes", "healthcare": "hospital", "healthcare:speciality": "emergency", "name": "Waikato Hospital", "url": "http://www.waikatodhb.govt.nz/", "wikidata": "Q7959998", "wikipedia": "en:Waikato Hospital"}}, {"type": "way", "id": 105451540, "center": {"lat": -39.6286525, "lon": 176.8253602}, "nodes": [1214644759, 1214644230, 1214644704, 1214644093, 1214644148, 1214644910, 1214644588, 1214644305, 2995618711, 3945048207, 4118021324, 1214644759], "tags": {"amenity": "hospital", "emergency": "yes", "name": "Hawkes Bay Hospital", "wikidata": "Q30279768"}}, {"type": "way", "id": 111681611, "center": {"lat": -39.072234, "lon": 174.0557707}, "nodes": [1271860992, 3753960988, 1271876362, 3754116250, 3754116244, 1271861305, 3753960959, 1271860952, 1271861347, 1271861154, 3753961129, 1271861365, 1271860781, 1271861448, 1271861004, 1271861023, 1271861463, 1271861403, 1271860901, 1271860725, 1271861098, 1271861330, 1271860877, 1271861225, 1271861072, 1271860992], "tags": {"amenity": "hospital", "healthcare": "hospital", "name": "Taranaki Base Hospital", "wikidata": "Q30281071"}}, {"type": "way", "id": 131646303, "center": {"lat": -36.8726855, "lon": 174.6270121}, "nodes": [1448643524, 1448643544, 1448643547, 1448643525, 1448643524], "tags": {"addr:housenumber": "20", "addr:street": "Lincoln Road", "addr:suburb": "Henderson", "amenity": "hospital", "healthcare": "hospital", "name": "Carnarvon Private Hospital", "ref:linz:address_id": "1326518"}}, {"type": "way", "id": 131929859, "center": {"lat": -38.0957157, "lon": 176.7053782}, "nodes": [1451326213, 1451326227, 1451326224, 1451326220, 7810776279, 7810776280, 7810776265, 1451326223, 7810776281, 1451326216, 1451326219, 1451326225, 1451326217, 1451326235, 1451326213], "tags": {"amenity": "hospital", "name": "Mountain View Rest Home"}}, {"type": "way", "id": 134490483, "center": {"lat": -36.8915196, "lon": 174.8156725}, "nodes": [781458519, 1145240363, 1145240350, 781451023, 10313861092, 1478638668, 10313861087, 781451018, 781451002, 781458519], "tags": {"amenity": "hospital", "emergency": "no", "healthcare": "hospital", "name": "Mercy Parklands Hospital & Retirement Home"}}, {"type": "way", "id": 135350074, "center": {"lat": -37.2175179, "lon": 174.9043133}, "nodes": [1486493393, 1486493363, 1486493397, 1486493400, 7357439117, 1486493393], "tags": {"amenity": "hospital", "healthcare": "hospital", "name": "Pukekohe Hospital"}}, {"type": "way", "id": 138099238, "center": {"lat": -37.9649443, "lon": 176.9770741}, "nodes": [1513967629, 1513967627, 1513967675, 3648915547, 1513967975, 1513967974, 1513967976, 1513967977, 3462598126, 3462598127, 6187169848, 6187169847, 1513967629], "tags": {"amenity": "hospital", "emergency": "yes", "healthcare": "hospital", "name": "Whakatane Hospital", "wikidata": "Q7990476"}}, {"type": "way", "id": 138361781, "center": {"lat": -35.4024014, "lon": 173.7944043}, "nodes": [1517005211, 1517005222, 1517005171, 1517005156, 1517005160, 1517005211], "tags": {"amenity": "hospital", "healthcare": "hospital"}}, {"type": "way", "id": 138365990, "center": {"lat": -35.3862941, "lon": 174.0692556}, "nodes": [3074487035, 7318136029, 3074487023, 3074487009, 3074486991, 3074486974, 3074486946, 1517078465, 3074486919, 7318136030, 3700526612, 3700526617, 3700526626, 3700526638, 1517078596, 1517078602, 1517078643, 1517078660, 1517078732, 7318136031, 1517078738, 1517078767, 1517078781, 1517078906, 1517078917, 1517078923, 1517078925, 1517078947, 1517078958, 3074487055, 3074487052, 7318136028, 3074487035], "tags": {"addr:city": "Kawakawa", "addr:postcode": "0210", "addr:street": "Hospital Road", "amenity": "hospital", "beds": "20", "healthcare": "hospital", "name": "Bay of Islands Hospital", "operator:type": "government", "phone": "+6494040280", "website": "https://www.northlanddhb.org.nz/our-services/our-hospitals/bay-of-islands-hospital-services/"}}, {"type": "way", "id": 138516497, "center": {"lat": -35.9287686, "lon": 173.8749082}, "nodes": [1518872054, 1518871949, 1518871908, 1518871821, 1518871827, 1518872027, 2900163509, 1518872057, 1518872079, 1518872054], "tags": {"amenity": "hospital", "name": "Dargaville Hospital"}}, {"type": "way", "id": 138915055, "center": {"lat": -38.0553239, "lon": 178.3051521}, "nodes": [1522938182, 1522938139, 1522938112, 1522938104, 1522938105, 1522938115, 1522938158, 1522938172, 1522938177, 1522938190, 1522938191, 1522938183, 1522938182], "tags": {"amenity": "hospital", "healthcare": "hospital", "name": "Te Puia Springs Hospital"}}, {"type": "way", "id": 138926581, "center": {"lat": -37.1363728, "lon": 175.5440652}, "nodes": [1523015657, 1523015645, 1523015647, 1523015653, 1523015655, 1523015656, 1523015654, 1523015649, 1523015568, 1523015538, 2328978967, 1523015533, 1523015535, 10682242469, 1523015546, 4869558019, 1523015549, 4869558223, 10682242468, 1523015556, 1523015566, 1523015589, 4867568176, 4867568177, 1523015657], "tags": {"amenity": "hospital", "name": "Thames Hospital"}}, {"type": "way", "id": 140619243, "center": {"lat": -35.4079045, "lon": 173.5061271}, "nodes": [1540320604, 1540320634, 1540320655, 1540320668, 1540320743, 1540320755, 1540320775, 1540320780, 1540320779, 1540320777, 1540320773, 1540320753, 1540320721, 1540320631, 1540320609, 1540320612, 7808051547, 1540320604], "tags": {"amenity": "hospital", "name": "Rawene Hospital"}}, {"type": "way", "id": 146243508, "center": {"lat": -36.8749187, "lon": 174.7063023}, "nodes": [1595237635, 1595237572, 1595237493, 5548709665, 8878559891, 8878559887, 1595237564, 11268905637, 11268905636, 11268905635, 1595237501, 265523396, 265523397, 265523398, 3117884280, 737239709, 3214910450, 10219377471, 5548709667, 7810954057, 1595237635], "tags": {"amenity": "hospital", "healthcare": "hospital", "name": "Mason Clinic", "operator": "Waitemat\u0101 District Health Board"}}, {"type": "way", "id": 147096924, "center": {"lat": -39.944108, "lon": 175.0372652}, "nodes": [1602859824, 1602859687, 10281936783, 1602859846, 1602859820, 1602859796, 1602859735, 1602859841, 10281979730, 10281979731, 1602859896, 3746834938, 10281979778, 3746834940, 4597674154, 4597674152, 10281936580, 1602859822, 10281936685, 10281936686, 1602859831, 10281936684, 10281936651, 10281936683, 10289203151, 1602859713, 10281936682, 1602859634, 10281936681, 1602859889, 10289203197, 10959307802, 10281936680, 10289203178, 1602859731, 1602859832, 10281979729, 1602859684, 1602859704, 1602859824], "tags": {"addr:city": "Whanganui", "addr:housenumber": "100", "addr:postcode": "4501", "addr:street": "Heads Road", "alt_name": "Whanganui Base Hospital", "amenity": "hospital", "building": "no", "emergency": "yes", "healthcare": "hospital", "name": "Whanganui Hospital", "name:en": "Whanganui Hospital", "opening_hours": "24/7", "operator": "Whanganui DHB", "operator:type": "public", "wikidata": "Q99540139"}}, {"type": "way", "id": 178450658, "center": {"lat": -38.8895785, "lon": 175.2519482}, "nodes": [1888012190, 1888012178, 1888012169, 1888012171, 1888012174, 1888012235, 1888012308, 1888012352, 5009183316, 5009183223, 1888012439, 5009182114, 1888012452, 1888012456, 1888012458, 5009183295, 5009183278, 1888012341, 1888012312, 1888012309, 8757530753, 1888012280, 1888012272, 8757530710, 1888012255, 1888012216, 1888012190], "tags": {"amenity": "hospital", "healthcare": "hospital", "name": "Taumarunui Hospital"}}, {"type": "way", "id": 180627495, "center": {"lat": -37.6451696, "lon": 175.5176612}, "nodes": [1910663996, 1910663989, 1910663987, 1809820851, 1809820883, 1910663996], "tags": {"amenity": "hospital", "name": "Rhoda Read Community Hospital"}}, {"type": "way", "id": 189508478, "center": {"lat": -36.8949171, "lon": 174.7800168}, "nodes": [94224106, 49587594, 111152258, 49587597, 10295761590, 10295761591, 94224107, 10125043377, 10125043376, 10125043375, 10125043374, 3008208695, 10125068260, 94224109, 3008208647, 3008208640, 94224110, 258931927, 2976654281, 94224106], "tags": {"amenity": "hospital", "healthcare": "hospital", "name": "Greenlane Clinical Centre", "wikidata": "Q30254256"}}, {"type": "way", "id": 191680239, "center": {"lat": -36.9240054, "lon": 174.7684768}, "nodes": [1227587209, 1227587235, 1227587241, 1227587198, 1227587237, 1227587234, 1227587209], "tags": {"amenity": "hospital", "healthcare": "nursing_home", "name": "Bupa Hillsborough Care Home", "operator": "BUPA"}}, {"type": "way", "id": 204222658, "center": {"lat": -35.6810246, "lon": 174.2948572}, "nodes": [2142430619, 1706588425, 1706588402, 2142430583, 2142430579, 2142430577, 2142430572, 2142430574, 2142430581, 2142430597, 2142430603, 2142430605, 2142430612, 2137068217, 1706591581, 1706588419, 2900656119, 2142430619], "tags": {"amenity": "hospital"}}, {"type": "way", "id": 204517661, "center": {"lat": -35.7361102, "lon": 174.30329}, "nodes": [2145176077, 2145176065, 3931753448, 2145175861, 2145175851, 2145175853, 2145175862, 2145175875, 2145175881, 3931753428, 1706589421, 3931753443, 1706589470, 1706589468, 1706589508, 2145176072, 2145176211, 2145176213, 2145176234, 2145176235, 2145176233, 2145176232, 1706589546, 1706589515, 2145176083, 2145176077], "tags": {"amenity": "hospital", "emergency": "yes", "healthcare": "hospital", "name": "Whangarei Hospital", "wikidata": "Q99537782"}}, {"type": "way", "id": 204906045, "center": {"lat": -36.7882173, "lon": 174.7001528}, "nodes": [1327284741, 1327284294, 1327284458, 1327284888, 1327284438, 2148860619, 1327284741], "tags": {"amenity": "hospital", "healthcare": "hospital", "name": "Beach Haven Hospital"}}, {"type": "way", "id": 204906049, "center": {"lat": -36.8042582, "lon": 174.7016337}, "nodes": [2148860908, 2148860906, 1327284718, 2148860891, 2148860900, 2148860905, 2148860908], "tags": {"addr:city": "Birkdale", "addr:housenumber": "23", "addr:postcode": "0626", "addr:street": "Gatman Street", "amenity": "hospital", "healthcare": "Aged Care", "name": "Te Mana Care Centre", "operator": "Oceania", "operator:type": "private", "phone": "+64 9 483 9209", "website": "https://oceaniahealthcare.co.nz/"}}, {"type": "way", "id": 223953013, "center": {"lat": -37.8013574, "lon": 174.8811226}, "nodes": [2327922555, 2327922544, 2327922532, 2327922477, 2327922497, 2327922518, 2327922540, 2327922555], "tags": {"amenity": "hospital", "name": "Wesleyhaven Hosptial"}}, {"type": "way", "id": 234401582, "center": {"lat": -37.8029042, "lon": 175.3168603}, "nodes": [2426599353, 2426599365, 3606204158, 2426599357, 2426599367, 2426599352, 2426599359, 2426599355, 2426599369, 2426599351, 3606204256, 2426599368, 2426599361, 2426599354, 6094014621, 6094014620, 6094014622, 2426599363, 2426599353], "tags": {"addr:housenumber": "334", "addr:street": "Cobham Drive", "addr:suburb": "Hillcrest", "amenity": "hospital", "emergency": "no", "healthcare": "hospital", "name": "Hospice Waikato", "ref:linz:address_id": "1314293"}}, {"type": "way", "id": 239860016, "center": {"lat": -36.878206, "lon": 174.8121326}, "nodes": [622650934, 3185757937, 3185757938, 622650936, 622650938, 622650941, 8114557234, 8114557236, 622650952, 8114557235, 9092929570, 9092929572, 622650956, 2476417574, 8114557233, 622650960, 8114557238, 8114557232, 622650962, 622650965, 2476417440, 2476417343, 2476417298, 622650974, 622650934], "tags": {"amenity": "hospital", "healthcare": "hospital", "name": "Caughey Smith Preston Hospital"}}, {"type": "way", "id": 288576401, "center": {"lat": -36.8886219, "lon": 174.8307517}, "nodes": [2921271484, 11147727973, 1970993619, 7810472207, 2921271481, 2921271482, 5455544815, 11147728006, 2921271480, 3077663392, 3077663391, 2921271483, 2921271476, 11147727978, 3077663389, 3077663390, 2921271484], "tags": {"addr:city": "Auckland", "addr:housenumber": "110", "addr:postcode": "1072", "addr:street": "Lunn Avenue", "addr:suburb": "Remuera", "amenity": "hospital", "building": "yes", "emergency": "yes", "healthcare": "hospital", "name": "White Cross Lunn Avenue", "operator": "T\u0101maki Health", "ref:linz:address_id": "1658335"}}, {"type": "way", "id": 290086635, "center": {"lat": -37.7653997, "lon": 175.2890448}, "nodes": [2936237434, 2936237440, 2936237480, 2936237478, 2936237434], "tags": {"amenity": "hospital", "healthcare": "hospital", "name": "Saint Joans Hospital"}}, {"type": "way", "id": 290778536, "center": {"lat": -37.7891503, "lon": 175.2903703}, "nodes": [2942843646, 2942843644, 2942843684, 2942843685, 2942843646], "tags": {"addr:housenumber": "21", "addr:street": "Von Temsky Street", "amenity": "hospital", "emergency": "no", "healthcare": "hospital", "name": "Southern Cross Hospital", "website": "https://hospitals.southerncross.co.nz/our-hospitals/hamilton.aspx"}}, {"type": "way", "id": 295303979, "center": {"lat": -36.8790786, "lon": 174.7711546}, "nodes": [2990136816, 2990137447, 2990137440, 2990136812, 2990136815, 2990136813, 2990136816], "tags": {"amenity": "hospital", "healthcare": "hospital", "name": "Brightside Hospital"}}, {"type": "way", "id": 295303980, "center": {"lat": -36.8811573, "lon": 174.7723788}, "nodes": [2990137477, 2990137450, 3281592510, 3281592511, 4029279821, 2990137477], "tags": {"amenity": "hospital", "healthcare": "hospital", "name": "Gillies Hospital"}}, {"type": "way", "id": 302729580, "center": {"lat": -39.3461759, "lon": 174.2694844}, "nodes": [3069993715, 3069993716, 3069993666, 3069993660, 3069993658, 5346178882, 3749180133, 3069993699, 3069993714, 3749180169, 3069993715], "tags": {"amenity": "hospital"}}, {"type": "way", "id": 302887250, "center": {"lat": -39.5872506, "lon": 174.2662954}, "nodes": [3071703371, 3071703362, 3071703292, 3071703304, 3071703371], "tags": {"amenity": "hospital", "wheelchair": "yes"}}, {"type": "way", "id": 310293243, "center": {"lat": -36.8861911, "lon": 174.7784764}, "nodes": [1230186588, 1230186584, 1230186595, 1230186613, 1230186602, 1230186607, 7810515256, 7810515257, 7810515258, 7810515259, 4081197494, 1230186592, 1230186600, 1406869209, 1230186588], "tags": {"amenity": "hospital", "healthcare": "hospital", "name": "Elizabeth Knox Home and Hospital", "name:etymology": "Elizabeth Knox", "name:etymology:wikidata": "Q5363083"}}, {"type": "way", "id": 319217983, "center": {"lat": -37.0557106, "lon": 174.9334922}, "nodes": [1241859525, 1071810171, 7672556322, 7672556323, 6280529823, 7672556324, 6590543359, 3256336104, 1241860711, 3256336965, 3256336984, 1241859525], "tags": {"amenity": "hospital", "healthcare": "hospital", "name": "Awhinatia Health Centre"}}, {"type": "way", "id": 319217985, "center": {"lat": -37.0563412, "lon": 174.9340229}, "nodes": [3256336997, 3256336984, 3256336965, 7672556321, 3256336974, 7672556305, 7801677159, 3256336992, 7672550079, 3256336997], "tags": {"amenity": "hospital", "emergency": "no", "healthcare": "hospital", "name": "Papakura Private Hospital"}}, {"type": "way", "id": 324441676, "center": {"lat": -36.7968448, "lon": 174.7543217}, "nodes": [3311669014, 3311669007, 1326252722, 9991886917, 9991886918, 3311668973, 9991886919, 9991874316, 10925873692, 3311668950, 10925873691, 9069672611, 10925873690, 9069672610, 3311668984, 3311669014], "tags": {"amenity": "hospital", "healthcare": "hospital", "name": "Northbridge Hospital"}}, {"type": "way", "id": 327559766, "center": {"lat": -37.5428448, "lon": 175.1661629}, "nodes": [3343582228, 3343582216, 3343582191, 3343616564, 3343616565, 3343616566, 3343616567, 3343616568, 3343616569, 3343616570, 3343616571, 3343616572, 3343582228], "tags": {"amenity": "hospital", "name": "Kimihia Resthome and Hospital"}}, {"type": "way", "id": 328516224, "center": {"lat": -36.7703781, "lon": 174.7325327}, "nodes": [1337832402, 3353449236, 3353449235, 6780285812, 887528073, 3278119654, 3353449281, 3353449280, 3353449279, 3353449278, 3353449284, 1337832685, 1337832022, 1337832267, 7409612834, 1337833055, 1337833290, 1337833279, 3353449283, 7409612846, 1337832492, 1337832739, 3353449264, 1337832879, 1337833111, 1337832402], "tags": {"amenity": "hospital", "healthcare": "hospital", "name": "Southern Cross Hospital"}}, {"type": "way", "id": 328928792, "center": {"lat": -36.9760663, "lon": 174.8618909}, "nodes": [1285584829, 1285584772, 3357487816, 3357487818, 1285584726, 9916182799, 7229779766, 1285584754, 1285584829], "tags": {"amenity": "hospital", "name": "Saint Christopher Hospital"}}, {"type": "way", "id": 329096756, "center": {"lat": -36.9832381, "lon": 174.8561438}, "nodes": [1264797623, 3359213338, 3359213339, 1264797421, 1264797131, 1264797623], "tags": {"amenity": "hospital", "emergency": "no", "name": "Papatoetoe Private Hospital"}}, {"type": "way", "id": 329569276, "center": {"lat": -36.827072, "lon": 174.6087025}, "nodes": [3364584193, 3364583591, 3364583581, 3364583572, 1312650437, 3364583570, 3364583564, 3364583550, 3364583551, 3364583546, 1312650367, 7307693047, 1312650451, 3364583557, 3364583559, 3364583560, 3364584193], "tags": {"amenity": "hospital", "name": "Amberwood Hospital and Rest Home"}}, {"type": "way", "id": 331023383, "center": {"lat": -36.9016179, "lon": 174.9204507}, "nodes": [1171910547, 3380740732, 5319746512, 3380740940, 1171910813, 3380740921, 3380740894, 3380740763, 1171910547], "tags": {"amenity": "hospital", "healthcare": "hospital", "name": "Howick Baptist Home and Hospital"}}, {"type": "way", "id": 331037741, "center": {"lat": -37.003641, "lon": 174.9170821}, "nodes": [3380868857, 1237108294, 1237107944, 1237107844, 1237108049, 1237108366, 3464952342, 806232963, 1237108104, 1237108466, 3380868857], "tags": {"amenity": "hospital", "healthcare": "hospital", "name": "T\u014dtara Hospice"}}, {"type": "way", "id": 331776991, "center": {"lat": -36.8738784, "lon": 174.7798899}, "nodes": [3365636965, 3388765643, 430558069, 3388765555, 3388765544, 3388765570, 430558067, 4405291896, 3388765656, 3365636965], "tags": {"amenity": "hospital", "healthcare": "hospital", "name": "Southern Cross Auckland Surgical Centre"}}, {"type": "way", "id": 334266629, "center": {"lat": -37.7756522, "lon": 175.2596947}, "nodes": [3413776143, 3413776146, 3612438091, 3413776155, 3226224623, 3226224580, 3413776187, 3413776177, 3413776148, 3413776143], "tags": {"addr:housenumber": "135", "addr:street": "Maeroa Road", "addr:suburb": "Maeroa", "amenity": "hospital", "landuse": "commercial", "name": "Radius Kensington Resthome & Hospital", "ref:linz:address_id": "672518", "website": "http://www.radiuscare.net.nz/"}}, {"type": "way", "id": 335307902, "center": {"lat": -36.8735431, "lon": 174.7803949}, "nodes": [3424279030, 3424279032, 3424279033, 3424279031, 3424279030], "tags": {"amenity": "hospital", "building": "yes", "healthcare": "hospital", "name": "Saint Marks Surgical Centre"}}, {"type": "way", "id": 341758274, "center": {"lat": -38.0727355, "lon": 176.7186994}, "nodes": [3488584130, 3488584133, 3488584145, 3488584144, 3488584130], "tags": {"access": "private", "amenity": "hospital", "building": "yes", "healthcare": "hospital"}}, {"type": "way", "id": 342470393, "center": {"lat": -36.6110049, "lon": 174.6982346}, "nodes": [3494707591, 3494707590, 3494707569, 3494707564, 3494707574, 3494707580, 3494707591], "tags": {"amenity": "hospital", "healthcare": "hospital", "name": "Northaven Hospital"}}, {"type": "way", "id": 353799484, "center": {"lat": -36.8267551, "lon": 175.7023218}, "nodes": [3596052305, 11097741065, 11097741066, 11097741067, 11097741068, 11097741069, 11132932188, 3596052315, 6197262103, 6197262104, 1682245984, 6197262099, 3596052034, 6197262100, 3596052033, 3596052032, 3596052039, 3596052037, 3596052038, 3596052035, 3596052081, 3596052305], "tags": {"amenity": "hospital", "healthcare": "hospital"}}, {"type": "way", "id": 355435464, "center": {"lat": -36.7797411, "lon": 174.7552114}, "nodes": [3610348483, 3610348452, 3316464329, 3610348443, 3610348435, 3610348457, 3610348483], "tags": {"amenity": "hospital", "healthcare": "hospital", "name": "Specialist Medical and Surgical Centre"}}, {"type": "way", "id": 360016084, "center": {"lat": -36.9693312, "lon": 174.8269723}, "nodes": [3646166495, 3646166469, 3646166436, 3646166421, 3646166398, 978717062, 3646166495], "tags": {"amenity": "hospital", "healthcare": "hospital", "name": "Parkhaven Hospital"}}, {"type": "way", "id": 361349866, "center": {"lat": -37.0112677, "lon": 174.8907613}, "nodes": [3658370819, 3658370806, 10096261509, 3658370799, 3658370810, 3658370819], "tags": {"amenity": "hospital", "healthcare": "hospital", "name": "Manurewa Lifecare Rest Home and Hospital"}}, {"type": "way", "id": 370526067, "center": {"lat": -39.6805753, "lon": 175.7950824}, "nodes": [3742203076, 3742203084, 3742203026, 3742203027, 3742203085, 3742203086, 3742202997, 3742202996, 3742202977, 3742202983, 3742202986, 3742202985, 3742203024, 3742203028, 3742203076], "tags": {"amenity": "hospital"}}, {"type": "way", "id": 372139260, "center": {"lat": -39.058609, "lon": 174.0635517}, "nodes": [3755230889, 3753980312, 3755230497, 3755230607, 3755230889], "tags": {"amenity": "hospital", "healthcare": "hospital", "name": "Southern Cross Hospital New Plymouth"}}, {"type": "way", "id": 375660685, "center": {"lat": -37.7424606, "lon": 176.1356687}, "nodes": [3790074244, 3790074243, 3790074241, 3683599923, 3683599795, 3683599663, 3683599787, 3790074206, 3790074229, 3790074231, 3790074234, 3790074237, 3790074245, 3790074244], "tags": {"addr:housenumber": "281", "addr:postcode": "3112", "addr:street": "Cheyne Road", "amenity": "hospital", "name": "Grace Hospital", "opening_hours": "24/7", "phone": "+6475775270"}}, {"type": "way", "id": 375877479, "center": {"lat": -37.6939222, "lon": 176.1429565}, "nodes": [3678704845, 3678704524, 3678704089, 3678704080, 3792176567, 3678704110, 3678704093, 3678704081, 3678704075, 3678704085, 3680075542, 3680075629, 3678704380, 3678704845], "tags": {"amenity": "hospital", "landuse": "grass"}}, {"type": "way", "id": 388983683, "center": {"lat": -36.1016163, "lon": 174.244422}, "nodes": [3921532369, 3921532352, 3921532338, 3921532358, 3921532368, 3921532373, 3921532393, 3921532391, 3921532385, 3921532379, 3921532375, 3921532369], "tags": {"amenity": "hospital"}}, {"type": "way", "id": 390147366, "center": {"lat": -35.6948443, "lon": 174.3123309}, "nodes": [3933066895, 3933066889, 3933066874, 3933066871, 3933066898, 3933066905, 3933066892, 3933066899, 3933066895], "tags": {"amenity": "hospital", "name": "Puriri Court Rest Home and Hospital"}}, {"type": "way", "id": 444102057, "center": {"lat": -37.0365256, "lon": 174.9271566}, "nodes": [4416011663, 4416011634, 9314484644, 9314484642, 9314484641, 9314484640, 9314484639, 9314484638, 8090122112, 4416011663], "tags": {"amenity": "hospital", "healthcare": "hospital", "landuse": "residential", "name": "Lady Elizabeth Home , Hospital and College"}}, {"type": "way", "id": 449022132, "center": {"lat": -37.8567648, "lon": 175.3914013}, "nodes": [4459893866, 4459893868, 4920071165, 4459893874, 4459893870, 4459893866], "tags": {"addr:housenumber": "28A", "addr:street": "Duncan Road", "amenity": "hospital", "emergency": "no", "headframe": "hospital", "healthcare:speciality": "psychiatry", "name": "Hauora Waikato Tamahere Hospital and Healing Centre"}}, {"type": "way", "id": 463176059, "center": {"lat": -39.0784709, "lon": 174.1091048}, "nodes": [3755682575, 3755682589, 4584697486, 4584697485, 4584697462, 4584697461, 3755682208, 3755682575], "tags": {"amenity": "hospital", "name": "Riverside Care Home and Hospital"}}, {"type": "way", "id": 463185334, "center": {"lat": -39.0665186, "lon": 174.0717024}, "nodes": [3755231936, 4584784480, 4584784479, 4584784478, 4584784477, 3755579954, 3755579968, 3755579967, 4584784476, 4584784475, 3755231795, 3755231825, 3755231838, 7948800487, 7948800488, 3755231892, 7948800489, 3755231933, 3755231936], "tags": {"amenity": "hospital", "healthcare": "hospital", "name": "Rhapsody Hospital and Rest Home"}}, {"type": "way", "id": 463185344, "center": {"lat": -39.0731896, "lon": 174.06167}, "nodes": [3753961249, 3753961186, 3753961175, 3753961158, 3753961171, 4584784574, 3753961188, 4584784575, 3753961229, 3753961249], "tags": {"amenity": "hospital", "healthcare": "hospital", "name": "Tainui Village Rest Home and Hospital"}}, {"type": "way", "id": 463199369, "center": {"lat": -39.0518737, "lon": 174.0826847}, "nodes": [3756694783, 3756694724, 3756694701, 3756694725, 3756694714, 3756694752, 3756694783], "tags": {"amenity": "hospital", "healthcare": "hospital", "name": "Chalmers Hospital"}}, {"type": "way", "id": 497997382, "center": {"lat": -37.79759, "lon": 175.2819492}, "nodes": [3602408897, 3602408692, 3602408679, 3602408663, 4894871257, 4894871256, 3602408897], "tags": {"amenity": "hospital", "healthcare": "hospital", "name": "Cascades Rest Home and Hospital"}}, {"type": "way", "id": 497997407, "center": {"lat": -37.807901, "lon": 175.2789843}, "nodes": [3617197232, 3617197214, 4894872294, 4894872290, 4894872289, 4894872288, 4894872287, 4894872286, 4894872285, 4894872284, 3617197232], "tags": {"addr:housenumber": "24", "addr:street": "Ohaupo Road", "amenity": "hospital", "emergency": "no", "healthcare": "hospital", "name": "Braemar Hospital", "website": "https://braemarhospital.co.nz/", "wikidata": "Q4955321"}}, {"type": "way", "id": 504135614, "center": {"lat": -36.8836946, "lon": 174.7396568}, "nodes": [4943367511, 4943367512, 4943367509, 4943367510, 4943367506, 4943367505, 4943367507, 4943367508, 4943367511], "tags": {"amenity": "hospital", "healthcare": "hospital", "landuse": "residential", "name": "Lexham Gardens Rest Home and Hospital"}}, {"type": "way", "id": 521424958, "center": {"lat": -36.8863012, "lon": 174.7104416}, "nodes": [5080681510, 5080681509, 5080681508, 5080681507, 431464320, 265535468, 5080682127, 265535469, 5080682125, 5080682126, 5080681506, 5080681503, 5080681505, 5080681504, 5080681510], "tags": {"amenity": "hospital", "landuse": "residential", "name": "Aranui Rest Home and Hospital"}}, {"type": "way", "id": 549517957, "center": {"lat": -38.0217125, "lon": 175.3333473}, "nodes": [5308138254, 5308138253, 5308138252, 5308138251, 5308138254], "tags": {"amenity": "hospital", "landuse": "residential", "name": "CHT Highfield Home and Hospital"}}, {"type": "way", "id": 596101594, "center": {"lat": -39.6413271, "lon": 176.8347627}, "nodes": [2997490025, 5679608366, 5679608367, 2997489987, 2997490025], "tags": {"amenity": "hospital", "healthcare": "hospital", "name": "Royston Private Hospital"}}, {"type": "way", "id": 702611695, "center": {"lat": -37.740239, "lon": 176.1262022}, "nodes": [6598227724, 6598227723, 6598227722, 6598227721, 6598227720, 6598227719, 6598227718, 6598227717, 6598227716, 6598227715, 6598227714, 6598227713, 6598227712, 6598227711, 6598227710, 6598227709, 6598227708, 6598227707, 6598227706, 6598227705, 6598227704, 6598227703, 6598227702, 6598227701, 6598227700, 6598227699, 6598227698, 6598399160, 6598227724], "tags": {"amenity": "hospital", "name": "Althorp Private Hospital"}}, {"type": "way", "id": 742369005, "center": {"lat": -36.9647856, "lon": 174.9052404}, "nodes": [6950063241, 6950063226, 6950063227, 3444559485, 6950063251, 6950063241], "tags": {"amenity": "hospital", "healthcare": "hospital"}}, {"type": "way", "id": 762747406, "center": {"lat": -37.0084551, "lon": 174.887831}, "nodes": [1302807661, 10198845308, 10198881550, 1302807739, 1302818142, 1302807813, 1302807688, 1302807766, 7127158768, 7127158769, 7127158770, 7127158771, 7127158772, 8795193285, 7127158773, 7127158781, 8792113124, 7127158780, 7127158779, 8792113130, 7127158776, 7127158777, 7127158778, 8792113133, 8792113134, 7127158775, 8493405908, 8493405909, 7127158774, 8791854695, 6694340550, 1302807661], "tags": {"amenity": "hospital", "healthcare": "hospital", "name": "Manukau SuperClinic"}}, {"type": "way", "id": 762752330, "center": {"lat": -36.9078989, "lon": 174.8533947}, "nodes": [1178858375, 1178858318, 10146880535, 10146880529, 1178858213, 1178858382, 7127233866, 1178858314, 1178858211, 10146880534, 10146880533, 1178858375], "tags": {"amenity": "hospital", "healthcare": "hospital", "name": "Radius Waipuna", "operator": "Radius Care"}}, {"type": "way", "id": 832516848, "center": {"lat": -36.7935222, "lon": 174.7483592}, "nodes": [7772565797, 7772565798, 8426766163, 7772565799, 9024095648, 9024095649, 7772565800, 8426766159, 7772565797], "tags": {"amenity": "hospital", "healthcare": "hospital"}}, {"type": "way", "id": 842893445, "center": {"lat": -36.8547359, "lon": 174.6323713}, "nodes": [4855100346, 7863196754, 7863196755, 4855100348, 4855100347, 4855100346], "tags": {"amenity": "hospital", "healthcare": "hospital", "name": "Waimarino (District Mental Health Services)"}}, {"type": "way", "id": 886342390, "center": {"lat": -36.6113609, "lon": 174.6971915}, "nodes": [8241662325, 8241662330, 8241662331, 8241662208, 8241662333, 11169278245, 8241662334, 11169278246, 8241662329, 8241662328, 8241662326, 11169278255, 8241662325], "tags": {"amenity": "hospital", "healthcare": "hospital"}}, {"type": "way", "id": 901479297, "center": {"lat": -36.847384, "lon": 174.7473293}, "nodes": [259593188, 10866859915, 10866859918, 10866859917, 10866859919, 10866859916, 8374241053, 2519491791, 2519491784, 2519491790, 259593188], "tags": {"amenity": "hospital", "healthcare": "hospice", "name": "Mercy Hospice Auckland"}}, {"type": "way", "id": 903330524, "center": {"lat": -37.245624, "lon": 174.7381237}, "nodes": [2971050405, 8389975422, 8389975423, 3362613620, 3457205207, 2971050405], "tags": {"amenity": "hospital", "healthcare": "hospital", "name": "Franklin Memorial Hospital"}}, {"type": "way", "id": 921938706, "center": {"lat": -35.1199024, "lon": 173.2621221}, "nodes": [3704230906, 8559168109, 8559168110, 8559168111, 3704230911, 3704230909, 3704230906], "tags": {"amenity": "hospital", "healthcare": "hospital", "healthcare:speciality": "psychiatry", "name": "Child & Youth Services Te Roopu Kimiora", "operator": "Kaitaia Hospital", "operator:type": "community"}}, {"type": "way", "id": 945887998, "center": {"lat": -36.9726282, "lon": 174.8046273}, "nodes": [8756587321, 8756587322, 8756587323, 8756587324, 288057491, 288057469, 4391248579, 1281393286, 8756587325, 8756587326, 8756587327, 8756587328, 8756587321], "tags": {"amenity": "hospital", "healthcare": "hospital", "name": "Hillcrest Hospital"}}, {"type": "way", "id": 951586434, "center": {"lat": -37.2080199, "lon": 174.9085688}, "nodes": [8807984703, 8807984704, 3412347820, 8807984705, 8807984703], "tags": {"amenity": "hospital", "healthcare": "hospital", "name": "Franklin Private Hospital", "opening_date": "2021-07"}}, {"type": "way", "id": 976136359, "center": {"lat": -36.8303481, "lon": 174.7954914}, "nodes": [9033395397, 9033395396, 9033395394, 9033395395, 9033395397], "tags": {"amenity": "hospital", "healthcare": "hospital"}}, {"type": "way", "id": 997057218, "center": {"lat": -35.1217344, "lon": 173.271454}, "nodes": [9206604632, 7663630523, 7663630522, 7663630521, 7663630520, 7663630519, 7663630518, 7663630517, 9206604633, 9206604634, 9206604635, 9206604636, 9206604637, 9206604638, 9206604639, 9206604640, 3704231025, 3704230967, 9206604641, 9206604632], "tags": {"amenity": "hospital", "healthcare": "hospital", "name": "Claud Switzer Residential Care"}}, {"type": "way", "id": 1009231138, "center": {"lat": -36.7490726, "lon": 174.7286567}, "nodes": [9311828278, 9311828333, 9311828339, 9311828338, 9311828340, 9311828358, 9311828359, 9311828360, 5947875668, 9311828299, 9311828361, 9311828278], "tags": {"amenity": "hospital", "emergency": "yes", "healthcare": "hospital"}}, {"type": "way", "id": 1055576348, "center": {"lat": -36.675465, "lon": 174.4513389}, "nodes": [1317088815, 9699479088, 9699479089, 9699479090, 1317088573, 1317088907, 1317088147, 1317088815], "tags": {"amenity": "hospital", "healthcare": "hospital"}}, {"type": "way", "id": 1082443871, "center": {"lat": -36.9224016, "lon": 174.91373}, "nodes": [1176848307, 9920300582, 10818904625, 10818904534, 10818904533, 10818904532, 3380762855, 10818904577, 9920300594, 1176848307], "tags": {"amenity": "hospital", "healthcare": "hospital", "name": "Botany SuperClinic"}}, {"type": "way", "id": 1096949371, "center": {"lat": -36.9023342, "lon": 174.6927401}, "nodes": [574087551, 10044624242, 10044624243, 562660461, 562660511, 1133622940, 574087555, 574087551], "tags": {"amenity": "hospital", "healthcare": "hospital"}}, {"type": "way", "id": 1106498740, "center": {"lat": -39.6273565, "lon": 176.8225007}, "nodes": [10125372217, 10125372218, 10125372219, 10125372220, 10125238110, 10125238111, 10125238112, 10125238109, 10125238113, 10125238114, 10125238115, 10125238116, 10125372221, 10125372222, 10125372223, 10125372224, 10125372217], "tags": {"amenity": "hospital", "healthcare": "hospital", "name": "Kaweka Hospital"}}, {"type": "way", "id": 1117308169, "center": {"lat": -39.5873283, "lon": 174.2800056}, "nodes": [3748743037, 10219174294, 10219174295, 3748743095, 3748743047, 3748743039, 10219174293, 3748743046, 3748743037], "tags": {"amenity": "hospital", "healthcare": "hospital"}}, {"type": "way", "id": 1135662270, "center": {"lat": -36.8728269, "lon": 174.7696196}, "nodes": [10586419543, 10586419544, 10586419549, 10586419548, 10586419547, 10586419545, 10586419546, 265783000, 10586419550, 3296302971, 3296302970, 10586419543], "tags": {"amenity": "hospital", "healthcare": "hospital"}}, {"type": "way", "id": 1159345938, "center": {"lat": -36.401081, "lon": 174.6541835}, "nodes": [10781349715, 10781349717, 6622363406, 6622363407, 10781349713, 10781349714, 10781349715], "tags": {"amenity": "hospital", "healthcare": "hospital"}}, {"type": "way", "id": 1211533939, "center": {"lat": -39.5000839, "lon": 176.9114675}, "nodes": [2977273470, 11224571454, 11224571455, 11224571456, 11224571457, 4297696136, 4297696101, 11224571458, 11224571459, 11224571460, 2977273479, 2977273470], "tags": {"amenity": "hospital", "healthcare": "hospital", "name": "Springhill Rehabilitation Centre"}}, {"type": "way", "id": 1211533940, "center": {"lat": -39.4955085, "lon": 176.9132646}, "nodes": [2324962122, 3762137755, 11224571463, 11224571464, 11224571465, 11224571466, 11224571467, 11224571468, 11224571469, 4285823622, 2324962122], "tags": {"amenity": "hospital", "healthcare": "hospital", "name": "Napier Health Centre"}}, {"type": "way", "id": 1212962569, "center": {"lat": -38.13315, "lon": 176.2563442}, "nodes": [11237621918, 11237621924, 11237621925, 11237621926, 11237621927, 11237621928, 11237621929, 11237621923, 11237621922, 11237621930, 11237621931, 7967501530, 11237733037, 11237621936, 11237621919, 11237621918], "tags": {"amenity": "hospital", "healthcare": "hospital", "landuse": "commercial", "name": "QE Health"}}, {"type": "relation", "id": 10904431, "center": {"lat": -35.1192454, "lon": 173.2607014}, "members": [{"type": "way", "ref": 128573996, "role": "outer"}, {"type": "way", "ref": 784576246, "role": "outer"}], "tags": {"addr:city": "Kaitaia", "addr:housenumber": "29", "addr:postcode": "0410", "addr:street": "Redan Road", "amenity": "hospital", "beds": "26", "emergency": "yes", "healthcare": "hospital", "name": "Kaitaia Hospital", "phone": "+6494089180", "type": "multipolygon", "website": "https://www.northlanddhb.org.nz/our-services/our-hospitals/kaitaia-hospital-services/"}}, {"type": "relation", "id": 11501294, "center": {"lat": -36.779943, "lon": 174.7563304}, "members": [{"type": "way", "ref": 516065651, "role": "outer"}, {"type": "way", "ref": 836878274, "role": "inner"}, {"type": "way", "ref": 836878273, "role": "inner"}], "tags": {"amenity": "hospital", "building": "yes", "emergency": "no", "healthcare": "hospital", "name": "He Puna Waiora Mental Health Unit", "old_name": "North Shore Dialysis Centre", "type": "multipolygon"}}, {"type": "relation", "id": 13239497, "center": {"lat": -36.9640946, "lon": 174.8413509}, "members": [{"type": "way", "ref": 8673907, "role": "outer"}, {"type": "way", "ref": 985114678, "role": "outer"}], "tags": {"addr:city": "Auckland", "addr:housenumber": "100", "addr:postcode": "2025", "addr:street": "Hospital Road", "addr:suburb": "M\u0101ngere-\u014ct\u0101huhu", "amenity": "hospital", "emergency": "yes", "healthcare": "hospital", "name": "Middlemore Hospital", "type": "multipolygon", "wikidata": "Q6841819", "wikipedia": "en:Middlemore Hospital"}}]}