{"version": 0.6, "generator": "Overpass API 0.7.61.5 4133829e", "osm3s": {"timestamp_osm_base": "2023-10-31T20:47:26Z", "copyright": "The data included in this document is from www.openstreetmap.org. The data is made available under ODbL."}, "elements": [{"type": "node", "id": 1076940681, "lat": -32.0968936, "lon": 28.8799336, "tags": {"addr:city": "Eastern Cape", "addr:housenumber": "1", "addr:street": "Mqanduli", "amenity": "hospital", "emergency": "yes", "healthcare": "hospital", "name": "Madwaleni Hospital", "wikidata": "Q6728874"}}, {"type": "node", "id": 1076946040, "lat": -32.174861, "lon": 28.8757777, "tags": {"amenity": "hospital", "healthcare": "hospital", "name": "Hobeni Clinic"}}, {"type": "node", "id": 1904552955, "lat": -31.317419, "lon": 28.7773096, "tags": {"amenity": "hospital", "emergency": "yes", "healthcare": "hospital", "name": "Dr Malizo Mpehle Memorial"}}, {"type": "node", "id": 6382556385, "lat": -33.9580572, "lon": 22.4579427, "tags": {"addr:city": "George", "addr:housenumber": "112", "addr:postcode": "6529", "addr:street": "York Street", "amenity": "hospital", "healthcare": "hospital", "healthcare:speciality": "medical_test;clinical_laboratory", "name": "Pathcare George", "operator": "Pathcare", "operator:type": "private"}}, {"type": "node", "id": 7341728796, "lat": -31.2930077, "lon": 25.8120438, "tags": {"addr:city": "Steynsburg", "addr:housenumber": "1", "addr:postcode": "5920", "addr:street": "Henning Street", "amenity": "hospital", "emergency": "yes", "fax": "+27 (0)48 884 0343", "healthcare": "hospital", "healthcare:speciality": "emergency_department;maternity;out_patients_department;surgical_services;medical_services;pharmacy;anti-retroviral_(arv)_treatment_for_hiv/aids;oral_health_care_provides;physiotherapy", "name": "Steynsburg Hospital", "operator": "Eastern Cape Department Of Health", "operator:type": "government", "phone": "+27 (0)48 884 0241"}}, {"type": "node", "id": 7896380488, "lat": -32.7737012, "lon": 26.6260359, "tags": {"amenity": "hospital", "healthcare": "hospital", "healthcare:speciality": "psychiatry;anti-retroviral_treatment_services_(arvs);pharmacy_services;post_trauma_counselling_services;rehabilitation_centre", "name": "Tower Psychiatric Hospital", "operator": "Eastern Cape Health Department", "operator:type": "government", "phone": "+27466451122"}}, {"type": "node", "id": 9651271590, "lat": -34.0368478, "lon": 23.058464, "tags": {"addr:city": "Knysna", "addr:postcode": "6571", "amenity": "hospital", "contact:phone": "+27 44 302 8400", "emergency": "yes", "healthcare": "hospital", "healthcare:speciality": "gynaecology;general;paediatrics;maternity", "name": "Knysna Provincial Hospital", "operator": "Knysna Provincial Hospital", "operator:type": "public"}}, {"type": "node", "id": 10232837517, "lat": -33.9698616, "lon": 25.5604539, "tags": {"addr:housenumber": "52", "addr:street": "Alan Drive", "amenity": "hospital", "contact:facebook": "Aurora-Special-Care-Stimulation-Centre-402657706430535", "email": "gm@aurorasa.co.za", "name": "Aurora", "name:en": "Aurora Special Care Centre", "phone": "0413686180", "website": "https://aurorasa.co.za/"}}, {"type": "way", "id": 4835995, "center": {"lat": -33.9577778, "lon": 25.5997699}, "nodes": [31103282, 443718244, 31103273, 31103274, 31103275, 9443460371, 9443460370, 9443460372, 31103276, 31103278, 31103279, 443718243, 31103280, 332156405, 31103281, 31103282], "tags": {"addr:city": "Gqeberha", "addr:postcode": "6001", "addr:street": "Buckingham Road", "amenity": "hospital", "beds": "450", "contact:phone": "+27 41 392 3911", "emergency": "yes", "healthcare": "hospital", "healthcare:speciality": "hiv/aids;emergency;maternity;general;ostetrics/gynecology;ophthalmology;paediatrics;pharmacy;physiotherapy;radiology;pathology", "name": "Port Elizabeth Provincial Hospital", "operator": "Eastern Cape Department of Health", "wikidata": "Q7230608"}}, {"type": "way", "id": 27613090, "center": {"lat": -33.8767342, "lon": 25.559996}, "nodes": [303208404, 303208405, 303208406, 303208407, 303208408, 303208409, 303208410, 303208411, 303208412, 303208413, 7609754279, 303208414, 303208415, 7609754280, 303208416, 303208417, 303208418, 303208419, 303208420, 303208404], "tags": {"addr:city": "iBhayi", "addr:street": "Spondo Street", "amenity": "hospital", "beds": "570", "contact:phone": "041 406 4111", "emergency": "yes", "fax": "041 464 4683", "healthcare": "hospital", "healthcare:speciality": "anti-retroviral_treatment_services_(arvs);gynaecology_services;maternity_services;o.p.d._services;occupational_services;paediatrics;pharmacy_services;physiotherapy;post_trauma_counselling_services;surgical_services;x-ray_services", "name": "Dora Nginza Hospital", "wikidata": "Q5297438"}}, {"type": "way", "id": 30177297, "center": {"lat": -33.7409058, "lon": 25.4068725}, "nodes": [332522777, 7034035369, 7034035367, 7034035366, 332522778, 332522779, 7488049138, 7488049139, 332522780, 332522781, 7488049140, 7488049141, 332522782, 7034035370, 7488049142, 332522783, 7034035371, 332522784, 7488049143, 7034035372, 7034035365, 7034035364, 332522785, 7488049144, 7488049145, 7034035363, 332522786, 7488049146, 7488049147, 7488049148, 7034035362, 7488049150, 7488049149, 7488049151, 7488049137, 7488049152, 7034035360, 7488049153, 7488049155, 7488049154, 7034035368, 7488049156, 7488049157, 7488049158, 332522777], "tags": {"addr:city": "Kariega", "addr:housenumber": "36", "addr:postcode": "6230", "addr:street": "Channer Street", "amenity": "hospital", "beds": "223", "emergency": "yes", "healthcare": "hospital", "healthcare:speciality": "emenrgency_services;gynaecology;icu_&_renal_unit;physiotherapy;paediatrics;x-ray_services;arv's;surgical_services;maternity_services;laboratory_services;occupational_services;rape_crisess;o.p.d_services;social_work", "name": "Uitenhage Provincial Hospital", "operator": "Eastern Cape Delartment of Health", "operator:type": "public"}}, {"type": "way", "id": 30695929, "center": {"lat": -33.9796552, "lon": 25.6263222}, "nodes": [339440271, 339440275, 339440284, 339440324, 339440297, 339440304, 339440309, 339440314, 339440271], "tags": {"addr:city": "Gqeberha,Florest Hill", "addr:housenumber": "1", "addr:postcode": "6001", "addr:street": "La Roche Drive", "amenity": "hospital", "emergency": "no", "fax": "+27 (0)41 585 7143", "healthcare": "hospital", "healthcare:speciality": "anti-retroviral_treatment_services_(arvs);kitchen_services;occupational_services;psychiatry", "name": "Elizabeth Donkin Psychiatric Hospital", "operator": "Department Of Health Eastern Cape", "operator:type": "government", "phone": "+27 41 506 6100"}}, {"type": "way", "id": 90456519, "center": {"lat": -33.8924396, "lon": 25.4692411}, "nodes": [1049562897, 1049563097, 1049563008, 1049562849, 9183837256, 9183837257, 9183837258, 1049562918, 1049562897], "tags": {"addr:city": "Port Elizabeth (Gqeberha)", "addr:postcode": "1820", "addr:street": "Mission Road", "amenity": "hospital", "healthcare": "hospital", "healthcare:speciality": "tuberculosis", "name": "Josie Pearson TB Hospital", "operator": "Eastern Cape Department of Health", "operator:type": "government", "operator:wikidata": "Q116648805"}}, {"type": "way", "id": 104541680, "center": {"lat": -31.6324438, "lon": 29.5457111}, "nodes": [1206263949, 1206263965, 1206264058, 1206263933, 1206264003, 1206263983, 1206264005, 1206263969, 1206264049, 1206263922, 1206263998, 1206263925, 1206263949], "tags": {"amenity": "hospital", "healthcare": "hospital"}}, {"type": "way", "id": 104845508, "center": {"lat": -31.587743, "lon": 28.7646348}, "nodes": [1209206881, 1209206874, 4439598279, 4439598280, 4439598278, 4439598277, 4439598276, 4439598275, 4439598274, 4439598273, 4439598272, 4439598271, 4439598270, 4439598269, 1209206869, 4439598268, 4439598267, 4439598266, 4439598265, 4439598264, 4439598263, 4439598262, 4439598259, 4439598260, 4439598261, 4439598258, 4439598254, 4439598257, 4439598256, 4439598255, 4439598252, 4439598253, 4439598250, 4439598251, 4439598249, 4439598248, 1209206877, 6151861954, 4439598247, 4439598246, 4439598245, 4439598244, 4439598243, 4439598242, 4439598241, 1209206881], "tags": {"addr:city": "Mthatha, Eastern Cape", "addr:street": "Nelson Mandela Drive", "amenity": "hospital", "beds": "512", "emergency": "yes", "healthcare": "hospital", "healthcare:speciality": "anti-retroviral_(arv)_treatment_for_hiv/aids;gynaecology_services;maternity_services;obstetrics/gynaecology;occupational_services;operating_theatre_&_cssd_services;ophthalmology_out-patients_clinic;pae;physiotherapy;post_trauma_counse;surgical_services;tb", "name": "Nelson Mandela Academic Hospital", "wikidata": "Q6990620"}}, {"type": "way", "id": 105443315, "center": {"lat": -31.8086593, "lon": 29.066563}, "nodes": [1214571669, 1214571674, 1214571666, 1214571673, 1214571670, 1214571672, 1214571668, 1214571671, 1214571669], "tags": {"amenity": "hospital", "barrier": "fence", "beds": "140", "healthcare": "hospital", "healthcare:speciality": "paediatrics;gynaecology", "name": "Canzibe Hospital", "wikidata": "Q5034269"}}, {"type": "way", "id": 105465651, "center": {"lat": -31.4659594, "lon": 29.1705787}, "nodes": [1214766762, 1214766759, 1214766763, 1214766760, 1214766762], "tags": {"addr:city": "Libode Village", "addr:postcode": "5160", "amenity": "hospital", "healthcare": "hospital", "name": "Libode Clinic", "operator": "Eastern Cape department of Health", "operator:type": "public"}}, {"type": "way", "id": 106314020, "center": {"lat": -31.5336944, "lon": 28.6782028}, "nodes": [1223642923, 1223642896, 1223642942, 1223643011, 1223642923], "tags": {"addr:city": "Mthata", "addr:housenumber": "9", "addr:postcode": "5099", "addr:street": "Park Road", "amenity": "hospital", "barrier": "fence", "contact:phone": "087 310 8310", "emergency": "yes", "healthcare:speciality": "maternity;general;emergency;chronic", "name": "Ntshabeni Clinic"}}, {"type": "way", "id": 106331609, "center": {"lat": -31.5910728, "lon": 28.7850575}, "nodes": [1223728643, 1223728637, 1223728639, 1223728636, 1223728643], "tags": {"addr:city": "Mthatha", "addr:housenumber": "30", "addr:postcode": "5100", "addr:street": "Durham Road", "amenity": "hospital", "email": "Bulelwa.qotoyi@lifehealthcare.co.za", "emergency": "yes", "healthcare": "hospital", "healthcare:speciality": "family_medicine;dermatology;neurosurgery;ent_surgery;general_surgery;gynaecology;https://www.lifehealthcare.co.za/hospitals/eastern-cape/mthatha/life-st-marys-private-hospital/#:~:text=gynaecology-;internal%20medicine;-obstetrics;obstetrics;ophthalmology", "name": "Life St Mary`s Private Hospital", "operator": "Life Health Care", "operator:type": "private", "operator:wikidata": "Q6458636", "phone": "047 505 5600"}}, {"type": "way", "id": 106622389, "center": {"lat": -31.3775763, "lon": 27.0480839}, "nodes": [1226591374, 1226591375, 1226591371, 1226591383, 1226591374], "tags": {"addr:city": "Dordrecht, Chris Hani District Municipality", "addr:housenumber": "1", "addr:street": "Klip Sreet", "amenity": "hospital", "barrier": "fence", "contact:phone": "+27 459431245;+27 835284246", "healthcare": "hospital", "healthcare:speciality": "maternity;chronis_disease_management", "name": "Dordrecht Clinic", "operator": "Eastern Cape department of Health", "operator:type": "public"}}, {"type": "way", "id": 106644802, "center": {"lat": -30.9682719, "lon": 27.5869111}, "nodes": [1226768918, 1226768920, 1226768957, 1226768972, 1226768918], "tags": {"addr:city": "Barkly East,Eastern Cape", "addr:housenumber": "1", "addr:postcode": "9786", "addr:street": "Voortrekker Street", "amenity": "hospital", "contact:phone": "(0)45 971 0091 / 59", "emergency": "yes", "fax": "+27 (0)45 971 0193", "healthcare": "hospital", "healthcare:speciality": "emergency_services;medical_services;o.p.d._services;paediatrics;surgical_services", "name": "Cloete Joubert Hospital", "website": "https://www.echealth.gov.za/", "wheelchair": "yes", "wikidata": "Q5134872", "wikipedia": "en:Cloete Joubert Hospital"}}, {"type": "way", "id": 106768315, "center": {"lat": -30.533569, "lon": 27.3745715}, "nodes": [1227913989, 1227914006, 1227914008, 1227914010, 1227914003, 1227913990, 1227914013, 1671751294, 1227913989], "tags": {"addr:city": "Sterkspruit, Eastern Cape", "addr:housenumber": "937", "addr:postcode": "9762", "addr:street": "Main Stree", "amenity": "hospital", "barrier": "fence", "beds": "93", "emergency": "yes", "fax": "+27 (0)51 611 1048", "healthcare": "hospital", "healthcare:speciality": "anti-retroviral_treatment_services_(arvs);emergency_services;kitchen_services;laboratory_services;laundry_services;maternity_services;medical_services;o.p.d._services;operating_theatre_&_cssd_services;paediatrics;pharmacy_services;physiotherapy;surgical_s", "name": "Empilisweni Hospital", "operator": "Eastern Cape Department Of Health", "operator:type": "government", "phone": "+27 (0)51 611 0037 / 0039", "wikipedia": "en:Empilisweni District Hospital"}}, {"type": "way", "id": 107947191, "center": {"lat": -32.2677094, "lon": 24.5559344}, "nodes": [1239539202, 1239539196, 1239539197, 1239539195, 1239539202], "tags": {"addr:city": "Bree Street, Santaville, Graaff-Reinet, Eastern Cape,", "addr:postcode": "6280", "amenity": "hospital", "barrier": "fence", "contact:phone": "+27 (0)49 893 0031", "healthcare": "hospital", "healthcare:speciality": "chronic_disease_management;anti-retroviral_treatment_services_(arvs);tb_services", "name": "Margery Parkes SANTA Hospital", "operator": "Eastern Cape department f Health", "operator:type": "public", "service_times": "Mo-Su 08:00-21:00"}}, {"type": "way", "id": 136192282, "center": {"lat": -31.591964, "lon": 28.774145}, "nodes": [1210170304, 1494329124, 1494329122, 1494329104, 1494328953, 1210170304], "tags": {"addr:city": "Mthatha", "addr:postcode": "5099", "addr:street": "Blakeway Road", "alt_name": "Mthatha General Hospital", "amenity": "hospital", "emergency": "yes", "fax": "+27 (0)47 502 4968", "healthcare": "hospital", "healthcare:speciality": "gynaecology_services;kitchen_services;laundry_services;dentistry;maternity_services;obstetrics/gynaecology;occupational_services;paediatrics;pharmacy_services;physiotherapy;post_trauma_counselling_services;tb_services;x-ray_services", "name": "Umtata General Hospital", "phone": "+27 (0)47 502 4432 / 3", "source": "Bing", "wikidata": "Q6930441"}}, {"type": "way", "id": 142266173, "center": {"lat": -33.8080314, "lon": 25.398206}, "nodes": [1557142011, 1557142009, 1557142010, 1557142013, 1557142012, 1557142011], "tags": {"addr:city": "KwaNobuhle", "addr:housenumber": "19099", "addr:street": "Matanzima Road", "amenity": "hospital", "contact:phone": "+27 41 978 0711", "healthcare": "hospital", "name": "Letitia Bam"}}, {"type": "way", "id": 142337628, "center": {"lat": -33.9089881, "lon": 25.5857563}, "nodes": [1557907725, 1557907732, 1738439323, 1557907734, 1738439320, 1557907741, 1557907736, 1738439304, 1557907743, 1557907725], "tags": {"addr:city": "iBhayi", "addr:street": "Mati Road", "amenity": "hospital", "barrier": "wall", "healthcare": "hospital", "layer": "1", "name": "Empilweni Hospital"}}, {"type": "way", "id": 154338092, "center": {"lat": -32.8281536, "lon": 27.4550665}, "nodes": [1668851474, 1668851327, 1668851569, 1668851623, 1668851607, 1668851384, 1668851472, 1668851492, 2276337602, 2276337600, 1668851440, 1668851474], "tags": {"addr:city": "Bisho", "addr:postcode": "5605", "addr:street": "komga Road", "amenity": "hospital", "contact:phone": "+27 (0)40 635 2958", "emergency": "yes", "fax": "+27 (0)40 635 2848", "healthcare": "hospital", "healthcare:speciality": "emergency;paediatric;maternity;gynaecology;surgical;medical;operating_theatre;pharmacy;hiv/aids;physiotherapy;laboratory;x-ray;general", "name": "Bhisho Provincial Hospital", "wheelchair": "yes", "wikidata": "Q4901831", "wikipedia": "en:Bhisho Provincial Hospital"}}, {"type": "way", "id": 213720592, "center": {"lat": -33.9571969, "lon": 22.4564929}, "nodes": [2233742642, 2233742641, 2233742670, 2233742687, 2233742674, 2233742652, 2233742644, 2233742642], "tags": {"addr:city": "George", "addr:postcode": "6530", "addr:street": "Cnr Gloucester & York Street", "amenity": "hospital", "contact:phone": "+27 44 803 2000", "emergency": "yes", "healthcare": "hospital", "name": "Mediclinic George", "old_name": "Lamprecht Clinic", "opening_hours": "24/7", "operator": "Mediclinic", "operator:type": "private", "operator:wikidata": "Q1916123"}}, {"type": "way", "id": 215313904, "center": {"lat": -32.9486694, "lon": 27.938968}, "nodes": [2247209643, 2247209644, 2247209645, 2247209646, 2247209647, 2247209648, 2247209649, 2247209650, 2247209651, 2247209652, 2247209653, 2247209654, 2247209655, 2247209656, 2247209657, 2247209658, 2247209659, 2247209660, 2247209661, 2247209662, 2247209663, 2247209664, 2247209665, 2247209666, 2247209667, 2247209668, 2247209669, 2247209670, 2247209671, 2247209672, 2247209673, 2247209674, 2247209643], "tags": {"addr:city": "Beacon Bay, East London", "addr:housenumber": "32", "addr:postcode": "5205", "addr:street": "Quenera Drive", "amenity": "hospital", "beds": "165", "building": "yes", "contact:phone": "+27 43 711 5100", "emergency": "yes", "healthcare": "hospital", "healthcare:speciality": "clinical_haematology;general_surgery;gynaecology;neurosurgery;plastic_&_reconstructive_surgery;obstetrics;peadiatric_surgery;urology;radiology;pharmacy;physiotherapy;pathology;24_hour_emergency_unit", "name": "Life Beacon Bay Private Hospital", "operator": "Life Healthcare", "operator:type": "private"}}, {"type": "way", "id": 217484563, "center": {"lat": -31.3284521, "lon": 27.8552424}, "nodes": [2267508989, 2267508991, 2267508990, 2267508988, 2267508989], "tags": {"amenity": "hospital", "healthcare": "hospital", "name": "Elliot Provincial Hospital", "wikidata": "Q5365552", "wikipedia": "en:Elliot Provincial Hospital"}}, {"type": "way", "id": 218396410, "center": {"lat": -32.7001533, "lon": 26.2944723}, "nodes": [2276337321, 2276337319, 2276337317, 2276337318, 2276337320, 4646118523, 2276337321], "tags": {"amenity": "hospital", "emergency": "yes", "fax": "046 684 0417", "healthcare": "hospital", "name": "Adelaide Provincial Hospital", "phone": "046 684 0066", "wikidata": "Q4681764", "wikipedia": "en:Adelaide Provincial Hospital (Eastern Cape)"}}, {"type": "way", "id": 218396411, "center": {"lat": -32.7807969, "lon": 26.6344567}, "nodes": [2276337416, 2276337418, 2276337419, 2276337417, 462080487, 2276337415, 2276337416], "tags": {"addr:city": "Fort Beaufort, Eastern Cape", "addr:postcode": "5700", "addr:street": "Bell Street", "amenity": "hospital", "emergency": "yes", "fax": "+27 (0)46 645 2034", "healthcare": "hospital", "healthcare:speciality": "surgical_services;medical_services;paediatrics;maternity_services;gynaecology_services;operating_theatre_&_cssd_services;anti-retroviral_treatment_services_(arvs);x-ray_services;physiotherapy;laundry_services;kitchen_services;pmtc_&_vct", "name": "Fort Beaufort Provincial", "operator": "Eastern Cape Health Department", "operator:type": "government", "phone": "+27 (0)46 645 1111", "source": "survey"}}, {"type": "way", "id": 218396412, "center": {"lat": -33.3173761, "lon": 26.5453724}, "nodes": [2276337706, 2276337712, 2276337713, 2276337718, 2276337720, 2276337717, 2276337719, 2276337722, 2475216203, 2276337724, 2276337723, 2276337721, 2276337714, 2276337710, 2276337704, 2276337693, 2276337687, 2276337684, 2276337683, 2276337685, 2276337697, 2276337699, 2276337701, 2276337706], "tags": {"amenity": "hospital", "contact:phone": "+27 46 602 2300", "healthcare": "hospital", "healthcare:speciality": "psychiatry", "name": "Fort England Psychiatric Hospital", "wikidata": "Q5471129", "wikipedia": "en:Fort England Psychiatric Hospital"}}, {"type": "way", "id": 218396415, "center": {"lat": -32.8788768, "lon": 27.3953702}, "nodes": [2276337638, 2276337640, 2276337641, 2276337643, 2276337644, 2276337645, 2276337642, 2276337646, 2276337639, 2276337631, 2276337633, 2276337632, 2276337635, 2276337634, 2276337636, 2276337637, 2276337638], "tags": {"addr:city": "Qonce", "addr:housenumber": "58", "addr:postcode": "5600", "addr:street": "Kings Road", "amenity": "hospital", "beds": "67", "emergency": "yes", "healthcare": "hospital", "healthcare:speciality": "general;paediatrics;radiology;maternity", "name": "Grey Provincial Hospital", "phone": "+27 43 643 3300", "wikidata": "Q5608227", "wikipedia": "en:Grey Provincial Hospital"}}, {"type": "way", "id": 218396420, "center": {"lat": -33.3019951, "lon": 26.5152573}, "nodes": [2276337665, 2276337675, 2276337674, 2276337673, 2276337672, 2276337671, 2276337670, 2276337668, 2276337666, 2276337664, 2276337662, 2276337665], "tags": {"addr:city": "Grahamstown, Eastern Cape", "addr:postcode": "6140", "addr:street": "Milner Street", "amenity": "hospital", "contact:phone": "+27 (0)46 622 2215", "healthcare": "hospital", "healthcare:speciality": "arv's;emergency_services;gynaecology;maternity_services;laboratory_services;paediatrics;physiotherapy;surgical;post_trauma_counselling_services;x-ray_services", "name": "Settlers Hospital", "wikidata": "Q7456946", "wikipedia": "en:Settlers Hospital"}}, {"type": "way", "id": 218396423, "center": {"lat": -32.7714541, "lon": 26.6240941}, "nodes": [2276337398, 2276337401, 2276337390, 2276337388, 2276337384, 2276337382, 2276337381, 2276337379, 2276337376, 2276337373, 2276337371, 263904053, 2276337362, 2276337347, 2276337348, 2276337357, 2276337354, 2276337353, 2276337358, 2276337365, 2276337370, 2276337372, 2276337380, 2276337383, 2276337387, 2276337391, 2276337394, 2276337397, 2276337398], "tags": {"addr:city": "Fort Beaufort", "addr:housenumber": "2411", "addr:postcode": "5720", "addr:street": "Somerset Street", "amenity": "hospital", "beds": "600", "healthcare": "hospital", "healthcare:speciality": "psychiatry", "name": "Tower Psychiatric Hospital", "operator": "government", "operator:type": "public", "phone": "+27 46 645 1122", "wikidata": "Q7829723", "wikipedia": "en:Tower Psychiatric Hospital"}}, {"type": "way", "id": 218396424, "center": {"lat": -32.7751514, "lon": 26.8447951}, "nodes": [2276337392, 2276337377, 2276337374, 2276337375, 2276337385, 2276337386, 2276337409, 2276337402, 2276337395, 2276337393, 2276337389, 2276337392], "tags": {"addr:city": "Alice", "addr:postcode": "5700", "addr:street": "Kuntselamanzi Street", "amenity": "hospital", "beds": "110", "emergency": "yes", "healthcare": "hospital", "healthcare:speciality": "maternity;general;pathology;dentistry;physiotherapy", "name": "Victoria Hospital", "operator": "government", "operator:type": "public", "phone": "+27 40 653 1141", "wikidata": "Q7926781", "wikipedia": "en:Victoria Hospital (Alice)"}}, {"type": "way", "id": 219062624, "center": {"lat": -31.2981461, "lon": 28.6301145}, "nodes": [2282720261, 2282720271, 2282720273, 2282720277, 2282720267, 2282720263, 2282720257, 2282720254, 2282720256, 2282720261], "tags": {"addr:city": "Tsolo,Eastern Cape", "addr:housenumber": "St Cuthbert's Mission", "addr:postcode": "5171", "amenity": "hospital", "contact:phone": "+27 (0)47 532 6259", "emergency": "yes", "fax": "+27 (0)47 545 9631", "healthcare:speciality": "anti-retroviral_treatment_services;emergency_services;gynaecology_services;kitchen_services;laboratory_services;maternity_services;medical_services;o.p.d._services;occupational_services;operating_theatre_&_cssd_services;paediatrics;pharmacy_services;physi", "name": "St Lucy's Hospital", "website": "www.echealth.gov.za Info:", "wikidata": "Q7594036", "wikipedia": "en:St Lucy's Hospital"}}, {"type": "way", "id": 228182389, "center": {"lat": -33.9516263, "lon": 24.296903}, "nodes": [2368154917, 2368154928, 2368154930, 2368154926, 2368154915, 2368154917], "tags": {"addr:city": "Kareedouw", "addr:postcode": "6400", "addr:street": "Cnr Krom & Baken Street", "amenity": "hospital", "beds": "20-45", "emergency": "yes", "healthcare": "hospital", "healthcare:speciality": "pathology;general;paediatrics;pharmacy;physiotherapy;radiology;maternity_services", "name": "B.J. Vorster Hospital", "operator": "government", "operator:type": "government", "phone": "+27 42 288 0210", "wikidata": "Q4833818"}}, {"type": "way", "id": 228182390, "center": {"lat": -34.0307351, "lon": 24.7818345}, "nodes": [2368154953, 4188131459, 2368154963, 4188131470, 2368154965, 9505746420, 2368154959, 4188131471, 2368154953], "tags": {"addr:city": "Humansdorp", "addr:street": "Du Plessis Street", "alt_name": "Humansdorp Hospital", "amenity": "hospital", "beds": "33", "email": "Resa.Kruger@lifehealthcare.co.za", "emergency": "yes", "healthcare": "hospital", "healthcare:speciality": "general;maternity;ophthalmology;pathology;radiology", "name": "Life Isivivana Private Hospital", "operator": "Life Health Care", "operator:type": "private", "operator:wikidata": "Q6458636", "phone": "+27 42 200 4250"}}, {"type": "way", "id": 228182391, "center": {"lat": -34.0223992, "lon": 24.7583044}, "nodes": [2368154932, 2368154942, 2368154944, 2368154940, 2368154932], "tags": {"addr:city": "Humansdorp", "addr:postcode": "6300", "addr:street": "Kraanvo\u00ebl Street", "amenity": "hospital", "beds": "57", "emergency": "yes", "fax": "+27 (0)49 893 0085", "healthcare": "hospital", "healthcare:speciality": "anti-retroviral_treatment_services_(arvs);medical_services;occupational_services;out_patients_department;pharmacy;post_trauma_counselling_services", "name": "P.Z. Meyer Hospital", "operator": "Eastern Cape Health Department", "operator:type": "government", "phone": "+27 (0)42 291 2072"}}, {"type": "way", "id": 228182392, "center": {"lat": -33.3004627, "lon": 23.4769075}, "nodes": [2368154896, 2368154913, 2368154910, 2368154893, 2368154896], "tags": {"addr:city": "Willowmore, Eastern Cape", "addr:postcode": "6445", "addr:street": "Knysna Street", "amenity": "hospital", "beds": "60", "emergency": "yes", "fax": "+27 (0)44 923 1489", "healthcare": "hospital", "healthcare:speciality": "anti-retroviral_treatment_services_(arvs);dentistry;emergency_services;gynaecology_services;kitchen_services;laundry_services;maternity_services;o.p.d._services;occupational_services;paediatrics;pharmacy_services;surgical_services;x-ray_services", "name": "Willowmore Hospital", "operator": "Eastern Cape Department Of Health", "operator:type": "government", "phone": "+27 (0)44 923 1148"}}, {"type": "way", "id": 228183135, "center": {"lat": -32.9320924, "lon": 27.7408263}, "nodes": [2368166133, 2368166138, 2368166141, 2368166144, 2368166143, 2368166146, 2368166145, 2368166142, 2368166140, 2368166139, 2368166135, 2368166133], "tags": {"addr:city": "Mdantsane Township, Eastern Cape", "addr:housenumber": "1124", "addr:postcode": "5219", "addr:street": "Billie Road", "amenity": "hospital", "contact:phone": "+27 (0)43 761 2132 / +27 43 761 2131", "emergency": "yes", "healthcare": "hospital", "healthcare:speciality": "medical_services;occupational_services;paediatrics;pharmacy_services;pmtc_&_vct;tb_services", "name": "Nkqubela Hospital", "operator": "Eastern Cape Department of Health", "operator:type": "public"}}, {"type": "way", "id": 228183136, "center": {"lat": -33.2080457, "lon": 27.1319739}, "nodes": [2368166160, 2368166168, 2368166169, 2368166171, 2368166172, 2368166174, 2368166175, 2368166176, 2368166177, 2368166180, 2368166181, 2368166178, 2368166179, 2368166159, 10102152246, 2368166162, 2368166161, 2368166160], "tags": {"addr:city": "Peddie, Eastern Cape", "addr:postcode": "5640", "addr:street": "Grahamstown Road", "amenity": "hospital", "emergency": "yes", "fax": "+27 (0)40 673 3744", "healthcare": "hospital", "healthcare:speciality": "nti-retroviral_treatment_services_(arvs);emergency_services;gynaecology_services;kitchen_services;laboratory_services;maternity_services;medical_services;o.p.d._services;occupational_services;operating_theatre_&_cssd_services;paediatrics;physiotherapy;pos", "name": "Nompumelelo Hospital", "phone": "+27 (0)40 673 3321 / 24", "wikidata": "Q7048667"}}, {"type": "way", "id": 228251401, "center": {"lat": -32.927763, "lon": 27.7437248}, "nodes": [2368856953, 2368856951, 10074071854, 10074071853, 10074071855, 2368856949, 10074071857, 10074071856, 10074071880, 2368856936, 2368856918, 2368856902, 2368856891, 2368856899, 2368856846, 2368856826, 2368856809, 2368856860, 2368856824, 2368856913, 2368856941, 3964735845, 3964735843, 3964735844, 2368856943, 2368856946, 2368856953], "tags": {"addr:city": "Mdantsane", "addr:housenumber": "4", "addr:postcode": "5206", "addr:street": "Billie Road", "amenity": "hospital", "emergency": "yes", "healthcare": "hospital", "healthcare:speciality": "anti-retroviral_treatment_services_(arvs);emergency_services;gynaecology_services;kitchen_services;laboratory_services;laundry_services;maternity_services;medical_services;o.p.d._services;occupational_services;operating_theatre_&_cssd_services;paediatrics", "name": "Cecilia Makiwane Hospital", "operator": "Easteern Cape Department Of Health", "operator:type": "government", "phone": "+27437082324", "wheelchair": "yes"}}, {"type": "way", "id": 237356110, "center": {"lat": -34.1866362, "lon": 22.1288975}, "nodes": [2452666031, 2452666032, 2452666033, 2452666034, 2452666031], "tags": {"amenity": "hospital", "building": "yes", "healthcare": "hospital", "layer": "1", "name": "Provincial Hospital"}}, {"type": "way", "id": 273011104, "center": {"lat": -30.1124877, "lon": 28.6824715}, "nodes": [2779014682, 2779014690, 2779014696, 2779014688, 2779014681, 2779014667, 2779014672, 2779014691, 2779014679, 2779014697, 2779014702, 2779014705, 2779014651, 2779014659, 2779014686, 2779014653, 2779014685, 2779014648, 2779014666, 2779014642, 2779014645, 2779014677, 2779014683, 2779014704, 2779014678, 2779014668, 2779014687, 2779014669, 2779014684, 2779014703, 2779014643, 2779014670, 2779014708, 2779014701, 2779014657, 2779014644, 2779014661, 2779014676, 2779014665, 2779014680, 2779014652, 2779014671, 2779014664, 2779014698, 2779014689, 2779014700, 2779014663, 2779014655, 2779014706, 2779014660, 2779014662, 2779014692, 2802108732, 2802108731, 2779014682], "tags": {"amenity": "hospital", "building": "yes", "emergency": "yes", "healthcare": "hospital", "name": "Machabeng Hospital", "source": "Bing"}}, {"type": "way", "id": 275113726, "center": {"lat": -30.5466994, "lon": 29.4146337}, "nodes": [2797703462, 2797703463, 11275481339, 11275481338, 9968590520, 2797703465, 2797703464, 2797703462], "tags": {"addr:city": "Kokstad", "addr:postcode": "4700", "addr:street": "Corner of The Avenue and Elliot Street", "amenity": "hospital", "beds": "185", "contact:fax": "+27 39 727 2564", "contact:phone": "+27 39 797 8100", "contact:website": "http://www.kznhealth.gov.za/egusherhospital.HTM", "email": "jabulani.ngobese@kznhealth.gov.za", "emergency": "yes", "healthcare": "hospital", "healthcare:speciality": "aged_and_chronic_sick;aids_support_group;antenatal_clinic;arv_clinic;dental_therapy_(sessional);ear;nose_and_throat_clinic;eye_clinic;gateway_clinic;general_medical;general_surgical;infectious_cases;internal_home_affairs_facilities;maternity;mental_health", "name": "East Griqualand & Usher Memorial Hospital", "operator": "KwaZulu-Natal Department of Health", "operator:type": "government", "operator:wikidata": "Q116647976", "wheelchair": "yes"}}, {"type": "way", "id": 294383613, "center": {"lat": -30.1493142, "lon": 27.4793225}, "nodes": [2979791924, 2979791925, 2979791926, 2979791927, 2979791928, 2979791929, 2979791930, 2979791931, 2979791932, 2979795933, 2979795934, 2979795935, 2979795936, 2979795937, 2979795938, 2979795939, 2979795940, 2979795941, 2979795942, 2979795943, 2979795944, 2979795945, 2979795946, 2979795947, 2979795948, 2979795949, 2979795950, 2979795951, 2979795952, 2979795953, 2979795954, 2979795955, 2979795956, 2979795957, 2979795958, 2979795959, 2979795960, 2979795961, 2979795962, 2979795963, 2979795964, 2979795965, 2979795966, 2979795967, 2979795968, 2979795969, 2979795970, 2979795971, 2979795972, 2979795973, 2979795974, 2979795975, 2979795976, 2979795977, 2979795978, 2979795979, 2979795980, 2979795981, 2979795982, 2979796017, 2979795983, 2979795984, 2979795985, 2979795986, 2979795987, 2979795988, 2979795989, 2979795990, 2979796016, 2979795991, 2979795992, 2979795993, 2979796018, 2979795994, 2979795995, 2979795996, 2979795997, 2979795998, 2979795999, 2979796000, 2979796001, 2979796002, 2979796003, 2979796004, 2979796005, 2979796006, 2979796007, 2979796008, 2979796009, 2979796010, 2979796011, 2979796012, 2979796013, 2979796014, 2979796015, 2979791924], "tags": {"amenity": "hospital", "building": "hospital", "healthcare": "hospital", "name": "Ntsekhe Hospital"}}, {"type": "way", "id": 307034671, "center": {"lat": -32.9960151, "lon": 27.8916527}, "nodes": [3120808671, 3120808672, 3120808680, 3120808681, 3120808666, 3120808667, 3120808677, 3120808678, 3120808679, 3120808709, 3120808708, 3120808691, 3120808682, 3120808690, 3120808688, 3120808727, 3120808720, 3120808686, 3120808684, 3120808685, 3120808683, 3120808707, 3120808706, 3120808671], "tags": {"addr:city": "East London Eastern Cape", "addr:postcode": "5201", "addr:street": "Amalinda Main Road", "amenity": "hospital", "building": "hospital", "emergency": "yes", "fax": "+27 (0)43 743 4065", "healthcare": "hospital", "healthcare:speciality": "anti-retroviral_treatment_services_(arvs);emergency_services;gynaecology_services;kitchen_services;laboratory_services;laundry_services;maternity_services;medical_services;o.p.d._services;occupational_services;operating_theatre_&_cssd_services;paediatrics", "name": "Frere Hospital", "phone": "+27 (0)43 709 2111", "wheelchair": "yes", "wikidata": "Q5502892"}}, {"type": "way", "id": 333794166, "center": {"lat": -32.2985985, "lon": 27.136192}, "nodes": [3408548977, 3408548978, 3408548979, 3408548980, 3408548981, 3408548982, 3408548983, 3408548984, 3408548985, 3408548986, 10119331122, 10119331123, 3408548977], "tags": {"addr:city": "cathcart,eastern cape", "amenity": "hospital", "contact:phone": "+27 (0)45 843 1029", "emergency": "yes", "fax": "+27 (0)45 843 1553", "healthcare": "hospital", "healthcare:speciality": "paediatric;maternity;surgical;operating_theatre;cssd;hiv/aids;mortuary", "name": "Cathcart Provincial Hospital", "phone": "+27 (0)45 843 1029"}}, {"type": "way", "id": 334279797, "center": {"lat": -32.2702077, "lon": 28.519692}, "nodes": [3413943142, 3413943143, 3413943144, 3413943145, 3413943146, 3413943142], "tags": {"addr:city": "Willowvale", "addr:postcode": "5040", "amenity": "hospital", "contact:phone": "+27 47 499 1015", "emergency": "yes", "healthcare": "hospital", "name": "Willowvale Hospital", "operator": "government", "operator:type": "public"}}, {"type": "way", "id": 334415595, "center": {"lat": -34.1813709, "lon": 22.131566}, "nodes": [3415127072, 3415127070, 3415127068, 7333657859, 3415127069, 7333657858, 3415127067, 7333657857, 7333657856, 3415127071, 7333657855, 7333657854, 3415127073, 7333657853, 7333657839, 7333657852, 3415127076, 7333657840, 3415127079, 3415127082, 7333657841, 3415127080, 7333657842, 7333657843, 7333657844, 3415127078, 7333657845, 3415127077, 7333657846, 7333657847, 7333657848, 7333657849, 3415127075, 7333657851, 3415127074, 7333657834, 7333657835, 7333657836, 7333657837, 7333657838, 7333657850, 3415127072], "tags": {"addr:city": "Mossel Bay", "addr:postcode": "6506", "addr:street": "Cnr Alhof and Ryk Tulbach Streets", "amenity": "hospital", "healthcare": "hospital", "healthcare:speciality": "anaesthesiology;cardiology;cardio-thoracic_surgery;ear;nose_and_throat_surgery;endoscopic_surgery;endovascular_surgery;gastroenterology;general_surgery;gynaecology_and_obstetrics;neurosurgery;orthopaedic_surgery;paediatrics;plastic_surgery;urology", "name": "Bayview Private Hospital", "operator": "Life Health Care", "operator:type": "private"}}, {"type": "way", "id": 369356099, "center": {"lat": -30.6445129, "lon": 28.2094079}, "nodes": [3731511907, 3731511908, 3731511909, 3731511910, 3731511907], "tags": {"amenity": "hospital"}}, {"type": "way", "id": 369356100, "center": {"lat": -30.6600774, "lon": 28.2958665}, "nodes": [3731511839, 3731511838, 3731511836, 3731511835, 3731511834, 3731511833, 3731511832, 3731511840, 3731511839], "tags": {"amenity": "hospital"}}, {"type": "way", "id": 373393921, "center": {"lat": -32.9987871, "lon": 27.9033456}, "nodes": [3768679206, 3768679207, 7357982284, 7358014985, 7358014986, 7358014987, 3768679208, 3768679209, 3768679210, 3768679211, 7358014998, 7358014997, 7358014996, 7358014995, 3768679212, 7358014992, 7358014991, 7358014990, 7358014989, 7358014988, 3768679219, 3768679220, 3768679221, 7358014994, 7358014993, 3768679222, 3768679223, 3768679224, 7358015006, 7358015005, 3768679225, 3768679226, 3768679227, 3768679228, 3768679229, 7358015004, 7358015003, 3768679230, 3768679231, 3768679232, 7358015002, 7358015001, 3768679233, 3768679234, 3768679235, 3768679236, 3768679237, 3768679238, 3768679239, 7358015000, 7358014999, 3768679240, 3768679241, 3768679242, 3768679243, 3768679206], "tags": {"addr:city": "East London", "addr:housenumber": "45 St Mark's Road, Southernwood, East London, 5201", "addr:postcode": "5201", "addr:street": "St Mark's Road, Southernwood", "amenity": "hospital", "building": "yes", "contact:phone": "+27 43 707 9000", "emergency": "yes", "healthcare:speciality": "cardiology;surgery;pathology", "name": "Life St Dominic's Private Hospital", "operator": "Life St Dominic's Private Hospital", "operator:type": "private"}}, {"type": "way", "id": 395173344, "center": {"lat": -30.6667423, "lon": 23.999769}, "nodes": [3980746721, 3980746722, 3980746723, 3980746724, 6682339814, 3980746725, 3980746726, 3980746727, 6682339806, 6682339807, 6682339808, 6682339809, 6682339810, 6682339811, 6682339812, 3980746728, 6682339813, 3980746721], "tags": {"addr:city": "De Aar", "addr:postcode": "7000", "addr:street": "Van der Merwe Street", "amenity": "hospital", "contact:phone": "+27 53 632 4013", "emergency": "yes", "healthcare": "hospital", "name": "De Aar New Hospital", "operator": "government", "operator:type": "public"}}, {"type": "way", "id": 399054375, "center": {"lat": -30.4051537, "lon": 27.7050385}, "nodes": [4017896889, 4444579942, 9317323388, 9317323390, 9317323386, 9317323389, 9317323387, 9317323391, 9317323384, 9317323382, 9317323383, 9317323381, 9317323385, 9317323380, 4017896901, 4017896889], "tags": {"amenity": "hospital", "healthcare": "hospital", "name": "Quthing Hospital"}}, {"type": "way", "id": 405781291, "center": {"lat": -30.7968223, "lon": 29.3706788}, "nodes": [4079326456, 4079326457, 4079326458, 4079326459, 4079326460, 4079326461, 4079326462, 4079326463, 4079326464, 4079326456], "tags": {"addr:city": "Eastern Cape, South Africa", "addr:housenumber": "Mount Ayliff 8", "addr:postcode": "4375", "addr:street": "Insizwe Street", "amenity": "hospital", "emergency": "yes", "fax": "+27 (0)39 254 0245", "healthcare": "hospital", "healthcare:speciality": "anti-retroviral_treatment_services_(arvs);ctop;dental_services;eye_clinic_services;laboratory_services;medical_services;obstetrics/gynaecology;oral_health_care_provides;paediatrics;physiotherapy_services;surgery;x-ray_services", "name": "Mount Ayliff Hospital", "phone": "+27-39-254-0230", "wikidata": "Q14956880"}}, {"type": "way", "id": 408592176, "center": {"lat": -32.3528183, "lon": 22.6072485}, "nodes": [4104812550, 4104812552, 4104812551, 4104812549, 4104812550], "tags": {"addr:city": "Beaufort West", "addr:housenumber": "99", "addr:postcode": "6950", "addr:street": "99 Voortrekker Road", "amenity": "hospital", "bed": "57", "healthcare": "hospital", "healthcare:speciality": "internal_medicine;orthopaedics;general_surgery;obstetrics;gynaecology", "name": "Beaufort West Hospital", "opening_hours": "24/7", "wikidata": "Q57399519"}}, {"type": "way", "id": 408866221, "center": {"lat": -31.4911024, "lon": 24.9958374}, "nodes": [4107763399, 4107763400, 4107763401, 4107763402, 4107763403, 4107763399], "tags": {"addr:city": "Middelburg,Eastern Cape", "addr:housenumber": "104", "addr:postcode": "5900", "addr:street": "du Plessis Street", "amenity": "hospital", "contact:phone": "+27 (0)49 842 1111", "emergency": "yes", "fax": "+27 (0)49 842 1358", "healthcare": "hospital", "healthcare:speciality": "anti-retroviral_treatment_services_(arvs;maternity_services;medical_services;operating_theatre_&_cssd_services;paediatrics;pharmacy_services;physiotherapy;surgical_services;x-ray_services", "name": "Wilhelm Stahl Hospital", "operator": "Eastern Cape Depratment Of Health", "operator:type": "public"}}, {"type": "way", "id": 417117916, "center": {"lat": -32.0496392, "lon": 29.0606932}, "nodes": [4177352318, 4177352315, 4177352319, 4177352339, 4177352355, 4177352357, 8322097891, 4177352356, 4177352360, 4177352354, 4177352345, 4177352341, 4177352335, 4177352318], "tags": {"addr:postcode": "5080", "alt_name": "Zithulele Mission Hospital", "amenity": "hospital", "healthcare": "hospital", "name": "Zithulele Hospital", "phone": "+27-47-573-8935", "website": "https://www.zithulele.org/", "wikidata": "Q8072842"}}, {"type": "way", "id": 418102991, "center": {"lat": -31.1736577, "lon": 24.9571358}, "nodes": [4185573119, 4185573120, 4185573121, 4185573122, 4185573123, 4185573119], "tags": {"addr:city": "Noupoort, Northern Cape.", "addr:postcode": "5950", "addr:street": "Pienaar Street", "amenity": "hospital", "emergency": "yes", "healthcare": "hospital", "name": "Fritz Visser Hospital", "phone": "049 843 1448"}}, {"type": "way", "id": 418324510, "center": {"lat": -32.1669524, "lon": 25.6228804}, "nodes": [4187581191, 4187581192, 4187581193, 4187581194, 4187581195, 4187581196, 4187581197, 4187581198, 4187581191], "tags": {"addr:city": "Cradock, Eastern Cape", "addr:housenumber": "30", "addr:postcode": "5880", "addr:street": "Hospitaal Street", "amenity": "hospital", "emergency": "yes", "healthcare": "hospital", "healthcare:speciality": "paediatrics;physiotherapy;surgical_services;x-ray_services;anti-retroviral_treatment_services_(arvs);occupational_services;laboratory_services", "name": "Cradock District Hospital", "operator": "Eastern Cape department of Health", "operator:type": "public"}}, {"type": "way", "id": 423643436, "center": {"lat": -33.1942948, "lon": 20.8506471}, "nodes": [4232011998, 4232011999, 4232012000, 4232012001, 4232012002, 4232011998], "tags": {"addr:city": "Laingsburg, Western Cape", "addr:postcode": "6900", "addr:street": "Voortrekker Road (N1)", "amenity": "hospital", "contact:phone": "+27 23 551 1237;+27 23 551 1390", "emergency": "yes", "healthcare:speciality": "maternity;dentistry;casualty", "name": "Laingsburg Hospital", "wikidata": "Q57399543"}}, {"type": "way", "id": 430704057, "center": {"lat": -30.8824438, "lon": 29.0051258}, "nodes": [4299718168, 4299718171, 4299718172, 4299718166, 4299718167, 4299718095, 4299718080, 4299718082, 4299718083, 4299718098, 4299718102, 4299718108, 1955734843, 4299718168], "tags": {"addr:city": "Mount Frere, Eastern Cape", "addr:street": "Hospital Street", "amenity": "hospital", "emergency": "yes", "fax": "+27 (0)39 255 1222", "healthcare": "hospital", "healthcare:speciality": "emergency_services;gynaecology_services;kitchen_services;laboratory_services;laundry_services;maternity_services;medical_services;o.p.d._services;occupational_services;operating_theatre_&_cssd_services;paediatrics;pharmacy_services;physiotherapy;surgical_", "name": "Madzikane Ka Zulu Memorial Hospital", "phone": "+27-39-255-8200", "wheelchair": "yes", "wikidata": "Q14956878"}}, {"type": "way", "id": 432045758, "center": {"lat": -31.9244398, "lon": 26.9121024}, "nodes": [4312160284, 4312160285, 4312160286, 4312160287, 4312160288, 4312161089, 4312161090, 4312161091, 4312161092, 4312161093, 4312161094, 4312161095, 4312161096, 4312161097, 4312161098, 4312161099, 4312161100, 4312161101, 4312161102, 4312161103, 4312161104, 4312161105, 4312161106, 4312161107, 4312161108, 4312160284], "tags": {"addr:city": "Queenstown, Eastern Cape", "addr:housenumber": "1833", "addr:postcode": "5320", "addr:street": "National Road", "amenity": "hospital", "healthcare": "hospital", "healthcare:speciality": "psychiatry", "name": "Komani Psychiatric Hospital", "old_name": "Border Mental Hospital", "start_date": "5 November 1919", "wikidata": "Q6428122"}}, {"type": "way", "id": 437408105, "center": {"lat": -30.3480709, "lon": 28.8216801}, "nodes": [4352203655, 4352203656, 4352203657, 4352203658, 4352203659, 4352203660, 4352203661, 4352203655], "tags": {"addr:city": "Mount Fletcher, Eastern Cape", "addr:postcode": "4470", "addr:street": "Main Street", "amenity": "hospital", "emergency": "yes", "fax": "+27 (0)39 257 0053", "healthcare": "hospital", "healthcare:speciality": "anti-retroviral_treatment_services_(arvs);medical_services;o.p.d._services;occupational_services;operating_theatre_&_cssd_services;outpatients_(incl._assaults);paediatrics;pharmacy_services;physiotherapy;pmtc_&_vct;surgical_services;tb_services;x-ray_serv", "name": "Tayler Bequest Hospital", "opening_hours": "24/7", "operator": "Eastern Cape Department Of Health", "operator:type": "government", "phone": "039 737 3107", "wheelchair": "yes"}}, {"type": "way", "id": 454332361, "center": {"lat": -30.2647736, "lon": 27.3346325}, "nodes": [4508975483, 4508975484, 4508975485, 4508975486, 4508975483], "tags": {"amenity": "hospital"}}, {"type": "way", "id": 461638664, "center": {"lat": -30.8652711, "lon": 29.8539057}, "nodes": [4571120769, 4571120770, 4571120771, 4571120772, 4571120773, 4571120774, 4571120775, 4571120776, 4571120769], "tags": {"addr:city": "Bizana", "addr:housenumber": "Saint Patrick's Hospital", "addr:postcode": "4800", "addr:street": "Hope Street", "amenity": "hospital", "contact:phone": "+27 39 251 0236", "emergency": "yes", "healthcare": "hospital", "healthcare:speciality": "general;maternity", "name": "St. Patrick's Hospital", "wikidata": "Q14956858"}}, {"type": "way", "id": 461683581, "center": {"lat": -31.3366043, "lon": 27.8377052}, "nodes": [4571548790, 4571548791, 4571548792, 4571548793, 4571548794, 4571548795, 4571548796, 4571548797, 4571548798, 4571548799, 4571548800, 4571548801, 4571548802, 4571548790], "tags": {"addr:city": "Elliot", "addr:housenumber": "1", "addr:postcode": "5460", "addr:street": "Maclear Road", "amenity": "hospital", "beds": "52", "contact:phone": "+27459311321", "healthcare": "hospital", "healthcare:speciality": "emergency_services;maternity_services;medical_services;obstetrics/gynaecology;nhls_laboratory;operating_theatre_and_cssd_services;outpatients_department;paediatrics;pharmacy_services;pphysiotherapy;post-trauma_counselling_services;surgical_services;x-ray_", "name": "Elliot Hospital", "operator": "Eastern Cape Department of Health", "operator:type": "public"}}, {"type": "way", "id": 508367231, "center": {"lat": -33.3045717, "lon": 26.5318026}, "nodes": [4976834849, 4976834850, 4976834851, 4976834852, 4976834849], "tags": {"amenity": "hospital", "healthcare": "hospital", "name": "Sanatorium"}}, {"type": "way", "id": 508504818, "center": {"lat": -33.3156549, "lon": 26.5186005}, "nodes": [4978048082, 4978048083, 4978048084, 4978048085, 4978048086, 4978048087, 4978048088, 4978048089, 4978048090, 4978048091, 4978048092, 4978048093, 4978048082], "tags": {"amenity": "hospital", "healthcare": "hospital", "name": "Rhodes Health Care Centre"}}, {"type": "way", "id": 508629859, "center": {"lat": -33.3092362, "lon": 26.5169637}, "nodes": [4979002143, 4979002144, 4979002145, 4979002146, 4979002143], "tags": {"amenity": "hospital", "healthcare": "hospital", "name": "San"}}, {"type": "way", "id": 547735023, "center": {"lat": -31.3906985, "lon": 27.0450098}, "nodes": [5292227033, 5292227032, 5292227031, 5292227030, 5292227029, 5292227033], "tags": {"addr:city": "Dordrecht", "addr:housenumber": "1", "addr:postcode": "5435", "addr:street": "Grey Street", "amenity": "hospital", "healthcare": "hospital", "name": "Dordrecht Hospital", "operator": "government", "operator:type": "public", "phone": "+27 45 943 1195", "wikidata": "Q14956863"}}, {"type": "way", "id": 579027498, "center": {"lat": -33.9361305, "lon": 25.5823788}, "nodes": [5546263682, 7384601004, 5546263683, 5546264431, 5546263695, 5546263685, 5546263686, 7384601003, 5546263696, 7384589340, 7384601002, 5546263687, 7384601001, 5546263688, 5546263689, 7384601000, 7384600999, 5546264430, 7384589379, 7384600994, 7384600995, 7384589378, 7384600996, 7384600997, 5546264429, 7384600998, 7384589376, 7384589377, 5546264427, 5546264426, 7384589375, 7384601012, 7384589374, 5546264423, 5546264425, 5546264424, 5546264422, 7384839910, 5546264421, 7384839907, 7384601010, 5546263690, 5546263691, 7384601009, 7384601007, 7384839909, 7384839908, 5546263692, 7384601006, 5546264433, 7384589339, 7384601005, 5546263693, 5546263682], "tags": {"addr:city": "Korsten, Port Elizabeth", "addr:postcode": "6020", "addr:street": "Cnr Kempston & Durban Roads", "amenity": "hospital", "healthcare": "hospital", "healthcare:speciality": "ophthalmology;paediatrics;dentistry;orthopaedics;radiology;gynaecology;urology;pathology;vascular_surgery;obstetrics;neurosurgery;renal_dialysis;nephrology", "name": "Life Mercantile Hospital", "operator": "Life Health Care", "operator:type": "private"}}, {"type": "way", "id": 682232295, "center": {"lat": -30.7122634, "lon": 25.1132681}, "nodes": [6388899943, 6388899942, 6388899941, 6388899940, 6388899939, 6388899938, 1901175444, 6388899943], "tags": {"addr:city": "Colesberg, Northern Cape", "addr:street": "Station Road", "amenity": "hospital", "contact:phone": "+27 (0)51 753 9300 / 0826887532", "emergency": "yes", "fax": "+27 (0)51 753 0177", "healthcare": "hospital", "healthcare:speciality": "maternity;paediatrics;surgery;vaccination;covid_19_ward;psychiatry", "name": "Manu de Pico Hospital", "operator": "Northern Cape department of Health", "operator:type": "public"}}, {"type": "way", "id": 685009009, "center": {"lat": -32.3989301, "lon": 20.6644493}, "nodes": [6418492982, 6418492981, 6418492980, 6418492979, 6418492978, 6418492977, 6418492976, 6418492975, 6418492974, 6418492973, 6418492972, 6418492971, 6418492970, 6418492969, 6418492968, 6418492967, 6418492966, 6418492965, 6418492964, 6418492982], "tags": {"addr:city": "Sutherland", "addr:postcode": "6920", "addr:street": "Theron Street", "amenity": "hospital", "beds": "375", "emergency": "yes", "healthcare": "hospital", "healthcare:speciality": "maternity;chronic;general", "name": "Sutherland Hospital", "phone": "(02) 9540 7111", "start_date": "1958"}}, {"type": "way", "id": 700558916, "center": {"lat": -32.1080013, "lon": 28.3134708}, "nodes": [6578779717, 6578779716, 6578779715, 6578779714, 6578779713, 6578779717], "tags": {"amenity": "hospital", "emergency": "yes", "healthcare": "hospital", "healthcare:speciality": "general;maternity", "name": "Dutywa Community Health Centre", "operator": "Eastern Cape Department Of Health", "operator:type": "government", "phone": "+27474892222"}}, {"type": "way", "id": 700560106, "center": {"lat": -31.3179391, "lon": 28.7783995}, "nodes": [6578784020, 6578784019, 6578784018, 6578784017, 6578784020], "tags": {"addr:city": "Tsolo, Oliver Tambo District Municipality", "addr:housenumber": "R56", "addr:postcode": "5170", "addr:street": "Main Road", "amenity": "hospital", "beds": "155", "contact:phone": "+27 475426300;+27 824217422", "email": "malizompehle@lilithacollege.co.za", "emergency": "yes", "healthcare": "hospital", "healthcare:speciality": "anti-retroviral_treatment_services_(arvs);emergency_services;maternity_services;medical_services;obstetrics/gynaecology;paediatrics;pharmacy_services;surgical_services;x-ray_services", "name": "Dr Malizo Mpehle Memorial", "operator": "Eastern Cape Department of Health", "operator:type": "public", "wheelchair": "yes"}}, {"type": "way", "id": 738361727, "center": {"lat": -33.5868108, "lon": 22.1848874}, "nodes": [1963236305, 6913914475, 6913914474, 6913914473, 1963236305], "tags": {"addr:city": "Oudtshoorn, Western Cape", "addr:housenumber": "185", "addr:postcode": "6620", "addr:street": "Kerk Street", "amenity": "hospital", "contact:phone": "+27 44 272 0111", "designation": "Private Hospital", "emergency": "yes", "healthcare": "hospital", "healthcare:speciality": "emergency;matenity;chronic", "name": "MediClinic Klein Karoo", "operator": "MediClinic", "operator:type": "private", "source": "Local Knowledge", "website": "https://www.mediclinic.co.za/", "wheelchair": "yes"}}, {"type": "way", "id": 738361728, "center": {"lat": -33.5881605, "lon": 22.187937}, "nodes": [6913914478, 6913914477, 1238483110, 6913914476, 6913914475, 6913914474, 6913914478], "tags": {"addr:city": "Oudtshoorn, Western Cape", "addr:street": "Park Road", "amenity": "hospital", "contact:fax": "044 203 7317", "contact:phone": "+27 44 203 7200/01", "designation": "Provincial Hospital", "email": "charles.dreyer@westerncape.gov.za", "emergency": "yes", "healthcare": "hospital", "healthcare:speciality": "general;dentistry", "name": "Oudtshoorn Hospital", "wikidata": "Q57399556"}}, {"type": "way", "id": 738363127, "center": {"lat": -31.1485294, "lon": 29.6754831}, "nodes": [6913931207, 6913931206, 6913931205, 1909282555, 6913931204, 6913931203, 6913931202, 6913887183, 6913931201, 6913931200, 6913931199, 6913931198, 6913931197, 6913931196, 6913931195, 6913931194, 6913931193, 6913931192, 6913931191, 6913931190, 6913931189, 6913931188, 6913931187, 6913931186, 6913931185, 6913887184, 6913931207], "tags": {"addr:city": "Flagstaff", "addr:postcode": "4810", "addr:street": "Umkhambathi Road", "amenity": "hospital", "email": "info@holycrosshospital.co.za", "emergency": "yes", "healthcare": "hospital", "name": "Holy Cross Hospital", "operator": "government", "operator:type": "public", "phone": "+27 39 252 3000", "website": "http://www.holycrosshospital.co.za/"}}, {"type": "way", "id": 752327184, "center": {"lat": -33.7643135, "lon": 25.3911723}, "nodes": [7031899182, 9403280533, 7031899183, 7031899184, 7031905285, 7031905286, 7031905287, 7031946155, 7031946154, 7031905289, 7031905290, 7031905291, 7031946153, 7031905294, 7031905295, 7031905296, 7031905297, 7031905298, 7031905299, 7031905300, 7031905301, 7031905302, 7031905303, 7031905304, 7031905305, 7031905306, 7031905307, 7031905308, 7031905309, 7031905310, 7031905311, 7031905312, 7031899182], "tags": {"addr:city": "Uitenhage", "addr:housenumber": "34", "addr:postcode": "6229", "addr:street": "Cuyler Street", "amenity": "hospital", "brand:wikidata": "Q6998801", "emergency": "yes", "healthcare": "hospital", "healthcare:speciality": "emergency;paediatrics;maternity;neonatal_icu;spinal_surgery;diatetics;psychiatry;occupational_therapy;radiology;orthotics_and_prosthetics;audiology;pathology;physiotherapy", "name": "Netcare Cuyler Hospital", "operator": "Netcare", "operator:type": "private", "operator:wikidata": "Q6998801", "operator:wikipedia": "en:Netcare", "phone": "+27 41 995 9000", "website": "https://www.netcarehospitals.co.za/Hospital/Netcare-Cuyler-Hospital"}}, {"type": "way", "id": 761957624, "center": {"lat": -34.0243824, "lon": 20.4493728}, "nodes": [7119104612, 7119104613, 7119104614, 7119104615, 7119104616, 7119104617, 7119104618, 7119104619, 7119104620, 7119104621, 7119104622, 7119104623, 7119104624, 7119104625, 7119104626, 7119104627, 7119104612], "tags": {"addr:city": "Swellendam", "addr:street": "Drostdy Street", "amenity": "hospital", "contact:phone": "+27 28 514 8400", "emergency": "yes", "healthcare": "hospital", "name": "Swellendam Provincial Hospital", "name:af": "Swellendam Provinsiale Hospitaal", "name:en": "Swellendam Provincial Hospital", "operator": "government", "operator:type": "public"}}, {"type": "way", "id": 764149171, "center": {"lat": -30.4873351, "lon": 29.8263196}, "nodes": [7139016539, 7139016540, 7139016541, 7139016542, 7139016543, 7139016544, 7139016545, 7139016546, 7139016547, 7139016548, 7139016539], "tags": {"amenity": "hospital", "beds": "205", "contact:phone": "+27 39 260 5000", "contact:website": "http://doctors-hospitals-medical-cape-town-south-africa.blaauwberg.net/hospitals_clinics_state_hospitals/state_public_hospitals_clinics_kwazulu_natal_south_africa/rietvlei_hospital_umzimkhulu_kwazulu_natal_south_africa", "healthcare": "hospital", "healthcare:speciality": "pathology;emergency;general;radiology;maternity;paediatrics", "name": "Rietvlei Hospital", "operator": "government", "operator:type": "public"}}, {"type": "way", "id": 764410117, "center": {"lat": -30.0343576, "lon": 25.7910898}, "nodes": [7141163083, 7141163084, 6205662928, 7141299885, 7141299886, 7141299892, 7141299893, 7141299891, 7141299887, 7141299888, 7141299889, 7141299890, 7141163083], "tags": {"amenity": "hospital", "healthcare": "hospital", "name": "Albert Nzula District Hospital", "start_date": "2011"}}, {"type": "way", "id": 765372124, "center": {"lat": -33.7977661, "lon": 20.1231655}, "nodes": [7148458459, 7148458460, 7148458462, 7148458463, 7148458464, 7148458465, 7148458459], "tags": {"addr:city": "Langeberg Municipality, Boland", "addr:postcode": "6720", "addr:street": "Church Street", "amenity": "hospital", "emergency": "yes", "fax": "023 614 8131", "healthcare": "hospital", "name": "Montagu Hospital", "operator": "Western Cape Department Of Health", "operator:type": "government", "phone": "023 614 8102/8100", "wheelchair": "yes"}}, {"type": "way", "id": 765595159, "center": {"lat": -33.2164512, "lon": 22.0256104}, "nodes": [7150357530, 7150357531, 7150357532, 7150357533, 7150357534, 7150357535, 7150357536, 7150357537, 7150357538, 7150357539, 7150357540, 7150357541, 7150357542, 7150357543, 7150357544, 7150357545, 7150357546, 7150357547, 7150357548, 7150357549, 7150357550, 7150357551, 7150357530], "tags": {"addr:city": "Prince Albert", "addr:postcode": "6930", "addr:street": "La\u00ebr Mark Street", "amenity": "hospital", "email": "johanna.gous@westerncape.gov.za", "emergency": "yes", "fax": "023 541 1640", "healthcare": "hospital", "healthcare:speciality": "general;emergency;maternity;chronic", "name": "Prince Albert Hospital", "phone": "023 541 1300/ 1301", "wikidata": "Q57399558"}}, {"type": "way", "id": 767520803, "center": {"lat": -32.7326147, "lon": 25.590497}, "nodes": [7166250347, 7166250348, 7166250349, 7166250350, 7166250347], "tags": {"addr:city": "Somerset East, Eastern Cape", "addr:postcode": "5850", "addr:street": "Charles Street", "amenity": "hospital", "healthcare": "hospital", "healthcare:speciality": "gynaecology;maternity;paediatrics;surgical_services;arv's_treatement;pharmacy_services", "name": "Andries Vosloo Hospital", "wikidata": "Q4759329", "wikipedia": "en:Andries Vosloo Hospital"}}, {"type": "way", "id": 785470994, "center": {"lat": -30.2242012, "lon": 26.5223743}, "nodes": [7341723744, 7341723743, 7341723742, 7341723741, 7341723744], "tags": {"addr:city": "Smithfield", "addr:postcode": "9966", "addr:street": "Cnr Brand & Voortrekker Street", "amenity": "hospital", "emergency": "yes", "healthcare": "hospital", "healthcare:speciality": "general;pharmacy;tb_services;radiology;maternity;psychiatry;paediatrics", "name": "Stoffel Coetzee Provincial Hospital", "operator": "government", "operator:type": "public", "phone": "+27 51 683 0168"}}, {"type": "way", "id": 787014970, "center": {"lat": -33.0128736, "lon": 27.9002998}, "nodes": [3768700117, 7357611970, 7357611975, 7357611972, 7357611971, 7357611969, 3768700116, 7357649619, 7357649618, 7357611966, 7357611965, 7357611964, 3768700138, 7357611963, 7357611962, 7357611961, 7357611960, 7357611959, 7357611958, 7357611957, 7357611956, 2309684447, 3768700118, 3768700117], "tags": {"addr:city": "North End, East London", "addr:housenumber": "32", "addr:postcode": "5201", "addr:street": "Albany Street", "amenity": "hospital", "beds": "100", "email": "Patricia.tiltmann@lifehealthcare.co.za", "emergency": "yes", "healthcare": "hospital", "healthcare:speciality": "general;chronic;maternity", "name": "Life East London Private Hospital", "operator": "Life Health Care", "operator:type": "private", "operator:wikidata": "Q6458636", "phone": "043 702 3800"}}, {"type": "way", "id": 787035196, "center": {"lat": -34.0519666, "lon": 23.0785436}, "nodes": [757390501, 7357796444, 7357796443, 7357796442, 7357796441, 7357796440, 4973625846, 4973625847, 4973625848, 4973625849, 7357796445, 757390501], "tags": {"addr:city": "Hunters Home, Knysna,", "addr:postcode": "6570", "addr:street": "Hunters Estate Drive", "amenity": "hospital", "beds": "58", "email": "carmen.grobler@lifehealthcare.co.za", "emergency": "yes", "healthcare": "hospital", "healthcare:speciality": "dentistry;endocrinology;ent_surgery;gynaecology;neurology;obstetrics;orthopaediatrics;pathology;radiology;renal_dialysis;urology;psychiatry;physiotherapy;speech_therapy;ante_natal_classes;biokinetics;dietics", "name": "Life Knysna Private Hospital", "operator": "Life Health Care", "operator:type": "private", "operator:wikidata": "Q6458636", "phone": "044 302 5201/2/3", "wheelchair": "yes"}}, {"type": "way", "id": 787058896, "center": {"lat": -32.996179, "lon": 27.90389}, "nodes": [7358009652, 7358009651, 7358009650, 7358009634, 7358009649, 7358009632, 7358009633, 7358009648, 7358009631, 7358009647, 7358009646, 7358009645, 7358009644, 7358009643, 7358009630, 7358009642, 7358009641, 7358009628, 7358009629, 7358009640, 7358009639, 7358009638, 7358009627, 7358009626, 7358009637, 7358009625, 1719272697, 7358009636, 7358009635, 7358009652], "tags": {"addr:city": "Southernwood, East London", "addr:housenumber": "16", "addr:postcode": "5201", "addr:street": "Saint Andrews Street", "amenity": "hospital", "contact:phone": "043 707 4400", "email": "shereen.ehlers@lifehealthcare.co.za", "emergency": "yes", "healthcare": "hospital", "healthcare:speciality": "medical;nursing_and_surgical;psychological_and_nutritional_support;general;maternity", "name": "Life Saint Marks Clinic", "operator": "Life Health Care", "operator:type": "private"}}, {"type": "way", "id": 787460236, "center": {"lat": -33.9521831, "lon": 25.5797411}, "nodes": [7362523760, 7362523759, 7362523758, 7362523757, 7362523756, 7362523755, 7362523754, 7362523753, 7362523752, 7362523751, 7362523750, 7362523749, 7362523748, 7362523747, 7362523746, 7362523745, 7362523744, 7362523743, 7362523742, 7362523741, 7362523740, 7362523739, 7362523738, 7362523737, 7362523736, 7362523735, 7362523734, 7362523733, 7362523732, 7362523731, 7362523730, 7362523729, 7362523728, 7362523727, 7362523726, 7362523760], "tags": {"addr:city": "Greenacres, Gqeberha", "addr:postcode": "6045", "addr:street": "Cnr Cape & Rochelle Roads", "amenity": "hospital", "contact:phone": "+27 413907000", "emergency": "yes", "healthcare": "hospital", "healthcare:speciality": "netcare_cancer_care_services;cardiac_facility;robotiv_assiated_surgery;bariatric;transplant_facilities_and_services;burnas_facilities_and_services;maternity", "name": "Greenacres Hospital", "operator": "Netcare", "operator:type": "private", "operator:wikidata": "Q6998801", "operator:wikipedia": "en:Netcare", "wheelchair": "yes"}}, {"type": "way", "id": 788392836, "center": {"lat": -33.9685712, "lon": 25.6045379}, "nodes": [7370988105, 7370988104, 7370988103, 7370988102, 7370988101, 7370988097, 7370988096, 7370988095, 7370988094, 7370988093, 7370988092, 7370988091, 7370988090, 7370988089, 7370988088, 7370988087, 7370988086, 7370988085, 7370972884, 7557537957, 7370972883, 7370988105], "tags": {"addr:city": "Gqeberha", "addr:housenumber": "40", "addr:postcode": "6001", "addr:street": "Park Drive", "alt_name": "Saint George's Hospital", "amenity": "hospital", "beds": "302", "emergency": "yes", "healthcare": "hospital", "name": "Life St George's Hospital", "operator": "Life Health Care", "operator:type": "private", "phone": "+27 41 392 6111", "private": "yes"}}, {"type": "way", "id": 788401971, "center": {"lat": -33.0005044, "lon": 27.900932}, "nodes": [7371048253, 7371048238, 7371048252, 7371048251, 7371048250, 7371048249, 7371048248, 7371048247, 7371048246, 7371048245, 7371048244, 7371048243, 7371048242, 7371048240, 7371048239, 7371048241, 7371048253], "tags": {"addr:city": "Southernwood, East London", "addr:postcode": "5201", "addr:street": "Saint James Street", "amenity": "hospital", "beds": "24", "email": "Patricia.tiltmann@lifehealthcare.co.za", "emergency": "yes", "healthcare": "hospital", "healthcare:speciality": "dentistry;ent_surgery;gynaecological_procedures;maxillofacial_surgery;minor_general_surgery;orthodontics;ophthalmology", "name": "Life St James Hospital", "operator": "Life Health Care", "operator:type": "private", "operator:wikidata": "Q6458636", "phone": "043 722 9685", "wheelchair": "yes"}}, {"type": "way", "id": 788942283, "center": {"lat": -33.5957453, "lon": 26.8835731}, "nodes": [7376067543, 7376067542, 7376067541, 7376067540, 7376067539, 7376067538, 7376067537, 7376067536, 7376067535, 7376067534, 7376067533, 7376067532, 7376067531, 7376067530, 7376067529, 7376067528, 7376067527, 7376067526, 7376067525, 7376067524, 7376067523, 7376067522, 7376067521, 7376067520, 7376067519, 7376067518, 7376067517, 7376067516, 7376067543], "tags": {"addr:city": "Port Alfred", "addr:postcode": "6170", "addr:street": "Southwell Road", "amenity": "hospital", "emergency": "yes", "healthcare": "hospital", "name": "Port Alfred Hospital", "operator": "Netcare", "operator:type": "private", "operator:wikidata": "Q6998801", "phone": "+27 46 604 4000", "wheelchair": "yes"}}, {"type": "way", "id": 790325459, "center": {"lat": -34.0528462, "lon": 23.3644855}, "nodes": [7388742887, 7388742886, 10059872053, 7388742885, 7388732084, 7388732083, 7388732082, 7388732081, 7388732080, 7388732079, 7388732078, 7388732077, 7388742887], "tags": {"addr:city": "Plettenburg Bay", "addr:housenumber": "5", "addr:postcode": "6600", "addr:street": "Muller Street", "amenity": "hospital", "email": "pxmplettenbergbay@mediclinic.co.za", "emergency": "yes", "fax": "+27 86 688 8142", "healthcare": "hospital", "healthcare:speciality": "emergency_centre;intensive/_highcare_unit;woundcare_and_stoma_therapy_clinic;3_and_4d_scan;pathology;radiology;renal_dialysis", "name": "Mediclinic Plettenberg Hospital", "not:operator:wikidata": "Q1916123", "opening_hours": "24/7", "operator": "Mediclinic", "operator:type": "private", "phone": "+27 44 501 5100"}}, {"type": "way", "id": 791670771, "center": {"lat": -33.3947371, "lon": 25.4395705}, "nodes": [7401083978, 7401083979, 10088688662, 7401083980, 7401083981, 7401083982, 7401083983, 7401083978], "tags": {"addr:city": "Kirkwood,Eastern Cape", "addr:postcode": "6120", "addr:street": "Whyte Street", "amenity": "hospital", "emergency": "yes", "fax": "+27 (0)42 230 0406", "healthcare": "hospital", "healthcare:speciality": "arv_clinic;maternity;emergency;medical_services;surgery;tb_services;x-ray_services", "name": "Sundays Valley Hospital", "operator": "Eastern Cape Department Of Health", "operator:type": "government", "phone": "042 230 0406", "wheelchair": "yes"}}, {"type": "way", "id": 791698649, "center": {"lat": -32.6750529, "lon": 27.1429034}, "nodes": [7401354945, 7401354946, 7401354947, 7401354948, 7401354949, 7401354950, 7401354951, 7401354952, 7401354953, 7401354954, 7401354955, 7401354956, 7401354957, 7401354958, 7401405685, 7401354959, 7401354960, 7401349980, 7401354961, 7401349981, 7401354962, 7401349982, 7401349978, 7401354963, 7401349979, 7401349983, 7401349984, 7401354964, 7401354965, 7401354966, 7401354967, 7401354968, 7401354969, 7401354970, 7401354971, 7401354945], "tags": {"addr:city": "Eastern Cape, South Africa", "addr:housenumber": "R352 Main road", "addr:postcode": "5670", "addr:street": "Keiskammahoek", "amenity": "hospital", "beds": "122", "healthcare": "hospital", "healthcare:speciality": "arv's;gynaecology;laboratory_service;maternity_services;medical_services;occupational_services;paediatrics;physiotherapy;x-ray_services;pharmacy_services;operating_theater_&_cssd_services", "name": "SS Gida", "wikidata": "Q7387290"}}, {"type": "way", "id": 791723315, "center": {"lat": -33.9531091, "lon": 22.450659}, "nodes": [7401528427, 7401528428, 10052493720, 7401528429, 7401528459, 7401528430, 7401528431, 7401528432, 7401528433, 7401528434, 7401528435, 7401528436, 7401528437, 7401528438, 7401528439, 7401528440, 10052493627, 10052493628, 10052493629, 7401528441, 7401528442, 7401528443, 7401528444, 7401528445, 7401528446, 7401528447, 7401528448, 7401528449, 7401528450, 7401528451, 7401528452, 7401528453, 7401528454, 7401528455, 7401528456, 7401528457, 7401528458, 7401528427], "tags": {"addr:city": "Heatherlands, George", "addr:street": "Corner of Davidson and Langenhoven Road", "amenity": "hospital", "beds": "266", "emergency": "yes", "fax": "+27 (0)44 874 5017", "healthcare": "hospital", "healthcare:speciality": "internal_medicine;paediatrics_&_neonatology;surgery(only_general);family_medicine_&_emergency_unit;orthopaedics;anaesthetics;obstetrics_&_gynaecology;psychiatry;ophthalmology", "name": "George Provincial Hospital", "operator": "Western Cape Health Department", "operator:type": "government", "phone": "+27 (0)44 802 4528", "website": "www.georgehospital.co.za", "wheelchair": "yes"}}, {"type": "way", "id": 791747374, "center": {"lat": -31.8980659, "lon": 26.8796536}, "nodes": [7401739320, 7401739321, 7401739322, 7401739323, 7401739320], "tags": {"addr:city": "Queenstown", "addr:postcode": "5319", "addr:street": "Cnr Ebden & Griffith Street", "amenity": "hospital", "contact:phone": "+27 45 8084500; +27 45 8084511", "healthcare": "hospital", "healthcare:speciality": "general_surgery;generel_medicine;obstetrics;paediatrics", "name": "Life Queenstown Private Hospital", "operator": "Life Health Care", "operator:type": "private"}}, {"type": "way", "id": 791764878, "center": {"lat": -31.8877435, "lon": 26.8719644}, "nodes": [7401955390, 7401955406, 7401955391, 7401955392, 10111935177, 7401955393, 7401955394, 7401955395, 7401955396, 10111934942, 7401955397, 7401955398, 7401955399, 7401955400, 7401955401, 7401955402, 7401955403, 10111934974, 7401955404, 10111934972, 7401955405, 7401955390], "tags": {"addr:city": "Queenstown", "addr:postcode": "5320", "addr:street": "Corner Kingsway & Livingstone Road", "amenity": "hospital", "beds": "245", "emergency": "yes", "fax": "+27 (0)45 839 4072", "healthcare": "hospital", "healthcare:speciality": "anti-retroviral_treatment_services_(arvs);emergency_services;kitchen_services;laboratory_services;laundry_services;maternity_services;medical_services;o.p.d._services;paediatrics;pharmacy_services;surgical_services;x-ray_services", "name": "Frontier Hospital", "operator": "Eastern Cape Department Of Health", "operator:type": "public", "phone": "+27 (0)45 808 4200"}}, {"type": "way", "id": 791773649, "center": {"lat": -34.0366563, "lon": 23.0583005}, "nodes": [7402017756, 7402017781, 7402017757, 7402017758, 7402017784, 7402024185, 7402017759, 7402024186, 7402017760, 7402017782, 7402017783, 7402017761, 7402017762, 7402017763, 7402017764, 7402017765, 7402017766, 7402017767, 7402017768, 7402017769, 7402017770, 7402017771, 7402017772, 7402017773, 7402017774, 7402017775, 7402017776, 7402017777, 7402017778, 7402017779, 7402017780, 7402017756], "tags": {"amenity": "hospital", "healthcare": "hospital", "name": "Knysna Provincial Hospital"}}, {"type": "way", "id": 791828870, "center": {"lat": -32.4741686, "lon": 24.0540718}, "nodes": [7402523875, 7402523876, 7402523877, 7402523878, 7402523879, 7402523880, 7402523881, 7402523882, 7402523883, 7402523884, 7402537385, 7402537386, 7402537387, 7402537388, 7402537389, 7402537390, 7402537391, 7402537392, 7402537393, 7402537394, 7402537395, 7402523875], "tags": {"addr:city": "Aberdeen,Eastern Cape", "addr:housenumber": "35", "addr:postcode": "6270", "addr:street": "Hope Street", "amenity": "hospital", "building": "yes", "contact:phone": "+27 (0)49 846 0497", "emergency": "yes", "fax": "+27 (0)49 846 0176", "healthcare": "hospital", "healthcare:speciality": "hiv/aids;emergency_department;surgical;medical;o.p.d", "name": "Aberdeen Provincial Hospital", "wikidata": "Q4666964"}}, {"type": "way", "id": 791859902, "center": {"lat": -30.6982024, "lon": 26.7073939}, "nodes": [7402749452, 7402749453, 7402749454, 7402749455, 7402749456, 7402749457, 7402749458, 7402749459, 7402749460, 7402749461, 7402749462, 7402749463, 7402749452], "tags": {"addr:city": "Aliwal North", "addr:housenumber": "1", "addr:postcode": "9750", "addr:street": "Parklane Street", "amenity": "hospital", "healthcare": "hospital", "healthcare:speciality": "paediatrics;gynaecology;maternity_ward;surgery;physiotherapy;x-ray_service;hiv_&_aids_treatment", "name": "Aliwal North Hospital", "wikidata": "Q4727490", "wikipedia": "en:Aliwal North Hospital"}}, {"type": "way", "id": 792077986, "center": {"lat": -30.7126595, "lon": 27.2117451}, "nodes": [7404962340, 7404962341, 7404962342, 7404962343, 7404962344, 7404962345, 7404962346, 7404962347, 7404962348, 7404962349, 7404962350, 7404962340], "tags": {"addr:city": "Lady Grey, Eastern Cape", "addr:housenumber": "14", "addr:postcode": "9755", "addr:street": "Bekker Street", "amenity": "hospital", "emergency": "yes", "healthcare": "hospital", "healthcare:speciality": "emergency_department;gynecology;maternity;paediatrics;surgical_services;medical_services;operating_theatre_&_cssd_services;pharmacy;anti-retroviral_(arv)_treatment_for_hiv/aids;post_trauma_counseling_services", "name": "Lady Grey Hospital", "phone": "+27 51 603 0093", "start_date": "2012", "wikidata": "Q6470206"}}, {"type": "way", "id": 792203927, "center": {"lat": -32.2092021, "lon": 27.9364897}, "nodes": [7406170875, 7406170876, 7406170877, 7406170878, 7406170879, 7406170880, 7406170881, 7406170882, 7406170883, 7406170875], "tags": {"addr:city": "Nqamakwe", "addr:postcode": "4990", "addr:street": "R409 Road,", "amenity": "hospital", "healthcare": "hospital", "healthcare:speciality": "general;maternity;chronic", "name": "Ngqamakhwe Clinic", "opening_hours": "Mo-Fr 08:00-17:00", "operator": "Eastern Cape Department Of Health", "operator:type": "government", "phone": "+27 47 487 0166", "source": "ngi-aerial"}}, {"type": "way", "id": 792485694, "center": {"lat": -32.0883489, "lon": 23.0062425}, "nodes": [7410420948, 7410420949, 7410420950, 7410420951, 7410420948], "tags": {"addr:city": "Nelspoort, Beaufort West", "addr:housenumber": "1", "addr:street": "Hospital Street", "amenity": "hospital", "beds": "92", "emergency": "yes", "fax": "023 416 1720", "healthcare": "hospital", "is_in": "Nelspoort, Western Cape", "name": "Nelspoort Hospital", "operator": "Western Cape Health Department", "operator:type": "government", "phone": "023 416 1600", "start_date": "1924"}}, {"type": "way", "id": 792509125, "center": {"lat": -30.6891916, "lon": 28.5097353}, "nodes": [7410692138, 7410692139, 7410692140, 7410692145, 7410692144, 7410692141, 7410692142, 7410692143, 7410692138], "tags": {"addr:city": "Mount Fletcher, Eastern Cape", "addr:postcode": "4470,", "addr:street": "Main Street", "amenity": "hospital", "emergency": "yes", "fax": "+27 (0)39 257 0053", "healthcare": "hospital", "healthcare:speciality": "anti-retroviral_treatment_services_(arvs);medical_services;o.p.d._services;occupational_services;operating_theatre_&_cssd_services;outpatients_(incl._assaults;paediatrics;pharmacy_services;physiotherapy;pmtc_&_vct;surgical_services;tb_services;maternity", "name": "Tayler Bequest Hospital", "phone": "+27 (0)39 257 0043", "wheelchair": "yes", "wikidata": "Q7689800", "wikipedia": "en:Tayler Bequest Hospital (Mount Fletcher)"}}, {"type": "way", "id": 792516809, "center": {"lat": -33.3101104, "lon": 26.551233}, "nodes": [7410751674, 7410751675, 7410751676, 7410751677, 7410751674], "tags": {"addr:city": "Grahamstown", "addr:postcode": "6139", "addr:street": "A Street", "amenity": "hospital", "healthcare": "hospital", "healthcare:speciality": "maternity;chronic", "name": "Temba SANTA Hospital", "phone": "0466223524"}}, {"type": "way", "id": 792544668, "center": {"lat": -32.6762936, "lon": 26.0825939}, "nodes": [7410973615, 7410973616, 7410973617, 7410973618, 7410973615], "tags": {"addr:city": "Bedfordview", "addr:housenumber": "No 7", "addr:postcode": "2008", "addr:street": "Leicester Road", "amenity": "hospital", "contact:phone": "+27 11 219 9000", "email": "jennifer.cooney@lifehealthcare.co.za", "emergency": "yes", "fax": "+27 (0)46 685 0819", "healthcare": "hospital", "healthcare:speciality": "advanced_laparoscopic_surgery;advanced_arthroscopic_surgery;cardiology;cardiothoracic_surgery;dentistry;dermatology;ent_surgery;eye_surgery;gastroenterolog;endocrinology;general_surgery;gynaecology;internal_medicine;maxillofacial_surgery;neurosurgery;obst", "name": "Bedford Hospital", "operator": "LIFE HEALTHCARE", "operator:type": "private", "website": "https://www.echealth.gov.za/"}}, {"type": "way", "id": 792564175, "center": {"lat": -32.9417283, "lon": 24.662089}, "nodes": [7411127265, 7411127266, 7411127267, 7411127268, 7411127269, 7411127270, 7411127271, 7411127272, 7411127273, 7411127274, 7411127275, 7411127276, 7411127277, 7411127265], "tags": {"addr:city": "Jansenville", "addr:postcode": "6265", "addr:street": "College Street", "amenity": "hospital", "contact:phone": "+27 (0)49 836 0083", "emergency": "yes", "fax": "+27 (0)49 836 0160", "healthcare": "hospital", "healthcare:speciality": "emergency_services;maternity_services;medical_services;o.p.d._services;pharmacy_services;physiotherapy;surgical_services", "name": "Sawas Memorial Provincial Hospital", "operator": "Eastern Cape Department Of Health", "operator:type": "public"}}, {"type": "way", "id": 792589971, "center": {"lat": -32.3328033, "lon": 28.1379795}, "nodes": [7411438858, 7411438859, 7411438860, 7411438861, 7411438862, 7411438863, 7411438864, 7411438865, 7411438866, 7411438867, 7411438868, 7411438858], "tags": {"addr:city": "Butterworth", "addr:street": "Cnr Scanlen & Geach Street", "amenity": "hospital", "beds": "350", "contact:phone": "+27 47 491 4161", "emergency": "yes", "healthcare": "hospital", "healthcare:speciality": "general;emergency;pathology;obstetrics/gynaecology;ophthalmology;paediatrics;psychiatry;surgical", "name": "Butterworth Hospital", "wikidata": "Q5003037"}}, {"type": "way", "id": 792873638, "center": {"lat": -33.6596959, "lon": 23.1257289}, "nodes": [7414165563, 7414165564, 7414165565, 7414165566, 7414165567, 7414165568, 7414165569, 7414165570, 10162755512, 7414165571, 7414165563], "tags": {"addr:city": "Uniondale", "addr:postcode": "6460", "addr:street": "Hospital Street", "amenity": "hospital", "emergency": "yes", "healthcare": "hospital", "name": "Uniondale Hospital", "operator": "municipality", "operator:type": "public", "phone": "+27 44 752 1068"}}, {"type": "way", "id": 792903659, "center": {"lat": -34.5365769, "lon": 20.0342554}, "nodes": [7414483141, 7414483142, 7414483143, 7414483144, 7414483145, 7414483146, 7414483147, 7414483141], "tags": {"addr:city": "Bredasdorp, Cape Agulhas, Overberg", "addr:postcode": "7280", "addr:street": "C/o Dorpsig & Van Riebeeck Street", "amenity": "hospital", "contact:phone": "+27 28 424 1167;+27 28 424 2652", "healthcare": "hospital", "healthcare:speciality": "orthopaedics;general_surgery;psychiatry;obstetrics_and_gynaecology", "name": "Otto Du Plessis Hospitaal", "operator": "Western Cape Department of Health", "operator:type": "public"}}, {"type": "way", "id": 792909398, "center": {"lat": -33.9719015, "lon": 23.8871104}, "nodes": [7414540689, 7414540690, 7414540691, 7414540692, 7414540689], "tags": {"amenity": "hospital", "building": "yes", "name": "Surgery"}}, {"type": "way", "id": 792917202, "center": {"lat": -31.720903, "lon": 27.1995225}, "nodes": [7414602668, 7414602669, 7414602670, 7414602671, 7414602672, 7414602668], "tags": {"addr:city": "Lady Frere", "addr:street": "Indwe Street", "amenity": "hospital", "beds": "151", "contact:phone": "+27 47 878 0018", "emergency": "yes", "healthcare": "hospital", "healthcare:speciality": "anti-retroviral_treatment_services_(arvs);dentistry;emergency_services;family_planning;gynaecology_services;maternity_services;medical_services;nursing_services;o.p.d._services;operating_theatre_&_cssd_services;paediatrics;pharmacy_services;surgical_servi", "name": "Glen Grey Provincial Hospital", "operator": "Eastern Cape Department Of Health", "operator:type": "public"}}, {"type": "way", "id": 792919598, "center": {"lat": -32.1697073, "lon": 26.7919743}, "nodes": [7414620442, 7414620443, 7414620444, 7414620445, 7414620446, 7414620447, 7414620448, 7414620449, 7414620450, 7414620451, 7414620442], "tags": {"addr:city": "Whittlesea,Queenstown Eastern Cape", "addr:postcode": "1409", "addr:street": "Main Road", "amenity": "hospital", "emergency": "yes", "fax": "+27 (0)40 841 0134", "healthcare": "hospital", "healthcare:speciality": "anti-retroviral_treatment_services_(arvs);laboratory_services;laundry_services;medical_services;obstetrics/gynaecology;pmtc_&_vct;surgical_services", "name": "HEWU HOSPITAL", "operator": "Eastern Cape Department Of Health", "operator:type": "government", "phone": "+27 (0)40 841 0133"}}, {"type": "way", "id": 792920904, "center": {"lat": -32.0096913, "lon": 26.2582227}, "nodes": [7414615525, 7414615526, 7414615527, 7414615528, 7414615529, 7414615525], "tags": {"addr:city": "Tarkastad", "addr:housenumber": "1", "addr:postcode": "5370", "addr:street": "Margaret Street", "amenity": "hospital", "beds": "20", "healthcare": "hospital", "healthcare:speciality": "general;paediatrics;hiv_&_aids_treatment", "name": "Martje Venter Hospital", "wikidata": "Q14956862"}}, {"type": "way", "id": 792943323, "center": {"lat": -32.0124769, "lon": 27.5835085}, "nodes": [7414763435, 7414763436, 7414763437, 7414763438, 7414763439, 7414763435], "tags": {"addr:city": "Cofimvaba,Eastern Cape", "addr:street": "Mzansi Road", "amenity": "hospital", "emergency": "yes", "fax": "+27 (0)47 874 0115", "healthcare": "hospital", "healthcare:speciality": "anti-retroviral_treatment_services_(arvs);dentistry;emergency_services;gynaecology_services;maternity_services;medical_services;o.p.d._services;operating_theatre_&_cssd_services;paediatrics;pharmacy_services;physiotherapy;surgical_services;termination_of_", "name": "Cofimvaba Provicial Hospital", "operator": "Eastern Cape Department Of Health", "operator:type": "public", "phone": "+27 (0)47 874 8000"}}, {"type": "way", "id": 792947594, "center": {"lat": -31.408796, "lon": 23.9497485}, "nodes": [7414840204, 7414840205, 7414840206, 7414840207, 7414840208, 7414840209, 7414840210, 7414840211, 7414840212, 7414840213, 7414840214, 7414840215, 7414840216, 7414840217, 7414840204], "tags": {"amenity": "hospital", "building": "yes", "healthcare": "hospital", "name": "Richmond Hospital"}}, {"type": "way", "id": 823582435, "center": {"lat": -34.3258874, "lon": 21.4190419}, "nodes": [7689266916, 7689266917, 7689266918, 7689266919, 7689266916], "tags": {"addr:city": "Still Bay East, Still Bay", "addr:housenumber": "4", "addr:postcode": "6674", "addr:street": "Rooipitjie Avenue", "amenity": "hospital", "healthcare": "hospital", "healthcare:speciality": "general;chronic;maternity", "name": "Melkhoutfontein Kliniek", "opening_hours": "Mo-Fr 08:00-17:00", "operator": "Western Cape Health Department", "operator:type": "government", "phone": "0287541978"}}, {"type": "way", "id": 856164504, "center": {"lat": -33.5630715, "lon": 26.8794895}, "nodes": [7983185371, 7983185370, 7983185369, 7983185368, 7983185367, 7983185366, 482229340, 7983185365, 7983185364, 7983185363, 7983185371], "tags": {"addr:city": "Port Alfred", "addr:housenumber": "43", "addr:postcode": "6170", "addr:street": "Bathurst S", "amenity": "hospital", "contact:phone": "+27 46 624 5306", "emergency": "yes", "healthcare": "hospital", "name": "Marjorie Parrish SANTA Hospital", "operator": "SANTA", "operator:type": "private"}}, {"type": "way", "id": 1018247784, "center": {"lat": -31.075967, "lon": 28.347827}, "nodes": [9391868704, 9391868705, 9391868706, 9391868707, 9391868708, 9391868709, 9391868704], "tags": {"addr:city": "Nqanqarhu", "addr:street": "Fourie Street", "amenity": "hospital", "healthcare": "hospital", "name": "Maclear Hospital"}}, {"type": "way", "id": 1019085479, "center": {"lat": -33.7474125, "lon": 25.380005}, "nodes": [954333978, 954333974, 954333968, 9399732913, 9399732914, 9399732915, 7189388771, 6093296848, 7189388770, 954333978], "tags": {"addr:city": "Kariega", "addr:housenumber": "1", "addr:street": "John Dissel Drive", "amenity": "hospital", "healthcare": "hospital", "name": "Orsmond TB Hospital"}}, {"type": "way", "id": 1022392580, "center": {"lat": -32.0118861, "lon": 26.2473636}, "nodes": [9429367433, 9429367434, 9429367435, 9429367436, 9429367437, 9429367438, 9429367439, 9429367433], "tags": {"amenity": "hospital", "healthcare": "hospital"}}, {"type": "way", "id": 1024780165, "center": {"lat": -33.9244477, "lon": 25.5709049}, "nodes": [9449435177, 9449435178, 9449435179, 9449435180, 9449435181, 9449435182, 9449435183, 9449435184, 9449435177], "tags": {"addr:city": "Gqeberha", "addr:housenumber": "1", "addr:postcode": "6020", "addr:street": "Stanford Road", "amenity": "hospital", "emergency": "yes", "healthcare": "hospital", "healthcare:speciality": "surgery;paediatrics;physiotherapy;occupational_therapy;arv_treatment_of_hiv/aids;x-ray_services;maxillofacila;nhls_laboratory;oral_health_care", "name": "Livingstone Hospital", "operator": "Eastern Cape Department of Health", "operator:type": "public", "wikidata": "Q6659722", "wikipedia": "en:Livingstone Hospital"}}, {"type": "way", "id": 1036630839, "center": {"lat": -31.4090425, "lon": 23.9492791}, "nodes": [9550357942, 9550357943, 9550357944, 9550357945, 9550357942], "tags": {"addr:city": "Durban Road, Richmond", "amenity": "hospital", "beds": "180", "healthcare": "hospital", "healthcare:speciality": "prevention_and_cure_of_tb.", "name": "richmond hospital", "operator": "Kwazulu Natal Department of Health", "operator:type": "public"}}, {"type": "way", "id": 1051080061, "center": {"lat": -32.6794059, "lon": 26.088852}, "nodes": [9658945220, 9658945221, 9658945222, 9658945223, 9658945224, 9658945220], "tags": {"addr:street": "Cole Street & Adederly street", "amenity": "hospital", "emergency": "yes", "healthcare": "hospital", "name": "Bedford Clinic"}}, {"type": "way", "id": 1053574765, "center": {"lat": -33.0123004, "lon": 27.880672}, "nodes": [9682277900, 9682277901, 9682277902, 9682277903, 9682277904, 9682277905, 9682277906, 9682277907, 9682277908, 9682277909, 9682277910, 9682277911, 9682277912, 9682277900], "tags": {"amenity": "hospital", "healthcare": "hospital"}}, {"type": "way", "id": 1053976064, "center": {"lat": -32.4740793, "lon": 24.054442}, "nodes": [9685763721, 9685763722, 9685763723, 9685763724, 9685763725, 9685763726, 9685763727, 9685763728, 10167614204, 9685763721], "tags": {"amenity": "hospital", "healthcare": "hospital"}}, {"type": "way", "id": 1057198201, "center": {"lat": -33.9822566, "lon": 25.5630242}, "nodes": [9714055964, 9714055965, 9714055966, 9714055967, 9714055968, 9714055969, 9714055970, 9714055971, 9714055972, 9714055973, 9714055974, 9714055975, 9714055964], "tags": {"amenity": "hospital", "healthcare": "hospital"}}, {"type": "way", "id": 1060120456, "center": {"lat": -31.1236723, "lon": 26.8075476}, "nodes": [9739979285, 9739979286, 9739979287, 9739979288, 9739979289, 9739979290, 9739979291, 9739979285], "tags": {"addr:city": "Jamestown", "addr:housenumber": "30", "addr:street": "Hills Street", "amenity": "hospital", "contact:phone": "+27 (0)51) 641 0911", "emergency": "yes", "fax": "+27 (0)51) 641 0722", "healthcare": "hospital", "healthcare:speciality": "anti-retroviral_treatment_services_(arvs);emergency_services;kitchen_services;laundry_services;maternity_services;medical_services;o.p.d._services;paediatrics;pharmacy_services;pmtc_&_vct;surgical_services", "name": "Jamestown Provincial Aided Hospital", "website": "https://www.echealth.gov.za/"}}, {"type": "way", "id": 1084297712, "center": {"lat": -33.8848991, "lon": 25.5186756}, "nodes": [9936069489, 9936069490, 9936069491, 9936069492, 9936069493, 9936069494, 9936069495, 9936069496, 9936069497, 9936069489], "tags": {"addr:city": "West End, Bethelsdorp", "addr:postcode": "6059", "addr:street": "Cnr Baubinia Road & St Bridget Street", "amenity": "hospital", "emergency": "yes", "healthcare": "hospital", "name": "West End Community Health Center", "operator": "Eastern Cape Department Of Health", "operator:type": "government", "phone": "+27 41 482 0386"}}, {"type": "way", "id": 1085923047, "center": {"lat": -32.1750973, "lon": 28.8756518}, "nodes": [9950232789, 9950232790, 9950232793, 9950232791, 9950232792, 9950232789], "tags": {"addr:city": "Hobeni, Amathole District Municipality, Eastern Cape", "amenity": "hospital", "healthcare": "hospital", "healthcare:speciality": "general;chronic;maternity", "name": "Hobeni Clinic", "operator": "Eastern Cape Department Of Health", "operator:type": "public", "phone": "0474870166, 0474870167"}}, {"type": "way", "id": 1090373229, "center": {"lat": -34.0178163, "lon": 21.7621679}, "nodes": [9987363506, 9987363507, 9987363508, 9987363509, 9987363506], "tags": {"amenity": "hospital", "healthcare": "hospital"}}, {"type": "way", "id": 1102989177, "center": {"lat": -31.2932277, "lon": 25.8128212}, "nodes": [10093342446, 10093342447, 10093342448, 10093342449, 10093342450, 10093342451, 10093342453, 10093342446], "tags": {"amenity": "hospital", "healthcare": "hospital"}}, {"type": "way", "id": 1103021023, "center": {"lat": -32.9779549, "lon": 27.8894848}, "nodes": [10093600130, 10093600131, 10093600132, 10093600133, 10093600134, 10093600135, 10093600136, 10093600130], "tags": {"amenity": "hospital", "healthcare": "hospital"}}, {"type": "way", "id": 1103958766, "center": {"lat": -31.5637781, "lon": 29.1154195}, "nodes": [10102165967, 10102165968, 10102165969, 10102165970, 10102165971, 10102165972, 10102165973, 10102165974, 10102165975, 10102165976, 10102165977, 10102165978, 10102165979, 10102165980, 10102165981, 10102165982, 10102165983, 10102165984, 10102165985, 10102165986, 10102165987, 10102165988, 10102165967], "tags": {"addr:city": "Libode", "addr:housenumber": "Stand 1", "addr:postcode": "5160", "addr:street": "Port St Johns Road,", "amenity": "hospital", "email": "mbandlasikiswa@gmail.com", "emergency": "yes", "fax": "0475686005", "healthcare": "hospital", "healthcare:speciality": "general;chronic;maternity", "name": "St Barnabas Provincial Hospital", "opening_hours": "24/7", "operator": "Eastern Cape Department Of Health", "operator:type": "government", "phone": "0475555300"}}, {"type": "way", "id": 1105091993, "center": {"lat": -32.0888039, "lon": 23.0052599}, "nodes": [10112509485, 10112509486, 10112509487, 10112509488, 10112509489, 10112509490, 10112509491, 10112509492, 10112509485], "tags": {"amenity": "hospital", "healthcare": "hospital"}}, {"type": "way", "id": 1105112556, "center": {"lat": -33.2960731, "lon": 26.5464335}, "nodes": [10112892497, 10112892498, 10112892499, 10112892500, 10112892501, 10112892502, 10112892497], "tags": {"amenity": "hospital", "healthcare": "hospital"}}, {"type": "way", "id": 1105406908, "center": {"lat": -33.0055825, "lon": 27.6469818}, "nodes": [10115607523, 10115607524, 10115607525, 10115607526, 10115607527, 10115607528, 10115607529, 10115607530, 10115607531, 10115607532, 10115607533, 10115607534, 10115607535, 10115607536, 10115607537, 10115607523], "tags": {"amenity": "hospital", "healthcare": "hospital"}}, {"type": "way", "id": 1117581848, "center": {"lat": -31.0914561, "lon": 29.1876456}, "nodes": [10221363628, 10221363627, 10221363626, 10221363625, 10221363624, 10221363623, 10221363622, 10221363621, 10221363620, 10221363619, 10221363628], "tags": {"amenity": "hospital"}}, {"type": "way", "id": 1149900804, "center": {"lat": -30.5523816, "lon": 29.4243368}, "nodes": [10697144487, 10697144488, 10697144489, 10697144490, 10697144491, 10697144492, 10697144487], "tags": {"amenity": "hospital", "healthcare": "hospital", "name": "Kokstad Private Hospital", "operator": "Netcare", "operator:wikidata": "Q6998801"}}, {"type": "way", "id": 1151198968, "center": {"lat": -33.8894788, "lon": 25.4722271}, "nodes": [10709158088, 10709158089, 10709158090, 10709158091, 10709158092, 10709158093, 10709184205, 10709158094, 10709184206, 10709158095, 10709158096, 10709158097, 10709158098, 10709158088], "tags": {"amenity": "hospital", "healthcare": "hospital", "healthcare:speciality": "psychogeriatric_care", "name": "Algoa Frail Care", "operator": "Life Health Care", "operator:wikidata": "Q6458636"}}, {"type": "way", "id": 1162307727, "center": {"lat": -30.9940703, "lon": 26.3142776}, "nodes": [10809703953, 10809703929, 10809703928, 10809703927, 10809703926, 10809703925, 10809703924, 10809703923, 10809703922, 10809703921, 10809703920, 10809703919, 10809703918, 10809703917, 10809703916, 10809703953], "tags": {"amenity": "hospital"}}, {"type": "way", "id": 1217465075, "center": {"lat": -32.1513604, "lon": 25.6229724}, "nodes": [11280705483, 11280705482, 11280705481, 11280705480, 11280705479, 11280705478, 11280705477, 11280705476, 11280705475, 11280705474, 11280705483], "tags": {"amenity": "hospital"}}, {"type": "way", "id": 1217511047, "center": {"lat": -31.9621753, "lon": 23.7695123}, "nodes": [11281161441, 11281161440, 11281161439, 11281161438, 11281161437, 11281161436, 11281161435, 11281161434, 6150642298, 6150642301, 11281161441], "tags": {"amenity": "hospital"}}, {"type": "relation", "id": 5926715, "center": {"lat": -31.3595181, "lon": 29.5646804}, "members": [{"type": "way", "ref": 394906165, "role": "outer"}, {"type": "way", "ref": 394906163, "role": "inner"}, {"type": "way", "ref": 394906162, "role": "inner"}], "tags": {"amenity": "hospital", "building": "yes", "type": "multipolygon"}}]}