{"version": 0.6, "generator": "Overpass API 0.7.61.5 4133829e", "osm3s": {"timestamp_osm_base": "2023-10-31T20:47:26Z", "copyright": "The data included in this document is from www.openstreetmap.org. The data is made available under ODbL."}, "elements": [{"type": "node", "id": 200116227, "lat": -35.0819084, "lon": 138.8700701, "tags": {"amenity": "hospital", "healthcare": "hospital", "name": "Mount Barker District Soldiers' Memorial Hospital"}}, {"type": "node", "id": 674022214, "lat": -34.8825381, "lon": 138.6619921, "tags": {"addr:housenumber": "580", "addr:postcode": "5074", "addr:state": "SA", "addr:street": "Lower North East Road", "addr:suburb": "Campbelltown", "amenity": "hospital", "healthcare": "hospital", "name": "North Eastern Community Hospital - NECH", "phone": "08 8366 8111", "website": "https://www.northeasternhospital.com.au/"}}, {"type": "node", "id": 848330446, "lat": -32.7929507, "lon": 134.2175504, "tags": {"amenity": "hospital", "healthcare": "hospital", "name": "Streaky Bay Hospital"}}, {"type": "node", "id": 1297861501, "lat": -30.5916146, "lon": 138.398486, "tags": {"amenity": "hospital", "name": "Leigh Creek Hospital"}}, {"type": "node", "id": 1330880864, "lat": -32.7384685, "lon": 138.6072724, "tags": {"amenity": "hospital", "healthcare": "hospital", "name": "Orroroo and Districts Hospital", "source": "voice"}}, {"type": "node", "id": 1339617355, "lat": -30.5626574, "lon": 136.8942395, "tags": {"amenity": "hospital", "name": "Roxby Downs Hospital"}}, {"type": "node", "id": 1467984181, "lat": -34.9488177, "lon": 138.5539075, "tags": {"amenity": "hospital", "emergency": "no", "healthcare": "hospital", "name": "Galway Medical Centre"}}, {"type": "node", "id": 2121152024, "lat": -33.6476559, "lon": 134.8927044, "tags": {"amenity": "hospital", "healthcare": "hospital"}}, {"type": "node", "id": 2266702228, "lat": -34.8463621, "lon": 138.4805469, "tags": {"amenity": "hospital", "healthcare": "hospital", "name": "St Margarets Rehabilitation Hospital", "source": "survey"}}, {"type": "node", "id": 2452535839, "lat": -32.1190063, "lon": 133.672727, "tags": {"amenity": "hospital", "healthcare": "hospital", "name": "Ceduna District Health Services"}}, {"type": "node", "id": 2461292044, "lat": -31.8934943, "lon": 138.4279709, "tags": {"amenity": "hospital", "name": "Hawker Hospital"}}, {"type": "node", "id": 3912942067, "lat": -34.910179, "lon": 138.5886789, "tags": {"addr:housenumber": "89", "addr:street": "Strangways Terrace", "amenity": "hospital", "healthcare": "hospital", "name": "Calvary North Adelaide Hospital", "phone": "+61 8 8239 9100", "wikidata": "Q5024193"}}, {"type": "node", "id": 3912947700, "lat": -34.2641549, "lon": 135.7329424, "tags": {"amenity": "hospital", "healthcare": "hospital", "name": "Cummins and District Memorial Hospital"}}, {"type": "node", "id": 3912973919, "lat": -35.0210817, "lon": 137.6050369, "tags": {"amenity": "hospital", "healthcare": "hospital", "name": "Southern Yorke Peninsula Health Service (Yorketown)"}}, {"type": "node", "id": 5586992821, "lat": -34.9070143, "lon": 138.6133065, "tags": {"addr:housenumber": "33", "addr:postcode": "5081", "addr:street": "Park Terrace", "amenity": "hospital", "healthcare": "hospital", "name": "The Adelaide Clinic"}}, {"type": "node", "id": 10292501314, "lat": -33.60109, "lon": 137.9338996, "tags": {"amenity": "hospital", "healthcare": "hospital"}}, {"type": "node", "id": 10605391727, "lat": -36.8355308, "lon": 139.848552, "tags": {"amenity": "hospital", "healthcare": "hospital", "name": "Kingston Hospital"}}, {"type": "way", "id": 26725325, "center": {"lat": -34.9005516, "lon": 138.4955275}, "nodes": [293129267, 632210203, 632210204, 293129269, 3306235911, 293129270, 293129271, 293129272, 293129267], "tags": {"addr:city": "Grange", "addr:housenumber": "56-58", "addr:postcode": "5022", "addr:street": "High Street", "amenity": "hospital", "emergency": "no", "healthcare": "hospital", "name": "St Laurences Nursing Home"}}, {"type": "way", "id": 41414658, "center": {"lat": -34.9115191, "lon": 138.6000066}, "nodes": [506467209, 2022538661, 1916652196, 506467207, 506467208, 506467209], "tags": {"amenity": "hospital", "emergency": "yes", "healthcare": "hospital", "name": "Womens and Childrens Hospital", "website": "https://www.wch.sa.gov.au/", "wikidata": "Q8031120"}}, {"type": "way", "id": 42676341, "center": {"lat": -34.9481684, "lon": 138.5767447}, "nodes": [533665248, 533665249, 533665250, 533665252, 533665248], "tags": {"addr:housenumber": "55-57", "addr:state": "SA", "addr:street": "Anzac Highway", "addr:suburb": "ashford", "amenity": "hospital", "building": "yes", "emergency": "yes", "healthcare": "hospital", "name": "Ashford Hospital", "website": "https://ashfordhospital.org.au/", "wikidata": "Q4805000", "wikipedia": "en:Ashford Hospital, Adelaide"}}, {"type": "way", "id": 46504899, "center": {"lat": -35.5614878, "lon": 138.6068274}, "nodes": [594503066, 594503070, 594503073, 594503075, 594503066], "tags": {"amenity": "hospital", "emergency": "yes", "healthcare": "hospital", "name": "South Coast District Hospital"}}, {"type": "way", "id": 70107638, "center": {"lat": -35.1291454, "lon": 139.2803212}, "nodes": [837409767, 837410576, 837410149, 837409827, 837410492, 837410240, 837409763, 837410766, 837410330, 837409896, 837409636, 837410260, 837409910, 837410786, 837410523, 837410373, 837410075, 837409648, 837409927, 837409683, 837410540, 837410264, 837410118, 837409773, 837410645, 837410390, 837409708, 837410688, 837410320, 837409998, 837409801, 837409578, 837410433, 837410134, 837410730, 837410481, 837410057, 837409742, 837409601, 837410593, 837410199, 837409846, 837410671, 837410421, 837409974, 837409691, 837410791, 837409767], "tags": {"amenity": "hospital", "building": "yes", "emergency": "yes", "healthcare": "hospital", "name": "Murray Bridge Soldiers Memorial Hospital"}}, {"type": "way", "id": 81146295, "center": {"lat": -34.910776, "lon": 138.5001858}, "nodes": [945657073, 11147699983, 11147699982, 945657074, 945657075, 945657076, 11147699971, 11147699970, 11147699965, 11147699968, 945657073], "tags": {"amenity": "hospital", "healthcare": "hospital", "name": "Western Community Private Hospital"}}, {"type": "way", "id": 100636313, "center": {"lat": -33.6979998, "lon": 136.4941015}, "nodes": [1163367397, 1163367429, 1163367339, 1163367297, 1163367505, 1163367483, 1163367396, 1163367388, 1163367562, 1163367550, 1163367459, 1163367438, 1163367348, 1163367337, 1163367539, 1163367500, 1163367426, 1163367394, 1163367590, 1163367559, 1163367478, 1163367457, 1163367384, 1163367346, 1163367547, 1163367514, 1163367436, 1163367423, 1163367334, 1163367589, 1163367499, 1163367474, 1163367379, 1163367556, 1163367397], "tags": {"amenity": "hospital", "building": "yes", "name": "Cleve District Hospital", "source": "Bing"}}, {"type": "way", "id": 117932986, "center": {"lat": -34.8342012, "lon": 138.6905101}, "nodes": [1327365730, 1327365676, 1327365699, 1327365675, 1327365792, 1327365769, 1327365795, 1327365666, 2357109387, 2357109381, 2357109388, 2357109382, 1327365762, 2632120429, 1327365689, 1327365782, 1327365710, 1327365674, 1327365697, 1327365789, 1327365719, 1327365767, 1327365822, 1327365733, 1327365804, 1327365810, 1327365741, 1327365702, 1327365774, 1327365695, 1327365681, 1327365766, 5437621423, 5437621424, 1327365756, 1327365739, 1327365863, 1327365809, 1327365717, 1327365787, 5437621421, 5437621422, 1327365847, 1327365730], "tags": {"amenity": "hospital", "building": "yes", "healthcare": "hospital", "layer": "1", "name": "Modbury Hospital", "wheelchair": "yes", "wikidata": "Q6888062"}}, {"type": "way", "id": 120028327, "center": {"lat": -32.3510421, "lon": 138.0385777}, "nodes": [1346795080, 1346795088, 1346795083, 1346795077, 1346795072, 1346795091, 1346795076, 1346795067, 1346795089, 1346795084, 1346795078, 1346795073, 1346795092, 1346795086, 1346795069, 1346795090, 1346795085, 1346795079, 1346795080], "tags": {"amenity": "hospital", "emergency": "yes", "name": "Quorn District and Memorial Hospital", "source": "http://www.myhospitals.gov.au/hospital/41NF00208/quorn-and-district-memorial-hospital"}}, {"type": "way", "id": 124151115, "center": {"lat": -34.9276195, "lon": 138.6110973}, "nodes": [1382641720, 1382641717, 1382641715, 1382641734, 1382641720], "tags": {"amenity": "hospital", "disused": "yes", "emergency": "no", "healthcare": "hospital", "name": "Wakefield Hospital [Calvary]", "operational_status": "closed", "wikidata": "Q5024207", "wikipedia": "en:Calvary Wakefield Hospital"}}, {"type": "way", "id": 124151116, "center": {"lat": -34.9342289, "lon": 138.6149956}, "nodes": [1382641732, 1382641729, 1382641718, 1382641730, 1382641732], "tags": {"amenity": "hospital", "healthcare": "hospital", "name": "St Andrews Hospital", "wheelchair": "yes", "wikidata": "Q30270448"}}, {"type": "way", "id": 125618469, "center": {"lat": -35.0215827, "lon": 138.5692601}, "nodes": [1394842685, 9634948939, 11126718146, 1394842677, 1992420594, 1992420599, 1394842664, 1394842679, 1394842673, 1394842660, 1394842674, 1394842666, 1394842681, 1394842675, 1394842658, 5625770963, 5645664348, 5645664347, 2349057258, 1394842656, 2349057295, 1394842685], "tags": {"amenity": "hospital", "healthcare": "hospital", "name": "Flinders Medical Centre", "toilets:wheelchair": "yes", "wheelchair": "yes", "wikidata": "Q5459413"}}, {"type": "way", "id": 176262096, "center": {"lat": -34.860415, "lon": 138.6207212}, "nodes": [1868212423, 1868063301, 1868063270, 1868063262, 1868063257, 1868063255, 1868063227, 1868063235, 7374214505, 7374214508, 7374214507, 7374214506, 7374214519, 1868063239, 1778030613, 9494185932, 9494185949, 9494185950, 1868212423], "tags": {"amenity": "hospital", "healthcare": "hospital", "name": "Hampstead Centre"}}, {"type": "way", "id": 178740161, "center": {"lat": -34.8260583, "lon": 138.8819534}, "nodes": [1890948369, 8121282191, 2119679343, 2119679335, 2119679346, 2119679333, 8121282121, 3723123726, 3723123727, 8121277153, 8121282141, 1796979138, 1796979129, 1796979121, 1796979113, 1796979108, 1890948370, 1890948365, 1890948363, 1890948364, 1890948367, 1890948371, 1890948366, 1890948368, 1890948372, 3723123767, 1890948369], "tags": {"addr:housenumber": "2", "addr:postcode": "5233", "addr:state": "SA", "addr:street": "Albert Street", "addr:suburb": "Gumeracha", "amenity": "hospital", "emergency": "no", "fax": "+61 8 8209 9201", "healthcare": "hospital", "name": "Gumeracha District Soldiers\u2019 Memorial Hospital", "operator": "SA Health", "operator:type": "public", "phone": "+61 8 8209 9200", "source": "Local knowledge", "website": "https://www.sahealth.sa.gov.au/wps/wcm/connect/public+content/sa+health+internet/services/hospitals/regional+hospitals+and+health+services/bhflhn+hospitals+and+health+services/gumeracha+district+soldiers+memorial+hospital/gumeracha+district+soldiers+memor"}}, {"type": "way", "id": 180653963, "center": {"lat": -34.9903557, "lon": 138.5897048}, "nodes": [1910991916, 1910991920, 1910991921, 5940776892, 1910991870, 1910991879, 1910991931, 1910991892, 1910991923, 9484921610, 1910991887, 1910991927, 1910991925, 8356409576, 1910991884, 1910991877, 1910991919, 1910991916], "tags": {"amenity": "hospital", "emergency": "no", "healthcare": "hospital", "name": "Repatriation General Hospital", "wikidata": "Q7313919"}}, {"type": "way", "id": 181219963, "center": {"lat": -34.9129092, "lon": 138.6000843}, "nodes": [1916646261, 1916646252, 1916646264, 2375711315, 1916646263, 1916646259, 2375717427, 2382918977, 2375717419, 2375717377, 2375717434, 1916646262, 1916646261], "tags": {"amenity": "hospital", "emergency": "no", "healthcare": "hospital", "name": "The Memorial Hospital", "website": "http://www.thememorialhospital.org.au"}}, {"type": "way", "id": 181469729, "center": {"lat": -34.5934548, "lon": 138.7551382}, "nodes": [1918877745, 1918877803, 1918877775, 1918877795, 1918877771, 1918877738, 1918877782, 7409103704, 1918877769, 1918877807, 1918877784, 1918877772, 1918877792, 1918877778, 1918877788, 1918877765, 1918877767, 1918877733, 1918877742, 1918877799, 1918877745], "tags": {"amenity": "hospital", "emergency": "yes", "healthcare": "hospital", "name": "Gawler Hospital"}}, {"type": "way", "id": 182327961, "center": {"lat": -34.9206643, "lon": 138.5861323}, "nodes": [1973348110, 711944965, 11033593209, 11033593210, 654012389, 11033593211, 9898902045, 9898902043, 247750521, 711945140, 6360099374, 30036047, 30036022, 664946424, 30036023, 9351931219, 30036156, 1926813140, 292024975, 903623794, 292024976, 903623795, 292024977, 1310012539, 1310012527, 1310012544, 1310012511, 1310012523, 292024978, 292024979, 292024980, 292024981, 1973348063, 1973348066, 1973348110], "tags": {"amenity": "hospital", "healthcare": "hospital", "name": "Royal Adelaide Hospital", "website": "https://www.newrah.sa.gov.au/", "wikidata": "Q7373582", "wikipedia": "en:Royal Adelaide Hospital"}}, {"type": "way", "id": 228634164, "center": {"lat": -32.9808051, "lon": 138.8302126}, "nodes": [2372949148, 2372949147, 5130968065, 2372949141, 2372949143, 5130968066, 2372949148], "tags": {"amenity": "hospital", "name": "Peterborough Soldiers' Memorial Hospital", "source": "bing"}}, {"type": "way", "id": 228635694, "center": {"lat": -33.2120833, "lon": 138.6161494}, "nodes": [2372960816, 5258553074, 2372960818, 2372960819, 2372960817, 2372960816], "tags": {"amenity": "hospital", "healthcare": "hospital", "name": "Jamestown Hospital", "source": "bing"}}, {"type": "way", "id": 228920649, "center": {"lat": -34.8838527, "lon": 138.5336523}, "nodes": [2375720025, 2375720029, 2375720030, 5703543902, 7407489948, 7407489949, 7407489950, 2375720028, 7407489951, 7407489952, 2375720026, 2375720023, 2375720027, 9561770946, 9561770947, 2375720024, 2375720025], "tags": {"addr:street": "Woodville Road", "amenity": "hospital", "emergency": "yes", "healthcare": "hospital", "name": "The Queen Elizabeth Hospital", "wikidata": "Q7270336"}}, {"type": "way", "id": 260699702, "center": {"lat": -33.0338023, "lon": 137.5774742}, "nodes": [2662375063, 2662374932, 2662374920, 2662374910, 2662374710, 2662374521, 2662374530, 2662374547, 2662374563, 2662374588, 2662374649, 2662374715, 2662375063], "tags": {"amenity": "hospital", "healthcare": "hospital", "name": "Whyalla Hospital"}}, {"type": "way", "id": 260699836, "center": {"lat": -33.0294133, "lon": 137.5414088}, "nodes": [2662373656, 2662373658, 2662373683, 2662374220, 2662374241, 2662374239, 2662374195, 2662374182, 2662374157, 2662374125, 2662374122, 2662374105, 2662374098, 2662373951, 2662373844, 2662373734, 2662373704, 2662373705, 2662373632, 2662373656], "tags": {"amenity": "hospital", "healthcare": "hospital"}}, {"type": "way", "id": 260707340, "center": {"lat": -33.1768124, "lon": 138.0055749}, "nodes": [2662591501, 2662591483, 2662591486, 2662591491, 2662591499, 1033056883, 2662591501], "tags": {"amenity": "hospital", "healthcare": "hospital", "name": "Port Pirie Hospital", "website": "https://www.sahealth.sa.gov.au/PtPiriehospital"}}, {"type": "way", "id": 260881623, "center": {"lat": -33.8296325, "lon": 138.6143902}, "nodes": [2664674096, 2664674095, 2664674098, 2664674097, 2664674080, 2664674081, 2664674078, 2664674079, 2664674096], "tags": {"amenity": "hospital", "healthcare": "hospital", "name": "Clare Hospital"}}, {"type": "way", "id": 264056530, "center": {"lat": -34.3720577, "lon": 136.1041083}, "nodes": [2697252524, 11247759836, 2697252520, 2697252426, 11247759835, 2697252428, 2697252524], "tags": {"amenity": "hospital", "healthcare": "hospital"}}, {"type": "way", "id": 264288536, "center": {"lat": -32.5099898, "lon": 137.7759253}, "nodes": [1698714464, 1698714674, 1184093117, 2699790239, 1243135199, 6598641336, 6598641335, 6598641333, 6598641334, 6598641332, 1316828915, 2699790224, 2699790225, 2699790226, 2699790227, 2699790232, 2699790231, 2699790230, 2699790229, 2699790228, 1698714464], "tags": {"addr:city": "Port Augusta", "addr:postcode": "5700", "addr:street": "Hospital Road", "amenity": "hospital", "emergency": "yes", "healthcare": "hospital", "name": "Port Augusta Hospital and Regional Health Service"}}, {"type": "way", "id": 264568574, "center": {"lat": -31.2018358, "lon": 136.8256733}, "nodes": [2702334172, 2702334150, 2702334122, 2702334106, 2702334054, 2702334048, 2702334044, 454018386, 6215530218, 454018384, 6215530227, 2702334162, 6215530217, 2702334172], "tags": {"amenity": "hospital", "emergency": "yes", "healthcare": "hospital", "name": "Woomera Hospital"}}, {"type": "way", "id": 265578197, "center": {"lat": -33.6854329, "lon": 138.9346325}, "nodes": [2712229939, 2712229896, 2712229884, 2712229903, 2712229939], "tags": {"addr:housenumber": "46", "addr:postcode": "5417", "addr:street": "Commercial Street", "addr:town": "Burra", "alt_name": "Lower North Health Sertvices - Burra", "amenity": "hospital", "emergency": "yes", "healthcare": "hospital", "name": "Burra Hospital"}}, {"type": "way", "id": 267014990, "center": {"lat": -34.1390298, "lon": 138.4203754}, "nodes": [2724970566, 2724970567, 2724970565, 2724970441, 2724970408, 2724970412, 2724970415, 2724970421, 2724970423, 2724970433, 2724970435, 2724970440, 2724970443, 2724970566], "tags": {"amenity": "hospital"}}, {"type": "way", "id": 267188140, "center": {"lat": -34.9161091, "lon": 139.3086745}, "nodes": [2726622633, 2726622618, 2726622615, 2726622614, 2726622596, 2726622597, 2726622578, 2726622574, 2726622575, 2726622579, 2726622583, 2726622633], "tags": {"amenity": "hospital", "healthcare": "hospital"}}, {"type": "way", "id": 267188151, "center": {"lat": -34.9159762, "lon": 139.3074956}, "nodes": [2726622617, 2726622582, 2726622581, 2726622588, 2726622590, 2726622593, 2726622604, 2726622607, 2726622610, 2726622617], "tags": {"amenity": "hospital", "healthcare": "hospital"}}, {"type": "way", "id": 268296612, "center": {"lat": -34.9293915, "lon": 138.6054006}, "nodes": [2736472147, 5346104959, 7116269372, 5346104957, 2736473064, 2736473065, 2736472160, 5583242159, 2736472147], "tags": {"addr:housenumber": "120", "addr:postcode": "5000", "addr:state": "SA", "addr:street": "Angas Street", "addr:suburb": "Adelaide", "amenity": "hospital", "building": "yes", "building:levels": "12", "emergency": "yes", "healthcare": "hospital", "name": "Calvary Adelaide Hospital", "phone": "+61 8 8227 7000", "website": "https://www.calvarycare.org.au/adelaide-hospital/", "wikidata": "Q65064526", "wikipedia": "en:Calvary Adelaide Hospital"}}, {"type": "way", "id": 268837208, "center": {"lat": -34.9276404, "lon": 138.6385876}, "nodes": [2741500260, 2741500262, 2741500263, 2741500270, 2741500261, 2741500269, 2741500267, 2741500258, 2741500252, 2741500255, 2741500249, 2741500265, 2741500272, 2741500253, 2741500268, 2741500248, 2741500275, 2741500259, 2741500260], "tags": {"amenity": "hospital", "healthcare": "hospital", "name": "Burnside War Memorial Hospital", "wikidata": "Q5000153"}}, {"type": "way", "id": 285841781, "center": {"lat": -34.9284041, "lon": 138.6142728}, "nodes": [2115685832, 2894761025, 2894761032, 2894761024, 2894761030, 2894761015, 2894761027, 2894761022, 2115685832], "tags": {"addr:city": "Adelaide", "addr:housenumber": "137", "addr:postcode": "5000", "addr:street": "East Terrace", "amenity": "hospital", "emergency": "no", "healthcare": "hospital", "name": "Parkwyn Private Hospital", "operator": "Healthscope South Australia Pty Ltd", "phone": "+61 8 8223 3294", "website": "https://parkwyndprivatehospital.com.au/", "wheelchair": "yes"}}, {"type": "way", "id": 320149328, "center": {"lat": -34.7240252, "lon": 135.8501943}, "nodes": [3266477682, 6654560687, 7675112427, 3266477683, 3266477684, 3266477685, 3266477686, 3266477687, 3266477688, 3266477689, 6654558290, 3266477690, 6654558289, 6654560686, 3266477682], "tags": {"amenity": "hospital", "emergency": "yes", "healthcare": "hospital", "name": "Port Lincoln Hospital and Health Service", "operator": "SA Health", "operator:type": "government", "website": "https://www.sahealth.sa.gov.au/wps/wcm/connect/public+content/sa+health+internet/health+services/hospitals+and+health+services+-+country+south+australia/eyre+peninsula+western+hospitals+health+services/port+lincoln+hospital+and+health+service"}}, {"type": "way", "id": 336931375, "center": {"lat": -35.1293773, "lon": 139.2808026}, "nodes": [3440153433, 3440153441, 3440153445, 3440153438, 3440153437, 3440153439, 3440153436, 3440153442, 3440153434, 3440153432, 3440153443, 3440153440, 3440153435, 3440153444, 3440153433], "tags": {"amenity": "hospital", "emergency": "yes", "healthcare": "hospital", "name": "Murray Bridge Soldiers Memorial Hospital"}}, {"type": "way", "id": 407871036, "center": {"lat": -35.0072495, "lon": 138.7146298}, "nodes": [150475637, 254051447, 3285427224, 254051448, 254051449, 254051451, 254051452, 254345932, 4098980885, 4098980886, 4098980887, 3285427227, 254051444, 254051443, 254051442, 329041561, 3283478078, 150475637], "tags": {"amenity": "hospital", "emergency": "no", "healthcare": "hospital", "name": "Stirling District Hospital"}}, {"type": "way", "id": 424447913, "center": {"lat": -33.3543959, "lon": 138.2134499}, "nodes": [4238528718, 4238528154, 4238528710, 4238528175, 4238528176, 4238528722, 4238528695, 4238528718], "tags": {"amenity": "hospital", "healthcare": "hospital", "name": "Crystal Brook Hospital"}}, {"type": "way", "id": 501895113, "center": {"lat": -35.1403301, "lon": 138.500747}, "nodes": [4925537448, 5342215162, 4925537449, 4925537450, 4925537451, 4925537452, 4925537453, 4925537454, 4925537455, 4925537456, 6317659654, 4925537457, 4925537458, 4925537459, 4925537460, 4925537461, 5342215163, 5342215161, 5342215164, 4925537448], "tags": {"amenity": "hospital", "healthcare": "hospital"}}, {"type": "way", "id": 527998165, "center": {"lat": -33.175014, "lon": 138.2986772}, "nodes": [5132134553, 2290950738, 5132136512, 5132134554, 5132136514, 5132134555, 5132134553], "tags": {"amenity": "hospital", "healthcare": "hospital", "name": "Laura and Districts Hospital", "source": "bing"}}, {"type": "way", "id": 543009042, "center": {"lat": -33.9273627, "lon": 137.6364886}, "nodes": [5249600597, 5249600595, 5249600591, 5249600593, 5249600598, 5249600597], "tags": {"amenity": "hospital", "healthcare": "hospital", "name": "Northern Yorke Peninsula Health Service (Wallaroo)"}}, {"type": "way", "id": 544230987, "center": {"lat": -35.2578149, "lon": 138.8938268}, "nodes": [5260923125, 5260923124, 5260923128, 5260923127, 5260923130, 5260923126, 5260923131, 5260923129, 5260923125], "tags": {"amenity": "hospital", "healthcare": "hospital"}}, {"type": "way", "id": 549210096, "center": {"lat": -34.3303162, "lon": 138.9214007}, "nodes": [5305304368, 5305304389, 5305304373, 5305304391, 5305304413, 5305304416, 5305304402, 5305304400, 5305304398, 5305304411, 5305304379, 5305304368], "tags": {"amenity": "hospital", "healthcare": "hospital", "name": "Kapunda Hospital"}}, {"type": "way", "id": 549222183, "center": {"lat": -34.7737393, "lon": 139.0545135}, "nodes": [5305413511, 5305413515, 5305413513, 5305413723, 5305413511], "tags": {"amenity": "hospital", "healthcare": "hospital"}}, {"type": "way", "id": 562995717, "center": {"lat": -34.1823168, "lon": 139.9853474}, "nodes": [5426367025, 5426367026, 5426367027, 5426367028, 5426367029, 5426367030, 5426367031, 5426367032, 5426367033, 5426367006, 5426367007, 5426367008, 5426367009, 5426367010, 5426367011, 5426367012, 5426367013, 5426367014, 5426367015, 5426367025], "tags": {"amenity": "hospital", "healthcare": "hospital", "name": "Waikerie Health Service"}}, {"type": "way", "id": 566540987, "center": {"lat": -35.0941541, "lon": 139.8896989}, "nodes": [5455812269, 5455812270, 5455812271, 5455812272, 5455812273, 5455812274, 5455812269], "tags": {"amenity": "hospital", "healthcare": "hospital", "name": "Karoonda & District Soldiers' Memorial Hospital"}}, {"type": "way", "id": 566865760, "center": {"lat": -35.0054467, "lon": 138.6275505}, "nodes": [2327769767, 5458188604, 5458188605, 5458188606, 5458188607, 5458188608, 5458188609, 2327769768, 2327769738, 2327769767], "tags": {"amenity": "hospital", "healthcare": "hospital"}}, {"type": "way", "id": 586021450, "center": {"lat": -34.9528533, "lon": 138.6079369}, "nodes": [5599733845, 5599733846, 5599733851, 5599733852, 5599733845], "tags": {"amenity": "hospital", "healthcare": "hospital"}}, {"type": "way", "id": 772552834, "center": {"lat": -34.426338, "lon": 137.9176228}, "nodes": [7212860007, 7217834965, 7217834966, 7212860008, 7212860009, 7217834967, 7212860010, 7217834968, 7212860011, 7217834969, 7212860012, 7212860013, 7217834970, 7217834971, 7212860014, 7217834972, 7212860015, 7212860016, 7217834960, 7217834973, 7217834974, 7217834975, 7217834976, 7217834977, 7217834978, 7212860017, 7217834961, 7217834962, 7217834963, 7217834964, 7217834983, 7217834982, 7217834980, 7217834981, 7217834979, 7212860018, 7212860007], "tags": {"addr:housenumber": "37", "addr:postcode": "5571", "addr:state": "SA", "addr:street": "Fifth Street", "addr:suburb": "Ardrossan", "amenity": "hospital", "building": "yes", "healthcare": "hospital", "name": "Ardrossan Community Hospital"}}, {"type": "way", "id": 972755489, "center": {"lat": -34.7554557, "lon": 138.6561805}, "nodes": [9003045417, 9003045418, 1851401763, 1189389966, 1189389930, 1706564848, 9003045417], "tags": {"amenity": "hospital", "healthcare": "hospital"}}, {"type": "way", "id": 1054587619, "center": {"lat": -33.0503911, "lon": 135.4671343}, "nodes": [9691110027, 9691110028, 9691110029, 9691110030, 9691110031, 9691110032, 9691110033, 9691110027], "tags": {"amenity": "hospital", "healthcare": "hospital", "name": "Wudinna Hospital", "operator": "Eyre and Western Health Services"}}, {"type": "way", "id": 1058717447, "center": {"lat": -32.8780681, "lon": 138.351359}, "nodes": [9728326036, 9728326037, 9728326038, 9728326039, 9728326036], "tags": {"amenity": "hospital", "healthcare": "hospital", "name": "Booleroo Centre District Hospital and Health Services"}}, {"type": "way", "id": 1067772911, "center": {"lat": -34.5284961, "lon": 138.9611089}, "nodes": [9802951984, 9802951985, 9802951986, 3912978723, 9802951987, 9802951988, 9802951989, 9802951990, 9802951991, 9802951992, 9802951993, 4469463410, 4469463401, 7127155536, 7127155537, 9802951994, 9802951995, 9802951996, 9802951997, 9802951984], "tags": {"amenity": "hospital", "healthcare": "hospital", "name": "Tanunda War Memorial Hospital"}}, {"type": "way", "id": 1084389042, "center": {"lat": -34.9138158, "lon": 138.6252783}, "nodes": [9936966914, 9936966915, 9936966916, 9936973717, 9936973718, 9936973719, 9936973720, 9936973721, 9936973722, 9936973723, 9936973724, 9936973725, 11129257703, 9936973726, 9936973727, 8038485122, 9936973728, 9936973729, 9936966914], "tags": {"amenity": "hospital", "emergency": "no", "healthcare": "hospital", "healthcare:speciality": "orthopaedics", "name": "sportsmed Stepney Healthcare Hub", "operator": "sportsmed", "operator:type": "private"}}, {"type": "way", "id": 1116738012, "center": {"lat": -33.1429471, "lon": 136.4162863}, "nodes": [10213620263, 10213620264, 10213620265, 10213620266, 10213620263], "tags": {"amenity": "hospital", "healthcare": "hospital", "name": "Kimba District Hospital and Aged Care"}}, {"type": "way", "id": 1163307824, "center": {"lat": -34.9899463, "lon": 138.5122088}, "nodes": [5589535419, 10818982310, 10818982311, 10818982312, 10818982313, 10818982314, 10818982315, 10818982316, 5589535419], "tags": {"amenity": "hospital", "healthcare": "hospital", "name": "Glenelg Community Hospital Inc"}}, {"type": "way", "id": 1204381715, "center": {"lat": -35.0102734, "lon": 138.5238584}, "nodes": [11162635438, 11162635437, 11162635436, 11162635435, 11162635434, 11162635433, 11162635438], "tags": {"amenity": "hospital", "healthcare": "hospital", "name": "Griffith Rehabilitation Hospital"}}, {"type": "relation", "id": 1524954, "center": {"lat": -35.2210206, "lon": 138.5446809}, "members": [{"type": "way", "ref": 107043190, "role": "outer"}, {"type": "way", "ref": 107043221, "role": "outer"}, {"type": "way", "ref": 44964421, "role": "outer"}, {"type": "way", "ref": 44964423, "role": "outer"}, {"type": "way", "ref": 107043172, "role": "outer"}], "tags": {"amenity": "hospital", "healthcare": "hospital", "name": "McLaren Vale and Districts War Memorial Hospital", "type": "multipolygon"}}, {"type": "relation", "id": 2206410, "center": {"lat": -34.7476274, "lon": 138.664399}, "members": [{"type": "way", "ref": 165612125, "role": "outer"}, {"type": "way", "ref": 165612163, "role": "outer"}, {"type": "way", "ref": 1034673085, "role": "outer"}, {"type": "way", "ref": 1034673084, "role": "outer"}, {"type": "way", "ref": 103004061, "role": "outer"}, {"type": "way", "ref": 165612001, "role": "outer"}, {"type": "way", "ref": 1208739153, "role": "outer"}, {"type": "way", "ref": 165611978, "role": "outer"}, {"type": "way", "ref": 165612009, "role": "outer"}, {"type": "way", "ref": 165612070, "role": "outer"}, {"type": "way", "ref": 165612205, "role": "outer"}, {"type": "way", "ref": 175849892, "role": "outer"}], "tags": {"amenity": "hospital", "emergency": "yes", "healthcare": "hospital", "healthcare:speciality": "general", "name": "Lyell McEwin Hospital", "type": "multipolygon", "wikidata": "Q6707755"}}, {"type": "relation", "id": 2884189, "center": {"lat": -35.6931454, "lon": 139.3355703}, "members": [{"type": "way", "ref": 217762071, "role": "outer"}, {"type": "way", "ref": 217762142, "role": "outer"}, {"type": "way", "ref": 217762114, "role": "outer"}, {"type": "way", "ref": 217762104, "role": "outer"}], "tags": {"amenity": "hospital", "healthcare": "hospital", "name": "Meningie and Districts Memorial Hospital and Health Services", "type": "multipolygon"}}, {"type": "relation", "id": 10675606, "center": {"lat": -34.8565838, "lon": 138.4791637}, "members": [{"type": "way", "ref": 469338188, "role": "outer"}, {"type": "way", "ref": 770103592, "role": "outer"}], "tags": {"addr:housenumber": "324", "addr:street": "Military Road", "amenity": "hospital", "healthcare": "hospital", "name": "Wesley House Aged Care", "type": "multipolygon"}}]}