{"version": 0.6, "generator": "Overpass API 0.7.61.5 4133829e", "osm3s": {"timestamp_osm_base": "2023-10-31T20:47:26Z", "copyright": "The data included in this document is from www.openstreetmap.org. The data is made available under ODbL."}, "elements": [{"type": "node", "id": 453717345, "lat": -33.692015, "lon": 151.0928955, "tags": {"addr:housenumber": "66", "addr:postcode": "2077", "addr:street": "Rosamond Street", "amenity": "hospital", "healthcare": "hospital", "name": "Mount Wilga Private Hospital", "phone": "+61 2 9847 5000"}}, {"type": "node", "id": 4225187047, "lat": -33.8923919, "lon": 151.2457277, "tags": {"amenity": "hospital", "emergency": "no", "healthcare": "hospital", "name": "Bondi Junction Private Hospital", "operator:type": "private"}}, {"type": "node", "id": 4225187051, "lat": -33.98221, "lon": 150.960896, "tags": {"amenity": "hospital", "emergency": "yes", "healthcare": "hospital", "name": "Holsworthy Health Centre", "operator": "Australian Army", "operator:type": "government", "phone": "+61 2 8782 1340", "website": "https://www.defence.gov.au/adf-members-families/health-well-being/garrison/health-centres/central-nsw#holsworthy"}}, {"type": "node", "id": 4225187052, "lat": -33.835206, "lon": 151.150132, "tags": {"amenity": "hospital", "healthcare": "hospital", "name": "Hunters Hill Private Hospital", "source": "NSW LPI Base Map", "source:date": "2016-06"}}, {"type": "node", "id": 4225187059, "lat": -33.8743612, "lon": 151.2261153, "tags": {"alt_name": "Saint Luke's Care Private Hospital", "amenity": "hospital", "emergency": "no", "healthcare": "hospital", "name": "Saint Luke's Private Hospital", "operator:type": "private", "website": "https://www.slc.org.au/private-hospital/"}}, {"type": "node", "id": 4225187062, "lat": -33.832533, "lon": 151.0977, "tags": {"amenity": "hospital", "healthcare": "hospital", "name": "Thomas Walker Hospital", "website": "https://www.healthdirect.gov.au/australian-health-services/20148615/thomas-walker/services/concord-west-2138-hospital", "wikidata": "Q55642367"}}, {"type": "node", "id": 9480319109, "lat": -33.8775997, "lon": 151.2438007, "tags": {"amenity": "hospital", "emergency": "no", "healthcare": "hospital", "name": "Double Bay Day Hospital", "phone": "+61 2 9096 3100", "website": "https://dbdh.com.au/"}}, {"type": "node", "id": 10729581058, "lat": -33.4265856, "lon": 151.3210687, "tags": {"addr:housenumber": "69B", "addr:postcode": "2250", "addr:state": "NSW", "addr:street": "Central Coast Highway", "addr:suburb": "West Gosford", "addr:unit": "Suite 2, Shop 6", "amenity": "hospital", "emergency": "no", "healthcare": "hospital", "healthcare:speciality": "hypnosis;strategic_psychotherapy", "name": "Think Well Hypnotherapy", "website": "https://www.thinkwellhypnotherapy.com.au/"}}, {"type": "node", "id": 11207651993, "lat": -33.8886791, "lon": 151.1833549, "tags": {"amenity": "hospital", "healthcare": "hospital", "name": "Women and Babies Services", "operator": "Royal Prince Alfred Hospital"}}, {"type": "way", "id": 4699988, "center": {"lat": -33.733338, "lon": 151.0994443}, "nodes": [29893546, 4080818630, 4080818631, 1187112590, 4388746241, 54896523, 29893547, 29893548, 1187112793, 4388746239, 1187112813, 29893549, 11124149384, 29893550, 11273508604, 4080814378, 4080814376, 54893783, 4388746061, 4388746054, 4388746053, 4388746052, 4388746049, 4388746046, 4388746041, 4388746035, 4388746027, 4388746021, 4388746031, 54893790, 4384728740, 4384728721, 4384728716, 4384728702, 4384728704, 29893552, 4384728698, 29893554, 4388745990, 4388745995, 4388746002, 4336260052, 4388746018, 1872013607, 4388746013, 4336260050, 4388746007, 4388746017, 30235379, 30235376, 30235375, 29893546], "tags": {"addr:housenumber": "185", "addr:street": "Fox Valley Road", "amenity": "hospital", "denomination": "seventh_day_adventist", "emergency": "yes", "healthcare": "hospital", "name": "Sydney Adventist Hospital", "phone": "+61-2-9487-9111", "religion": "christian", "short_name": "SAN"}}, {"type": "way", "id": 22881992, "center": {"lat": -33.6856503, "lon": 151.3069063}, "nodes": [26382289, 5762569847, 5857615905, 26382293, 5762569848, 26382298, 5762569849, 26382302, 26382360, 246009567, 5762569852, 5762569851, 246009568, 246009569, 26382289], "tags": {"alt_name": "Mona Vale Community Health Centre", "amenity": "hospital", "healthcare": "hospital", "name": "Mona Vale Hospital", "wikidata": "Q6897733"}}, {"type": "way", "id": 22888428, "center": {"lat": -33.9194453, "lon": 151.0984233}, "nodes": [246201665, 246201666, 9443664576, 246201667, 9443664575, 246201668, 246201665], "tags": {"amenity": "hospital", "emergency": "yes", "healthcare": "hospital", "name": "Canterbury Hospital", "wikidata": "Q5033669"}}, {"type": "way", "id": 22900265, "center": {"lat": -33.894186, "lon": 151.1293149}, "nodes": [246531250, 5742951015, 246531251, 5742951009, 5742950997, 5742950996, 246531252, 5742951001, 5742951000, 246531253, 246531254, 5742950998, 246531255, 5742951008, 246531250], "tags": {"amenity": "hospital", "healthcare": "hospital", "name": "The Sydney Private Hospital", "website": "https://www.sydneyprivate.com.au/", "wikidata": "Q7660101"}}, {"type": "way", "id": 23242151, "center": {"lat": -33.7956346, "lon": 151.0900704}, "nodes": [251478960, 5597390431, 5597390432, 5597390430, 251478961, 251478962, 5597390422, 5597390421, 5597390423, 5597390424, 5597390425, 5597390426, 5597390427, 5597390428, 5597390429, 251478963, 251478964, 251478960], "tags": {"addr:street": "Denistone Road", "amenity": "hospital", "emergency": "yes", "healthcare": "hospital", "name": "Ryde Hospital"}}, {"type": "way", "id": 38507406, "center": {"lat": -33.8318587, "lon": 151.2017754}, "nodes": [455579354, 455579359, 455579355, 455579356, 10815395273, 10815395272, 455579357, 10815395270, 455579358, 455579354], "tags": {"amenity": "hospital", "healthcare": "hospital", "name": "The Mater Hospital", "wheelchair": "yes"}}, {"type": "way", "id": 39705236, "center": {"lat": -33.2606826, "lon": 151.4803726}, "nodes": [476077800, 5536814512, 5618657893, 5618657880, 476077804, 476077806, 476077808, 5536814508, 9538627873, 9538627874, 9538627875, 476077812, 476077813, 476077817, 476077820, 1966223097, 476077821, 3084327274, 476077800], "tags": {"amenity": "hospital", "emergency": "yes", "healthcare": "hospital", "name": "Wyong Hospital", "operator:type": "public", "website": "https://www.cclhd.health.nsw.gov.au/patients-and-visitors/coming-to-hospital/wyong-hospital/"}}, {"type": "way", "id": 39809761, "center": {"lat": -32.7261865, "lon": 151.5455851}, "nodes": [477193235, 477193237, 477193238, 477193239, 477193240, 477193241, 477193242, 9409189579, 477193243, 477193244, 477193245, 477193246, 477193235], "tags": {"amenity": "hospital", "emergency": "no", "healthcare": "hospital", "name": "Old Maitland Hospital", "website": "https://www.service.nsw.gov.au/nswgovdirectory/maitland-hospital"}}, {"type": "way", "id": 40994062, "center": {"lat": -33.9669252, "lon": 151.1360348}, "nodes": [499618180, 499618176, 1834861634, 202597378, 9721928387, 499618180], "tags": {"amenity": "hospital", "emergency": "no", "healthcare": "hospital", "name": "St George Private Hospital", "operator:type": "private", "wheelchair": "yes"}}, {"type": "way", "id": 49831010, "center": {"lat": -31.0776214, "lon": 150.9216598}, "nodes": [633122170, 633122166, 2094207322, 8985610116, 633122163, 9467521148, 8985609679, 633122171, 633122172, 633122164, 633122165, 2094207320, 633122170], "tags": {"amenity": "hospital", "emergency": "no", "healthcare": "hospital", "name": "Tamara Private Hospital", "operator:type": "private", "website": "https://www.tamaraprivate.com.au/", "wheelchair": "yes"}}, {"type": "way", "id": 50989622, "center": {"lat": -33.4989893, "lon": 150.1278016}, "nodes": [650104057, 9424383315, 9446172238, 9424386518, 9424383316, 9424386517, 650104068, 9424386520, 9446172240, 9424386519, 9446172239, 650104057], "tags": {"amenity": "hospital", "emergency": "yes", "healthcare": "hospital", "name": "Lithgow Hospital"}}, {"type": "way", "id": 55055416, "center": {"lat": -33.7452152, "lon": 150.9539318}, "nodes": [692509484, 692509486, 692509489, 692509491, 692509484], "tags": {"addr:housenumber": "11", "addr:postcode": "2153", "addr:street": "Norbrik Drive", "addr:suburb": "Bella Vista", "amenity": "hospital", "emergency": "yes", "fax": "+61 2 8882 8883", "healthcare": "hospital", "name": "Norwest Private Hospital", "operator": "Healthscope", "operator:type": "private", "phone": "+62 2 8882 8882", "website": "https://norwestprivatehospital.com.au/"}}, {"type": "way", "id": 68023704, "center": {"lat": -32.8249953, "lon": 151.4630188}, "nodes": [820526032, 820526027, 820526036, 820526034, 9414242087, 820526030, 9414242086, 820526029, 820526032], "tags": {"alt_name": "Kurri Kurri Hospital", "amenity": "hospital", "emergency": "yes", "healthcare": "hospital", "name": "Kurri Kurri District Hospital"}}, {"type": "way", "id": 69548890, "center": {"lat": -33.7025698, "lon": 151.112482}, "nodes": [832375372, 832375373, 832375374, 9429724966, 832375375, 9429724967, 832375372], "tags": {"addr:street": "Palmerston Road", "amenity": "hospital", "emergency": "yes", "healthcare": "hospital", "name": "Hornsby Ku-ring-gai Hospital", "opening_hours": "24/7", "operator": "Northern Sydney Local Health District", "operator:type": "public", "phone": "+61-2-9477-9123", "website": "https://www.nslhd.health.nsw.gov.au/Hospitals/Hornsby", "wikidata": "Q14934835", "wikipedia": "en:Hornsby Ku-ring-gai Hospital"}}, {"type": "way", "id": 72046204, "center": {"lat": -34.3366944, "lon": 150.9073746}, "nodes": [856511173, 856511277, 856511152, 856510487, 856510454, 856510845, 856510227, 856510692, 856510070, 856510547, 9414311451, 856509958, 856511173], "tags": {"alt_name": "Bulli Hospital", "amenity": "hospital", "emergency": "yes", "healthcare": "hospital", "name": "Bulli District Hospital", "website": "http://www.islhd.health.nsw.gov.au/Bulli_Hospital/"}}, {"type": "way", "id": 75967574, "center": {"lat": -33.8376713, "lon": 151.0948594}, "nodes": [896725329, 896725330, 896725332, 896725333, 896725335, 896725339, 896725340, 896725342, 896725344, 896725345, 896725347, 896725352, 896725355, 896725356, 896725357, 896725359, 896725360, 896725361, 896725362, 2247831670, 7983432281, 7983432279, 896725364, 898102038, 896725365, 896725368, 896725370, 896725377, 896725379, 896725381, 896725382, 896725329], "tags": {"alt_name": "Concord Repatriation Hospital", "amenity": "hospital", "emergency": "yes", "healthcare": "hospital", "name": "Concord Hospital", "wikidata": "Q5158851"}}, {"type": "way", "id": 85396934, "center": {"lat": -31.91012, "lon": 152.454903}, "nodes": [990052403, 3945105376, 990052404, 990052405, 990052406, 990052407, 990052408, 990052403], "tags": {"addr:city": "Taree", "addr:housenumber": "30-38", "addr:postcode": "2430", "addr:province": "NSW", "addr:state": "NSW", "addr:street": "York Street", "addr:suburb": "Taree", "alt_name": "Manning Rural Referral Hospital", "amenity": "hospital", "emergency": "yes", "fax": "+61 2 6551 7135", "healthcare": "hospital", "name": "Manning Base Hospital", "operator": "Hunter New England Health", "operator:type": "public", "phone": "+61 2 6592 9111", "website": "https://www.hnehealth.nsw.gov.au/facilities/hospitals/manning-hospital"}}, {"type": "way", "id": 96911474, "center": {"lat": -34.3102481, "lon": 150.91766}, "nodes": [1123096915, 1123097137, 1123097061, 1123096965, 1123097185, 1123097111, 1123097017, 1123096940, 1123096876, 1123096816, 1123096728, 1123097145, 1123096811, 1123096915], "tags": {"addr:housenumber": "72", "addr:street": "Phillip Street", "amenity": "hospital", "emergency": "no", "healthcare": "hospital", "healthcare:speciality": "psychiatry", "name": "Ramsay Clinic Thirroul", "operator": "Ramsay Mental Health", "operator:type": "private", "phone": "+61242672811", "source": "survey", "website": "https://www.ramsaymentalhealth.com.au/en/our-locations/Mental-health-clinics/nsw-locations/thirroul/"}}, {"type": "way", "id": 99046119, "center": {"lat": -32.5670207, "lon": 151.1858532}, "nodes": [1145786263, 1145786196, 1145786093, 1145786228, 1145786263], "tags": {"alt_name": "Singleton District Hospital", "amenity": "hospital", "emergency": "yes", "healthcare": "hospital", "name": "Singleton Hospital"}}, {"type": "way", "id": 102757034, "center": {"lat": -33.8973422, "lon": 151.2535878}, "nodes": [1186813026, 1186813025, 8645284950, 8645284946, 1186813027, 1186813030, 1186813029, 1186813026], "tags": {"alt_name": "War Memorial Hospital", "amenity": "hospital", "emergency": "no", "healthcare": "hospital", "name": "War Memorial Hospital - Waverley", "note": "bounds not clear. currently is an estimate", "operator": "UnitingCare", "operator:type": "religious", "source": "survey", "source:location": "nearmap"}}, {"type": "way", "id": 128255346, "center": {"lat": -34.0365441, "lon": 151.0792507}, "nodes": [1417792637, 1417792636, 1417792634, 1417792632, 1417792633, 1417792639, 11184807859, 1417792637], "tags": {"amenity": "hospital", "emergency": "no", "healthcare": "hospital", "healthcare:speciality": "rehabilitation", "name": "President Private Hospital", "operator:type": "private", "website": "https://www.presidentprivate.com.au"}}, {"type": "way", "id": 130506068, "center": {"lat": -33.8220323, "lon": 151.1080718}, "nodes": [7601412366, 1437169378, 1437169372, 1437169376, 1437169374, 1437169356, 4723409923, 7601412368, 7601412366], "tags": {"alt_name": "Royal Rehab", "amenity": "hospital", "emergency": "no", "healthcare": "hospital", "name": "Royal Ryde Rehabilitation Centre"}}, {"type": "way", "id": 150604204, "center": {"lat": -33.802676, "lon": 150.9877346}, "nodes": [141842828, 10689766969, 4536477830, 10689766972, 618720115, 10689758626, 618720177, 9494558324, 10689766973, 9494558322, 10598335911, 10598335931, 10598335932, 10598335933, 1635067848, 1635067856, 9494558325, 141844566, 141844565, 9494558326, 9494558327, 9494558328, 9494558333, 10598335935, 9494558332, 10598335937, 10598335936, 10598335938, 10598335939, 2295350664, 10598335940, 2295350670, 2295350668, 2295350661, 2295350652, 2295350639, 2295350633, 2295350627, 2295350623, 2295350622, 2295350626, 2295350629, 2295350630, 2295350628, 2295350625, 2295350624, 2295350621, 2295350619, 2295350617, 2295350612, 2295350606, 2295350603, 2295350601, 2295350598, 2295350597, 2295350599, 2295350602, 2295350604, 2295350608, 2295350614, 141844567, 2295350631, 2295350635, 2295350641, 2295350656, 2295350667, 141844568, 2295350679, 2295350686, 2295350690, 2295350682, 2295350685, 2295350693, 2295350702, 2295350697, 2295350691, 2295350688, 2295350689, 2295350696, 141844569, 2295350706, 2295350704, 2295350703, 2295350700, 2295350692, 2295350684, 2295350683, 141844570, 2295350680, 2295350677, 2295350673, 2295350665, 2295350660, 2295350650, 2295350655, 2295350662, 2295350663, 2295350671, 141844571, 2295350678, 2295350687, 2295350701, 2295350705, 2295350709, 2295350710, 2295350711, 2295350712, 2295350714, 2295350716, 2295350717, 141844572, 141844573, 10598335930, 10598335927, 10598335928, 10598335929, 141844575, 10598335902, 10598335901, 10598335900, 10598335899, 141844578, 10598335903, 2294327101, 10598335905, 10598335904, 10598335906, 618720071, 610196243, 618720095, 1915033986, 141842828], "tags": {"amenity": "hospital", "emergency": "yes", "healthcare": "hospital", "name": "Westmead Hospital", "operator": "NSW Health", "operator:wikidata": "Q6867095", "operator:wikipedia": "en:Ministry of Health (New South Wales)", "toilets:wheelchair": "yes", "website": "https://www.wslhd.health.nsw.gov.au/Westmead-Hospital", "wheelchair": "yes", "wikidata": "Q7989074", "wikipedia": "en:Westmead Hospital"}}, {"type": "way", "id": 150604206, "center": {"lat": -33.8015906, "lon": 150.9915973}, "nodes": [9494558325, 1635067856, 1635067848, 10598335933, 10598335932, 10598335931, 10598335911, 10598335934, 10598335912, 10689766967, 10598335913, 10598335914, 10689766968, 1635067865, 1635067846, 9494453872, 9494453873, 9494453874, 1635067858, 1635067873, 9605212656, 1635067868, 5181348197, 9494558337, 9494558339, 9494558338, 9494558335, 9494558334, 9494558329, 9494558330, 9494558331, 9494558332, 10598335935, 9494558333, 9494558328, 9494558327, 9494558326, 141844565, 141844566, 9494558325], "tags": {"amenity": "hospital", "emergency": "yes", "healthcare": "hospital", "name": "The Children's Hospital at Westmead", "operator": "NSW Health", "operator:wikidata": "Q6867095", "operator:wikipedia": "en:Ministry of Health (New South Wales)", "website": "http://bandagedbear.org.au/", "wheelchair": "yes", "wikidata": "Q7373657", "wikipedia": "en:Royal Alexandra Hospital for Children"}}, {"type": "way", "id": 151666744, "center": {"lat": -33.8028936, "lon": 150.9825115}, "nodes": [1645055129, 1645055122, 10598335845, 10598335846, 10598335847, 10598335848, 10598335849, 10598335857, 1645055115, 10598335860, 10598335851, 1645055126, 10598335866, 10598335865, 10598335842, 10598335841, 10598335843, 10598335844, 1645055129], "tags": {"amenity": "hospital", "healthcare": "hospital", "name": "Westmead Private Hospital", "operator:type": "private", "website": "https://www.westmeadprivate.com.au/", "wheelchair": "yes"}}, {"type": "way", "id": 164865825, "center": {"lat": -33.8920701, "lon": 151.1165543}, "nodes": [1764606626, 1764606599, 1764606624, 1764606592, 1764606596, 1764606601, 1764606626], "tags": {"addr:housenumber": "91", "addr:street": "Milton Street", "amenity": "hospital", "emergency": "no", "healthcare": "hospital", "healthcare:speciality": "psychiatry", "name": "Wesley Hospital Ashfield", "note": "This hasn't been called \"Waddell House Private Hospital\" for a very long time, the only source was from 1956. The sign outside says \"Wesley Hospital Ashfield\" and no emergency services.", "operator": "Wesley Hospital", "operator:type": "religious", "source": "survey"}}, {"type": "way", "id": 173134355, "center": {"lat": -33.9189694, "lon": 151.238581}, "nodes": [3911644066, 10061050971, 10061050970, 8979124854, 3911644058, 11283279959, 3911644057, 3911644063, 3911644061, 9443666492, 3911644059, 6507708689, 3911644066], "tags": {"amenity": "hospital", "emergency": "yes", "healthcare": "hospital", "name": "Randwick Hospitals Campus", "operator": "NSW Health", "operator:wikidata": "Q6867095", "operator:wikipedia": "en:Ministry of Health (New South Wales)"}}, {"type": "way", "id": 175583203, "center": {"lat": -33.8992771, "lon": 151.1557388}, "nodes": [1861520575, 1861520573, 9456815652, 1861520576, 1861520574, 9456815651, 1861520575], "tags": {"amenity": "hospital", "emergency": "no", "healthcare": "hospital", "name": "Metropolitan Rehabilitation Private Hospital", "operator:type": "private"}}, {"type": "way", "id": 175993587, "center": {"lat": -34.0780083, "lon": 150.8059399}, "nodes": [1865569059, 9538889627, 9538889628, 1865569064, 9538889626, 9538889625, 1865569075, 9538889624, 1865569061, 9538889623, 1865569058, 9538889622, 9538889621, 9157245949, 9538889620, 9538889619, 1865569067, 9538889641, 9538889640, 9538889639, 1865569062, 9538889638, 1865569070, 707058722, 707058670, 7144840308, 707058390, 707058771, 707058487, 9538889637, 9432682987, 9538889636, 9538889635, 9432682986, 9432682990, 9538889634, 1865569072, 9538889633, 1865569060, 1865569068, 1865569057, 9538889632, 9538889631, 9538889630, 9432682991, 9538889629, 1865569059], "tags": {"addr:country": "AU", "addr:postcode": "2560", "addr:state": "NSW", "addr:street": "Therry Road", "addr:suburb": "Campbelltown", "amenity": "hospital", "emergency": "yes", "fax": "+61-2-46343880", "healthcare": "hospital", "name": "Campbelltown Hospital", "operator": "NSW Health", "operator:wikidata": "Q6867095", "operator:wikipedia": "en:Ministry of Health (New South Wales)", "phone": "+61-2-46343000", "website": "http://www.sswahs.nsw.gov.au/ccq/"}}, {"type": "way", "id": 183105317, "center": {"lat": -34.0755223, "lon": 150.8049608}, "nodes": [1934662966, 1934662951, 1934662972, 1934662945, 1934662974, 1934662948, 1934662970, 1934662954, 1934662967, 1934662968, 1934662976, 1934662966], "tags": {"amenity": "hospital", "building": "hospital", "emergency": "no", "healthcare": "hospital", "name": "Campbelltown Private Hospital", "operator:type": "private"}}, {"type": "way", "id": 184393676, "center": {"lat": -33.8275302, "lon": 151.1840457}, "nodes": [1948735873, 1948735882, 1948735886, 1948735889, 1948735878, 1948735873], "tags": {"amenity": "hospital", "emergency": "no", "healthcare": "hospital", "name": "Greenwich Hospital", "operator:type": "religious", "website": "https://www.hammond.com.au/locations/greenwich"}}, {"type": "way", "id": 189944977, "center": {"lat": -30.9865857, "lon": 151.5987538}, "nodes": [2005536206, 2005536208, 2005536207, 2005536205, 2005536206], "tags": {"amenity": "hospital", "emergency": "yes", "healthcare": "hospital", "name": "Walcha Multipurpose Service"}}, {"type": "way", "id": 200375644, "center": {"lat": -32.0149208, "lon": 151.9583756}, "nodes": [2103688285, 118415046, 2103688288, 2103688293, 2103688299, 2103688298, 2103688287, 2103688285], "tags": {"alt_name": "Gloucester Community Health Centre", "amenity": "hospital", "emergency": "yes", "healthcare": "hospital", "name": "Gloucester Hospital", "source:boundary": "LPI Base Map June 2018"}}, {"type": "way", "id": 206967239, "center": {"lat": -33.8897008, "lon": 151.1814225}, "nodes": [1865396319, 9443652516, 1865396317, 1832199251, 2938676880, 1832199249, 9281963854, 1836063438, 5855851255, 7684621228, 5855851256, 7684621229, 1832199253, 1800208336, 9635767141, 1835982989, 2138843440, 1841534309, 1832330435, 3191002680, 1832330434, 1832330437, 1832330442, 2144990656, 1832330446, 2664226858, 1832330452, 2664226856, 1820241191, 1820241227, 1820240947, 2144990653, 1820241104, 1832330457, 1820241091, 1840695757, 10030850751, 9750623250, 1832330456, 9750623247, 2144990654, 10030850752, 5736970965, 1865389951, 1865396320, 1865396312, 1865396314, 1865396313, 1865396315, 9443652515, 1865396319], "tags": {"addr:housenumber": "57-59", "addr:postcode": "2050", "addr:street": "Missenden Street", "amenity": "hospital", "emergency": "yes", "healthcare": "hospital", "name": "Royal Prince Alfred Hospital", "short_name": "RPA", "website": "https://www.slhd.nsw.gov.au/rpa/", "wikidata": "Q7374738", "wikipedia": "en:Royal Prince Alfred Hospital"}}, {"type": "way", "id": 207533061, "center": {"lat": -30.3825756, "lon": 150.6058664}, "nodes": [2177892847, 2177892892, 2177892885, 2177892845, 2177892847], "tags": {"amenity": "hospital", "emergency": "yes", "healthcare": "hospital", "name": "Barraba Multi Purpose Service"}}, {"type": "way", "id": 207716877, "center": {"lat": -33.8010735, "lon": 151.1250654}, "nodes": [2179709103, 2179709273, 2179709135, 2179709387, 2179709103], "tags": {"amenity": "hospital", "emergency": "no", "healthcare": "hospital", "healthcare:speciality": "psychiatry", "name": "Gladesville-Macquarie Hospital"}}, {"type": "way", "id": 207844007, "center": {"lat": -33.8214713, "lon": 151.191132}, "nodes": [4963495339, 5221868610, 4963495342, 5221868614, 5221868615, 4963495340, 5221868618, 638551781, 4052425511, 4052425514, 638551829, 4052467282, 2307510704, 2180966235, 2180966259, 4052363532, 4052368683, 4052363533, 2180966237, 2180966247, 4052467281, 4052471889, 4052467287, 4963495339], "tags": {"addr:housenumber": "1", "addr:postcode": "2065", "addr:street": "Reserve Road", "amenity": "hospital", "emergency": "yes", "healthcare": "hospital", "name": "Royal North Shore Hospital", "operator": "NSW Health, Northern Sydney Local Health District", "operator:type": "public", "operator:wikidata": "Q30273775", "phone": "+61-2-9926-7111", "short_name": "RNSH", "source": "Bing", "website": "https://www.nslhd.health.nsw.gov.au/Hospitals/RNSH", "wikidata": "Q7374599", "wikipedia": "en:Royal North Shore Hospital"}}, {"type": "way", "id": 208505289, "center": {"lat": -31.0677792, "lon": 152.8208101}, "nodes": [2187971397, 2187971394, 2187971393, 9417222942, 2187971395, 2187971397], "tags": {"alt_name": "Kempsey Community Health Centre", "amenity": "hospital", "emergency": "yes", "healthcare": "hospital", "name": "Kempsey District Hospital"}}, {"type": "way", "id": 208532207, "center": {"lat": -31.4523921, "lon": 152.8788321}, "nodes": [2188210946, 2188210948, 2188210952, 2188210953, 2188210959, 2188210955, 8285457785, 9417222943, 2188210946], "tags": {"amenity": "hospital", "emergency": "yes", "healthcare": "hospital", "name": "Port Macquarie Base Hospital"}}, {"type": "way", "id": 208532208, "center": {"lat": -31.4419076, "lon": 152.909282}, "nodes": [2188210935, 9794060934, 9794060937, 2188210944, 2188210943, 2188210942, 9794060933, 2188210935], "tags": {"amenity": "hospital", "healthcare": "hospital", "name": "Port Macquarie Private Hospital", "operator:type": "private", "wheelchair": "yes"}}, {"type": "way", "id": 209448491, "center": {"lat": -30.7455711, "lon": 150.7320325}, "nodes": [9411546023, 9411546025, 2196663524, 2196663515, 2196663518, 2196663539, 2196663562, 2196663615, 9411546024, 9411546023], "tags": {"alt_name": "Manilla Multi Purpose Service", "amenity": "hospital", "emergency": "yes", "healthcare": "hospital", "name": "Manilla Hospital"}}, {"type": "way", "id": 212529979, "center": {"lat": -34.2838073, "lon": 150.9508378}, "nodes": [2223761464, 2223761504, 2223761577, 2223761582, 2223761553, 2223761467, 2223761537, 2223761510, 2223761466, 2223761452, 2223761569, 2223761470, 2223761496, 2223761430, 2223761493, 2223761611, 2223761433, 2223761552, 2223761526, 2223761613, 2223761588, 2223761441, 2223761630, 2223761554, 2223761464], "tags": {"amenity": "hospital", "building": "yes", "emergency": "no", "healthcare": "hospital", "name": "Coledale District Hospital", "phone": "+61 (02) 4267 0111", "website": "https://www.islhd.health.nsw.gov.au/hospitals/coledale-hospital"}}, {"type": "way", "id": 217728564, "center": {"lat": -32.4014303, "lon": 151.7457844}, "nodes": [2270305160, 2270305158, 2270305151, 2270305152, 2270305156, 2270305160], "tags": {"alt_name": "Dungog and District Hospital", "amenity": "hospital", "emergency": "yes", "healthcare": "hospital", "name": "Dungog Hospital"}}, {"type": "way", "id": 219621563, "center": {"lat": -30.4572865, "lon": 152.8935325}, "nodes": [9417222936, 9884270459, 9884270460, 9884270461, 9884270458, 2287665988, 2287665989, 2287665992, 2287665995, 2287665998, 2287665999, 9417222930, 9417222937, 9417222936], "tags": {"addr:postcode": "2454", "addr:state": "NSW", "addr:street": "Church Street", "addr:suburb": "Bellingen", "amenity": "hospital", "emergency": "yes", "fax": "+61 2 6659 5700", "healthcare": "hospital", "name": "Bellinger River District Hospital", "operator": "Mid North Coast Local Health District", "operator:type": "public", "phone": "+61 2 6659 5800", "website": "https://mnclhd.health.nsw.gov.au/hospital/bellinger-river-district-hospital/"}}, {"type": "way", "id": 237595520, "center": {"lat": -32.9239956, "lon": 151.6966125}, "nodes": [283322537, 283322544, 283322551, 5511829879, 2454747608, 2454747603, 2454747602, 5511829881, 2454747598, 2454747596, 2454747597, 2454747599, 2454747611, 2454747621, 2454747625, 2454747627, 2454747626, 2454747620, 2454747619, 283322537], "tags": {"amenity": "hospital", "building": "hospital", "emergency": "no", "name": "Rankin Park Centre"}}, {"type": "way", "id": 253544182, "center": {"lat": -34.0333955, "lon": 150.8129493}, "nodes": [2594611249, 2594611245, 2594611232, 2594611222, 11217287422, 11217287421, 11217287420, 2594611221, 2594611216, 2594611194, 11217287416, 11217287417, 11217287418, 11217287419, 11217287415, 2594611193, 2594611200, 2594611192, 2594611202, 2594611215, 11217287362, 2594611237, 11217287360, 2594611244, 2594611256, 2594611249], "tags": {"addr:housenumber": "13A", "addr:postcode": "2558", "addr:state": "NSW", "addr:street": "Moonstone Place", "addr:suburb": "Eagle Vale", "amenity": "hospital", "emergency": "no", "healthcare": "hospital", "healthcare:speciality": "drug_addiction", "name": "Odyssey House", "website": "https://www.odysseyhouse.com.au/what-we-do/residential-rehabilitation/"}}, {"type": "way", "id": 256675887, "center": {"lat": -34.8696066, "lon": 150.5949589}, "nodes": [2760164283, 2760164358, 2623126917, 2760164264, 2760164372, 2760164313, 2760164289, 2760164268, 2760164319, 2623126918, 2760164353, 2623126919, 2760164288, 2760164296, 2623126920, 2623126921, 2623126922, 2760164371, 2760164283], "tags": {"addr:city": "Nowra", "addr:housenumber": "2", "addr:postcode": "2541", "addr:state": "NSW", "addr:street": "Scenic Drive", "addr:suburb": "Nowra", "amenity": "hospital", "emergency": "yes", "healthcare": "hospital", "name": "Shoalhaven District Memorial Hospital", "operator": "Illawarra Shoalhaven Local Health District", "operator:type": "public", "phone": "+61 2 4423 9500", "website": "https://www.islhd.health.nsw.gov.au/hospitals/shoalhaven"}}, {"type": "way", "id": 260185669, "center": {"lat": -32.923186, "lon": 151.6945946}, "nodes": [283320678, 2656693670, 2656693660, 2656693662, 2656693655, 2656693652, 2656695669, 6860398793, 283320725, 5511829875, 283320607, 7659976193, 764758209, 764758208, 764758207, 764758206, 283320625, 5511829895, 283320638, 283320662, 283320678], "tags": {"amenity": "hospital", "building": "hospital", "comment": "is this part of J Hunter hospital?", "emergency": "no", "name": "Royal Newcastle Centre", "noaddress": "yes"}}, {"type": "way", "id": 273864558, "center": {"lat": -33.96718, "lon": 151.1339759}, "nodes": [1834861634, 2786742662, 2786945939, 2786742669, 2786816053, 2786816051, 2786742666, 2786742667, 2786742664, 2786742663, 2786742665, 1834861638, 6417548227, 10582944866, 9432682916, 9432737117, 10796549451, 10796549450, 10796549468, 10796549467, 10796549500, 1834861598, 2787100019, 1834861603, 2787100021, 2787100023, 202597378, 1834861634], "tags": {"amenity": "hospital", "emergency": "yes", "healthcare": "hospital", "name": "St George Hospital", "operator": "NSW Health", "operator:type": "public", "operator:wikidata": "Q6867095", "website": "https://www.seslhd.health.nsw.gov.au/st-george-hospital", "wheelchair": "yes", "wikidata": "Q7593226", "wikipedia": "en:St George Hospital (Sydney)"}}, {"type": "way", "id": 280924579, "center": {"lat": -30.3172618, "lon": 153.0948622}, "nodes": [2849489990, 4621634470, 4621634486, 4984151131, 4984151130, 2849489993, 2849489994, 2849489995, 11155372061, 2849489996, 11155372060, 11155372059, 355072401, 3523589337, 3523589336, 2849489998, 3281743369, 2849489999, 2849490000, 2849525601, 2849525602, 2849525603, 11155372063, 247115546, 11155372062, 2849489990], "tags": {"alt_name": "Coffs Harbour Community Health Centre", "amenity": "hospital", "emergency": "yes", "healthcare": "hospital", "name": "Coffs Harbour Health Campus", "website": "https://mnclhd.health.nsw.gov.au/hospitals/coffs-harbour-health-campus/"}}, {"type": "way", "id": 287856345, "center": {"lat": -33.7439108, "lon": 150.9826753}, "nodes": [2914244657, 2914244671, 2914244672, 2914244669, 2914244674, 2914244673, 2914244670, 2914244668, 2914244657], "tags": {"addr:housenumber": "499", "addr:postcode": "2153", "addr:street": "Windsor Road", "addr:suburb": "Baulkham Hills", "amenity": "hospital", "emergency": "no", "healthcare": "hospital", "name": "The Hills Private Hospital", "operator:type": "private", "source": "Bing", "website": "https://thehillsprivatehospital.com.au/"}}, {"type": "way", "id": 302380921, "center": {"lat": -33.4203994, "lon": 151.3390641}, "nodes": [3066391207, 3066391208, 3066391209, 3066391210, 3066391211, 3066391212, 3066391213, 5154732212, 3066391214, 3066391215, 3066391216, 3066391217, 3066391218, 9406175047, 3066391207], "tags": {"amenity": "hospital", "emergency": "yes", "healthcare": "hospital", "name": "Gosford Hospital", "website": "https://www.service.nsw.gov.au/nswgovdirectory/gosford-hospital", "wheelchair": "yes", "wikidata": "Q5587185"}}, {"type": "way", "id": 307128016, "center": {"lat": -35.9039762, "lon": 150.0704407}, "nodes": [9438394649, 3121859721, 33554777, 2006228760, 3121859714, 9438394648, 9438394649], "tags": {"addr:city": "Moruya", "addr:country": "AU", "addr:housenumber": "2-10", "addr:postcode": "2537", "addr:state": "NSW", "addr:street": "River Street", "amenity": "hospital", "contact:phone": "+61 2 4474 2666", "contact:website": "http://www.myhospitals.gov.au/hospital/moruya-hospital", "emergency": "yes", "healthcare": "hospital", "name": "Moruya Hospital", "operator": "Southern NSW Local Health District"}}, {"type": "way", "id": 308980633, "center": {"lat": -33.0156083, "lon": 151.5931339}, "nodes": [3992122484, 3992122487, 5288959871, 5277545533, 5277545532, 3142783708, 3142783709, 3142783710, 3142783711, 3992122497, 3992122503, 3142783712, 5277545526, 5277545522, 6469239672, 347255925, 3992122499, 3992122498, 6945167544, 6945167541, 25942296, 6469239670, 3142783714, 25942297, 6469239669, 6469239668, 3992122484], "tags": {"addr:city": "Toronto", "addr:postcode": "2283", "addr:street": "Cnr Cary Street & Excelsior Parade", "amenity": "hospital", "emergency": "no", "healthcare": "hospital", "name": "Toronto Private Hospital", "operator:type": "private", "phone": "+612 4950 4477", "website": "https://torontoprivate.com.au"}}, {"type": "way", "id": 317355138, "center": {"lat": -34.5590469, "lon": 150.8404191}, "nodes": [2022433554, 3236020622, 3236020619, 3236020615, 3430938625, 3430938623, 3236020616, 3236020620, 3430938618, 3430938617, 3430938615, 3236020617, 9464728497, 3236020621, 3236020618, 2022433553, 2022433554], "tags": {"amenity": "hospital", "emergency": "yes", "healthcare": "hospital", "name": "Shellharbour Hospital", "operator:type": "public", "website": "https://www.islhd.health.nsw.gov.au/hospitals/shellharbour-hospital", "wikidata": "Q7493855", "wikipedia": "en:Shellharbour Hospital"}}, {"type": "way", "id": 317474175, "center": {"lat": -33.8601031, "lon": 150.9033964}, "nodes": [9438394143, 9438394144, 9438394145, 9438394146, 9438394147, 9438394148, 3237485583, 3237485585, 3239147567, 3237485561, 3237485562, 3237485564, 3237485592, 3237485565, 3237485563, 3237485586, 3237485590, 3237485578, 3696455567, 9438394143], "tags": {"amenity": "hospital", "emergency": "yes", "healthcare": "hospital", "name": "Fairfield Hospital", "wikidata": "Q5430306"}}, {"type": "way", "id": 353126933, "center": {"lat": -30.3406994, "lon": 152.7138328}, "nodes": [2633366139, 3588981555, 6273396663, 3588981551, 6273396547, 6273396543, 6273396544, 6273396545, 243943250, 243943249, 3588981553, 6273396546, 243942760, 243942759, 243942758, 243942757, 243942756, 6273396607, 2287696215, 2633366139], "tags": {"addr:city": "Dorrigo", "addr:housenumber": "14", "addr:postcode": "2453", "addr:street": "Beech Street", "alt_name": "Dorrigo Multi Purpose Service", "amenity": "hospital", "emergency": "yes", "healthcare": "hospital", "name": "Dorrigo Hospital"}}, {"type": "way", "id": 362191474, "center": {"lat": -34.0351232, "lon": 151.1142599}, "nodes": [3665404030, 3665404032, 3665404035, 11268772102, 3665404036, 3665404034, 3665404033, 3665404031, 3665404030], "tags": {"access": "private", "amenity": "hospital", "healthcare": "hospital", "name": "Kareena Private Hospital", "operator:type": "private", "source": "survey", "website": "https://www.kareenaprivate.com.au/"}}, {"type": "way", "id": 370798261, "center": {"lat": -32.9099627, "lon": 151.717668}, "nodes": [3744852580, 11162520046, 3744852600, 3744852607, 7788165754, 3744852593, 3744852584, 3744852580], "tags": {"addr:housenumber": "182", "addr:street": "Christo Road", "addr:suburb": "Waratah", "amenity": "hospital", "emergency": "no", "healthcare": "hospital", "healthcare:speciality": "ophthalmology", "landuse": "commercial", "name": "Newcastle Eye Hospital", "note": "Hunter Eye's website makes out that the hospital is a seperate entity, but it shares a logo and the link to the hospital on their website leads back to Hunter Eye Surgeons. Treating them as the same.", "operator": "Hunter Eye Surgeons", "phone": "+61 2 4967 6677", "website": "http://www.huntereyesurgeons.com.au/"}}, {"type": "way", "id": 370804023, "center": {"lat": -32.9227457, "lon": 151.6980687}, "nodes": [3744898324, 3744898323, 3744898321, 5511829857, 5511829856, 6457621911, 5511829855, 5511829854, 3744898322, 3744898625, 3744898626, 3744898628, 3744898627, 3744898324], "tags": {"alt_name": "The Heights", "amenity": "hospital", "emergency": "no", "healthcare": "hospital", "name": "Newcastle Private Hospital", "operator:type": "private"}}, {"type": "way", "id": 381392386, "center": {"lat": -33.8700268, "lon": 151.1002988}, "nodes": [3845961068, 11101804631, 3845961069, 11101804548, 11101804549, 3850990538, 3850990537, 3850990535, 3850990536, 3845961073, 3845961074, 3845961068], "tags": {"addr:street": "Grantham Street", "amenity": "hospital", "emergency": "no", "healthcare": "hospital", "name": "St John of God Private Hospital", "operator:type": "religious"}}, {"type": "way", "id": 381394010, "center": {"lat": -33.8719185, "lon": 151.0975672}, "nodes": [6393506108, 6393506107, 6393506106, 9457205475, 6393506109, 9457205476, 6393506108], "tags": {"addr:housenumber": "3", "addr:street": "Everton Road", "amenity": "hospital", "emergency": "no", "healthcare": "hospital", "healthcare:speciality": "cardiology", "name": "Strathfield Private Hospital", "operator:type": "private", "website": "https://www.strathfieldprivate.com.au"}}, {"type": "way", "id": 387748051, "center": {"lat": -33.8682286, "lon": 151.2128548}, "nodes": [3909970471, 7035357281, 3909970473, 3909970465, 3909970464, 3909970471], "tags": {"alt_name": "Sydney Eye Hospital", "amenity": "hospital", "emergency": "yes", "healthcare": "hospital", "name": "Sydney Hospital", "website": "https://www.seslhd.health.nsw.gov.au/SHSEH/", "wikidata": "Q2373707", "wikipedia": "en:Sydney Hospital"}}, {"type": "way", "id": 389827884, "center": {"lat": -33.8804614, "lon": 151.2207236}, "nodes": [3929867039, 3929867029, 3929867027, 3929867038, 3929867043, 3929867040, 3929867032, 3929867041, 3929867037, 3929867035, 3929867042, 3929867036, 3929867034, 3929867030, 3929867033, 3929867031, 5555622735, 3929867028, 3929867025, 3929867026, 3929867039], "tags": {"alt_name": "St Vincents Hospital Darlinghurst", "amenity": "hospital", "emergency": "yes", "healthcare": "hospital", "name": "St. Vincents Hospital", "website": "http://www.stvincents.com.au/", "wikidata": "Q7595607", "wikipedia": "en:St Vincent's Hospital, Sydney"}}, {"type": "way", "id": 391287604, "center": {"lat": -31.882995, "lon": 152.4306664}, "nodes": [3944949565, 3944949566, 3944949567, 3944949568, 3944949569, 3944949570, 3944949571, 3944949572, 3944949573, 3944949574, 11001171684, 3944949575, 3944949576, 1303386091, 3944949577, 3944949578, 3944949579, 3944949580, 3944949565], "tags": {"amenity": "hospital", "emergency": "no", "healthcare": "hospital", "name": "Mayo Private Hospital", "website": "https://mayoprivate.com.au/"}}, {"type": "way", "id": 397719128, "center": {"lat": -33.7052341, "lon": 150.3217188}, "nodes": [4004973655, 8127250219, 8127250218, 4004973648, 4004973646, 4004973651, 8127250220, 4004973654, 4004973649, 4004973643, 8127250221, 4004973652, 8127250222, 8127250223, 3735815943, 3735815918, 4004973653, 4004973645, 8127250217, 6243457657, 4004973655], "tags": {"addr:city": "Katoomba", "addr:postcode": "2780", "addr:state": "NSW", "addr:street": "Great Western Highway", "amenity": "hospital", "emergency": "yes", "healthcare": "hospital", "name": "Blue Mountains District ANZAC Memorial Hospital", "phone": "+61 2 4784 6500", "website": "https://www.nbmlhd.health.nsw.gov.au/blue-mountains-hospital"}}, {"type": "way", "id": 409331830, "center": {"lat": -33.884022, "lon": 151.2410042}, "nodes": [4112456147, 4112456146, 4112456129, 4112456131, 7821238448, 7821238449, 4112456139, 4112456140, 4112456136, 4112456137, 4112456141, 4112456142, 4112456144, 4112456145, 4112456147], "tags": {"addr:housenumber": "11A", "addr:street": "Fullerton Street", "amenity": "hospital", "building": "yes", "healthcare": "hospital", "name": "Wolper Jewish Hospital", "wikidata": "Q50199806"}}, {"type": "way", "id": 419608150, "center": {"lat": -33.7901048, "lon": 151.1786082}, "nodes": [4196425370, 5195199268, 4196425371, 4196425372, 4196425373, 4196425374, 4196425375, 9457183000, 4196425376, 9457183003, 9457183002, 9457183001, 4196425377, 4196425370], "tags": {"addr:city": "Chatswood", "addr:housenumber": "10", "addr:postcode": "2067", "addr:street": "Wyvern Avenue", "amenity": "hospital", "emergency": "no", "healthcare": "hospital", "name": "Hirondelle Private Hospital", "operator:type": "private", "website": "https://hirondelleprivate.com.au/"}}, {"type": "way", "id": 421210995, "center": {"lat": -33.4184299, "lon": 151.3495832}, "nodes": [4210158511, 4210158512, 4615042763, 4210158514, 4615042762, 4615045946, 4615042776, 4615042761, 4210158515, 4210158516, 4210158517, 4210158518, 4615042775, 4615042774, 4615042773, 4210158519, 4210158520, 4210158521, 4615042772, 4615042771, 4615042770, 4615042769, 4615042768, 4615042767, 4615042766, 4615042765, 4615042764, 4210158511], "tags": {"amenity": "hospital", "healthcare": "hospital", "name": "North Gosford Private Hospital"}}, {"type": "way", "id": 422791254, "center": {"lat": -33.757981, "lon": 151.288186}, "nodes": [4225188544, 4225188546, 4225188545, 4225188543, 4225188544], "tags": {"amenity": "hospital", "building": "hospital", "healthcare": "hospital", "name": "Delmar Private Hospital", "source": "NSW LPI Base Map;NSW LPI Imagery"}}, {"type": "way", "id": 422791258, "center": {"lat": -33.6911629, "lon": 151.1508587}, "nodes": [4225188521, 4225188529, 8971296763, 8971296764, 8971296765, 8971296766, 8971296767, 8971296768, 4225188532, 8971296773, 8971296772, 8971296771, 8971296770, 8971296769, 8971296774, 8971296775, 8971296776, 4225188535, 4225188533, 8971296778, 8971296777, 4225188537, 4225188540, 4225188542, 8971296785, 8971296784, 8971296783, 8971296786, 4225188539, 4225188541, 8971296782, 8971296779, 8971296780, 8971296781, 4225188538, 4225188536, 4225188530, 4225188534, 4225188531, 4225188527, 4225188519, 4225188525, 4225188520, 4225188515, 4225188511, 4225188507, 4225188508, 4225188505, 4225188509, 4225188514, 4225188524, 4225188517, 4225188522, 4225188526, 4225188528, 4225188523, 4225188518, 4225188502, 4225188503, 4225188504, 4225188506, 4225188513, 4225188510, 4225188512, 4225188516, 8971296762, 4225188521], "tags": {"amenity": "hospital", "building": "hospital", "healthcare": "hospital", "layer": "1", "name": "Lady Davidson Private Hospital", "source": "NSW LPI Base Map;NSW LPI Imagery"}}, {"type": "way", "id": 422791262, "center": {"lat": -33.1117936, "lon": 151.4797929}, "nodes": [4225188469, 4225188472, 4225188474, 4225188478, 4225188479, 5114210716, 4225188480, 4225188477, 4225188476, 4225188475, 4225188473, 4225188471, 4225188467, 4225188464, 4225188465, 4225188468, 4225188470, 4225188466, 4225188469], "tags": {"amenity": "hospital", "building": "hospital", "healthcare": "hospital", "name": "Moriseset Comunity Health Centre", "source": "NSW LPI Base Map;NSW LPI Imagery"}}, {"type": "way", "id": 422791267, "center": {"lat": -33.5966477, "lon": 150.7894622}, "nodes": [4225188483, 4225188484, 4225188490, 4225188491, 4225188492, 4225188493, 4225188495, 4225188494, 4225188496, 4225188497, 4225188498, 4225188499, 4225188501, 4225188500, 4225188489, 4225188486, 4225188487, 4225188481, 4225188482, 4225188485, 4225188488, 4225188483], "tags": {"amenity": "hospital", "building": "hospital", "healthcare": "hospital", "name": "RAAF Hospital"}}, {"type": "way", "id": 431668599, "center": {"lat": -32.2642877, "lon": 150.8999663}, "nodes": [4308948228, 4308948232, 4308948224, 4308948233, 4308948223, 4233761071, 4233761068, 9409189554, 4308948236, 4308948228], "tags": {"amenity": "hospital", "emergency": "yes", "healthcare": "hospital", "name": "Muswellbrook Hospital"}}, {"type": "way", "id": 434318172, "center": {"lat": -33.6908465, "lon": 151.1506822}, "nodes": [4324767568, 4324767584, 4324767583, 4324767582, 4324767581, 4324767579, 4324767577, 4324767578, 4324767575, 4324767574, 4324767572, 4324767573, 4324767567, 4324767568], "tags": {"amenity": "hospital", "healthcare": "hospital", "name": "Lady Davidson Private Hospital", "operator": "Healthscope Ltd"}}, {"type": "way", "id": 437574806, "center": {"lat": -33.7020692, "lon": 151.1106415}, "nodes": [6179717115, 4353882739, 4353882743, 4353882752, 4353882750, 4353882753, 4353882759, 4353882758, 4353882754, 6179717115], "tags": {"addr:housenumber": "106", "addr:street": "Balmoral Street", "amenity": "hospital", "emergency": "no", "healthcare": "hospital", "name": "The San Day Surgery", "operator": "Adventist HealthCare Limited"}}, {"type": "way", "id": 439643028, "center": {"lat": -33.6105809, "lon": 150.8205805}, "nodes": [2097370394, 4373165724, 4373154679, 4373154663, 4373165719, 4373165718, 4373165728, 4373165723, 4373165694, 4373165710, 9507163177, 9507163176, 2097370400, 2097370393, 2097370394], "tags": {"alt_name": "Hawkesbury Community Health Centre", "amenity": "hospital", "emergency": "yes", "healthcare": "hospital", "name": "Hawkesbury Hospital", "website": "www.hdhs.com.au"}}, {"type": "way", "id": 440681638, "center": {"lat": -33.7176475, "lon": 151.1143266}, "nodes": [4384595437, 4384595434, 4384595410, 4384595413, 4384595412, 4384595408, 4384595411, 4384595437], "tags": {"addr:housenumber": "4-12", "addr:postcode": "2076", "addr:state": "NSW", "addr:street": "Neringah Avenue South", "addr:suburb": "Wahroonga", "amenity": "hospital", "emergency": "no", "healthcare": "hospital", "healthcare:speciality": "palliative", "name": "Neringah Hospital", "operator": "Hammond Care", "website": "https://www.hammond.com.au/locations/nsw/neringah"}}, {"type": "way", "id": 441086347, "center": {"lat": -34.4848839, "lon": 150.4234358}, "nodes": [4388499308, 9432685687, 4388499305, 4388499306, 4388499307, 9432685686, 9432685685, 4388499308], "tags": {"alt_name": "Bowral Hospital", "amenity": "hospital", "emergency": "yes", "healthcare": "hospital", "name": "Bowral & District Hospital", "website": "https://www.swslhd.nsw.gov.au/bowral/", "wikidata": "Q17001648"}}, {"type": "way", "id": 444675754, "center": {"lat": -34.4248823, "lon": 150.8835026}, "nodes": [4421414663, 4421414667, 4421414664, 4421414662, 4421414666, 4421414660, 4421414661, 4421414665, 4421414663], "tags": {"addr:city": "Wollongong", "addr:housenumber": "348", "addr:postcode": "2500", "addr:street": "Crown Street", "amenity": "hospital", "emergency": "yes", "healthcare": "hospital", "name": "Wollongong Hospital", "website": "www.islhd.health.nsw.gov.au/Wollongong_Hospital/"}}, {"type": "way", "id": 453176263, "center": {"lat": -30.7114657, "lon": 150.0402496}, "nodes": [4499607012, 4499607013, 4499607014, 4499607015, 4499607016, 4499607017, 4499607012], "tags": {"amenity": "hospital", "healthcare": "hospital", "name": "Boggabri Multi Purpose Service"}}, {"type": "way", "id": 459015460, "center": {"lat": -33.7738297, "lon": 151.1180629}, "nodes": [4549382666, 4549382667, 4549382668, 4549382669, 4549382670, 4549382671, 4549382672, 4549382673, 4549382674, 4549382675, 4549382676, 4549382677, 4549382678, 4549382679, 4549382680, 4549382681, 4549382682, 4549382683, 4549382684, 4549382685, 4549382686, 4549382687, 8017522956, 8017679061, 4549382792, 4549382789, 4549382791, 4549382790, 4549382666], "tags": {"addr:housenumber": "3", "addr:street": "Technology Place", "amenity": "hospital", "building": "yes", "healthcare": "hospital", "name": "Macquarie University Hospital", "operator:type": "private", "website": "https://www.mqhealth.org.au/patients-and-visitors/macquarie-university-hospital", "wikidata": "Q6725036", "wikipedia": "en:Macquarie University Hospital"}}, {"type": "way", "id": 466854851, "center": {"lat": -30.2788804, "lon": 153.1032184}, "nodes": [4615743201, 5013547926, 4615743202, 4615743203, 4615743204, 4615743205, 7658493447, 4615743201], "tags": {"addr:city": "Coffs Harbour", "addr:country": "AU", "addr:housenumber": "31", "addr:postcode": "2450", "addr:state": "NSW", "addr:street": "Mackays Road", "amenity": "hospital", "healthcare": "hospital", "name": "Baringa Private Hospital", "operator:type": "private", "website": "https://www.baringaprivate.com.au/"}}, {"type": "way", "id": 474684281, "center": {"lat": -32.389657, "lon": 150.6845619}, "nodes": [4685849485, 4685856092, 11027557757, 4685856089, 4685856090, 4685856091, 4685849486, 4685849485], "tags": {"amenity": "hospital", "emergency": "yes", "healthcare": "hospital", "name": "Denman Multi-Purpose Service"}}, {"type": "way", "id": 495966217, "center": {"lat": -33.9198636, "lon": 150.9310906}, "nodes": [3768291120, 3768291153, 3768291130, 3768291107, 3768291125, 3768291128, 3768291120], "tags": {"amenity": "hospital", "emergency": "yes", "healthcare": "hospital", "name": "Liverpool Hospital", "website": "www.swslhd.nsw.gov.au/liverpool/", "wikidata": "Q6658472", "wikipedia": "en:Liverpool Hospital"}}, {"type": "way", "id": 507700592, "center": {"lat": -33.7976629, "lon": 151.1857327}, "nodes": [4971588040, 8495296807, 4971588039, 4971588038, 4945031783, 4971588040], "tags": {"addr:city": "Chatswood", "addr:flats": "Suite 1-5;Shop 1-2", "addr:housenumber": "38B", "addr:street": "Albert Avenue", "amenity": "hospital", "building": "hospital", "building:flats": "8", "building:levels": "3", "emergency": "no", "healthcare": "hospital", "healthcare:speciality": "eye;ear;nose;throat", "name": "Chatswood Private Hospital", "operator:type": "private", "roof:shape": "flat", "website": "https://www.cphospital.com.au/", "wheelchair": "yes"}}, {"type": "way", "id": 554115292, "center": {"lat": -30.5129191, "lon": 151.6550462}, "nodes": [5940420253, 5347943133, 5347943132, 5940420241, 5940420240, 5347943131, 5347943130, 5347943129, 6433389773, 6433389776, 5940420264, 8318339349, 5940420263, 9409189595, 9409189594, 9409189593, 9409189592, 9409189591, 9409189590, 9409189589, 9409189588, 5940420253], "tags": {"addr:housenumber": "226", "addr:street": "Rusden Street", "alt_name": "Armidale Rural Referral Hospital", "amenity": "hospital", "emergency": "yes", "healthcare": "hospital", "name": "Armidale Hospital", "operator:type": "public", "wheelchair": "yes"}}, {"type": "way", "id": 568931536, "center": {"lat": -30.9832111, "lon": 150.2513052}, "nodes": [5472683339, 5472683084, 5472683085, 5472683340, 5472683341, 5472683351, 5472683344, 5472683342, 5472683343, 5472683339], "tags": {"addr:city": "Gunnedah", "addr:housenumber": "2-34", "addr:street": "Marquis Street", "amenity": "hospital", "emergency": "yes", "healthcare": "hospital", "name": "Gunnedah Hospital and Health Service"}}, {"type": "way", "id": 569461060, "center": {"lat": -33.0245702, "lon": 151.6484504}, "nodes": [5476613404, 9409189577, 5543932476, 9409189578, 5543932477, 5543932478, 5543932479, 5543932480, 8692004398, 8692004397, 5476613390, 8692004396, 5476613389, 5476613388, 5476613387, 5476613386, 5476613385, 5476613384, 5476613404], "tags": {"amenity": "hospital", "emergency": "yes", "healthcare": "hospital", "name": "Belmont Hospital", "wheelchair": "yes", "wikidata": "Q17001309"}}, {"type": "way", "id": 571212900, "center": {"lat": -33.8487868, "lon": 151.0284587}, "nodes": [5490377956, 5490377953, 5490377955, 5490377962, 5490377954, 5490377961, 5490377960, 5490377958, 5490377956], "tags": {"amenity": "hospital", "emergency": "no", "healthcare": "hospital", "name": "Saint Joseph's Hospital", "website": "https://www.svhs.org.au/about-us/st-josephs-hospital"}}, {"type": "way", "id": 610762538, "center": {"lat": -33.9623514, "lon": 151.0958733}, "nodes": [5783877760, 5783877761, 5783877762, 5783877763, 5783877764, 5783877765, 5783877766, 5783877760], "tags": {"amenity": "hospital", "healthcare": "hospital", "name": "Hurstville Private Hospital", "operator:type": "private"}}, {"type": "way", "id": 612649832, "center": {"lat": -33.7579396, "lon": 151.1527906}, "nodes": [5798812121, 5798812122, 5798812119, 2338238368, 5798812116, 5798812117, 5798812118, 2610720487, 5798812120, 5798812121], "tags": {"amenity": "hospital", "emergency": "no", "healthcare": "hospital", "name": "Gordon Private Hospital", "start_date": "2018-07", "website": "https://www.gordonprivate.com.au/"}}, {"type": "way", "id": 637390514, "center": {"lat": -33.7508802, "lon": 151.2327528}, "nodes": [6009180061, 6009180062, 6009180063, 6009180064, 8814500317, 6009180061], "tags": {"alt_name": "Northern Beaches Hospital Private Hospital", "amenity": "hospital", "emergency": "yes", "healthcare": "hospital", "name": "Northern Beaches Hospital", "operator": "Healthscope", "operator:type": "private", "website": "https://northernbeacheshospital.com.au/", "wikidata": "Q28428518"}}, {"type": "way", "id": 637393152, "center": {"lat": -34.0374243, "lon": 151.1147272}, "nodes": [6009206423, 6009206422, 6009206421, 6009206420, 6009206419, 6009206418, 6009206417, 6009206416, 6009206415, 6009206423], "tags": {"amenity": "hospital", "healthcare": "hospital", "name": "Sutherland Hospital", "website": "https://www.seslhd.health.nsw.gov.au/tsh", "wikidata": "Q7649972"}}, {"type": "way", "id": 645516737, "center": {"lat": -31.0730726, "lon": 150.9249901}, "nodes": [6067790266, 6067790267, 6067790268, 6067790269, 6067790270, 6067790271, 6067790266], "tags": {"alt_name": "Tamworth Rural Referral Hospital", "amenity": "hospital", "emergency": "yes", "healthcare": "hospital", "name": "Tamworth Hospital"}}, {"type": "way", "id": 688062120, "center": {"lat": -34.5589063, "lon": 150.8479911}, "nodes": [3236024317, 6450915454, 9461867834, 6450915593, 9461867833, 9461867832, 9461867831, 6450915587, 6450915473, 3236024328, 3236024317], "tags": {"addr:housenumber": "27", "addr:postcode": "2528", "addr:state": "NSW", "addr:street": "Captain Cook Drive", "addr:suburb": "Barrack Heights", "amenity": "hospital", "emergency": "no", "healthcare": "hospital", "name": "Shellharbour Private Hospital", "operator": "Healthe Care", "operator:type": "private", "website": "https://shellharbourprivate.com.au"}}, {"type": "way", "id": 688094275, "center": {"lat": -34.4860928, "lon": 150.8812057}, "nodes": [6451307649, 6451307606, 6451307624, 6451307634, 6451307611, 6451307608, 6451307603, 6451307602, 6451307631, 6451307647, 6451307645, 6451307653, 6451307646, 6451307643, 6451307640, 6451307638, 6451307633, 6451307649], "tags": {"addr:housenumber": "89-91", "addr:postcode": "2502", "addr:state": "NSW", "addr:street": "Cowper Street", "addr:suburb": "Warrawong", "amenity": "hospital", "emergency": "no", "healthcare": "hospital", "healthcare:speciality": "rehabilitation;paliative;aged_care", "name": "Port Kembla Hospital", "operator": "Illawarra Shoalhaven Local Health District", "operator:type": "public", "phone": "+61 2 4223 8000"}}, {"type": "way", "id": 688143634, "center": {"lat": -34.7762254, "lon": 150.7128672}, "nodes": [6451894108, 6451894107, 6451894106, 6451894105, 6451894104, 6451894103, 6451894102, 6451894101, 6451894100, 6451894099, 6451894098, 6451894097, 6451894108], "tags": {"addr:city": "Berry", "addr:postcode": "2535", "addr:street": "Tannery Road", "amenity": "hospital", "description": "rehabilitation and palliative care", "emergency": "no", "healthcare": "hospital", "healthcare:speciality": "rehabilitation;palliative", "name": "David Berry Hospital", "operator": "NSW Government", "phone": "+62 2 4464 1001", "start_date": "1909", "website": "https://www.islhd.health.nsw.gov.au/David_Berry_Hospital", "wikidata": "Q56051612", "wikipedia": "en:David Berry Hospital"}}, {"type": "way", "id": 689259806, "center": {"lat": -33.9106233, "lon": 151.2461253}, "nodes": [6466013540, 6466013542, 6466013546, 6466013543, 6466013545, 6466013541, 6466013544, 6466013539, 6466013540], "tags": {"amenity": "hospital", "emergency": "no", "healthcare": "hospital", "name": "Eastern Suburbs Private Hospital", "operator:type": "private"}}, {"type": "way", "id": 773692951, "center": {"lat": -34.6834045, "lon": 150.8509105}, "nodes": [7221781402, 7221781401, 7221781400, 1090197017, 7221781402], "tags": {"amenity": "hospital", "emergency": "no", "healthcare": "hospital", "name": "Kiama Hospital & Community Health Service"}}, {"type": "way", "id": 810652867, "center": {"lat": -30.6936735, "lon": 152.9438152}, "nodes": [7579457896, 7579457897, 7579457898, 7579457899, 7579457900, 7579457901, 7579457902, 7579457903, 7579457904, 7579457905, 7579457906, 7579457907, 7579457896], "tags": {"alt_name": "Macksville District Hospital", "amenity": "hospital", "emergency": "yes", "healthcare": "hospital", "name": "Macksville Hospital", "website": "https://mnclhd.health.nsw.gov.au/hospital/macksville-district-hospital/"}}, {"type": "way", "id": 891830800, "center": {"lat": -33.9048915, "lon": 151.1961705}, "nodes": [8288988175, 8288988174, 8288988173, 8288988172, 8288988175], "tags": {"amenity": "hospital", "building": "yes", "emergency": "no", "healthcare": "clinic", "name": "Alexandria Specialist Day Hospital", "operator": "Virtus Health", "website": "https://www.asdh.com.au"}}, {"type": "way", "id": 921646709, "center": {"lat": -33.8173502, "lon": 151.1905648}, "nodes": [8556629662, 8556629661, 8556629660, 5774167577, 8556629662], "tags": {"amenity": "hospital", "emergency": "no", "healthcare": "hospital", "healthcare:speciality": "mental_health", "name": "St Leonards Clinic", "operator": "Northside Group", "operator:type": "private", "website": "https://www.ramsaymentalhealth.com.au/northside"}}, {"type": "way", "id": 921948679, "center": {"lat": -33.8200776, "lon": 151.1892638}, "nodes": [2139777503, 2139777504, 8559239380, 8559239379, 8559239378, 8559239377, 8559239376, 8559239375, 2139777503], "tags": {"addr:housenumber": "1", "addr:street": "Westbourne Street", "amenity": "hospital", "emergency": "no", "healthcare": "hospital", "name": "North Shore Private Hospital", "operator:type": "private", "phone": "+61-2-8425-3000", "website": "https://www.northshoreprivate.com.au/"}}, {"type": "way", "id": 943440280, "center": {"lat": -33.8018425, "lon": 151.2170386}, "nodes": [8735496543, 8735496542, 540650055, 8735496540, 8735496539, 10792580331, 10792580332, 10792580335, 10792580334, 10792580333, 10792580330, 8735496538, 10792580322, 8735496537, 10792580325, 10792580323, 10792580324, 8735496536, 10792580327, 10792580326, 10792580328, 10792580329, 10792580287, 8735496535, 8735496543], "tags": {"addr:housenumber": "150", "addr:postcode": "2068", "addr:street": "Edinburgh Road", "amenity": "hospital", "emergency": "no", "healthcare": "hospital", "name": "Castlecrag Private Hospital", "operator:type": "private", "website": "https://www.castlecragprivate.com.au/"}}, {"type": "way", "id": 954455990, "center": {"lat": -33.2623141, "lon": 151.4824213}, "nodes": [8833863266, 8833863267, 8833863268, 8833863269, 8833863270, 8833863271, 8833863266], "tags": {"addr:housenumber": "645", "addr:street": "Pacific Highway", "amenity": "hospital", "healthcare": "hospital", "name": "Tuggerah Lakes Private Hospital", "operator": "Healthe Care Australia", "operator:type": "private", "website": "https://tuggerahlakesprivate.com.au"}}, {"type": "way", "id": 962819143, "center": {"lat": -33.690547, "lon": 150.5708614}, "nodes": [8906335947, 8906335948, 8906335949, 8906335950, 8906335951, 8906335952, 8906335953, 8906335954, 8906335955, 8906335956, 8906335957, 8906335958, 8906335959, 8906335960, 8906335947], "tags": {"addr:street": "Huntley Grange Road", "amenity": "hospital", "contact:fax": "+61 2 4560 5662", "contact:phone": "+61 2 4751 0300", "emergency": "no", "healthcare": "hospital", "name": "Springwood Hospital"}}, {"type": "way", "id": 965790001, "center": {"lat": -33.8108717, "lon": 150.974478}, "nodes": [5180774192, 8934537376, 55720148, 1916678127, 55720150, 5180774196, 1916678142, 5180774195, 5180774194, 5180774193, 5180774192], "tags": {"amenity": "hospital", "beds": "70", "fax": "+61 2 8833 2221", "healthcare": "hospital", "healthcare:speciality": "psychiatry", "name": "Northside Group Wentworthville Clinic", "operator": "Ramsay Mental Health", "operator:type": "private", "phone": "+61 2 8833 2222", "website": "https://www.ramsaymentalhealth.com.au/wentworthville"}}, {"type": "way", "id": 965960376, "center": {"lat": -33.8462715, "lon": 150.9789263}, "nodes": [2787026307, 8936147021, 8936147022, 8936147023, 8936147024, 8936147031, 8936147030, 8936147029, 8936147028, 8936147027, 8936147025, 8936147026, 2787026307], "tags": {"addr:housenumber": "123", "addr:street": "Chetwynd Road", "amenity": "hospital", "email": "Holroyd.info@iphoa.com.au", "emergency": "no", "facebook": "https://www.facebook.com/HolroydPH/", "fax": "+61 2 9632 8480", "healthcare": "hospital", "name": "Holroyd Private Hospital", "operator": "Macquarie Health Corporation", "operator:type": "private", "phone": "+61 2 9681 2222", "website": "https://www.holroydprivate.com.au/"}}, {"type": "way", "id": 965960426, "center": {"lat": -33.8604057, "lon": 151.0331241}, "nodes": [8936173409, 8936173410, 8936173411, 8936173412, 8936173413, 8936173414, 8936173415, 8936173416, 829831682, 8936173409], "tags": {"amenity": "hospital", "beds": "155", "emergency": "yes", "healthcare": "hospital", "name": "Auburn Hospital", "operator": "NSW Ministry of Health", "operator:type": "public", "operator:wikidata": "Q6867095", "phone": "+61 2 8759 3000", "website": "https://www.wslhd.health.nsw.gov.au/Auburn-Hospital", "wikidata": "Q4819278", "wikipedia": "en:Auburn Hospital"}}, {"type": "way", "id": 970536217, "center": {"lat": -33.9184022, "lon": 151.2393884}, "nodes": [6353609611, 6353609615, 6353609616, 6353609618, 6353609619, 8981872071, 6412957598, 6412957597, 8981772464, 8981772463, 8981604494, 8981604495, 6353688712, 6353688711, 8979296846, 8979296848, 6353688665, 6353688666, 8979276198, 8979276199, 8979276200, 8979276201, 8979276202, 8979276203, 8979276204, 8979276205, 8979276210, 2390452788, 8979276211, 2390452790, 8981604496, 8981604493, 8981772467, 8981772461, 6353609689, 6353609688, 8377902095, 8377902094, 6412957596, 6412957599, 6353609610, 6353609611], "tags": {"addr:postcode": "2031", "addr:state": "NSW", "addr:street": "Barker Street", "addr:suburb": "Randwick", "amenity": "hospital", "emergency": "yes", "healthcare": "hospital", "name": "Prince of Wales Hospital", "wikidata": "Q7244388"}}, {"type": "way", "id": 995144329, "center": {"lat": -33.975739, "lon": 151.1357375}, "nodes": [9189427108, 9189427109, 9189427110, 9189427111, 9189427112, 9189427113, 9189427114, 9189427115, 9189427116, 9189427117, 9189427118, 9189427119, 9189427108], "tags": {"amenity": "hospital", "healthcare": "hospital", "name": "Calvary Health Care Sydney"}}, {"type": "way", "id": 1020178697, "center": {"lat": -32.827459, "lon": 151.347887}, "nodes": [9409189576, 9409189575, 9409189574, 9409189573, 9409189572, 9409189571, 9409189570, 9409189569, 9409189568, 9409189567, 9409189566, 9409189565, 9409189564, 9409189563, 9409189562, 9409189576], "tags": {"amenity": "hospital", "emergency": "yes", "healthcare": "hospital", "name": "Cessnock Hospital"}}, {"type": "way", "id": 1020178698, "center": {"lat": -30.5120786, "lon": 151.6546171}, "nodes": [9409189582, 9409189581, 9409189595, 9409189594, 9409189593, 9409189592, 9409189591, 5940420251, 9409189589, 9409189588, 9409189582], "tags": {"addr:housenumber": "226B", "addr:street": "Rusden Street", "amenity": "hospital", "emergency": "no", "healthcare": "hospital", "name": "Armidale Private Hospital", "operator:type": "private", "wheelchair": "yes"}}, {"type": "way", "id": 1020423441, "center": {"lat": -32.7203849, "lon": 152.1588005}, "nodes": [9411485791, 9411485790, 9411485789, 9411485788, 9411485787, 9411485786, 9411485791], "tags": {"amenity": "hospital", "emergency": "yes", "healthcare": "hospital", "name": "Tomaree Community Hospital"}}, {"type": "way", "id": 1020423442, "center": {"lat": -32.0515927, "lon": 150.8772424}, "nodes": [1010812713, 9411485798, 9411485797, 9411485796, 9411485795, 9411485794, 9411485793, 9411485792, 1010812713], "tags": {"alt_name": "Scott Memorial Scone Hospital", "amenity": "hospital", "emergency": "yes", "healthcare": "hospital", "name": "Scott Memorial Hospital"}}, {"type": "way", "id": 1020423444, "center": {"lat": -31.5004053, "lon": 150.6766399}, "nodes": [1340681574, 9411485813, 9411485812, 9411485811, 9411485810, 9411485809, 9411485808, 9411485807, 9411485806, 9411485805, 9411485804, 9411485803, 1340681574], "tags": {"alt_name": "Quirindi DHS Community Health Centre", "amenity": "hospital", "emergency": "yes", "healthcare": "hospital", "name": "Quirindi Hospital"}}, {"type": "way", "id": 1020423446, "center": {"lat": -32.142708, "lon": 150.3610593}, "nodes": [9411546022, 9411546021, 9411546020, 9411546019, 9411546018, 9411546022], "tags": {"amenity": "hospital", "emergency": "yes", "healthcare": "hospital", "name": "Merriwa Multi Purpose Service"}}, {"type": "way", "id": 1020423447, "center": {"lat": -30.2127991, "lon": 151.6790525}, "nodes": [1146882953, 9411546029, 9411546028, 9411546027, 9411546026, 1146882953], "tags": {"alt_name": "Guyra Hospital", "amenity": "hospital", "emergency": "yes", "healthcare": "hospital", "name": "Guyra Multi Purpose Service"}}, {"type": "way", "id": 1020713363, "center": {"lat": -31.3466535, "lon": 150.6525713}, "nodes": [2166361117, 9414242065, 9414242064, 9414242063, 9414242062, 2166361117], "tags": {"alt_name": "Werris Creek Hospital", "amenity": "hospital", "emergency": "yes", "healthcare": "hospital", "name": "Werris Creek Community Hospital"}}, {"type": "way", "id": 1020713368, "center": {"lat": -31.7704026, "lon": 150.8347884}, "nodes": [968687616, 9414242096, 9414242095, 9414242094, 9414242093, 9414242092, 968687616], "tags": {"alt_name": "Wilson Memorial Community Hospital", "amenity": "hospital", "emergency": "yes", "healthcare": "hospital", "name": "Murrurundi Community Health Centre"}}, {"type": "way", "id": 1020713369, "center": {"lat": -32.4041474, "lon": 152.2101467}, "nodes": [9414242102, 9414242101, 9414242100, 9414242099, 9414242098, 9414242097, 9414242102], "tags": {"amenity": "hospital", "emergency": "yes", "healthcare": "hospital", "name": "Bulahelah Hospital"}}, {"type": "way", "id": 1020719772, "center": {"lat": -35.3172285, "lon": 150.4389448}, "nodes": [559831208, 9414311454, 9414311453, 9414311452, 559831208], "tags": {"amenity": "hospital", "emergency": "yes", "healthcare": "hospital", "name": "Milton Ulladulla"}}, {"type": "way", "id": 1020719773, "center": {"lat": -34.4256678, "lon": 150.8807923}, "nodes": [9414311461, 9414311460, 9414311459, 9414311458, 9414311457, 9414311456, 2328824964, 9414311462, 9414311455, 9414311461], "tags": {"addr:city": "Wollongong", "addr:housenumber": "360-364", "addr:postcode": "2500", "addr:state": "NSW", "addr:street": "Crown Street", "addr:suburb": "Wollongong", "amenity": "hospital", "emergency": "no", "fax": "+61 2 4286 1001", "healthcare": "hospital", "name": "Wollongong Private Hospital", "operator": "Ramsay Health Care", "operator:type": "private", "phone": "+61 2 4286 1000", "website": "https://www.wollongongprivate.com.au"}}, {"type": "way", "id": 1020719774, "center": {"lat": -34.4258289, "lon": 150.8814977}, "nodes": [2328824964, 9414311464, 9414311463, 9414311462, 2328824964], "tags": {"amenity": "hospital", "healthcare": "hospital", "name": "Wollongong Day Surgery", "operator:type": "private", "website": "https://wollongongdaysurgery.com.au/"}}, {"type": "way", "id": 1021825039, "center": {"lat": -33.4985476, "lon": 150.128266}, "nodes": [9424386520, 9424383314, 9424383313, 650104068, 9424386520], "tags": {"amenity": "hospital", "healthcare": "hospital", "name": "Lithgow Private Hospital", "operator:type": "private"}}, {"type": "way", "id": 1022483651, "center": {"lat": -32.7593691, "lon": 151.6052242}, "nodes": [2479759542, 2479759512, 2479759504, 2479759476, 9584315821, 9584315801, 2479759459, 9584315820, 9584315791, 2479759449, 9430122909, 2479759542], "tags": {"amenity": "hospital", "emergency": "yes", "healthcare": "hospital", "name": "New Maitland Hospital", "start_date": "2022-01-19"}}, {"type": "way", "id": 1022761749, "center": {"lat": -33.9172651, "lon": 150.9283216}, "nodes": [1541780454, 1541780452, 9432634523, 9432634522, 9432634521, 1541780454], "tags": {"addr:country": "AU", "addr:housenumber": "40", "addr:postcode": "2170", "addr:state": "NSW", "addr:street": "Bigge Street", "addr:suburb": "Liverpool", "alt_name": "Liverpool Private Hospital", "amenity": "hospital", "fax": "+61-2-96017556", "healthcare": "hospital", "name": "Sydney Southwest Private Hospital", "operator:type": "private", "phone": "+61-2-98210333", "website": "https://healthscopehospitals.com.au/info/general/HospitalHome/get/33/hospitalId/"}}, {"type": "way", "id": 1022766660, "center": {"lat": -33.9331239, "lon": 151.0208099}, "nodes": [253086883, 9497158721, 9497158719, 9497158720, 9497158718, 9432632612, 9432632611, 9497158745, 9497158717, 9432632610, 253086883], "tags": {"alt_name": "Bankstown Lidcome hospital", "amenity": "hospital", "emergency": "yes", "healthcare": "hospital", "name": "Bankstown Hospital"}}, {"type": "way", "id": 1022768992, "center": {"lat": -34.4843677, "lon": 150.4228029}, "nodes": [9432685684, 9432685683, 9432685687, 4388499308, 9432685685, 9432685686, 9432685684], "tags": {"addr:housenumber": "93-95", "addr:postcode": "2576", "addr:state": "NSW", "addr:street": "Bowral Street", "addr:suburb": "Bowral", "amenity": "hospital", "emergency": "no", "healthcare": "hospital", "name": "Southern Highlands Private Hospital", "operator:type": "private"}}, {"type": "way", "id": 1022771145, "center": {"lat": -31.5291524, "lon": 159.0679416}, "nodes": [391878236, 9432695968, 9432695967, 9432695966, 391878236], "tags": {"amenity": "hospital", "emergency": "yes", "healthcare": "hospital", "name": "Gower Wilson Memorial Hospital"}}, {"type": "way", "id": 1023474005, "center": {"lat": -33.8620469, "lon": 150.9028235}, "nodes": [9438394143, 8906051899, 3237485581, 9438394148, 9438394147, 9438394146, 9438394145, 9438394144, 9438394143], "tags": {"amenity": "hospital", "healthcare": "hospital", "name": "Braeside Hospital"}}, {"type": "way", "id": 1023475620, "center": {"lat": -34.0625857, "lon": 150.6936399}, "nodes": [9438417680, 9438417679, 9438417678, 9438417677, 9438417676, 9438417675, 9438417674, 9438417673, 9438417672, 9438417671, 9438417670, 9438417669, 9438417680], "tags": {"amenity": "hospital", "emergency": "yes", "fax": "+61-2-46546240", "healthcare": "hospital", "name": "Camden District Hospital", "phone": "+61-2-46343000", "website": "http://www.swslhd.nsw.gov.au/CCQ/"}}, {"type": "way", "id": 1023943815, "center": {"lat": -32.051445, "lon": 150.8765259}, "nodes": [9442233878, 9442233877, 9442233876, 9442233875, 9442233874, 9442233873, 9442233878], "tags": {"amenity": "hospital", "building": "yes"}}, {"type": "way", "id": 1023943817, "center": {"lat": -32.0515514, "lon": 150.8770149}, "nodes": [9442233913, 9442233912, 9442233911, 9442233910, 9442233883, 9442233909, 9442233908, 9442233907, 9442233906, 9442233905, 9442233904, 9442233903, 9442233902, 9442233901, 9442233900, 9442233899, 9442233898, 9442233897, 9442233896, 9442233895, 9442233894, 9442233893, 9442233892, 9442233891, 9442233890, 9442233889, 9442233888, 9442233887, 9442233886, 9442233885, 9442233884, 9442233913], "tags": {"amenity": "hospital", "building": "yes"}}, {"type": "way", "id": 1023943818, "center": {"lat": -32.0516966, "lon": 150.8778087}, "nodes": [9442239521, 9442239520, 9442239519, 9442239518, 9442239517, 9442233916, 9442233915, 9442233914, 9442239521], "tags": {"amenity": "hospital", "building": "yes"}}, {"type": "way", "id": 1024086087, "center": {"lat": -35.713926, "lon": 150.182217}, "nodes": [9443338105, 9443338104, 9443338103, 9443338102, 9443338101, 9443338100, 9443338099, 9443338098, 9443338097, 9443338096, 9443338095, 9443338094, 9443338093, 9443338092, 9443338091, 9443338090, 9443338089, 9443338088, 9443338087, 9443338105], "tags": {"amenity": "hospital", "emergency": "yes", "healthcare": "hospital", "name": "Batemans Bay District Hospital"}}, {"type": "way", "id": 1024120595, "center": {"lat": -33.9175161, "lon": 151.2385205}, "nodes": [9443666492, 9443666491, 9443666490, 9443666489, 9443666488, 9443666487, 9443666486, 9443666485, 9443666484, 3911644059, 9443666492], "tags": {"addr:postcode": "2031", "addr:state": "NSW", "addr:street": "High Street", "addr:suburb": "Randwick", "amenity": "hospital", "emergency": "yes", "healthcare": "hospital", "name": "Sydney Children's Hospital", "website": "https://www.schn.health.nsw.gov.au/", "wikidata": "Q7659869", "wikipedia": "en:Sydney Children's Hospital"}}, {"type": "way", "id": 1024682073, "center": {"lat": -33.7655755, "lon": 150.8303995}, "nodes": [1480994670, 4430147116, 9622948206, 9622948209, 9622948208, 11240679267, 11240679268, 9448615301, 9451377190, 9451377189, 9450135259, 9448615299, 11295401753, 11295432698, 7157861603, 6257071641, 6257071640, 7157861604, 7157861605, 9450195047, 7157861606, 11295432763, 11295432765, 9448615294, 9448615293, 9448615292, 1480994670], "tags": {"addr:housenumber": "75", "addr:postcode": "2770", "addr:state": "NSW", "addr:street": "Railway Street", "addr:suburb": "Mount Druitt", "amenity": "hospital", "emergency": "yes", "healthcare": "hospital", "healthcare:speciality": "general;orthopaedics", "name": "Mount Druitt Hospital", "operator": "NSW Health - Western Sydney Local Health District", "operator:type": "public", "source:area": "NSW Zoning Map", "wikidata": "Q6920502"}}, {"type": "way", "id": 1025687004, "center": {"lat": -33.7809388, "lon": 150.8281968}, "nodes": [4225187056, 9456742587, 9456742586, 9456742585, 4225187056], "tags": {"amenity": "hospital", "healthcare": "hospital", "name": "Minchinbury Community Private Hospital", "operator:type": "private"}}, {"type": "way", "id": 1025693158, "center": {"lat": -33.8347198, "lon": 151.2478969}, "nodes": [9456852733, 9456852732, 9456852731, 9456852730, 9456852729, 9456852728, 9456852727, 9456852726, 9456852733], "tags": {"amenity": "hospital", "emergency": "no", "healthcare": "hospital", "name": "Mosman Private Hospital", "operator:type": "private"}}, {"type": "way", "id": 1025693897, "center": {"lat": -33.8051362, "lon": 151.2845238}, "nodes": [9456785187, 9456785186, 9456785185, 9456785184, 9456785183, 9456785187], "tags": {"amenity": "hospital", "emergency": "no", "healthcare": "hospital", "name": "Manly Waters Private Hospital", "operator:type": "private"}}, {"type": "way", "id": 1025694974, "center": {"lat": -33.7751647, "lon": 151.2914012}, "nodes": [9456819501, 9456819494, 9456819491, 9456819492, 9456819493, 9456819500, 9456819499, 9456819498, 9456819501], "tags": {"amenity": "hospital", "emergency": "no", "healthcare": "hospital", "name": "South Pacific Private Hospital", "operator:type": "private"}}, {"type": "way", "id": 1025733253, "center": {"lat": -33.827356, "lon": 151.1698147}, "nodes": [4225187055, 9457198880, 9457198879, 9457198878, 4225187055], "tags": {"amenity": "hospital", "emergency": "no", "healthcare": "hospital", "name": "Longueville Private Hospital", "operator:type": "private"}}, {"type": "way", "id": 1025736352, "center": {"lat": -33.8595591, "lon": 151.1816152}, "nodes": [4365487179, 2895011398, 4365487182, 4365487184, 4365487183, 9457223861, 9457223860, 9457223859, 2895011399, 9457223862, 9457223858, 9457223857, 9457223856, 9457223855, 9457223854, 9457223853, 4365487179], "tags": {"amenity": "hospital", "emergency": "no", "healthcare": "hospital", "name": "Balmain Hospital"}}, {"type": "way", "id": 1025737377, "center": {"lat": -33.7918708, "lon": 151.0638745}, "nodes": [4225187044, 9457218485, 9457218484, 9457218483, 9457218482, 9457218481, 9457218480, 9457218479, 9457218478, 9457218477, 9457218476, 9457218475, 9457218474, 9457218473, 9457218472, 9457218471, 9457218470, 4225187044], "tags": {"amenity": "hospital", "emergency": "no", "healthcare": "hospital", "healthcare:speciality": "paediatrics", "name": "Allowah Presbyterian Childern's Hospital", "operator:type": "religious", "website": "https://www.allowah.org.au/"}}, {"type": "way", "id": 1025739461, "center": {"lat": -33.8650531, "lon": 151.1070516}, "nodes": [4225187049, 9457239467, 9457239466, 9457239465, 9457239464, 9457239463, 4225187049], "tags": {"amenity": "hospital", "emergency": "no", "healthcare": "hospital", "name": "Concord Private Hospital", "operator:type": "private"}}, {"type": "way", "id": 1025740416, "center": {"lat": -33.8828994, "lon": 151.094263}, "nodes": [4225187045, 9457243847, 9457243846, 9457243845, 4225187045], "tags": {"amenity": "hospital", "emergency": "no", "healthcare": "hospital", "healthcare:speciality": "rehabilitation", "name": "Alwyn Rehabilitation Hospital", "website": "https://alwyn.com.au/"}}, {"type": "way", "id": 1025742287, "center": {"lat": -33.9683646, "lon": 151.1288389}, "nodes": [9457250564, 9457250563, 9457250562, 9457250561, 9457250564], "tags": {"amenity": "hospital", "emergency": "no", "healthcare": "hospital", "name": "Wesley Hospital Kogarah", "website": "https://www.wesleymission.org.au/find-a-service/mental-health-and-hospitals/wesley-hospitals/wesley-hospital-kogarah/"}}, {"type": "way", "id": 1025952083, "center": {"lat": -33.5938555, "lon": 150.7021317}, "nodes": [2160617907, 9459041341, 9459041340, 9459041339, 9459041338, 9459041337, 9459041332, 9459041331, 9459041336, 9459041335, 9459041334, 9459041333, 2160617907], "tags": {"alt_name": "Saint John Of God Richmond Hospital", "amenity": "hospital", "emergency": "no", "healthcare": "hospital", "name": "Saint John Of God Hospital", "operator:type": "religious"}}, {"type": "way", "id": 1025991506, "center": {"lat": -32.7655278, "lon": 151.5977309}, "nodes": [9459407719, 9459407718, 9459407717, 4020448377, 9459404215, 9459407719], "tags": {"amenity": "hospital", "emergency": "yes", "healthcare": "hospital", "name": "Maitland Private Hospital", "operator:type": "private", "website": "https://maitlandprivatehospital.com.au"}}, {"type": "way", "id": 1025991666, "center": {"lat": -32.8828488, "lon": 151.6952866}, "nodes": [9459370870, 9459370869, 9459370868, 9459370867, 9459370866, 9459370865, 9459370864, 9459370863, 9459370862, 9459370861, 9459370860, 9459370859, 9459370858, 9459370870], "tags": {"amenity": "hospital", "emergency": "no", "healthcare": "hospital", "name": "Hunter Valley Private Hospital", "operator:type": "private", "website": "https://huntervalleyprivatehospital.com.au"}}, {"type": "way", "id": 1025992530, "center": {"lat": -32.9228009, "lon": 151.6924355}, "nodes": [9459401538, 9459401537, 9459401536, 9459401535, 9459401534, 9459401533, 9459401532, 9459401531, 9459401530, 9459401529, 9459401528, 9459401527, 9459401526, 10692878630, 9459401525, 9459401538], "tags": {"alt_name": "JHH", "amenity": "hospital", "comment": "area extent a guess!", "emergency": "yes", "healthcare": "hospital", "local_name": "the John", "name": "John Hunter Hospital", "name:en": "John Hunter Hospital", "name:ja": "\u30b8\u30e7\u30f3\u30cf\u30f3\u30bf\u30fc\u75c5\u9662", "noaddress": "yes", "wikidata": "Q14934850", "wikipedia": "en:John Hunter Hospital"}}, {"type": "way", "id": 1026244743, "center": {"lat": -32.941174, "lon": 151.6533872}, "nodes": [9461715216, 9461715215, 9461715214, 9461715213, 9461715212, 9461715211, 9461715210, 9461715209, 9461715208, 9461715207, 9461715206, 9461715216], "tags": {"amenity": "hospital", "emergency": "no", "healthcare": "hospital", "name": "Pendlebury Clinc Private Hospital", "operator:type": "private"}}, {"type": "way", "id": 1026245040, "center": {"lat": -32.9810719, "lon": 151.6917166}, "nodes": [9461822151, 9461822150, 9461822149, 9461822148, 9461822147, 9461822146, 9461822145, 9461822144, 9461822143, 9461822142, 9461822141, 9461822151], "tags": {"amenity": "hospital", "emergency": "no", "healthcare": "hospital", "name": "Lake Macquarie Private Hospital", "operator:type": "private"}}, {"type": "way", "id": 1026247542, "center": {"lat": -32.9405024, "lon": 151.7556176}, "nodes": [9461834276, 9461834275, 9461834274, 9461834259, 9461834258, 9461834273, 9461834272, 9461834271, 9461834270, 9461834269, 9461834268, 9461834267, 9461834266, 9461834265, 9461834264, 9461834276], "tags": {"amenity": "hospital", "healthcare": "hospital", "name": "Lingard Private Hospital", "operator:type": "private"}}, {"type": "way", "id": 1026248654, "center": {"lat": -34.4259711, "lon": 150.8901371}, "nodes": [4225187060, 9461847564, 9461847563, 9461847562, 9461847561, 9461847560, 9461847559, 9461847558, 9461847557, 9461847556, 9461847555, 9461847554, 9461847553, 9461847552, 9461847551, 4225187060], "tags": {"amenity": "hospital", "emergency": "no", "healthcare": "hospital", "name": "South Coast Private Hospital", "operator:type": "private"}}, {"type": "way", "id": 1026248830, "center": {"lat": -34.4397345, "lon": 150.8511525}, "nodes": [98656604, 9461847888, 9461847887, 9461847886, 11170787830, 9461847885, 9461847884, 9461847883, 98656604], "tags": {"amenity": "hospital", "emergency": "no", "healthcare": "hospital", "name": "Figtree Private Hospital", "operator:type": "private"}}, {"type": "way", "id": 1026863284, "center": {"lat": -34.8938249, "lon": 150.6065124}, "nodes": [801673597, 9467345701, 9467345702, 9467345703, 9467345704, 9467345705, 801673597], "tags": {"alt_name": "Nowra Community Hospital", "amenity": "hospital", "emergency": "no", "healthcare": "hospital", "name": "Nowra Private Hospital", "operator:type": "private", "website": "https://www.nowraprivate.com.au/"}}, {"type": "way", "id": 1026864147, "center": {"lat": -32.1884137, "lon": 152.5138781}, "nodes": [9467306096, 9467306095, 9467306094, 9467306093, 9467306092, 9467306091, 9467306096], "tags": {"addr:housenumber": "5A", "addr:postcode": "2428", "addr:state": "NSW", "addr:street": "South Street", "addr:suburb": "Forster", "amenity": "hospital", "emergency": "no", "healthcare": "hospital", "name": "Forster Private Hospital", "operator": "Healthe Care", "operator:type": "private", "phone": "+61 2 6555 1333", "website": "https://forsterprivate.com.au/"}}, {"type": "way", "id": 1026865918, "center": {"lat": -31.8780223, "lon": 152.3651415}, "nodes": [9467360408, 9467360407, 9467360406, 9467360405, 9467360404, 9467360408], "tags": {"addr:housenumber": "34", "addr:street": "Bungay Road", "amenity": "hospital", "emergency": "no", "healthcare": "hospital", "healthcare:speciality": "rehabilitation;dementia;age_care", "name": "Wingham Community Hospital", "website": "https://www.healthdirect.gov.au/australian-health-services/20064006/wingham-community-hospital/services/wingham-2429-32-bungay-road"}}, {"type": "way", "id": 1026868423, "center": {"lat": -31.457424, "lon": 152.7280475}, "nodes": [2157148556, 9784164033, 9784164032, 9784164034, 9784164031, 9467382732, 9467382731, 9467382730, 2157148556], "tags": {"amenity": "hospital", "emergency": "yes", "healthcare": "hospital", "name": "Wauchope District Memorial Hospital", "website": "https://mnclhd.health.nsw.gov.au/hospital/wauchope-district-memorial-hospital/"}}, {"type": "way", "id": 1037285419, "center": {"lat": -33.7576926, "lon": 150.7131875}, "nodes": [9555530847, 2480925241, 9555530915, 1388187905, 1388187898, 1388187913, 9555530855, 9424333708, 1388187903, 11031808610, 1388187912, 9555530849, 9555530847], "tags": {"amenity": "hospital", "emergency": "no", "healthcare": "hospital", "name": "Nepean Private Hospital", "operator": "Healthscope", "operator:type": "private", "website": "https://nepeanprivatehospital.com.au/"}}, {"type": "way", "id": 1043669375, "center": {"lat": -33.8074523, "lon": 150.9884932}, "nodes": [9605021952, 9605021953, 9605021954, 9605021955, 9605021952], "tags": {"amenity": "hospital", "healthcare": "hospital", "name": "The Skin Hospital Westmead", "source:name": "NSW Base Map"}}, {"type": "way", "id": 1062797719, "center": {"lat": -33.8192557, "lon": 150.9810586}, "nodes": [9763413761, 9763413766, 9763413767, 6410492971, 9763413765, 9763413761], "tags": {"amenity": "hospital", "healthcare": "rehabilitation", "name": "Westmead Rehabilitation Hospital"}}, {"type": "way", "id": 1075791157, "center": {"lat": -33.9438522, "lon": 151.1020998}, "nodes": [6417107406, 9866084096, 9866084097, 9866084098, 9866084099, 9866084100, 9866084101, 9866084102, 9866084103, 9866084104, 9866084105, 9866084106, 6417107406], "tags": {"amenity": "hospital", "healthcare": "hospital", "name": "Kingsgrove Day Hospital"}}, {"type": "way", "id": 1091639065, "center": {"lat": -33.9643932, "lon": 151.1004615}, "nodes": [9997894977, 9997894975, 9997894979, 9997894980, 9997894977], "tags": {"amenity": "hospital", "emergency": "no", "healthcare": "hospital", "name": "Waratah Private Hospital", "operator:type": "private"}}, {"type": "way", "id": 1149572436, "center": {"lat": -33.7597657, "lon": 150.7163868}, "nodes": [10694305860, 10694305861, 10694305862, 10694305863, 10694305860], "tags": {"amenity": "hospital", "emergency": "no", "healthcare": "hospital", "healthcare:speciality": "physiatry;general;geriatrics;palliative;psychiatry", "name": "Matilda Nepean", "operator": "Matilda Health Care", "operator:type": "private", "source": "survey"}}, {"type": "way", "id": 1174705690, "center": {"lat": -33.9816089, "lon": 151.2438327}, "nodes": [1833874335, 10915535797, 10915556532, 10915535798, 10915535799, 10915535800, 10915535801, 10915556510, 10915556509, 10915556508, 10915556506, 10915556507, 10915556505, 10915535804, 10915535803, 10915535802, 5677529012, 1833874335], "tags": {"addr:housenumber": "1430", "addr:postcode": "2036", "addr:state": "NSW", "addr:street": "Anzac Parade", "addr:suburb": "Little Bay", "amenity": "hospital", "description": "Drug and alcohol dependence treatment (Residential)", "healthcare": "hospital", "name": "Jarrah House", "phone": "02 9661 6555", "website": "https://jarrahhouse.com.au/"}}, {"type": "way", "id": 1175537245, "center": {"lat": -33.7826048, "lon": 151.2004809}, "nodes": [10923512570, 10923512571, 10923512572, 10923512573, 10923512570], "tags": {"addr:housenumber": "14", "addr:postcode": "2069", "addr:state": "NSW", "addr:street": "Deepwater Road", "addr:suburb": "Castle Cove", "amenity": "hospital", "description": "Monday\n8\u202fam\u20131\u202fpm\n2\u20136\u202fpm\n\nTuesday\n8\u202fam\u20131\u202fpm\n2\u20136\u202fpm\n\nWednesday\n8\u202fam\u20131\u202fpm\n2\u20136\u202fpm\n\nThursday\n8\u202fam\u20131\u202fpm\n2\u20136\u202fpm\n\nFriday\n8\u202fam\u20131\u202fpm\n2\u20136\u202fpm\n\nSaturday\n9\u202fam\u201312\u202fpm\n\nSunday\nClosed", "healthcare": "hospital", "healthcare:speciality": "general", "image": "https://goo.gl/maps/iJNT63dHf565fhCq5", "name": "The Family Doctor Medical Practice", "phone": "0294176800"}}, {"type": "relation", "id": 2914774, "center": {"lat": -33.8007347, "lon": 150.9989068}, "members": [{"type": "way", "ref": 14458565, "role": "outer"}, {"type": "way", "ref": 220409109, "role": "outer"}], "tags": {"amenity": "hospital", "healthcare": "hospital", "name": "Cumberland Hospital (East Campus)", "type": "multipolygon"}}, {"type": "relation", "id": 2914775, "center": {"lat": -33.8020239, "lon": 150.9962706}, "members": [{"type": "way", "ref": 220409115, "role": "outer"}, {"type": "way", "ref": 220411124, "role": "outer"}, {"type": "way", "ref": 220411123, "role": "outer"}, {"type": "way", "ref": 679189923, "role": "outer"}, {"type": "way", "ref": 220411114, "role": "outer"}, {"type": "way", "ref": 220409108, "role": "outer"}, {"type": "way", "ref": 220409106, "role": "outer"}], "tags": {"amenity": "hospital", "healthcare": "hospital", "layer": "-1", "name": "Cumberland Hospital (West Campus)", "type": "multipolygon"}}, {"type": "relation", "id": 3060308, "center": {"lat": -33.8390119, "lon": 151.1318587}, "members": [{"type": "way", "ref": 228475029, "role": "outer"}, {"type": "way", "ref": 1025994957, "role": "outer"}, {"type": "way", "ref": 1025994958, "role": "outer"}], "tags": {"addr:housenumber": "20-62", "addr:postcode": "2111", "addr:state": "NSW", "addr:street": "Victoria Road", "addr:suburb": "Gladesville", "alt_name": "Gladesville Asylum Cemetery", "amenity": "hospital", "emergency": "no", "healthcare": "hospital", "healthcare:speciality": "psychiatry", "name": "Gladesville Hospital", "note": "Gladesville Hopsital has no inpatient or emergency services", "type": "multipolygon", "wikidata": "Q5566242", "wikipedia": "en:Gladesville Mental Hospital"}}, {"type": "relation", "id": 5609290, "center": {"lat": -33.1300588, "lon": 151.5108098}, "members": [{"type": "way", "ref": 376468683, "role": "outer"}, {"type": "way", "ref": 321751842, "role": "outer"}], "tags": {"amenity": "hospital", "emergency": "no", "healthcare": "hospital", "name": "Morisset Hospital", "operator": "NSW Health", "operator:wikidata": "Q6867095", "type": "multipolygon"}}, {"type": "relation", "id": 6083612, "center": {"lat": -32.9652907, "lon": 151.6414214}, "members": [{"type": "way", "ref": 405911887, "role": "outer"}, {"type": "way", "ref": 405911879, "role": "outer"}, {"type": "way", "ref": 1006938260, "role": "outer"}, {"type": "way", "ref": 1006938264, "role": "outer"}, {"type": "way", "ref": 1006938262, "role": "outer"}], "tags": {"amenity": "hospital", "healthcare": "hospital", "name": "Warners Bay Private Hospital", "type": "multipolygon"}}, {"type": "relation", "id": 6287327, "center": {"lat": -32.8809579, "lon": 151.7992777}, "members": [{"type": "way", "ref": 242309239, "role": "outer"}, {"type": "way", "ref": 422864181, "role": "outer"}, {"type": "way", "ref": 173903830, "role": "outer"}], "tags": {"amenity": "hospital", "emergency": "no", "name": "Stockton Centre", "type": "multipolygon"}}, {"type": "relation", "id": 6934522, "center": {"lat": -33.4965522, "lon": 151.322032}, "members": [{"type": "way", "ref": 470846258, "role": "outer"}, {"type": "way", "ref": 470846253, "role": "outer"}, {"type": "way", "ref": 470846250, "role": "outer"}, {"type": "way", "ref": 294907166, "role": "outer"}, {"type": "way", "ref": 470846247, "role": "outer"}], "tags": {"addr:housenumber": "7", "addr:postcode": "2256", "addr:state": "NSW", "addr:street": "Kathleen Street", "addr:suburb": "Woy Woy", "amenity": "hospital", "emergency": "no", "healthcare": "hospital", "healthcare:speciality": "paediatrics;dialysis;community;maternity", "name": "Woy Woy Public Hospital", "operator": "\u200bCentral Coast Local Health District (CCLHD)", "operator:type": "government", "type": "multipolygon"}}, {"type": "relation", "id": 6934523, "center": {"lat": -33.4952791, "lon": 151.3216838}, "members": [{"type": "way", "ref": 470846249, "role": "outer"}, {"type": "way", "ref": 470846248, "role": "outer"}, {"type": "way", "ref": 294907013, "role": "outer"}, {"type": "way", "ref": 470846259, "role": "outer"}], "tags": {"addr:housenumber": "21", "addr:postcode": "2256", "addr:state": "NSW", "addr:street": "Vidler Avenue", "addr:suburb": "Woy Woy", "amenity": "hospital", "emergency": "no", "healthcare": "hospital", "healthcare:speciality": "cardiology;dentistry;surgery;psychiatry", "name": "Brisbane Waters Private", "operator": "Healthe Care Australia", "operator:type": "private", "type": "multipolygon"}}, {"type": "relation", "id": 7639839, "center": {"lat": -33.7759241, "lon": 150.9169749}, "members": [{"type": "way", "ref": 531352655, "role": "outer"}, {"type": "way", "ref": 539313706, "role": "outer"}, {"type": "way", "ref": 539313701, "role": "outer"}, {"type": "way", "ref": 444565316, "role": "outer"}], "tags": {"addr:city": "Blacktown", "addr:postcode": "2148", "addr:state": "NSW", "addr:street": "Blacktown Road", "amenity": "hospital", "emergency": "yes", "healthcare": "hospital", "name": "Blacktown Hospital", "operator": "NSW Government", "phone": "+61 2 9881 8000", "type": "multipolygon", "website": "http://www.bmdhproject.health.nsw.gov.au/", "wikidata": "Q4923487"}}, {"type": "relation", "id": 10697077, "center": {"lat": -32.8983885, "lon": 151.7195613}, "members": [{"type": "way", "ref": 234392926, "role": "outer"}, {"type": "way", "ref": 771247265, "role": "outer"}], "tags": {"amenity": "hospital", "emergency": "yes", "healthcare": "hospital", "name": "Calvary Mater Hospital", "operator": "Little Company of Mary Healthcare", "phone": "+61 2 4921 1211", "type": "multipolygon", "website": "https://www.calvarycare.org.au/public-hospital-mater-newcastle/"}}, {"type": "relation", "id": 12079336, "center": {"lat": -33.3371807, "lon": 151.4328185}, "members": [{"type": "way", "ref": 26353725, "role": "outer"}, {"type": "way", "ref": 887684445, "role": "inner"}, {"type": "way", "ref": 887684446, "role": "inner"}, {"type": "way", "ref": 887684447, "role": "inner"}, {"type": "way", "ref": 887684448, "role": "inner"}, {"type": "way", "ref": 887684449, "role": "inner"}], "tags": {"amenity": "hospital", "building": "yes", "emergency": "no", "healthcare": "hospital", "name": "Berkeley Vale Private Hospital", "type": "multipolygon"}}, {"type": "relation", "id": 13658830, "center": {"lat": -32.9312612, "lon": 151.7818648}, "members": [{"type": "way", "ref": 172914324, "role": "outer"}, {"type": "way", "ref": 1020137355, "role": "outer"}, {"type": "way", "ref": 1020137354, "role": "outer"}], "tags": {"amenity": "hospital", "emergency": "no", "healthcare": "hospital", "name": "James Fletcher Hospital", "type": "multipolygon", "wheelchair": "yes"}}, {"type": "relation", "id": 13718349, "center": {"lat": -33.7594809, "lon": 150.7137029}, "members": [{"type": "way", "ref": 28397408, "role": "outer"}, {"type": "way", "ref": 1024489061, "role": "outer"}], "tags": {"amenity": "hospital", "emergency": "yes", "healthcare": "hospital", "name": "Nepean Hospital", "type": "multipolygon", "website": "https://www.nbmlhd.health.nsw.gov.au/nepean-hospital", "wikidata": "Q6994600"}}]}