{"version": 0.6, "generator": "Overpass API 0.7.61.5 4133829e", "osm3s": {"timestamp_osm_base": "2023-10-31T20:47:26Z", "copyright": "The data included in this document is from www.openstreetmap.org. The data is made available under ODbL."}, "elements": [{"type": "node", "id": 4943290795, "lat": -30.071656, "lon": 30.8691749, "tags": {"amenity": "hospital", "name": "THINK SITE CLINIC- Adherence Module"}}, {"type": "way", "id": 126509141, "center": {"lat": -30.7434353, "lon": 30.4507328}, "nodes": [1402272719, 1402267207, 1402267248, 1402272715, 1402272717, 7606134794, 1402272722, 9500594060, 10090236505, 1402272723, 1402272719], "tags": {"addr:city": "port shepstone", "addr:housenumber": "7", "addr:postcode": "4680", "addr:street": "Bazley Street", "amenity": "hospital", "email": "phumza.morai@kznhealth.gov.za", "emergency": "yes", "fax": "+27 (0) 39 682 6678", "healthcare": "hospital", "healthcare:speciality": "casualty_dept/trauma;dental_facilities;general_medical;general_surgical;high_care;intensive_care;maternity;medical_laboratory_services;theatres;orthopaedics;physiotherapy;psychiatric;specialist_services_available;trauma_unit;x-ray;telemedicine", "name": "Port Shepstone Regional Hospital", "operator": "KZN Department Of Health", "operator:type": "government", "phone": "+27 (0) 39 688 6000"}}, {"type": "way", "id": 126509221, "center": {"lat": -30.7415957, "lon": 30.4513512}, "nodes": [1402274193, 7301148126, 7301148125, 7301148124, 1402274186, 1402274189, 1402274191, 1402274193], "tags": {"addr:city": "Port Shepstone", "addr:street": "George Street", "amenity": "hospital", "beds": "150", "contact:phone": "27 (0)31 492 8000", "healthcare": "hospital", "healthcare:speciality": "maternity;paeditrics;surgery;radiology;neo-natal_icu;icu/high_care;obstetrics;audiology_and_speech_therapy;cardiothoracic;dermatology;gastroenterology;maxillo-facial;ophthalmology;oncology;orthotics_and_prosthetics;urology;nuclear_medicine;dialysis", "name": "Hibiscus Private Hospital", "operator": "Hibiscus Hospital Group", "operator:type": "private"}}, {"type": "way", "id": 149766235, "center": {"lat": -30.7552409, "lon": 30.4105494}, "nodes": [1627153645, 1627153584, 1627153478, 1627153434, 1627153568, 1627153566, 1627153481, 1627153431, 1627153580, 1627153593, 1627153476, 1627153483, 1627153572, 1627153576, 1627153635, 1627153645], "tags": {"addr:city": "Port Shepstone, Kwazulu-Natal", "addr:housenumber": "17", "addr:street": "Izotsha Road", "amenity": "hospital", "building": "yes", "email": "info@genesishope.co.za", "emergency": "yes", "healthcare": "hospital", "healthcare:speciality": "general;chronic;maternity", "name": "Genesis Care Centre", "opening_hours": "24/7", "phone": "+27 39 685 7010", "start_date": "2005"}}, {"type": "way", "id": 225829797, "center": {"lat": -30.118781, "lon": 30.587483}, "nodes": [2346508735, 2346508796, 2346508767, 2346508770, 2346508783, 2346508787, 2346508740, 2346508779, 2346508734, 2346508736, 2346508754, 2346508735], "tags": {"amenity": "hospital", "name": "Baniyena Primary Health Care Clinic"}}, {"type": "way", "id": 267992832, "center": {"lat": -30.0066651, "lon": 30.9026312}, "nodes": [2733702365, 2733702379, 2733702375, 2733702377, 2733702382, 2733702370, 2733702368, 2733702367, 2733702364, 2733702362, 2733702361, 2733702347, 9103141591, 2733702365], "tags": {"addr:city": "Ezimbokodweni", "addr:housenumber": "6", "addr:street": "Sompukane Road", "amenity": "hospital", "contact:fax": "+27 (0) 31 905 3413", "contact:phone": "+27 (0) 31 905 4222/3/4", "contact:website": "http://www.kznhealth.gov.za/charlesjameshospital.htm", "healthcare": "hospital", "name": "Charles James Hospital", "operator": "KZN Department of Health", "operator:type": "public"}}, {"type": "way", "id": 267992834, "center": {"lat": -30.1630814, "lon": 30.0777238}, "nodes": [2733702383, 2733702390, 2733702387, 2733702391, 2733702394, 2733702396, 2733702403, 2733702419, 10086112782, 2733702409, 2733702420, 2733702417, 2733702406, 2733702400, 2733702399, 2733702383], "tags": {"addr:city": "Ixopo, Kwazulu Natal", "addr:postcode": "3276", "addr:street": "Peter Hauff Drive", "amenity": "hospital", "beds": "197", "contact:fax": "+27 (0) 86 539 2800", "contact:phone": "+27 (0) 39 834 7500", "contact:website": "http://www.kznhealth.gov.za/christthekinghospital.htm", "email": "stanley.chiya2@kznhealth.gov.za", "emergency": "yes", "healthcare": "hospital", "healthcare:speciality": "laboratory;radiography;ultrasound;pharmacy;nutritional_services;theatre_procedures;arv_clinic", "name": "Christ the King Hospital", "operator": "KZN Department of Health", "operator:type": "government", "website": "www.kznhealth.gov.za/christthekinghospital.htm", "wheelchair": "yes"}}, {"type": "way", "id": 275113725, "center": {"lat": -30.5354043, "lon": 30.5126166}, "nodes": [2797703439, 2797703442, 2797703444, 2797703445, 2797703446, 2797703448, 2797703449, 2797703450, 2797703452, 2797703453, 2797703455, 2797703459, 2797703460, 2797703461, 2797703458, 2797703457, 2797703456, 2797703454, 2797703451, 2797703447, 2797703443, 2797703441, 2797703440, 2797703439], "tags": {"amenity": "hospital", "contact:fax": "+27 (0)39 699 1477", "contact:phone": "+27 (0) 39 699 1465", "contact:website": "http://www.kznhealth.gov.za/dunstanfarrellhospital.htm", "healthcare": "hospital", "name": "Dunstan Farrell"}}, {"type": "way", "id": 275113730, "center": {"lat": -30.2891821, "lon": 30.7450674}, "nodes": [2797703432, 2797703436, 2797703438, 2797703437, 2797703435, 2797703433, 2797703434, 2797703432], "tags": {"addr:city": "Scottburgh", "addr:postcode": "4180", "addr:street": "Hospital road", "amenity": "hospital", "beds": "360", "contact:fax": "+27 (0) 39 978 1295", "contact:phone": "+27 (0) 39 978 7000", "contact:website": "http://www.kznhealth.gov.za/gjcrookeshospital.htm", "email": "maxwell.mbanjwa@kznhealth.gov.za", "emergency": "yes", "healthcare": "hospital", "healthcare:speciality": "trauma_and_emergency_-_24_hour_services;medicine_-_24_hour_services;surgery_&_orthopaedics_-_24_hour_services;obstetrics_&_gynae;paediatrics;dental/oral_health_services;mental_health;edical_social_work;eye_care_&_cataract_case_finding;rehabilitation_servi", "name": "GJ Crookes Hospital", "opening_hours": "24/7", "operator": "KZN Department of Health", "operator:type": "government", "wheelchair": "yes"}}, {"type": "way", "id": 788336801, "center": {"lat": -30.0323059, "lon": 30.9046162}, "nodes": [7370591343, 7370591342, 7370591341, 7370591340, 7370591339, 2044783220, 7370591338, 10093296020, 10093296021, 7370591337, 7370591336, 7370591335, 7370591334, 7370591333, 7370591332, 7370591331, 7370591330, 7370591329, 7370591328, 7370591343], "tags": {"addr:city": "Amanzimtoti Durban", "addr:housenumber": "607", "addr:postcode": "4126", "addr:street": "Andrew Zondo Road", "amenity": "hospital", "beds": "145", "emergency": "yes", "fax": "031 904 7001", "healthcare": "hospital", "healthcare:speciality": "anaesthesiology;cardiology;cardiothoracic_surgery;dermatology;ear;nose_and_throat_surgery;endocrinology;gastroenterology;general_practice;general_surgery;gynaecology;internal_medicine;maxillo-facial_and_oral_surgery;neurology;ophthalmology;orthopaedic_sur", "name": "Kingsway Hospital", "operator": "Netcare", "operator:type": "private", "operator:wikidata": "Q6998801", "phone": "031 904 7000", "wheelchair": "yes"}}, {"type": "way", "id": 792043313, "center": {"lat": -30.7411808, "lon": 30.385908}, "nodes": [7404622396, 7404622397, 7404622398, 7404622399, 7404622401, 7404622402, 7404622403, 7404622396], "tags": {"addr:city": "Port Shepstone", "addr:postcode": "4240", "addr:street": "Mganka Area", "amenity": "hospital", "contact:phone": "+27 39 687 7311", "emergency": "yes", "healthcare": "hospital", "name": "Bhobhoyi Provincial Clinic"}}, {"type": "way", "id": 792051915, "center": {"lat": -30.7274042, "lon": 30.3433631}, "nodes": [7404648355, 7404648383, 7404648356, 7404648357, 7404648358, 7404648359, 7404648360, 7404648384, 7404648361, 7404714485, 7404648362, 7404712822, 7404648363, 7404712823, 7404714492, 7404648364, 7404714493, 7404712819, 7404712820, 7404648365, 7404712821, 7404714490, 7404648366, 7404714491, 7404712815, 7404648367, 7404712816, 7404712817, 7404648368, 7404712818, 7404648369, 7404648370, 7404648371, 7404714486, 7404714487, 7404714488, 7404714489, 7404648372, 7404648373, 7404648375, 7404648376, 7404648377, 7404648374, 7404648378, 7404648379, 7404648380, 7404648381, 7404648382, 7404648355], "tags": {"addr:city": "Main Harding / Kokstad Road", "amenity": "hospital", "emergency": "yes", "healthcare": "hospital", "healthcare:speciality": "casualty/emergencie;diagnostic_radiography;gynecology;obstetrics;orthopedics;pediatrics;psychology;physiotherapy;speech_therapy", "name": "Murchison Provincial District Hospital", "operator": "Kwazulu Natal Department of Health", "operator:type": "public"}}, {"type": "way", "id": 792602379, "center": {"lat": -30.8611551, "lon": 30.3583274}, "nodes": [7411533888, 7411533889, 7411533890, 7411533896, 7411533897, 7411533898, 7411533899, 7411533888], "tags": {"addr:city": "Margate", "addr:housenumber": "Netcare Margate", "addr:postcode": "4275", "addr:street": "24 Wartsk Street, Margate, 4285, South Africa", "amenity": "hospital", "emergency": "yes", "healthcare": "hospital", "healthcare:speciality": "maternity;cardiac;transplant;bariatric", "name": "Netcare Margate Private Hospital", "opening_hours": "24/7", "operator:type": "private", "phone": "+27 393127300", "website": "https://www.netcare.co.za/90/netcare-margate-hospital"}}, {"type": "way", "id": 792886561, "center": {"lat": -30.1996943, "lon": 30.7535613}, "nodes": [7414327281, 7414327282, 7414327283, 7414327284, 7414336985, 7414336986, 7414336987, 7414336988, 7414327281], "tags": {"amenity": "hospital", "building": "yes", "healthcare": "hospital", "name": "THINK SITE CLINIC- Adherence Module"}}, {"type": "way", "id": 792887482, "center": {"lat": -30.1732141, "lon": 30.7685612}, "nodes": [7414342803, 7414342804, 7414342805, 7414342806, 7414342807, 7414342809, 7414342808, 7414342803], "tags": {"addr:street": "Udlambedlu Road", "amenity": "hospital", "emergency": "yes", "healthcare": "hospital", "name": "THINK SITE CLINIC- Adherence Module"}}, {"type": "way", "id": 792887809, "center": {"lat": -30.1681087, "lon": 30.8186957}, "nodes": [7414350798, 7414350799, 7414350800, 7414350801, 7414350798], "tags": {"amenity": "hospital", "healthcare": "hospital", "name": "THINK SITE CLINIC- Adherence Module"}}, {"type": "way", "id": 792888127, "center": {"lat": -30.149318, "lon": 30.8135195}, "nodes": [7414336003, 7414336004, 7414336005, 7414336006, 7414336007, 7414336008, 7414336003], "tags": {"amenity": "hospital", "building": "yes", "healthcare": "hospital", "name": "THINK SITE CLINIC- Adherence Module"}}, {"type": "way", "id": 792888727, "center": {"lat": -30.0964248, "lon": 30.8558507}, "nodes": [7414356121, 7414356122, 7414356123, 7414356124, 7414356121], "tags": {"amenity": "hospital", "healthcare": "hospital", "name": "Think Site Clinic - Adherence Module", "operator": "Kwazulu Natal Department of Health", "operator:type": "public"}}]}