{"version": 0.6, "generator": "Overpass API 0.7.61.5 4133829e", "osm3s": {"timestamp_osm_base": "2023-10-31T20:47:26Z", "copyright": "The data included in this document is from www.openstreetmap.org. The data is made available under ODbL."}, "elements": [{"type": "node", "id": 628210040, "lat": -43.3107555, "lon": -65.0448873, "tags": {"addr:city": "Rawson", "addr:housename": "Juan Manuel de Rosas", "addr:housenumber": "450", "addr:postcode": "9103", "addr:street": "Avenida Juan Manuel de Rosas", "amenity": "hospital", "healthcare": "hospital", "name": "Mini Hospital Playa Uni\u00f3n", "phone": "+54 280 4496003", "wikidata": "Q94569582"}}, {"type": "node", "id": 638322741, "lat": -49.305168, "lon": -67.7234995, "tags": {"addr:city": "Puerto San Julian", "addr:full": "Av. Costanera Y El Cano S/N", "addr:place": "Magallanes", "addr:postcode": "9310", "amenity": "hospital", "description": "Bajo riesgo con internaci\u00f3n simple", "healthcare": "hospital", "name": "Hospital Distrital Dr. Miguel A. Lombardich", "operator:type": "public", "ref:sisa_codigo": "10780422183006", "ref:sisa_tipologia": "ESCIG", "source": "sedronar.gov.ar | Public Domain (PD)"}}, {"type": "node", "id": 896357343, "lat": -40.6509951, "lon": -62.7538983, "tags": {"amenity": "hospital", "healthcare": "hospital"}}, {"type": "node", "id": 1179204583, "lat": -45.919583, "lon": -67.5546674, "tags": {"amenity": "hospital", "healthcare": "hospital", "name": "Hospital Rural Rada Tilly"}}, {"type": "node", "id": 1329309230, "lat": -43.2554886, "lon": -65.3107664, "tags": {"addr:city": "Trelew", "addr:full": "28 De Julio Y Pellegrini", "addr:place": "Rawson", "amenity": "hospital", "description": "Alto riesgo con terapia intensiva especializada", "emergency": "yes", "healthcare": "hospital", "name": "Hospital Zonal Trelew Dr. Adolfo Margara", "operator:type": "public", "ref:sisa_codigo": "10260772129042", "ref:sisa_tipologia": "ESCIG", "source": "sedronar.gov.ar | Public Domain (PD)"}}, {"type": "node", "id": 1329309240, "lat": -43.2560824, "lon": -65.3147629, "tags": {"amenity": "hospital", "healthcare": "hospital", "name": "Sanatorio Trelew"}}, {"type": "node", "id": 1329309273, "lat": -43.256718, "lon": -65.3173392, "tags": {"amenity": "hospital", "emergency": "yes", "healthcare": "hospital", "name": "Clinica San Miguel"}}, {"type": "node", "id": 1333703168, "lat": -46.5496237, "lon": -68.9224858, "tags": {"addr:city": "Las Heras", "addr:full": "El Calafate Y Juan Jose Paso", "addr:place": "Deseado", "addr:postcode": "9017", "amenity": "hospital", "description": "Bajo riesgo con internaci\u00f3n simple", "emergency": "yes", "healthcare": "hospital", "name": "Hospital Distrital Las Heras", "operator:type": "public", "ref:sisa_codigo": "10780142183009", "ref:sisa_tipologia": "ESCIG", "source": "sedronar.gov.ar | Public Domain (PD)"}}, {"type": "node", "id": 1390308828, "lat": -42.7710746, "lon": -65.0337319, "tags": {"addr:city": "Puerto Madryn", "addr:housenumber": "651", "addr:street": "Bartolom\u00e9 Mitre", "amenity": "hospital", "healthcare": "hospital", "name": "Sanatorio Santa Mar\u00eda"}}, {"type": "node", "id": 1390308829, "lat": -42.7701467, "lon": -65.0438812, "tags": {"addr:city": "Puerto Madryn", "addr:housenumber": "651", "addr:street": "Bartolom\u00e9 Mitre", "amenity": "hospital", "healthcare": "hospital", "name": "Sanatorio de la Ciudad"}}, {"type": "node", "id": 1396605440, "lat": -47.7463293, "lon": -65.8880088, "tags": {"amenity": "hospital", "healthcare": "hospital", "name": "Centro Asistencial"}}, {"type": "node", "id": 1399412206, "lat": -43.2582973, "lon": -65.3366488, "tags": {"amenity": "hospital", "healthcare": "hospital", "name": "Centro de Salud Pascual Daleoso"}}, {"type": "node", "id": 1399412207, "lat": -43.2523401, "lon": -65.3219053, "tags": {"amenity": "hospital", "healthcare": "hospital", "name": "Centro de Salud La Loma", "wikidata": "Q94569536"}}, {"type": "node", "id": 1399412208, "lat": -43.2602237, "lon": -65.2900199, "tags": {"amenity": "hospital", "emergency": "yes", "healthcare": "hospital", "name": "Centro de Salud Villa Italia", "wikidata": "Q94569608"}}, {"type": "node", "id": 1399412209, "lat": -43.2738653, "lon": -65.3060535, "tags": {"amenity": "hospital", "healthcare": "hospital", "name": "Centro de Salud Etchepare"}}, {"type": "node", "id": 1399412210, "lat": -43.251423, "lon": -65.329114, "tags": {"amenity": "hospital", "healthcare": "hospital", "name": "Centro de Salud \"Jorge Morado\"", "wikidata": "Q94569567"}}, {"type": "node", "id": 1399412211, "lat": -43.2678631, "lon": -65.3513435, "tags": {"amenity": "hospital", "healthcare": "hospital", "name": "Centro de Salud Ram\u00f3n Carrillo"}}, {"type": "node", "id": 1399412212, "lat": -43.2572983, "lon": -65.309502, "tags": {"amenity": "hospital", "healthcare": "hospital", "name": "Cl\u00ednica del Valle"}}, {"type": "node", "id": 1399413545, "lat": -43.243426, "lon": -65.3185346, "tags": {"amenity": "hospital", "healthcare": "hospital", "name": "Centro de Salud Ingeniero Franzetti"}}, {"type": "node", "id": 1399413548, "lat": -43.2392933, "lon": -65.3051039, "tags": {"amenity": "hospital", "healthcare": "hospital", "name": "Centro de Salud Tiro Federal", "wikidata": "Q94569607"}}, {"type": "node", "id": 1399413549, "lat": -43.2421548, "lon": -65.3048266, "tags": {"amenity": "hospital", "healthcare": "hospital", "name": "Centro de Salud Gwenda Williams"}}, {"type": "node", "id": 1514163029, "lat": -45.8614857, "lon": -67.4833514, "tags": {"amenity": "hospital", "emergency": "yes", "healthcare": "hospital", "name": "Clinica Espa\u00f1ola"}}, {"type": "node", "id": 2155385567, "lat": -46.4390379, "lon": -67.531023, "tags": {"amenity": "hospital", "emergency": "yes", "healthcare": "hospital", "name": "Hospital Meprisa"}}, {"type": "node", "id": 2156023586, "lat": -46.4543826, "lon": -67.5273419, "tags": {"amenity": "hospital", "healthcare": "hospital", "name": "CIC Gregores"}}, {"type": "node", "id": 2156135738, "lat": -46.4473372, "lon": -67.5390135, "tags": {"amenity": "hospital", "emergency": "yes", "healthcare": "hospital", "name": "CIC San Cayetano"}}, {"type": "node", "id": 2157691107, "lat": -46.4426879, "lon": -67.5114978, "tags": {"amenity": "hospital", "healthcare": "hospital", "name": "Clinica Santa Cruz"}}, {"type": "node", "id": 2157691290, "lat": -46.4471599, "lon": -67.5599807, "tags": {"alt_name": "CIC Rotary XXIII", "amenity": "hospital", "healthcare": "hospital", "name": "CIC Jorge C\u00e9pernic"}}, {"type": "node", "id": 2157691293, "lat": -46.4646366, "lon": -67.5183824, "tags": {"amenity": "hospital", "healthcare": "hospital", "name": "CIC Emilio Papousek"}}, {"type": "node", "id": 2184190009, "lat": -46.5467036, "lon": -68.9422442, "tags": {"amenity": "hospital", "healthcare": "hospital", "name": "CIC Las Heras"}}, {"type": "node", "id": 2191464991, "lat": -46.4494871, "lon": -67.5110176, "tags": {"amenity": "hospital", "healthcare": "hospital", "name": "CIC Virgen del Valle"}}, {"type": "node", "id": 2191492819, "lat": -46.4463313, "lon": -67.5212407, "tags": {"amenity": "hospital", "healthcare": "hospital", "name": "E.M.C.O."}}, {"type": "node", "id": 2191879117, "lat": -46.4570399, "lon": -67.5475833, "tags": {"amenity": "hospital", "healthcare": "hospital", "name": "CIC Centenario"}}, {"type": "node", "id": 2198217295, "lat": -46.4377959, "lon": -67.5170424, "tags": {"amenity": "hospital", "healthcare": "hospital", "name": "CIC Centro"}}, {"type": "node", "id": 2245231637, "lat": -46.7932873, "lon": -67.9649946, "tags": {"amenity": "hospital", "healthcare": "hospital", "name": "CIC Huemul"}}, {"type": "node", "id": 2382913294, "lat": -43.2849488, "lon": -65.4957225, "tags": {"addr:city": "Gaiman", "addr:full": "Belgrano Y Lucero", "addr:place": "Gaiman", "amenity": "hospital", "description": "Bajo riesgo con internaci\u00f3n simple", "emergency": "yes", "healthcare": "hospital", "name": "Hospital Rural Gaiman", "operator:type": "public", "ref:sisa_codigo": "10260422129022", "ref:sisa_tipologia": "ESCIG", "source": "sedronar.gov.ar | Public Domain (PD)", "wikidata": "Q94569633"}}, {"type": "node", "id": 2841897705, "lat": -45.9412658, "lon": -67.5579506, "tags": {"amenity": "hospital", "emergency": "no", "healthcare": "hospital", "name": "Sala de Primero Auxilios"}}, {"type": "node", "id": 2871579524, "lat": -45.8284527, "lon": -67.5433168, "tags": {"addr:city": "Comodoro Rivadavia", "addr:full": "Bogota 660", "addr:place": "Escalante", "addr:street": "Bogot\u00e1", "amenity": "hospital", "description": "Alto riesgo con terapia intensiva especializada", "healthcare": "hospital", "name": "Hospital Laprida", "operator:type": "public", "ref:sisa_codigo": "50260212129105", "ref:sisa_tipologia": "ESCIEM", "source": "sedronar.gov.ar | Public Domain (PD)", "wikidata": "Q94570209"}}, {"type": "node", "id": 3036031511, "lat": -43.2556605, "lon": -65.3150376, "tags": {"addr:city": "Trelew", "addr:full": "San Mart\u00edn 696", "addr:place": "Rawson", "amenity": "hospital", "description": "Mediano riesgo con internaci\u00f3n con cuidados especiales", "healthcare": "hospital", "name": "Hospital Zonal Trelew Centro Materno Infantil", "operator:type": "public", "ref:sisa_codigo": "12260772129049", "ref:sisa_tipologia": "ESCIEM", "source": "sedronar.gov.ar | Public Domain (PD)", "wikidata": "Q94569650"}}, {"type": "node", "id": 3046087211, "lat": -43.2510404, "lon": -65.3035288, "tags": {"amenity": "hospital", "healthcare": "hospital", "name": "Instituto Medico del Sur"}}, {"type": "node", "id": 3046087213, "lat": -43.2501613, "lon": -65.3007768, "tags": {"amenity": "hospital", "emergency": "no", "healthcare": "hospital"}}, {"type": "node", "id": 3067751226, "lat": -45.8640138, "lon": -67.4945067, "tags": {"amenity": "hospital", "email": "info@clinicadelvalle.com.ar", "emergency": "yes", "healthcare": "hospital", "internet_access": "wlan", "name": "Clinica del Valle", "opening_hours": "24/7", "phone": "2974061001", "website": "http://www.clinicadelvalle.com.ar"}}, {"type": "node", "id": 3097214953, "lat": -43.2615106, "lon": -65.3190544, "tags": {"amenity": "hospital", "healthcare": "hospital", "name": "Centro de Salud Sarmiento", "wikidata": "Q94569603"}}, {"type": "node", "id": 3097228668, "lat": -43.2443311, "lon": -65.2848401, "tags": {"addr:city": "Trelew", "amenity": "hospital", "healthcare": "hospital", "name": "Centro de Salud Planta de Gas", "wikidata": "Q94569581"}}, {"type": "node", "id": 3203988094, "lat": -42.2650191, "lon": -69.22034, "tags": {"addr:city": "Gastre", "addr:full": "Solar C Manz 9", "addr:place": "Gastre", "addr:postcode": "9121", "amenity": "hospital", "description": "Bajo riesgo con internaci\u00f3n simple", "healthcare": "hospital", "name": "Hospital Rural Gastre", "operator:type": "public", "ref:sisa_codigo": "10260492129012", "ref:sisa_tipologia": "ESCIG", "source": "sedronar.gov.ar | Public Domain (PD)", "wikidata": "Q94569623"}}, {"type": "node", "id": 3285294189, "lat": -43.244989, "lon": -65.3075853, "tags": {"amenity": "hospital", "healthcare": "hospital", "name": "Centro Rehabilitaci\u00f3n Disminuidos Visuales"}}, {"type": "node", "id": 3392791392, "lat": -42.273381, "lon": -67.4040571, "tags": {"amenity": "hospital", "name": "Puesto Sanitario"}}, {"type": "node", "id": 3460103148, "lat": -49.3098187, "lon": -67.7418384, "tags": {"amenity": "hospital", "healthcare": "hospital", "name": "CIC San Juli\u00e1n"}}, {"type": "node", "id": 3592589287, "lat": -45.8889799, "lon": -67.5833795, "tags": {"amenity": "hospital", "healthcare": "hospital", "name": "UNION VECINAL BELLAVISTA SUR"}}, {"type": "node", "id": 3728238827, "lat": -47.6508416, "lon": -66.0359025, "tags": {"amenity": "hospital", "name": "Centro sanitario"}}, {"type": "node", "id": 3819842215, "lat": -43.2942512, "lon": -65.082452, "tags": {"addr:city": "Rawson", "addr:postcode": "9103", "addr:street": "Avenida Domingo Cannito", "amenity": "hospital", "healthcare": "hospital", "name": "Centro de Salud Area 25"}}, {"type": "node", "id": 3965272039, "lat": -41.1540583, "lon": -63.1269278, "tags": {"amenity": "hospital", "healthcare": "hospital", "name": "Centro de Salud La Lober\u00eda"}}, {"type": "node", "id": 4103927706, "lat": -42.7884158, "lon": -65.0397596, "tags": {"addr:city": "Puerto Madryn", "addr:housenumber": "1200", "addr:postcode": "9120", "addr:street": "Dorrego", "amenity": "hospital", "healthcare": "hospital", "name": "Teresa de Calcuta", "operator": "Hospital Isola"}}, {"type": "node", "id": 4486170535, "lat": -45.5864669, "lon": -69.0709348, "tags": {"addr:city": "Sarmiento", "addr:full": "Roca 665", "addr:housenumber": "788", "addr:place": "Sarmiento", "addr:postcode": "9020", "addr:street": "Espa\u00f1a", "amenity": "hospital", "description": "Bajo riesgo con internaci\u00f3n simple", "emergency": "yes", "healthcare": "hospital", "name": "Hospital Rural Sarmiento", "operator": "P\u00fablico provincial", "operator:type": "public", "ref:sisa_codigo": "10260912129034", "ref:sisa_tipologia": "ESCIG", "source": "sedronar.gov.ar | Public Domain (PD)", "wikidata": "Q94569644"}}, {"type": "node", "id": 4696228958, "lat": -43.2563914, "lon": -65.312927, "tags": {"addr:city": "Trelew", "addr:housenumber": "506", "addr:postcode": "9100", "addr:street": "Ameghino", "amenity": "hospital", "healthcare": "hospital", "name": "CEM Ameghino"}}, {"type": "node", "id": 4696237113, "lat": -43.2562792, "lon": -65.3165222, "tags": {"amenity": "hospital", "healthcare": "hospital", "name": "CEM Hematolog\u00eda"}}, {"type": "node", "id": 5390686460, "lat": -43.8637831, "lon": -69.0479448, "tags": {"addr:city": "Paso De Indios", "addr:full": "Libertador 75", "addr:place": "Paso De Indios", "addr:postcode": "9207", "amenity": "hospital", "description": "Bajo riesgo con internaci\u00f3n simple", "healthcare": "hospital", "name": "Hospital Rural Paso De Indios", "operator:type": "public", "ref:sisa_codigo": "10260702129030", "ref:sisa_tipologia": "ESCIG", "source": "sedronar.gov.ar | Public Domain (PD)", "wikidata": "Q94569639"}}, {"type": "node", "id": 6083737092, "lat": -45.7787611, "lon": -67.6693654, "tags": {"addr:city": "Diadema Argentina", "addr:full": "Lago Rivadavia S/N", "addr:place": "Escalante", "addr:street": "Lago Rivadavia", "amenity": "hospital", "description": "Bajo riesgo con internaci\u00f3n simple", "healthcare": "hospital", "name": "Hospital Rural Diadema Argentina", "operator:type": "public", "ref:sisa_codigo": "10260212129017", "ref:sisa_tipologia": "ESCIG", "source": "sedronar.gov.ar | Public Domain (PD)"}}, {"type": "node", "id": 6267118052, "lat": -42.4371325, "lon": -66.9395256, "tags": {"addr:city": "Telsen", "addr:full": "Galina Y 25 De Mayo", "addr:place": "Telsen", "addr:postcode": "9121", "amenity": "hospital", "description": "Bajo riesgo con internaci\u00f3n simple", "healthcare": "hospital", "name": "Hospital Rural Telsen", "operator:type": "public", "ref:sisa_codigo": "10261052129036", "ref:sisa_tipologia": "ESCIG", "source": "sedronar.gov.ar | Public Domain (PD)", "wikidata": "Q94569646"}}, {"type": "node", "id": 6285040286, "lat": -42.7852858, "lon": -65.0257705, "tags": {"amenity": "hospital", "healthcare": "hospital", "name": "Centro de salud Doctor Carrillo"}}, {"type": "node", "id": 7376735334, "lat": -43.3109298, "lon": -65.7045067, "tags": {"addr:city": "Dolavon", "addr:full": "Raul B Diaz 275", "addr:place": "Gaiman", "amenity": "hospital", "description": "Bajo riesgo con internaci\u00f3n simple", "healthcare": "hospital", "name": "Hospital Rural Mary Jones De Williams - Dolavon", "operator:type": "public", "ref:sisa_codigo": "10260422129029", "ref:sisa_tipologia": "ESCIG", "source": "sedronar.gov.ar | Public Domain (PD)", "wikidata": "Q94569630"}}, {"type": "node", "id": 7376735335, "lat": -43.7218995, "lon": -67.2839559, "tags": {"addr:city": "Las Plumas", "addr:full": "Belgrano", "addr:place": "Martires", "addr:postcode": "9101", "amenity": "hospital", "description": "Bajo riesgo con internaci\u00f3n simple", "healthcare": "hospital", "name": "Hospital Rural Las Plumas", "operator:type": "public", "ref:sisa_codigo": "10260632129028", "ref:sisa_tipologia": "ESCIG", "source": "sedronar.gov.ar | Public Domain (PD)"}}, {"type": "node", "id": 7376735339, "lat": -42.571901, "lon": -64.283409, "tags": {"addr:city": "Puerto Piramide", "addr:full": "Roca", "addr:place": "Biedma", "amenity": "hospital", "description": "Bajo riesgo con internaci\u00f3n simple", "healthcare": "hospital", "name": "Hospital Rural Puerto Piramides", "operator:type": "public", "ref:sisa_codigo": "10260072129031", "ref:sisa_tipologia": "ESCIG", "source": "sedronar.gov.ar | Public Domain (PD)", "wikidata": "Q94569640"}}, {"type": "node", "id": 7500247821, "lat": -40.7340357, "lon": -64.9623784, "tags": {"amenity": "hospital", "healthcare": "hospital", "name": "CAPS \"Doctor Elvio Yorio\""}}, {"type": "node", "id": 9162747671, "lat": -40.8062962, "lon": -65.092941, "tags": {"addr:city": "Las Grutas", "addr:housenumber": "770", "addr:postcode": "8521", "addr:street": "Antonio Buyayiski", "amenity": "hospital", "healthcare": "hospital", "name": "Hospital \u00c1rea Programa Las Grutas \"Doctora Violeta Villalobos\"", "opening_hours": "24/7", "operator": "Provincia de R\u00edo Negro", "operator:type": "public", "phone": "02934 497100"}}, {"type": "way", "id": 128436899, "center": {"lat": -47.7566814, "lon": -65.8963652}, "nodes": [1419409809, 1419409830, 1419409860, 1419409832, 1419409826, 1419409847, 1419409824, 1419409809], "tags": {"addr:city": "Puerto Deseado", "addr:full": "Almirante Brown Y Colon", "addr:place": "Deseado", "addr:postcode": "9050", "amenity": "hospital", "description": "Bajo riesgo con internaci\u00f3n simple", "emergency": "yes", "healthcare": "hospital", "name": "Hospital Distrital Puerto Deseado", "operator:type": "public", "ref:sisa_codigo": "10780142183010", "ref:sisa_tipologia": "ESCIG", "source": "sedronar.gov.ar | Public Domain (PD)"}}, {"type": "way", "id": 138279979, "center": {"lat": -45.8343634, "lon": -67.4624511}, "nodes": [1516025974, 1516025992, 1516025989, 1516025982, 1516026017, 1516026016, 1516026023, 1516025998, 1516026022, 1516026026, 1516025988, 1516025986, 1516025995, 1516025979, 1516026048, 1516026036, 1516026030, 1516026002, 1516026009, 1516026000, 1516026039, 1516026049, 1516026010, 1516026044, 1516026028, 1516026050, 1516025974], "tags": {"addr:city": "Comodoro Rivadavia", "addr:country": "AR", "addr:full": "Juan Ramon Balcarce", "addr:housenumber": "1240", "addr:place": "Escalante", "addr:street": "Avenida Juan Ram\u00f3n Balcarce", "amenity": "hospital", "description": "Bajo riesgo con internaci\u00f3n simple", "emergency": "yes", "healthcare": "hospital", "name": "Hospital Zonal Alvear", "operator:type": "public", "ref:sisa_codigo": "10260212129009", "ref:sisa_tipologia": "ESCIG", "source": "sedronar.gov.ar | Public Domain (PD)", "wikidata": "Q94569664"}}, {"type": "way", "id": 146751201, "center": {"lat": -42.7588371, "lon": -65.0417331}, "nodes": [1600049586, 1600049632, 1600049631, 1600049627, 1600049625, 1600049628, 1600049629, 1600049584, 1600049586], "tags": {"addr:city": "Puerto Madryn", "addr:full": "Roberto G\u00f3mez 383", "addr:housenumber": "299", "addr:place": "Biedma", "addr:postcode": "9120", "addr:street": "Roberto G\u00f3mez", "amenity": "hospital", "description": "Alto riesgo con terapia intensiva", "healthcare": "hospital", "healthcare:speciality": "general", "name": "Hospital Subzonal Dr. Andr\u00e9s R. Isola", "operator:type": "public", "ref:sisa_codigo": "10260072129040", "ref:sisa_tipologia": "ESCIG", "source": "sedronar.gov.ar | Public Domain (PD)"}}, {"type": "way", "id": 147698314, "center": {"lat": -40.8145573, "lon": -62.9899511}, "nodes": [1608982660, 1608982642, 1608982640, 1608982649, 6632703290, 6632703306, 6632703304, 6632703301, 3822064364, 6632703308, 1608982779, 3822064367, 6632703312, 6426506591, 6426506590, 6426506597, 6426506598, 6632703333, 6632703289, 1608982842, 6632703340, 6632703360, 6632703359, 6632703358, 6632703288, 1608982660], "tags": {"addr:city": "Viedma", "addr:housenumber": "391", "addr:postcode": "R8500", "addr:street": "Rivadavia", "amenity": "hospital", "emergency": "yes", "healthcare": "hospital", "name": "Hospital Regional Art\u00e9mides Zatti", "operator": "Ministerio de Salud de la Provincia de R\u00edo Negro", "operator:type": "public", "phone": "02920 425434 / 423267 / 423780"}}, {"type": "way", "id": 147698328, "center": {"lat": -40.8143602, "lon": -62.9899735}, "nodes": [1608982694, 1608982678, 1608982723, 1608982697, 6632703356, 1608982662, 1608982653, 1608982673, 1608982672, 1608982651, 1608982647, 1608982658, 1608982654, 6632703357, 1608982642, 1608982640, 1608982649, 6632703295, 6632703294, 6632703293, 6632703292, 1608982656, 1608982669, 6632703305, 6632703306, 6632703304, 6632703303, 6632703302, 3822064365, 1608982703, 1608982726, 1608982747, 6632703307, 1608982752, 1608982739, 1608982690, 6632703313, 1608982767, 6632703314, 1608982781, 6632703372, 6632703371, 6632703368, 6632703367, 3632299251, 6632703291, 6632703364, 1608982729, 1608982737, 1608982699, 1608982705, 1608982696, 1608982701, 6632703365, 6632703322, 6632703323, 6632703321, 1608982745, 1608982749, 1608982720, 1608982730, 1608982761, 1608982780, 1608982764, 1608982778, 6632703341, 6632703342, 1608982694], "tags": {"addr:city": "Viedma", "addr:housenumber": "391", "addr:postcode": "R8500", "addr:street": "Rivadavia", "amenity": "hospital", "building": "yes", "emergency": "yes", "healthcare": "hospital", "name": "Hospital Regional Art\u00e9mides Zatti", "operator": "Ministerio de Salud de la Provincia de R\u00edo Negro", "operator:type": "public", "phone": "02920 425434 / 423267 / 423780"}}, {"type": "way", "id": 205571358, "center": {"lat": -46.444394, "lon": -67.5113224}, "nodes": [2155385559, 2155385552, 2155385550, 2155385538, 2155385548, 2155385570, 2155385576, 2155385572, 2155385563, 2155385554, 3896730488, 2155385558, 2155385571, 2155385564, 2155385560, 2155385555, 2155385562, 2155385559], "tags": {"addr:city": "Caleta Olivia", "addr:full": "Eva Peron S/N", "addr:place": "Deseado", "addr:postcode": "9011", "amenity": "hospital", "building": "yes", "description": "Alto riesgo con terapia intensiva especializada", "emergency": "yes", "healthcare": "hospital", "name": "Hospital Zonal De Caleta Olivia Padre Jose Tardivo", "operator:type": "public", "ref:sisa_codigo": "10780142183017", "ref:sisa_tipologia": "ESCIG", "source": "sedronar.gov.ar | Public Domain (PD)"}}, {"type": "way", "id": 205631036, "center": {"lat": -46.454384, "lon": -67.5273552}, "nodes": [2156023673, 2156023685, 2156023530, 2156023539, 2156023572, 2156023673], "tags": {"amenity": "hospital", "healthcare": "hospital", "name": "CIC Gobernador Gregores"}}, {"type": "way", "id": 215107096, "center": {"lat": -46.7971922, "lon": -67.9599577}, "nodes": [2245231707, 2245231687, 2245231645, 2245231663, 2245231665, 2245231691, 2245231625, 2245231612, 2245231707], "tags": {"addr:city": "Pico Truncado", "addr:full": "Sarmiento Esq. Velez Sarfield 305", "addr:place": "Deseado", "addr:postcode": "9015", "amenity": "hospital", "description": "Mediano riesgo con internaci\u00f3n con cuidados especiales", "healthcare": "hospital", "name": "Hospital Distrital Dr. Guillermo Hubertus Carlos Kuester", "operator": "hospital", "operator:type": "public", "ref:sisa_codigo": "10780142183004", "ref:sisa_tipologia": "ESCIG", "source": "sedronar.gov.ar | Public Domain (PD)"}}, {"type": "way", "id": 285752592, "center": {"lat": -41.3311341, "lon": -69.5453802}, "nodes": [2893928194, 9342604098, 9342604099, 9342604095, 2893928195, 9342647122, 9342647121, 9342604097, 2893928196, 2893928197, 9342604096, 9342647145, 2893928194], "tags": {"addr:city": "Ingeniero Jacobacci", "addr:full": "Julio A. Roca 475", "addr:housenumber": "475", "addr:place": "25 De Mayo", "addr:postcode": "R8418", "addr:street": "Julio Argentino Roca", "amenity": "hospital", "description": "Bajo riesgo con internaci\u00f3n simple", "emergency": "yes", "healthcare": "hospital", "name": "Hospital Zonal Ingeniero Jacobacci \"Doctor Rogelio Cortizo\"", "operator": "Ministerio de Salud - Gobierno de R\u00edo Negro", "operator:type": "public", "phone": "+54 294 043-2439;+54 294 043-2076;+54 294 043-5075", "ref:sisa_codigo": "10620912170024", "ref:sisa_tipologia": "ESCIG", "source": "sedronar.gov.ar | Public Domain (PD);Zonas Sanitarias y Hospitales Cabecera de Zona - Ministerio de Salud - Gobierno de R\u00edo Negro", "wikidata": "Q94704908"}}, {"type": "way", "id": 296582952, "center": {"lat": -40.849645, "lon": -68.0905075}, "nodes": [3003809832, 9342647179, 3003809842, 9342647180, 9342647181, 3003809820, 9342647182, 9342647183, 9342647187, 3003809801, 9342647185, 9342647184, 3003809832], "tags": {"addr:city": "Los Menucos", "addr:full": "Avenida San Mart\u00edn 456", "addr:housenumber": "456", "addr:place": "25 De Mayo", "addr:postcode": "8424", "addr:street": "Avenida San Mart\u00edn", "amenity": "hospital", "description": "Bajo riesgo con internaci\u00f3n simple", "emergency": "yes", "healthcare": "hospital", "name": "Hospital de \u00c1rea Programa Los Menucos \"Doctor N\u00e9stor Perrone\"", "operator": "Ministerio de Salud - Gobierno de R\u00edo Negro", "operator:type": "public", "phone": "+54 294 049-2515;+54 294 049-2004", "ref:sisa_codigo": "10620912170027", "ref:sisa_tipologia": "ESCIG", "source": "sedronar.gov.ar | Public Domain (PD)", "wikidata": "Q94704915"}}, {"type": "way", "id": 317745754, "center": {"lat": -42.5223297, "lon": -68.2871122}, "nodes": [3240462003, 3240462009, 3240461995, 3240462004, 3240461996, 3240461993, 3240461988, 3240461989, 3240462003], "tags": {"addr:city": "Gan Gan", "addr:full": "25 De Mayo S/N", "addr:place": "Telsen", "addr:postcode": "9121", "amenity": "hospital", "description": "Bajo riesgo con internaci\u00f3n simple", "healthcare": "hospital", "name": "Hospital Rural Gan Gan", "operator:type": "public", "ref:sisa_codigo": "10261052129023", "ref:sisa_tipologia": "ESCIG", "source": "sedronar.gov.ar | Public Domain (PD)", "wikidata": "Q94569634"}}, {"type": "way", "id": 321756928, "center": {"lat": -43.242178, "lon": -65.3049137}, "nodes": [3285245759, 3285245760, 3285246061, 3285246062, 3285245759], "tags": {"amenity": "hospital", "healthcare": "hospital", "name": "Centro de Salud Gwenda Williams"}}, {"type": "way", "id": 369030690, "center": {"lat": -46.4391038, "lon": -67.5309934}, "nodes": [2155385565, 2155385551, 2155385544, 2155385542, 2155385568, 2155385553, 2155385561, 5125816429, 2155385546, 2155385566, 5125816430, 2155385556, 2155385557, 2155385574, 3809222951, 3809222943, 3066196159, 3809222952, 3809222956, 2155385565], "tags": {"amenity": "hospital", "healthcare": "hospital", "healthcare:speciality": "general", "name": "Hospital Meprisa"}}, {"type": "way", "id": 370132773, "center": {"lat": -46.5608146, "lon": -67.6080595}, "nodes": [3738560984, 3738560981, 3738560983, 3738560987, 3738560994, 3738560992, 3738560997, 3738560996, 3738560991, 3738560990, 3738560995, 3738560993, 3738560989, 3738560988, 3738560975, 3738560980, 3738560976, 3738560974, 3738560971, 3738560977, 3738560984], "tags": {"addr:city": "Ca\u00f1ad\u00f3n Seco", "addr:postcode": "9013", "addr:street": "Cruz de Piedra y Avenida de los Martires", "amenity": "hospital", "name": "Centro de Salud Ram\u00f3n Kuester"}}, {"type": "way", "id": 406851969, "center": {"lat": -45.7960273, "lon": -67.4287873}, "nodes": [4089076578, 4089076579, 4089076580, 4089076574, 4089076573, 4089076576, 4089076575, 4089076577, 4089076578], "tags": {"addr:city": "Comodoro Rivadavia", "addr:full": "Avenida Italo dell Oro 850 - Barrio Don Bosco - Km 8", "addr:place": "Escalante", "amenity": "hospital", "description": "Bajo riesgo con internaci\u00f3n simple", "healthcare": "hospital", "name": "Hospital Militar Comodoro Rivadavia", "operator:type": "public", "ref:sisa_codigo": "10260212429010", "ref:sisa_tipologia": "ESCIG", "source": "sedronar.gov.ar | Public Domain (PD)"}}, {"type": "way", "id": 521665019, "center": {"lat": -44.7960356, "lon": -65.7136742}, "nodes": [5082626415, 5082626416, 5082626417, 5082626418, 5082626419, 5082626420, 5082626415], "tags": {"addr:city": "Camarones", "addr:full": "25 De Mayo 0", "addr:place": "Florentino Ameghino", "addr:postcode": "9111", "amenity": "hospital", "description": "Bajo riesgo con internaci\u00f3n simple", "healthcare": "hospital", "name": "Hospital Rural Camarones", "operator:type": "public", "ref:sisa_codigo": "10260282129013", "ref:sisa_tipologia": "ESCIG", "source": "sedronar.gov.ar | Public Domain (PD)"}}, {"type": "way", "id": 572506118, "center": {"lat": -40.6811483, "lon": -66.1620441}, "nodes": [5500149638, 5500149641, 9342607477, 5500149642, 5500149644, 5500149638], "tags": {"addr:city": "Valcheta", "addr:full": "Leandro N. Alem S/N", "addr:housenumber": "S/N", "addr:place": "Valcheta", "addr:postcode": "R8536", "addr:street": "Leandro N. Alem", "alt_name": "Hospital Valcheta", "amenity": "hospital", "contact:email": "hospitalvalcheta@yahoo.com", "contact:phone": "+54 02934 493232", "description": "Bajo riesgo con internaci\u00f3n simple", "emergency": "yes", "healthcare": "hospital", "name": "Hospital de \u00c1rea Programa Valcheta \"Doctor Ra\u00fal Fern\u00edcola\"", "operator": "Ministerio de Salud - Gobierno de R\u00edo Negro", "operator:type": "public", "phone": "+54 293 449-3232;+54 293 449-3107", "ref:sisa_codigo": "10620842170035", "ref:sisa_tipologia": "ESCIG", "source": "sedronar.gov.ar | Public Domain (PD)", "wikidata": "Q94704926"}}, {"type": "way", "id": 672019012, "center": {"lat": -49.9859339, "lon": -68.914486}, "nodes": [6293195460, 6293195461, 6293195462, 6293195463, 6293195464, 6293195465, 6293195466, 6293195467, 6293195468, 6293195460], "tags": {"addr:city": "Comandante Luis Piedrabuena", "addr:full": "Saenz Pe\u00f1a 244", "addr:place": "Corpen Aike", "addr:postcode": "9303", "amenity": "hospital", "description": "Alto riesgo con terapia intensiva especializada", "emergency": "yes", "healthcare": "hospital", "healthcare:speciality": "general", "name": "Hospital Seccional Dr. Armando Zamudio", "operator:type": "public", "ref:sisa_codigo": "10780072183014", "ref:sisa_tipologia": "ESCIEP", "source": "sedronar.gov.ar | Public Domain (PD)", "wheelchair": "yes"}}, {"type": "way", "id": 685712483, "center": {"lat": -40.7939618, "lon": -62.9770824}, "nodes": [6426506276, 6651595118, 6651595119, 6651595120, 6426506277, 6426506278, 6426506279, 6426506588, 6426506587, 6426506280, 6426506586, 6426506284, 6426506283, 6426506282, 6426506281, 6426506276], "tags": {"addr:city": "Carmen de Patagones", "addr:housenumber": "740", "addr:postcode": "8504", "addr:street": "Doctor Baraja", "amenity": "hospital", "healthcare": "hospital", "name": "Hospital Doctor Pedro Ecay", "phone": "+54 2920 461111; +54 2920 461977"}}, {"type": "way", "id": 784978050, "center": {"lat": -40.8196382, "lon": -63.0025227}, "nodes": [7333857795, 7333857796, 7333857797, 7333857798, 7333857799, 7333857800, 7333857795], "tags": {"amenity": "hospital", "healthcare": "hospital"}}, {"type": "way", "id": 785751500, "center": {"lat": -40.8166772, "lon": -63.0073935}, "nodes": [3822060167, 7345028517, 3830206844, 3822060168, 3822060167], "tags": {"amenity": "hospital", "healthcare": "hospital"}}, {"type": "way", "id": 797703115, "center": {"lat": -40.7298868, "lon": -64.9570887}, "nodes": [7460738069, 7460738070, 7460738071, 9342607279, 9342607280, 7460738072, 7460738069], "tags": {"addr:city": "San Antonio Oeste", "addr:housenumber": "1751", "addr:postcode": "R8520", "addr:street": "Belgrano", "amenity": "hospital", "emergency": "yes", "healthcare": "hospital", "name": "Hospital de \u00c1rea Programa San Antonio Oeste \"Doctor An\u00edbal Serra\"", "operator": "Ministerio de Salud - Gobierno de R\u00edo Negro", "operator:type": "public", "phone": "+54 293 442-1211;+54 293 443-0472", "wikidata": "Q94704922"}}, {"type": "way", "id": 823939934, "center": {"lat": -40.8234643, "lon": -63.0163825}, "nodes": [7692784211, 7692784212, 7692784213, 7692784210, 6621518941, 6621518942, 7692784211], "tags": {"amenity": "hospital", "healthcare": "hospital"}}, {"type": "way", "id": 904164810, "center": {"lat": -42.7870398, "lon": -65.074122}, "nodes": [8397229633, 8397229634, 8397229635, 8397229636, 8397229633], "tags": {"amenity": "hospital", "healthcare": "hospital", "name": "Centro de Salud Ruca Calil", "wikidata": "Q94569595"}}, {"type": "way", "id": 904331820, "center": {"lat": -42.7792503, "lon": -65.0541535}, "nodes": [8398614729, 8398614730, 8398614731, 8398614732, 8398614733, 8398614734, 8398614735, 8398614736, 8398614737, 8398614729], "tags": {"amenity": "hospital", "healthcare": "hospital"}}, {"type": "way", "id": 905888390, "center": {"lat": -42.7841049, "lon": -65.0605086}, "nodes": [8412520862, 8412520863, 8412520864, 8412520865, 1997067632, 8412520862], "tags": {"amenity": "hospital", "barrier": "fence", "healthcare": "hospital", "name": "Centro de Salud \"Roque Gonz\u00e1lez\""}}, {"type": "way", "id": 905922735, "center": {"lat": -42.7723917, "lon": -65.0536015}, "nodes": [8412829085, 8412829097, 8412829086, 8412829087, 8412829088, 8412829089, 8412829085], "tags": {"amenity": "hospital", "healthcare": "hospital", "name": "Centro de Salud - Barrio Mart\u00edn Miguel de G\u00fcemes"}}, {"type": "way", "id": 906668342, "center": {"lat": -42.7591855, "lon": -65.0607953}, "nodes": [8419177037, 8419177090, 8419177038, 8419177039, 8419177040, 8419177041, 8419177037], "tags": {"amenity": "hospital", "healthcare": "hospital"}}, {"type": "way", "id": 1012660994, "center": {"lat": -40.1067908, "lon": -64.4574154}, "nodes": [9342603213, 9342607121, 9342607122, 9342603214, 9342603215, 9342603216, 9342607125, 9342607124, 9342607117, 9342607118, 9342607119, 9342603213], "tags": {"addr:city": "General Conesa", "addr:housenumber": "285", "addr:postcode": "R8503", "addr:street": "Sarmiento", "amenity": "hospital", "emergency": "yes", "healthcare": "hospital", "name": "Hospital de \u00c1rea Programa General Conesa \"Doctor H\u00e9ctor Monteoliva\"", "operator": "Ministerio de Salud - Gobierno de R\u00edo Negro", "operator:type": "public", "phone": "+54 293 149-8111;+54 293 149-5063", "wikidata": "Q94704901"}}, {"type": "way", "id": 1012661010, "center": {"lat": -40.433027, "lon": -63.6779986}, "nodes": [9342607219, 9342607220, 9342607221, 9342607222, 9342607219], "tags": {"addr:city": "Guardia Mitre", "addr:housenumber": "S/N", "addr:postcode": "R8505", "addr:street": "Mart\u00edn Villanueva", "amenity": "hospital", "barrier": "fence", "emergency": "yes", "healthcare": "hospital", "name": "Hospital de \u00c1rea Programa Guardia Mitre", "operator": "Ministerio de Salud - Gobierno de R\u00edo Negro", "operator:type": "public", "phone": "+54 292 049-2015;+54 292 049-5057", "wikidata": "Q94704902"}}, {"type": "way", "id": 1012661027, "center": {"lat": -40.8082914, "lon": -65.0902667}, "nodes": [9342607326, 9342607327, 9342607328, 9342607331, 9342607329, 9342607330, 9342607326], "tags": {"addr:city": "Las Grutas", "addr:postcode": "R8521", "addr:street": "Pilcaniyeu", "amenity": "hospital", "emergency": "yes", "healthcare": "hospital", "name": "Hospital de \u00c1rea Programa Las Grutas \"Violeta Villalobos\"", "operator": "Ministerio de Salud - Gobierno de R\u00edo Negro", "operator:type": "public", "phone": "+54 293 449-7100", "wikidata": "Q94704913"}}, {"type": "way", "id": 1012661034, "center": {"lat": -41.6115306, "lon": -65.3628107}, "nodes": [9342607381, 9342607392, 9342607391, 9342607382, 9342607383, 9342607384, 4339347597, 4339347450, 9342607385, 9342607386, 4339347384, 4339347425, 9342607390, 9342607393, 4339347798, 9342607458, 4339347816, 9342607462, 4339347857, 9342607389, 9342607388, 9342607387, 9342607381], "tags": {"addr:city": "Sierra Grande", "addr:housenumber": "S/N", "addr:postcode": "R8532", "addr:street": "Avenida del Minero", "amenity": "hospital", "emergency": "yes", "healthcare": "hospital", "name": "Hospital de \u00c1rea Programa Sierra Grande \"Doctor Osvaldo Bianchi\"", "operator": "Ministerio de Salud - Gobierno de R\u00edo Negro", "operator:type": "public", "phone": "+54 293 448-1092;+54 293 448-5069", "wikidata": "Q94704925"}}, {"type": "way", "id": 1012665227, "center": {"lat": -41.2498393, "lon": -68.6989254}, "nodes": [9342647147, 9342647151, 9342647148, 9342647149, 9342647152, 9342647155, 9342647156, 9342647169, 9342647172, 9342647174, 9342647173, 9342647150, 9342647147], "tags": {"addr:city": "Maquinchao", "addr:housenumber": "873", "addr:postcode": "R8422", "addr:street": "Domingo Faustino Sarmiento", "amenity": "hospital", "emergency": "yes", "healthcare": "hospital", "name": "Hospital de \u00c1rea Programa Maquinchao \"Doctor Orencio Callejas\"", "operator": "Ministerio de Salud - Gobierno de R\u00edo Negro", "operator:type": "public", "phone": "+54 294 049-1031", "wikidata": "Q94704917"}}, {"type": "way", "id": 1012665236, "center": {"lat": -40.5862183, "lon": -67.7545246}, "nodes": [9342647209, 9342647210, 9342647214, 9342647215, 9342647211, 9342647212, 9342647213, 9342647209], "tags": {"addr:city": "Sierra Colorada", "addr:housenumber": "149", "addr:postcode": "R8534", "addr:street": "Hip\u00f3lito Yrigoyen", "amenity": "hospital", "emergency": "yes", "healthcare": "hospital", "name": "Hospital de \u00c1rea Programa Sierra Colorada \"Doctor Adolfo Feintuch\"", "operator": "Ministerio de Salud - Gobierno de R\u00edo Negro", "operator:type": "public", "phone": "+54 294 049-5221;+54 249 049-5021", "wikidata": "Q94704924"}}, {"type": "way", "id": 1012779656, "center": {"lat": -40.5073899, "lon": -67.261804}, "nodes": [9343771329, 9343771345, 9343771344, 9343771349, 9343771348, 9343771330, 9343771334, 9343771331, 9343771336, 9343771337, 9343771332, 9343771333, 9343771338, 9343771329], "tags": {"addr:city": "Ministro Ramos Mex\u00eda", "addr:housenumber": "S/N", "addr:postcode": "R8534", "addr:street": "Manuel Belgrano", "amenity": "hospital", "emergency": "yes", "healthcare": "hospital", "name": "Hospital de \u00c1rea Programa Ramos Mex\u00eda \"Doctor Aquiles Rivera Paredes\"", "operator": "Ministerio de Salud - Gobierno de R\u00edo Negro", "operator:type": "public", "phone": "+54 293 449-1029;+54 293 449-5000"}}, {"type": "way", "id": 1029903902, "center": {"lat": -45.8682371, "lon": -67.4877698}, "nodes": [9494187727, 9494187711, 9494187710, 9494187709, 9494187712, 9494187718, 9494187717, 9494187716, 9494187715, 9494187714, 9494187713, 9494187722, 9494187723, 9494187719, 9494187720, 9494187721, 9494187724, 9494187725, 9494187708, 9494187707, 9494187706, 9494187705, 9494187704, 9494187703, 9494187726, 9496904878, 9494164762, 9494187727], "tags": {"addr:city": "Comodoro Rivadavia", "addr:full": "Hipolito Irigoyen 950", "addr:place": "Escalante", "amenity": "hospital", "description": "Bajo riesgo con internaci\u00f3n simple", "emergency": "yes", "healthcare": "hospital", "name": "Hospital Regional Doctor Sanguinetti", "operator:type": "public", "ref:sisa_codigo": "10260212129011", "ref:sisa_tipologia": "ESCIG", "source": "sedronar.gov.ar | Public Domain (PD)"}}, {"type": "way", "id": 1042815634, "center": {"lat": -43.2964661, "lon": -65.1076781}, "nodes": [9598768467, 9598768466, 9598768465, 9598768464, 9598768463, 9598768462, 596705527, 9598768467], "tags": {"addr:city": "Rawson", "addr:full": "Roberto Jones Y Roca 555", "addr:place": "Rawson", "amenity": "hospital", "description": "Alto riesgo con terapia intensiva", "emergency": "yes", "healthcare": "hospital", "name": "Hospital Sub Zonal Santa Teresita De Rawson", "operator:type": "public", "ref:sisa_codigo": "10260772129038", "ref:sisa_tipologia": "ESCIEM", "source": "sedronar.gov.ar | Public Domain (PD)", "wikidata": "Q94569649"}}]}