{"version": 0.6, "generator": "Overpass API 0.7.61.5 4133829e", "osm3s": {"timestamp_osm_base": "2023-10-31T20:46:24Z", "copyright": "The data included in this document is from www.openstreetmap.org. The data is made available under ODbL."}, "elements": [{"type": "node", "id": 1557455256, "lat": -46.595471, "lon": -70.9217858, "tags": {"addr:city": "Perito Moreno", "addr:full": "Colon 1237", "addr:place": "Lago Buenos Aires", "addr:postcode": "9040", "amenity": "hospital", "description": "Bajo riesgo con internaci\u00f3n simple", "healthcare": "hospital", "name": "Hospital Distrital Dr. Oscar H. Natale", "operator:type": "public", "ref:sisa_codigo": "10780352183007", "ref:sisa_tipologia": "ESCIG", "source": "sedronar.gov.ar | Public Domain (PD)"}}, {"type": "node", "id": 1920813156, "lat": -46.5483178, "lon": -71.6257856, "tags": {"addr:city": "Los Antiguos", "addr:full": "Patagonia Argentina 98", "addr:place": "Lago Buenos Aires", "addr:postcode": "9041", "amenity": "hospital", "description": "Bajo riesgo con internaci\u00f3n simple", "healthcare": "hospital", "name": "Hospital Seccional Los Antiguos Dr. Reinaldo Bimbi", "operator:type": "public", "ref:sisa_codigo": "10780352183016", "ref:sisa_tipologia": "ESCIG", "source": "sedronar.gov.ar | Public Domain (PD)"}}, {"type": "node", "id": 2187553174, "lat": -42.0633905, "lon": -71.5205183, "tags": {"addr:city": "El Hoyo", "addr:full": "Islas Malvinas", "addr:place": "Cushamen", "addr:postcode": "8431", "amenity": "hospital", "description": "Bajo riesgo con internaci\u00f3n simple", "emergency": "yes", "healthcare": "hospital", "name": "Hospital Rural El Hoyo", "operator:type": "public", "ref:sisa_codigo": "10260142129020", "ref:sisa_tipologia": "ESCIG", "source": "sedronar.gov.ar | Public Domain (PD)"}}, {"type": "node", "id": 2445154239, "lat": -40.4101838, "lon": -73.0129017, "tags": {"amenity": "hospital", "name": "Hospital San Pablo"}}, {"type": "node", "id": 2540470254, "lat": -45.5532095, "lon": -71.5215533, "tags": {"addr:city": "Aldea Beleiro", "addr:street": "Ruta 74", "amenity": "hospital", "emergency": "yes", "healthcare": "hospital", "name": "Puesto sanitario Aldea Beleiro", "wheelchair": "yes"}}, {"type": "node", "id": 2680414049, "lat": -41.4587313, "lon": -72.9539987, "tags": {"amenity": "hospital", "healthcare": "hospital", "name": "Cl\u00ednica Puerto Montt"}}, {"type": "node", "id": 2867814452, "lat": -42.058797, "lon": -71.5975533, "tags": {"addr:city": "Lago Puelo", "addr:full": "Avenida 2 De Abril S/N", "addr:place": "Cushamen", "amenity": "hospital", "description": "Bajo riesgo con internaci\u00f3n simple", "healthcare": "hospital", "name": "Hospital Rural de Lago Puelo", "operator:type": "public", "ref:sisa_codigo": "10260142129027", "ref:sisa_tipologia": "ESCIG", "source": "sedronar.gov.ar | Public Domain (PD)"}}, {"type": "node", "id": 2955773944, "lat": -42.0528597, "lon": -71.1579537, "tags": {"addr:city": "El Maiten", "addr:full": "Patagonia 615", "addr:place": "Cushamen", "addr:postcode": "3240", "amenity": "hospital", "description": "Mediano riesgo con internaci\u00f3n con cuidados especiales", "healthcare": "hospital", "name": "Hospital Subzonal El Maiten", "operator:type": "public", "ref:sisa_codigo": "10260142129039", "ref:sisa_tipologia": "ESCIG", "source": "sedronar.gov.ar | Public Domain (PD)"}}, {"type": "node", "id": 3107705765, "lat": -45.6873877, "lon": -70.2600599, "tags": {"addr:city": "Rio Mayo", "addr:full": "Sarmiento 637", "addr:place": "Rio Senguer", "addr:postcode": "9030", "addr:street": "Sarmiento", "amenity": "hospital", "description": "Mediano riesgo con internaci\u00f3n con cuidados especiales", "healthcare": "hospital", "name": "Hospital Rural Rio Mayo", "operator:type": "public", "ref:sisa_codigo": "10260842129032", "ref:sisa_tipologia": "ESCIG", "source": "sedronar.gov.ar | Public Domain (PD)", "wikidata": "Q94569641"}}, {"type": "node", "id": 3268805316, "lat": -40.5866348, "lon": -73.7332702, "tags": {"addr:city": "San Juan de la Costa", "addr:street": "Avenida Costanera", "amenity": "hospital", "healthcare": "hospital", "name": "CESFAM Bah\u00eda Mansa", "nohousenumber": "yes"}}, {"type": "node", "id": 3653107842, "lat": -41.7901463, "lon": -71.5660472, "tags": {"amenity": "hospital", "name": "Enfermer\u00eda"}}, {"type": "node", "id": 3729134171, "lat": -42.0454953, "lon": -71.1743412, "tags": {"addr:city": "El Mait\u00e9n", "addr:street": "Jos\u00e9 Hernandez", "amenity": "hospital", "emergency": "yes", "healthcare": "hospital", "name": "Hospital Subzonal El Mait\u00e9n", "phone": "02945 49 5255"}}, {"type": "node", "id": 3817865745, "lat": -42.8999086, "lon": -71.3177783, "tags": {"addr:city": "Esquel", "addr:postcode": "9200", "addr:street": "Humphreys", "amenity": "hospital", "healthcare": "hospital", "name": "Salita B\u00aa Bella Vista", "operator": "Silvina Nardo"}}, {"type": "node", "id": 3851769974, "lat": -40.292651, "lon": -73.0815823, "tags": {"amenity": "hospital", "name": "Clinica Alemana"}}, {"type": "node", "id": 4093396727, "lat": -44.0514899, "lon": -70.5999183, "tags": {"addr:city": "Gobernador Costa", "addr:full": "Darwin", "addr:place": "Tehuelches", "addr:postcode": "9223", "amenity": "hospital", "description": "Bajo riesgo con internaci\u00f3n simple", "healthcare": "hospital", "name": "Hospital Rural Isaac Mehaudy - Gobernador Costa", "operator:type": "public", "ref:sisa_codigo": "10260982129025", "ref:sisa_tipologia": "ESCIG", "source": "sedronar.gov.ar | Public Domain (PD)"}}, {"type": "node", "id": 4098699149, "lat": -40.7558996, "lon": -71.1663355, "tags": {"amenity": "hospital", "healthcare": "hospital", "name": "Posta sanitaria y sal\u00f3n comunitario"}}, {"type": "node", "id": 4106844158, "lat": -44.0528714, "lon": -70.4698222, "tags": {"addr:city": "Jose De San Martin", "addr:full": "Belgrano", "addr:place": "Tehuelches", "addr:postcode": "9220", "amenity": "hospital", "description": "Bajo riesgo con internaci\u00f3n simple", "healthcare": "hospital", "name": "Hospital Rural Jose De San Martin", "operator:type": "public", "ref:sisa_codigo": "10260982129026", "ref:sisa_tipologia": "ESCIG", "source": "sedronar.gov.ar | Public Domain (PD)"}}, {"type": "node", "id": 4214586854, "lat": -42.9179155, "lon": -71.3157473, "tags": {"addr:city": "Esquel", "addr:full": "25 De Mayo 150", "addr:place": "Futaleufu", "amenity": "hospital", "description": "Alto riesgo con terapia intensiva", "healthcare": "hospital", "name": "Hospital Zonal Esquel", "operator:type": "public", "ref:sisa_codigo": "10260352129041", "ref:sisa_tipologia": "ESCIG", "source": "sedronar.gov.ar | Public Domain (PD)"}}, {"type": "node", "id": 4376693536, "lat": -42.2290009, "lon": -71.3721758, "tags": {"addr:city": "Epuyen", "addr:full": "El Amancay 12", "addr:place": "Cushamen", "addr:postcode": "9217", "amenity": "hospital", "description": "Bajo riesgo con internaci\u00f3n simple", "healthcare": "hospital", "name": "Hospital Rural Epuy\u00e9n", "operator": "Andrea L\u00f3pez", "operator:type": "public", "ref:sisa_codigo": "10260142129021", "ref:sisa_tipologia": "ESCIEM", "source": "sedronar.gov.ar | Public Domain (PD)"}}, {"type": "node", "id": 4456535594, "lat": -41.1382392, "lon": -71.312615, "tags": {"addr:postcode": "8400", "addr:street": "20 de Febrero", "amenity": "hospital", "healthcare": "hospital", "name": "Cl\u00ednica San Fernando"}}, {"type": "node", "id": 4888646421, "lat": -47.5649309, "lon": -71.7434698, "tags": {"amenity": "hospital", "healthcare": "hospital", "name": "Puesto sanitario", "name:es": "Puesto sanitario"}}, {"type": "node", "id": 5107299358, "lat": -42.9184752, "lon": -71.315783, "tags": {"amenity": "hospital", "healthcare": "hospital", "name": "Guardia del Hospital"}}, {"type": "node", "id": 5107299361, "lat": -42.9184163, "lon": -71.3166413, "tags": {"amenity": "hospital", "healthcare": "hospital", "name": "Hospital Zonal de Esquel"}}, {"type": "node", "id": 5951971356, "lat": -40.1304064, "lon": -71.2258781, "tags": {"amenity": "hospital", "healthcare": "hospital"}}, {"type": "node", "id": 6267130596, "lat": -43.535788, "lon": -71.4724964, "tags": {"amenity": "hospital", "healthcare": "hospital"}}, {"type": "node", "id": 6388419950, "lat": -41.1363678, "lon": -71.3073273, "tags": {"addr:city": "San Carlos de Bariloche", "addr:housenumber": "436", "addr:postcode": "8400", "addr:street": "Villegas", "amenity": "hospital", "healthcare": "hospital", "name": "Instituto Materno Infantil", "phone": "0294 442-2599"}}, {"type": "node", "id": 6456697286, "lat": -40.3679852, "lon": -73.2610994, "tags": {"addr:city": "San Pablo", "addr:street": "San Pablo - Trumao - Quilacahu\u00edn", "amenity": "hospital", "name": "Hospital Pu Mulen", "nohousenumber": "yes"}}, {"type": "node", "id": 7376735332, "lat": -42.172596, "lon": -70.6629724, "tags": {"addr:city": "Cushamen Centro", "addr:full": "Avenida Libertador", "addr:place": "Cushamen", "addr:postcode": "9217", "amenity": "hospital", "description": "Bajo riesgo con internaci\u00f3n simple", "healthcare": "hospital", "name": "Hospital Rural Cushamen", "operator:type": "public", "ref:sisa_codigo": "10260142129016", "ref:sisa_tipologia": "ESCIG", "source": "sedronar.gov.ar | Public Domain (PD)"}}, {"type": "node", "id": 7376735333, "lat": -43.540947, "lon": -71.469416, "tags": {"addr:city": "Corcovado", "addr:full": "Perito Moreno", "addr:place": "Futaleufu", "addr:postcode": "9201", "amenity": "hospital", "description": "Mediano riesgo con internaci\u00f3n con cuidados especiales", "healthcare": "hospital", "name": "Hospital Rural Corcovado", "operator:type": "public", "ref:sisa_codigo": "10260352129015", "ref:sisa_tipologia": "ESCIG", "source": "sedronar.gov.ar | Public Domain (PD)", "wikidata": "Q94569626"}}, {"type": "node", "id": 7376735337, "lat": -44.1824282, "lon": -71.3653568, "tags": {"addr:city": "Rio Pico", "addr:full": "Juan Y Edgardo Hanhn", "addr:place": "Tehuelches", "addr:postcode": "9225", "amenity": "hospital", "description": "Bajo riesgo con internaci\u00f3n simple", "healthcare": "hospital", "name": "Hospital Rural Dra Thalina Riasnianski -Rio Pico", "operator:type": "public", "ref:sisa_codigo": "10260982129019", "ref:sisa_tipologia": "ESCIG", "source": "sedronar.gov.ar | Public Domain (PD)"}}, {"type": "node", "id": 7376735338, "lat": -45.0413692, "lon": -70.8244891, "tags": {"addr:city": "Alto Rio Senguer", "addr:full": "San Juan Bosco S/N", "addr:place": "Rio Senguer", "addr:postcode": "9033", "amenity": "hospital", "description": "Bajo riesgo con internaci\u00f3n simple", "healthcare": "hospital", "name": "Hospital Rural Rio Senguer", "operator:type": "public", "ref:sisa_codigo": "10260842129033", "ref:sisa_tipologia": "ESCIG", "source": "sedronar.gov.ar | Public Domain (PD)", "wikidata": "Q94569643"}}, {"type": "node", "id": 7376735340, "lat": -42.71925, "lon": -70.5502393, "tags": {"addr:city": "Gualjaina", "addr:full": "Benito Fernandez Esq. Ricardo Berwin", "addr:place": "Cushamen", "addr:postcode": "9201", "amenity": "hospital", "description": "Bajo riesgo con internaci\u00f3n simple", "healthcare": "hospital", "name": "Hospital Rural Gualjaina", "operator:type": "public", "ref:sisa_codigo": "10260142129024", "ref:sisa_tipologia": "ESCIG", "source": "sedronar.gov.ar | Public Domain (PD)"}}, {"type": "node", "id": 7502004804, "lat": -41.1324686, "lon": -71.3207061, "tags": {"addr:city": "San Carlos de Bariloche", "addr:full": "Avenida Bustillo Km 1", "addr:housenumber": "1000", "addr:postcode": "8400", "addr:street": "Avenida Exequiel Bustillo", "amenity": "hospital", "emergency": "yes", "healthcare": "hospital", "name": "Sanatorio San Carlos S.A", "operator": "Privado", "operator:type": "private", "phone": "(0294) 4437505", "ref:sisa_codigo": "10620212370050", "ref:sisa_tipologia": "ESCIG"}}, {"type": "node", "id": 7903572642, "lat": -41.1498108, "lon": -71.3054352, "tags": {"addr:housenumber": "1878", "addr:street": "beschtedt", "amenity": "hospital", "description": "hospital de d\u00eda para personas discapacitadas", "name": "Hospital de D\u00eda Esperanza", "phone": "0294 442-8365"}}, {"type": "node", "id": 10253813997, "lat": -40.570336, "lon": -73.1372982, "tags": {"amenity": "hospital", "healthcare": "hospital", "name": "Instituto de Seguridad del Trabajo"}}, {"type": "node", "id": 10568655992, "lat": -41.866029, "lon": -73.8162828, "tags": {"addr:city": "Ancud", "addr:street": "Almirante Latorre", "amenity": "hospital", "healthcare": "hospital", "name": "SAR"}}, {"type": "node", "id": 10597930933, "lat": -41.965466, "lon": -71.5337125, "tags": {"amenity": "hospital", "healthcare": "hospital", "name": "Hospital de El Bols\u00f3n"}}, {"type": "node", "id": 10674286974, "lat": -40.158833, "lon": -71.3563734, "tags": {"addr:city": "San Martin de los Andes", "addr:housenumber": "281", "addr:postcode": "Q8370", "addr:street": "Avenida San Mart\u00edn", "amenity": "hospital", "healthcare": "hospital", "healthcare:speciality": "administrativo", "name": "Zona Sanitaria IV"}}, {"type": "node", "id": 11226765187, "lat": -42.8903449, "lon": -73.4732996, "tags": {"addr:city": "Queil\u00e9n", "addr:housenumber": "311", "addr:street": "Jos\u00e9 Manuel Balmaceda", "amenity": "hospital", "healthcare": "hospital", "name": "Hospital de Queil\u00e9n"}}, {"type": "way", "id": 51834354, "center": {"lat": -40.5836997, "lon": -73.12039}, "nodes": [661208414, 661208458, 661208464, 661208465, 9834317075, 2444893794, 9834317074, 661208432, 9834317073, 9221280181, 9221280180, 9221280179, 9834317072, 661208403, 9221280178, 661208400, 661208414], "tags": {"amenity": "hospital", "emergency": "yes", "healthcare": "hospital", "name": "Cl\u00ednica Alemana de Osorno", "wikidata": "Q93743979"}}, {"type": "way", "id": 55728770, "center": {"lat": -40.1573441, "lon": -71.3573578}, "nodes": [700173133, 700173125, 10302567769, 700173128, 10302567768, 700173131, 10302567777, 700173133], "tags": {"amenity": "hospital", "healthcare": "hospital", "name": "Centro Modular Sanitario N\u00b016", "sport": "soccer"}}, {"type": "way", "id": 99264774, "center": {"lat": -41.3191834, "lon": -72.9913073}, "nodes": [1148176874, 4177166416, 1148176869, 4177166401, 3106098592, 4564083628, 3106098585, 3106098577, 3106098570, 1148176848, 1148176860, 1148176874], "tags": {"addr:city": "Puerto Varas", "addr:country": "CL", "addr:district": "Puerto Varas", "addr:housenumber": "810", "addr:state": "Regi\u00f3n de Los Lagos", "addr:street": "Doctor Otto Bader", "amenity": "hospital", "emergency": "yes", "name": "Clinica de Puerto Varas", "source:addr": "www.sii.cl, Cartograf\u00eda Digital SII Mapas"}}, {"type": "way", "id": 116342046, "center": {"lat": -46.5414803, "lon": -71.7246298}, "nodes": [1311763821, 1311763888, 1311763863, 1311763850, 1311763821], "tags": {"addr:city": "chile chico", "addr:postcode": "6050000", "addr:street": "Lautaro", "amenity": "hospital", "emergency": "yes", "healthcare": "hospital", "name": "Doctor Leopoldo Ortega"}}, {"type": "way", "id": 116945113, "center": {"lat": -43.1148192, "lon": -73.6171313}, "nodes": [1317247437, 1317247378, 5935912780, 1317247424, 1317247439, 4513016051, 1317247437], "tags": {"addr:city": "Quell\u00f3n", "addr:housenumber": "305", "addr:street": "Doctor Ahues", "amenity": "hospital", "emergency": "yes", "name": "Hospital de Quellon Doctor Eduardo Ahues"}}, {"type": "way", "id": 125192571, "center": {"lat": -40.3348749, "lon": -72.9502896}, "nodes": [1391107987, 1391107985, 1391108005, 1391108002, 1391107987], "tags": {"addr:city": "Rio Bueno", "addr:housenumber": "1521", "addr:street": "Ej\u00e9rcito Libertador", "amenity": "hospital", "healthcare": "hospital", "name": "Hospital de R\u00edo Bueno", "wikidata": "Q93743935"}}, {"type": "way", "id": 125391491, "center": {"lat": -40.9724853, "lon": -72.8831616}, "nodes": [1392855339, 1392855344, 4341483820, 1392855350, 5638626392, 1392855345, 1392855351, 1392855339], "tags": {"addr:city": "Puerto Octay", "addr:street": "Mu\u00f1oz Gamero", "amenity": "hospital", "healthcare": "hospital", "name": "Hospital de Puerto Octay", "nohousenumber": "yes", "wikidata": "Q93743974"}}, {"type": "way", "id": 134018398, "center": {"lat": -40.9138763, "lon": -73.1542458}, "nodes": [1474290209, 1474290297, 1474290247, 1474290172, 1474290209], "tags": {"addr:city": "Purranque", "addr:country": "CL", "addr:district": "Purranque", "addr:housenumber": "468", "addr:state": "Regi\u00f3n de Los Lagos", "addr:street": "21 de Mayo", "amenity": "hospital", "emergency": "yes", "name": "Hospital de Purranque Doctor Juan Hepp Dubiau", "phone": "642336000"}}, {"type": "way", "id": 139570058, "center": {"lat": -41.8652256, "lon": -73.8235995}, "nodes": [1529897884, 1529898098, 7681408030, 7681408027, 1529897853, 1529898079, 1529897884], "tags": {"addr:city": "Ancud", "addr:housenumber": "301", "addr:street": "Almirante Latorre", "amenity": "hospital", "emergency": "yes", "healthcare": "hospital", "name": "Hospital de Ancud"}}, {"type": "way", "id": 139762987, "center": {"lat": -41.4773493, "lon": -72.9143978}, "nodes": [1531729752, 4315738913, 1531633137, 7623549529, 1531633237, 1531633265, 1531633263, 1531633259, 1531633257, 1531633245, 1531633247, 1531633169, 1531633232, 1531633136, 1531633187, 1531633145, 1531633350, 3309388568, 1531729752], "tags": {"addr:city": "Puerto Montt", "addr:country": "CL", "addr:district": "Puerto Montt", "addr:housenumber": "123", "addr:state": "Regi\u00f3n de Los Lagos", "addr:street": "Bellavista", "amenity": "hospital", "designation": "Clinica Privada", "emergency": "yes", "name": "Cl\u00ednica Universitaria de Puerto Montt", "source": "minsal.cl"}}, {"type": "way", "id": 139980446, "center": {"lat": -41.1380647, "lon": -73.031446}, "nodes": [1533936668, 1533936728, 1533936782, 1533936667, 1533936634, 1533936637, 1533936708, 1533936769, 1533936774, 1533936678, 1533936738, 1533936766, 1533936768, 1533936909, 1533936863, 1533936873, 1533936734, 1533936668], "tags": {"addr:city": "Frutillar", "addr:country": "CL", "addr:district": "Frutillar", "addr:state": "Regi\u00f3n de Los Lagos", "addr:street": "Avenida Alemania", "amenity": "hospital", "name": "Hospital de Frutillar", "nohousenumber": "yes", "source:addr": "www.sii.cl, Cartograf\u00eda Digital SII Mapas"}}, {"type": "way", "id": 144924895, "center": {"lat": -40.5879384, "lon": -73.1278727}, "nodes": [1584051150, 7760828140, 1584050883, 1584051096, 1584051121, 1584631918, 1584631965, 1584631891, 1584051131, 1584051010, 1584051167, 7204565679, 7760794882, 7760794881, 1584051154, 1584050831, 1584631882, 1584631846, 1584050923, 1584050814, 1584051150], "tags": {"addr:city": "Osorno", "addr:country": "CL", "addr:district": "Osorno", "addr:housenumber": "1765", "addr:state": "Regi\u00f3n de Los Lagos", "addr:street": "Guillermo B\u00fchler", "amenity": "hospital", "name": "Hospital Base San Jose de Osorno", "wikidata": "Q22829860", "wikipedia": "es:Hospital Base San Jos\u00e9 de Osorno"}}, {"type": "way", "id": 148441624, "center": {"lat": -40.0715644, "lon": -72.866378}, "nodes": [1615455384, 11073784561, 1615455416, 1615455447, 1615455384], "tags": {"addr:city": "Paillaco", "addr:country": "CL", "addr:district": "Paillaco", "addr:housenumber": "715", "addr:state": "Regi\u00f3n de Los R\u00edos", "addr:street": "Gabriela Mistral", "amenity": "hospital", "emergency": "yes", "name": "Hospital de Paillaco", "wikidata": "Q93743937"}}, {"type": "way", "id": 150376141, "center": {"lat": -43.1832517, "lon": -71.8690476}, "nodes": [9570815934, 9570815935, 9570815936, 9570815937, 9570815934], "tags": {"addr:city": "Futaleuf\u00fa", "addr:housenumber": "382", "addr:street": "Jos\u00e9 Manuel Balmaceda", "amenity": "hospital", "emergency": "yes", "healthcare": "hospital", "name": "Hospital de Futaleuf\u00fa"}}, {"type": "way", "id": 169465034, "center": {"lat": -40.2841654, "lon": -73.0758733}, "nodes": [1806263894, 1806263878, 1806263879, 1806263862, 7631441863, 7631441865, 1806263833, 1806264275, 1806263837, 1806264160, 1806264203, 1806264092, 1806264111, 1806264034, 1806264090, 1806264158, 1806263894], "tags": {"amenity": "hospital", "name": "Hospital Juan Morey"}}, {"type": "way", "id": 169499715, "center": {"lat": -45.4086188, "lon": -72.6840969}, "nodes": [1806594593, 1806594416, 1806594480, 1806594507, 4883990057, 4883990044, 1806594593], "tags": {"addr:city": "Aysen", "addr:housenumber": "180", "addr:postcode": "6000000", "addr:street": "Yussef Laibe", "amenity": "hospital", "healthcare": "hospital", "name": "Hospital de Puerto Ays\u00e9n", "wikidata": "Q93744181"}}, {"type": "way", "id": 255092699, "center": {"lat": -41.4474467, "lon": -72.9572347}, "nodes": [2608388384, 9331038499, 2608388370, 9650514169, 2608942917, 2608942930, 2608388347, 2608388372, 2608388384], "tags": {"addr:city": "Puerto Montt", "addr:country": "CL", "addr:district": "Puerto Montt", "addr:housenumber": "65", "addr:state": "Regi\u00f3n de Los Lagos", "addr:street": "Los Aromos", "amenity": "hospital", "healthcare": "hospital", "name": "Hospital de Puerto Montt", "wikidata": "Q26720835", "wikipedia": "es:Hospital Puerto Montt"}}, {"type": "way", "id": 257323666, "center": {"lat": -40.7709065, "lon": -71.6503127}, "nodes": [2628855711, 2628855705, 2628855710, 2628855709, 2628855670, 2628855645, 2628855649, 2628855665, 2628855711], "tags": {"addr:city": "Villa La Angostura", "addr:full": "Copello Y Benich S/N", "addr:place": "Los Lagos", "amenity": "hospital", "description": "Bajo riesgo con internaci\u00f3n simple", "emergency": "yes", "healthcare": "hospital", "name": "Hospital De Area Villa La Angostura Dr. Oscar Arraiz", "operator:type": "public", "phone": "54 0299 4494170", "ref:sisa_codigo": "10580702167030", "ref:sisa_tipologia": "ESCIG", "source": "sedronar.gov.ar | Public Domain (PD)"}}, {"type": "way", "id": 263215637, "center": {"lat": -45.5682171, "lon": -72.0743801}, "nodes": [2688386684, 2688386695, 2688386698, 7686728136, 2688386694, 2688386682, 2688386687, 2688386691, 7686629997, 7686822476, 2688386688, 7686629993, 7686629995, 7686629994, 7686629996, 7686715541, 2688386699, 7686715538, 2688386680, 2688386677, 2688386690, 2688386684], "tags": {"amenity": "hospital", "emergency": "yes", "name": "Hospital Regional de Coyhaique", "wikidata": "Q24960629"}}, {"type": "way", "id": 266874383, "center": {"lat": -40.1593553, "lon": -71.3565685}, "nodes": [4166675313, 4166675205, 4166675314, 4166675315, 4166675313], "tags": {"addr:city": "San Martin De Los Andes", "addr:full": "Av. San Mart\u00edn 217", "addr:place": "Lacar", "amenity": "hospital", "description": "Ex edificio del hospital Ramon Carrillo", "healthcare": "hospital", "healthcare:speciality": "administrativo", "name": "Subsecretar\u00eda de Salud de la Provincia de Neuquen", "operator:type": "government", "ref:sisa_codigo": "10580562167036", "ref:sisa_tipologia": "ESCIG"}}, {"type": "way", "id": 269016352, "center": {"lat": -41.7700938, "lon": -73.1329339}, "nodes": [2742959523, 5766655202, 2742959527, 2742959530, 2742959533, 5765959253, 5759004448, 5765958952, 5765958951, 2742959538, 2742959523], "tags": {"addr:city": "Calbuco", "addr:housenumber": "450", "addr:street": "Eulogio Goycolea", "amenity": "hospital", "name": "Hospital de Calbuco"}}, {"type": "way", "id": 292007598, "center": {"lat": -41.4690372, "lon": -72.9335667}, "nodes": [2955177755, 2955177756, 2955177760, 2955177757, 1487550374, 1487550364, 2955177755], "tags": {"addr:city": "Puerto Montt", "addr:country": "CL", "addr:district": "Puerto Montt", "addr:housenumber": "360", "addr:state": "Regi\u00f3n de Los Lagos", "addr:street": "Ej\u00e9rcito", "amenity": "hospital", "emergency": "no", "healthcare": "hospital", "name": "Cl\u00ednica de la Asociaci\u00f3n Chilena de Seguridad ACHS Puerto Montt"}}, {"type": "way", "id": 305909684, "center": {"lat": -48.7547907, "lon": -70.2453127}, "nodes": [3106089829, 3106089311, 3106089310, 3106089328, 3106089830, 3106089829], "tags": {"addr:city": "Gobernador Gregores", "addr:full": "Mario C\u00e1stulo Paradelo 1025", "addr:housenumber": "1025", "addr:place": "Rio Chico", "addr:postcode": "9311", "addr:street": "Mario C\u00e1stulo Paradelo", "amenity": "hospital", "description": "Bajo riesgo con internaci\u00f3n simple", "healthcare": "hospital", "name": "Hospital Distrital Doctor Ram\u00f3n Eraso Santa Paul", "operator:type": "public", "ref:sisa_codigo": "10780492183008", "ref:sisa_tipologia": "ESCIG", "source": "sedronar.gov.ar | Public Domain (PD)"}}, {"type": "way", "id": 312871166, "center": {"lat": -42.9186953, "lon": -72.7101837}, "nodes": [3187821875, 3187821929, 3187821936, 3187821876, 3187821875], "tags": {"addr:city": "Chait\u00e9n", "addr:housenumber": "142", "addr:street": "Carretera Austral", "amenity": "hospital", "name": "Hospital de Chaiten"}}, {"type": "way", "id": 314564490, "center": {"lat": -41.3975605, "lon": -72.9033019}, "nodes": [3206080499, 3206080506, 3206080507, 4874948042, 4874948069, 3206080516, 3206080499], "tags": {"addr:city": "Alerce", "addr:housenumber": "S/N", "addr:street": "Avenida Violeta Parra", "amenity": "hospital", "emergency": "yes", "healthcare": "hospital", "name": "SAPU Alerce"}}, {"type": "way", "id": 326156855, "center": {"lat": -41.9656976, "lon": -71.5333954}, "nodes": [3327710050, 9347890035, 3327710074, 9347890037, 9347890038, 9347890039, 9347890040, 9347890036, 9347890031, 3327710045, 9347890032, 9347890034, 9347890033, 9347890030, 9347890019, 9347890018, 9347890017, 9347890016, 9347890015, 9347890014, 3327710044, 9347890029, 9347890041, 9347890028, 9347890020, 9347890027, 9347890026, 9347890025, 9347890024, 9347890023, 9347890022, 9347890021, 3327710050], "tags": {"addr:city": "El Bols\u00f3n", "addr:full": "Francisco Perito Moreno 2645", "addr:housenumber": "2645", "addr:postcode": "R8430", "addr:street": "Perito Moreno", "amenity": "hospital", "description": "Mediano riesgo con internaci\u00f3n con cuidados especiales", "emergency": "yes", "healthcare": "hospital", "name": "Hospital de \u00c1rea Programa El Bols\u00f3n", "operator": "Ministerio de Salud - Gobierno de R\u00edo Negro", "operator:type": "public", "phone": "+54 294 449-2838;+54 294 449-3632", "ref:sisa_codigo": "10620212170019", "ref:sisa_tipologia": "ESCIG", "source": "sedronar.gov.ar | Public Domain (PD)", "wikidata": "Q94704894"}}, {"type": "way", "id": 326375724, "center": {"lat": -43.6175798, "lon": -71.8081799}, "nodes": [3330084225, 3330083863, 3330084239, 3330084227, 3330083867, 3330083857, 3330084219, 3330084255, 3330084225], "tags": {"addr:city": "Palena", "addr:street": "Vicente P\u00e9rez Rosales", "amenity": "hospital", "building": "yes", "name": "Hospital de Palena", "nohousenumber": "yes"}}, {"type": "way", "id": 362320529, "center": {"lat": -41.2567399, "lon": -73.0101686}, "nodes": [3666501697, 3666503126, 3666501675, 3666501694, 3666501696, 3666501718, 3666501722, 3666501697], "tags": {"addr:city": "Llanquihue", "addr:housenumber": "645", "addr:street": "Erardo Werner", "amenity": "hospital", "name": "Hospital de Llanquihue"}}, {"type": "way", "id": 369091509, "center": {"lat": -42.0455142, "lon": -71.1744958}, "nodes": [3729139185, 3729139186, 3729139187, 3729139188, 3729139189, 3729139190, 3729139191, 3729139192, 3729139193, 3729139194, 3729139195, 3729139196, 3729139197, 3729139198, 3729139199, 3729139200, 3729139201, 3729139202, 3729139203, 3729139204, 3729139205, 3729139206, 3729139185], "tags": {"amenity": "hospital", "healthcare": "hospital"}}, {"type": "way", "id": 369320883, "center": {"lat": -42.9165045, "lon": -71.2953734}, "nodes": [3731208074, 3731208075, 3731208076, 3731208077, 3731208074], "tags": {"addr:city": "Esquel", "addr:postcode": "9200", "addr:street": "Av. Holdich", "amenity": "hospital", "emergency": "yes", "healthcare": "hospital", "name": "salita Barrio Bad\u00e9n", "note": "realizan curaciones, vacunas, primeros auxilios y so derivados al hospital zonal de Esquel"}}, {"type": "way", "id": 379623449, "center": {"lat": -44.7262175, "lon": -72.6807121}, "nodes": [3829563297, 3829563298, 3829563302, 3829563301, 3829563299, 3829613125, 3829563300, 3829613126, 3829563297], "tags": {"addr:city": "Puerto Cisnes", "addr:housenumber": "251", "addr:street": "21 de Mayo", "amenity": "hospital", "name": "Hospital Doctor Jorge Ibar"}}, {"type": "way", "id": 395297837, "center": {"lat": -41.4611446, "lon": -72.9295793}, "nodes": [3982064879, 3982049729, 3982049724, 3982064882, 3982064879], "tags": {"addr:city": "Puerto Montt", "addr:country": "CL", "addr:district": "Puerto Montt", "addr:housenumber": "392", "addr:state": "Regi\u00f3n de Los Lagos", "addr:street": "Dalcahue", "amenity": "hospital", "healthcare": "hospital", "name": "Cesfam Antonio Varas"}}, {"type": "way", "id": 398788210, "center": {"lat": -42.5113515, "lon": -71.433391}, "nodes": [4015259732, 4015259734, 4015259728, 4015259729, 4015259727, 4015259724, 4015259721, 4015259720, 4015259722, 4015259723, 4015259726, 4015259725, 4015259732], "tags": {"addr:city": "Cholila", "addr:full": "Avenida 15 De Diciembre", "addr:place": "Cushamen", "addr:postcode": "9217", "amenity": "hospital", "building": "yes", "description": "Bajo riesgo con internaci\u00f3n simple", "healthcare": "hospital", "name": "Hospital Rural Cholila", "operator:type": "public", "ref:sisa_codigo": "10260142129014", "ref:sisa_tipologia": "ESCIG", "source": "sedronar.gov.ar | Public Domain (PD)", "wikidata": "Q94569624"}}, {"type": "way", "id": 415109920, "center": {"lat": -41.6161326, "lon": -73.6013197}, "nodes": [4161833853, 4161833855, 4161833856, 4161833857, 4161833858, 4161833824, 4161833851, 4161833853], "tags": {"amenity": "hospital", "name": "Internado Hospital Maull\u00edn"}}, {"type": "way", "id": 415109922, "center": {"lat": -41.6171706, "lon": -73.5985518}, "nodes": [4161833837, 4161833841, 4161833845, 4161833844, 4161833848, 4161833846, 4161833837], "tags": {"addr:city": "Maullin", "addr:street": "Vidal Gormaz", "amenity": "hospital", "healthcare": "hospital", "name": "Hospital de Maull\u00edn", "nohousenumber": "yes"}}, {"type": "way", "id": 432812226, "center": {"lat": -40.2963953, "lon": -73.0836929}, "nodes": [4317632940, 4317632941, 4317632942, 4317632943, 4317632944, 4317632940], "tags": {"access": "private", "addr:city": "La Uni\u00f3n", "addr:country": "CL", "addr:housenumber": "260", "addr:street": "Comercio", "amenity": "hospital", "fee": "no", "healthcare": "hospital", "name": "Cl\u00ednica del Trabajador de La Union ACHS", "wikidata": "Q93743945"}}, {"type": "way", "id": 467213555, "center": {"lat": -41.4684459, "lon": -72.9166879}, "nodes": [4618613064, 4618613062, 4618613068, 4618613067, 4618613064], "tags": {"addr:city": "Puerto Montt", "addr:housenumber": "1188", "addr:street": "Los Deportistas", "amenity": "hospital", "healthcare": "hospital", "name": "Consultorio Carmela Carvajal"}}, {"type": "way", "id": 481473521, "center": {"lat": -45.4112018, "lon": -72.6928384}, "nodes": [4744082659, 4744082660, 4744082661, 4744082663, 4744082659], "tags": {"amenity": "hospital", "healthcare": "hospital", "official_name": "Centro Comunitario de Salud Familiar Ribera Sur"}}, {"type": "way", "id": 522318342, "center": {"lat": -43.4923649, "lon": -70.809679}, "nodes": [5087538095, 5087538096, 5087538097, 5087538098, 5087538099, 5087538095], "tags": {"addr:city": "Tecka", "addr:full": "Belgrano Y Roca", "addr:place": "Langui\u00f1eo", "addr:postcode": "9201", "addr:street": "Mariano Moreno", "amenity": "hospital", "healthcare": "hospital", "name": "Hospital Rural Tecka", "operator:type": "public", "phone": "+54 02954 493040", "ref:sisa_codigo": "10260562129035", "ref:sisa_tipologia": "ESCIG", "source": "sedronar.gov.ar | Public Domain (PD)"}}, {"type": "way", "id": 561010965, "center": {"lat": -41.1253068, "lon": -71.4112686}, "nodes": [5409906339, 5409906340, 8489747579, 5409906341, 10270103267, 8489747578, 5409906342, 5409906343, 5409906339], "tags": {"amenity": "hospital", "healthcare": "hospital", "name": "Intecnus"}}, {"type": "way", "id": 568589716, "center": {"lat": -42.4766808, "lon": -73.7692896}, "nodes": [5470083519, 5470084241, 5470084250, 5470084237, 5470083517, 5470083520, 5470084251, 5470084221, 5470084230, 5470084235, 5470083518, 5470084223, 5470084242, 9511079592, 9455968142, 5470084236, 5470084246, 5470084238, 5470084247, 5470084231, 5470084243, 5470084233, 5470084252, 5470083519], "tags": {"addr:city": "Castro", "addr:housenumber": "852", "addr:street": "Freire", "amenity": "hospital", "emergency": "yes", "healthcare": "hospital", "name": "Hospital de Castro Doctor Augusto Riffart"}}, {"type": "way", "id": 666433925, "center": {"lat": -41.1415269, "lon": -71.3132071}, "nodes": [6239448769, 6239448768, 6379789293, 6239448767, 6239448766, 6239448764, 6239448765, 6239448769], "tags": {"addr:housenumber": "980", "addr:street": "Pasaje Gutierrez", "amenity": "hospital", "building": "yes", "description": "Centro Traumat\u00f3logo, Instituto de la Mujer", "healthcare": "hospital", "name": "Sanatorio San Carlos", "opening_hours": "Mo-Fr 07:30-20:00", "phone": "+54 294 4422897; +54 294 4426780", "website": "http://www.ssancarlos.com.ar/"}}, {"type": "way", "id": 673712999, "center": {"lat": -40.1478521, "lon": -71.3289434}, "nodes": [6309182974, 6309182973, 7600505216, 7600505217, 7600505218, 6309182972, 6309182971, 6309182968, 7600505222, 6309182970, 6309182969, 7600505221, 6309182974], "tags": {"addr:city": "San Mart\u00edn de los Andes", "addr:housenumber": "247", "addr:postcode": "8370", "addr:street": "Pasaje del Pueblo", "alt_name": "Hospital Doctor Ram\u00f3n Carrillo II", "amenity": "hospital", "contact:facebook": "https://www.facebook.com/hospital.smandes/", "emergency": "yes", "healthcare": "hospital", "healthcare:speciality": "general;psychiatry;chiropractic;paediatrics;ophthalmology;orthodontics;orthopaedics;vaccination;intensive;emergency;gynaecology;dermatology;surgery;cardiology;oncology;radiology;community;internal;physiatry;abortion;allergology;pulmonology", "name": "Hospital Ram\u00f3n Carrillo II", "official_name": "Hospital Doctor Ram\u00f3n Carrillo II", "phone": "+54 2972 424405", "source": "https://www.saludneuquen.gob.ar/hospital-san-martin-de-los-andes-dr-ramon-carrillo/"}}, {"type": "way", "id": 750620033, "center": {"lat": -43.109661, "lon": -73.6199542}, "nodes": [7018343470, 7018343473, 7018343471, 7018343472, 7018343469, 7018343474, 7018343465, 10249645315, 7018343468, 7056941402, 7018343466, 7018343467, 7018343464, 7018343470], "tags": {"addr:city": "Quellon", "addr:housenumber": "1023", "addr:street": "Avenida La Paz", "amenity": "hospital", "architect": "Iglesis Prat: AIF DRS Ingenieria y Gestion", "designation": "Hospital", "emergency": "yes", "name": "Nuevo Hospital de Quell\u00f3n", "source": "Servicio de Salud de Chiloe"}}, {"type": "way", "id": 800996237, "center": {"lat": -42.4694893, "lon": -73.4949685}, "nodes": [7492037327, 7492037326, 7492037325, 7492037324, 7492037323, 7492037322, 7492037327], "tags": {"addr:city": "Achao", "addr:housenumber": "16", "addr:street": "Riquelme", "amenity": "hospital", "healthcare": "hospital", "name": "Hospital de Achao"}}, {"type": "way", "id": 802018636, "center": {"lat": -41.1373482, "lon": -71.3119643}, "nodes": [7501819703, 3823149079, 7501819704, 7501819705, 7501819706, 7501819707, 7501819708, 9598824032, 7501819703], "tags": {"amenity": "hospital", "emergency": "yes", "healthcare": "hospital", "name": "Hospital Privado Regional"}}, {"type": "way", "id": 817842590, "center": {"lat": -41.1555065, "lon": -73.4230122}, "nodes": [7637995476, 7637995475, 7637995474, 7637995473, 7637995476], "tags": {"addr:housenumber": "301", "addr:street": "San Jos\u00e9", "amenity": "hospital", "name": "Hospital de Fresia"}}, {"type": "way", "id": 826324952, "center": {"lat": -41.1362225, "lon": -71.3001}, "nodes": [7715169485, 7715169486, 7715169487, 7715169488, 7715169489, 7715169490, 7715167082, 7715167083, 7715169491, 7715169492, 7715169493, 7715169494, 7715169495, 7715169496, 7715169485], "tags": {"addr:city": "San Carlos de Bariloche", "addr:housenumber": "601", "addr:postcode": "R8400", "addr:street": "Avenida Perito Moreno", "amenity": "hospital", "emergency": "yes", "healthcare": "hospital", "name": "Hospital Zonal Bariloche \"Doctor Ram\u00f3n Carrillo\"", "operator": "Ministerio de Salud - Gobierno de R\u00edo Negro", "operator:type": "public", "phone": "+54 294 442-6100;+54 294 442-6177;+54 294 442-6119", "wikidata": "Q94704923"}}, {"type": "way", "id": 836931000, "center": {"lat": -41.8507366, "lon": -70.9014051}, "nodes": [7811058008, 7811058009, 7811058010, 9995575287, 9995575288, 7811058011, 7811058012, 7811058013, 7811058008], "tags": {"addr:city": "\u00d1orquinc\u00f3", "addr:housenumber": "S/N", "addr:postcode": "R8415", "addr:street": "San Mart\u00edn", "amenity": "hospital", "barrier": "fence", "emergency": "yes", "healthcare": "hospital", "name": "Hospital de \u00c1rea Programa \u00d1orquinc\u00f3", "operator": "Ministerio de Salud - Gobierno de R\u00edo Negro", "operator:type": "public", "phone": "+54 294 449-6008;+54 294 449-5125", "wikidata": "Q94704931"}}, {"type": "way", "id": 851295267, "center": {"lat": -43.0916693, "lon": -71.4631702}, "nodes": [7940033741, 7940033740, 7940033762, 7940033739, 7940033738, 7940033737, 7940033736, 7940033735, 7940033734, 7940033733, 7940033732, 7940033731, 7940033730, 7940033729, 7940033728, 7940033727, 7940033726, 7940033725, 7940033724, 7940033741], "tags": {"addr:city": "Trevelin", "addr:housenumber": "995", "addr:postcode": "U9203", "addr:street": "Avenida San Mart\u00edn", "amenity": "hospital", "emergency": "yes", "healthcare": "hospital", "name": "Hospital Rural de Trevelin", "operator": "Ministerio de Salud - Gobierno del Chubut", "operator:type": "public"}}, {"type": "way", "id": 889992135, "center": {"lat": -40.0511782, "lon": -70.0832553}, "nodes": [8272767728, 8272767729, 8272446372, 8272446374, 3812896895, 3812896897, 8272767728], "tags": {"addr:city": "Piedra del \u00c1guila", "addr:housenumber": "S/N", "addr:postcode": "Q8315", "addr:street": "Los Loncos", "amenity": "hospital", "emergency": "yes", "healthcare": "hospital", "name": "Hospital de \u00c1rea Piedra del \u00c1guila", "operator": "Ministerio de Salud - Gobierno de la Provincia de Neuqu\u00e9n", "operator:type": "public"}}, {"type": "way", "id": 931828431, "center": {"lat": -40.8211667, "lon": -73.3361248}, "nodes": [8638671049, 8638671050, 8638671051, 8638671052, 8638671053, 8638671054, 8638671049], "tags": {"addr:city": "Riachuelo", "addr:street": "Barros Arana", "amenity": "hospital", "healthcare": "hospital", "name": "Cescof Riachuelo"}}, {"type": "way", "id": 990086682, "center": {"lat": -42.8831209, "lon": -73.4739362}, "nodes": [9149466927, 9149466928, 9149466929, 9149466930, 9149466927], "tags": {"addr:city": "Quilen", "addr:housenumber": "519", "addr:street": "Jos\u00e9 Manuel Andrade", "amenity": "hospital", "healthcare": "hospital", "name": "Hospital Comunitario de Queil\u00e9n"}}, {"type": "way", "id": 990090197, "center": {"lat": -40.8026743, "lon": -73.2161742}, "nodes": [9149504594, 9149504595, 9149504596, 9149504597, 9149504594], "tags": {"addr:street": "Arturo Prat", "amenity": "hospital", "healthcare": "hospital", "name": "Hospital de Rio Negro", "nohousenumber": "yes", "wikidata": "Q93743972"}}, {"type": "way", "id": 1012111607, "center": {"lat": -42.3191109, "lon": -73.5562005}, "nodes": [9337518687, 9337518688, 9337518689, 9337518690, 9337518687], "tags": {"amenity": "hospital", "healthcare": "hospital", "name": "Posta de Salud Rural Quetalco"}}, {"type": "way", "id": 1013229330, "center": {"lat": -41.1218709, "lon": -70.7220131}, "nodes": [9347890073, 9347890077, 8260196922, 8260196921, 9347890074, 9347890081, 9347890075, 9347890076, 9347890082, 9347890073], "tags": {"addr:city": "Pilcaniyeu", "addr:housenumber": "S/N", "addr:postcode": "R8412", "addr:street": "Los Choiques", "amenity": "hospital", "emergency": "yes", "healthcare": "hospital", "name": "Hospital de \u00c1rea Programa Pilcaniyeu", "operator": "Ministerio de Salud - Gobierno de R\u00edo Negro", "operator:type": "public", "phone": "+54 294 449-7527", "wikidata": "Q94704918"}}, {"type": "way", "id": 1013229337, "center": {"lat": -41.0340681, "lon": -70.2661707}, "nodes": [9347890090, 9347890118, 9347890119, 9347890115, 9347890114, 9347890091, 9347890092, 9347890095, 9347890093, 9347890094, 9347890096, 9347890090], "tags": {"addr:city": "Comallo", "addr:housenumber": "S/N", "addr:postcode": "R8416", "addr:street": "Avenida Libertad", "amenity": "hospital", "emergency": "yes", "healthcare": "hospital", "name": "Hospital de \u00c1rea Programa Comallo \"Doctora Nelly Crobatto\"", "operator": "Ministerio de Salud - Gobierno de R\u00edo Negro", "operator:type": "public", "phone": "+54 294 049-3045", "wikidata": "Q94704890"}}, {"type": "way", "id": 1096305347, "center": {"lat": -41.4838849, "lon": -72.8541556}, "nodes": [10039521360, 10039521361, 10039521362, 10039521363, 10039521360], "tags": {"amenity": "hospital", "healthcare": "hospital"}}, {"type": "way", "id": 1128792602, "center": {"lat": -47.2553621, "lon": -72.5703367}, "nodes": [10347861998, 10347861997, 10347861996, 10347861995, 10347861998], "tags": {"addr:city": "Cochrane", "addr:street": "Bernardo O'Higgins", "amenity": "hospital", "healthcare": "hospital", "name": "Hospital de Cochrane", "nohousenumber": "yes"}}, {"type": "way", "id": 1133564348, "center": {"lat": -41.8659833, "lon": -73.8162854}, "nodes": [10568655984, 10568655985, 10568655986, 10568655987, 10568655988, 10568655989, 10568655990, 10568655991, 10568655984], "tags": {"amenity": "hospital", "emergency": "yes", "healthcare": "hospital", "name": "Servicio de Alta Resolutividad (SAR)"}}, {"type": "way", "id": 1194189193, "center": {"lat": -45.4076, "lon": -72.6842738}, "nodes": [11084973037, 11084973038, 11084973041, 11084973042, 11084973043, 11084973039, 11084973040, 11084973037], "tags": {"addr:city": "Puerto Ays\u00e9n", "addr:housenumber": "175", "addr:street": "Yussef Laibe", "amenity": "hospital", "healthcare": "hospital", "name": "Cl\u00ednica del Trabajador ACHS Puerto Ays\u00e9n"}}]}