{"version": 0.6, "generator": "Overpass API 0.7.61.5 4133829e", "osm3s": {"timestamp_osm_base": "2023-10-31T20:47:26Z", "copyright": "The data included in this document is from www.openstreetmap.org. The data is made available under ODbL."}, "elements": [{"type": "node", "id": 281145522, "lat": -41.3019041, "lon": 174.7798775, "tags": {"addr:city": "Wellington", "addr:housenumber": "17", "addr:street": "Adelaide Road", "addr:suburb": "Mount Cook", "amenity": "hospital", "building:flats": "12", "healthcare": "hospital", "name": "Accident and Urgent Medical Centre", "opening_hours": "24/7", "phone": "+64 4 384 4944", "ref:linz:address_id": "3114287", "website": "https://www.wamc.co.nz/"}}, {"type": "node", "id": 1225250003, "lat": -43.5486781, "lon": 172.5893342, "tags": {"amenity": "hospital", "healthcare": "hospital", "name": "Forensic Community Team"}}, {"type": "node", "id": 2172305323, "lat": -43.7612697, "lon": 172.2992923, "tags": {"addr:full": "57-59 High Street Leeston", "amenity": "hospital", "contact:fax": "+64 3 324 3012", "contact:phone": "+64 3 324 3850", "designation": "Medical Centre", "emergency": "no", "name": "Leeston Medical Centre", "source": "Local Knowledge", "website": "http://www.leestonmc.co.nz/"}}, {"type": "node", "id": 2740957987, "lat": -43.510655, "lon": 172.6184237, "tags": {"addr:city": "Christchurch", "addr:country": "NZ", "addr:housenumber": "249", "addr:postcode": "8140", "addr:street": "Papanui Road", "amenity": "hospital", "healthcare": "hospital", "name": "St George's Hospital", "wikidata": "Q79596822"}}, {"type": "node", "id": 2740957995, "lat": -43.5253525, "lon": 172.6806349, "tags": {"addr:city": "Christchurch", "addr:country": "NZ", "addr:housenumber": "288", "addr:postcode": "8062", "addr:street": "Woodham Road", "addr:suburb": "Linwood", "amenity": "hospital", "healthcare": "hospital", "name": "Rosewood Rest Home & Hospital", "ref:linz:address_id": "1571021"}}, {"type": "node", "id": 2741029672, "lat": -43.5471164, "lon": 172.5874578, "tags": {"amenity": "hospital", "healthcare": "hospital", "name": "Regional Forensic Psychiatric Service"}}, {"type": "node", "id": 2741029674, "lat": -43.5468751, "lon": 172.5896502, "tags": {"amenity": "hospital", "healthcare": "hospital", "name": "Te Whare Mauri Ora", "name:mi": "Te Whare Mauri Ora"}}, {"type": "node", "id": 2741029676, "lat": -43.549189, "lon": 172.5955491, "tags": {"addr:city": "Christchurch", "addr:country": "NZ", "addr:postcode": "8024", "addr:street": "Linden Grove Avenue", "amenity": "hospital", "healthcare": "hospital", "name": "Youth Specialty Services"}}, {"type": "node", "id": 4852747857, "lat": -43.5216188, "lon": 172.6415322, "tags": {"addr:city": "Christchurch", "addr:country": "NZ", "addr:housenumber": "401", "addr:postcode": "8013", "addr:street": "Madras Street", "amenity": "hospital", "contact:phone": "+64 3 365 7777", "emergency": "yes", "healthcare": "hospital", "name": "24 Hour Surgery", "opening_hours": "24/7", "operator": "Pegasus Health", "operator:type": "private", "website": "https://www.24hoursurgery.co.nz/"}}, {"type": "node", "id": 7642775684, "lat": -41.1472, "lon": 174.835, "tags": {"amenity": "hospital", "description": "Regional Psychogeriatric Inpatient Unit.", "name": "Te Whare Ra Uta", "name:mi": "Te Whare Ra Uta"}}, {"type": "node", "id": 7642810371, "lat": -41.1411849, "lon": 174.8298475, "tags": {"amenity": "hospital", "name": "Rangipapa Forensic Psychiatry Inpatient Unit"}}, {"type": "node", "id": 7700945429, "lat": -43.5343328, "lon": 172.6254892, "tags": {"addr:city": "Christchurch", "addr:country": "NZ", "addr:housenumber": "2", "addr:postcode": "8011", "addr:street": "Riccarton Avenue", "addr:suburb": "Christchurch Central", "amenity": "hospital", "emergency": "yes", "healthcare": "hospital", "healthcare:speciality": "general", "name": "Christchurch Public Hospital", "operator": "CDHB", "operator:type": "public", "website": "https://www.cdhb.health.nz/hospitals-health-facilities/christchurch-hospital/"}}, {"type": "node", "id": 10152863850, "lat": -43.5472646, "lon": 172.5916981, "tags": {"addr:city": "Christchurch", "addr:country": "NZ", "addr:housenumber": "65", "addr:street": "Sylvan Street", "amenity": "hospital", "healthcare": "hospital", "name": "Hillmorton Hospital"}}, {"type": "way", "id": 4830820, "center": {"lat": -43.533755, "lon": 172.6258307}, "nodes": [31064794, 679719217, 4896105021, 31064795, 679716670, 679716658, 679716659, 31064796, 679718763, 4863778760, 6401811104, 31064787, 9653028628, 9653028634, 681283371, 681283374, 31064788, 31064790, 4896112870, 298074586, 31064794], "tags": {"alt_name": "Hospital, Chistchuch", "amenity": "hospital", "emergency": "yes", "healthcare": "hospital", "name": "Christchurch Public Hospital", "name:ru": "\u0413\u043e\u0441\u043f\u0438\u0442\u0430\u043b\u044c \u041a\u0440\u0430\u0439\u0441\u0442\u0447\u0451\u0440\u0447\u0430", "toilets:wheelchair": "yes", "url": "http://www.cdhb.govt.nz/chc/", "wheelchair": "yes", "wikipedia": "en:Christchurch Hospital"}}, {"type": "way", "id": 18877018, "center": {"lat": -41.1465273, "lon": 174.8357534}, "nodes": [195220148, 2293522487, 2293522500, 195220149, 195220150, 195220152, 2294553117, 2294553116, 2294553115, 7413789269, 7413789270, 7413789271, 2294553110, 7413789272, 7413789273, 2294553104, 7413789274, 7246221910, 7180445409, 7413789275, 7413789276, 7413789277, 7413789278, 7413789279, 7413789280, 7413789282, 7413789281, 195220155, 195220157, 195220159, 195220160, 195220161, 195220163, 2293522307, 195220164, 195220166, 195220148], "tags": {"addr:city": "Porirua", "addr:housenumber": "16", "addr:postcode": "5022", "addr:street": "Hospital Drive", "amenity": "hospital", "emergency": "no", "healthcare": "hospital", "name": "Kenepuru Community Hospital", "opening_hours": "24/7", "phone": "+64 4 385 5999"}}, {"type": "way", "id": 27186180, "center": {"lat": -43.5712833, "lon": 172.6212316}, "nodes": [298299916, 9655520706, 9655520705, 9655520704, 4411397213, 9655520703, 7468815568, 7468815567, 4411397268, 529086165, 7468815560, 7468815555, 529086166, 9655520877, 7468815559, 9655520878, 9655520880, 9655520879, 529086168, 298299924, 529086169, 298299954, 7662496593, 7662496592, 7662496591, 298299955, 9914092043, 9914092042, 9914092041, 298299957, 4411397069, 298300218, 298299930, 298300214, 298300219, 298300216, 298299916], "tags": {"amenity": "hospital", "emergency": "no", "healthcare": "hospital", "name": "Princess Margaret Hospital", "wikidata": "Q7244694"}}, {"type": "way", "id": 28598311, "center": {"lat": -43.5347486, "lon": 172.5749714}, "nodes": [5554350600, 314179729, 314179730, 9999401609, 6138428150, 6451552807, 6451552806, 3353524607, 6451552805, 5554350605, 8323104845, 8323104846, 8323104847, 5554350600], "tags": {"amenity": "hospital", "healthcare": "hospital", "name": "Rannerdale War Vets Home", "wheelchair": "yes"}}, {"type": "way", "id": 46980439, "center": {"lat": -41.2872031, "lon": 173.2721117}, "nodes": [599472690, 599472691, 11005443693, 599472693, 11005443695, 11005443696, 11005443694, 11005443697, 599472694, 11004958258, 11004958249, 1549464665, 1549464717, 11004958196, 1549464663, 599472690], "tags": {"amenity": "hospital", "emergency": "yes", "healthcare": "hospital", "internet_access": "wlan", "name": "Nelson Hospital", "opening_hours": "24/7", "wikidata": "Q99540119"}}, {"type": "way", "id": 48262836, "center": {"lat": -43.8945002, "lon": 171.7467345}, "nodes": [613270519, 613270521, 2446998921, 613270518, 297193693, 613270515, 7802193719, 613270519], "tags": {"amenity": "hospital", "name": "Ashburton Hospital"}}, {"type": "way", "id": 61349071, "center": {"lat": -43.4801509, "lon": 172.6849451}, "nodes": [766156961, 1184685493, 1185539803, 9104303894, 766156962, 1184715831, 1185539782, 1184717018, 766156964, 5313301454, 766156965, 1184862174, 766156966, 766156967, 2494597023, 2495846489, 2495846490, 2495846485, 2495846483, 4970002377, 766156968, 8945572345, 8945572344, 8945572343, 766156969, 766156970, 5109082307, 766156961], "tags": {"addr:city": "Christchurch", "addr:country": "NZ", "addr:housenumber": "300", "addr:postcode": "8083", "addr:street": "Burwood Road", "alt_name": "Hospital, Burwood", "amenity": "hospital", "emergency": "no", "healthcare": "hospital", "name": "Burwood Hospital", "wikidata": "Q30254177"}}, {"type": "way", "id": 72437397, "center": {"lat": -41.3089116, "lon": 174.7804116}, "nodes": [860115700, 860115679, 5432445734, 860115681, 2308058066, 860115685, 860115686, 860115687, 2308058031, 2308058010, 2308058038, 860115688, 860115691, 2308057936, 2715895453, 5434385811, 7384170576, 7384170575, 7384170574, 7384170573, 7384170572, 7384170571, 7384170570, 5434385817, 5434385816, 7384170578, 7384170579, 7384170577, 2715895455, 5434385815, 5434385814, 5434385813, 5434385812, 4435198109, 2715895459, 2715895461, 2715895462, 2715895421, 860115696, 860115697, 860115698, 2308058057, 5432445730, 2308058061, 2308058058, 2308058068, 8848419385, 860115700], "tags": {"addr:city": "Wellington", "addr:housenumber": "39", "addr:street": "Riddiford Street", "alt_name": "Wellington Hospital", "amenity": "hospital", "emergency": "yes", "healthcare": "hospital", "name": "Wellington Regional Hospital", "operator": "Capital and Coast District Health Board", "website": "https://www.ccdhb.org.nz/", "wheelchair": "yes", "wikidata": "Q7981419"}}, {"type": "way", "id": 97297829, "center": {"lat": -40.948899, "lon": 175.6748466}, "nodes": [1126973332, 1661871981, 1126973226, 1126973364, 1126973331, 1126973283, 1126973296, 1126973293, 1126973350, 1126973275, 1126973272, 2102312809, 1126973363, 3774614999, 2102312811, 2102312804, 1126973308, 1126973330, 1126973302, 1126973310, 1126973326, 1126973237, 1126973224, 1661871967, 1126973270, 1126973261, 1126973332], "tags": {"amenity": "hospital", "emergency": "yes", "healthcare": "hospital", "name": "Wairarapa Hospital"}}, {"type": "way", "id": 103749476, "center": {"lat": -45.8694516, "lon": 170.5087246}, "nodes": [5665101076, 5665101077, 5665101078, 5903424413, 5903424461, 5903424462, 5665101103, 5665101106, 5665101105, 5665101104, 5903424412, 5660051808, 5660051809, 5660051810, 5660051800, 5660051801, 5665101107, 5665101110, 5665101109, 5665101108, 5903424402, 5903424403, 5903424385, 5903424184, 5903424389, 5665101101, 5836281246, 5903424476, 5665101100, 5665101096, 5903424475, 5903424448, 5903424457, 5665101071, 5903424455, 5903424454, 5903424439, 5903424440, 5903424443, 5903424444, 5903424447, 5903424436, 5903424433, 5903424434, 5903424427, 5903424426, 5903424423, 5903424422, 5665101076], "tags": {"amenity": "hospital", "emergency": "yes", "healthcare": "hospital", "name": "Dunedin Hospital", "wikidata": "Q5314987", "wikipedia": "en:Dunedin Public Hospital"}}, {"type": "way", "id": 106249894, "center": {"lat": -43.5254711, "lon": 172.6719901}, "nodes": [1223054469, 1223053738, 1223054302, 1223053937, 1223054408, 1223053780, 1223054469], "tags": {"addr:city": "Christchurch", "addr:country": "NZ", "addr:housenumber": "160", "addr:street": "Woodham Road", "amenity": "hospital", "healthcare": "hospital", "name": "St John"}}, {"type": "way", "id": 133266731, "center": {"lat": -45.1290106, "lon": 170.1106248}, "nodes": [1466778817, 7814160469, 1466778816, 1466778809, 1466778810, 1466778808, 1466778807, 1466778806, 1466778817], "tags": {"amenity": "hospital", "healthcare": "hospital"}}, {"type": "way", "id": 150466205, "center": {"lat": -42.4636252, "lon": 171.1926158}, "nodes": [1633763486, 7663622937, 7663622936, 7663622935, 7663622934, 1633762558, 1633762400, 1633762476, 1633762741, 1633762786, 1633763340, 4005419760, 1633763466, 1633763476, 1633763486], "tags": {"amenity": "hospital", "healthcare": "hospital", "name": "Te Nikau Hospital & Health Centre"}}, {"type": "way", "id": 150756739, "center": {"lat": -45.882847, "lon": 170.3474188}, "nodes": [1636418528, 1636418527, 1636418525, 1636418524, 1636418526, 7473194782, 7473194781, 7473194783, 7473194780, 1636418531, 2450023985, 2450023993, 1636418528], "tags": {"amenity": "hospital", "emergency": "no", "healthcare": "hospital", "name": "Mossbrae Healthcare Centre"}}, {"type": "way", "id": 158689394, "center": {"lat": -45.8467341, "lon": 170.5362726}, "nodes": [1708444765, 6513055679, 1708444764, 1302992482, 1708444763, 1708444761, 1708444760, 1708444757, 1708444756, 6513055678, 6513055676, 6513055675, 6512987332, 1707975761, 2899538937, 6512987338, 6513055680, 1708444765], "tags": {"amenity": "hospital", "healthcare": "hospital", "name": "Ross Home & Hospital"}}, {"type": "way", "id": 167678438, "center": {"lat": -41.2037707, "lon": 174.9265094}, "nodes": [1790565050, 1790565042, 1790565043, 1790565052, 1790565053, 1790565051, 1790565054, 1790565068, 1790565064, 1790565067, 1790565065, 1790565073, 1790565072, 1790565074, 1790565071, 1790565055, 1790565056, 1790565046, 1790565048, 1790565044, 1790565045, 1790565049, 1790565050], "tags": {"amenity": "hospital", "building": "yes", "emergency": "no", "name": "Boulcott Hospital"}}, {"type": "way", "id": 168851007, "center": {"lat": -42.404708, "lon": 173.6816157}, "nodes": [1800394962, 3985484083, 1800394957, 1800394949, 6720126182, 6720143885, 1800394962], "tags": {"addr:city": "Kaikoura", "addr:housenumber": "25", "addr:postcode": "7300", "addr:street": "Deal Street", "amenity": "hospital", "emergency": "yes", "healthcare": "hospital", "healthcare:speciality": "general;maternity;geriatrics", "name": "Kaikoura Hospital", "operator": "Canterbury District Health Board", "operator:type": "government_facility-public", "phone": "+64 3 319 7760", "website": "https://www.cdhb.health.nz/Hospitals-Services/hospitals/kaikoura-hospital/Pages/default.aspx"}}, {"type": "way", "id": 172472211, "center": {"lat": -40.3387997, "lon": 175.619826}, "nodes": [1833777250, 6976330700, 1833777268, 1833777266, 5731861524, 1833777270, 9002349035, 6976330699, 2210850314, 1833777261, 2210850325, 2210850330, 1833777179, 1833777201, 1833776919, 1833776884, 3710309053, 3710309041, 1833776858, 1833776802, 10034758489, 1833776774, 1833777250], "tags": {"amenity": "hospital", "emergency": "yes", "healthcare": "hospital", "name": "Palmerston North Hospital", "website": "http://www.midcentraldhb.govt.nz/", "wikidata": "Q30281259", "wikipedia": "en:Palmerston North Hospital"}}, {"type": "way", "id": 182519420, "center": {"lat": -40.2173165, "lon": 175.5701621}, "nodes": [1928798126, 1928798133, 1928798143, 1928798145, 1928798147, 1928798149, 1928798150, 1928798151, 1928798155, 1928798160, 1928798166, 1928798169, 1928798171, 1928798164, 1928798163, 1928798159, 1928798178, 1928798176, 1928798144, 1928798140, 1928798134, 1928798115, 1928798126], "tags": {"amenity": "hospital", "landuse": "healthcare", "name": "Feilding Health Centre"}}, {"type": "way", "id": 203229384, "center": {"lat": -41.2047889, "lon": 174.9242935}, "nodes": [2132105199, 2132105214, 2132105202, 2132105194, 2132105195, 2132105201, 2132105205, 2132105207, 2132105200, 3959294339, 2132105211, 5403259076, 9950796491, 3959294300, 2132105196, 3959293981, 2132105206, 2132105193, 3623073149, 2132105203, 2132105204, 2132105210, 2132105213, 2132105208, 2132105212, 2132105209, 2132105198, 2132105199], "tags": {"addr:city": "Lower Hutt", "addr:housenumber": "638", "addr:postcode": "5010", "addr:street": "High Street", "amenity": "hospital", "emergency": "yes", "healthcare": "hospital", "name": "Hutt Hospital", "phone": "+64 4 566 6999", "website": "https://www.huttvalleydhb.org.nz/content/default.html", "wheelchair": "yes", "wikidata": "Q30279686"}}, {"type": "way", "id": 210198746, "center": {"lat": -41.535975, "lon": 173.9438187}, "nodes": [2203024579, 2203024570, 2203024569, 2304937515, 2203024555, 2203024558, 2203024556, 2203024552, 2203024548, 2203024550, 2203024551, 4014351902, 4014351914, 4014351913, 4014351917, 8847851123, 8847851122, 8847851121, 2203024579], "tags": {"amenity": "hospital", "healthcare": "hospital", "name": "Wairau Hospital", "wikidata": "Q96749364"}}, {"type": "way", "id": 220083060, "center": {"lat": -40.9101089, "lon": 175.0073334}, "nodes": [2292045489, 5606156840, 2292045484, 2292045468, 2292045473, 2292045469, 2292045443, 3957852055, 3957852088, 2292045489], "tags": {"addr:city": "Paraparaumu", "addr:country": "NZ", "addr:housenumber": "35", "addr:postcode": "5032", "addr:street": "Warrimoo Street", "amenity": "hospital", "healthcare": "hospital", "name": "Kapiti Health Centre", "phone": "+64 4 296 4100"}}, {"type": "way", "id": 221801422, "center": {"lat": -41.3094343, "lon": 174.7755353}, "nodes": [2308057954, 2308058073, 2308058064, 2308057934, 2590009716, 2308057954], "tags": {"addr:city": "Wellington", "addr:housenumber": "90", "addr:street": "Hanson Street", "addr:suburb": "Newtown", "amenity": "hospital", "emergency": "no", "healthcare": "hospital", "name": "Southern Cross Hospital", "ref:linz:address_id": "366888", "website": "https://hospitals.southerncross.co.nz/our-hospitals/wellington"}}, {"type": "way", "id": 222118929, "center": {"lat": -41.3171023, "lon": 174.7790685}, "nodes": [2310897489, 7093897042, 2310897553, 2087942002, 2310897559, 2310897490, 2310897489], "tags": {"amenity": "hospital", "name": "Wakefield Hospital", "wikidata": "Q30281073"}}, {"type": "way", "id": 224721081, "center": {"lat": -41.806162, "lon": 172.3284018}, "nodes": [2335137938, 2335137941, 7944668060, 2335137841, 2335137839, 2335137938], "tags": {"amenity": "hospital", "name": "Murchison Hospital"}}, {"type": "way", "id": 236932714, "center": {"lat": -44.4088766, "lon": 171.2563371}, "nodes": [2448815332, 2448815353, 2448815343, 6510845556, 2448815215, 6510845462, 6510845463, 4139647618, 2448815209, 6512898825, 6512898826, 2448815332], "tags": {"alt_name": "Timaru Hospital", "amenity": "hospital", "healthcare": "hospital", "name": "Timaru Public Hospital"}}, {"type": "way", "id": 258588491, "center": {"lat": -41.1165779, "lon": 173.0138644}, "nodes": [2639212660, 2639212661, 2639212669, 2639212662, 1663786261, 321553310, 2639212663, 4218375380, 2639212660], "tags": {"addr:city": "Motueka", "addr:housenumber": "6", "addr:postcode": "7120", "addr:street": "Edgewood Crescent", "addr:suburb": "Motueka", "amenity": "hospital", "healthcare": "hospital", "landuse": "residential", "name": "Woodlands Rest Home & Village", "ref:linz:address_id": "1384122"}}, {"type": "way", "id": 258593039, "center": {"lat": -41.1297099, "lon": 173.0080844}, "nodes": [2639300812, 2639300813, 2639300815, 4218410755, 2639300816, 2639300817, 8930286764, 8930286763, 4218410744, 2639300820, 2639300826, 2639300827, 2639300828, 2639300830, 2639300812], "tags": {"addr:city": "Motueka", "addr:housenumber": "15a", "addr:postcode": "7120", "addr:street": "Courtney Street", "amenity": "hospital", "healthcare": "hospital", "name": "Jack Inglis Friendship Hospital"}}, {"type": "way", "id": 274200236, "center": {"lat": -43.5262676, "lon": 172.6377908}, "nodes": [2789663627, 5042410522, 5042410523, 2789663628, 2740981710, 5042410524, 5042410525, 2789663631, 2789663632, 2789663633, 2789663627], "tags": {"addr:city": "Christchurch", "addr:country": "NZ", "addr:housenumber": "132", "addr:postcode": "8013", "addr:street": "Peterborough Street", "addr:suburb": "Christchurch Central", "amenity": "hospital", "building": "commercial", "building:levels": "3", "emergency": "no", "healthcare": "hospital", "name": "Forte Health", "phone": "+64 3 365 8333", "roof:levels": "0", "smoking": "no", "website": "https://www.fortehealth.co.nz/"}}, {"type": "way", "id": 280674491, "center": {"lat": -41.1433753, "lon": 174.8413474}, "nodes": [7243679062, 7243679064, 2847462860, 7180445391, 2847462673, 2847462824, 2847462842, 5953912276, 2847463028, 2847463297, 2847463476, 206111728, 206111729, 7243679062], "tags": {"amenity": "hospital", "healthcare": "hospital"}}, {"type": "way", "id": 280674514, "center": {"lat": -41.1407607, "lon": 174.8323127}, "nodes": [2847462379, 2847462375, 2847462382, 2847462413, 2847462405, 2847462393, 2847462344, 2847462329, 5068396871, 2847462347, 2847462359, 2847462352, 2847462332, 2847462333, 7180445418, 2847462368, 2847462436, 2847462531, 2847462561, 2847462620, 8709192092, 8709192093, 2847462690, 7180445419, 196673490, 2847462867, 2847463020, 2847463051, 7180445411, 2847463351, 2847463268, 2847463276, 2847463261, 2847463239, 2847463071, 2847463007, 2847462656, 2847462609, 2847462586, 2847462571, 2847462570, 2847462574, 2847462584, 2847462650, 2847462655, 2847462803, 2847462821, 2847462699, 2847462811, 2847462810, 2847462684, 2847462679, 2847462809, 2847462576, 2847462387, 2847462379], "tags": {"amenity": "hospital", "healthcare": "hospital"}}, {"type": "way", "id": 302835581, "center": {"lat": -43.3028041, "lon": 172.1921441}, "nodes": [3071129416, 3071127052, 3071129467, 3071129412, 3071129341, 3071129426, 3071129438, 3071129416], "tags": {"amenity": "hospital"}}, {"type": "way", "id": 309033277, "center": {"lat": -41.3406519, "lon": 173.1997335}, "nodes": [3143439897, 4127187692, 3143439894, 3143439901, 10297726921, 4127187766, 10297726920, 4127187785, 3143439917, 3143439916, 10297726934, 4127187777, 10297726933, 3143439911, 3143439904, 3143439898, 3143439897], "tags": {"addr:city": "Nelson", "addr:housenumber": "5", "addr:street": "Alexandra Grove", "amenity": "hospital", "healthcare": "hospital", "name": "Alexandra Hospital", "operator": "Te Whatu Ora", "operator:type": "public", "website": "https://www.nmdhb.govt.nz/hospitals-and-community-services/hospitals/alexandra-hospital/"}}, {"type": "way", "id": 367922750, "center": {"lat": -40.3467493, "lon": 175.6435452}, "nodes": [3717913249, 3717913224, 3717913202, 3717913185, 3717913157, 3717913088, 3717913087, 3717913146, 3717913199, 3717913267, 3717913276, 3717913259, 3717913249], "tags": {"amenity": "hospital"}}, {"type": "way", "id": 382207313, "center": {"lat": -45.8589532, "lon": 170.4730133}, "nodes": [3854007246, 5761109009, 3854007253, 3854007268, 3854007330, 3854007333, 3854007341, 3854007310, 5761109010, 5765724189, 5761109012, 3854007369, 5765724191, 5765724190, 1308476240, 4952106706, 1308476324, 1709347272, 5767731026, 5765724252, 1311955271, 1709529187, 3854007462, 1709529193, 5761108868, 5761108869, 1709529185, 5761108870, 1709529175, 5761108871, 5761108872, 5761108873, 5765725060, 3854007401, 5767730760, 5761108867, 3854007365, 3854007337, 5761108875, 3854007354, 5761108874, 3854007328, 3854007285, 3854007246], "tags": {"amenity": "hospital", "healthcare": "hospital", "name": "Wakari Hospital", "wikidata": "Q7960821"}}, {"type": "way", "id": 382207375, "center": {"lat": -45.8613332, "lon": 170.4990794}, "nodes": [3854007786, 3854007769, 3854007764, 3854007650, 3854007682, 3854007711, 3854007740, 3854007778, 3854007784, 3854007803, 3854007833, 3854007851, 3854007856, 3854007844, 3854007841, 3854007843, 3854007957, 3854007855, 3854007804, 3854007786], "tags": {"amenity": "hospital", "name": "Mercy Hospital", "wikidata": "Q101096063"}}, {"type": "way", "id": 397041951, "center": {"lat": -41.2592063, "lon": 174.7668689}, "nodes": [3998721378, 3998721345, 3998721327, 3998721313, 3998721299, 3998721274, 3998721188, 3998721173, 8229038951, 3998721184, 8229038956, 3998721360, 3998721366, 3998721392, 3998721387, 3998721371, 3998721414, 8229038958, 8229038957, 3998721384, 3998721378], "tags": {"addr:city": "Wellington", "addr:housenumber": "98", "addr:street": "Churchill Drive", "amenity": "hospital", "emergency": "no", "healthcare": "hospital", "name": "Bowen Hospital"}}, {"type": "way", "id": 397441644, "center": {"lat": -41.7503793, "lon": 171.6070769}, "nodes": [4002356531, 1195211597, 4002356379, 4002477973, 4002356495, 4002477988, 4002356531], "tags": {"amenity": "hospital"}}, {"type": "way", "id": 406896482, "center": {"lat": -43.4872058, "lon": 172.1176618}, "nodes": [4089411079, 4089411035, 4089411040, 4089411190, 4089411079], "tags": {"amenity": "hospital", "healthcare": "hospital", "name": "Darfield Hospital"}}, {"type": "way", "id": 408761882, "center": {"lat": -44.0825464, "lon": 171.2490117}, "nodes": [7802078619, 7802078617, 7886791067, 7802078623, 7802078624, 4106901601, 4106901606, 4106901604, 4106901608, 4106901600, 7802078625, 4106901590, 4106901588, 4106901593, 4106901595, 7802078619], "tags": {"amenity": "hospital", "emergency": "yes", "healthcare": "hospital", "name": "McKenzie Hospital"}}, {"type": "way", "id": 412567188, "center": {"lat": -44.3943158, "lon": 171.2426233}, "nodes": [4139647093, 4139647061, 6536415088, 4139647060, 6536415095, 6536415094, 6536415093, 4139647092, 4139647093], "tags": {"amenity": "hospital", "healthcare": "hospital", "name": "Bidwell Hospital"}}, {"type": "way", "id": 420425178, "center": {"lat": -43.6352061, "lon": 172.4891672}, "nodes": [4203532738, 4203532752, 4203532785, 4203532755, 4203532734, 4203532738], "tags": {"amenity": "hospital", "healthcare": "hospital"}}, {"type": "way", "id": 441412352, "center": {"lat": -43.5108706, "lon": 172.6225054}, "nodes": [4391603653, 4391603668, 4391603709, 4391603715, 4391603735, 4391603691, 4391603656, 4391603662, 4391603653], "tags": {"addr:city": "Christchurch", "addr:country": "NZ", "addr:housenumber": "24", "addr:postcode": "8014", "addr:street": "McDougall Avenue", "addr:suburb": "St Albans", "amenity": "hospital", "healthcare": "hospital", "name": "Nurse Maude Hospital", "ref:linz:address_id": "211868"}}, {"type": "way", "id": 441412354, "center": {"lat": -43.5082414, "lon": 172.6256783}, "nodes": [4391603632, 4391603620, 6872644708, 6872644709, 6872644711, 6872644710, 4391603553, 4391603583, 4391603603, 4391603632], "tags": {"addr:city": "Christchurch", "addr:country": "NZ", "addr:housenumber": "52", "addr:postcode": "8014", "addr:street": "Browns Road", "amenity": "hospital", "healthcare": "hospital", "name": "Silverdale Hospital"}}, {"type": "way", "id": 442561237, "center": {"lat": -43.5106751, "lon": 172.6185052}, "nodes": [4402383460, 4402383339, 6824465969, 6824465970, 6824465972, 6824465971, 6824465968, 4402383317, 4402383296, 4402383272, 4402383297, 9141065280, 4402383254, 4402383308, 9141065282, 4402383460], "tags": {"addr:city": "Christchurch", "addr:country": "NZ", "addr:housenumber": "249", "addr:postcode": "8140", "addr:street": "Papanui Road", "amenity": "hospital", "emergency": "no", "healthcare": "hospital"}}, {"type": "way", "id": 494633277, "center": {"lat": -43.533748, "lon": 172.6252379}, "nodes": [4863778765, 7183386539, 7182849109, 7194927639, 4896118803, 4896118802, 4896118801, 5607338939, 4863778786, 7183386485, 4863778761, 7183386490, 6028920927, 4896118799, 4896118806, 4863778773, 9650817504, 7194927605, 5607338936, 6113109239, 7182849093, 4691599570, 4691599571, 7183386371, 1080294746, 4582378988, 4582379690, 6200352289, 6200352288, 4582379694, 4582379696, 4582379699, 4582436089, 298074574, 4582436095, 4863778762, 4863778774, 298074577, 298074579, 11240678007, 11240690798, 11240690797, 11240690796, 1649805904, 1649805908, 4863778789, 4863778766, 4863778778, 4863778787, 7183386550, 4863778763, 4896118805, 7182849107, 4863778775, 7182849108, 7183386535, 4863778784, 4896118804, 4863778765], "tags": {"addr:city": "Christchurch", "addr:country": "NZ", "addr:postcode": "8011", "addr:street": "Riccarton Avenue", "addr:suburb": "Christchurch Central", "amenity": "hospital", "emergency": "yes", "healthcare": "hospital", "name": "Christchurch Hospital", "opening_hours": "24/7", "phone": "+64 3 364 0600", "website": "https://www.cdhb.health.nz/Hospitals-Services/hospitals/Christchurch-Hospital/Pages/default.aspx", "wikidata": "Q1278898"}}, {"type": "way", "id": 516592466, "center": {"lat": -43.5357587, "lon": 172.6258974}, "nodes": [5042717123, 5042717124, 7502061547, 7183547797, 7183547796, 7502061548, 5042717125, 5042717126, 10679998350, 10679998356, 5042717127, 5042717128, 10679998354, 5042717129, 5042717123], "tags": {"amenity": "hospital", "emergency": "no", "healthcare": "hospital"}}, {"type": "way", "id": 756110645, "center": {"lat": -43.2894724, "lon": 172.5906795}, "nodes": [7062134811, 4117673242, 7062134814, 7062134813, 7062134812, 7062134811], "tags": {"amenity": "hospital", "emergency": "no", "healthcare": "hospital", "name": "Rangiora Hospital"}}, {"type": "way", "id": 788089644, "center": {"lat": -43.521313, "lon": 172.6310687}, "nodes": [7368202113, 7368202114, 7368202115, 7368202116, 7368202117, 7368202118, 7368202119, 7368202120, 7368202121, 7368202122, 7196337140, 7196337139, 7368202123, 7199453524, 7368202113], "tags": {"addr:city": "Christchurch", "addr:country": "NZ", "addr:housenumber": "440", "addr:street": "Montreal Street", "amenity": "hospital", "emergency": "no", "healthcare": "hospital", "name": "Child Development Service", "website": "https://cdhb.health.nz/childdevelopmentservice"}}, {"type": "way", "id": 788092805, "center": {"lat": -43.5348927, "lon": 172.6270115}, "nodes": [7368262627, 7368262628, 5607338941, 7368262629, 7368262630, 7368262627], "tags": {"amenity": "hospital", "healthcare": "hospital", "name": "Christchurch Outpatients"}}, {"type": "way", "id": 915275636, "center": {"lat": -43.6352061, "lon": 172.4891672}, "nodes": [4203532734, 4203532738, 4203532752, 8495786951, 4203532785, 4203532755, 4203532734], "tags": {"amenity": "hospital", "healthcare": "hospital", "name": "Friends of Lincoln Maternity Hospital"}}, {"type": "way", "id": 958819778, "center": {"lat": -41.2787846, "lon": 173.2904675}, "nodes": [8871938842, 8871938841, 8871938840, 8871938839, 8871938838, 8871938837, 8871938836, 8871938835, 8871938834, 8871938833, 8871938832, 8871938842], "tags": {"addr:housenumber": "36", "addr:postcode": "7010", "addr:street": "Manuka Street", "amenity": "hospital", "email": "administration@manukastreet.org.nz", "healthcare": "hospital", "name": "Manuka Street Hospital", "phone": "035488566", "website": "https://manukastreet.org.nz/"}}, {"type": "way", "id": 960045384, "center": {"lat": -41.2594479, "lon": 174.9411496}, "nodes": [3935219524, 2300846997, 1933111261, 1933111262, 8882531321, 8882531322, 8882531403, 8882531404, 8882531405, 8882531406, 8882509664, 3935219524], "tags": {"amenity": "hospital", "healthcare": "hospital"}}, {"type": "way", "id": 979734733, "center": {"lat": -40.6333766, "lon": 175.2860046}, "nodes": [9063399676, 9063399677, 9063399678, 9063399679, 9063399676], "tags": {"amenity": "hospital", "building": "no", "healthcare": "hospital", "name": "Horowhenua Health Centre"}}, {"type": "way", "id": 987022812, "center": {"lat": -40.8783789, "lon": 172.8170305}, "nodes": [1225191256, 9123320844, 9123320845, 9123320846, 9123320847, 9123320848, 1225191256], "tags": {"addr:housenumber": "10", "addr:street": "Central Takaka Road", "amenity": "hospital", "healthcare": "hospital", "name": "Golden Bay Community Health", "phone": "03 525 0060", "source": "LINZ", "website": "https://www.gbhealth.org.nz/"}}, {"type": "way", "id": 987022961, "center": {"lat": -42.1190197, "lon": 171.8605942}, "nodes": [4012361480, 1225301604, 9123311273, 4012361361, 4012361480], "tags": {"amenity": "hospital", "healthcare": "hospital", "source": "LINZ"}}, {"type": "way", "id": 987023130, "center": {"lat": -42.9680216, "lon": 172.6877273}, "nodes": [5733758058, 1225314525, 9123327527, 9123327528, 9123327529, 9123327530, 9123327537, 9123327533, 9123327532, 8681972168, 5733758058], "tags": {"amenity": "hospital", "healthcare": "hospital", "name": "Waikari Hospital", "source": "LINZ"}}, {"type": "way", "id": 997799414, "center": {"lat": -41.1587758, "lon": 174.9770209}, "nodes": [9123794265, 9123794470, 9213023255, 9213023256, 9213023257, 9213023258, 9123794266, 9123794265], "tags": {"addr:city": "Manor Park, Lower Hutt", "addr:housenumber": "14", "addr:postcode": "5019", "addr:street": "Manor Park Road", "amenity": "hospital", "healthcare": "hospital", "name": "Manor Park Private Hospital", "phone": "+6445635240", "website": "https://www.eldernet.co.nz/Facilities/Specialist_Hospital_Dementia_Care/Manor_Park_Private_Hospital/Service/DisplayService/FaStID/2125"}}, {"type": "way", "id": 1025115110, "center": {"lat": -43.5200217, "lon": 172.6346514}, "nodes": [5962962299, 9452136851, 9452136852, 9452136853, 9452136854, 9645528638, 9645528637, 4403964129, 9645528630, 9645528631, 9645528633, 9645528636, 9645528635, 9645528634, 9645528632, 9452136869, 9452136855, 9452136856, 9452136857, 9452136858, 5962962299], "tags": {"addr:city": "Christchurch", "addr:country": "NZ", "addr:housenumber": "131", "addr:postcode": "8013", "addr:street": "Bealey Avenue", "amenity": "hospital", "email": "christchurch@southerncrosshospitals.co.nz", "emergency": "no", "healthcare": "hospital", "name": "Southern Cross Hospital", "phone": "+64 3 968 3100", "website": "https://healthcare.southerncross.co.nz/"}}, {"type": "way", "id": 1029234582, "center": {"lat": -43.5101591, "lon": 172.5816141}, "nodes": [9489039123, 4370423688, 254556480, 254556478, 2349196310, 9489039126, 9489039127, 9489039125, 9489039123], "tags": {"amenity": "hospital", "emergency": "no", "healthcare": "hospital", "name": "Laura Fergusson Brain Injury Trust", "website": "https://www.lfbit.co.nz"}}, {"type": "way", "id": 1060996625, "center": {"lat": -44.2609284, "lon": 170.097737}, "nodes": [1795553335, 5256976787, 9748484301, 1795553333, 9748484282, 1795553335], "tags": {"amenity": "hospital", "healthcare": "hospital", "name": "Twizel Medical Centre"}}, {"type": "way", "id": 1137939571, "center": {"lat": -43.4863286, "lon": 172.5832218}, "nodes": [10606992009, 10606992010, 10606992011, 10606992012, 10606992016, 10606992013, 10606992009], "tags": {"amenity": "hospital", "healthcare": "hospital", "healthcare:speciality": "surgery;orthopaedics;urology;dentistry;gynaecology", "name": "Canterbury Charity Hospital", "operator": "Canterbury Charity Hospital Trust", "operator:type": "charitable", "website": "https://charityhospital.org.nz"}}, {"type": "way", "id": 1211075006, "center": {"lat": -40.3489587, "lon": 175.6118998}, "nodes": [3722878591, 3722878619, 3722878598, 3722878620, 3722878588, 3722878528, 3722878583, 3722878591], "tags": {"amenity": "hospital", "healthcare": "hospital", "name": "Crest Hospital"}}, {"type": "relation", "id": 1269187, "center": {"lat": -43.5480766, "lon": 172.5905492}, "members": [{"type": "way", "ref": 34616225, "role": "outer"}, {"type": "way", "ref": 84969764, "role": "inner"}], "tags": {"addr:city": "Christchurch", "addr:postcode": "8024", "addr:street": "Annex Road South", "alt_name": "Hospital, Hillmorton", "amenity": "hospital", "emergency": "no", "healthcare": "hospital", "name": "Hillmorton Hospital", "type": "multipolygon", "wikidata": "Q99540072"}}]}