{"version": 0.6, "generator": "Overpass API 0.7.61.5 4133829e", "osm3s": {"timestamp_osm_base": "2023-10-31T20:46:24Z", "copyright": "The data included in this document is from www.openstreetmap.org. The data is made available under ODbL."}, "elements": [{"type": "node", "id": 2341469852, "lat": -50.3403266, "lon": -72.2701636, "tags": {"addr:city": "El Calafate", "addr:street": "Julio Argentino Roca", "amenity": "hospital", "description": "Unidad Comunitaria y de la Familia Dr. Jos\u00e9 Formenti", "emergency": "yes", "healthcare": "hospital", "name": "CIC Formenti"}}, {"type": "node", "id": 2699438591, "lat": -51.5298312, "lon": -72.3428438, "tags": {"addr:city": "R\u00edo Turbio", "addr:street": "Avenida Gendarmer\u00eda Nacional", "alt_name": "CIC R\u00edo Turbio", "amenity": "hospital", "healthcare": "hospital", "name": "CIC Padre Mujica"}}, {"type": "node", "id": 2783294030, "lat": -50.3502466, "lon": -72.2586536, "tags": {"amenity": "hospital", "healthcare": "hospital", "name": "CIC Cerro Calafate"}}, {"type": "node", "id": 3466724284, "lat": -51.5930486, "lon": -72.2192434, "tags": {"amenity": "hospital", "healthcare": "hospital", "name": "CIC 28 de Noviembre"}}, {"type": "node", "id": 3578627540, "lat": -50.2423322, "lon": -72.9429781, "tags": {"amenity": "hospital", "name": "La Diana"}}, {"type": "node", "id": 10126933100, "lat": -51.5791889, "lon": -72.2172448, "tags": {"amenity": "hospital", "healthcare": "hospital", "name": "Consultorio Externo"}}, {"type": "way", "id": 122274744, "center": {"lat": -53.1221178, "lon": -70.8963282}, "nodes": [1366831978, 6580671234, 6580671235, 6580671231, 1366831995, 6580671232, 6580671233, 1366832006, 1029643480, 1366831978], "tags": {"addr:city": "Punta Arenas", "addr:housenumber": "01364", "addr:street": "Los Flamencos", "amenity": "hospital", "emergency": "yes", "healthcare": "hospital", "name": "Hospital Clinico de Magallanes Doctor Lautaro Navarro"}}, {"type": "way", "id": 134120503, "center": {"lat": -53.1375498, "lon": -70.8874697}, "nodes": [1475014085, 7594815468, 7594815467, 7594815466, 7594815465, 7594815464, 7594815463, 1475014102, 7594815462, 7594815461, 6311215884, 1475014052, 7594815454, 7594815459, 7594815458, 7594815457, 7594815456, 7594815455, 1475014071, 7594815472, 7594815473, 7594815475, 7594815474, 7594815469, 7594815470, 7594815471, 1475014085], "tags": {"amenity": "hospital", "healthcare": "clinic", "name": "Cl\u00ednica RedSalud Magallanes", "wikidata": "Q93744197"}}, {"type": "way", "id": 172470671, "center": {"lat": -53.1617699, "lon": -70.9002039}, "nodes": [1833761651, 4947773036, 1833761649, 5572873611, 1833761650, 1833761646, 5572873606, 1833761651], "tags": {"amenity": "hospital", "healthcare": "hospital", "name": "Cruz Roja", "operator": "Cruz Roja", "operator:wikidata": "Q7178"}}, {"type": "way", "id": 345663137, "center": {"lat": -51.7303833, "lon": -72.5065668}, "nodes": [3523063529, 3523063530, 3523063531, 3523063532, 3523063533, 3523063534, 3523063535, 3523063536, 3523063537, 3523063538, 3523063539, 3523063540, 3523063529], "tags": {"addr:city": "Puerto Natales", "addr:street": "Ignacio Carrera Pinto", "amenity": "hospital", "healthcare": "hospital", "name": "Hospital Doctor Augusto Essmann Burgos", "nohousenumber": "yes"}}, {"type": "way", "id": 439250373, "center": {"lat": -51.5361492, "lon": -72.3266482}, "nodes": [4368832864, 4368832865, 4368832866, 4368832867, 4368832868, 4368832869, 4368832870, 4368832871, 4368832872, 4368832873, 4368832864], "tags": {"addr:city": "Yacimientos Rio Turbio", "addr:full": "Gendarmeria Nacional 126", "addr:place": "Guer Aike", "addr:postcode": "9407", "amenity": "hospital", "description": "Mediano riesgo con internaci\u00f3n con cuidados especiales", "healthcare": "hospital", "name": "Hospital Cuenca Carbonifera", "operator:type": "public", "ref:sisa_codigo": "10780212183003", "ref:sisa_tipologia": "ESCIG", "source": "sedronar.gov.ar | Public Domain (PD)"}}, {"type": "way", "id": 517478591, "center": {"lat": -51.583248, "lon": -72.216494}, "nodes": [5049815059, 5049815060, 5049815061, 5049815062, 5049815059], "tags": {"addr:city": "28 De Noviembre", "addr:full": "R\u00edo Negro Y 9 De Julio S/N", "addr:place": "Guer Aike", "addr:postcode": "9408", "addr:street": "9 de Julio", "amenity": "hospital", "description": "Alto riesgo con terapia intensiva", "healthcare": "hospital", "name": "Hospital Distrital San Lucas", "operator:type": "public", "ref:sisa_codigo": "10780212183011", "ref:sisa_tipologia": "ESCIG", "source": "sedronar.gov.ar | Public Domain (PD)"}}, {"type": "way", "id": 542166080, "center": {"lat": -51.7286328, "lon": -72.4803072}, "nodes": [5241898016, 5241898017, 6089085867, 5241898018, 5241898019, 5241898016], "tags": {"amenity": "hospital", "healthcare": "hospital", "name": "Hospital Augusto Esmann Burgos"}}, {"type": "way", "id": 657313661, "center": {"lat": -53.1493791, "lon": -70.8982757}, "nodes": [6156522204, 6156522199, 6156522194, 6156522211, 6156522195, 6156522207, 6156522200, 6156522204], "tags": {"addr:city": "Punta Arenas", "addr:housenumber": "0256", "addr:street": "Avenida Presidente Manuel Bulnes", "amenity": "hospital", "name": "Hospital de las Fuerzas Armadas Cirujano Cornelio Guzm\u00e1n"}}, {"type": "way", "id": 741392284, "center": {"lat": -53.2984129, "lon": -70.3581428}, "nodes": [6940534161, 6940534162, 6940534163, 7341756202, 6940534161], "tags": {"addr:city": "Porvenir", "addr:housenumber": "480", "addr:street": "Carlos Wood", "amenity": "hospital", "healthcare": "hospital", "name": "Hospital de Porvenir", "wikidata": "Q93744195"}}, {"type": "way", "id": 910581474, "center": {"lat": -50.3340531, "lon": -72.2388436}, "nodes": [8455261909, 8455261910, 8455261911, 8455261912, 8455267719, 8455267720, 8455267787, 8455261913, 8455261914, 8455261915, 8455261916, 8455261909], "tags": {"addr:city": "El Calafate", "addr:housenumber": "465", "addr:postcode": "Z9405", "addr:street": "Avenida Jorge Newbery", "amenity": "hospital", "emergency": "yes", "healthcare": "hospital", "name": "Hospital Gobernador Cepernic - Presidente Kirchner", "operator": "Ministerio de Salud y Ambiente - Gobierno de Santa Cruz", "operator:type": "public"}}, {"type": "way", "id": 990145202, "center": {"lat": -53.1584855, "lon": -70.8972375}, "nodes": [9149877513, 9149877514, 9149877515, 9149877516, 9149877513], "tags": {"addr:city": "Punta Arenas", "addr:housenumber": "1071", "addr:street": "Pedro Sarmiento de Gamboa", "amenity": "hospital", "healthcare": "hospital", "name": "Cl\u00ednica Croacia", "wikidata": "Q93744214"}}]}