{"version": 0.6, "generator": "Overpass API 0.7.61.5 4133829e", "osm3s": {"timestamp_osm_base": "2023-10-31T20:52:36Z", "copyright": "The data included in this document is from www.openstreetmap.org. The data is made available under ODbL."}, "elements": [{"type": "node", "id": 321664688, "lat": 6.4921979, "lon": 99.3086158, "tags": {"amenity": "hospital", "healthcare": "hospital"}}, {"type": "node", "id": 330062883, "lat": 3.3298476, "lon": 99.1594364, "tags": {"amenity": "hospital", "created_by": "Potlatch 0.10f", "emergency": "no", "name": "Lab. Klinik Gatot Subroto"}}, {"type": "node", "id": 330062904, "lat": 3.3330094, "lon": 99.1610328, "tags": {"amenity": "hospital", "created_by": "Potlatch 0.10f", "emergency": "no", "name": "Lab. Klinik Prodia, T. Tinggi"}}, {"type": "node", "id": 330063205, "lat": 3.3300361, "lon": 99.155677, "tags": {"amenity": "hospital", "created_by": "Potlatch 0.10f", "emergency": "yes", "name": "RS Umum, T. Tinggi"}}, {"type": "node", "id": 577454865, "lat": 3.5329858, "lon": 98.690098, "tags": {"amenity": "hospital", "name": "Puskesmas"}}, {"type": "node", "id": 978712328, "lat": 8.1243252, "lon": 98.313357, "tags": {"amenity": "hospital", "name": "\u0e44\u0e21\u0e49\u0e02\u0e32\u0e27"}}, {"type": "node", "id": 1081283674, "lat": 8.1687714, "lon": 99.0099884, "tags": {"amenity": "hospital"}}, {"type": "node", "id": 1081283677, "lat": 8.0572961, "lon": 99.0001522, "tags": {"amenity": "hospital", "name": "\u0e42\u0e23\u0e07\u0e1e\u0e22\u0e32\u0e1a\u0e32\u0e25\u0e40\u0e2b\u0e19\u0e37\u0e2d\u0e04\u0e25\u0e2d\u0e07"}}, {"type": "node", "id": 1150191198, "lat": 7.7381792, "lon": 98.7676845, "tags": {"amenity": "hospital", "name": "Phi Phi Island Hospital", "phone": "075-622151"}}, {"type": "node", "id": 1308374945, "lat": 1.7351816, "lon": 98.7864635, "tags": {"amenity": "hospital", "healthcare": "hospital", "is_in:country": "Indonesia", "is_in:county": "Sibolga Selatan", "is_in:region": "Kota Sibolga", "is_in:state": "Sumatera Utara", "name": "Pancuran Kerambil"}}, {"type": "node", "id": 1528148436, "lat": 9.5219221, "lon": 99.9355204, "tags": {"addr:city": "Koh Samui", "addr:housenumber": "61 Moo 1", "addr:postcode": "84140", "addr:street": "Tambon Angthong", "amenity": "hospital", "name": "\u0e42\u0e23\u0e07\u0e1e\u0e22\u0e32\u0e1a\u0e32\u0e25\u0e40\u0e01\u0e32\u0e30\u0e2a\u0e21\u0e38\u0e22", "name:en": "Koh Samui Hospital", "name:th": "\u0e42\u0e23\u0e07\u0e1e\u0e22\u0e32\u0e1a\u0e32\u0e25\u0e40\u0e01\u0e32\u0e30\u0e2a\u0e21\u0e38\u0e22", "source": "Bing"}}, {"type": "node", "id": 1603388950, "lat": 8.390617, "lon": 99.972423, "tags": {"amenity": "hospital", "emergency": "yes", "name": "\u0e42\u0e23\u0e07\u0e1e\u0e22\u0e32\u0e1a\u0e32\u0e25\u0e21\u0e2b\u0e32\u0e23\u0e32\u0e0a \u0e19\u0e04\u0e23\u0e28\u0e23\u0e35\u0e18\u0e23\u0e23\u0e21\u0e23\u0e32\u0e0a", "name:en": "Maharat Nakhon Si Thammarat Hospital", "name:th": "\u0e42\u0e23\u0e07\u0e1e\u0e22\u0e32\u0e1a\u0e32\u0e25\u0e21\u0e2b\u0e32\u0e23\u0e32\u0e0a \u0e19\u0e04\u0e23\u0e28\u0e23\u0e35\u0e18\u0e23\u0e23\u0e21\u0e23\u0e32\u0e0a", "operator:type": "public", "website": "https://www.mnst.go.th/"}}, {"type": "node", "id": 1604765520, "lat": 8.0387834, "lon": 98.8343022, "tags": {"amenity": "hospital", "name": "Clinic"}}, {"type": "node", "id": 1648248195, "lat": 8.2799869, "lon": 98.3035073, "tags": {"amenity": "hospital", "emergency": "yes", "name": "\u0e42\u0e23\u0e07\u0e1e\u0e22\u0e32\u0e1a\u0e32\u0e25\u0e15\u0e30\u0e01\u0e31\u0e48\u0e27\u0e17\u0e38\u0e48\u0e07", "name:en": "Takua Thung Hospital"}}, {"type": "node", "id": 1743126088, "lat": 7.9065293, "lon": 98.3909854, "tags": {"addr:housenumber": "4/1", "addr:street": "Thep Krasattri", "amenity": "hospital", "name": "\u0e42\u0e23\u0e07\u0e1e\u0e22\u0e32\u0e1a\u0e32\u0e25\u0e21\u0e34\u0e0a\u0e0a\u0e31\u0e48\u0e19 \u0e20\u0e39\u0e40\u0e01\u0e47\u0e15", "name:en": "Mission Hospital Phuket", "wikidata": "Q81097671"}}, {"type": "node", "id": 1743126094, "lat": 7.5686877, "lon": 99.6195962, "tags": {"addr:city": "Trang", "addr:country": "TH", "addr:province": "Trang", "amenity": "hospital", "healthcare": "hospital", "name": "\u0e42\u0e23\u0e07\u0e1e\u0e22\u0e32\u0e1a\u0e32\u0e25\u0e15\u0e23\u0e31\u0e07\u0e23\u0e27\u0e21\u0e41\u0e1e\u0e17\u0e22\u0e4c", "name:en": "Trang Ruampat Hospital", "name:th": "\u0e42\u0e23\u0e07\u0e1e\u0e22\u0e32\u0e1a\u0e32\u0e25\u0e15\u0e23\u0e31\u0e07\u0e23\u0e27\u0e21\u0e41\u0e1e\u0e17\u0e22\u0e4c"}}, {"type": "node", "id": 1743126095, "lat": 7.5639988, "lon": 99.6174911, "tags": {"addr:city": "Trang", "addr:country": "TH", "addr:province": "Trang", "amenity": "hospital", "healthcare": "hospital", "internet_access": "wlan", "name": "\u0e42\u0e23\u0e07\u0e1e\u0e22\u0e32\u0e1a\u0e32\u0e25\u0e27\u0e31\u0e12\u0e19\u0e41\u0e1e\u0e17\u0e22\u0e4c", "name:en": "Wattana Paet Trang Hospital", "name:th": "\u0e42\u0e23\u0e07\u0e1e\u0e22\u0e32\u0e1a\u0e32\u0e25\u0e27\u0e31\u0e12\u0e19\u0e41\u0e1e\u0e17\u0e22\u0e4c", "opening_hours": "24/7"}}, {"type": "node", "id": 1910989158, "lat": 6.3331243, "lon": 99.8611216, "tags": {"amenity": "hospital", "name": "Langkawi Medical Centre"}}, {"type": "node", "id": 1928638242, "lat": 3.5439198, "lon": 98.1327894, "tags": {"amenity": "hospital", "name": "Health Center"}}, {"type": "node", "id": 2034506340, "lat": 7.7404164, "lon": 98.7735035, "tags": {"amenity": "hospital", "name": "Siam International Clinic"}}, {"type": "node", "id": 2149173494, "lat": 3.6020002, "lon": 98.4831175, "tags": {"amenity": "hospital", "emergency": "yes", "name": "Rumah Sakit Umum Djulham"}}, {"type": "node", "id": 2218241376, "lat": 8.6634638, "lon": 99.9220668, "tags": {"amenity": "hospital", "healthcare": "hospital", "name": "Hospital Tha Sala - \u0e42\u0e23\u0e07\u0e1e\u0e22\u0e32\u0e1a\u0e32\u0e25\u0e17\u0e48\u0e32\u0e28\u0e32\u0e25\u0e32"}}, {"type": "node", "id": 2282625661, "lat": 8.1128705, "lon": 98.5994158, "tags": {"amenity": "hospital"}}, {"type": "node", "id": 2319414199, "lat": 0.8641813, "lon": 99.5645228, "tags": {"addr:city": "Panyabungan", "addr:housenumber": "40", "addr:postcode": "22919", "addr:street": "Merdeka", "amenity": "hospital", "emergency": "yes", "name": "RSUD Panyabungan"}}, {"type": "node", "id": 2521838065, "lat": 3.8191276, "lon": 96.7632516, "tags": {"amenity": "hospital", "name": "UGD Kuala Batee"}}, {"type": "node", "id": 2681909993, "lat": 9.7881499, "lon": 98.7776041, "tags": {"amenity": "hospital"}}, {"type": "node", "id": 2723711783, "lat": 8.1843908, "lon": 99.6176386, "tags": {"amenity": "hospital", "name": "\u0e42\u0e23\u0e07\u0e1e\u0e22\u0e32\u0e1a\u0e32\u0e25\u0e17\u0e38\u0e48\u0e07\u0e2a\u0e07", "name:en": "Thung Song Hospital"}}, {"type": "node", "id": 2725907609, "lat": 3.5631074, "lon": 98.6931117, "tags": {"amenity": "hospital", "name": "Puskesmas"}}, {"type": "node", "id": 2784775764, "lat": 7.9521151, "lon": 99.14422, "tags": {"amenity": "hospital", "name": "\u0e42\u0e23\u0e07\u0e1e\u0e22\u0e32\u0e1a\u0e32\u0e25\u0e04\u0e25\u0e2d\u0e07\u0e17\u0e48\u0e2d\u0e21", "name:en": "Khlong Thom Hospital", "name:th": "\u0e42\u0e23\u0e07\u0e1e\u0e22\u0e32\u0e1a\u0e32\u0e25\u0e04\u0e25\u0e2d\u0e07\u0e17\u0e48\u0e2d\u0e21"}}, {"type": "node", "id": 2815128169, "lat": 3.9122754, "lon": 96.6739701, "tags": {"amenity": "hospital", "name": "PUSTU RUKUN DAMEE"}}, {"type": "node", "id": 2857762788, "lat": 1.5085477, "lon": 99.22418, "tags": {"amenity": "hospital", "name": "Puskesmas Huraba"}}, {"type": "node", "id": 2879250806, "lat": 3.6272834, "lon": 96.9373379, "tags": {"amenity": "hospital", "name": "Pustu Ladang Panah", "official_name": "Puskesmas Pembantu Ladang Panah"}}, {"type": "node", "id": 2879270755, "lat": 3.6414618, "lon": 96.9527594, "tags": {"amenity": "hospital", "name": "posyandu"}}, {"type": "node", "id": 2879308219, "lat": 3.6182797, "lon": 96.9396115, "tags": {"amenity": "hospital", "name": "PUSKESMAS MAIMAH"}}, {"type": "node", "id": 2879330723, "lat": 3.6356248, "lon": 96.9293864, "tags": {"amenity": "hospital", "name": "POSYANDU UNICEF"}}, {"type": "node", "id": 2879380299, "lat": 3.6170036, "lon": 96.9343911, "tags": {"amenity": "hospital", "name": "PUSKESMAS KEC. MANGGENG"}}, {"type": "node", "id": 2879480873, "lat": 3.6170118, "lon": 96.9184204, "tags": {"amenity": "hospital", "name": "PUSTU PANTE RAJA"}}, {"type": "node", "id": 2879528089, "lat": 3.6062399, "lon": 96.9277143, "tags": {"amenity": "hospital", "name": "PUSTU BLANG MANGGGENG"}}, {"type": "node", "id": 2879528090, "lat": 3.6038488, "lon": 96.920389, "tags": {"amenity": "hospital", "name": "PUSTU GAMPONG SEJAHTERA"}}, {"type": "node", "id": 2879538591, "lat": 3.6073736, "lon": 96.9311318, "tags": {"amenity": "hospital", "name": "POLINDES GAMPONG TOKOH"}}, {"type": "node", "id": 2879768814, "lat": 3.6068525, "lon": 96.9106791, "tags": {"amenity": "hospital", "name": "POLINDES (KEADAAN RUSAK)"}}, {"type": "node", "id": 2879811685, "lat": 3.6229552, "lon": 96.9064677, "tags": {"amenity": "hospital", "name": "PUSKESDES GAMPONG PANTE CERMIN"}}, {"type": "node", "id": 2918152804, "lat": 2.6420853, "lon": 98.006125, "tags": {"addr:city": "Kota Subulussalam", "addr:street": "Cut Nyakdhien", "amenity": "hospital", "name": "Klinik Mutia Medika"}}, {"type": "node", "id": 2919713786, "lat": 2.6414603, "lon": 98.0068297, "tags": {"amenity": "hospital", "name": "Klinik Bidan Khairuna"}}, {"type": "node", "id": 3048515447, "lat": 7.5723368, "lon": 99.6193355, "tags": {"addr:city": "\u0e40\u0e21\u0e37\u0e37\u0e2d\u0e07\u0e15\u0e23\u0e31\u0e07", "addr:housenumber": "69", "addr:postcode": "92000", "addr:street": "\u0e16\u0e19\u0e19\u0e42\u0e04\u0e01\u0e02\u0e31\u0e19", "amenity": "hospital", "emergency": "yes", "healthcare": "hospital", "name": "Trang Hospital", "name:en": "Trang Hospital", "name:th": "\u0e42\u0e23\u0e07\u0e1e\u0e22\u0e32\u0e1a\u0e32\u0e25\u0e15\u0e23\u0e31\u0e07", "website": "http://www.tranghos.go.th/"}}, {"type": "node", "id": 3144948369, "lat": 3.739871, "lon": 96.7989194, "tags": {"amenity": "hospital", "name": "Rumah Sakit Teungku Peukan"}}, {"type": "node", "id": 3145074194, "lat": 3.7219251, "lon": 96.8188843, "tags": {"amenity": "hospital", "name": "pustu"}}, {"type": "node", "id": 3145090315, "lat": 3.5974991, "lon": 96.9425711, "tags": {"amenity": "hospital", "healthcare": "hospital", "name": "Puskesmas Lembah Sabil"}}, {"type": "node", "id": 3145138077, "lat": 3.6261752, "lon": 96.947963, "tags": {"amenity": "hospital"}}, {"type": "node", "id": 3172458388, "lat": 3.7080436, "lon": 96.8423563, "tags": {"amenity": "hospital"}}, {"type": "node", "id": 3199608012, "lat": 3.7109641, "lon": 96.8529658, "tags": {"amenity": "hospital"}}, {"type": "node", "id": 3227774063, "lat": 3.5859129, "lon": 98.6883061, "tags": {"amenity": "hospital", "name": "Rumah Sakit Deli"}}, {"type": "node", "id": 3227774085, "lat": 3.5865027, "lon": 98.672382, "tags": {"amenity": "hospital", "healthcare": "hospital", "name": "Rumah Sakit Islam Malahayati"}}, {"type": "node", "id": 3230002508, "lat": 3.6006524, "lon": 98.6782751, "tags": {"amenity": "hospital", "name": "Rumah Sakit Umum Melati"}}, {"type": "node", "id": 3331241879, "lat": 3.7524145, "lon": 96.8518841, "tags": {"amenity": "hospital", "name": "PUSTU"}}, {"type": "node", "id": 3399238676, "lat": 8.3934826, "lon": 99.9786138, "tags": {"amenity": "hospital", "name": "\u0e42\u0e23\u0e07\u0e1e\u0e22\u0e32\u0e1a\u0e32\u0e25 \u0e19\u0e04\u0e23\u0e1e\u0e31\u0e12"}}, {"type": "node", "id": 3423046481, "lat": 3.6044146, "lon": 96.9333888, "tags": {"amenity": "hospital", "name": "PUSTU TOKOH II"}}, {"type": "node", "id": 3445932248, "lat": 3.6584973, "lon": 96.9100494, "tags": {"amenity": "hospital"}}, {"type": "node", "id": 3448181897, "lat": 3.6484092, "lon": 96.9218934, "tags": {"amenity": "hospital", "name": "PUSTU"}}, {"type": "node", "id": 3455046940, "lat": 3.6998403, "lon": 96.8592828, "tags": {"amenity": "hospital", "healthcare": "hospital", "name": "PUSTU KUTA MURNI"}}, {"type": "node", "id": 3458699387, "lat": 3.7247273, "lon": 96.8452366, "tags": {"amenity": "hospital", "name": "PUSKESDES"}}, {"type": "node", "id": 3460602131, "lat": 8.8637597, "lon": 98.3341481, "tags": {"addr:city": "\u0e15\u0e30\u0e01\u0e31\u0e48\u0e27\u0e1b\u0e48\u0e32", "addr:housenumber": "39/2", "addr:postcode": "82110", "addr:street": "\u0e16\u0e19\u0e19\u0e40\u0e1e\u0e0a\u0e23\u0e40\u0e01\u0e29\u0e21", "amenity": "hospital", "emergency": "yes", "healthcare": "hospital", "healthcare:speciality": "general", "name": "\u0e42\u0e23\u0e07\u0e1e\u0e22\u0e32\u0e1a\u0e32\u0e25\u0e15\u0e30\u0e01\u0e31\u0e48\u0e27\u0e1b\u0e48\u0e32", "name:en": "Takua Pa Hospital", "phone": "+6676584250", "website": "http://hospital.moph.go.th/takuapah/home.html", "wheelchair": "yes"}}, {"type": "node", "id": 3466892306, "lat": 3.6361567, "lon": 96.8995534, "tags": {"amenity": "hospital", "name": "PUSTU GAMPONG PADANG BAKJOK"}}, {"type": "node", "id": 3467684028, "lat": 3.6890401, "lon": 96.8872591, "tags": {"amenity": "hospital", "name": "pustu"}}, {"type": "node", "id": 3472466629, "lat": 3.6973812, "lon": 96.8647211, "tags": {"amenity": "hospital", "name": "pustu"}}, {"type": "node", "id": 3504266595, "lat": 3.6747343, "lon": 96.8842241, "tags": {"amenity": "hospital", "name": "polindes"}}, {"type": "node", "id": 3509666471, "lat": 3.6492803, "lon": 96.9045159, "tags": {"amenity": "hospital", "name": "PUSTU"}}, {"type": "node", "id": 3514362007, "lat": 3.6421918, "lon": 96.9157651, "tags": {"amenity": "hospital", "name": "rumah sakit"}}, {"type": "node", "id": 3547546316, "lat": 3.7514891, "lon": 96.8311682, "tags": {"amenity": "hospital", "name": "polindes"}}, {"type": "node", "id": 3584951894, "lat": 3.7073835, "lon": 96.8690679, "tags": {"amenity": "hospital", "name": "PUSTU"}}, {"type": "node", "id": 3670543819, "lat": 3.6039261, "lon": 96.9506873, "tags": {"amenity": "hospital", "name": "PUSTU KAYEE ACEH"}}, {"type": "node", "id": 3678704714, "lat": 4.0056869, "lon": 97.3699726, "tags": {"amenity": "hospital", "name": "RSUD KAB. GAYOLUES"}}, {"type": "node", "id": 3687942161, "lat": 3.5555393, "lon": 98.6385653, "tags": {"amenity": "hospital", "name": "Rumah Sakit Umum Methodist"}}, {"type": "node", "id": 3894572271, "lat": 3.4811713, "lon": 98.596799, "tags": {"addr:city": "Pancur Batu", "addr:district": "Deli Serdang", "addr:street": "Jln.Let Jend Jamin Ginting", "amenity": "hospital", "emergency": "yes", "is_in:province": "North Sumatera", "name": "Klinik Arapenta"}}, {"type": "node", "id": 3919780548, "lat": 8.4435603, "lon": 98.5203463, "tags": {"amenity": "hospital"}}, {"type": "node", "id": 3987615505, "lat": 4.6363029, "lon": 96.8515929, "tags": {"amenity": "hospital", "name": "Rumah Sakit Datu Beru"}}, {"type": "node", "id": 4024849423, "lat": 9.148273, "lon": 99.3330607, "tags": {"amenity": "hospital", "emergency": "yes", "name": "\u0e42\u0e23\u0e07\u0e1e\u0e22\u0e32\u0e1a\u0e32\u0e25\u0e17\u0e31\u0e01\u0e29\u0e34\u0e13", "name:en": "Thaksin Hospital", "website": "https://www.thaksinhospital.com/", "wikidata": "Q100995936"}}, {"type": "node", "id": 4264580231, "lat": 5.8949322, "lon": 95.3156079, "tags": {"amenity": "hospital", "name": "Rumah Sakit Umum", "name:en": "General Hospital"}}, {"type": "node", "id": 4264580245, "lat": 5.8929752, "lon": 95.3253792, "tags": {"amenity": "hospital", "name": "RS. Al Jend. Lilipory"}}, {"type": "node", "id": 4312319089, "lat": 8.436655, "lon": 99.964, "tags": {"amenity": "hospital", "name": "Nakhon Christian Hospital", "phone": "+66 75 356 214"}}, {"type": "node", "id": 4351202177, "lat": 3.6440279, "lon": 98.6627123, "tags": {"amenity": "hospital", "healthcare": "hospital", "name": "RSU Mitra Medika"}}, {"type": "node", "id": 4364990333, "lat": 3.6335283, "lon": 98.6689207, "tags": {"amenity": "hospital", "healthcare": "hospital", "name": "RS Martha Friska"}}, {"type": "node", "id": 4394706330, "lat": 3.2879083, "lon": 97.158357, "tags": {"amenity": "hospital", "name": "RSUD Yulidin Away"}}, {"type": "node", "id": 4395697091, "lat": 3.2878785, "lon": 97.1584697, "tags": {"amenity": "hospital", "name:en": "RSUD Yawaluddin Away"}}, {"type": "node", "id": 4409757993, "lat": 8.0230867, "lon": 98.338625, "tags": {"amenity": "hospital", "name": "Thalang hospital"}}, {"type": "node", "id": 4547857501, "lat": 3.613522, "lon": 98.7160852, "tags": {"amenity": "hospital", "healthcare": "hospital", "name": "Rumah Sakit Haji"}}, {"type": "node", "id": 4552318201, "lat": 7.9539664, "lon": 98.5908814, "tags": {"amenity": "hospital", "internet_access": "wlan"}}, {"type": "node", "id": 4597623881, "lat": 9.7403346, "lon": 98.4194742, "tags": {"addr:city": "Ranong", "addr:country": "TH", "addr:district": "Koh Phayam", "addr:housenumber": "1", "addr:street": "Moo", "addr:th": "\u0e2b\u0e21\u0e39\u0e48\u0e17\u0e35\u0e48 1 \u0e1a\u0e49\u0e32\u0e19\u0e40\u0e01\u0e32\u0e30\u0e1e\u0e22\u0e32\u0e21 \u0e15\u0e33\u0e1a\u0e25\u0e40\u0e01\u0e32\u0e30\u0e1e\u0e22\u0e32\u0e21 \u0e2d\u0e33\u0e40\u0e20\u0e2d\u0e40\u0e21\u0e37\u0e2d\u0e07 \u0e08.\u0e23\u0e30\u0e19\u0e2d\u0e07", "amenity": "hospital", "contact_person": "K. Koy, registered Nurse", "contact_person:th": "\u0e04\u0e38\u0e13\u0e01\u0e49\u0e2d\u0e22, \u0e1e\u0e22\u0e32\u0e1a\u0e32\u0e25\u0e27\u0e34\u0e0a\u0e32\u0e0a\u0e35\u0e1e", "healthcare": "hospital", "name": "Koh Phayam Health Promoting Center", "name:th": "\u0e42\u0e23\u0e07\u0e1e\u0e22\u0e32\u0e1a\u0e32\u0e25\u0e2a\u0e48\u0e07\u0e40\u0e2a\u0e23\u0e34\u0e21\u0e2a\u0e38\u0e02\u0e20\u0e32\u0e1e\u0e0a\u0e38\u0e21\u0e0a\u0e19\u0e1a\u0e49\u0e32\u0e19\u0e40\u0e01\u0e32\u0e30\u0e1e\u0e22\u0e32\u0e21", "opening_hours": "09:00 - 17:00", "phone": "1669 (general emergency number)"}}, {"type": "node", "id": 4641102997, "lat": 1.3725442, "lon": 99.2724014, "tags": {"amenity": "hospital", "name": "Rumah Sakit Umum Daerah"}}, {"type": "node", "id": 4701120090, "lat": 6.701556, "lon": 99.646506, "tags": {"amenity": "hospital", "healthcare": "hospital", "name:en": "First Aid"}}, {"type": "node", "id": 4707743392, "lat": 8.3148467, "lon": 99.3634237, "tags": {"amenity": "hospital", "internet_access": "wlan"}}, {"type": "node", "id": 4711167391, "lat": 8.1623866, "lon": 99.680522, "tags": {"amenity": "hospital"}}, {"type": "node", "id": 4796334324, "lat": 8.4555394, "lon": 99.9671405, "tags": {"amenity": "hospital", "name:en": "Nakharin hospital"}}, {"type": "node", "id": 4813165821, "lat": 7.824194, "lon": 98.3408379, "tags": {"amenity": "hospital", "healthcare": "hospital", "name": "Chalong Hospital"}}, {"type": "node", "id": 4817868123, "lat": 7.895325, "lon": 98.2989054, "tags": {"addr:street": "\u0e16\u0e19\u0e19\u0e23\u0e32\u0e29\u0e0e\u0e23\u0e4c\u0e2d\u0e38\u0e17\u0e34\u0e28200\u0e1b\u0e35", "amenity": "hospital", "name": "Siam International Clinic", "opening_hours": "Mo-Su 09:00-00:00", "phone": "095 802 9084"}}, {"type": "node", "id": 4821714521, "lat": 6.9313357, "lon": 99.7861828, "tags": {"addr:city": "La-Ngu", "addr:housenumber": "194", "addr:postcode": "91110", "amenity": "hospital", "emergency": "yes", "healthcare": "hospital", "healthcare:speciality": "orthopaedics;family_medicine", "name": "La-Ngu Hospital", "name:th": "\u0e42\u0e23\u0e07\u0e1e\u0e22\u0e32\u0e1a\u0e32\u0e25\u0e25\u0e30\u0e07\u0e39", "phone": "+66 74 773 563", "website": "https://www.languhospital.com/", "wheelchair": "yes"}}, {"type": "node", "id": 4821737521, "lat": 6.8623318, "lon": 99.8722975, "tags": {"amenity": "hospital"}}, {"type": "node", "id": 4826589221, "lat": 7.6483061, "lon": 99.037428, "tags": {"amenity": "hospital", "name:en": "Saladan Health Centre"}}, {"type": "node", "id": 4915923646, "lat": 5.5297223, "lon": 95.3038063, "tags": {"addr:street": "Jalan Sudirman", "amenity": "hospital", "emergency": "yes", "name": "RS. Tengku Fakinah"}}, {"type": "node", "id": 4956282021, "lat": 9.9935775, "lon": 98.5480019, "tags": {"amenity": "hospital", "healthcare": "hospital", "name:en": "Township General Hospital"}}, {"type": "node", "id": 5065469439, "lat": 2.5962691, "lon": 98.7069371, "tags": {"addr:city": "Pangururan", "addr:postcode": "22392", "addr:street": "jl Raya rianiate", "amenity": "hospital", "emergency": "yes", "name": "RSUD Hadrianus Sinaga"}}, {"type": "node", "id": 5068687521, "lat": 8.0807978, "lon": 98.9058189, "tags": {"amenity": "hospital", "healthcare": "hospital", "name": "\u0e42\u0e23\u0e07\u0e1e\u0e22\u0e32\u0e1a\u0e32\u0e25\u0e01\u0e23\u0e30\u0e1a\u0e35\u0e48\u0e19\u0e04\u0e23\u0e34\u0e19\u0e17\u0e23\u0e4c \u0e2d\u0e34\u0e19\u0e40\u0e15\u0e2d\u0e23\u0e4c\u0e40\u0e19\u0e0a\u0e31\u0e48\u0e19\u0e41\u0e19\u0e25", "name:en": "Krabi Nakharin International Hospital", "name:th": "\u0e42\u0e23\u0e07\u0e1e\u0e22\u0e32\u0e1a\u0e32\u0e25\u0e01\u0e23\u0e30\u0e1a\u0e35\u0e48\u0e19\u0e04\u0e23\u0e34\u0e19\u0e17\u0e23\u0e4c \u0e2d\u0e34\u0e19\u0e40\u0e15\u0e2d\u0e23\u0e4c\u0e40\u0e19\u0e0a\u0e31\u0e48\u0e19\u0e41\u0e19\u0e25", "wikidata": "Q51331360"}}, {"type": "node", "id": 5147372521, "lat": 2.4366877, "lon": 98.8870925, "tags": {"amenity": "hospital"}}, {"type": "node", "id": 5432822321, "lat": 8.5681161, "lon": 98.228597, "tags": {"amenity": "hospital", "healthcare": "hospital"}}, {"type": "node", "id": 5448395821, "lat": 6.4892799, "lon": 99.3078401, "tags": {"amenity": "hospital", "healthcare": "hospital", "name": "Andaman international clinic", "opening_hours": "24/7"}}, {"type": "node", "id": 5492946221, "lat": 7.8297765, "lon": 98.3011825, "tags": {"addr:housenumber": "214", "addr:street": "Patak rd", "amenity": "hospital", "internet_access": "wlan", "name": "Healthplus medical clinic"}}, {"type": "node", "id": 5511500221, "lat": 8.0326218, "lon": 98.8243921, "tags": {"amenity": "hospital", "name:en": "Aonang Medical Clinic", "opening_hours": "24/7"}}, {"type": "node", "id": 5599755521, "lat": 7.8482635, "lon": 98.2967005, "tags": {"amenity": "hospital", "internet_access": "wlan"}}, {"type": "node", "id": 5648719022, "lat": 8.0021188, "lon": 98.2956365, "tags": {"amenity": "hospital", "healthcare": "hospital"}}, {"type": "node", "id": 5761992989, "lat": 5.3794992, "lon": 95.9584079, "tags": {"addr:housenumber": "10", "addr:postcode": "24152", "addr:street": "jl.pro.A.ibrahim", "amenity": "hospital", "email": "basri4705@gmail.com", "internet_access": "wlan", "name:en": "klinik mutiara", "opening_hours": "Mo-Fr 00:00-24:00; Sa-Su 09:00-18:00", "phone": "085277441453", "website": "http://basri4705@gmail.com"}}, {"type": "node", "id": 5793238655, "lat": 3.216771, "lon": 99.5787579, "tags": {"amenity": "hospital", "healthcare": "hospital", "name": "Puskesmas Tanjung Tiram"}}, {"type": "node", "id": 5839221286, "lat": 7.819525, "lon": 98.307155, "tags": {"addr:housenumber": "31/2", "addr:street": "Patak road", "amenity": "hospital", "name:en": "Phoenix medical centrw", "name:ru": "\u041c\u0435\u0434\u0438\u0446\u0438\u043d\u0441\u043a\u0438\u0439 \u0446\u0435\u043d\u0442\u0440 \u0430\u043a\u0443\u043f\u043d\u043a\u0442\u0443\u0440\u044b \"\u0424\u0435\u043d\u0438\u043a\u0441\""}}, {"type": "node", "id": 5840067413, "lat": 7.802381, "lon": 99.6279831, "tags": {"addr:city": "Huaiyot", "addr:housenumber": "17", "addr:postcode": "92130", "addr:street": "Tesarassada", "amenity": "hospital", "emergency": "yes", "healthcare": "hospital", "name": "Huaiyot Hospital"}}, {"type": "node", "id": 6053970687, "lat": 7.9512691, "lon": 98.2884317, "tags": {"addr:housenumber": "71/21", "addr:postcode": "83150", "addr:street": "Moo3, Kamala", "amenity": "hospital", "healthcare": "hospital", "internet_access": "wlan", "name:en": "CityCare", "name:ru": "Citycare", "opening_hours": "Mo-Tu 08:00-18:00", "phone": "0882010404"}}, {"type": "node", "id": 6169743468, "lat": 8.4486468, "lon": 98.5263666, "tags": {"amenity": "hospital", "name": "\u0e42\u0e23\u0e07\u0e1e\u0e22\u0e32\u0e1a\u0e32\u0e25\u0e1e\u0e31\u0e07\u0e07\u0e32", "name:en": "Phang Nga Hospital"}}, {"type": "node", "id": 6185413887, "lat": 7.8934507, "lon": 98.2975676, "tags": {"addr:housenumber": "31", "addr:postcode": "83150", "addr:street": "31 Bangla Tumbol Patong Amphoe Kathu Phuket 83150", "amenity": "hospital", "name": "Dr. Bangla Clinic", "name:th": "Dr. Bangla International Clinic Patong", "phone": "076-341-444"}}, {"type": "node", "id": 6238431403, "lat": 8.9145, "lon": 98.889944, "tags": {"GNS:id": "11535869", "amenity": "hospital", "name": "\u0e42\u0e23\u0e07\u0e1e\u0e22\u0e32\u0e1a\u0e32\u0e25\u0e1a\u0e49\u0e32\u0e19\u0e15\u0e32\u0e02\u0e38\u0e19", "name:en": "Rongphayaban Ban Ta Khun", "source": "GNS"}}, {"type": "node", "id": 6317749586, "lat": 7.6616548, "lon": 99.0427816, "tags": {"amenity": "hospital", "name:de": "Koh Lanta Krankenhaus", "name:en": "Koh Lanta Hospital"}}, {"type": "node", "id": 6364425485, "lat": 8.1010441, "lon": 98.9081284, "tags": {"amenity": "hospital", "healthcare": "hospital", "internet_access": "wlan", "name": "\u0e42\u0e23\u0e07\u0e1e\u0e22\u0e32\u0e1a\u0e32\u0e25\u0e08\u0e23\u0e34\u0e22\u0e18\u0e23\u0e23\u0e21\u0e23\u0e27\u0e21\u0e41\u0e1e\u0e17\u0e22\u0e4c\u0e01\u0e23\u0e30\u0e1a\u0e35\u0e48", "name:en": "Jariyatham Ruampat Krabi Hospital", "name:th": "\u0e42\u0e23\u0e07\u0e1e\u0e22\u0e32\u0e1a\u0e32\u0e25\u0e08\u0e23\u0e34\u0e22\u0e18\u0e23\u0e23\u0e21\u0e23\u0e27\u0e21\u0e41\u0e1e\u0e17\u0e22\u0e4c\u0e01\u0e23\u0e30\u0e1a\u0e35\u0e48"}}, {"type": "node", "id": 6373055875, "lat": 8.1742316, "lon": 99.8618681, "tags": {"amenity": "hospital", "name": "Ron Phibun Hospital"}}, {"type": "node", "id": 6373939705, "lat": 8.3646196, "lon": 99.7999363, "tags": {"amenity": "hospital", "name": "Lan Saka Hospital"}}, {"type": "node", "id": 6846119086, "lat": 8.056518, "lon": 98.8171855, "tags": {"amenity": "hospital", "internet_access": "wlan", "name": "wattanapat", "name:en": "wattanapat hospital ao nang (private)", "opening_hours": "24/7"}}, {"type": "node", "id": 6866286996, "lat": 0.3927311, "lon": 99.4707687, "tags": {"amenity": "hospital", "healthcare": "hospital", "name": "Rumah Sakit Silaping"}}, {"type": "node", "id": 7180440793, "lat": 9.122578, "lon": 99.2933474, "tags": {"amenity": "hospital", "name": "Bangkok hospital"}}, {"type": "node", "id": 7367750441, "lat": 2.026851, "lon": 98.9607387, "tags": {"amenity": "hospital", "healthcare": "hospital", "name": "Rumah Sakit Umum Tarutung"}}, {"type": "node", "id": 7856632138, "lat": 6.7884717, "lon": 99.9694919, "tags": {"amenity": "hospital", "name": "\u0e42\u0e23\u0e07\u0e1e\u0e22\u0e32\u0e1a\u0e32\u0e25\u0e17\u0e48\u0e32\u0e41\u0e1e", "name:en": "Tha Phae Hospital"}}, {"type": "node", "id": 7856632139, "lat": 7.0928225, "lon": 99.7663414, "tags": {"amenity": "hospital", "name": "\u0e42\u0e23\u0e07\u0e1e\u0e22\u0e32\u0e1a\u0e32\u0e25\u0e17\u0e38\u0e48\u0e07\u0e2b\u0e27\u0e49\u0e32", "name:en": "Thung Wa Hospital"}}, {"type": "node", "id": 7856632153, "lat": 7.7173707, "lon": 99.8797667, "tags": {"amenity": "hospital", "name": "\u0e42\u0e23\u0e07\u0e1e\u0e22\u0e32\u0e1a\u0e32\u0e25\u0e28\u0e23\u0e35\u0e1a\u0e23\u0e23\u0e1e\u0e15", "name:en": "Si Banphot Hospital"}}, {"type": "node", "id": 7856632154, "lat": 7.5688205, "lon": 99.6942651, "tags": {"amenity": "hospital", "name": "\u0e42\u0e23\u0e07\u0e1e\u0e22\u0e32\u0e1a\u0e32\u0e25\u0e19\u0e32\u0e42\u0e22\u0e07", "name:en": "Na Yong Hospital"}}, {"type": "node", "id": 7856632155, "lat": 7.4058562, "lon": 99.9516821, "tags": {"amenity": "hospital", "name": "\u0e42\u0e23\u0e07\u0e1e\u0e22\u0e32\u0e1a\u0e32\u0e25\u0e01\u0e07\u0e2b\u0e23\u0e32", "name:en": "Kong Ra Hospital"}}, {"type": "node", "id": 7856632156, "lat": 7.2039822, "lon": 99.6942222, "tags": {"amenity": "hospital", "name": "\u0e42\u0e23\u0e07\u0e1e\u0e22\u0e32\u0e1a\u0e32\u0e25\u0e1b\u0e30\u0e40\u0e2b\u0e25\u0e35\u0e22\u0e19", "name:en": "Pa Lian Hospital"}}, {"type": "node", "id": 7856632157, "lat": 7.3871732, "lon": 99.6665793, "tags": {"amenity": "hospital", "name": "\u0e42\u0e23\u0e07\u0e1e\u0e22\u0e32\u0e1a\u0e32\u0e25\u0e22\u0e48\u0e32\u0e19\u0e15\u0e32\u0e02\u0e32\u0e27", "name:en": "Yan Ta Khao Hospital"}}, {"type": "node", "id": 7856632158, "lat": 7.4151868, "lon": 99.5253718, "tags": {"amenity": "hospital", "name": "\u0e42\u0e23\u0e07\u0e1e\u0e22\u0e32\u0e1a\u0e32\u0e25\u0e01\u0e31\u0e19\u0e15\u0e31\u0e07", "name:en": "Kantang Hospital"}}, {"type": "node", "id": 7856632159, "lat": 7.5674698, "lon": 99.3468547, "tags": {"amenity": "hospital", "name": "\u0e42\u0e23\u0e07\u0e1e\u0e22\u0e32\u0e1a\u0e32\u0e25\u0e2a\u0e34\u0e40\u0e01\u0e32", "name:en": "Si Kao Hospital"}}, {"type": "node", "id": 7856632160, "lat": 7.5198366, "lon": 99.0968567, "tags": {"amenity": "hospital", "name": "\u0e42\u0e23\u0e07\u0e1e\u0e22\u0e32\u0e1a\u0e32\u0e25\u0e40\u0e01\u0e32\u0e30\u0e25\u0e31\u0e19\u0e15\u0e32", "name:en": "Ko Lanta Hospital"}}, {"type": "node", "id": 7856632161, "lat": 7.7367093, "lon": 99.3955368, "tags": {"amenity": "hospital", "name": "\u0e42\u0e23\u0e07\u0e1e\u0e22\u0e32\u0e1a\u0e32\u0e25\u0e27\u0e31\u0e07\u0e27\u0e34\u0e40\u0e28\u0e29", "name:en": "Wang Wiset Hospital"}}, {"type": "node", "id": 7856632162, "lat": 7.7876162, "lon": 99.6344572, "tags": {"amenity": "hospital", "name": "\u0e42\u0e23\u0e07\u0e1e\u0e22\u0e32\u0e1a\u0e32\u0e25\u0e40\u0e2d\u0e01\u0e0a\u0e19\u0e2b\u0e49\u0e27\u0e22\u0e22\u0e2d\u0e14", "name:en": "Ekkachon Huai Yot Hospital"}}, {"type": "node", "id": 7856632165, "lat": 7.981144, "lon": 99.9913788, "tags": {"amenity": "hospital", "name": "\u0e42\u0e23\u0e07\u0e1e\u0e22\u0e32\u0e1a\u0e32\u0e25\u0e0a\u0e30\u0e2d\u0e27\u0e14", "name:en": "Cha Uat Hospital"}}, {"type": "node", "id": 7856632168, "lat": 8.4168264, "lon": 99.9651521, "tags": {"amenity": "hospital", "name": "\u0e42\u0e23\u0e07\u0e1e\u0e22\u0e32\u0e1a\u0e32\u0e25\u0e40\u0e17\u0e28\u0e1a\u0e32\u0e25\u0e19\u0e04\u0e23\u0e19\u0e04\u0e23\u0e28\u0e23\u0e35\u0e18\u0e23\u0e23\u0e21\u0e23\u0e32\u0e0a", "name:en": "Thetsaban Nakhon Nakhon Si Thammarat Hospital"}}, {"type": "node", "id": 7856632169, "lat": 8.4978184, "lon": 99.9543214, "tags": {"amenity": "hospital", "name": "\u0e42\u0e23\u0e07\u0e1e\u0e22\u0e32\u0e1a\u0e32\u0e25\u0e04\u0e48\u0e32\u0e22\u0e27\u0e0a\u0e34\u0e23\u0e32\u0e27\u0e38\u0e18", "name:en": "Khai Wachirawut Hospital"}}, {"type": "node", "id": 7856632170, "lat": 8.5253743, "lon": 99.8192936, "tags": {"amenity": "hospital", "name": "\u0e42\u0e23\u0e07\u0e1e\u0e22\u0e32\u0e1a\u0e32\u0e25\u0e1e\u0e23\u0e2b\u0e21\u0e04\u0e35\u0e23\u0e35", "name:en": "Phrom Khiri Hospital"}}, {"type": "node", "id": 7856632171, "lat": 8.0709093, "lon": 99.8610234, "tags": {"amenity": "hospital", "name": "\u0e42\u0e23\u0e07\u0e1e\u0e22\u0e32\u0e1a\u0e32\u0e25\u0e08\u0e38\u0e2c\u0e32\u0e20\u0e23\u0e13\u0e4c\u0e19\u0e04\u0e23\u0e28\u0e23\u0e35\u0e18\u0e23\u0e23\u0e21\u0e23\u0e32\u0e0a", "name:en": "Chulabhorn Nakhon Si Thammarat Hospital"}}, {"type": "node", "id": 7856632172, "lat": 7.975619, "lon": 99.6315014, "tags": {"amenity": "hospital", "name": "\u0e42\u0e23\u0e07\u0e1e\u0e22\u0e32\u0e1a\u0e32\u0e25\u0e23\u0e31\u0e29\u0e0e\u0e32", "name:en": "Ratsada Hospital"}}, {"type": "node", "id": 7856632173, "lat": 8.0261168, "lon": 99.4824457, "tags": {"amenity": "hospital", "name": "\u0e42\u0e23\u0e07\u0e1e\u0e22\u0e32\u0e1a\u0e32\u0e25\u0e1a\u0e32\u0e07\u0e02\u0e31\u0e19", "name:en": "Bang Khan Hospital"}}, {"type": "node", "id": 7856632174, "lat": 8.0626927, "lon": 99.3023944, "tags": {"amenity": "hospital", "name": "\u0e42\u0e23\u0e07\u0e1e\u0e22\u0e32\u0e1a\u0e32\u0e25\u0e25\u0e33\u0e17\u0e31\u0e1a", "name:en": "Lam Thap Hospital"}}, {"type": "node", "id": 7856632175, "lat": 8.1651736, "lon": 99.6775281, "tags": {"amenity": "hospital", "name": "\u0e42\u0e23\u0e07\u0e1e\u0e22\u0e32\u0e1a\u0e32\u0e25\u0e23\u0e27\u0e21\u0e41\u0e1e\u0e17\u0e22\u0e4c\u0e17\u0e38\u0e48\u0e07\u0e2a\u0e07", "name:en": "Ruam Phaet Thung Song Hospital"}}, {"type": "node", "id": 7856632176, "lat": 8.2589749, "lon": 99.5829642, "tags": {"amenity": "hospital", "name": "\u0e42\u0e23\u0e07\u0e1e\u0e22\u0e32\u0e1a\u0e32\u0e25\u0e19\u0e32\u0e1a\u0e2d\u0e19", "name:en": "Na Bon Hospital"}}, {"type": "node", "id": 7856632177, "lat": 8.446362, "lon": 99.5334613, "tags": {"amenity": "hospital", "name": "\u0e42\u0e23\u0e07\u0e1e\u0e22\u0e32\u0e1a\u0e32\u0e25\u0e2a\u0e21\u0e40\u0e14\u0e47\u0e08\u0e1e\u0e23\u0e30\u0e22\u0e38\u0e1e\u0e23\u0e32\u0e0a\u0e09\u0e27\u0e32\u0e07", "name:en": "Somdet Phra Yuppharat Chawang Hospital"}}, {"type": "node", "id": 7856632178, "lat": 8.5401966, "lon": 99.6085417, "tags": {"amenity": "hospital", "name": "\u0e42\u0e23\u0e07\u0e1e\u0e22\u0e32\u0e1a\u0e32\u0e25\u0e1e\u0e34\u0e1b\u0e39\u0e19", "name:en": "Phipun Hospital"}}, {"type": "node", "id": 7856632179, "lat": 8.4210186, "lon": 99.3939221, "tags": {"amenity": "hospital", "name": "\u0e42\u0e23\u0e07\u0e1e\u0e22\u0e32\u0e1a\u0e32\u0e25\u0e16\u0e49\u0e33\u0e1e\u0e23\u0e23\u0e13\u0e23\u0e32", "name:en": "Tham Phannara Hospital"}}, {"type": "node", "id": 7856632180, "lat": 8.6375722, "lon": 99.3710375, "tags": {"amenity": "hospital", "name": "\u0e42\u0e23\u0e07\u0e1e\u0e22\u0e32\u0e1a\u0e32\u0e25\u0e2a\u0e21\u0e40\u0e14\u0e47\u0e08\u0e1e\u0e23\u0e30\u0e22\u0e38\u0e1e\u0e23\u0e32\u0e0a\u0e40\u0e27\u0e35\u0e22\u0e07\u0e2a\u0e23\u0e30", "name:en": "Somdet Phra Yuppharat Wiang Sa Hospital"}}, {"type": "node", "id": 7856632181, "lat": 8.6345597, "lon": 99.3687522, "tags": {"amenity": "hospital", "name": "\u0e42\u0e23\u0e07\u0e1e\u0e22\u0e32\u0e1a\u0e32\u0e25\u0e40\u0e27\u0e35\u0e22\u0e07\u0e40\u0e27\u0e0a", "name:en": "Wiang Wet Hospital"}}, {"type": "node", "id": 7856632182, "lat": 8.6347825, "lon": 99.3516505, "tags": {"amenity": "hospital", "name": "\u0e42\u0e23\u0e07\u0e1e\u0e22\u0e32\u0e1a\u0e32\u0e25\u0e41\u0e1e\u0e17\u0e22\u0e4c\u0e2a\u0e38\u0e19\u0e17\u0e23", "name:en": "Phaet Sunthon Hospital"}}, {"type": "node", "id": 7856632183, "lat": 9.0080016, "lon": 99.9038313, "tags": {"amenity": "hospital", "name": "\u0e42\u0e23\u0e07\u0e1e\u0e22\u0e32\u0e1a\u0e32\u0e25\u0e2a\u0e34\u0e0a\u0e25", "name:en": "Sichon Hospital", "wikidata": "Q56204514"}}, {"type": "node", "id": 7856632184, "lat": 9.2045129, "lon": 99.860208, "tags": {"amenity": "hospital", "name": "\u0e42\u0e23\u0e07\u0e1e\u0e22\u0e32\u0e1a\u0e32\u0e25\u0e02\u0e19\u0e2d\u0e21", "name:en": "Khanom Hospital"}}, {"type": "node", "id": 7856667385, "lat": 9.3182967, "lon": 99.6944958, "tags": {"amenity": "hospital", "name": "\u0e42\u0e23\u0e07\u0e1e\u0e22\u0e32\u0e1a\u0e32\u0e25\u0e14\u0e2d\u0e19\u0e2a\u0e31\u0e01", "name:en": "Don Sak Hospital"}}, {"type": "node", "id": 7856667386, "lat": 9.1616286, "lon": 99.4929546, "tags": {"amenity": "hospital", "name": "\u0e42\u0e23\u0e07\u0e1e\u0e22\u0e32\u0e1a\u0e32\u0e25\u0e01\u0e32\u0e0d\u0e08\u0e19\u0e14\u0e34\u0e29\u0e10\u0e4c", "name:en": "Kanchanadit Hospital"}}, {"type": "node", "id": 7856667387, "lat": 9.1083682, "lon": 99.2397487, "tags": {"amenity": "hospital", "name": "\u0e42\u0e23\u0e07\u0e1e\u0e22\u0e32\u0e1a\u0e32\u0e25\u0e2a\u0e27\u0e19\u0e2a\u0e23\u0e32\u0e0d\u0e23\u0e21\u0e22\u0e4c", "name:en": "Suan Saranrom Hospital"}}, {"type": "node", "id": 7856667389, "lat": 9.1475039, "lon": 99.3293774, "tags": {"amenity": "hospital", "name": "\u0e42\u0e23\u0e07\u0e1e\u0e22\u0e32\u0e1a\u0e32\u0e25\u0e1a\u0e49\u0e32\u0e19\u0e14\u0e2d\u0e19", "name:en": "Ban Don Hospital"}}, {"type": "node", "id": 7856667390, "lat": 9.1155188, "lon": 99.3089121, "tags": {"amenity": "hospital", "name": "\u0e42\u0e23\u0e07\u0e1e\u0e22\u0e32\u0e1a\u0e32\u0e25\u0e28\u0e23\u0e35\u0e27\u0e34\u0e0a\u0e31\u0e22\u0e2a\u0e38\u0e23\u0e32\u0e29\u0e0e\u0e23\u0e4c\u0e18\u0e32\u0e19\u0e35", "name:en": "Si Wichai Surat Thani Hospital"}}, {"type": "node", "id": 7856667391, "lat": 9.1057992, "lon": 99.2325255, "tags": {"amenity": "hospital", "name": "\u0e42\u0e23\u0e07\u0e1e\u0e22\u0e32\u0e1a\u0e32\u0e25\u0e1e\u0e38\u0e19\u0e1e\u0e34\u0e19", "name:en": "Phunphin Hospital"}}, {"type": "node", "id": 7856667392, "lat": 9.0566043, "lon": 99.1724038, "tags": {"amenity": "hospital", "name": "\u0e42\u0e23\u0e07\u0e1e\u0e22\u0e32\u0e1a\u0e32\u0e25\u0e17\u0e48\u0e32\u0e42\u0e23\u0e07\u0e0a\u0e49\u0e32\u0e07", "name:en": "Tha Rong Chang Hospital"}}, {"type": "node", "id": 7856667393, "lat": 8.842107, "lon": 99.3667138, "tags": {"amenity": "hospital", "name": "\u0e42\u0e23\u0e07\u0e1e\u0e22\u0e32\u0e1a\u0e32\u0e25\u0e1a\u0e49\u0e32\u0e19\u0e19\u0e32\u0e2a\u0e32\u0e23", "name:en": "Ban Na San Hospital"}}, {"type": "node", "id": 7856667394, "lat": 8.8927567, "lon": 99.3058383, "tags": {"amenity": "hospital", "name": "\u0e42\u0e23\u0e07\u0e1e\u0e22\u0e32\u0e1a\u0e32\u0e25\u0e1a\u0e49\u0e32\u0e19\u0e19\u0e32\u0e40\u0e14\u0e34\u0e21", "name:en": "Ban Na Doem Hospital"}}, {"type": "node", "id": 7856667395, "lat": 8.8345959, "lon": 99.1604519, "tags": {"amenity": "hospital", "healthcare": "hospital", "name": "\u0e42\u0e23\u0e07\u0e1e\u0e22\u0e32\u0e1a\u0e32\u0e25\u0e40\u0e04\u0e35\u0e22\u0e19\u0e0b\u0e32", "name:en": "Khian Sa Hospital"}}, {"type": "node", "id": 7856667396, "lat": 8.5724493, "lon": 99.2431336, "tags": {"amenity": "hospital", "name": "\u0e42\u0e23\u0e07\u0e1e\u0e22\u0e32\u0e1a\u0e32\u0e25\u0e1e\u0e23\u0e30\u0e41\u0e2a\u0e07", "name:en": "Phra Saeng Hospital"}}, {"type": "node", "id": 7856667398, "lat": 9.9642434, "lon": 99.1497767, "tags": {"amenity": "hospital", "name": "\u0e42\u0e23\u0e07\u0e1e\u0e22\u0e32\u0e1a\u0e32\u0e25\u0e1b\u0e32\u0e01\u0e19\u0e49\u0e33\u0e2b\u0e25\u0e31\u0e07\u0e2a\u0e27\u0e19", "name:en": "Pak Nam Lang Suan Hospital"}}, {"type": "node", "id": 7856667399, "lat": 9.9831367, "lon": 99.0665853, "tags": {"amenity": "hospital", "name": "\u0e42\u0e23\u0e07\u0e1e\u0e22\u0e32\u0e1a\u0e32\u0e25\u0e2b\u0e25\u0e31\u0e07\u0e2a\u0e27\u0e19", "name:en": "Lang Suan Hospital"}}, {"type": "node", "id": 7856667400, "lat": 9.7575619, "lon": 99.0864873, "tags": {"amenity": "hospital", "name": "\u0e42\u0e23\u0e07\u0e1e\u0e22\u0e32\u0e1a\u0e32\u0e25\u0e25\u0e30\u0e41\u0e21", "name:en": "Lamae Hospital"}}, {"type": "node", "id": 7856667401, "lat": 9.5974918, "lon": 99.1660952, "tags": {"amenity": "hospital", "name": "\u0e42\u0e23\u0e07\u0e1e\u0e22\u0e32\u0e1a\u0e32\u0e25\u0e17\u0e48\u0e32\u0e0a\u0e19\u0e30", "name:en": "Tha Chana Hospital"}}, {"type": "node", "id": 7856667402, "lat": 9.2418008, "lon": 98.9797138, "tags": {"amenity": "hospital", "name": "\u0e42\u0e23\u0e07\u0e1e\u0e22\u0e32\u0e1a\u0e32\u0e25\u0e27\u0e34\u0e20\u0e32\u0e27\u0e14\u0e35", "name:en": "Vibhavadi Hospital"}}, {"type": "node", "id": 7856667403, "lat": 9.3859057, "lon": 99.206779, "tags": {"amenity": "hospital", "name": "\u0e42\u0e23\u0e07\u0e1e\u0e22\u0e32\u0e1a\u0e32\u0e25\u0e44\u0e0a\u0e22\u0e32", "name:en": "Chaiya Hospital"}}, {"type": "node", "id": 7856667404, "lat": 9.2577589, "lon": 99.187805, "tags": {"amenity": "hospital", "name": "\u0e42\u0e23\u0e07\u0e1e\u0e22\u0e32\u0e1a\u0e32\u0e25\u0e17\u0e48\u0e32\u0e09\u0e32\u0e07", "name:en": "Tha Chang Hospital"}}, {"type": "node", "id": 7856667405, "lat": 9.1553475, "lon": 99.1453028, "tags": {"amenity": "hospital", "name": "\u0e42\u0e23\u0e07\u0e1e\u0e22\u0e32\u0e1a\u0e32\u0e25\u0e01\u0e2d\u0e07\u0e1a\u0e34\u0e19 7", "name:en": "Kong Bin 7 Hospital"}}, {"type": "node", "id": 7856667406, "lat": 9.0180256, "lon": 98.9703154, "tags": {"amenity": "hospital", "name": "\u0e42\u0e23\u0e07\u0e1e\u0e22\u0e32\u0e1a\u0e32\u0e25\u0e04\u0e35\u0e23\u0e35\u0e23\u0e31\u0e10\u0e19\u0e34\u0e04\u0e21", "name:en": "Khiri Rat Nikhom Hospital"}}, {"type": "node", "id": 7856667407, "lat": 8.8649098, "lon": 98.8183093, "tags": {"amenity": "hospital", "name": "\u0e42\u0e23\u0e07\u0e1e\u0e22\u0e32\u0e1a\u0e32\u0e25\u0e1e\u0e19\u0e21", "name:en": "Phanom Hospital"}}, {"type": "node", "id": 7856667408, "lat": 8.4695708, "lon": 99.0812945, "tags": {"amenity": "hospital", "name": "\u0e42\u0e23\u0e07\u0e1e\u0e22\u0e32\u0e1a\u0e32\u0e25\u0e0a\u0e31\u0e22\u0e1a\u0e38\u0e23\u0e35", "name:en": "Chai Buri Hospital"}}, {"type": "node", "id": 7856667409, "lat": 8.2572655, "lon": 99.0459269, "tags": {"amenity": "hospital", "name": "\u0e42\u0e23\u0e07\u0e1e\u0e22\u0e32\u0e1a\u0e32\u0e25\u0e40\u0e02\u0e32\u0e1e\u0e19\u0e21", "name:en": "Khao Phanom Hospital"}}, {"type": "node", "id": 7856667412, "lat": 8.500633, "lon": 98.629227, "tags": {"amenity": "hospital", "name": "\u0e42\u0e23\u0e07\u0e1e\u0e22\u0e32\u0e1a\u0e32\u0e25\u0e17\u0e31\u0e1a\u0e1b\u0e38\u0e14", "name:en": "Thap Put Hospital"}}, {"type": "node", "id": 7856667413, "lat": 8.5794936, "lon": 98.2418275, "tags": {"amenity": "hospital", "name": "\u0e42\u0e23\u0e07\u0e1e\u0e22\u0e32\u0e1a\u0e32\u0e25\u0e10\u0e32\u0e19\u0e17\u0e31\u0e1e\u0e40\u0e23\u0e37\u0e2d\u0e1e\u0e31\u0e07\u0e07\u0e32", "name:en": "Phang Nga Navy Hospital"}}, {"type": "node", "id": 7856667414, "lat": 8.6857892, "lon": 98.3984578, "tags": {"amenity": "hospital", "name": "\u0e42\u0e23\u0e07\u0e1e\u0e22\u0e32\u0e1a\u0e32\u0e25\u0e01\u0e30\u0e1b\u0e07", "name:en": "Kapong Hospital"}}, {"type": "node", "id": 7856667418, "lat": 9.778793, "lon": 98.5928643, "tags": {"amenity": "hospital", "healthcare": "hospital", "name": "\u0e42\u0e23\u0e07\u0e1e\u0e22\u0e32\u0e1a\u0e32\u0e25\u0e04\u0e48\u0e32\u0e22\u0e23\u0e31\u0e15\u0e19\u0e23\u0e31\u0e07\u0e2a\u0e23\u0e23\u0e04\u0e4c", "name:en": "Khai Rattanarangsan Hospital"}}, {"type": "node", "id": 8041953789, "lat": 7.6164757, "lon": 99.0305637, "tags": {"amenity": "hospital", "internet_access": "wlan", "name": "Best hotel"}}, {"type": "node", "id": 8584743584, "lat": 2.300195, "lon": 97.408142, "tags": {"amenity": "hospital", "healthcare": "hospital", "name": "Puskesmas Pulau Banyak"}}, {"type": "node", "id": 8795170188, "lat": 2.8343956, "lon": 99.1718052, "tags": {"addr:city": "TANAH JAWA", "addr:postcode": "21174", "addr:street": "JALAN RRAYA P. MANDOGE", "amenity": "hospital", "description": "Jl. Raya P. Mandoge, Saribu Asih, Hatonduhan, Kabupaten Simalungun, Sumatera Utara 21174", "healthcare": "hospital", "healthcare:speciality": "general;vaccination", "name": "PUSKESMAS HATONDUHAN"}}, {"type": "node", "id": 8795177479, "lat": 2.8838349, "lon": 99.1838318, "tags": {"addr:postcode": "21181", "addr:street": "Pematang Tanah Jawa, Tanah Jawa, Kabupaten Simalungun, Sumatera Utara", "amenity": "hospital", "description": "Pematang Tanah Jawa, Tanah Jawa, Kabupaten Simalungun, Sumatera Utara 21181", "healthcare": "hospital", "healthcare:speciality": "general;vaccination", "name": "PUSKESMAS TANAH JAWA"}}, {"type": "node", "id": 8941002800, "lat": 5.1825656, "lon": 97.1496453, "tags": {"amenity": "hospital", "healthcare": "hospital", "healthcare:speciality": "general", "name": "RUMAH SAKIT KESREM"}}, {"type": "node", "id": 8941055229, "lat": 5.1831297, "lon": 97.1498584, "tags": {"amenity": "hospital", "healthcare": "hospital", "healthcare:speciality": "general", "name": "RUMAH SAKIT PMI"}}, {"type": "node", "id": 8941055233, "lat": 5.1837238, "lon": 97.1500141, "tags": {"amenity": "hospital", "healthcare": "hospital", "name": "KANTOR DINAS KESEHATAN KOTA LHOKSEUMAWE"}}, {"type": "node", "id": 9042208198, "lat": 5.1901192, "lon": 96.4963676, "tags": {"addr:city": "Jeunieb", "addr:postcode": "24263", "amenity": "hospital", "healthcare": "hospital", "name": "Puskesmas Jeunieb"}}, {"type": "node", "id": 9342394940, "lat": 8.0502783, "lon": 98.4666009, "tags": {"amenity": "hospital"}}, {"type": "node", "id": 9394250537, "lat": 6.8601334, "lon": 99.7927538, "tags": {"amenity": "hospital", "healthcare": "hospital", "name": "\u0e42\u0e23\u0e07\u0e1e\u0e22\u0e32\u0e1a\u0e32\u0e25\u0e2a\u0e48\u0e07\u0e40\u0e2a\u0e23\u0e34\u0e21\u0e2a\u0e38\u0e02\u0e20\u0e32\u0e1e\u0e15\u0e33\u0e1a\u0e25\u0e1a\u0e49\u0e32\u0e19\u0e43\u0e19\u0e40\u0e21\u0e37\u0e2d\u0e07"}}, {"type": "node", "id": 9465759460, "lat": 3.5862458, "lon": 98.6666097, "tags": {"addr:city": "Medan", "addr:housenumber": "236", "addr:street": "Jalan S. Parman", "amenity": "hospital", "emergency": "yes", "healthcare": "hospital", "name": "RS Mitra Medika Premiere"}}, {"type": "node", "id": 9565188717, "lat": 8.8647969, "lon": 98.8188227, "tags": {"amenity": "hospital", "name:en": "Phanom hospital", "opening_hours": "24/7"}}, {"type": "node", "id": 9600162153, "lat": 3.9032812, "lon": 98.425889, "tags": {"amenity": "hospital", "healthcare": "hospital", "name": "RSUD Tanjungpura"}}, {"type": "node", "id": 9602285744, "lat": 7.8960933, "lon": 98.3831624, "tags": {"amenity": "hospital", "healthcare": "hospital", "name": "Medical Center Building (Vachira Phuket Hospital) - \u0e2d\u0e32\u0e04\u0e32\u0e23\u0e28\u0e39\u0e19\u0e22\u0e4c\u0e41\u0e1e\u0e17\u0e22\u0e4c (\u0e42\u0e23\u0e07\u0e1e\u0e22\u0e32\u0e1a\u0e32\u0e25\u0e27\u0e0a\u0e34\u0e23\u0e30\u0e20\u0e39\u0e40\u0e01\u0e47\u0e15)"}}, {"type": "node", "id": 9602371926, "lat": 7.897001, "lon": 98.3824506, "tags": {"amenity": "hospital", "healthcare": "hospital", "name": "Vachira Phuket Hospital Ban Khun Pum Building - \u0e42\u0e23\u0e07\u0e1e\u0e22\u0e32\u0e1a\u0e32\u0e25\u0e27\u0e0a\u0e34\u0e23\u0e30\u0e20\u0e39\u0e40\u0e01\u0e47\u0e15 \u0e2d\u0e32\u0e04\u0e32\u0e23\u0e1a\u0e49\u0e32\u0e19\u0e04\u0e38\u0e13\u0e1e\u0e38\u0e48\u0e21"}}, {"type": "node", "id": 9791638075, "lat": 3.5617427, "lon": 99.0074238, "tags": {"amenity": "hospital", "name": "RS Umum Trianda"}}, {"type": "node", "id": 9800497938, "lat": 3.5923807, "lon": 98.6219609, "tags": {"amenity": "hospital", "name": "Rumah Sakit Hewan Pemprovsu"}}, {"type": "node", "id": 9800500297, "lat": 3.5983989, "lon": 98.6594963, "tags": {"amenity": "hospital", "healthcare": "hospital", "name": "Prima Vision Eye Hospital", "name:id": "RS Mata Prima Vision"}}, {"type": "node", "id": 9800560392, "lat": 3.5255807, "lon": 98.7941131, "tags": {"amenity": "hospital", "name": "RS umum Dermaga"}}, {"type": "node", "id": 9916870710, "lat": 1.3600601, "lon": 97.5663908, "tags": {"addr:city": "Gunungsitoli Utara", "addr:street": "Olora", "amenity": "hospital", "emergency": "yes", "healthcare": "hospital", "healthcare:speciality": "general", "name": "UPTD Puskesmas Gunungsitoli Utara"}}, {"type": "node", "id": 9982563735, "lat": 2.649102, "lon": 97.9885429, "tags": {"amenity": "hospital", "name": "Rumah Sakit Umum Kota Subulussalam"}}, {"type": "node", "id": 10127760493, "lat": 8.0758642, "lon": 98.9152065, "tags": {"addr:district": "\u0e2d\u0e33\u0e40\u0e20\u0e2d\u0e40\u0e21\u0e37\u0e2d\u0e07", "addr:housenumber": "325", "addr:postcode": "81000", "addr:province": "\u0e08\u0e31\u0e07\u0e2b\u0e27\u0e31\u0e14\u0e01\u0e23\u0e30\u0e1a\u0e35\u0e48", "addr:street": "\u0e16\u0e19\u0e19\u0e2d\u0e38\u0e15\u0e23\u0e01\u0e34\u0e08", "addr:subdistrict": "\u0e15\u0e33\u0e1a\u0e25\u0e1b\u0e32\u0e01\u0e19\u0e49\u0e33", "amenity": "hospital", "emergency": "yes", "healthcare": "hospital", "name": "\u0e42\u0e23\u0e07\u0e1e\u0e22\u0e32\u0e1a\u0e32\u0e25\u0e01\u0e23\u0e30\u0e1a\u0e35\u0e48", "name:en": "Krabi Hospital", "name:th": "\u0e42\u0e23\u0e07\u0e1e\u0e22\u0e32\u0e1a\u0e32\u0e25\u0e01\u0e23\u0e30\u0e1a\u0e35\u0e48", "phone": "075-626700"}}, {"type": "node", "id": 10211200647, "lat": 2.567699, "lon": 99.6537386, "tags": {"addr:city": "Aek Kanopan", "addr:housenumber": "No.29", "addr:postcode": "21457", "addr:street": "Jalan Jenderal Sudirman", "amenity": "hospital", "healthcare": "hospital", "healthcare:speciality": "hospital", "name": "Rumah Sakit Umum FLORA"}}, {"type": "node", "id": 10224835146, "lat": 5.1899701, "lon": 96.7019021, "tags": {"amenity": "hospital", "healthcare": "hospital"}}, {"type": "node", "id": 10224835147, "lat": 5.1900742, "lon": 96.7019007, "tags": {"amenity": "hospital", "healthcare": "hospital", "name": "bireuen medical center"}}, {"type": "node", "id": 10224835148, "lat": 5.1900809, "lon": 96.7018967, "tags": {"amenity": "hospital", "healthcare": "hospital", "name": "BIREUEN MEDICAL CENTER"}}, {"type": "node", "id": 10723480809, "lat": 7.7379977, "lon": 98.7677665, "tags": {"amenity": "hospital", "emergency": "yes", "healthcare": "hospital", "name": "Phi Phi Hospital"}}, {"type": "node", "id": 10803867546, "lat": 5.531382, "lon": 95.3413581, "tags": {"addr:city": "Banda Aceh", "addr:postcode": "23246", "addr:street": "Jalan Turi Utama, Cot Mesjid", "amenity": "hospital", "healthcare": "hospital", "healthcare:speciality": "general", "name": "UPTD Puskesmas Batoh", "operator": "Government", "operator:type": "government"}}, {"type": "node", "id": 10803867547, "lat": 5.5348893, "lon": 95.2899754, "tags": {"addr:city": "Banda Aceh", "addr:postcode": "23232", "addr:street": "Jalan Lampoh Daya, Kec. Jaya Baru", "amenity": "hospital", "healthcare": "hospital", "healthcare:speciality": "general", "name": "UPTD Puskesmas Jaya Baru", "operator": "Government", "operator:type": "government"}}, {"type": "node", "id": 10803867548, "lat": 5.576483, "lon": 95.343692, "tags": {"addr:city": "Banda Aceh", "addr:postcode": "23114", "addr:street": "Jalan Bate Timoh, Jeulingke, Kec. Syiah Kuala", "amenity": "hospital", "healthcare": "hospital", "healthcare:speciality": "general", "name": "UPTD Puskesmas Jeulingke", "operator": "Government", "operator:type": "government"}}, {"type": "node", "id": 11296585070, "lat": 9.1486577, "lon": 99.3327309, "tags": {"amenity": "hospital", "internet_access": "wlan"}}, {"type": "way", "id": 30818753, "center": {"lat": 3.3282626, "lon": 99.1626172}, "nodes": [342088589, 342088591, 342088592, 342088593, 342088589], "tags": {"amenity": "hospital", "healthcare": "hospital", "name": "Rumah Sakit Umum Herna"}}, {"type": "way", "id": 152774700, "center": {"lat": 7.8979336, "lon": 98.3675427}, "nodes": [5461381324, 6568384041, 5461381325, 5461381322, 5461381326, 5461381327, 5461381328, 1655566041, 1655566031, 1655566030, 1655566038, 1655566035, 1655566039, 1655566043, 1655566042, 1655566036, 5461381323, 5461381324], "tags": {"addr:housenumber": "44", "addr:street": "Chalermprakiat Ror 9", "amenity": "hospital", "building": "yes", "name": "\u0e42\u0e23\u0e07\u0e1e\u0e22\u0e32\u0e1a\u0e32\u0e25\u0e2a\u0e34\u0e23\u0e34\u0e42\u0e23\u0e08\u0e19\u0e4c", "name:en": "Phuket International Hospital", "name:zh": "\u533b\u9662", "website": "https://phuketinternationalhospital.com/", "wheelchair": "yes"}}, {"type": "way", "id": 152775288, "center": {"lat": 7.9039469, "lon": 98.3757274}, "nodes": [1655572241, 1655572228, 1655572226, 1655572237, 1655572225, 1655572219, 1655572220, 1655572227, 1655572230, 1655572223, 1655572233, 1655572231, 1655572235, 1655572229, 1655572240, 1655572243, 1655572244, 1655572242, 1655572222, 1655572224, 1655572221, 1655572238, 1655572236, 1655572232, 1655572234, 1655572239, 1655572241], "tags": {"amenity": "hospital", "building": "hospital", "emergency": "yes", "healthcare": "hospital", "name": "\u0e42\u0e23\u0e07\u0e1e\u0e22\u0e32\u0e1a\u0e32\u0e25\u0e01\u0e23\u0e38\u0e07\u0e40\u0e17\u0e1e \u0e20\u0e39\u0e40\u0e01\u0e47\u0e15", "name:en": "Bangkok Hospital Phuket", "website": "https://www.phukethospital.com/", "wheelchair": "yes"}}, {"type": "way", "id": 232078198, "center": {"lat": 7.8962955, "lon": 98.3838357}, "nodes": [2404232239, 2404232234, 2404232232, 2404232230, 2404232228, 2404232226, 2404232365, 2404232364, 2404232239], "tags": {"addr:housenumber": "353", "addr:street": "Yaowarat", "amenity": "hospital", "building": "yes", "name:en": "Vachira Phuket Hospital", "wheelchair": "yes", "wikidata": "Q50037119"}}, {"type": "way", "id": 241200646, "center": {"lat": 0.8643421, "lon": 99.5639447}, "nodes": [2488969404, 2488969405, 9467913497, 4052159998, 5524471696, 5524471697, 2488969407, 2488969404], "tags": {"amenity": "hospital", "healthcare": "hospital", "name": "Rumah Sakit Umum Daerah Panyabungan"}}, {"type": "way", "id": 244170177, "center": {"lat": 3.7396805, "lon": 96.7990384}, "nodes": [2515158032, 2515158030, 2515158029, 9491203526, 9491203527, 9491203528, 9491203525, 2515158031, 2515158032], "tags": {"amenity": "hospital", "healthcare": "hospital", "name": "Rumah Sakit Teungku Peukan"}}, {"type": "way", "id": 247207369, "center": {"lat": 3.9391358, "lon": 96.6752453}, "nodes": [2541376228, 2541376229, 2541376227, 2541376224, 2541376228], "tags": {"amenity": "hospital", "healthcare": "hospital"}}, {"type": "way", "id": 248457654, "center": {"lat": 3.8190206, "lon": 96.7633407}, "nodes": [2552517644, 2552517642, 2552517645, 2552517648, 2552517650, 2552517646, 2552517651, 2552517654, 10613532486, 10613532487, 10613532485, 2552517659, 2552517655, 2552517660, 2552517656, 10613532483, 10613532484, 2552517641, 10613532482, 10613532481, 10613532480, 2552517644], "tags": {"amenity": "hospital", "building": "yes"}}, {"type": "way", "id": 252730085, "center": {"lat": 3.8145653, "lon": 96.7630669}, "nodes": [2587676355, 2587676354, 2587676351, 2587676353, 2587676355], "tags": {"amenity": "hospital", "healthcare": "hospital", "name": "Puskesmas Kuala Batee"}}, {"type": "way", "id": 255708169, "center": {"lat": 0.7530536, "lon": 97.8792701}, "nodes": [2613796085, 2613796088, 2613796087, 2613796082, 2613796085], "tags": {"amenity": "hospital", "building:use": "medical", "emergency": "yes", "healthcare": "hospital", "name": "Puskesmas Perawatan Plus Lahusa"}}, {"type": "way", "id": 275238208, "center": {"lat": 3.5554578, "lon": 98.638708}, "nodes": [2798764831, 2798764832, 2798764833, 2798764834, 2798764831], "tags": {"addr:city": "Medan", "addr:street": "Jalan Harmonika Baru", "amenity": "hospital", "emergency": "yes", "name": "Rumah Sakit Susana Wesley"}}, {"type": "way", "id": 275292644, "center": {"lat": 3.5211527, "lon": 98.6295736}, "nodes": [2799309334, 2799309335, 9215655317, 9215629116, 2799309336, 2799309337, 2799309338, 9215629115, 9215629114, 9215629113, 2799309339, 2799309334], "tags": {"amenity": "hospital", "healthcare": "hospital", "name": "RSJ Prof DR Muhammad Ildrem"}}, {"type": "way", "id": 275295457, "center": {"lat": 3.5182212, "lon": 98.6085392}, "nodes": [2799335932, 2799335933, 2799335934, 2799335935, 2799335932], "tags": {"addr:city": "Medan", "addr:full": "Jalan Bunga Lau No. 17, Medan", "addr:housenumber": "17", "addr:postcode": "20136", "addr:street": "Jl. Bunga Lau No.17, Kemenangan Tani, Kec. Medan Tuntungan, Kota Medan, Sumatera Utara", "amenity": "hospital", "emergency": "yes", "healthcare": "hospital", "healthcare:speciality": "general", "name": "RSUP H. Adam Malik", "operator:type": "government"}}, {"type": "way", "id": 277040399, "center": {"lat": 3.9098314, "lon": 96.6950681}, "nodes": [2815934110, 2815934109, 2815934107, 2815934108, 9496938147, 9496938148, 2815934110], "tags": {"amenity": "hospital", "healthcare": "hospital", "name": "TK Melati Eks PUSKESMAS Babahrot"}}, {"type": "way", "id": 288696594, "center": {"lat": 3.5806968, "lon": 98.6544548}, "nodes": [2922446607, 2922446649, 2922446640, 2922446498, 2922446607], "tags": {"amenity": "hospital", "building": "yes", "healthcare": "hospital", "name": "RS Mata 77 Sei Mencirim"}}, {"type": "way", "id": 288720866, "center": {"lat": 3.572399, "lon": 98.6590224}, "nodes": [2922801822, 2922801837, 2922801848, 2922801840, 2922801846, 2922801851, 2922801864, 2922801845, 2922801850, 2922801839, 2922801811, 2922801821, 2922801822], "tags": {"amenity": "hospital", "building": "yes", "healthcare": "hospital", "name": "RS Bhayangkara Medan"}}, {"type": "way", "id": 288721154, "center": {"lat": 3.5733193, "lon": 98.6433928}, "nodes": [2922820173, 2922820187, 2922820182, 2922820170, 2922820173], "tags": {"amenity": "hospital", "building": "yes", "healthcare": "hospital", "name": "Rumah Sakit Setia Budi"}}, {"type": "way", "id": 288740646, "center": {"lat": 3.5806596, "lon": 98.6857521}, "nodes": [2923001755, 2923001753, 2923001754, 2923001756, 2923001755], "tags": {"amenity": "hospital", "building:levels": "3", "capacity:persons": "1000", "healthcare": "hospital", "name": "RS. Permata Bunda", "operator:type": "private"}}, {"type": "way", "id": 289693312, "center": {"lat": 3.5836614, "lon": 98.6928578}, "nodes": [2932443758, 2932443757, 9491095097, 2932443755, 2932443756, 9491095100, 9491095101, 9491095099, 9491095098, 2932443758], "tags": {"alt_name": "RSU Methodist", "amenity": "hospital", "emergency": "yes", "healthcare": "hospital", "name": "Rumah Sakit Methodist"}}, {"type": "way", "id": 297866946, "center": {"lat": 5.2166047, "lon": 97.0490686}, "nodes": [3041512619, 10198649224, 3017682032, 3017698633, 3017698634, 3013998383, 3680013067, 3056644067, 3017698636, 3057001257, 3057001256, 3041512592, 3057001264, 3057001268, 3057001267, 3041512595, 3041512588, 3041512589, 3041520178, 3041512619], "tags": {"addr:city": "Lhokseumawe", "addr:postcode": "24353", "addr:street": "Jalan Plaju", "amenity": "hospital", "healthcare": "hospital", "name": "Arun Hospital"}}, {"type": "way", "id": 298554733, "center": {"lat": 5.1822081, "lon": 97.1378282}, "nodes": [3024494984, 3024494985, 9470575992, 3024494986, 9470575993, 9470575994, 3024494987, 9470575995, 3024494988, 3024494976, 3024494975, 3024494984], "tags": {"addr:city": "Lhokseumawe", "addr:housenumber": "17", "addr:street": "Jalan Merdeka", "amenity": "hospital", "emergency": "yes", "healthcare": "hospital", "image": "http://1.bp.blogspot.com/-qTOrLiEHI3s/UiYvGoBgRQI/AAAAAAABQbY/P1v9H4S8y1Q/s640/rumah-sakit.jpg", "name": "RS Kasih Ibu", "wikidata": "Q5784", "wikipedia": "id:Lhokseumawe"}}, {"type": "way", "id": 302432205, "center": {"lat": 5.5643716, "lon": 95.338744}, "nodes": [3066906731, 10613685127, 10613685128, 3066906732, 3066906733, 3066906734, 3070885244, 3070885245, 10613685056, 10613685055, 10613685054, 3070885246, 3070885243, 3066906731], "tags": {"addr:city": "Banda Aceh", "addr:full": "Jalan Tgk.Daud Beureueh No.108 Banda Aceh", "addr:housenumber": "108", "addr:postcode": "24415", "addr:street": "Jalan Mohammad Daud Beureueh", "amenity": "hospital", "emergency": "yes", "healthcare": "hospital", "healthcare:speciality": "general", "name": "Rumah Sakit Umum Zainoel Abidin", "operator:type": "government", "wikidata": "Q86447251"}}, {"type": "way", "id": 308131238, "center": {"lat": 5.1222654, "lon": 97.156515}, "nodes": [3134172187, 3134172188, 3134172189, 3134172190, 3134172191, 3134172192, 3134172193, 3134172194, 3134172195, 3620632497, 3134172196, 3134172212, 3134172198, 3134172199, 3134172200, 3134172187], "tags": {"amenity": "hospital", "emergency": "yes", "healthcare": "hospital", "name": "Rumah Sakit Umum Cut Meutia"}}, {"type": "way", "id": 309176826, "center": {"lat": 3.5974656, "lon": 96.9425748}, "nodes": [3145090312, 3145090314, 3145090313, 3145090311, 3145090312], "tags": {"amenity": "hospital", "healthcare": "hospital", "name": "Puskesmas Lembah Sabil"}}, {"type": "way", "id": 314213431, "center": {"lat": 3.7385353, "lon": 96.8184465}, "nodes": [3202619598, 3202619549, 10613677117, 10613677116, 3202619537, 3202619583, 3202619598], "tags": {"amenity": "hospital", "building": "yes", "name": "Polindes"}}, {"type": "way", "id": 314740493, "center": {"lat": 3.714179, "lon": 96.8504631}, "nodes": [3207848603, 3207848602, 3207848599, 3207848601, 3207848603], "tags": {"amenity": "hospital", "building": "yes", "name": "PUSTU COTMANCANG"}}, {"type": "way", "id": 322189918, "center": {"lat": 9.1241844, "lon": 99.3096146}, "nodes": [1784812589, 3289564998, 3289564985, 3289564999, 3289565001, 3289565000, 1784812589], "tags": {"amenity": "hospital", "emergency": "yes", "name": "Surathani Hospital", "website": "https://www.srth.moph.go.th/", "wikidata": "Q96419436"}}, {"type": "way", "id": 324882577, "center": {"lat": 3.5858835, "lon": 98.6769592}, "nodes": [3315577675, 5367892343, 5367892344, 5367892352, 3315577676, 8552701977, 8552600971, 8552600970, 3463729603, 8552492089, 7327207239, 3906810193, 8552583218, 7327207238, 3463729611, 3315577675], "tags": {"addr:city": "Medan", "addr:full": "Jalan Listrik Nomor 2A", "addr:postcode": "20112", "addr:street": "Jalan Listrik", "amenity": "hospital", "capacity:persons": "227", "healthcare": "hospital", "name": "Rumah Sakit Columbia Asia", "operator:type": "private", "website": "https://www.columbiaasia.com/indonesia/hospitals/medan/overview"}}, {"type": "way", "id": 326373079, "center": {"lat": 3.5979043, "lon": 98.6883124}, "nodes": [3330060632, 3330060633, 3330060634, 3330060635, 3330060632], "tags": {"amenity": "hospital", "emergency": "no", "healthcare": "hospital", "name": "RSUD Dr Pirngadi"}}, {"type": "way", "id": 327627745, "center": {"lat": 3.72101, "lon": 96.841177}, "nodes": [3344360917, 3344360919, 3344360923, 3344360922, 3344360918, 3344360920, 3344360917], "tags": {"amenity": "hospital", "highway": "emergency_access_point", "name": "58"}}, {"type": "way", "id": 330194036, "center": {"lat": 3.599375, "lon": 96.943585}, "nodes": [3371465135, 3371465129, 3371465103, 3371465117, 3371465135], "tags": {"amenity": "hospital", "building": "yes", "name": "POSYANDU"}}, {"type": "way", "id": 331241841, "center": {"lat": 3.7377183, "lon": 96.8141957}, "nodes": [3382940728, 3382940726, 3455219460, 3382940721, 3382940727, 3382940728], "tags": {"amenity": "hospital", "building": "yes", "name": "PUSKESMAS GAMPONG COT JEURAT"}}, {"type": "way", "id": 334297547, "center": {"lat": 3.591039, "lon": 96.9232449}, "nodes": [3414128314, 3414128315, 3414128317, 3414128316, 3414128314], "tags": {"amenity": "hospital", "building": "yes", "name": "PUSTU LADANG TUHA II"}}, {"type": "way", "id": 334812268, "center": {"lat": 3.598148, "lon": 96.9194282}, "nodes": [3419193053, 3419193042, 3419193024, 3419193031, 3419193053], "tags": {"amenity": "hospital", "building": "yes", "name": "PUSKESMAS"}}, {"type": "way", "id": 337719830, "center": {"lat": 3.6626851, "lon": 96.90761}, "nodes": [3447843519, 3447841444, 3447843517, 3447843510, 3447843519], "tags": {"amenity": "hospital", "building": "yes", "name": "GEDUNG POSYANDU"}}, {"type": "way", "id": 338906087, "center": {"lat": 8.8629867, "lon": 98.333594}, "nodes": [3460602118, 3460602119, 3460602120, 3460602121, 3460602122, 3460602123, 3460602124, 3460602125, 3460602126, 3460602127, 3460602151, 3460602128, 702301955, 3460602118], "tags": {"addr:city": "\u0e15\u0e30\u0e01\u0e31\u0e48\u0e27\u0e1b\u0e48\u0e32", "addr:postcode": "82110", "addr:street": "\u0e16\u0e19\u0e19\u0e40\u0e1e\u0e0a\u0e23\u0e40\u0e01\u0e29\u0e21", "amenity": "hospital", "emergency": "yes", "healthcare": "hospital", "healthcare:speciality": "general", "name": "\u0e42\u0e23\u0e07\u0e1e\u0e22\u0e32\u0e1a\u0e32\u0e25\u0e15\u0e30\u0e01\u0e31\u0e48\u0e27\u0e1b\u0e48\u0e32", "name:en": "Takuapa Hospital", "phone": "1669", "wheelchair": "yes"}}, {"type": "way", "id": 339500438, "center": {"lat": 3.657295, "lon": 96.8975275}, "nodes": [3466996921, 3467063101, 3466995809, 3467068799, 3466996921], "tags": {"amenity": "hospital", "building": "yes", "name": "PUSTU"}}, {"type": "way", "id": 340866012, "center": {"lat": 3.7272139, "lon": 96.8212805}, "nodes": [3481023295, 3481005704, 3481005906, 3481000004, 3481023295], "tags": {"amenity": "hospital", "building": "yes", "name": "Pusptu pante pirak"}}, {"type": "way", "id": 341119008, "center": {"lat": 3.6530926, "lon": 96.8977462}, "nodes": [3483415708, 3483415710, 3483415693, 3483415692, 3483415708], "tags": {"amenity": "hospital", "building": "yes"}}, {"type": "way", "id": 346687824, "center": {"lat": 3.7242866, "lon": 96.8128374}, "nodes": [3532127213, 3532129205, 3532126903, 9464947025, 3532125511, 3532129495, 3532129207, 3532127213], "tags": {"amenity": "hospital", "healthcare": "hospital", "name": "Puskesmas Susoh"}}, {"type": "way", "id": 362532578, "center": {"lat": 3.5835402, "lon": 96.9391401}, "nodes": [3668175841, 3668175876, 3668175856, 3668175614, 3668175841], "tags": {"amenity": "hospital", "building": "yes", "healthcare": "hospital", "name": "puskesdes"}}, {"type": "way", "id": 380013528, "center": {"lat": 0.2009575, "lon": 99.379035}, "nodes": [3833620032, 3833620033, 3833620034, 3833620035, 3833620032], "tags": {"addr:city": "Nagari Air Bangis", "addr:street": "Jl. Gajah Mada Air Bangis, Kec. Sei Beremas", "amenity": "hospital", "healthcare": "hospital", "name": "Pusesmas Nagari Air Bangis"}}, {"type": "way", "id": 388088002, "center": {"lat": 5.5341737, "lon": 95.3030436}, "nodes": [3912865203, 3912865226, 3912865054, 3912865037, 3912865203], "tags": {"access:roof": "no", "addr:full": "jln. Cut Nyak Dhien", "amenity": "hospital", "building:condition": "good", "building:levels": "1", "building:material": "concrete", "building:roof": "tile", "building:structure": "confined_masonry", "capacity:persons": ">500", "healthcare": "hospital", "name": "Rumah Sakit Malahayati", "source": "survey"}}, {"type": "way", "id": 405645306, "center": {"lat": 5.5586068, "lon": 95.3174961}, "nodes": [4078090644, 4078090633, 4078090395, 4078090408, 4078090644], "tags": {"access:roof": "no", "addr:city": "Banda Aceh", "addr:full": "Jalan Cut Meutia No.55, Kp. Baru, Kec. Baiturrahman, Kota Banda Aceh, Aceh 23116", "amenity": "hospital", "building": "hospital", "building:condition": "good", "building:levels": "3", "building:material": "brick", "building:roof": "tin", "building:structure": "confined_masonry", "capacity:persons": "50-100", "name": "Rumah Sakit Umum Cut Meutia", "operator:type": "private", "source": "survey"}}, {"type": "way", "id": 413079398, "center": {"lat": 6.8312711, "lon": 99.5417346}, "nodes": [4144094438, 4144094437, 4144094441, 4144094442, 4144094438], "tags": {"amenity": "hospital"}}, {"type": "way", "id": 429901515, "center": {"lat": 3.0774013, "lon": 98.5273638}, "nodes": [4291027422, 4291027423, 4291027424, 4291027425, 4291027438, 4291027422], "tags": {"amenity": "hospital"}}, {"type": "way", "id": 458231594, "center": {"lat": 2.6382261, "lon": 98.0104437}, "nodes": [4542696247, 4542696248, 4542696249, 4542696250, 4542696247], "tags": {"amenity": "hospital", "name": "Puskesmas Penanggalan", "operator": "Jukhri S Bancin"}}, {"type": "way", "id": 470460776, "center": {"lat": 1.3968777, "lon": 99.2501109}, "nodes": [4646477137, 4646477136, 4646477135, 4646477134, 4646477133, 4646477132, 4646477131, 4646477137], "tags": {"amenity": "hospital", "healthcare": "hospital", "name": "Rumah Sakit Tni Ad - UDG", "opening_hours": "24/7", "phone": "+62 634 21902", "short_name": "UDG"}}, {"type": "way", "id": 474275544, "center": {"lat": 3.5794877, "lon": 98.6655435}, "nodes": [4682726673, 4682726677, 4682726627, 4682726626, 4682726673], "tags": {"amenity": "hospital", "building": "yes", "healthcare": "hospital", "name": "RSU Herna"}}, {"type": "way", "id": 474283605, "center": {"lat": 3.5798419, "lon": 98.6661635}, "nodes": [5319741051, 4682777768, 4682777769, 4682777742, 4682777741, 5319741054, 5319741051], "tags": {"amenity": "hospital", "building": "yes", "healthcare": "hospital", "name": "IGD RSU Herna"}}, {"type": "way", "id": 479115782, "center": {"lat": 9.7082171, "lon": 99.9973772}, "nodes": [4722645293, 4722645292, 5141259427, 5141259426, 5141259425, 5141259424, 4722645291, 4722645290, 4722645082, 4722645289, 4722645088, 4722645293], "tags": {"amenity": "hospital", "building": "yes", "internet_access": "wlan", "name": "First Western Hospital"}}, {"type": "way", "id": 479775851, "center": {"lat": 9.7364729, "lon": 99.9906654}, "nodes": [4728232356, 4728232324, 4728232342, 4728232344, 4728232355, 4728232354, 4728232353, 4728232352, 4728256835, 4728232351, 4728232350, 3665217271, 4762770665, 4728232356], "tags": {"amenity": "hospital", "barrier": "fence", "name": "\u0e42\u0e23\u0e07\u0e1e\u0e22\u0e32\u0e1a\u0e32\u0e25\u0e40\u0e01\u0e32\u0e30\u0e1e\u0e30\u0e07\u0e31\u0e19", "name:en": "Koh Phangan Hospital"}}, {"type": "way", "id": 480080031, "center": {"lat": 9.7106175, "lon": 99.9913242}, "nodes": [4731078705, 4731078702, 4731078703, 4731078704, 4731078705], "tags": {"amenity": "hospital", "building": "yes", "name": "Thai Inter Medical Clinic"}}, {"type": "way", "id": 485839439, "center": {"lat": 7.8719693, "lon": 98.3601872}, "nodes": [4785991326, 4785991325, 5817093678, 5817093677, 4496007989, 5817093683, 5817093684, 5817093685, 5817093682, 4785991327, 4785991326], "tags": {"amenity": "hospital", "emergency": "yes", "name": "\u0e42\u0e23\u0e07\u0e1e\u0e22\u0e32\u0e1a\u0e32\u0e25\u0e14\u0e35\u0e1a\u0e38\u0e01", "name:en": "Dibuk hospital", "website": "https://dibukhospital.com/"}}, {"type": "way", "id": 486274889, "center": {"lat": 5.1832638, "lon": 97.145739}, "nodes": [4789314639, 4789314640, 7472130096, 4789314641, 4789314642, 7472130092, 7472130089, 7472130097, 4789314639], "tags": {"amenity": "hospital", "healthcare": "hospital", "name": "RUMAH SAKIT BUNDA"}}, {"type": "way", "id": 487935968, "center": {"lat": 7.8808649, "lon": 98.4048755}, "nodes": [4803241004, 4803241003, 4803241002, 4803241001, 4803241000, 4803240999, 4803240998, 4803240997, 4803240996, 4803240984, 4803240995, 4803240994, 4803240993, 4803240992, 4803240991, 4803240990, 4803240989, 4803241004], "tags": {"amenity": "hospital", "building": "yes", "building:levels": "8", "healthcare": "hospital", "name": "Phuket Provincial Hospital", "roof:colour": "#008000", "website": "https://phuketcityhospital.org"}}, {"type": "way", "id": 497866297, "center": {"lat": 7.3738646, "lon": 99.3057792}, "nodes": [4893687452, 4893687453, 4893687454, 4893687455, 4893687452], "tags": {"amenity": "hospital", "area": "yes", "name:en": "Kohmook Health Center"}}, {"type": "way", "id": 556457015, "center": {"lat": 3.5706583, "lon": 98.6687587}, "nodes": [5367892132, 5367892133, 5367892134, 5367892135, 5367892139, 5367892136, 5367892137, 5367892138, 5367892132], "tags": {"amenity": "hospital", "building": "yes", "healthcare": "hospital", "name": "RSU Prof Dr Boloni"}}, {"type": "way", "id": 578704100, "center": {"lat": 0.864768, "lon": 99.5622922}, "nodes": [5544263150, 5544263149, 5544263148, 5544263147, 5544263150], "tags": {"amenity": "hospital", "healthcare": "hospital", "name": "Rumah Sakit Armina Panyabungan"}}, {"type": "way", "id": 591973765, "center": {"lat": 5.539568, "lon": 95.3095493}, "nodes": [5650936441, 5650936440, 5650936439, 5650936438, 5650936437, 5650936436, 5650936441], "tags": {"access:roof": "no", "addr:full": "jl.t.umar", "amenity": "hospital", "building": "hospital", "building:condition": "good", "building:levels": "2", "building:material": "brick", "building:roof": "tile", "building:structure": "confined_masonry", "capacity:persons": "50-100", "name": "Rumah Sakit Harapan Bunda", "source": "survey"}}, {"type": "way", "id": 597992960, "center": {"lat": 9.5220582, "lon": 99.9353881}, "nodes": [5692363314, 5692363315, 5692363316, 5692363317, 5692363318, 5692363319, 5692363320, 5692364021, 5692364022, 5692364023, 5692364024, 5692364025, 5692364026, 5692364027, 5692364028, 5692364029, 5692364030, 5692364031, 5692364032, 5692364033, 5692364034, 5692364035, 5692364036, 5692364037, 5692364038, 5692364039, 5692363314], "tags": {"amenity": "hospital", "emergency": "yes", "healthcare": "hospital", "name": "Koh Samui Hospital", "operator": "Public"}}, {"type": "way", "id": 619348670, "center": {"lat": 0.108237, "lon": 99.8278306}, "nodes": [5852902363, 9465353188, 5852902364, 5852902365, 5852902367, 5852902368, 5852902369, 5852902370, 5852902371, 5852902363], "tags": {"amenity": "hospital", "healthcare": "hospital", "name": "Rumah Sakit Ibnu Sina Simpang Empat"}}, {"type": "way", "id": 622978722, "center": {"lat": 5.5176039, "lon": 95.3178547}, "nodes": [9027494437, 5884026387, 5884026388, 5884026389, 9027494433, 9027494434, 9027494431, 9027494427, 9027494425, 9027494424, 9027494423, 9027494426, 9027494428, 9027494429, 9027494430, 9027494432, 9027494436, 9027494435, 9027494437], "tags": {"access:roof": "yes", "addr:full": "jl. soekarno hatta, Mibo banda aceh", "amenity": "hospital", "building": "hospital", "building:condition": "good", "building:levels": "3", "building:material": "concrete", "building:roof": "concrete", "building:structure": "confined_masonry", "capacity:persons": ">500", "emergency": "no", "healthcare": "hospital", "name": "RSUD MEURAXA", "source": "survey"}}, {"type": "way", "id": 623031237, "center": {"lat": 5.5493456, "lon": 95.326565}, "nodes": [5884216354, 5884216353, 5884216350, 5884216347, 5884216352, 5884216351, 5884216348, 5884216360, 5884216357, 5884216356, 5884216355, 5884216358, 5884216361, 5884216349, 5884216354], "tags": {"access:roof": "yes", "addr:city": "Banda Aceh", "addr:full": "Jalan Sekolah No. 5, Gampoeng Ateuk Pahlawan, Baiturrahman, Ateuk Pahlawan, Kec. Baiturrahman, Kota Banda Aceh, Aceh 23241", "amenity": "hospital", "building": "hospital", "building:condition": "good", "building:levels": "3", "building:material": "concrete", "building:roof": "concrete", "building:structure": "steel_frame", "capacity:persons": ">500", "emergency": "yes", "healthcare:speciality": "general", "name": "Rumah Sakit Pertamedika Ummi Rosnati", "operator:type": "public", "source": "survey"}}, {"type": "way", "id": 630045134, "center": {"lat": 3.6164374, "lon": 98.6913121}, "nodes": [5949956307, 5949956304, 5949956305, 5949956306, 5949956307], "tags": {"amenity": "hospital", "building": "yes", "healthcare": "hospital", "name": "RSIA Artha Mahinrus"}}, {"type": "way", "id": 631423734, "center": {"lat": 3.5608284, "lon": 98.6264997}, "nodes": [5963144739, 5963144736, 5963144737, 5963144738, 5963144739], "tags": {"amenity": "hospital", "building": "yes", "healthcare": "hospital", "name": "RSU Tere Margareth"}}, {"type": "way", "id": 631695399, "center": {"lat": 3.5830396, "lon": 98.7109914}, "nodes": [5965178463, 5965178460, 5965178461, 5965178462, 5965178463], "tags": {"amenity": "hospital", "building": "yes", "healthcare": "hospital", "name": "RS Umum Muhammadiyah"}}, {"type": "way", "id": 631922574, "center": {"lat": 3.5381626, "lon": 98.7119183}, "nodes": [5966972817, 5966972814, 5966972815, 5966972816, 5966972817], "tags": {"addr:city": "Kota Medan", "addr:housenumber": "Jl. Sisingamangaraja, Harjosari I, Medan Amplas", "addr:postcode": "20148", "addr:street": "Sisingamangaraja", "amenity": "hospital", "emergency": "yes", "healthcare": "hospital", "healthcare:speciality": "general", "name": "RSU. Mitra Medika-Amplas", "phone": "+62 61 7879070", "website": "http://mitramedika-amplas.co.id"}}, {"type": "way", "id": 634153451, "center": {"lat": 3.5982887, "lon": 98.7550192}, "nodes": [10613662374, 5985198654, 5985198653, 5985198652, 6261010980, 5985198648, 5985198657, 5985198658, 10613662374], "tags": {"addr:city": "Medan", "addr:housenumber": "Jalan Medan - Batang Kuis Dusun XI Emplasmen", "addr:postcode": "20371", "addr:street": "Jalan Medan - Batang Kuis", "amenity": "hospital", "building": "hospital", "emergency": "yes", "healthcare": "hospital", "healthcare:speciality": "general", "name": "Rumah Sakit Umum Mitra Medika Bandar Klippa (Tembung)", "phone": "+62 61 73381822", "website": "https://mitramedika-bandarklippa.co.id/"}}, {"type": "way", "id": 634253253, "center": {"lat": 3.5773275, "lon": 98.7057994}, "nodes": [5985945670, 5985945669, 5985945668, 5985945671, 5985945666, 5985980339, 5985980338, 5985980337, 5985980340, 5985945665, 5985945672, 5985945667, 5985945670], "tags": {"amenity": "hospital", "building": "yes", "healthcare": "hospital", "name": "RS Ibu Dan Anak Badrul Aini Tegal Sari Iii"}}, {"type": "way", "id": 636180036, "center": {"lat": 3.5560422, "lon": 98.7177672}, "nodes": [5999472801, 5999472800, 5999472799, 5999472798, 5999472801], "tags": {"amenity": "hospital", "building": "yes", "healthcare": "hospital", "name": "RS Umum Ridos Medan Tenggara"}}, {"type": "way", "id": 636226848, "center": {"lat": 3.5568256, "lon": 98.6953439}, "nodes": [5999791901, 5999791898, 5999791899, 5999791900, 5999791901], "tags": {"amenity": "hospital", "building": "yes", "healthcare": "hospital", "name": "RS Estomihi Sudirejo II"}}, {"type": "way", "id": 636349873, "center": {"lat": 3.5408509, "lon": 98.6795867}, "nodes": [6001040101, 6001040100, 7325043813, 7325043814, 6001040103, 6001038832, 6001040105, 6001040104, 6001038833, 7325043811, 7325043812, 6001040108, 6001040107, 6001040106, 6001040101], "tags": {"addr:full": "Jalan A.H Nasution No. 7 Pangkalan Mansyur medan", "amenity": "hospital", "building": "yes", "healthcare": "hospital", "name": "RSU Mitra Sejati", "operator:type": "private"}}, {"type": "way", "id": 639893301, "center": {"lat": 7.8956927, "lon": 98.3013405}, "nodes": [5579978921, 6028867787, 6028867788, 6028867810, 6028867809, 6028867789, 6028867790, 6028867791, 6028867792, 5579978921], "tags": {"addr:housenumber": "57", "addr:postcode": "83150", "addr:street": "\u0e44\u0e2a\u0e19\u0e49\u0e33\u0e40\u0e22\u0e47\u0e19\u0e17\u0e34\u0e28", "amenity": "hospital", "barrier": "fence", "emergency": "yes", "healthcare": "hospital", "name": "\u0e42\u0e23\u0e07\u0e1e\u0e22\u0e32\u0e1a\u0e32\u0e25\u0e1b\u0e48\u0e32\u0e15\u0e2d\u0e07", "name:en": "Patong Hospital", "name:ru": "\u0411\u043e\u043b\u044c\u043d\u0438\u0446\u0430 \u041f\u0430\u0442\u043e\u043d\u0433\u0430", "phone": "+66 76 342 633", "website": "http://patonghospital.com", "wikidata": "Q81097360"}}, {"type": "way", "id": 646514742, "center": {"lat": 7.805949, "lon": 98.9732947}, "nodes": [6074352883, 6074352882, 6074352881, 6074352880, 6074352883], "tags": {"amenity": "hospital", "building": "yes", "healthcare": "hospital", "name": "Kohjum Tambon Health Promotion Hospital"}}, {"type": "way", "id": 647702088, "center": {"lat": 2.9613431, "lon": 99.0715366}, "nodes": [6082173468, 6082173467, 6082173466, 6082173465, 6082173468], "tags": {"addr:full": "Jalan Merdeka Nomor 359", "amenity": "hospital", "building": "hospital", "name": "Rumah Sakit Vita Insani", "operator:type": "private", "website": "http://vitainsani.com/"}}, {"type": "way", "id": 650842022, "center": {"lat": 3.5908524, "lon": 98.6650881}, "nodes": [6104676788, 6104676785, 9494365060, 6104676786, 6104676787, 6104676788], "tags": {"amenity": "hospital", "building": "yes", "healthcare": "hospital", "name": "RSIA Sri Ratu"}}, {"type": "way", "id": 659461962, "center": {"lat": 8.6811857, "lon": 98.2522692}, "nodes": [6174311194, 6174311192, 6174311191, 6174311195, 6174311187, 6174311188, 6174311194], "tags": {"amenity": "hospital", "barrier": "wall", "healthcare": "hospital", "name": "Andaman Hub Medical Center", "name:en": "Andaman Hub Medical Center", "operator": "Ministry of Public Health"}}, {"type": "way", "id": 697964764, "center": {"lat": 8.6436374, "lon": 99.914581}, "nodes": [6554910804, 6554910805, 6554910806, 6554910807, 6554910804], "tags": {"amenity": "hospital", "healthcare": "hospital", "name": "\u0e42\u0e23\u0e07\u0e1e\u0e22\u0e32\u0e1a\u0e32\u0e25\u0e28\u0e39\u0e19\u0e22\u0e4c\u0e01\u0e32\u0e23\u0e41\u0e1e\u0e17\u0e22\u0e4c"}}, {"type": "way", "id": 699477982, "center": {"lat": 7.8977383, "lon": 98.3677079}, "nodes": [5461381324, 6568434637, 1655566033, 1655566044, 6568434636, 6568384041, 5461381324], "tags": {"addr:housenumber": "44", "addr:street": "Chalermprakiat Ror 9", "amenity": "hospital", "building": "yes", "layer": "1", "name": "\u0e42\u0e23\u0e07\u0e1e\u0e22\u0e32\u0e1a\u0e32\u0e25\u0e2a\u0e34\u0e23\u0e34\u0e42\u0e23\u0e08\u0e19\u0e4c", "name:en": "Phuket International Hospital", "name:zh": "\u533b\u9662", "roof": "yes", "website": "https://phuketinternationalhospital.com/", "wheelchair": "yes"}}, {"type": "way", "id": 735176703, "center": {"lat": 4.4690897, "lon": 97.9700386}, "nodes": [6885586419, 6885586420, 9509501588, 9509501587, 6888721110, 6888721109, 6885586421, 10613567336, 9509501585, 9509501586, 6885586422, 10613561168, 9509501583, 6885586423, 6885586419], "tags": {"addr:street": "Jenderal Ahmad Yani No.1 Gampong Jawa, Kota Langsa, Aceh", "amenity": "hospital", "emergency": "yes", "healthcare": "hospital", "name": "Rumah Sakit Umum Daerah Langsa", "operator:type": "government"}}, {"type": "way", "id": 750324766, "center": {"lat": 3.5853031, "lon": 98.6514744}, "nodes": [7015815756, 7015815755, 7015815749, 7015815750, 7015815754, 7015815753, 7015815752, 7015815751, 7015815756], "tags": {"addr:city": "Medan", "addr:full": "Jalan Sei Batang Hari No. 28-30-42 Medan", "amenity": "hospital", "building": "hospital", "building:condition": "good", "fixme": "building shape guessed", "name": "Rumah Sakit Umum Bunda Thamrin", "operator:type": "private", "website": "https://www.bundathamrin.com/"}}, {"type": "way", "id": 782884327, "center": {"lat": 3.5726869, "lon": 98.6807874}, "nodes": [7310998482, 7310998479, 7310998480, 7310998474, 7310998472, 7310998477, 7310998476, 7310998475, 9472930252, 7310998478, 7310998471, 7310998473, 7310998481, 7310998482], "tags": {"addr:city": "Medan", "addr:full": "Jalan Samanhudi No. 20 Medan, Sumatera Utara - Indonesia", "amenity": "hospital", "healthcare": "hospital", "name": "RSIA Stella Maris", "operator:type": "private"}}, {"type": "way", "id": 782896313, "center": {"lat": 3.5895954, "lon": 98.6498371}, "nodes": [7311127706, 7311127705, 7311127704, 7311127703, 7311127702, 8646572282, 7311127701, 7311127700, 7311127699, 7311127698, 7311127697, 7311127696, 7311127706], "tags": {"addr:city": "Medan", "addr:full": "Jalan Gatot Subroto No.Km 4, Sei Sikambing D, Kec. Medan Petisah, Kota Medan, Sumatera Utara 20118", "amenity": "hospital", "name": "RS Advent Medan", "operator:type": "private", "website": "https://rsadventmedan.com/"}}, {"type": "way", "id": 782914980, "center": {"lat": 3.5978686, "lon": 98.6544172}, "nodes": [7311283358, 7311283357, 9467449051, 9467449053, 9467449052, 9467449050, 9467449058, 9467449059, 7311283356, 7311283354, 7311283358], "tags": {"addr:full": "Jalan Ayahanda Nomor 68A, Sei Putih Tengah, Kec. Medan Petisah, Kota Medan, Sumatera Utara 20118", "amenity": "hospital", "name": "RSU Royal Prima", "operator:type": "private", "website": "https://www.royalprima.com/"}}, {"type": "way", "id": 782970770, "center": {"lat": 3.574863, "lon": 98.6766377}, "nodes": [7311712733, 7311712732, 8585132542, 7311712731, 7311712730, 7330656304, 7330656305, 7311712729, 7311712728, 7311712726, 8585132541, 7330656306, 7311712727, 7311712733], "tags": {"addr:full": "Jalan H. Misbah No. 7 Medan, Sumatera Utara", "alt_name": "RS Santa Elisabeth Medan", "amenity": "hospital", "emergency": "yes", "name": "Rumah Sakit Santa Elisabeth Medan", "operator:type": "private", "website": "http://rssemedan.com/"}}, {"type": "way", "id": 783081946, "center": {"lat": 3.568093, "lon": 98.6575228}, "nodes": [7312802568, 7312802567, 7312802566, 7312802565, 7312802564, 7312802563, 7312802562, 7312802561, 7312802568], "tags": {"addr:city": "Medan", "addr:full": "Jalan Dr. Mansyur No.66, Merdeka, Kec. Medan Baru, Kota Medan, Sumatera Utara 20154", "amenity": "hospital", "healthcare": "hospital", "name": "RS Universitas Sumatera Utara", "operator:type": "government", "website": "http://rumahsakit.usu.ac.id/index.php/id/"}}, {"type": "way", "id": 783782439, "center": {"lat": 5.5542176, "lon": 95.3253376}, "nodes": [7320866364, 7320866363, 7320866362, 7320866350, 7320866335, 7320866334, 7320866333, 7320866353, 7320866352, 7320866351, 7320866354, 7320866355, 7320866356, 7320866357, 7320866360, 7320866349, 7320866347, 7320866346, 7320866345, 7320866348, 7320866344, 7320866343, 7320866342, 7320866341, 7320866340, 7320866339, 9467474261, 7320866337, 7320866336, 7320866338, 7320866359, 7320866358, 7320866364], "tags": {"addr:city": "Banda Aceh", "addr:full": "Jalan T. Angkasa Bendahara, Kuta Alam, Kec. Kuta Alam, Kota Banda Aceh, Aceh 24415", "amenity": "hospital", "healthcare": "hospital", "name": "RS Kesdam Iskandar Muda", "operator:type": "government"}}, {"type": "way", "id": 783804774, "center": {"lat": 3.5870688, "lon": 98.6632509}, "nodes": [7321077952, 7321077951, 7321077950, 7321077949, 7321077948, 7321077947, 7321077952], "tags": {"addr:city": "Medan", "addr:full": "Jalan Baja Raya No.10, Petisah Tengah, Kec. Medan Petisah, Kota Medan, Sumatera Utara 20111", "amenity": "hospital", "healthcare": "hospital", "name": "RSU Sarah Medan", "operator:type": "private", "website": "https://sarahhospital.com/"}}, {"type": "way", "id": 784716981, "center": {"lat": 3.578568, "lon": 98.6129669}, "nodes": [7331092736, 7331092735, 7331092734, 7331092733, 7331092736], "tags": {"addr:city": "Medan", "addr:full": "Jalan Jendral TB. Simatupang No. 148, Sunggal, Medan, Sumatera Utara - Indonesia", "amenity": "hospital", "healthcare": "hospital", "name": "Rumah Sakit Umum Bina Kasih", "operator:type": "private"}}, {"type": "way", "id": 788065645, "center": {"lat": 2.0262771, "lon": 98.9606721}, "nodes": [7367750425, 7367750426, 7367750427, 7367750428, 7367750429, 7367750430, 7367750431, 7367750432, 7367750433, 7367750434, 7367750435, 7367750436, 7367750437, 7367750438, 7367750439, 7367750425], "tags": {"amenity": "hospital", "healthcare": "hospital", "name": "Rumah Sakit Umum Tarutung"}}, {"type": "way", "id": 788719993, "center": {"lat": 3.0971605, "lon": 98.4914267}, "nodes": [7373869758, 7373869759, 7373869760, 7373869761, 7373869762, 7373869763, 7373869764, 7373869765, 7373869766, 7373869767, 7373869758], "tags": {"addr:city": "Kabupaten Karo", "addr:housenumber": "8", "addr:postcode": "22111", "addr:street": "Jl. Selamat Ketaren", "amenity": "hospital", "emergency": "yes", "healthcare": "hospital", "name": "Rumah Sakit Umum Kabanjahe", "phone": "(0628) 20012"}}, {"type": "way", "id": 788884629, "center": {"lat": 9.8433278, "lon": 98.4581769}, "nodes": [7375508930, 7375508931, 7375508932, 7375508933, 7375508934, 7375508930], "tags": {"amenity": "hospital", "healthcare": "hospital"}}, {"type": "way", "id": 894696948, "center": {"lat": 3.2100213, "lon": 99.6039231}, "nodes": [8316420332, 8316420333, 8316420334, 8316799702, 8316420335, 8316420332], "tags": {"addr:city": "Batu Bara", "addr:postcode": "21253", "addr:street": "Jl.Melati", "amenity": "hospital", "emergency": "no", "healthcare": "hospital", "healthcare:speciality": "general", "name": "Puskesmas Pembantu"}}, {"type": "way", "id": 925007187, "center": {"lat": 2.3001874, "lon": 97.4081523}, "nodes": [8584743613, 8584743614, 8584743615, 8584743616, 8584743613], "tags": {"amenity": "hospital", "healthcare": "hospital"}}, {"type": "way", "id": 943140385, "center": {"lat": 9.3856493, "lon": 99.2069829}, "nodes": [8733067260, 8733067261, 8733067262, 8733067263, 8733067264, 8733067265, 8733067266, 8733067267, 8733067268, 8733067269, 8733067270, 8733067271, 8733067272, 8733067273, 8733067260], "tags": {"amenity": "hospital", "healthcare": "hospital"}}, {"type": "way", "id": 944310841, "center": {"lat": 0.5713426, "lon": 97.8199844}, "nodes": [8742870112, 8742870111, 8742870110, 8742870109, 8742870108, 8742870107, 8742870106, 8742870105, 8742870104, 8742870103, 8742870102, 8742870101, 8742870112], "tags": {"amenity": "hospital", "emergency": "yes", "healthcare": "hospital", "name": "Rumah Sakit Stella Maris"}}, {"type": "way", "id": 958342411, "center": {"lat": 7.9809361, "lon": 99.9910953}, "nodes": [8867261398, 8867261399, 8867261400, 5161952677, 8867261398], "tags": {"amenity": "hospital", "healthcare": "hospital"}}, {"type": "way", "id": 959615655, "center": {"lat": 8.5266693, "lon": 99.4720766}, "nodes": [8878664541, 8878664542, 8878664543, 8878664544, 8878664545, 8878664546, 8878664547, 8878664548, 8878664541], "tags": {"amenity": "hospital", "healthcare": "hospital", "name": "\u0e23\u0e1e \u0e2a\u0e38\u0e02\u0e20\u0e32\u0e1e\u0e15\u0e33\u0e1a\u0e25\u0e01\u0e23\u0e30\u0e40\u0e1b\u0e35\u0e22\u0e14"}}, {"type": "way", "id": 960605793, "center": {"lat": 3.5843625, "lon": 98.6971281}, "nodes": [8886446768, 8886446765, 8886446766, 8886446767, 8886446768], "tags": {"amenity": "hospital", "building": "yes", "healthcare": "hospital", "name": "Rumah Sakit Ibu & Anak Eva"}}, {"type": "way", "id": 961736599, "center": {"lat": 3.5859885, "lon": 98.6597465}, "nodes": [8896174662, 8896174659, 8896174660, 8896174661, 8896174662], "tags": {"amenity": "hospital", "building": "yes", "healthcare": "hospital", "name": "Rumah Sakit Ginjal Rasyida"}}, {"type": "way", "id": 961740737, "center": {"lat": 3.5869376, "lon": 98.6610883}, "nodes": [8896222260, 8896222257, 8896222258, 8896222259, 8896222260], "tags": {"amenity": "hospital", "building": "yes", "healthcare": "hospital", "name": "RSU Vina Estetica"}}, {"type": "way", "id": 961782713, "center": {"lat": 3.5853659, "lon": 98.6506539}, "nodes": [8896800036, 8896800033, 8896800034, 8896800035, 8896800036], "tags": {"amenity": "hospital", "building": "yes", "healthcare": "hospital", "name": "Laboratorium RSU Bunda Thamrin Medan"}}, {"type": "way", "id": 962091719, "center": {"lat": 3.5805665, "lon": 98.6560112}, "nodes": [8899550012, 8899550011, 8899550010, 8899550009, 8899550012], "tags": {"amenity": "hospital", "building": "yes", "healthcare": "hospital", "name": "Royal Maternity General Hospital"}}, {"type": "way", "id": 962164958, "center": {"lat": 3.5844422, "lon": 98.6714139}, "nodes": [8900158258, 8900158257, 8900158260, 8900158259, 8900158258], "tags": {"amenity": "hospital", "building": "yes", "healthcare": "hospital", "name": "Rumah Sakit Materna"}}, {"type": "way", "id": 968365900, "center": {"lat": 9.6700302, "lon": 99.1451652}, "nodes": [8958879202, 8958879203, 8958879204, 8958879205, 8958879206, 8958879207, 8958879208, 8958879209, 8958879210, 8958879211, 8958879212, 3288789011, 8958879202], "tags": {"amenity": "hospital", "healthcare": "hospital", "name": "\u0e2d\u0e19\u0e32\u0e21\u0e31\u0e22\u0e15\u0e33\u0e1a\u0e25\u0e04\u0e31\u0e19\u0e18\u0e38\u0e25\u0e35"}}, {"type": "way", "id": 981954632, "center": {"lat": 8.8166043, "lon": 98.3656596}, "nodes": [9081805383, 9082021580, 9081805384, 9082021570, 9081805385, 9081805386, 9081805383], "tags": {"amenity": "hospital", "emergency": "no", "healthcare": "hospital", "name": "\u0e42\u0e23\u0e07\u0e1e\u0e22\u0e32\u0e1a\u0e32\u0e25\u0e1a\u0e32\u0e07\u0e44\u0e17\u0e23\u0e15\u0e30\u0e01\u0e31\u0e48\u0e27\u0e1b\u0e48\u0e32", "name:en": "Bang Sai Takua Pa Hospital"}}, {"type": "way", "id": 1002959831, "center": {"lat": 3.7685676, "lon": 98.5536601}, "nodes": [9255939017, 9255939018, 9255939019, 9255939020, 9255939021, 9255939022, 9255939017], "tags": {"amenity": "hospital", "healthcare": "hospital"}}, {"type": "way", "id": 1018228965, "center": {"lat": 3.5992254, "lon": 98.6720442}, "nodes": [9391689708, 9391689709, 9391689710, 9391689711, 9391689712, 9391689713, 9391689714, 9391689715, 9391689716, 9391699017, 9391699018, 9391699019, 9391699020, 9391699021, 9391699022, 9391699023, 9391699024, 9391689708], "tags": {"amenity": "hospital", "healthcare": "hospital", "name": "Rumah Sakit Putri Hijau", "name:en": "Putri Hijau Hospital"}}, {"type": "way", "id": 1021407604, "center": {"lat": 6.866015, "lon": 99.9740541}, "nodes": [9420386930, 9420386936, 9420386931, 9420386937, 9420386932, 9420386933, 9420386930], "tags": {"amenity": "hospital", "healthcare": "hospital", "name": "\u0e42\u0e23\u0e07\u0e1e\u0e22\u0e32\u0e1a\u0e32\u0e25\u0e04\u0e27\u0e19\u0e01\u0e32\u0e2b\u0e25\u0e07", "name:en": "Khuan Kalong Hospital"}}, {"type": "way", "id": 1024273574, "center": {"lat": 7.0060275, "lon": 99.91741}, "nodes": [9445041872, 9445041873, 9445041874, 9445041875, 9445041872], "tags": {"amenity": "hospital", "healthcare": "hospital", "healthcare:speciality": "general", "name": "\u0e42\u0e23\u0e07\u0e1e\u0e22\u0e32\u0e1a\u0e32\u0e25\u0e21\u0e30\u0e19\u0e31\u0e07", "name:en": "Manang Hospital", "operator": "Manang", "operator:type": "government"}}, {"type": "way", "id": 1026013873, "center": {"lat": 8.4010841, "lon": 98.2609079}, "nodes": [1648248275, 9459572774, 9459572787, 9459572775, 9459572784, 9459572765, 9459572786, 9459572776, 1648248275], "tags": {"amenity": "hospital", "emergency": "yes", "name": "\u0e42\u0e23\u0e07\u0e1e\u0e22\u0e32\u0e1a\u0e32\u0e25\u0e17\u0e49\u0e32\u0e22\u0e40\u0e2b\u0e21\u0e37\u0e2d\u0e07", "name:en": "Thai Mueang Hospital"}}, {"type": "way", "id": 1026359543, "center": {"lat": 9.1911428, "lon": 98.4159903}, "nodes": [7856667416, 9462785803, 9462807861, 5138420273, 5138420272, 5138420271, 9462785797, 7856667416], "tags": {"amenity": "hospital", "name": "\u0e42\u0e23\u0e07\u0e1e\u0e22\u0e32\u0e1a\u0e32\u0e25\u0e04\u0e38\u0e23\u0e30\u0e1a\u0e38\u0e23\u0e35", "name:en": "Khura Buri Hospital"}}, {"type": "way", "id": 1026371157, "center": {"lat": 9.3435593, "lon": 98.431951}, "nodes": [7856667417, 9462909524, 9462909525, 9462909519, 9462909520, 9462909518, 9462909522, 9462909527, 9462909526, 9462909521, 7856667417], "tags": {"amenity": "hospital", "name": "\u0e42\u0e23\u0e07\u0e1e\u0e22\u0e32\u0e1a\u0e32\u0e25\u0e2a\u0e38\u0e02\u0e2a\u0e33\u0e23\u0e32\u0e0d", "name:en": "Suk Samran Hospital"}}, {"type": "way", "id": 1026582819, "center": {"lat": 9.9638348, "lon": 98.6431491}, "nodes": [2072444671, 9464998832, 9464984210, 9464984213, 2072444671], "tags": {"amenity": "hospital", "emergency": "yes", "healthcare": "hospital", "name": "\u0e15\u0e36\u0e01\u0e2d\u0e32\u0e22\u0e38\u0e23\u0e01\u0e23\u0e23\u0e21\u0e2b\u0e0d\u0e34\u0e07", "name:en": "Ranong Public Hospital", "source": "survey"}}, {"type": "way", "id": 1026683838, "center": {"lat": 9.5839919, "lon": 98.5892225}, "nodes": [4041224359, 9465905954, 9465905978, 9465905986, 9465905982, 9465905975, 9465905962, 9465905985, 9465905983, 9465905981, 9465905984, 4041224359], "tags": {"amenity": "hospital", "name": "Kapoe Hospital"}}, {"type": "way", "id": 1026978564, "center": {"lat": 3.6224508, "lon": 98.6748243}, "nodes": [9468219205, 9468219206, 9468219207, 9468219208, 9468219209, 9468219210, 9468219211, 9468219212, 9468219213, 9468219214, 9468219215, 9468219216, 9468230117, 9468230118, 9468230119, 9468230120, 9468230121, 9468230122, 9468230123, 9468219205], "tags": {"addr:city": "Medan", "addr:housenumber": "24", "addr:street": "Jalan Bilal", "amenity": "hospital", "emergency": "yes", "healthcare": "hospital", "name": "RSU Imelda", "name:id": "Rumah Sakit Umum Imelda Pekerja Indonesia"}}, {"type": "way", "id": 1027327715, "center": {"lat": 5.5501749, "lon": 95.311893}, "nodes": [9471057549, 9471057550, 9471057551, 9471057552, 9471057553, 9471057554, 9471057555, 9471057556, 9471057557, 9471057558, 9471057549], "tags": {"amenity": "hospital", "healthcare": "hospital", "name": "Rumah Sakit Ibu dan AnakKota Banda Aceh"}}, {"type": "way", "id": 1028352368, "center": {"lat": 8.5325702, "lon": 98.8654545}, "nodes": [7856667410, 9480913718, 9480913730, 9480913719, 7856667410], "tags": {"amenity": "hospital", "building": "yes", "name": "\u0e42\u0e23\u0e07\u0e1e\u0e22\u0e32\u0e1a\u0e32\u0e25\u0e1b\u0e25\u0e32\u0e22\u0e1e\u0e23\u0e30\u0e22\u0e32", "name:en": "Plai Phraya Hospital", "source": "Bing"}}, {"type": "way", "id": 1028878735, "center": {"lat": 3.5952496, "lon": 98.6281348}, "nodes": [9485509870, 8958668470, 9485509877, 9485509871, 9485509872, 9485509873, 9485509870], "tags": {"amenity": "hospital", "healthcare": "hospital", "name": "RS Hermina Medan"}}, {"type": "way", "id": 1029263433, "center": {"lat": 3.5857643, "lon": 98.6735967}, "nodes": [9489328291, 9489328292, 9489328293, 9489328294, 9489328295, 9489328296, 9489328291], "tags": {"amenity": "hospital", "healthcare": "hospital", "name": "RS Siloma Dhirga Surya"}}, {"type": "way", "id": 1029498805, "center": {"lat": 5.5303075, "lon": 95.2948503}, "nodes": [9491439884, 9491439885, 9491439886, 9491439887, 9491439888, 9491439889, 9491439890, 9491439900, 9491439899, 9491439898, 9491439897, 9491439896, 9491439895, 9491439894, 9491439893, 9491439891, 9491439892, 9491439884], "tags": {"amenity": "hospital", "healthcare": "hospital", "name": "Rumah Sakit Bhayangkara Banda aceh", "wikidata": "Q107636012"}}, {"type": "way", "id": 1031290411, "center": {"lat": 8.4018373, "lon": 98.7426296}, "nodes": [7856667411, 9505014211, 9505035918, 9505014216, 9505014214, 9505035923, 9505035930, 9505035927, 7856667411], "tags": {"amenity": "hospital", "building": "yes", "name": "\u0e42\u0e23\u0e07\u0e1e\u0e22\u0e32\u0e1a\u0e32\u0e25\u0e2d\u0e48\u0e32\u0e27\u0e25\u0e36\u0e01", "name:en": "Ao Luek Hospital", "source": "Bing"}}, {"type": "way", "id": 1035572420, "center": {"lat": 7.8404631, "lon": 99.9419819}, "nodes": [9540241747, 7856632163, 9540241745, 9540241746, 9540241747], "tags": {"amenity": "hospital", "building": "yes", "name": "\u0e42\u0e23\u0e07\u0e1e\u0e22\u0e32\u0e1a\u0e32\u0e25\u0e1b\u0e48\u0e32\u0e1e\u0e30\u0e22\u0e2d\u0e21", "name:en": "Pa Phayom Hospital"}}, {"type": "way", "id": 1040558132, "center": {"lat": 3.6963911, "lon": 98.6729898}, "nodes": [9580886113, 9580886114, 9580886115, 9580886116, 9580886113], "tags": {"amenity": "hospital", "healthcare": "hospital", "layer": "1", "name": "RSU Delima"}}, {"type": "way", "id": 1040760662, "center": {"lat": 3.7349629, "lon": 98.6761674}, "nodes": [9582490539, 9582490540, 9582490541, 9582490542, 9582490543, 9582490544, 9582490539], "tags": {"amenity": "hospital", "healthcare": "hospital", "name": "RSUD Medan Labuhan"}}, {"type": "way", "id": 1041196779, "center": {"lat": 3.7845418, "lon": 98.6859668}, "nodes": [9585929324, 9585929325, 9585929326, 9585929327, 9585929324], "tags": {"amenity": "hospital", "healthcare": "hospital", "healthcare:speciality": "general;dentistry", "name": "RUMKITAL Dr. Komang Makes"}}, {"type": "way", "id": 1041447911, "center": {"lat": 3.1750793, "lon": 99.4830835}, "nodes": [9587933656, 9587933657, 9587933658, 9587933659, 9587933656], "tags": {"amenity": "hospital", "healthcare": "hospital", "name": "RSUD Batubara"}}, {"type": "way", "id": 1042974511, "center": {"lat": 3.6348555, "lon": 98.6636007}, "nodes": [9600042599, 9600042600, 9600042617, 9600042601, 9600042602, 9600042603, 9600042604, 9600042613, 9600042605, 9600042606, 9600042607, 9600042608, 9600042609, 9600042610, 9600042611, 9600042612, 9600042599], "tags": {"amenity": "hospital", "healthcare": "hospital", "name": "RSU Sinar Husni"}}, {"type": "way", "id": 1042977173, "center": {"lat": 3.6334656, "lon": 98.6687888}, "nodes": [9600019711, 9600019712, 9600019713, 9600019714, 9600019715, 9600019716, 9600063717, 9600063718, 9600063719, 9600019711], "tags": {"amenity": "hospital", "healthcare": "hospital", "name": "RS Martha Friska"}}, {"type": "way", "id": 1044414108, "center": {"lat": 3.7744238, "lon": 98.434118}, "nodes": [9610271174, 9610271175, 9610271176, 9610271177, 9610271178, 9610271179, 9610271180, 9610271181, 9610271182, 9610271183, 9610271184, 9610271185, 9610271186, 9610271187, 9610271174], "tags": {"amenity": "hospital", "healthcare": "hospital", "name": "Kompleks RSU Putri Bidadari"}}, {"type": "way", "id": 1044417482, "center": {"lat": 3.5761897, "lon": 98.6829835}, "nodes": [9610295904, 9610295905, 9610295906, 9610295907, 9610295908, 9610295909, 9610295910, 9610295911, 9610295904], "tags": {"amenity": "hospital", "healthcare": "hospital", "name": "RSU Martha Friska Multatuli"}}, {"type": "way", "id": 1044794043, "center": {"lat": 3.6867833, "lon": 98.6555194}, "nodes": [9613412094, 9613412095, 9613412096, 9613412097, 9613412098, 9613412099, 9613412094], "tags": {"amenity": "hospital", "healthcare": "hospital", "name": "RS Eshmun"}}, {"type": "way", "id": 1044799484, "center": {"lat": 3.3487261, "lon": 99.1685791}, "nodes": [9613465525, 9613465526, 9613465527, 9613465528, 9613465529, 9613465525], "tags": {"amenity": "hospital", "healthcare": "hospital", "name": "RS Chevani"}}, {"type": "way", "id": 1044809076, "center": {"lat": 3.7080892, "lon": 98.6594303}, "nodes": [9613551495, 9613551496, 9613551497, 9613551498, 9613551499, 9613551500, 9613551501, 9613551502, 9613551503, 9613551495], "tags": {"amenity": "hospital", "healthcare": "hospital", "name": "RSU Wulan Windi"}}, {"type": "way", "id": 1044810186, "center": {"lat": 3.699692, "lon": 98.6570372}, "nodes": [9613553793, 9613553794, 8994474385, 8994474384, 9613553795, 9613553796, 9613553797, 9613553798, 9613553799, 9613553800, 9613553801, 9613553802, 9613553808, 9613553803, 9613553804, 9613553805, 9613553793], "tags": {"amenity": "hospital", "healthcare": "hospital", "name": "RSU Royal Prima Marelan"}}, {"type": "way", "id": 1046392892, "center": {"lat": 3.5714931, "lon": 98.6602275}, "nodes": [9622817907, 9622817908, 9622817909, 9622817910, 9622817907], "tags": {"amenity": "hospital", "healthcare": "hospital", "name": "RS Siti Hajar"}}, {"type": "way", "id": 1046527858, "center": {"lat": 3.5506907, "lon": 98.8532585}, "nodes": [9623986239, 9623986240, 9623986241, 9623986242, 9623986243, 9623986244, 9623986245, 9623986246, 9623986247, 9623986248, 9623986249, 9623986250, 9623986251, 9623986252, 9623986253, 9623986254, 9623986255, 9623986256, 9623986239], "tags": {"amenity": "hospital", "healthcare": "hospital", "name": "Rumah Sakit Grandmed Lubuk Pakam"}}, {"type": "way", "id": 1050226934, "center": {"lat": 4.4878056, "lon": 97.94809}, "nodes": [9651337744, 9651337745, 7663174223, 7663174224, 5771518338, 7663174225, 5771518336, 9651337746, 9651337747, 9651337748, 9651337749, 9651337750, 9651337751, 9651337744], "tags": {"amenity": "hospital", "healthcare": "hospital", "name": "RS. Cut Meutia Medika Nusantara"}}, {"type": "way", "id": 1050701286, "center": {"lat": 2.6983119, "lon": 99.6249105}, "nodes": [9655372783, 9655372784, 9655372785, 9655372786, 9655372787, 9655372788, 9655372783], "tags": {"amenity": "hospital", "healthcare": "hospital"}}, {"type": "way", "id": 1051220713, "center": {"lat": 2.6680474, "lon": 98.9374404}, "nodes": [659651172, 9660243257, 9660243258, 9660243259, 9660243260, 9660243254, 9660243253, 659651172], "tags": {"amenity": "hospital", "healthcare": "hospital", "name": "RSUD Parapat"}}, {"type": "way", "id": 1052209696, "center": {"lat": 2.2628559, "lon": 98.7514585}, "nodes": [9669801819, 9669801820, 9669801821, 9669801822, 9669801819], "tags": {"amenity": "hospital", "healthcare": "hospital", "name": "RSUD Dolok Sanggul"}}, {"type": "way", "id": 1052209712, "center": {"lat": 2.9401573, "lon": 98.614587}, "nodes": [9669802085, 9669802086, 9669802087, 9669802009, 9669802010, 9669802011, 9669802088, 9669802089, 9669802085], "tags": {"amenity": "hospital", "healthcare": "hospital", "name": "RS. GKPS Bethesda Saribudolok"}}, {"type": "way", "id": 1052345515, "center": {"lat": 3.5906312, "lon": 98.6814251}, "nodes": [9671205303, 9671205304, 9671205305, 9671205306, 3908448761, 9671205303], "tags": {"amenity": "hospital", "healthcare": "hospital", "name": "RS Murni Teguh"}}, {"type": "way", "id": 1054994358, "center": {"lat": 3.7647496, "lon": 98.6823319}, "nodes": [4949205555, 4949205556, 9694351230, 9694351231, 9694351232, 9694351237, 9694351233, 9694351234, 4949205555], "tags": {"amenity": "hospital", "healthcare": "hospital", "name": "RSU. Prima Husada Cipta"}}, {"type": "way", "id": 1057499725, "center": {"lat": 3.5745389, "lon": 98.9518547}, "nodes": [9717063874, 9717063875, 9717063876, 9717063877, 9717063874], "tags": {"amenity": "hospital", "healthcare": "hospital", "name": "RSU Sawit Indah"}}, {"type": "way", "id": 1058917733, "center": {"lat": 3.5862625, "lon": 98.666626}, "nodes": [9730037379, 6804818872, 317637031, 9730037380, 9730037379], "tags": {"amenity": "hospital", "healthcare": "hospital"}}, {"type": "way", "id": 1064226588, "center": {"lat": 3.7558158, "lon": 98.4530099}, "nodes": [9774067579, 9774067576, 9774067577, 9774067578, 9774067579], "tags": {"amenity": "hospital", "building": "yes", "name": "RSU Surya"}}, {"type": "way", "id": 1064255186, "center": {"lat": 3.554785, "lon": 98.8788662}, "nodes": [9774320221, 9774320220, 9774320219, 9774320218, 9774320221], "tags": {"amenity": "hospital", "name": "RSU Sari Mutiara"}}, {"type": "way", "id": 1064273017, "center": {"lat": 3.5566168, "lon": 98.8673444}, "nodes": [9774459182, 9774459181, 9774459180, 9774459179, 9774459178, 9774459177, 9774459176, 9774459175, 9774459182], "tags": {"amenity": "hospital", "name": "RSUD Deli Serdang"}}, {"type": "way", "id": 1067635639, "center": {"lat": 2.5161718, "lon": 99.6477327}, "nodes": [9801931487, 9801931488, 9801931489, 9801931490, 9801931487], "tags": {"amenity": "hospital", "healthcare": "hospital", "name": "RSUD Kabupaten LABURA"}}, {"type": "way", "id": 1067635643, "center": {"lat": 2.5054581, "lon": 99.6323335}, "nodes": [9801931503, 9801931504, 9801931505, 9801931506, 9801931507, 9801931508, 9801931503], "tags": {"amenity": "hospital", "healthcare": "hospital", "name": "RSU Avicenna"}}, {"type": "way", "id": 1069533660, "center": {"lat": 4.6362323, "lon": 95.5958928}, "nodes": [9816752730, 9816752729, 9816752724, 9816752723, 9816752728, 9816752721, 9816752722, 9816752727, 9816752725, 9816752720, 9816752726, 9816752730], "tags": {"amenity": "hospital", "building": "yes", "name": "Rumah Sakit Teuku Umar"}}, {"type": "way", "id": 1083961982, "center": {"lat": 3.3277534, "lon": 99.1623308}, "nodes": [9933311483, 9933311480, 9933311481, 9933311482, 9933311483], "tags": {"amenity": "hospital", "building": "yes", "name": "Lab. Klinik Semangat, T. Tinggi"}}, {"type": "way", "id": 1106244315, "center": {"lat": 5.1900803, "lon": 96.7022085}, "nodes": [10123044266, 10123044265, 10123044264, 10123044263, 10123044262, 10123044261, 10123044260, 10123044259, 10123044258, 10123044257, 10123044256, 10123044255, 10123044254, 10123044253, 10123044252, 10123044251, 10123044266], "tags": {"addr:city": "BIREUEN", "addr:street": "Jalan Lintas Tengah Sumatera", "amenity": "hospital", "healthcare": "hospital", "healthcare:speciality": "community", "name": "BIREUEN MEDICAL CENTER", "operator": "Dr. Abri Sp.B", "operator:type": "public"}}, {"type": "way", "id": 1156845907, "center": {"lat": 9.1312654, "lon": 99.3619548}, "nodes": [7856667388, 10757979654, 10757979646, 10757979652, 7856667388], "tags": {"amenity": "hospital", "building": "yes", "name": "\u0e42\u0e23\u0e07\u0e1e\u0e22\u0e32\u0e1a\u0e32\u0e25\u0e04\u0e48\u0e32\u0e22\u0e27\u0e34\u0e20\u0e32\u0e27\u0e14\u0e35\u0e23\u0e31\u0e07\u0e2a\u0e34\u0e15", "name:en": "Khai Vibhavadi Rangsit Hospital", "source": "Bing"}}, {"type": "way", "id": 1190792777, "center": {"lat": 5.0668024, "lon": 97.3079067}, "nodes": [11056493603, 11056493602, 11056493601, 11056493600, 11056493603], "tags": {"amenity": "hospital", "building": "yes", "name": "RSUD Pratama Aceh Utara"}}, {"type": "relation", "id": 6318801, "center": {"lat": 5.1752938, "lon": 97.1465634}, "members": [{"type": "way", "ref": 422465682, "role": "outer"}, {"type": "way", "ref": 425244545, "role": "outer"}], "tags": {"addr:city": "Lhokseumawe", "addr:postcode": "24351", "addr:street": "Jalan Samudera baru", "amenity": "hospital", "emergency": "yes", "name": "RS Bunga Melati", "type": "multipolygon"}}, {"type": "relation", "id": 8759835, "center": {"lat": 3.5716357, "lon": 98.6775222}, "members": [{"type": "way", "ref": 629308961, "role": "inner"}, {"type": "way", "ref": 629308960, "role": "outer"}, {"type": "way", "ref": 629308959, "role": "outer"}], "tags": {"amenity": "hospital", "building": "yes", "healthcare": "hospital", "name": "RS Tni Angkatan ara dr Abdul Malik Mdn", "type": "multipolygon"}}, {"type": "relation", "id": 10506037, "center": {"lat": 6.3251564, "lon": 99.7961894}, "members": [{"type": "way", "ref": 759347204, "role": "outer"}, {"type": "way", "ref": 759347203, "role": "outer"}], "tags": {"addr:postcode": "07000", "addr:street": "Jalan Padang Mat Sirat", "amenity": "hospital", "name": "Hospital Langkawi", "opening_hours": "24/7", "type": "multipolygon"}}, {"type": "relation", "id": 12919657, "center": {"lat": 3.5997742, "lon": 98.6726366}, "members": [{"type": "way", "ref": 961456248, "role": "inner"}, {"type": "way", "ref": 961456246, "role": "inner"}, {"type": "way", "ref": 961456247, "role": "outer"}], "tags": {"amenity": "hospital", "building": "yes", "healthcare": "hospital", "name": "RS Putri Hijau Medan", "type": "multipolygon"}}]}