{"version": 0.6, "generator": "Overpass API 0.7.61.5 4133829e", "osm3s": {"timestamp_osm_base": "2023-10-31T20:51:35Z", "copyright": "The data included in this document is from www.openstreetmap.org. The data is made available under ODbL."}, "elements": [{"type": "node", "id": 956709708, "lat": 2.7849061, "lon": 27.6102844, "tags": {"amenity": "hospital", "healthcare": "hospital", "name": "Lopitalo", "name:fr": "H\u00f4pital", "name:ln": "Lopitalo", "operator": "catholic church", "source": "Plan de d\u00e9veloppement urbain de Paulis, in: Guy Choprix: La naissance d'une ville."}}, {"type": "node", "id": 2228773861, "lat": 9.9113773, "lon": 20.8723207, "tags": {"amenity": "hospital"}}, {"type": "node", "id": 2663462940, "lat": 5.76432, "lon": 20.6677, "tags": {"addr:city": "Bambari", "addr:full": "OUAKA, Bambari, Bambari, Bambari, Centre Ville", "amenity": "hospital", "capacity:beds": "0", "health_facility:type": "private_hospital", "healthcare": "hospital", "name": "ACABEF Antenne Ouaka", "operator": "Association Centrafricaine pour le Bien-Etre Familial", "operator:type": "private", "source": "UNICEF", "toilets:number": "0"}}, {"type": "node", "id": 2663462971, "lat": 5.7683851, "lon": 20.6517322, "tags": {"addr:city": "Kidigra", "addr:full": "OUAKA, Bambari, Bambari, Kidigra, Kidigra", "amenity": "hospital", "capacity:beds": "6", "fixme": "This health facility is located almost 12 km straight line SE from the Kidigra of NGA data. Other sources place Kidigra also in that area. So addr:* tags should be checked. The NGA has a node Kongo for this Centre de Sant\u00e9 location.", "health_facility:type": "health_center", "healthcare": "hospital", "name": "Centre de Sant\u00e9 Notre-Dame de la Victoire", "operator:type": "private", "source": "UNICEF", "toilets:number": "5"}}, {"type": "node", "id": 2664379225, "lat": 5.32378, "lon": 20.7102, "tags": {"addr:city": "Ngakobo", "addr:full": "OUAKA, Kouango, Cochio-Toulou, Ngakobo, Kolingba 4", "amenity": "hospital", "capacity:beds": "0", "fixme": "Due to lack of hires Bing imagery, we couldn't double check exact position of this health center", "health_facility:type": "dispensary", "name": "Poste de Sant\u00e9 de Ngakobo", "operator:type": "government", "source": "UNICEF", "toilets:number": "1"}}, {"type": "node", "id": 2666204775, "lat": 4.9795694, "lon": 20.5447064, "tags": {"addr:city": "Boy-Kotto", "addr:full": "OUAKA, Kouango, Cochio-Toulou, Boy-Kotto", "amenity": "hospital", "capacity:beds": "6", "health_facility:type": "health_center", "name": "Centre de Sant\u00e9 de Boy-Kotto", "operator:type": "government", "source": "UNICEF", "toilets:number": "1"}}, {"type": "node", "id": 2666204776, "lat": 4.93038, "lon": 20.6863, "tags": {"addr:city": "Gbada", "addr:full": "OUAKA, Kouango, Cochio-Toulou, Gbada", "amenity": "hospital", "capacity:beds": "0", "fixme": "The name is confusing. Although addr:city=Gbada, the name refers to the village of Goya, 1.4 km to the NE", "health_facility:type": "dispensary", "name": "Poste de Sant\u00e9 de Goya", "operator:type": "government", "source": "UNICEF", "toilets:number": "0"}}, {"type": "node", "id": 2666204778, "lat": 5.1492826, "lon": 20.704307, "tags": {"addr:city": "Kossamba", "addr:full": "OUAKA, Kouango, Cochio-Toulou, Kossamba", "amenity": "hospital", "capacity:beds": "0", "fixme": "This UNICEF node was located in Zara, about 23Km to the S. Moved here (Kossamba (UNICEF) or Kossemba (NGA)). Checked against UNICEF water well in Zara, that is correct. Location approximate, as only lowres Bing", "health_facility:type": "dispensary", "name": "Poste de Sant\u00e9 de Kossamba", "operator:type": "government", "source": "UNICEF", "toilets:number": "0"}}, {"type": "node", "id": 2666225494, "lat": 5.741673, "lon": 20.055859, "tags": {"addr:city": "Grimari", "addr:full": "OUAKA, Grimari, Grimari, Grimari, Danga", "amenity": "hospital", "capacity:beds": "26", "health_facility:type": "health_center", "name": "SC de Grimari", "operator:type": "government", "source": "UNICEF", "toilets:number": "2"}}, {"type": "node", "id": 2666392857, "lat": 5.8982058, "lon": 21.1229611, "tags": {"addr:city": "Seko", "addr:full": "OUAKA, Bambari, Danga-Gboudou, Seko", "amenity": "hospital", "capacity:beds": "14", "health_facility:type": "health_center", "name": "Centre de Sant\u00e9 de Seko", "operator:type": "government", "source": "UNICEF", "toilets:number": "2"}}, {"type": "node", "id": 2666392859, "lat": 5.9240448, "lon": 21.1497157, "tags": {"addr:city": "Tagbara", "addr:full": "OUAKA, Bambari, Danga-Gboudou, Tagbara", "amenity": "hospital", "capacity:beds": "2", "health_facility:type": "dispensary", "healthcare": "hospital", "name": "Poste de Sant\u00e9 de Tagbara", "operator:type": "government", "source": "UNICEF", "toilets:number": "1"}}, {"type": "node", "id": 2668577577, "lat": 6.1302983, "lon": 21.1278669, "tags": {"addr:city": "Mbandje-Lokoto", "addr:full": "OUAKA, Ippy, Baidou-Ngoumbourou, Mbandje-Lokoto", "amenity": "hospital", "capacity:beds": "2", "health_facility:type": "dispensary", "healthcare": "clinic", "name": "Poste de Sant\u00e9 de Mbandje-Lokoto", "operator:type": "government", "source": "UNICEF", "toilets:number": "0"}}, {"type": "node", "id": 2668627514, "lat": 5.1563633, "lon": 20.272504, "tags": {"addr:city": "Mbalangao", "addr:full": "OUAKA, Kouango, Azengue-Mindou, Mbalangao", "amenity": "hospital", "capacity:beds": "2", "health_facility:type": "dispensary", "name": "Poste de Sant\u00e9 de Mbalangao", "operator:type": "government", "source": "UNICEF", "toilets:number": "2"}}, {"type": "node", "id": 2668627522, "lat": 5.14062, "lon": 20.3757, "tags": {"addr:city": "Ndoro", "addr:full": "OUAKA, Kouango, Azengue-Mindou, Ndoro", "amenity": "hospital", "capacity:beds": "1", "fixme": "Due to lack of HiRes Bing imagery, we couldn't double check the exact position", "health_facility:type": "dispensary", "name": "Poste de Sant\u00e9 de Ndoro", "operator:type": "government", "source": "UNICEF", "toilets:number": "0"}}, {"type": "node", "id": 2668753007, "lat": 4.8366016, "lon": 20.4268033, "tags": {"addr:city": "Bianga", "addr:full": "OUAKA, Kouango, Cochio-Toulou, Bianga", "amenity": "hospital", "capacity:beds": "5", "health_facility:type": "health_center", "name": "Centre de Sant\u00e9 de Bianga", "operator:type": "government", "source": "UNICEF", "toilets:number": "0"}}, {"type": "node", "id": 2669062497, "lat": 5.72347, "lon": 21.4859, "tags": {"addr:city": "Boyo", "addr:full": "OUAKA, Bambari, Haute-Baidou, Boyo", "amenity": "hospital", "capacity:beds": "4", "health_facility:type": "health_center", "name": "Centre de Sant\u00e9 de Boyo", "operator:type": "government", "source": "UNICEF", "toilets:number": "0"}}, {"type": "node", "id": 2693948742, "lat": 5.41942, "lon": 20.9435, "tags": {"addr:city": "Bokolobo", "addr:full": "OUAKA, Bambari, Ngougbia, Bokolobo", "amenity": "hospital", "capacity:beds": "5", "health_facility:type": "health_center", "name": "Centre de Sant\u00e9 de Bokolobo", "operator:type": "government", "source": "UNICEF", "toilets:number": "2"}}, {"type": "node", "id": 2694663671, "lat": 6.1963713, "lon": 20.3858934, "tags": {"addr:city": "Bakala", "addr:full": "OUAKA, Bakala, Koudoubego, Bakala, Camp fonctionnaire", "amenity": "hospital", "capacity:beds": "10", "health_facility:type": "health_center", "name": "Centre de Sant\u00e9 de Bakala", "operator:type": "government", "source": "UNICEF", "toilets:number": "3"}}, {"type": "node", "id": 2694836985, "lat": 5.2706948, "lon": 20.1822992, "tags": {"addr:city": "Bangao", "addr:full": "OUAKA, Kouango, Azengue-Mindou, Bangao", "amenity": "hospital", "capacity:beds": "7", "health_facility:type": "health_center", "name": "Centre de Sant\u00e9 de Bangao", "operator:type": "government", "source": "UNICEF", "toilets:number": "2"}}, {"type": "node", "id": 2694836987, "lat": 5.39898, "lon": 20.1233, "tags": {"addr:city": "Goussema", "addr:full": "OUAKA, Kouango, Azengue-Mindou, Goussema", "amenity": "hospital", "capacity:beds": "2", "health_facility:type": "dispensary", "name": "Poste de Sant\u00e9 de Goussema", "operator:type": "government", "source": "UNICEF", "toilets:number": "0"}}, {"type": "node", "id": 3040808554, "lat": 5.7909228, "lon": 20.6791543, "tags": {"amenity": "hospital", "healthcare": "hospital", "name": "Centre de sant\u00e9 Bagolo"}}, {"type": "node", "id": 3040808556, "lat": 5.776426, "lon": 20.6748077, "tags": {"amenity": "hospital", "healthcare": "hospital", "name": "Clinique Endjitokowo"}}, {"type": "node", "id": 3381333457, "lat": 1.398482, "lon": 28.69788, "tags": {"amenity": "hospital", "fixme": "name & position not correct", "health_facility:CD": "cs", "name": "Centre de Sant\u00e9 de Bandisende", "source": "MSF"}}, {"type": "node", "id": 3381333458, "lat": 1.355057, "lon": 29.031503, "tags": {"amenity": "hospital", "health_facility:CD": "cs", "name": "Centre de Sant\u00e9 de Binase", "source": "MSF"}}, {"type": "node", "id": 3381333459, "lat": 1.338366, "lon": 29.037878, "tags": {"amenity": "hospital", "health_facility:CD": "cs", "name": "Centre de Sant\u00e9 de Butiaba", "source": "MSF"}}, {"type": "node", "id": 3381333461, "lat": 0.998991, "lon": 29.171076, "tags": {"amenity": "hospital", "health_facility:CD": "cs", "health_facility:type": "health_centre", "name": "Centre de Sant\u00e9 de Lwemba", "source": "MSF"}}, {"type": "node", "id": 3381333462, "lat": 1.1366368, "lon": 29.1462811, "tags": {"amenity": "hospital", "health_facility:CD": "cs", "health_facility:type": "health_centre", "name": "Centre de Sant\u00e9 de Mayuano", "source": "MSF"}}, {"type": "node", "id": 3381333463, "lat": 1.4043052, "lon": 28.3902987, "tags": {"amenity": "hospital", "fixme": "not located in correct village", "health_facility:CD": "cs", "name": "Centre de Sant\u00e9 de Molokay", "source": "MSF"}}, {"type": "node", "id": 3381333466, "lat": 1.0555869, "lon": 29.1461403, "tags": {"amenity": "hospital", "health_facility:CD": "cs", "health_facility:type": "health_centre", "name": "Centre de Sant\u00e9 de Teturi", "source": "MSF"}}, {"type": "node", "id": 3381333470, "lat": 1.4042975, "lon": 27.6030166, "tags": {"amenity": "hospital", "health_facility:CD": "hgr", "name": "H\u00f4pital G\u00e9n\u00e9ral de Nia-Nia", "source": "MSF"}}, {"type": "node", "id": 3545491589, "lat": 4.7424094, "lon": 22.8290969, "tags": {"amenity": "hospital", "name": "HURB"}}, {"type": "node", "id": 3554954223, "lat": 5.0992245, "lon": 22.774062, "tags": {"alt_name": "Pk50", "amenity": "hospital", "name": "Centre de Sante Banabongo Pk50 Bssou"}}, {"type": "node", "id": 3670323118, "lat": 4.9009792, "lon": 22.6222282, "tags": {"alt_name": "Pk33", "amenity": "hospital", "name": "Poste De Sante Nganzi"}}, {"type": "node", "id": 3670534655, "lat": 5.0664373, "lon": 22.4123516, "tags": {"amenity": "hospital", "name": "Poste De Sante Ndanda"}}, {"type": "node", "id": 5000266554, "lat": 4.7435827, "lon": 22.8277324, "tags": {"amenity": "hospital", "name": "H\u00f4pital MSF-B"}}, {"type": "node", "id": 5002023821, "lat": 5.0017329, "lon": 25.1057057, "tags": {"amenity": "hospital", "name": "AIM"}}, {"type": "node", "id": 5484125723, "lat": 8.9878338, "lon": 27.5924397, "tags": {"amenity": "hospital", "name": "AAA hospital"}}, {"type": "node", "id": 6128625526, "lat": 6.5403089, "lon": 21.985855, "tags": {"amenity": "hospital", "healthcare": "hospital", "name": "H\u00f4pital r\u00e9gional de Bria"}}, {"type": "node", "id": 6337444306, "lat": 8.4111648, "lon": 20.6499749, "tags": {"amenity": "hospital", "healthcare": "hospital", "name": "H\u00f4pital Pr\u00e9fectoral", "source": "UNICEF"}}, {"type": "node", "id": 6374000347, "lat": 0.5007249, "lon": 29.4762283, "tags": {"amenity": "hospital", "check_date": "2023-06-17", "health_facility:CD": "cs", "id:uuid": "urn:dsnis_hc_pnt_id:6131010055", "name": "Centre de Sant\u00e9 Musavuli", "opening_hours": "PH,Mo-Su 06:00-23:00+", "short_name": "CS Musavuli", "source": "OMS-DSNIS", "survey:date": "2018-12-29"}}, {"type": "node", "id": 6374053871, "lat": 0.021776, "lon": 29.102094, "tags": {"amenity": "hospital", "health_facility:CD": "ch", "healthcare": "hospital", "id:uuid": "urn:dsnis_hc_pnt_id:6123070089", "is_in:health_level6": "Musienene", "is_in:health_level8": "MUKONGO", "name": "CH Mukongo", "source": "UE-CIG", "survey:date": "2018-12-29"}}, {"type": "node", "id": 6374058431, "lat": 0.515284, "lon": 29.4427473, "tags": {"amenity": "hospital", "health_facility:CD": "ch", "healthcare": "hospital", "id:uuid": "urn:dsnis_hc_pnt_id:6131010007", "is_in:health_level6": "Beni", "name": "Centre Hospitalier de Gloire", "short_name": "CH de Gloire", "source": "OMS-DSNIS", "survey:date": "2018-12-29"}}, {"type": "node", "id": 6374058438, "lat": 0.4949573, "lon": 29.4666467, "tags": {"amenity": "hospital", "check_date": "2023-06-06", "health_facility:CD": "ch", "healthcare": "hospital", "id:uuid": "urn:dsnis_hc_pnt_id:6131010003", "name": "Centre Hospitalier Emanuel Dalzon", "source": "OMS-DSNIS", "survey:date": "2018-12-29"}}, {"type": "node", "id": 6374099354, "lat": 0.0941722, "lon": 29.2933005, "tags": {"amenity": "hospital", "check_date": "2021-08-29", "health_facility:CD": "ps", "healthcare": "nurse", "id:uuid": "urn:dsnis_hc_pnt_id:6141010270", "is_in:health_level6": "Katwa", "is_in:health_level8": "Masuli", "name": "Poste de Sant\u00e9 La Raison", "short_name": "PS la Raison", "vaccination": "yes"}}, {"type": "node", "id": 6374102312, "lat": 0.0801, "lon": 29.314117, "tags": {"amenity": "hospital", "check_date": "2021-08-24", "health_facility:CD": "ch", "healthcare": "nurse", "id:uuid": "urn:dsnis_hc_pnt_id:6141010090", "is_in:health_level10": "Kavali", "is_in:health_level6": "Katwa", "is_in:health_level8": "Vighole", "name": "Centre Hospitalier Saint Thomas", "short_name": "CH Saint Thomas", "source": "OSM RDC;BCZ;AS", "vaccination": "yes"}}, {"type": "node", "id": 7375322928, "lat": 5.7712562, "lon": 20.650358, "tags": {"amenity": "hospital", "health_facility:type": "health_center", "healthcare": "hospital", "name": "Centre de Sant\u00e9 Kidigra", "source": "msf"}}, {"type": "node", "id": 7375340818, "lat": 5.7685809, "lon": 20.6553309, "tags": {"amenity": "hospital", "health_facility:type": "clinic", "healthcare": "hospital", "name": "Clinique Naomi"}}, {"type": "node", "id": 7407644963, "lat": 0.361782, "lon": 28.7592375, "tags": {"amenity": "hospital", "health_facility:CD": "hgr", "healthcare": "hospital", "name": "H\u00f4pital G\u00e9n\u00e9ral de R\u00e9f\u00e9rence de Manguredjipa", "short_name": "HGR Manguredjipa"}}, {"type": "node", "id": 7469578179, "lat": 6.1226082, "lon": 20.8297996, "tags": {"amenity": "hospital", "fixme": "to check", "healthcare": "hospital"}}, {"type": "node", "id": 7769529097, "lat": 0.1164446, "lon": 29.2742779, "tags": {"alt_name": "Disp Katali", "amenity": "hospital", "health_facility:CD": "ch", "is_in:health_level10": "Katali C", "is_in:health_level8": "Vusenzera", "name": "Centre Hospitalier Katali", "operator": "Prive", "source": "OSM DRC;BCZ; AS", "survey:date": "2021-09-04"}}, {"type": "node", "id": 7961990392, "lat": 2.8767528, "lon": 21.226891, "tags": {"amenity": "hospital", "fixme": "Confirmer le nom exact de la FoSa", "name": "Bosomandji", "source": "MSFOCB", "survey:date": "2020-01"}}, {"type": "node", "id": 8014547596, "lat": 1.3517183, "lon": 29.495525, "tags": {"amenity": "hospital", "health_facility:CD": "hgr", "is_in:health_level6": "Lolwa", "is_in:health_level8": "Lolwa", "name": "H\u00f4pital G\u00e9n\u00e9ral de R\u00e9f\u00e9rence Lolwa", "short_name": "HGR Lolwa", "snis_code:as": "54520202", "snis_code:zs": "545202"}}, {"type": "node", "id": 8599414458, "lat": 0.4898221, "lon": 29.4704871, "tags": {"amenity": "hospital", "check_date": "2023-06-17", "health_facility:CD": "nm", "name": "Notre Maison ABC"}}, {"type": "node", "id": 8604775653, "lat": 0.6642815, "lon": 29.8875404, "tags": {"amenity": "hospital", "name": "CS Kamango"}}, {"type": "node", "id": 8604777510, "lat": 0.63232, "lon": 29.9261333, "tags": {"amenity": "hospital", "name": "CS Kahondo"}}, {"type": "node", "id": 8604792848, "lat": 0.663544, "lon": 29.887243, "tags": {"amenity": "hospital", "name": "Zone de Sant\u00e9 Kamango"}}, {"type": "node", "id": 8904561276, "lat": 4.6515027, "lon": 22.2207102, "tags": {"amenity": "hospital", "healthcare": "hospital", "name": "Poste de sant\u00e9 de Gandakototi"}}, {"type": "node", "id": 8936218233, "lat": 0.2671701, "lon": 29.403554, "tags": {"amenity": "hospital", "health_facility:CD": "tradi", "name": "Tradipraticien Muhanga", "source": "OSM DRC;BCZ; AS", "survey:date": "2021-07-15"}}, {"type": "node", "id": 9076996082, "lat": 0.0803368, "lon": 29.3082058, "tags": {"amenity": "hospital", "health_facility:CD": "disp", "is_in:health_level10": "Kaghembe", "is_in:health_level8": "Vighole", "name": "Centre Hospitalier All the Same", "short_name": "CH All the Same", "source": "OSM RDC;BCZ;AS", "source:date": "2021-08-25"}}, {"type": "node", "id": 9076996101, "lat": 0.0820687, "lon": 29.3009003, "tags": {"amenity": "hospital", "health_facility:CD": "ps", "is_in:health_level10": "Kighutu", "name": "Poste de Sant\u00e9 la Lumiere", "source": "OSM RDC;BCZ;AS", "source:date": "2021-08-25"}}, {"type": "node", "id": 9081665224, "lat": 0.1185934, "lon": 29.2983733, "tags": {"amenity": "hospital", "health_facility:CD": "cm", "is_in:health_level10": "Kaluhite", "is_in:health_level8": "Masiki", "name": "Centre M\u00e9dical La Famille", "short_name": "CH La Famille", "source": "OSM RDC;BCZ;AS", "survey:date": "2021-09-08"}}, {"type": "node", "id": 9084148545, "lat": 0.1036619, "lon": 29.3027837, "tags": {"amenity": "hospital", "health_facility:CD": "ch", "is_in:health_level10": "Mabwe", "is_in:health_level8": "Mitoya", "name": "Centre Hospiter Espoir du Graben", "source": "OSM RDC;BCZ;AS", "source:date": "2021-09-05"}}, {"type": "node", "id": 9158473673, "lat": 0.2956774, "lon": 29.3413281, "tags": {"amenity": "hospital", "check_date": "2023-04-26", "name": "Centre Hospitalier Maboya", "short_name": "CH Maboya", "source": "OSM RDC;BCZ;AS", "survey:date": "2021-01-14", "vaccination": "yes"}}, {"type": "node", "id": 9165465618, "lat": 0.1450982, "lon": 29.2859071, "tags": {"amenity": "hospital", "check_date": "2023-04-23", "name": "Centre de Traitement Covid"}}, {"type": "node", "id": 9165465620, "lat": 0.1456292, "lon": 29.2858407, "tags": {"amenity": "hospital", "check_date": "2023-04-23", "name": "Couveuse H\u00f4pital Kitatumba"}}, {"type": "node", "id": 9186550423, "lat": 0.5044957, "lon": 29.4092761, "tags": {"amenity": "hospital", "check_date": "2023-04-30", "health_facility:CD": "hgr", "health_level": "6", "name": "Hosp De Non Parle", "survey:date": "09/10/2021"}}, {"type": "node", "id": 9187154943, "lat": 0.1053276, "lon": 29.3101501, "tags": {"amenity": "hospital", "health_facility:CD": "cs", "is_in:health_level10": "Vuhika", "is_in:health_level8": "Vuhika", "name": "Centre de Sant\u00e9 Vuhika", "short_name": "CS Vuhika", "source": "OSM DRC;BCZ;AS", "source:date": "2021-09-16", "vaccination": "yes"}}, {"type": "node", "id": 9311393217, "lat": 9.3981876, "lon": 28.8240973, "tags": {"amenity": "hospital", "name": "\u0645\u0633\u062a\u0634\u0641\u0649 \u0628\u064a\u0645\u0646\u0645"}}, {"type": "node", "id": 9462412609, "lat": 0.1081895, "lon": 29.3031013, "tags": {"amenity": "hospital", "name": "Centre psychiatrique Sainte Croix"}}, {"type": "node", "id": 9462470042, "lat": 0.1306878, "lon": 29.308117, "tags": {"amenity": "hospital", "name": "Poste de Sant\u00e9 EEERA Mutiri"}}, {"type": "node", "id": 9465531219, "lat": 0.1000047, "lon": 29.3044124, "tags": {"amenity": "hospital", "check_date": "2023-04-26", "name": "Dispensaire v\u00e9t\u00e9rinaire"}}, {"type": "node", "id": 9602600906, "lat": 0.0959365, "lon": 29.3279766, "tags": {"amenity": "hospital", "name": "Centre Hospitalier Emmanuel d'Alzon", "opening_hours": "24/7", "operator": "private"}}, {"type": "node", "id": 9798326869, "lat": 0.5101449, "lon": 29.1373812, "tags": {"amenity": "hospital", "name": "Centre de sant\u00e9 lubena"}}, {"type": "node", "id": 9835954910, "lat": 0.1174917, "lon": 29.3403667, "tags": {"amenity": "hospital", "health_facility:CD": "cs", "is_in:health_level10": "Mulemya", "is_in:health_level8": "Kyaghala", "name": "Centre de Sant\u00e9 Kyaghala", "short_name": "CS Kyaghala", "source": "OSM RDC;BCZ;AS", "source:date": "2021-09-09", "vaccination": "yes"}}, {"type": "node", "id": 10287432806, "lat": 0.1497366, "lon": 29.333277, "tags": {"amenity": "hospital", "healthcare": "yes", "name": "Poste de sant\u00e9 Saint Rapha\u00ebl"}}, {"type": "node", "id": 11001730384, "lat": 0.0722185, "lon": 29.9202657, "tags": {"Source": "Uganda Bureau of Statistics", "amenity": "hospital", "name": "KABIRIZI HEALTH CENTRE II"}}, {"type": "node", "id": 11001730386, "lat": 0.6719617, "lon": 29.9920162, "tags": {"Source": "Uganda Bureau of Statistics", "amenity": "hospital", "name": "HEALTH CENTRE IV"}}, {"type": "node", "id": 11001730388, "lat": 0.6739278, "lon": 29.9892221, "tags": {"Source": "Makerere University, Department of Geography", "amenity": "hospital", "grade": "HC III", "name": "NYAHUKA"}}, {"type": "node", "id": 11001730397, "lat": 0.0837028, "lon": 29.7522096, "tags": {"Source": "Makerere University, Department of Geography", "amenity": "hospital", "grade": "HC III", "name": "KITHOLU"}}, {"type": "node", "id": 11001734015, "lat": 0.0155972, "lon": 29.8105702, "tags": {"Source": "Makerere University, Department of Geography", "amenity": "hospital", "grade": "HC III", "name": "MUSENENE"}}, {"type": "node", "id": 11001734018, "lat": 0.1257331, "lon": 29.952954, "tags": {"Source": "Uganda Bureau of Statistics", "amenity": "hospital", "name": "KYARUMBA HEALTH CENTRE III"}}, {"type": "node", "id": 11001734029, "lat": 0.1169694, "lon": 29.744517, "tags": {"Source": "Makerere University, Department of Geography", "amenity": "hospital", "grade": "HC II", "name": "KINYATSI"}}, {"type": "node", "id": 11001734032, "lat": 0.1208042, "lon": 29.9365934, "tags": {"Source": "Makerere University, Department of Geography", "amenity": "hospital", "grade": "HC III", "name": "KYONDO"}}, {"type": "node", "id": 11001734037, "lat": 0.059973, "lon": 29.7374431, "tags": {"Source": "Makerere University, Department of Geography", "amenity": "hospital", "grade": "HC III", "name": "KARAMBI"}}, {"type": "node", "id": 11001734039, "lat": 0.0630548, "lon": 29.9040688, "tags": {"Source": "Makerere University, Department of Geography", "amenity": "hospital", "grade": "Hospital", "name": "KAGANDO"}}, {"type": "node", "id": 11001734041, "lat": 0.0641239, "lon": 29.899048, "tags": {"Source": "Uganda Bureau of Statistics", "amenity": "hospital", "name": "KAGANDO HOSPITAL"}}, {"type": "node", "id": 11001734059, "lat": 0.1303808, "lon": 29.9898615, "tags": {"Source": "Uganda Bureau of Statistics", "amenity": "hospital", "name": "MUHANGO H/C III"}}, {"type": "node", "id": 11001734064, "lat": 0.5237901, "lon": 29.9934328, "tags": {"Source": "Makerere University, Department of Geography", "amenity": "hospital", "grade": "HC II", "name": "KAKUKA"}}, {"type": "node", "id": 11001734077, "lat": 0.0342025, "lon": 29.7221201, "tags": {"Source": "Makerere University, Department of Geography", "amenity": "hospital", "grade": "Hospital"}}, {"type": "node", "id": 11001734092, "lat": 0.0160312, "lon": 29.8327511, "tags": {"Source": "Makerere University, Department of Geography", "amenity": "hospital", "grade": "HC III", "name": "KINYAMASEKE"}}, {"type": "node", "id": 11001734095, "lat": 0.0290336, "lon": 29.7404166, "tags": {"Source": "Uganda Bureau of Statistics", "amenity": "hospital", "name": "NYABUGANDO HEALTH CENTRE 111"}}, {"type": "node", "id": 11001734099, "lat": 0.0738753, "lon": 29.8738724, "tags": {"Source": "Makerere University, Department of Geography", "amenity": "hospital", "grade": "HC III", "name": "NYABIRONGO"}}, {"type": "node", "id": 11001734108, "lat": 0.0624432, "lon": 29.7407501, "tags": {"Source": "Uganda Bureau of Statistics", "amenity": "hospital", "description": "HC III", "name": "KARAMBI HEALTH CENTRE"}}, {"type": "node", "id": 11001734113, "lat": 0.052975, "lon": 29.7785635, "tags": {"Source": "Makerere University, Department of Geography", "amenity": "hospital", "grade": "HC III", "name": "IHANDIRO"}}, {"type": "node", "id": 11001734116, "lat": 0.1264645, "lon": 29.9483263, "tags": {"Source": "Uganda Bureau of Statistics", "amenity": "hospital", "name": "KAGHEMA PARISH PHC"}}, {"type": "node", "id": 11001734129, "lat": 0.122307, "lon": 29.9522089, "tags": {"Source": "Makerere University, Department of Geography", "amenity": "hospital", "grade": "HC III", "name": "KYARUMBA"}}, {"type": "node", "id": 11001734132, "lat": 0.0134713, "lon": 29.7960959, "tags": {"Source": "Uganda Bureau of Statistics", "amenity": "hospital", "name": "MUSYENENE HEALTH CENTRE III"}}, {"type": "node", "id": 11001734139, "lat": 0.047528, "lon": 29.776554, "tags": {"Source": "Makerere University, Department of Geography", "amenity": "hospital", "grade": "Hospital", "name": "BWERA"}}, {"type": "node", "id": 11001734143, "lat": 0.590221, "lon": 29.9785426, "tags": {"Source": "Uganda Bureau of Statistics", "amenity": "hospital", "name": "HEALTH CENTH CENTRE III"}}, {"type": "node", "id": 11001734149, "lat": 0.0455788, "lon": 29.7762057, "tags": {"Source": "Uganda Bureau of Statistics", "amenity": "hospital", "name": "KASANGA HEALTH CENTRE III"}}, {"type": "node", "id": 11001734158, "lat": 0.0971105, "lon": 29.9303196, "tags": {"Source": "Uganda Bureau of Statistics", "amenity": "hospital", "name": "KYONDO HEALTH CENTRE III"}}, {"type": "node", "id": 11001734166, "lat": 0.0892526, "lon": 29.7810644, "tags": {"Source": "Uganda Bureau of Statistics", "amenity": "hospital", "name": "IHANDIRO H/C III"}}, {"type": "node", "id": 11001734167, "lat": 0.1843998, "lon": 29.9958733, "tags": {"Source": "Uganda Bureau of Statistics", "amenity": "hospital", "name": "KALIBO HEALTH CENTRE III"}}, {"type": "node", "id": 11001734174, "lat": 0.00634, "lon": 29.975575, "tags": {"Source": "Uganda Bureau of Statistics", "amenity": "hospital", "name": "ST FRANCIS HEALTH CENTRE III"}}, {"type": "node", "id": 11001734181, "lat": 0.1089904, "lon": 29.7624584, "tags": {"Source": "Uganda Bureau of Statistics", "amenity": "hospital", "name": "KITHOLHU HEALTH CENTRE III"}}, {"type": "node", "id": 11001734187, "lat": 0.1303973, "lon": 29.9985407, "tags": {"Source": "Makerere University, Department of Geography", "amenity": "hospital", "grade": "HC III", "name": "MAHANGO"}}, {"type": "node", "id": 11001734192, "lat": 0.0125068, "lon": 29.7421373, "tags": {"Source": "Makerere University, Department of Geography", "amenity": "hospital", "grade": "HC III", "name": "NYABUGANDO"}}, {"type": "node", "id": 11001734207, "lat": 0.0542764, "lon": 29.7897522, "tags": {"Source": "Makerere University, Department of Geography", "amenity": "hospital", "grade": "HC III", "name": "KASANGA PHC"}}, {"type": "node", "id": 11001734226, "lat": 0.0457923, "lon": 29.8088387, "tags": {"Source": "Uganda Bureau of Statistics", "amenity": "hospital", "name": "MUHINDI HEALTH CENTRE II"}}, {"type": "node", "id": 11010311539, "lat": 0.5021558, "lon": 29.4713433, "tags": {"amenity": "hospital", "name": "Zone de Sant\u00e9 Clinique Amani-Beni"}}, {"type": "node", "id": 11010420952, "lat": 0.4981161, "lon": 29.4424395, "tags": {"amenity": "hospital", "name": "Dispensaire p\u00e9diatrique la gu\u00e9rison"}}, {"type": "node", "id": 11010425920, "lat": 0.5009535, "lon": 29.4314553, "tags": {"amenity": "hospital", "name": "Centre m\u00e9dical Doroth\u00e9e"}}, {"type": "node", "id": 11010443211, "lat": 0.4936072, "lon": 29.4427019, "tags": {"amenity": "hospital", "name": "H\u00f4pital UNCHIR"}}, {"type": "node", "id": 11065209359, "lat": 0.085396, "lon": 29.2665116, "tags": {"amenity": "hospital", "name": "Dispensaire Saint Antoine de Padoue"}}, {"type": "node", "id": 11124976992, "lat": 0.4911924, "lon": 29.4677688, "tags": {"amenity": "hospital", "name": "Lwanzo Hospital Center"}}, {"type": "way", "id": 196168016, "center": {"lat": 0.5125116, "lon": 25.1933388}, "nodes": [2065217638, 1932218928, 2065217627, 2065217629, 2065217630, 2065217633, 2065217631, 2065217636, 2065217638], "tags": {"amenity": "hospital", "building": "yes", "check_date": "2023-05-08", "name": "Du Canon", "source": "Bing"}}, {"type": "way", "id": 196168023, "center": {"lat": 0.5100963, "lon": 25.1990495}, "nodes": [2065217284, 2065217160, 2065217139, 2065217179, 2065217254, 2065217187, 1932136151, 2065217281, 2065217287, 2065217290, 2065217293, 2065217284], "tags": {"amenity": "hospital", "building": "yes", "emergency": "yes", "name": "Rheoboth", "source": "Bing"}}, {"type": "way", "id": 213126541, "center": {"lat": 9.9113355, "lon": 20.8723365}, "nodes": [2228773866, 2228773864, 2228773849, 2228773859, 2228773866], "tags": {"amenity": "hospital", "healthcare": "hospital", "project:eurosha_2012": "yes", "source": "GPS", "source:date": "2013-03-15"}}, {"type": "way", "id": 218239681, "center": {"lat": 8.7685254, "lon": 27.3981135}, "nodes": [2275093158, 2275093315, 2275093174, 8999604232, 2275093117, 2275093158], "tags": {"addr:city": "Aweil", "amenity": "hospital", "emergency": "yes", "healthcare": "hospital", "name": "Aweil Civil Hospital"}}, {"type": "way", "id": 253912614, "center": {"lat": 8.2532939, "lon": 27.9837758}, "nodes": [2597769360, 2597769362, 2597769368, 2597769376, 2597769360], "tags": {"addr:city": "Kuajok", "addr:street": "Wau-Gogrial Road", "amenity": "hospital", "emergency": "yes", "healthcare": "hospital", "name": "Warap State Hospital"}}, {"type": "way", "id": 255525260, "center": {"lat": 9.2536275, "lon": 29.8028714}, "nodes": [2612080381, 2612080525, 2612080272, 2612080260, 2612080381], "tags": {"addr:city": "Bentiu", "amenity": "hospital", "emergency": "yes", "healthcare": "hospital", "name": "Bentiu State Hospital"}}, {"type": "way", "id": 255667795, "center": {"lat": 9.2501763, "lon": 29.7965449}, "nodes": [2613388734, 2613388729, 2613388726, 2613388728, 9060484074, 9060687357, 2613388734], "tags": {"addr:city": "Bentiu", "amenity": "hospital", "healthcare": "hospital", "name": "M\u00e9decins Sans Fronti\u00e8res"}}, {"type": "way", "id": 257030254, "center": {"lat": 9.2219737, "lon": 29.1758721}, "nodes": [2626433847, 2626433835, 3928310358, 2626433838, 2626433848, 3928310359, 3928310360, 2626433847], "tags": {"amenity": "hospital", "healthcare": "hospital", "name": "Mayom Primary Health Care Centre"}}, {"type": "way", "id": 261009898, "center": {"lat": 4.9619381, "lon": 20.4829828}, "nodes": [2666204779, 2666203164, 2666203154, 2666203152, 2666204779], "tags": {"addr:city": "Ouza", "addr:full": "OUAKA, Kouango, Cochio-Toulou, Ouza", "amenity": "hospital", "building": "hospital", "capacity:beds": "1", "health_facility:type": "dispensary", "healthcare": "hospital", "name": "Poste de Sant\u00e9 de Ouza", "operator:type": "government", "source": "Bing;UNICEF", "toilets:number": "1"}}, {"type": "way", "id": 261011750, "center": {"lat": 5.8135028, "lon": 20.2902009}, "nodes": [2666225479, 2666228542, 2666228536, 2666228532, 2666225479], "tags": {"addr:city": "Yek\u00e9tch\u00e9", "addr:full": "OUAKA, Grimari, Lissa, Yek\u00e9tch\u00e9", "amenity": "hospital", "building": "hospital", "capacity:beds": "2", "health_facility:type": "dispensary", "healthcare": "hospital", "name": "Poste de Sant\u00e9 de Yek\u00e9tch\u00e9", "operator:type": "government", "source": "Bing;UNICEF", "toilets:number": "0"}}, {"type": "way", "id": 261019945, "center": {"lat": 5.8495316, "lon": 21.0655477}, "nodes": [2666378518, 2666377099, 2666377094, 2666377097, 2666378518], "tags": {"addr:city": "Maloum", "addr:full": "OUAKA, Bambari, Danga-Gboudou, Maloum", "amenity": "hospital", "building": "yes", "capacity:beds": "9", "health_facility:type": "dispensary", "healthcare": "hospital", "name": "Poste de Sant\u00e9 de Maloum", "operator:type": "government", "source": "Bing;UNICEF", "toilets:number": "2"}}, {"type": "way", "id": 261019963, "center": {"lat": 5.8793316, "lon": 21.0512729}, "nodes": [2666378504, 2666377221, 2666377216, 2666377213, 2666377218, 2666377217, 2666378504], "tags": {"addr:city": "Binguinendji", "addr:full": "OUAKA, Bambari, Danga-Gboudou, Binguinendji", "amenity": "hospital", "building": "yes", "capacity:beds": "3", "health_facility:type": "dispensary", "healthcare": "hospital", "latitude": "5.879343", "longitude": "21.0512704", "name": "Poste de Sant\u00e9 de Binguenendji", "operator:type": "government", "source": "Bing;UNICEF", "toilets:number": "0"}}, {"type": "way", "id": 261233113, "center": {"lat": 6.0720103, "lon": 21.1145664}, "nodes": [2668577578, 2668564440, 2668564435, 2668564433, 2668577578], "tags": {"addr:city": "Zoubingui", "addr:full": "OUAKA, Ippy, Baidou-Ngoumbourou, Zoubingui", "amenity": "hospital", "building": "hospital", "capacity:beds": "4", "health_facility:type": "dispensary", "healthcare": "hospital", "name": "Poste de Sant\u00e9 de Zoubingui", "operator:type": "government", "source": "Bing;UNICEF", "toilets:number": "2"}}, {"type": "way", "id": 261242536, "center": {"lat": 5.1705926, "lon": 20.1983282}, "nodes": [2668627529, 2668629108, 2668629101, 2668629103, 2668627529], "tags": {"addr:city": "Ngadja", "addr:full": "OUAKA, Kouango, Azengue-Mindou, Ngadja", "amenity": "hospital", "building": "hospital", "capacity:beds": "5", "health_facility:type": "dispensary", "healthcare": "hospital", "name": "Poste de Sant\u00e9 de Ngadja", "operator:type": "government", "source": "Bing;UNICEF", "toilets:number": "0"}}, {"type": "way", "id": 261277019, "center": {"lat": 6.3931466, "lon": 21.5317128}, "nodes": [2669084611, 2669084880, 2669084876, 2669084874, 2669084611], "tags": {"addr:city": "Kopia", "addr:full": "OUAKA, Ippy, Yengou, Kopia", "amenity": "hospital", "building": "yes", "capacity:beds": "0", "health_facility:type": "dispensary", "healthcare": "hospital", "name": "Poste de Sant\u00e9 de Kopia", "operator:type": "government", "source": "Bing;UNICEF", "toilets:number": "0"}}, {"type": "way", "id": 261277051, "center": {"lat": 6.4363613, "lon": 21.6356602}, "nodes": [2669084618, 2669085199, 2669085192, 2669085188, 2669084618], "tags": {"addr:city": "Lafolo", "addr:full": "OUAKA, Ippy, Yengou, Lafolo", "amenity": "hospital", "building": "yes", "capacity:beds": "3", "health_facility:type": "dispensary", "healthcare": "hospital", "name": "Poste de Sant\u00e9 de Lafolo", "operator:type": "government", "source": "Bing;UNICEF", "toilets:number": "2"}}, {"type": "way", "id": 261567693, "center": {"lat": 5.7698332, "lon": 20.6748659}, "nodes": [3040808558, 2671652584, 2671652552, 2671652539, 3040808558], "tags": {"amenity": "hospital", "building": "yes", "healthcare": "hospital", "name": "Centre de sant\u00e9 Sh\u00e9kina"}}, {"type": "way", "id": 262066208, "center": {"lat": 5.7639878, "lon": 20.685377}, "nodes": [2663462954, 2677081687, 2677081682, 2677081680, 2663462954], "tags": {"addr:city": "Sambia", "addr:full": "OUAKA, Bambari, Bambari, Sambia, Sambia", "amenity": "hospital", "building": "yes", "capacity:beds": "3", "health_facility:type": "health_center", "healthcare": "hospital", "name": "Centre de Sant\u00e9 Elevage", "operator:type": "government", "source": "UNICEF", "toilets:number": "1"}}, {"type": "way", "id": 262073556, "center": {"lat": 0.5136885, "lon": 25.1711358}, "nodes": [2677147530, 2677147526, 2677147459, 2677147510, 2677147428, 2677147530], "tags": {"amenity": "hospital", "name": "Hopital G\u00e9n\u00e9ral de Kisangani", "source": "Bing"}}, {"type": "way", "id": 263738602, "center": {"lat": 4.9006685, "lon": 20.2547295}, "nodes": [2693866680, 2693867042, 2693867035, 2693867031, 2693866680], "tags": {"addr:city": "Gouassi 2", "addr:full": "OUAKA, Kouango, Kouango, Gouassi 2", "amenity": "hospital", "building": "hospital", "capacity:beds": "0", "health_facility:type": "health_center", "healthcare": "hospital", "name": "Centre de Sant\u00e9 de Gouassi 2", "operator:type": "government", "source": "Bing;UNICEF", "toilets:number": "1"}}, {"type": "way", "id": 263741823, "center": {"lat": 5.5782753, "lon": 20.8185744}, "nodes": [2693948740, 2693949164, 2693949162, 2693949160, 2693948740], "tags": {"addr:city": "Batobadja", "addr:full": "OUAKA, Bambari, Ngougbia, Batobadja", "amenity": "hospital", "building": "hospital", "capacity:beds": "5", "health_facility:type": "dispensary", "healthcare": "hospital", "name": "Centre de Sant\u00e9 de Batobadja", "operator:type": "government", "source": "Bing;UNICEF", "toilets:number": "2"}}, {"type": "way", "id": 263741825, "center": {"lat": 5.5411115, "lon": 20.8308126}, "nodes": [2693948738, 2693949152, 2693949150, 2693949151, 2693948738], "tags": {"addr:city": "Ngaloa", "addr:full": "OUAKA, Bambari, Ngougbia, Ngaloa", "amenity": "hospital", "building": "hospital", "capacity:beds": "5", "health_facility:type": "dispensary", "healthcare": "hospital", "name": "Centre de Sant\u00e9 Ngougbia", "operator:type": "government", "source": "Bing;UNICEF", "toilets:number": "4"}}, {"type": "way", "id": 263836416, "center": {"lat": 5.2706792, "lon": 20.1823109}, "nodes": [2694837077, 2694837078, 2694837075, 2694837074, 2694837077], "tags": {"amenity": "hospital", "building": "hospital", "name": "Centre de Sant\u00e9 de Bangao", "source": "Bing"}}, {"type": "way", "id": 263836417, "center": {"lat": 5.371241, "lon": 20.2297864}, "nodes": [2694836986, 2694837308, 2694837306, 2694837304, 2694836986], "tags": {"addr:city": "Zougougbada", "addr:full": "OUAKA, Kouango, Azengue-Mindou, Zougougbada", "amenity": "hospital", "building": "hospital", "capacity:beds": "4", "health_facility:type": "health_center", "healthcare": "hospital", "name": "Centre de Sant\u00e9 de Zougougbada", "operator:type": "government", "source": "Bing;UNICEF", "toilets:number": "2"}}, {"type": "way", "id": 266045201, "center": {"lat": 4.737005, "lon": 22.8004979}, "nodes": [3529021254, 2716269060, 2716269052, 2716269040, 2716269028, 2716269020, 2716269035, 2716269032, 3529021254], "tags": {"amenity": "hospital", "building": "yes", "healthcare": "hospital", "name": "Centre De Sante Maliko"}}, {"type": "way", "id": 300634014, "center": {"lat": 8.6112398, "lon": 29.9837127}, "nodes": [3047213747, 3047212887, 3047212886, 3047213746, 3047213747], "tags": {"amenity": "hospital", "healthcare": "hospital", "name": "Koch Primary Healthcare Centre", "operator": "Ministry of Health"}}, {"type": "way", "id": 306325553, "center": {"lat": 0.9858189, "lon": 27.1613114}, "nodes": [3110418624, 3110418625, 3110418634, 3110418635, 3110418690, 3110418688, 3110418658, 3110418643, 3110418624], "tags": {"amenity": "hospital"}}, {"type": "way", "id": 311731894, "center": {"lat": 4.7373511, "lon": 22.7105108}, "nodes": [3529092403, 3174505489, 3174505420, 3174505396, 3529092403], "tags": {"amenity": "hospital", "building": "yes", "health_facility:type": "hospital", "healthcare": "hospital", "name": "Centre Sante Ngoulapalo"}}, {"type": "way", "id": 312168398, "center": {"lat": 4.7844624, "lon": 22.6908812}, "nodes": [3636017309, 3180134935, 3180134925, 3180134910, 3636017309], "tags": {"amenity": "hospital", "building": "yes", "healthcare": "hospital", "name": "Poste Sante Diguandigui"}}, {"type": "way", "id": 314294636, "center": {"lat": 4.8382439, "lon": 22.9905653}, "nodes": [3203440634, 3203440635, 3203440636, 3203440637, 3203440634], "tags": {"amenity": "hospital", "building": "yes", "health_facility_type": "health center", "name": "Cds De Yongofongo"}}, {"type": "way", "id": 314300933, "center": {"lat": 4.8404379, "lon": 22.7531904}, "nodes": [3566973467, 3203502817, 3203502818, 3203502819, 3203502820, 3203502821, 3203502822, 3203502823, 3566973467], "tags": {"alt_name": "Pk15", "amenity": "hospital", "building": "yes", "healthcare": "hospital", "name": "Centre de Sante Niakari"}}, {"type": "way", "id": 314300934, "center": {"lat": 4.8402559, "lon": 22.7528152}, "nodes": [3203502824, 3203502825, 3203502826, 3203502827, 3203502824], "tags": {"amenity": "hospital", "building": "yes", "name": "Centre de sant\u00e9 Niakari", "type": "Health centre"}}, {"type": "way", "id": 314528642, "center": {"lat": 4.9489958, "lon": 22.963685}, "nodes": [3545618582, 3205765956, 3205765954, 3205765957, 3545618582], "tags": {"amenity": "hospital", "building": "yes", "healthcare": "hospital", "name": "Poste De Sante Batimbilika"}}, {"type": "way", "id": 314544449, "center": {"lat": 4.8252676, "lon": 22.8810844}, "nodes": [3545604549, 3205913199, 3205913200, 3205913201, 3545604549], "tags": {"amenity": "hospital", "building": "yes", "healthcare": "hospital", "name": "Centre Sante Mbalazime"}}, {"type": "way", "id": 314572164, "center": {"lat": 4.8362323, "lon": 22.9337049}, "nodes": [3566778171, 3206154099, 3206154100, 3206154101, 3566778171], "tags": {"amenity": "hospital", "building": "yes", "healthcare": "hospital", "name": "Poste Sante Aou 2"}}, {"type": "way", "id": 314886852, "center": {"lat": 4.8908578, "lon": 22.939599}, "nodes": [3545604555, 3209376519, 3209376520, 3209376521, 3545604555], "tags": {"amenity": "hospital", "building": "yes", "healthcare": "hospital", "name": "Poste De Sante Yongossaba"}}, {"type": "way", "id": 315299209, "center": {"lat": 6.233759, "lon": 20.945879}, "nodes": [2693875882, 3214104254, 3214104252, 3214104253, 2693875882], "tags": {"addr:city": "Ndakara", "addr:full": "OUAKA, Ippy, Baidou-Ngoumbourou, Ndakara", "amenity": "hospital", "building": "hospital", "capacity:beds": "2", "health_facility:type": "dispensary", "healthcare": "hospital", "name": "Poste de Sant\u00e9 de Ndakara", "operator:type": "government", "source": "UNICEF;Bing", "toilets:number": "2"}}, {"type": "way", "id": 319377840, "center": {"lat": 6.8105243, "lon": 29.6813053}, "nodes": [3257895909, 3257895907, 3257895905, 3257895910, 3257895911, 9313276983, 3257895909], "tags": {"addr:city": "Rumbek", "amenity": "hospital", "emergency": "yes", "healthcare": "hospital", "name": "Lakes State Hospital"}}, {"type": "way", "id": 321295515, "center": {"lat": 4.2243725, "lon": 20.8990449}, "nodes": [3280388941, 3280388946, 3280388934, 3280388926, 3280388941], "tags": {"amenity": "hospital", "building": "yes", "name": "Molegbe Health Center"}}, {"type": "way", "id": 321999619, "center": {"lat": 4.271393, "lon": 21.1234269}, "nodes": [3287657142, 3287657143, 3287657144, 3287657145, 3287657142], "tags": {"amenity": "hospital", "name": "Health Center, Mobayi Mbongo Health Zone"}}, {"type": "way", "id": 331341249, "center": {"lat": 9.3591984, "lon": 28.5987893}, "nodes": [3384028671, 1999115366, 3384028622, 3384028580, 3384028671], "tags": {"amenity": "hospital", "name": "Agok Hospital"}}, {"type": "way", "id": 362762708, "center": {"lat": 4.6816123, "lon": 23.2499318}, "nodes": [3670204109, 3670204113, 3670204111, 3670204110, 3670204109], "tags": {"alt_name": "Pk70", "amenity": "hospital", "building": "yes", "healthcare": "hospital", "name": "Centre De Sante Zime Fleuve"}}, {"type": "way", "id": 418731625, "center": {"lat": 7.6996745, "lon": 27.9956197}, "nodes": [2565883166, 2565883170, 2565883082, 2565883066, 2565883166], "tags": {"amenity": "hospital", "name": "Comboni Hospital"}}, {"type": "way", "id": 419933761, "center": {"lat": 2.5261438, "lon": 27.7034875}, "nodes": [4199205676, 4199205671, 4199205667, 4199205659, 4199205658, 4199205656, 4199205654, 4199205653, 4199205650, 4199205644, 4199205641, 4199205640, 4199205643, 4199205649, 4199205655, 4199205657, 4199205660, 4199205661, 4199205662, 5780445498, 4199205669, 4199205678, 4199205682, 5785240883, 4199205681, 5785240884, 4199205676], "tags": {"amenity": "hospital"}}, {"type": "way", "id": 435067157, "center": {"lat": 1.5563681, "lon": 25.3238359}, "nodes": [4330070745, 4330070746, 4330070747, 4330070748, 4330070749, 4330070750, 4330070751, 4330070752, 4330070753, 2395782363, 2395782350, 5789510964, 5789510996, 2395782512, 2395782650, 4330070745], "tags": {"amenity": "hospital", "name": "H\u00f4pital General de Reference de Banalia"}}, {"type": "way", "id": 435067158, "center": {"lat": 3.3372281, "lon": 20.8800278}, "nodes": [4330070756, 4330070757, 4330070758, 4330070759, 3246729962, 4330070760, 4330070761, 4330070762, 4330070763, 4330070764, 4330070756], "tags": {"amenity": "hospital", "name": "H\u00f4pital General de Reference de Businga"}}, {"type": "way", "id": 456184877, "center": {"lat": 0.0634948, "lon": 29.8978482}, "nodes": [2965545676, 4783569810, 4524619570, 4524619423, 4524619432, 4524619575, 4524619578, 2965545676], "tags": {"amenity": "hospital", "name": "Kagando Hospital", "wikidata": "Q6346357", "wikipedia": "en:Kagando Hospital"}}, {"type": "way", "id": 457485591, "center": {"lat": 5.5008637, "lon": 20.0427367}, "nodes": [2694836989, 4536229842, 4536229843, 4536229844, 2694836989], "tags": {"addr:city": "Lakandja", "addr:full": "OUAKA, Grimari, Lissa, Lakandja", "amenity": "hospital", "building": "yes", "capacity:beds": "3", "health_facility:type": "dispensary", "healthcare": "hospital", "name": "Poste de Sant\u00e9 de Lakandja", "operator:type": "government", "source": "Digital Globe Maps API;UNICEF", "toilets:number": "1"}}, {"type": "way", "id": 473890231, "center": {"lat": 6.3360237, "lon": 21.4149715}, "nodes": [2668017303, 4679232412, 4679232413, 4679232414, 2668017303], "tags": {"addr:city": "Lambla", "addr:full": "OUAKA, Ippy, Yengou, Lambla", "amenity": "hospital", "building": "yes", "capacity:beds": "2", "health_facility:type": "dispensary", "healthcare": "hospital", "name": "Poste de Sant\u00e9 de Lambla", "operator:type": "government", "source": "UNICEF", "toilets:number": "1"}}, {"type": "way", "id": 477563109, "center": {"lat": 5.0916915, "lon": 23.0146065}, "nodes": [3554904571, 4708905440, 4708905439, 4708905438, 3554904571], "tags": {"amenity": "hospital", "building": "yes", "healthcare": "hospital", "name": "CDS Vougba"}}, {"type": "way", "id": 499264038, "center": {"lat": 5.4206156, "lon": 20.3192265}, "nodes": [2694836988, 4905612022, 4905612023, 4905612024, 2694836988], "tags": {"addr:city": "Krakondji", "addr:full": "OUAKA, Bambari, Pladama-Ouaka, Krakondji", "amenity": "hospital", "building": "hospital", "capacity:beds": "3", "health_facility:type": "dispensary", "healthcare": "hospital", "name": "Poste de Sant\u00e9 de Krakondji", "operator:type": "government", "source": "Digital Globe Premium Imagery Service;UNICEF", "toilets:number": "0"}}, {"type": "way", "id": 500634403, "center": {"lat": 6.3446824, "lon": 21.2804061}, "nodes": [2668017309, 4916309864, 4916309865, 4916309866, 2668017309], "tags": {"addr:city": "Ngolomanda", "addr:full": "OUAKA, Ippy, Ippy, Ngolomanda", "amenity": "hospital", "building": "yes", "capacity:beds": "4", "health_facility:type": "dispensary", "healthcare": "hospital", "name": "Poste de Sant\u00e9 de Ngolomanda", "operator:type": "government", "source": "UNICEF", "toilets:number": "2"}}, {"type": "way", "id": 503199517, "center": {"lat": 5.6423721, "lon": 20.5102505}, "nodes": [2663462981, 4935369956, 4935369957, 4935369958, 2663462981], "tags": {"addr:city": "Awatche", "addr:full": "OUAKA, Bambari, Pladama-Ouaka, Awatche", "amenity": "hospital", "building": "yes", "capacity:beds": "7", "health_facility:type": "health_center", "healthcare": "hospital", "name": "Centre de Sant\u00e9 d'Awatche", "operator:type": "government", "source": "UNICEF", "toilets:number": "1"}}, {"type": "way", "id": 507080228, "center": {"lat": 5.7574449, "lon": 20.6705367}, "nodes": [4966715565, 4966715566, 4966715567, 7312427312, 4966715571, 7294109170, 7294109169, 9843645655, 4966715573, 4966715574, 2663456799, 4966715575, 7312427308, 4966715570, 7312427309, 7312427310, 4969223273, 4966715568, 4969223271, 7312427311, 4966715565], "tags": {"addr:city": "Bambari", "addr:full": "OUAKA, Bambari, Bambari, Bambari, Centre Ville", "amenity": "hospital", "capacity:beds": "63", "health_facility:type": "regional_hospital", "healthcare": "hospital", "name": "H\u00f4pital Universitaire R\u00e9gional de Bambari", "operator": "Ministry of Health", "operator:type": "government", "source": "UNICEF", "toilets:number": "4"}}, {"type": "way", "id": 510725753, "center": {"lat": 5.0330353, "lon": 25.1432785}, "nodes": [4996718443, 4996718444, 4996718445, 4996718446, 4996718443], "tags": {"amenity": "hospital"}}, {"type": "way", "id": 542100681, "center": {"lat": 5.3180897, "lon": 20.7039667}, "nodes": [2664379218, 5241373805, 5241373804, 5241373803, 9426332059, 9426332057, 9426332055, 9426332054, 9426332056, 9426332058, 2664379218], "tags": {"addr:city": "Ngakobo", "addr:full": "OUAKA, Kouango, Cochio-Toulou, Ngakobo", "amenity": "hospital", "building": "yes", "capacity:beds": "12", "fixme": "Due to lack of hires Bing imagery, we couldn't double check exact position of this health center", "health_facility:type": "health_center", "healthcare": "hospital", "name": "Centre de Sant\u00e9 de Ngakobo", "operator:type": "government", "source": "UNICEF", "toilets:number": "3"}}, {"type": "way", "id": 602590631, "center": {"lat": 0.0334898, "lon": 29.7668861}, "nodes": [5723108692, 5723108693, 5723108694, 5723108834, 5723108837, 5723108695, 5723108696, 5723108697, 5723108698, 5723108699, 5723108700, 5723108701, 5723108702, 5723108703, 5723108704, 5723108705, 5723108706, 5723108707, 5723108708, 5723108709, 5723108710, 5723108711, 5723108692], "tags": {"amenity": "hospital", "healthcare": "hospital", "name": "Bwera Hospital"}}, {"type": "way", "id": 602590634, "center": {"lat": 0.0355756, "lon": 29.7687228}, "nodes": [5723108718, 8742650322, 5723108719, 5723108720, 5723108821, 5723108822, 5723108823, 5723108824, 5723108825, 5723108718], "tags": {"amenity": "hospital", "healthcare": "hospital", "name": "Bwera Hospital"}}, {"type": "way", "id": 610334753, "center": {"lat": 2.451993, "lon": 27.6325486}, "nodes": [5780503710, 3430537726, 5780503712, 5780503721, 5780503713, 5780503714, 5780503715, 5780503716, 5780503717, 5780503722, 5780503718, 5780503723, 5780503719, 5780503720, 5780503710], "tags": {"amenity": "hospital", "healthcare": "hospital", "name": "H\u00f4pital Nebobongo", "name:en": "Nebobongo Hospital", "operator": "CECCA16"}}, {"type": "way", "id": 611899305, "center": {"lat": 2.7854585, "lon": 27.6099796}, "nodes": [5792980008, 5792980009, 5792980010, 5792980011, 5796962118, 5792980012, 5792980008], "tags": {"amenity": "hospital", "healthcare": "hospital"}}, {"type": "way", "id": 612244930, "center": {"lat": 2.7737965, "lon": 27.6165267}, "nodes": [5795652170, 5795652171, 5795652172, 5795652173, 5795652174, 5795652175, 5795652170], "tags": {"amenity": "hospital", "healthcare": "hospital", "name": "Lopitalo ya Leta / H\u00f4pital de l'\u00c9tat", "name:fr": "H\u00f4pital de l'\u00c9tat", "name:ln": "Lopitalo ya Leta"}}, {"type": "way", "id": 615333191, "center": {"lat": 0.4893463, "lon": 29.4733684}, "nodes": [6374053870, 5818758234, 5818758235, 5818758236, 6374053870], "tags": {"amenity": "hospital", "check_date": "2023-06-06", "health_facility:CD": "ch", "healthcare": "yes", "id:uuid": "urn:dsnis_hc_pnt_id:6131010259", "is_in:health_level6": "Beni", "is_in:health_level8": "Malepe", "layer": "1", "name": "CH de l'Unit\u00e9", "source": "OFDA", "survey:date": "2018-12-29"}}, {"type": "way", "id": 615481621, "center": {"lat": 4.5666455, "lon": 28.4085221}, "nodes": [5820055670, 5820055671, 7678072672, 5820055673, 5820055674, 5820055675, 5820055670], "tags": {"addr:city": "Yambio", "addr:street": "State Avenue", "amenity": "hospital", "emergency": "yes", "healthcare": "hospital", "name": "Yambio General Hospital"}}, {"type": "way", "id": 619281168, "center": {"lat": 0.7032988, "lon": 29.5216155}, "nodes": [5852277277, 9786123473, 5852277278, 5852277279, 5852277280, 5852277281, 5852277282, 5852277283, 5852277284, 5852277285, 5852277286, 5852277287, 5852277288, 5852277289, 5852277290, 5852277291, 5852277292, 5852277293, 5852277277], "tags": {"amenity": "hospital", "fixme": "check", "healthcare": "hospital", "rev": "1", "url": "https://oicha.org"}}, {"type": "way", "id": 619402140, "center": {"lat": 1.3555392, "lon": 29.0825617}, "nodes": [3381333469, 5853363506, 5853363507, 6944663243, 6944663244, 5853363508, 3381333469], "tags": {"amenity": "hospital", "health_facility:CD": "hgr", "healthcare": "hospital", "name": "H\u00f4pital G\u00e9n\u00e9ral de Mandima", "source": "MSF"}}, {"type": "way", "id": 619402141, "center": {"lat": 1.349633, "lon": 29.074475}, "nodes": [5853363509, 5853363510, 6944663240, 5853363512, 6944663234, 6944663235, 6944663236, 5853363513, 5853363509], "tags": {"amenity": "hospital", "fixme": "called Mandima? not Mambasa.", "health_facility:CD": "hgr", "healthcare": "hospital", "name": "H\u00f4pital G\u00e9n\u00e9ral de Mambasa", "source": "MSF"}}, {"type": "way", "id": 619852846, "center": {"lat": 0.6052836, "lon": 29.3070951}, "nodes": [5857000410, 5856250490, 7541104138, 5857000412, 5857000413, 5857000414, 5857000415, 5857000416, 5857000417, 5857000418, 6237281674, 5857000419, 5857000420, 5857000421, 5857000410], "tags": {"amenity": "hospital", "health_facility:CD": "cte", "healthcare": "hospital", "name": "Centre de Sant\u00e9 de R\u00e9f\u00e9rence", "rev": "1"}}, {"type": "way", "id": 620198884, "center": {"lat": 3.6113754, "lon": 28.5562303}, "nodes": [5859903067, 5859903068, 5859903069, 5859903070, 2310405243, 5859903072, 5859903073, 5859903074, 5859903075, 5859903067], "tags": {"amenity": "hospital", "healthcare": "hospital", "name": "H\u00f4pital de Dungu", "name:de": "Spital Dungu", "name:en": "Dungu Hospital", "name:ln": "Lopitalo Dungu"}}, {"type": "way", "id": 658395717, "center": {"lat": 0.120417, "lon": 29.3004962}, "nodes": [6165531560, 6165531559, 6165531558, 6165531556, 6165531554, 6165531553, 6165531555, 6165531557, 6165531560], "tags": {"amenity": "hospital", "building": "yes", "health_facility:CD": "ch", "is_in:health_level8": "Masiki", "name": "Centre Hospitalier Masiki", "short_name": "CH Masiki", "source": "OSM RDC;BCZ;AS", "survey:date": "2021-09-17", "vaccination": "yes"}}, {"type": "way", "id": 732412711, "center": {"lat": 5.8286197, "lon": 20.5782003}, "nodes": [2663462999, 6858514308, 6858514309, 6858514310, 2663462999], "tags": {"addr:city": "Siou", "addr:full": "OUAKA, Bambari, Pladama-Ouaka, Siou", "amenity": "hospital", "building": "yes", "capacity:beds": "4", "fixme": "Due to lack of HiRes imagery, exact location couldn't be checked", "health_facility:type": "health_center", "healthcare": "hospital", "name": "Centre de Sant\u00e9 de Siou", "operator:type": "government", "source": "UNICEF", "toilets:number": "0"}}, {"type": "way", "id": 749343851, "center": {"lat": 5.7269088, "lon": 20.5902879}, "nodes": [2663463010, 7007514578, 7007514579, 7007514580, 2663463010], "tags": {"addr:city": "Camp de R\u00e9fugi\u00e9s Soudanais", "addr:full": "OUAKA, Bambari, Pladama-Ouaka, Camp de R\u00e9fugi\u00e9s Soudanais", "amenity": "hospital", "building": "yes", "capacity:beds": "10", "fixme": "Due to lack of HiRes imagery, exact location couldn't be checked", "health_facility:type": "health_center", "healthcare": "hospital", "name": "Centre de Sant\u00e9 du Camp de R\u00e9fugi\u00e9s Soudanais", "operator:type": "government", "source": "UNICEF", "toilets:number": "2"}}, {"type": "way", "id": 772788349, "center": {"lat": 0.3342683, "lon": 29.745572}, "nodes": [7215053594, 7215053595, 7215053596, 7215053597, 7215053598, 7215053599, 7215053600, 7215053601, 7215053602, 7215053603, 7215053594], "tags": {"addr:city": "Mutwanga", "amenity": "hospital", "healthcare": "hospital", "name": "H\u00f4pital g\u00e9n\u00e9ral de r\u00e9f\u00e9rence de Mutwanga", "phone": "+243 974 994 297"}}, {"type": "way", "id": 774622207, "center": {"lat": 0.1113028, "lon": 28.9277691}, "nodes": [7227160358, 7227160359, 7227160360, 7227160361, 7227160358], "tags": {"amenity": "hospital", "health_facility:CD": "ps", "healthcare": "hospital", "name": "PS Mbalala", "source": "OSM RDC;BCZ;AS"}}, {"type": "way", "id": 779478129, "center": {"lat": 5.7612379, "lon": 20.6683979}, "nodes": [2663462962, 7278812416, 7278812424, 7278812425, 7278812426, 7278812423, 7278812415, 7278812418, 7278812419, 7278812420, 7278812421, 7278812422, 2663462962], "tags": {"addr:city": "Sambia", "addr:full": "OUAKA, Bambari, Bambari, Sambia, Centre Ville", "amenity": "hospital", "building": "yes", "capacity:beds": "6", "fixme": "Sambia could be a neighborhood of Bambari, not a different town. \"Le Samaritain\" could be \"Le Bon Samaritain\".", "health_facility:type": "health_center", "healthcare": "hospital", "name": "Centre de Sant\u00e9 Le Samaritain", "operator:type": "private", "source": "UNICEF", "toilets:number": "2"}}, {"type": "way", "id": 784201266, "center": {"lat": 6.4726508, "lon": 21.1243063}, "nodes": [2668017297, 7325468962, 7325468963, 7325468964, 2668017297], "tags": {"addr:city": "Akpa", "addr:full": "OUAKA, Ippy, Baidou-Ngoumbourou, Akpa", "amenity": "hospital", "capacity:beds": "3", "health_facility:type": "dispensary", "healthcare": "hospital", "name": "Poste de Sant\u00e9 de Akpa", "operator:type": "government", "source": "UNICEF", "toilets:number": "1"}}, {"type": "way", "id": 784201273, "center": {"lat": 5.8133142, "lon": 21.5870377}, "nodes": [2669062496, 7325485994, 7325485995, 7325485996, 2669062496], "tags": {"addr:city": "Atongo-Bakari", "addr:full": "OUAKA, Ippy, Yengou, Atongo-Bakari", "amenity": "hospital", "capacity:beds": "4", "health_facility:type": "health_center", "healthcare": "hospital", "name": "Centre de Sant\u00e9 de Atongo", "operator:type": "government", "source": "UNICEF", "toilets:number": "1"}}, {"type": "way", "id": 785811793, "center": {"lat": 4.9034307, "lon": 20.3493265}, "nodes": [2693866681, 7345745423, 7345745424, 7345745425, 7345745426, 7345745427, 7345745428, 7345745429, 2693866681], "tags": {"addr:city": "Rendekouzou", "addr:full": "OUAKA, Kouango, Cochio-Toulou, Rendekouzou", "amenity": "hospital", "capacity:beds": "2", "health_facility:type": "dispensary", "healthcare": "hospital", "name": "Poste de Sant\u00e9 de Rendekouzou", "operator:type": "government", "source": "bing;UNICEF", "toilets:number": "1"}}, {"type": "way", "id": 785842103, "center": {"lat": 4.8434927, "lon": 22.7458111}, "nodes": [3536471460, 7346039648, 7346039649, 7346039650, 7346039651, 7346039652, 7346039653, 7346039654, 3536471460], "tags": {"amenity": "hospital", "healthcare": "hospital", "name": "Centre de sant\u00e9 Niakari", "operator": "Mission catholique", "type": "Health centre"}}, {"type": "way", "id": 785842104, "center": {"lat": 5.7031249, "lon": 22.7770713}, "nodes": [3554983230, 7346039656, 7346039657, 7346039658, 7346039661, 7346039662, 3554983230], "tags": {"amenity": "hospital", "healthcare": "hospital", "name": "Bakouma Centre de Sant\u00e9"}}, {"type": "way", "id": 785842105, "center": {"lat": 4.909845, "lon": 22.6052719}, "nodes": [3566869700, 7346039664, 7346039665, 7346039666, 3566869700], "tags": {"amenity": "hospital", "building": "yes", "healthcare": "hospital", "name": "PDS de Imila"}}, {"type": "way", "id": 785842106, "center": {"lat": 4.9230558, "lon": 22.7226585}, "nodes": [3635984427, 7346039668, 7346039669, 7346039670, 3635984427], "tags": {"alt_name": "Pk25", "amenity": "hospital", "building": "yes", "healthcare": "hospital", "name": "Centre Sante Zotte"}}, {"type": "way", "id": 785906906, "center": {"lat": 5.1798042, "lon": 27.9568631}, "nodes": [7346697451, 7346697455, 7346697457, 7346697458, 7346697459, 7346697451], "tags": {"amenity": "hospital", "emergency": "yes", "healthcare": "hospital", "name": "Yangiri Hospital"}}, {"type": "way", "id": 786136264, "center": {"lat": 6.1595724, "lon": 20.7977596}, "nodes": [2693875874, 7350108926, 7350108927, 7350108928, 7350108929, 7350108930, 7350108931, 7350108932, 7350108933, 7350108934, 2693875874], "tags": {"addr:city": "Ndassima", "addr:full": "OUAKA, Bambari, Danga-Gboudou, Ndassima", "amenity": "hospital", "building": "yes", "capacity:beds": "5", "health_facility:type": "dispensary", "healthcare": "hospital", "name": "Centre de Sant\u00e9 du Camp de Ndassima", "operator:type": "government", "source": "UNICEF", "toilets:number": "1"}}, {"type": "way", "id": 786136265, "center": {"lat": 4.7300036, "lon": 22.7864157}, "nodes": [3529117134, 7350108936, 7350108937, 7350108938, 3529117134], "tags": {"amenity": "hospital", "building": "yes", "healthcare": "hospital", "name": "Centre De Sante Baptiste Cezakoba"}}, {"type": "way", "id": 786443684, "center": {"lat": 8.5268103, "lon": 28.1006704}, "nodes": [7353433431, 7353433432, 7353433433, 7353433434, 7353433431], "tags": {"amenity": "hospital", "healthcare": "hospital"}}, {"type": "way", "id": 788816818, "center": {"lat": 0.0699592, "lon": 29.0983401}, "nodes": [6374058442, 7374877087, 7566526727, 7566526728, 7566526729, 7374877086, 7374877085, 7374859684, 7374859683, 7374859682, 7374859681, 7374859680, 7374859679, 6374058442], "tags": {"amenity": "hospital", "health_facility:CD": "ch", "healthcare": "hospital", "id:uuid": "urn:dsnis_hc_pnt_id:6123070029", "is_in:health_level6": "Musienene", "is_in:health_level8": "MABAMBI", "name": "CH BITUMBI", "source": "OMS-DSNIS", "survey:date": "2018-12-29"}}, {"type": "way", "id": 791408540, "center": {"lat": 3.6166576, "lon": 20.798341}, "nodes": [2430323832, 7398549170, 7523059003, 7398549171, 7523059002, 7398549173, 2430323832], "tags": {"amenity": "hospital", "healthcare": "hospital", "name": "IME Loko"}}, {"type": "way", "id": 791409630, "center": {"lat": 4.2821517, "lon": 21.0049957}, "nodes": [2430345040, 7398563165, 7398563166, 7523052650, 2430345040], "tags": {"amenity": "hospital", "healthcare": "hospital", "name": "Gbadolite General Reference Hospital"}}, {"type": "way", "id": 791752837, "center": {"lat": 1.2235907, "lon": 27.5207854}, "nodes": [3381333455, 7401820068, 7523158512, 7523158513, 7401820069, 7523158511, 7401820070, 7523158510, 7401820071, 3381333455], "tags": {"amenity": "hospital", "health_facility:type": "health_centre", "healthcare": "hospital", "name": "Centre de Sant\u00e9 de Bafwenduo", "source": "MSF"}}, {"type": "way", "id": 791822966, "center": {"lat": 2.014513, "lon": 23.2511634}, "nodes": [3956612404, 7402449296, 7402449297, 7402449298, 7402449299, 7402449300, 7402449301, 7402449302, 7402449303, 3956612404], "tags": {"amenity": "hospital", "health_facility:CD": "hgr", "healthcare": "hospital", "name": "H\u00f4pital G\u00e9n\u00e9ral de R\u00e9f\u00e9rence Yalimbongo"}}, {"type": "way", "id": 792887964, "center": {"lat": 0.4824863, "lon": 29.4972988}, "nodes": [6374058396, 7414340858, 7414340859, 7414340860, 6374058396], "tags": {"amenity": "hospital", "check_date": "2023-04-26", "health_facility:CD": "ch", "healthcare": "hospital", "id:uuid": "urn:dsnis_hc_pnt_id:6131010005", "is_in:health_level6": "Beni", "is_in:health_level8": "Paida", "layer": "1", "name": "Centre Hospitalier Paida", "short_name": "CH Paida", "source": "OMS-DSNIS", "survey:date": "2018-12-29"}}, {"type": "way", "id": 796892586, "center": {"lat": 0.4956983, "lon": 29.4713894}, "nodes": [6374058434, 7452750748, 7452750749, 7566526720, 7452750750, 6374058434], "tags": {"amenity": "hospital", "check_date": "2023-06-06", "health_facility:CD": "ch", "healthcare": "hospital", "id:uuid": "urn:dsnis_hc_pnt_id:6131010011", "name": "Centre Hospitalier Saint Pierre", "source": "OMS-DSNIS", "survey:date": "2018-12-29"}}, {"type": "way", "id": 796921707, "center": {"lat": 0.3322682, "lon": 29.3547844}, "nodes": [6374058445, 7453075900, 7453075901, 7453075902, 6374058445], "tags": {"amenity": "hospital", "check_date": "2023-04-26", "health_facility:CD": "hgr", "healthcare": "hospital", "id:uuid": "urn:dsnis_hc_pnt_id:6131020001", "is_in:health_level6": "Kalunguta", "is_in:health_level8": "Kalunguta", "name": "H\u00f4pital G\u00e9n\u00e9ral de R\u00e9f\u00e9rence de Kalunguta", "short_name": "HGR Kalunguta", "source": "DSNIS-OMS", "survey:date": "2018-12-29"}}, {"type": "way", "id": 797574497, "center": {"lat": 0.5148807, "lon": 25.2083696}, "nodes": [7029924035, 7459423843, 7459423844, 7459423845, 7029924035], "tags": {"amenity": "hospital", "healthcare": "hospital", "name": "H\u00f4pital du Cinquantenaire"}}, {"type": "way", "id": 804294253, "center": {"lat": 4.2985305, "lon": 21.1893777}, "nodes": [2430403359, 7523052651, 7523052652, 7523052653, 7523052654, 7523052655, 7523052656, 7523052657, 7523052658, 7523052659, 7523052660, 7523052661, 7523052662, 2430403359], "tags": {"amenity": "hospital", "healthcare": "hospital", "name": "Mobayi Mbongo General Reference Hospital"}}, {"type": "way", "id": 809218755, "center": {"lat": 0.0353018, "lon": 29.0959106}, "nodes": [6374058441, 7566526721, 7566526722, 7566526723, 7566526724, 7566526725, 7566526726, 6374058441], "tags": {"amenity": "hospital", "health_facility:CD": "ch", "healthcare": "hospital", "id:uuid": "urn:dsnis_hc_pnt_id:6123070030", "is_in:health_level6": "Musienene", "is_in:health_level8": "VUGHALIHYA", "name": "CH WALIHYA", "source": "OMS-DSNIS", "survey:date": "2018-12-29"}}, {"type": "way", "id": 809575787, "center": {"lat": 0.0605097, "lon": 29.0518876}, "nodes": [6374058457, 7569674806, 7569674807, 7569674808, 9761687145, 7569674809, 6374058457], "tags": {"amenity": "hospital", "health_facility:CD": "ch", "healthcare": "hospital", "id:uuid": "urn:dsnis_hc_pnt_id:6123070027", "is_in:health_level6": "Musienene", "is_in:health_level8": "BUYINGA", "name": "CH TUMAINI", "source": "OMS-DSNIS", "survey:date": "2018-12-29"}}, {"type": "way", "id": 826624573, "center": {"lat": 2.2579883, "lon": 22.953023}, "nodes": [7717920762, 7717920761, 7717920777, 7717920760, 7717920759, 7717920767, 7717920768, 7717920751, 7717920750, 7717920769, 7717920770, 7717920771, 7717920772, 7717920773, 7717920774, 7717920775, 7717920776, 7717920762], "tags": {"amenity": "hospital", "healthcare": "hospital"}}, {"type": "way", "id": 939095157, "center": {"lat": 0.5706634, "lon": 25.0263638}, "nodes": [8699514180, 8699514181, 8699514182, 8699514183, 8699514180], "tags": {"amenity": "hospital", "building": "yes", "healthcare": "hospital", "name": "H\u00f4pital BMS Yakusu"}}, {"type": "way", "id": 966565978, "center": {"lat": 4.3148487, "lon": 22.5546337}, "nodes": [8942429378, 8942429379, 8942429380, 8942429381, 8942429378], "tags": {"amenity": "hospital", "healthcare": "hospital"}}, {"type": "way", "id": 970992222, "center": {"lat": 4.9163908, "lon": 29.4639613}, "nodes": [8986496430, 8986496431, 8986496432, 8986496433, 8986496434, 8986496435, 8986496430], "tags": {"addr:city": "Maridi", "addr:street": "Maridi-Yambio Highway", "amenity": "hospital", "emergency": "yes", "healthcare": "hospital", "name": "Maridi General Hospital"}}, {"type": "way", "id": 972299094, "center": {"lat": 8.4689598, "lon": 25.6764828}, "nodes": [8998980850, 9397557800, 9397557799, 8998980851, 8998980852, 8998980853, 8998980850], "tags": {"addr:city": "Raja", "addr:street": "Wau-Raja Road", "amenity": "hospital", "emergency": "yes", "healthcare": "hospital", "name": "Raga County Hospital", "name:en": "Raja County Hospital", "name:es": "Hospital del Condado de Raja"}}, {"type": "way", "id": 973555126, "center": {"lat": 9.9111136, "lon": 29.9821714}, "nodes": [9010419269, 9010419270, 9010419271, 9010419272, 9010419269], "tags": {"addr:city": "Pariang", "amenity": "hospital", "emergency": "yes", "healthcare": "hospital", "name": "Kewnger Hospital"}}, {"type": "way", "id": 973864968, "center": {"lat": 7.2776017, "lon": 28.6835188}, "nodes": [9012617130, 9012617131, 9012617132, 9012617133, 9012617134, 9012617135, 9012617136, 9012617137, 9012617138, 9012617139, 9012617140, 9012617141, 9012617142, 9012617143, 9012617144, 9012617130], "tags": {"amenity": "hospital", "healthcare": "hospital", "name": "Kal Ruel Primary Health Care Unit"}}, {"type": "way", "id": 973864972, "center": {"lat": 7.2764743, "lon": 28.6798931}, "nodes": [9012617161, 9012617162, 9012617163, 9012617164, 9012617161], "tags": {"addr:city": "Tonj", "amenity": "hospital", "healthcare": "hospital", "name": "Tonj County Hospital"}}, {"type": "way", "id": 973866025, "center": {"lat": 7.2721555, "lon": 28.6785355}, "nodes": [9012595276, 9012595277, 9012595278, 9012595279, 9012595276], "tags": {"addr:city": "Tonj", "amenity": "hospital", "emergency": "yes", "healthcare": "hospital", "name": "Don Bosco Primary Health Care Centre"}}, {"type": "way", "id": 974163317, "center": {"lat": 5.6003478, "lon": 27.4752166}, "nodes": [9015649706, 9015649707, 9015649708, 9015649709, 9015649710, 9015649711, 9015649712, 9015649713, 9015649714, 9015649706], "tags": {"amenity": "hospital", "emergency": "yes", "healthcare": "hospital", "name": "Tambura County Hospital", "name:fr": "H\u00f4pital du comt\u00e9 de Tamboura"}}, {"type": "way", "id": 978473719, "center": {"lat": 4.6423806, "lon": 28.2483138}, "nodes": [9053944105, 9053944106, 9053944108, 9053944107, 9053944105], "tags": {"addr:city": "Nzara", "addr:street": "Basukangbi Road", "amenity": "hospital", "healthcare": "hospital", "name": "Nzara General Hospital"}}, {"type": "way", "id": 1003662230, "center": {"lat": 0.4683405, "lon": 29.2130968}, "nodes": [9261300668, 9261300631, 9735118313, 9735118315, 9261300635, 9261300632, 9261300633, 9261300634, 9261300668], "tags": {"amenity": "hospital", "emergency": "yes", "healthcare": "hospital", "healthcare:speciality": "general;paediatrics;biology;maternity;surgery", "name": "Hopital G\u00e9n\u00e9ral de r\u00e9f\u00e9rence de Mabalako", "operator": "Ministere de la sant\u00e9", "operator:type": "public"}}, {"type": "way", "id": 1004708569, "center": {"lat": 8.0684714, "lon": 26.8392944}, "nodes": [9269868000, 9269868001, 9269868002, 9269868003, 9269868000], "tags": {"amenity": "hospital", "healthcare": "hospital", "name": "Awoda Primary Health Care Centre"}}, {"type": "way", "id": 1012568336, "center": {"lat": 8.2960425, "lon": 27.9825769}, "nodes": [9341773959, 9341773960, 9341773961, 9341773962, 9341773963, 9341773964, 9341773965, 9341773966, 9341773959], "tags": {"amenity": "hospital", "healthcare": "hospital", "name": "Kuajok Primary Health Care Centre"}}, {"type": "way", "id": 1012568337, "center": {"lat": 8.3056415, "lon": 27.9729355}, "nodes": [9341773967, 9341773968, 9341773969, 9341773970, 9341773967], "tags": {"amenity": "hospital", "healthcare": "hospital", "name": "Primary Health Care Centre"}}, {"type": "way", "id": 1012573612, "center": {"lat": 8.6759086, "lon": 26.8570595}, "nodes": [9341829822, 9341829823, 9341829824, 9341829825, 9341829826, 9341829827, 9341829822], "tags": {"amenity": "hospital", "healthcare": "hospital", "name": "Aroyo Primary Health Care Centre"}}, {"type": "way", "id": 1012574027, "center": {"lat": 8.9620549, "lon": 27.5004986}, "nodes": [2599264982, 2599264298, 2599264682, 2599264284, 2599264964, 2599264519, 2599264983, 2599264890, 2599264982], "tags": {"amenity": "hospital", "healthcare": "hospital", "name": "Akuem County Hospital"}}, {"type": "way", "id": 1018633665, "center": {"lat": 9.1358598, "lon": 26.9891022}, "nodes": [9395381506, 9395381507, 9395381508, 9395381509, 9395381506], "tags": {"amenity": "hospital", "healthcare": "hospital", "name": "Nyamlel New Life Ministry Primary Health Care Unit"}}, {"type": "way", "id": 1019500661, "center": {"lat": 9.1582663, "lon": 29.9109371}, "nodes": [2639586452, 2639586404, 2639586401, 2639586447, 2639586452], "tags": {"addr:city": "Guit", "amenity": "hospital", "healthcare": "hospital", "name": "Guit Primary Health Care Centre"}}, {"type": "way", "id": 1019512715, "center": {"lat": 8.5999769, "lon": 29.9898353}, "nodes": [9403052402, 9403052403, 9403052404, 9403052405, 9403052402], "tags": {"addr:city": "Koch", "amenity": "hospital", "emergency": "yes", "healthcare": "hospital", "name": "Koch Primary Health Care Centre"}}, {"type": "way", "id": 1020011566, "center": {"lat": 9.2919947, "lon": 29.7952573}, "nodes": [9407664438, 9407664439, 9407664440, 9407664441, 9407664438], "tags": {"amenity": "hospital", "healthcare": "hospital", "name": "Nile Gangah B-V Primary Health Care Centre"}}, {"type": "way", "id": 1020011567, "center": {"lat": 9.2904799, "lon": 29.7897773}, "nodes": [9407664442, 9407664443, 9407664444, 9407664445, 9407664442], "tags": {"amenity": "hospital", "healthcare": "hospital", "name": "Rubkona Primary Health Care Unit"}}, {"type": "way", "id": 1020028079, "center": {"lat": 7.9231137, "lon": 28.0338072}, "nodes": [9407815192, 9407815193, 9407815194, 9407815195, 9407815192], "tags": {"amenity": "hospital", "healthcare": "hospital", "name": "Nyinakok Primary Health Care Unit"}}, {"type": "way", "id": 1020045656, "center": {"lat": 7.5734234, "lon": 27.8898082}, "nodes": [9407912735, 9407912736, 9407912737, 9407912738, 9407912735], "tags": {"addr:city": "Bagari", "amenity": "hospital", "emergency": "yes", "healthcare": "hospital", "name": "Baggari Primary Health Care Unit"}}, {"type": "way", "id": 1037439610, "center": {"lat": 0.388778, "lon": 20.8433068}, "nodes": [9556846574, 9556846575, 9556846576, 9556846577, 9556846574], "tags": {"amenity": "hospital", "healthcare": "hospital"}}, {"type": "way", "id": 1181983805, "center": {"lat": 0.4935979, "lon": 29.443053}, "nodes": [3172551712, 10976504995, 10976504996, 10976504997, 10976504998, 10976505003, 10976504999, 10976505000, 10976505001, 3172551712], "tags": {"addr:city": "Beni", "amenity": "hospital", "contact:facebook": "https://www.facebook.com/unichir.africa", "healthcare": "hospital", "healthcare:speciality": "gynaecology;surgery", "name": "UNICHIR", "website": "https://www.unichir.africa/fr/"}}, {"type": "relation", "id": 3507192, "center": {"lat": 6.2594515, "lon": 21.1949581}, "members": [{"type": "way", "ref": 198324289, "role": "outer"}, {"type": "way", "ref": 261233138, "role": "inner"}], "tags": {"addr:city": "Ippy", "addr:full": "OUAKA, Ippy, Yengou, Ippy, Centre Ville", "amenity": "hospital", "building": "hospital", "capacity:beds": "27", "health_facility:type": "health_center", "healthcare": "hospital", "name": "Centre de Sant\u00e9 de Ippy", "operator:type": "government", "source": "Bing;UNICEF", "toilets:number": "3", "type": "multipolygon"}}, {"type": "relation", "id": 11103728, "center": {"lat": 0.511232, "lon": 25.1724531}, "members": [{"type": "way", "ref": 804284882, "role": "outer"}, {"type": "way", "ref": 177080006, "role": "inner"}], "tags": {"amenity": "hospital", "healthcare": "hospital", "type": "multipolygon"}}, {"type": "relation", "id": 11104006, "center": {"lat": 1.025641, "lon": 29.9558792}, "members": [{"type": "way", "ref": 804313057, "role": "outer"}, {"type": "way", "ref": 363733079, "role": "inner"}], "tags": {"amenity": "hospital", "health_facility:CD": "hgr", "healthcare": "hospital", "name": "Hopital G\u00e9n\u00e9ral de R\u00e9f\u00e9rence de Boga", "short_name": "HGR Boga", "type": "multipolygon"}}, {"type": "relation", "id": 11153108, "center": {"lat": 0.0265379, "lon": 29.2501424}, "members": [{"type": "way", "ref": 814994592, "role": "outer"}, {"type": "way", "ref": 814994593, "role": "outer"}, {"type": "way", "ref": 814994594, "role": "outer"}, {"type": "way", "ref": 796932836, "role": "outer"}, {"type": "way", "ref": 808723869, "role": "outer"}], "tags": {"amenity": "hospital", "check_date": "2023-04-25", "health_facility:CD": "hgr", "healthcare": "hospital", "id:uuid": "urn:dsnis_hc_pnt_id:6123070026", "is_in:health_level6": "Musienene", "is_in:health_level8": "IVATAMA", "name": "HGR MUSIENENE", "source": "OMS-DSNIS", "survey:date": "2018-12-29", "type": "multipolygon"}}, {"type": "relation", "id": 13322072, "center": {"lat": 0.1449705, "lon": 29.2868376}, "members": [{"type": "way", "ref": 651368345, "role": "inner"}, {"type": "way", "ref": 651365561, "role": "inner"}, {"type": "way", "ref": 651365559, "role": "inner"}, {"type": "way", "ref": 658129083, "role": "inner"}, {"type": "way", "ref": 658129084, "role": "inner"}, {"type": "way", "ref": 658376195, "role": "inner"}, {"type": "way", "ref": 658295759, "role": "inner"}, {"type": "way", "ref": 658376196, "role": "inner"}, {"type": "way", "ref": 658295760, "role": "inner"}, {"type": "way", "ref": 657871371, "role": "inner"}, {"type": "way", "ref": 657871370, "role": "inner"}, {"type": "way", "ref": 657871367, "role": "inner"}, {"type": "way", "ref": 657871366, "role": "inner"}, {"type": "way", "ref": 657871368, "role": "inner"}, {"type": "way", "ref": 651368348, "role": "inner"}, {"type": "way", "ref": 657871364, "role": "inner"}, {"type": "way", "ref": 657871365, "role": "inner"}, {"type": "way", "ref": 657871330, "role": "inner"}, {"type": "way", "ref": 657871363, "role": "inner"}, {"type": "way", "ref": 657871360, "role": "inner"}, {"type": "way", "ref": 657871361, "role": "inner"}, {"type": "way", "ref": 657871362, "role": "inner"}, {"type": "way", "ref": 657871354, "role": "inner"}, {"type": "way", "ref": 657871353, "role": "inner"}, {"type": "way", "ref": 657871352, "role": "inner"}, {"type": "way", "ref": 657871351, "role": "inner"}, {"type": "way", "ref": 934629818, "role": "outer"}, {"type": "way", "ref": 934629819, "role": "outer"}, {"type": "way", "ref": 580465372, "role": "outer"}, {"type": "way", "ref": 934629816, "role": "outer"}, {"type": "way", "ref": 580574399, "role": "outer"}], "tags": {"amenity": "hospital", "check_date": "2023-04-23", "health_facility:CD": "hgr", "is_in:health_level10": "Lwangongo", "name": "Hopital General de R\u00e9ference de Kitatumba", "type": "multipolygon", "vaccination": "yes"}}]}