{"version": 0.6, "generator": "Overpass API 0.7.61.5 4133829e", "osm3s": {"timestamp_osm_base": "2023-10-31T20:51:35Z", "copyright": "The data included in this document is from www.openstreetmap.org. The data is made available under ODbL."}, "elements": [{"type": "node", "id": 599686749, "lat": 6.8159059, "lon": -58.1569775, "tags": {"amenity": "hospital"}}, {"type": "node", "id": 602799784, "lat": 6.7828884, "lon": -58.1278807, "tags": {"amenity": "hospital", "name": "Health Centre"}}, {"type": "node", "id": 666428721, "lat": 6.815809, "lon": -58.0923805, "tags": {"amenity": "hospital", "name": "Health Center"}}, {"type": "node", "id": 679970321, "lat": 4.6549653, "lon": -59.8301673, "tags": {"amenity": "hospital", "name": "Kato Hospital"}}, {"type": "node", "id": 683576562, "lat": 6.8024469, "lon": -58.1230952, "tags": {"amenity": "hospital"}}, {"type": "node", "id": 702316824, "lat": 6.8619232, "lon": -58.423616, "tags": {"amenity": "hospital", "name": "Health Center"}}, {"type": "node", "id": 764738128, "lat": 6.8060948, "lon": -58.0547943, "tags": {"amenity": "hospital", "name": "Singh's Clinic"}}, {"type": "node", "id": 764738176, "lat": 6.7984982, "lon": -58.0413459, "tags": {"amenity": "hospital", "name": "Health Center"}}, {"type": "node", "id": 774171572, "lat": 6.8077862, "lon": -58.1609349, "tags": {"addr:city": "Georgetown", "addr:street": "Brickdam", "amenity": "hospital", "name": "Clinic / Pharmacy"}}, {"type": "node", "id": 831796571, "lat": 6.8133729, "lon": -58.1564512, "tags": {"amenity": "hospital", "name": "Balwant Singh's Hospital"}}, {"type": "node", "id": 968358502, "lat": 6.0829512, "lon": -57.1927824, "tags": {"amenity": "hospital", "name": "Good Hope Health Center"}}, {"type": "node", "id": 969529650, "lat": 5.9755353, "lon": -57.1501926, "tags": {"amenity": "hospital", "name": "No. 64 Health Center"}}, {"type": "node", "id": 1401286458, "lat": 6.2598189, "lon": -57.4994053, "tags": {"amenity": "hospital", "name": "Cumberland Health Center"}}, {"type": "node", "id": 1401286699, "lat": 6.258323, "lon": -57.3614045, "tags": {"amenity": "hospital", "name": "Youth Health Center"}}, {"type": "node", "id": 1439442730, "lat": 6.7866093, "lon": -58.142503, "tags": {"amenity": "hospital", "name": "5G Dialysis Centre"}}, {"type": "node", "id": 2093407516, "lat": 0.0402233, "lon": -51.0588178, "tags": {"amenity": "hospital", "healthcare": "hospital", "name": "Hospital Geral"}}, {"type": "node", "id": 2135375018, "lat": 5.1572265, "lon": -52.6418136, "tags": {"amenity": "hospital", "healthcare": "hospital", "name": "L'ENVOL"}}, {"type": "node", "id": 2526095816, "lat": 6.0122021, "lon": -58.3028104, "tags": {"amenity": "hospital", "name": "Vivenne Parris Health Centre"}}, {"type": "node", "id": 3463856980, "lat": 5.8492282, "lon": -55.1457001, "tags": {"amenity": "hospital", "name": "TropClinic"}}, {"type": "node", "id": 3779779888, "lat": 6.7133803, "lon": -58.1913355, "tags": {"addr:city": "Diamond, East Bank Demerara", "addr:street": "Public Road", "amenity": "hospital", "name": "Diamond Hospital", "operator": "Ministry Of Health"}}, {"type": "node", "id": 3916237644, "lat": 5.7011919, "lon": -55.1694176, "tags": {"amenity": "hospital", "name": "Ziekenhuis Wanica", "operator": "In aanbouw"}}, {"type": "node", "id": 4103707250, "lat": 0.8550382, "lon": -51.1812969, "tags": {"amenity": "hospital", "name": "SAMU"}}, {"type": "node", "id": 4227270523, "lat": 4.698822, "lon": -59.7131681, "tags": {"amenity": "hospital", "name": "Paramakatoi Health Centre", "operator": "Ministry of Health of Guyana"}}, {"type": "node", "id": 4268215986, "lat": 0.0386629, "lon": -51.0886873, "tags": {"addr:housenumber": "150", "addr:postcode": "68900-000", "addr:street": "Travessa Joaquim Gouveia", "amenity": "hospital", "healthcare": "hospital", "name": "CASAI - Casa de Assist\u00eancia ao Ind\u00edgena"}}, {"type": "node", "id": 4268288889, "lat": 0.0346481, "lon": -51.0648019, "tags": {"addr:housenumber": "1", "addr:postcode": "68900000", "addr:street": "Rua Hamilton Silva", "amenity": "hospital", "healthcare": "hospital", "name": "Pronto Socorro de Macap\u00e1", "opening_hours": "24/7"}}, {"type": "node", "id": 4375006589, "lat": 4.9279618, "lon": -52.3053891, "tags": {"amenity": "hospital", "healthcare": "hospital", "name": "H\u00f4pital Psychiatrique", "name:fr": "H\u00f4pital Psychiatrique"}}, {"type": "node", "id": 4442262029, "lat": 6.7646857, "lon": -58.1991798, "tags": {"amenity": "hospital", "name": "La Grange Health Center"}}, {"type": "node", "id": 4517195180, "lat": 6.7933064, "lon": -58.1545493, "tags": {"addr:city": "Georgetown", "addr:street": "Front Road", "amenity": "hospital", "name": "David Rose health care center", "operator": "Govenment"}}, {"type": "node", "id": 4715897285, "lat": 1.4360335, "lon": -55.6628187, "tags": {"amenity": "hospital", "description": "Habita\u00e7\u00e3o Ind\u00edgena", "healthcare": "hospital", "healthcare:speciality": "general", "name": "POSTO DE SA\u00daDE - ALDEIA PEDRA DA ON\u00c7A", "population": "117", "source": "IBGE/BC250;local knowledge"}}, {"type": "node", "id": 4768429030, "lat": 0.9701599, "lon": -50.7975853, "tags": {"amenity": "hospital", "name": "Unidade B\u00e1sica de Sa\u00fade", "name:pt": "Unidade B\u00e1sica de Sa\u00fade"}}, {"type": "node", "id": 4781670850, "lat": 7.3597084, "lon": -58.5021084, "tags": {"amenity": "hospital", "name": "Dartmouth Health Center"}}, {"type": "node", "id": 4788231022, "lat": 6.3602422, "lon": -58.2424041, "tags": {"amenity": "hospital", "name": "Long Creek Health Centre", "name:en": "Long Creek Health Centre"}}, {"type": "node", "id": 4806007614, "lat": 0.8993185, "lon": -52.0065353, "tags": {"amenity": "hospital", "name": "Unidade Mista de Sa\u00fade"}}, {"type": "node", "id": 4853554628, "lat": 3.3644393, "lon": -59.8327856, "tags": {"amenity": "hospital", "healthcare": "hospital", "name": "Hospital Pedro \u00c1lvares Rodrigues"}}, {"type": "node", "id": 4854456431, "lat": 5.9030841, "lon": -58.3085098, "tags": {"amenity": "hospital", "name": "Three Friends Health Post", "name:en": "Three Friends Health Post"}}, {"type": "node", "id": 4995692221, "lat": 6.002099, "lon": -58.3294395, "tags": {"amenity": "hospital", "name": "Wisroc Health Centre", "name:en": "Wisroc Health Centre"}}, {"type": "node", "id": 5106445522, "lat": 5.8362046, "lon": -55.1893089, "tags": {"addr:housenumber": "46", "addr:street": "Margarethalaan", "amenity": "hospital", "name": "Revalidatiecentrum Paramaribo", "name:en": "Rehabilitation Center Paramaribo", "opening_hours": "Mo-Fr 07:30-15:00", "phone": "+597442222"}}, {"type": "node", "id": 5172031815, "lat": 7.6449098, "lon": -58.9570747, "tags": {"amenity": "hospital", "healthcare": "hospital", "healthcare:speciality": "general", "name": "Kumaka Hospital"}}, {"type": "node", "id": 5231136665, "lat": 6.7853721, "lon": -58.1354689, "tags": {"amenity": "hospital", "healthcare": "hospital"}}, {"type": "node", "id": 5319246526, "lat": 6.81576, "lon": -58.1568858, "tags": {"addr:street": "Thomas Street", "amenity": "hospital", "name": "Maternity Wing, Fiber Drop"}}, {"type": "node", "id": 5319246527, "lat": 6.8161031, "lon": -58.1571326, "tags": {"addr:street": "Thomas Street", "amenity": "hospital", "name": "NC&TC"}}, {"type": "node", "id": 5319246528, "lat": 6.8149309, "lon": -58.157162, "tags": {"addr:street": "Middle Street", "amenity": "hospital", "name": "Malarial, Fiber Drop"}}, {"type": "node", "id": 5371396721, "lat": 6.763553, "lon": -58.1749649, "tags": {"addr:street": "collings wood ave", "amenity": "hospital", "name": "sister lyn herbal clinic", "opening_hours": "Mo-Sa 09:00-18:00", "phone": "5922336067"}}, {"type": "node", "id": 5562897021, "lat": 0.0405071, "lon": -51.0596982, "tags": {"amenity": "hospital", "healthcare": "hospital", "name": "Banco de leite"}}, {"type": "node", "id": 6152734242, "lat": 0.7088047, "lon": -51.4129458, "tags": {"amenity": "hospital", "healthcare": "hospital", "name": "Unidade Basica de Sa\u00fade - Centro"}}, {"type": "node", "id": 6753629521, "lat": 0.950335, "lon": -59.908722, "tags": {"amenity": "hospital", "healthcare": "hospital"}}, {"type": "node", "id": 6853558698, "lat": 1.5061614, "lon": -50.9129504, "tags": {"amenity": "hospital", "healthcare": "hospital", "name": "Unidade Mista de Sa\u00fade de Tartarugalzinho"}}, {"type": "node", "id": 7282301686, "lat": 5.5016333, "lon": -54.0799566, "tags": {"amenity": "hospital", "name": "Hopital d'Albina"}}, {"type": "node", "id": 7905391885, "lat": 6.817456, "lon": -58.1572941, "tags": {"amenity": "hospital", "name": "Caribbean Surgery Inc."}}, {"type": "node", "id": 8246911981, "lat": 0.7790934, "lon": -51.9659375, "tags": {"amenity": "hospital", "healthcare": "hospital"}}, {"type": "node", "id": 8443561727, "lat": 6.0107761, "lon": -58.3038674, "tags": {"amenity": "hospital", "name": "Egbert"}}, {"type": "node", "id": 8518160387, "lat": 5.4879749, "lon": -54.0205324, "tags": {"amenity": "hospital", "emergency": "yes", "name": "Centre hospitalier de l'Ouest Guyanais", "operator": "CHOG", "operator:type": "public"}}, {"type": "node", "id": 8633136117, "lat": 6.7355834, "lon": -58.1592961, "tags": {"addr:street": "First Street", "amenity": "hospital", "name": "Mocha Health Centre"}}, {"type": "node", "id": 9091312969, "lat": 5.8777367, "lon": -57.141365, "tags": {"addr:housenumber": "3392211", "addr:street": "Public Road", "amenity": "hospital", "healthcare": "hospital", "name": "Skeldon Public Hospital", "opening_hours": "24/7"}}, {"type": "node", "id": 9508219805, "lat": 1.2175403, "lon": -54.6581131, "tags": {"amenity": "hospital", "healthcare": "hospital", "healthcare:speciality": "general", "name": "POSTO DE SA\u00daDE - ALDEIA BONA", "operator": "SESAI"}}, {"type": "node", "id": 10102197660, "lat": 6.8137986, "lon": -58.1082735, "tags": {"addr:community": "Cummings Lodge", "addr:country": "GY", "addr:parish": "Region 4", "addr:street": "Crown Dam", "addr:town": "Georgetown", "amenity": "hospital", "description": "Provide services to help the sick of the community.", "image": "https://kc.kobotoolbox.org/media/original?media_file=arawak%2Fattachments%2F62b325e266bc4e3d83612a10e63c1fa7%2F835dcf7b-6ce9-4f0f-bf33-a28fdce7a8cf%2F1637952545596.jpg", "name": "Industry Health Centre"}}, {"type": "node", "id": 10291781003, "lat": 0.0727422, "lon": -51.0763274, "tags": {"addr:street": "Rua Carlos Daniel", "addr:suburb": "Infraero II", "amenity": "hospital", "healthcare": "hospital", "name": "Hospital de Amor"}}, {"type": "node", "id": 10937913884, "lat": 6.7792494, "lon": -58.0080066, "tags": {"amenity": "hospital", "healthcare": "hospital", "name": "Melanie Health center"}}, {"type": "node", "id": 11278284470, "lat": 3.1673999, "lon": -52.3347439, "tags": {"addr:postcode": "97330", "addr:street": "Bourg de Camopi", "amenity": "hospital", "name": "CDPS : Centre de Sant\u00e9", "opening_hours": "Mo-Fr 07:30-14:30, 16:00-18:00; Sa 11:00-12:00"}}, {"type": "node", "id": 11295767226, "lat": 6.0214631, "lon": -58.2798679, "tags": {"amenity": "hospital", "healthcare": "hospital", "name": "Litisha Holder Health Center"}}, {"type": "way", "id": 93272289, "center": {"lat": 5.9406373, "lon": -56.986996}, "nodes": [1081174615, 3456840291, 7918874758, 7918874757, 3456840290, 3456840254, 1081174619, 3456840277, 3456840276, 3456840232, 3456840233, 1081174623, 8841738329, 8841738330, 8841738328, 8841738331, 8841738332, 1081174613, 7918874751, 7918874752, 1081174615], "tags": {"addr:city": "Nieuw Nickerie", "addr:country": "SR", "addr:district": "Nickerie", "addr:housenumber": "35", "addr:state": "Nickerie", "addr:street": "Annastraat", "amenity": "hospital", "email": "info@szn.sr", "emergency": "yes", "fax": "+597 232325", "healthcare": "hospital", "name": "Dr. L. Mungra Streekziekenhuis Nickerie - S.Z.N.", "phone": "+597 231241", "website": "http://www.szn.sr", "wikidata": "Q23926512", "wikipedia": "en:Mungra Medical Centre"}}, {"type": "way", "id": 162878129, "center": {"lat": 0.0391712, "lon": -51.0752544}, "nodes": [1746820512, 1746820549, 1746820631, 1746820597, 1746820559, 1746820546, 1746820605, 1746820602, 1746820511, 1746820487, 1746820603, 1746820512], "tags": {"addr:housenumber": "742", "addr:postcode": "68901-341", "addr:street": "Rua Marcelo C\u00e2ndia", "amenity": "hospital", "healthcare": "hospital", "name": "Hospital S\u00e3o Camilo", "ref:CNES": "2020890", "ref:vatin": "BR60975737000909"}}, {"type": "way", "id": 164393687, "center": {"lat": 5.1636824, "lon": -52.6448124}, "nodes": [1760367230, 1760367225, 5092084403, 5092084404, 4420838200, 1760367221, 1760367223, 1760367230], "tags": {"amenity": "hospital", "emergency": "yes", "fax": "+594 594 32 76 00", "healthcare": "hospital", "name": "Centre hospitalier de Kourou", "old_name": "Centre M\u00e9dico-Chirurgical de Kourou", "old_short_name": "CMCK", "operator:type": "public", "phone": "+594 594 32 76 76", "ref:FR:FINESS": "970305637", "type:FR:FINESS": "355", "website": "https://www.ch-kourou.fr"}}, {"type": "way", "id": 211387612, "center": {"lat": 5.8360513, "lon": -55.1834113}, "nodes": [2213899644, 2213899632, 2213899630, 2213899605, 2213899603, 2213899624, 2213899623, 2213899635, 2213899633, 2213899688, 2213899716, 2213899761, 2213899762, 5619729999, 2213899764, 2213899710, 2213899711, 2213899717, 2213899720, 2213899722, 2213899723, 2213899737, 2213899739, 2213899668, 2213899667, 2213899696, 2213899695, 2213899655, 2213899653, 2213899685, 2213899682, 2213899639, 2213899644], "tags": {"amenity": "hospital", "building": "yes", "name": "Academisch ziekenhuis"}}, {"type": "way", "id": 211387613, "center": {"lat": 5.8363362, "lon": -55.1833429}, "nodes": [2213899846, 8841204167, 8841204184, 8841204128, 2213899584, 2213899575, 4419667226, 8841176552, 8841176553, 8841237640, 8841176551, 8841176550, 4421201018, 8841176549, 8841295938, 2213899594, 4421201019, 4421201020, 2213899629, 8841204131, 8841242269, 8841242268, 8841204204, 8841204146, 8841204152, 2213899830, 8841176547, 8841176548, 2213902031, 2213899846], "tags": {"amenity": "hospital", "healthcare": "hospital", "name": "Academisch Ziekenhuis Paramaribo", "wikidata": "Q23926511", "wikipedia": "en:Academic Hospital Paramaribo"}}, {"type": "way", "id": 264543750, "center": {"lat": 6.2640798, "lon": -57.3677229}, "nodes": [2702094499, 2702094500, 2702094501, 8182942047, 2702094502, 2702094499], "tags": {"addr:city": "Belvedere", "addr:street": "Corentyne Highway", "amenity": "hospital", "emergency": "yes", "name": "Anamayah Memorial Hospital"}}, {"type": "way", "id": 337447170, "center": {"lat": 6.8182192, "lon": -58.1616279}, "nodes": [3445353134, 3445353135, 4098387270, 4098387272, 3445353136, 3445353137, 3445353138, 3445353139, 3445353134], "tags": {"amenity": "hospital", "building": "yes", "name": "Woodlands Hospital", "source": "KG Ground Survey 2016", "website": "https://www.woodlandshospital.com/"}}, {"type": "way", "id": 337511089, "center": {"lat": 6.0120838, "lon": -58.3144754}, "nodes": [3445904245, 3445904212, 3445904211, 3445904238, 3445904245], "tags": {"amenity": "hospital", "healthcare": "hospital", "name": "Wismar Hospital Blueberry Hill"}}, {"type": "way", "id": 403165029, "center": {"lat": 6.8147969, "lon": -58.1580836}, "nodes": [4055423738, 4055423740, 4055423734, 4055423737, 4055423738], "tags": {"amenity": "hospital", "name": "Prashad's Hospital"}}, {"type": "way", "id": 403165396, "center": {"lat": 6.8162475, "lon": -58.1577049}, "nodes": [4055424998, 4055425001, 4880937822, 8844337924, 4055424999, 4055424997, 4055424998], "tags": {"amenity": "hospital", "building": "yes", "name": "Medical Arts", "name:en": "Medical Arts"}}, {"type": "way", "id": 407657264, "center": {"lat": 6.810991, "lon": -58.1850556}, "nodes": [4096886994, 4096886989, 4096886288, 4096886287, 4096886286, 4096886285, 4096886991, 4096886990, 4096886992, 4096886993, 4096886994], "tags": {"amenity": "hospital", "name": "West Demerara Regional Hospital", "source": "Bing", "source:name": "user: \"donaciano; Changeset: 4267287\""}}, {"type": "way", "id": 408451674, "center": {"lat": 0.8551803, "lon": -51.1817369}, "nodes": [4103694155, 4774775490, 4103694157, 4103694158, 4103694155], "tags": {"amenity": "hospital", "loc_name": "Hospital Municipal", "name": "Unidade Mista de Sa\u00fade"}}, {"type": "way", "id": 408535752, "center": {"lat": 6.7746312, "lon": -58.2259624}, "nodes": [4104392412, 4104392425, 4104392423, 4104392441, 4104392436, 4104392433, 4104392432, 4104392404, 4104392411, 4104392400, 4104392412], "tags": {"amenity": "hospital", "healthcare": "hospital", "name": "Parfaite Harmonie Health Clinic"}}, {"type": "way", "id": 443392616, "center": {"lat": 6.7985928, "lon": -58.1364835}, "nodes": [4409776219, 8852621235, 4409776220, 4409776221, 4409776222, 4409776223, 4409776224, 4409776225, 4409776226, 8852621242, 4409776219], "tags": {"amenity": "hospital", "area": "yes", "name": "Davis Memorial Hospital", "source": "Edits in Guyana. KG Ground Survey 2016"}}, {"type": "way", "id": 444661937, "center": {"lat": 4.9381934, "lon": -52.3055839}, "nodes": [4421248792, 4421248793, 4421248794, 4421248795, 4421248792], "tags": {"addr:housenumber": "337", "addr:street": "Rocade de Z\u00e9phir", "amenity": "hospital", "healthcare": "hospital", "name": "H\u00f4pital Priv\u00e9 Saint-Adrien", "operator": "Guyane Sant\u00e9", "operator:type": "private", "website": "https://www.guyane-sante.com/fr/st-adrien/presentation"}}, {"type": "way", "id": 444661939, "center": {"lat": 4.9336252, "lon": -52.3071978}, "nodes": [4421248811, 4421248812, 7088705309, 4421248813, 4421248814, 7088705310, 4421248815, 4421248816, 4421248817, 4421248811], "tags": {"addr:city": "Cayenne", "addr:housenumber": "1453", "addr:postcode": "97300", "addr:street": "Route de Baduel", "alt_name": "Centre de Sant\u00e9 Guyanais", "amenity": "hospital", "healthcare": "hospital", "name": "H\u00f4pital Priv\u00e9 Saint-Gabriel", "old_name": "Clinique V\u00e9ronique", "operator": "Guyane Sant\u00e9", "operator:type": "private", "phone": "+594 594 28 10 10", "ref:FR:FINESS": "970302055", "source": "Cartographie de reconnaissance 2016 par KG", "type:FR:FINESS": "365", "website": "https://www.guyane-sante.com/fr/centre-sante-guyanais/presentation"}}, {"type": "way", "id": 459651774, "center": {"lat": 0.0037251, "lon": -51.0741898}, "nodes": [2323853145, 4554490963, 10312415767, 10312415764, 6356146278, 4554490961, 2323853145], "tags": {"amenity": "hospital", "emergency": "yes", "healthcare": "hospital", "name": "Hospital UNIMED Macap\u00e1"}}, {"type": "way", "id": 488504914, "center": {"lat": 3.9473721, "lon": -59.1339506}, "nodes": [4807919065, 4807919066, 4807919067, 4807919068, 4807919065], "tags": {"amenity": "hospital", "name": "Annai Cottage Hospital"}}, {"type": "way", "id": 540802393, "center": {"lat": 2.4813598, "lon": -59.3293716}, "nodes": [5231115485, 7670963685, 5231115486, 7670890384, 7670890383, 5231115487, 5231115488, 7670963686, 5231115485], "tags": {"amenity": "hospital", "healthcare": "hospital", "name": "Aishalton Hospital"}}, {"type": "way", "id": 540807151, "center": {"lat": 6.7529392, "lon": -57.9899739}, "nodes": [5231143064, 5231143065, 5231143066, 5231143067, 5231143068, 5231143069, 5231143064], "tags": {"amenity": "hospital", "healthcare": "hospital", "name": "health centre"}}, {"type": "way", "id": 581407346, "center": {"lat": 0.0404925, "lon": -51.0603382}, "nodes": [5563101242, 5563101244, 5563101245, 5563101246, 5562627894, 5563101242], "tags": {"amenity": "hospital", "healthcare": "hospital", "name": "Hospital da Crian\u00e7a"}}, {"type": "way", "id": 581407347, "center": {"lat": 0.0401756, "lon": -51.0603616}, "nodes": [5563101244, 5563101245, 5563101249, 5562627896, 5563101241, 5563101244], "tags": {"amenity": "hospital", "healthcare": "hospital", "name": "Pronto Atendimento Infantil", "short_name": "PAI"}}, {"type": "way", "id": 581407348, "center": {"lat": 0.0403498, "lon": -51.0592973}, "nodes": [5563101251, 5563101252, 5563101253, 2093408266, 5563101254, 10244055808, 5563101255, 5563101251], "tags": {"amenity": "hospital", "emergency": "yes", "healthcare": "hospital", "name": "Maternidade M\u00e3e Luzia"}}, {"type": "way", "id": 581407349, "center": {"lat": 0.0400309, "lon": -51.0588156}, "nodes": [5563101256, 5563101257, 5563101258, 5563101259, 5563101260, 5563101261, 5563101262, 5563101256], "tags": {"amenity": "hospital", "healthcare": "hospital", "name": "Hospital de Cl\u00ednicas Alberto Lima (HCAL)"}}, {"type": "way", "id": 581407351, "center": {"lat": 0.0396722, "lon": -51.0596497}, "nodes": [5563101267, 5563101268, 5563101269, 5563101270, 5562627895, 5563101267], "tags": {"amenity": "hospital", "building": "yes", "healthcare": "hospital", "name": "Servi\u00e7o de Atendimento Especializado", "short_name": "SAE"}}, {"type": "way", "id": 581407352, "center": {"lat": 0.0393359, "lon": -51.0591242}, "nodes": [5563101271, 5562896820, 5563101272, 5563101273, 5563101274, 5563101271], "tags": {"amenity": "hospital", "healthcare": "hospital", "name": "Centro de Especialidades Odontol\u00f3gicas"}}, {"type": "way", "id": 581407353, "center": {"lat": 0.0393649, "lon": -51.0594564}, "nodes": [5563101275, 5563101276, 5563101277, 5563101278, 5563101279, 5563101280, 9876346553, 9876346552, 5562896819, 5563101275], "tags": {"alt_name": "CDT", "amenity": "hospital", "building": "yes", "healthcare": "hospital", "name": "Centro De Doen\u00e7as Transmissiveis"}}, {"type": "way", "id": 581407354, "center": {"lat": 0.0394485, "lon": -51.0583732}, "nodes": [5563101281, 5563101282, 5563101283, 5563101284, 5563101285, 5563101281], "tags": {"amenity": "hospital", "healthcare": "hospital", "name": "Psiquiatria"}}, {"type": "way", "id": 594606928, "center": {"lat": 5.4786769, "lon": -53.2086774}, "nodes": [5669537441, 5669537442, 5669537443, 5669537444, 5669537445, 5669537446, 5669537441], "tags": {"amenity": "hospital", "healthcare": "hospital"}}, {"type": "way", "id": 610714152, "center": {"lat": 0.034652, "lon": -51.0648121}, "nodes": [5783506560, 5783506564, 5783506574, 5783506575, 5783506576, 5783506561, 5783506573, 5783506577, 5783506583, 5783506582, 5783506581, 5783506580, 5783506579, 5783506578, 5783506572, 5783506571, 5783506570, 5783506569, 5783506568, 5783506567, 5783506562, 5783506563, 5783506566, 5783506565, 5783506560], "tags": {"addr:city": "Macap\u00e1", "addr:housenumber": "1648", "addr:postcode": "68900-068", "addr:street": "Rua Hamilton Silva", "addr:suburb": "Central", "amenity": "hospital", "emergency": "yes", "healthcare": "hospital", "healthcare:speciality": "emergency", "name": "Hospital de Emerg\u00eancias Oswaldo Cruz"}}, {"type": "way", "id": 616024636, "center": {"lat": 0.075851, "lon": -51.0541949}, "nodes": [5824571573, 5824571574, 5824571575, 5824571576, 5824571573], "tags": {"amenity": "hospital", "healthcare": "hospital", "healthcare:speciality": "paediatrics;emergency;maternity", "name": "Maternidade Bem Nascer", "operator": "Sistema \u00danico de Sa\u00fade", "operator:short": "SUS", "operator:wikidata": "Q7531056", "operator:wikipedia": "pt:Sistema \u00danico de Sa\u00fade"}}, {"type": "way", "id": 617238989, "center": {"lat": 0.0727562, "lon": -51.0757085}, "nodes": [5834930792, 5834930793, 5834930794, 5834930795, 5834930792], "tags": {"amenity": "hospital", "healthcare": "hospital", "name": "Hospital do Amor - Macap\u00e1"}}, {"type": "way", "id": 659108393, "center": {"lat": 0.7088007, "lon": -51.4129789}, "nodes": [6170991509, 6170991510, 6170991511, 6170991512, 6170991509], "tags": {"amenity": "hospital", "healthcare": "hospital", "name": "Unidade Basica de Sa\u00fade PG - Centro"}}, {"type": "way", "id": 681409886, "center": {"lat": 0.0976022, "lon": -51.0468752}, "nodes": [6381164016, 6381164015, 6381164014, 6381164013, 6381164016], "tags": {"amenity": "hospital", "name": "Unidade de Sa\u00fade do Novo Horizonte", "short_name": "UPA"}}, {"type": "way", "id": 684128607, "center": {"lat": -0.0005912, "lon": -51.0828783}, "nodes": [6408964151, 6408964152, 6408964153, 6408964154, 6408964151], "tags": {"amenity": "hospital", "healthcare": "hospital", "name": "Hospital Universit\u00e1rio (UNIFAP)", "operator": "EBISERH"}}, {"type": "way", "id": 697754336, "center": {"lat": 3.8432799, "lon": -51.8377003}, "nodes": [7717755301, 7717755302, 7717755300, 7717755299, 7717755301], "tags": {"addr:city": "Oiapoque", "addr:housenumber": "148", "addr:postcode": "68980-000", "addr:street": "Avenida Getulio Vargas;Rua Presidente Get\u00falio Vargas", "amenity": "hospital", "emergency": "yes", "healthcare": "hospital", "healthcare:speciality": "general;internal", "name": "Hospital Estadual de Oiapoque", "note": "outras informa\u00e7oes do endere\u00e7o: R. Pres. Kennedy 700", "operator": "Sistema \u00danico de Sa\u00fade", "operator:ref:vatin": "BR23086176000103", "operator:short": "SUS", "operator:wikidata": "Q7531056", "operator:wikipedia": "pt:Sistema \u00danico de Sa\u00fade", "phone": "+55 96 3521 1280", "ref:CNES": "2021463"}}, {"type": "way", "id": 727758629, "center": {"lat": 5.4989677, "lon": -54.0589612}, "nodes": [6819989882, 6819989883, 6819989884, 6820001885, 6820001886, 6820001887, 6820001888, 6819989882], "tags": {"addr:city": "Albina", "addr:street": "Luitenant Weyneweg", "amenity": "hospital", "emergency": "yes", "healthcare": "hospital", "name": "Polikliniek Albina"}}, {"type": "way", "id": 737858932, "center": {"lat": 3.3459133, "lon": -55.4414018}, "nodes": [6908862504, 6908862505, 6908862506, 6908862507, 6908862504], "tags": {"amenity": "hospital", "healthcare": "hospital", "name": "Palumeu", "operator": "Medical Mission"}}, {"type": "way", "id": 758962481, "center": {"lat": 4.9152747, "lon": -52.3227854}, "nodes": [7088705312, 7088705313, 7088705314, 7088705315, 7088705316, 7088705317, 7088705318, 7088705319, 7088705320, 7088705321, 7088705322, 10249371994, 10249371992, 7088705327, 7088705330, 7088705331, 7088705332, 7088705333, 7088705334, 7088705335, 7088705336, 7088705337, 7088705338, 7088705346, 7088705312], "tags": {"addr:city": "Cayenne", "addr:housenumber": "2068", "addr:postcode": "97300", "addr:street": "Route de la Madeleine", "alt_name": "Clinique Saint-Paul", "amenity": "hospital", "email": "secretariatmed@cliniquesaintpaul.com", "fax": "+594 594 39 03 30", "healthcare": "hospital", "name": "Hopital Priv\u00e9 Saint-Paul", "operator": "Guyane Sant\u00e9", "operator:type": "private", "phone": "+594 594 39 03 00", "website": "http://www.hopital-prive-saint-paul.com/", "wheelchair": "yes"}}, {"type": "way", "id": 794559998, "center": {"lat": 5.9939533, "lon": -58.3001774}, "nodes": [7431626996, 7677772790, 7677772789, 7431626997, 7677772791, 7431626998, 7431627001, 7431627002, 7431627004, 7431626996], "tags": {"addr:city": "Linden", "addr:street": "Riverside Drive", "amenity": "hospital", "emergency": "yes", "healthcare": "hospital", "name": "Linden Hospital Complex"}}, {"type": "way", "id": 817011409, "center": {"lat": 6.8224923, "lon": -58.160403}, "nodes": [7630561510, 7630561511, 7630561512, 7630561513, 7630561523, 7630561514, 7630561515, 7630561516, 7630561517, 7630561510], "tags": {"amenity": "hospital", "healthcare": "hospital", "name": "St. Joseph Mercy Hosptial", "wikidata": "Q7589342", "wikipedia": "en:St. Joseph Mercy Hospital"}}, {"type": "way", "id": 817079446, "center": {"lat": 3.3743255, "lon": -59.8014891}, "nodes": [7631052860, 7631052861, 7631052862, 7631052863, 7631052864, 7631052865, 7631052866, 7631052867, 7631052860], "tags": {"addr:city": "Lethem", "amenity": "hospital", "emergency": "yes", "healthcare": "hospital", "name": "Lethem Regional Hospital"}}, {"type": "way", "id": 817680006, "center": {"lat": 6.2552125, "lon": -57.5133943}, "nodes": [9146380410, 9146380411, 9146380409, 7636412466, 7636412467, 7636412468, 7636412469, 7636412470, 7636412471, 7636412472, 7636412473, 7636412474, 7636412475, 7636412476, 7636412477, 7636412478, 9146380410], "tags": {"addr:city": "New Amsterdam", "addr:street": "Pincess Elizabeth Road", "amenity": "hospital", "emergency": "yes", "healthcare": "hospital", "name": "New Amsterdam Hospital", "wikidata": "Q7005339", "wikipedia": "en:New Amsterdam Public Hospital"}}, {"type": "way", "id": 817697881, "center": {"lat": 6.2575915, "lon": -57.5128982}, "nodes": [7636528551, 7636528552, 8025705786, 7636528553, 7636528554, 10189444767, 7636528555, 7636528556, 7636528551], "tags": {"addr:city": "New Amsterdam", "addr:street": "Road Molesoncreek To New Amsterdam", "amenity": "hospital", "healthcare": "hospital", "name": "National Psychiatric Hospital"}}, {"type": "way", "id": 817924460, "center": {"lat": 7.3952485, "lon": -58.5958027}, "nodes": [7638683788, 7638683789, 7638683790, 7638683791, 7638683792, 7638683793, 7638683794, 7638683795, 7638683796, 7638683788], "tags": {"addr:city": "Charity", "amenity": "hospital", "healthcare": "hospital", "name": "Charity Public Hospital"}}, {"type": "way", "id": 817945654, "center": {"lat": 7.1095639, "lon": -58.4769936}, "nodes": [7638850411, 7638850412, 7638850413, 7638850414, 7638850415, 7638850416, 7638850417, 7638850411], "tags": {"amenity": "hospital", "healthcare": "hospital", "name": "Suddie Public Hospital"}}, {"type": "way", "id": 818582590, "center": {"lat": 6.4077726, "lon": -58.6193731}, "nodes": [7644477655, 7644477656, 7644477657, 7644477658, 7644477659, 7644477660, 7644477661, 7644477662, 7644477655], "tags": {"addr:city": "Bartica", "amenity": "hospital", "emergency": "yes", "healthcare": "hospital", "name": "Bartica Regional Hospital"}}, {"type": "way", "id": 818592738, "center": {"lat": 6.3922204, "lon": -57.5974571}, "nodes": [7644546354, 7644546355, 7644546356, 7644546357, 7644546358, 7644546359, 7644546361, 7644712305, 7644712304, 7644546354], "tags": {"addr:city": "Fort Wellington", "addr:street": "West Berbice Highway", "amenity": "hospital", "emergency": "yes", "healthcare": "hospital", "name": "Fort Wellington Hospital"}}, {"type": "way", "id": 818898371, "center": {"lat": 6.7572372, "lon": -57.976301}, "nodes": [7647517291, 7647517292, 7647517293, 7647517294, 9133543670, 9133543671, 7647517295, 7647517291], "tags": {"addr:city": "Nabaclis", "amenity": "hospital", "healthcare": "hospital", "name": "Dr. C. C. Nicholson Hospital"}}, {"type": "way", "id": 818959784, "center": {"lat": 6.5734424, "lon": -57.8085863}, "nodes": [7648002566, 7648002567, 7648002568, 7648002569, 7648002566], "tags": {"addr:city": "Mahaicony", "addr:street": "West Berbice Highway", "amenity": "hospital", "emergency": "yes", "healthcare": "hospital", "name": "Mahaicony Hospital"}}, {"type": "way", "id": 819248117, "center": {"lat": 6.2446963, "lon": -57.3445822}, "nodes": [7650638809, 7650638810, 7650638811, 7650638812, 7650638813, 9146340895, 9146340894, 7650638814, 7650638809], "tags": {"addr:street": "Corentyne Highway", "amenity": "hospital", "healthcare": "hospital", "name": "Port Mourant Hospital"}}, {"type": "way", "id": 819268991, "center": {"lat": 6.1080424, "lon": -57.2865011}, "nodes": [7650745056, 7990271464, 7650745057, 7650745058, 7650745059, 7650745056], "tags": {"amenity": "hospital", "healthcare": "hospital", "name": "Mibicuri Hospital"}}, {"type": "way", "id": 821135533, "center": {"lat": 5.2829436, "lon": -59.1510188}, "nodes": [7667024560, 7667024561, 7667024562, 7667024563, 7667024564, 7667024565, 7667024566, 7667024567, 7667024568, 7667024560], "tags": {"addr:city": "Mahdia", "amenity": "hospital", "healthcare": "hospital", "name": "Mahdia General Hospital"}}, {"type": "way", "id": 857296540, "center": {"lat": 6.9200316, "lon": -58.3904079}, "nodes": [7992886650, 7992886651, 7992886652, 7992886653, 7992886650], "tags": {"amenity": "hospital", "building": "yes", "name": "Leguan Cottage Hospital"}}, {"type": "way", "id": 859707238, "center": {"lat": 0.0229302, "lon": -51.0795986}, "nodes": [9544176001, 8013400715, 8013400716, 9544176002, 9544176001], "tags": {"addr:city": "Macap\u00e1", "addr:housenumber": "126", "addr:postcode": "68904-250", "addr:street": "Rua Jos\u00e9 Valente dos Santos", "addr:suburb": "Novo Buritizal", "amenity": "hospital", "emergency": "yes", "healthcare": "hospital", "healthcare:speciality": "general", "name": "Unidade Basica de Sa\u00fade Dr. L\u00e9lio Silva", "operator:ref:vatin": "BR05995766000177", "ref:CNES": "2020602"}}, {"type": "way", "id": 955279180, "center": {"lat": 5.8219614, "lon": -55.1838068}, "nodes": [8841591379, 8841653041, 8841591378, 8841591377, 8841591362, 8841591363, 6399518838, 8841692363, 8841617478, 8841617480, 8841692364, 8841591376, 8841591375, 8841591374, 8841591373, 8841591372, 8841591371, 8841617471, 8841591370, 8841591369, 8841591368, 8841591364, 8841617477, 8841591367, 8841591366, 8841591365, 8841653042, 8841591379], "tags": {"amenity": "hospital", "healthcare": "hospital", "name": "Diakonessenhuis", "wikidata": "Q25248038", "wikipedia": "en:Diakonessenhuis (Paramaribo)"}}, {"type": "way", "id": 966814292, "center": {"lat": 5.6175415, "lon": -54.4041866}, "nodes": [8944830613, 8944830614, 8944830615, 8944830616, 8944871917, 8944871918, 8944871919, 8944871920, 8944871921, 8944830613], "tags": {"addr:city": "Moengo", "addr:street": "Abraham Crijnssenlaan", "amenity": "hospital", "emergency": "yes", "healthcare": "hospital", "name": "Suralco Poli"}}, {"type": "way", "id": 967340584, "center": {"lat": 5.8830581, "lon": -56.3398277}, "nodes": [8949258183, 8949258184, 8949258185, 8949258186, 8949258187, 8949258183], "tags": {"addr:city": "Totness", "addr:street": "Johannes S. P. Kraagweg", "amenity": "hospital", "emergency": "yes", "healthcare": "hospital", "name": "Totness Hospital"}}, {"type": "way", "id": 968232798, "center": {"lat": 5.8323262, "lon": -55.1563793}, "nodes": [8957772863, 8957772864, 8957772865, 8957772866, 8957772867, 8957772868, 8957772869, 8957772870, 8957772871, 8957772872, 8957772873, 8957772891, 8957772874, 8957772885, 5906318493, 5906318492, 8957772875, 8957772876, 8957772877, 8957772878, 8957772879, 8957772880, 8957772881, 8957772882, 8957772883, 8957772884, 8957772863], "tags": {"addr:city": "Paramaribo", "addr:street": "Henck Arronstraat", "amenity": "hospital", "emergency": "yes", "healthcare": "hospital", "name": "S'Lands Hospitaal", "wikidata": "Q15868275"}}, {"type": "way", "id": 968232803, "center": {"lat": 5.8323664, "lon": -55.1525473}, "nodes": [5871722472, 8957772903, 8957772904, 8957772905, 8957772906, 7206657845, 7206657842, 8957772907, 5871722414, 2388515955, 5871722472], "tags": {"addr:city": "Paramaribo", "addr:street": "Koninginnestraat", "amenity": "hospital", "emergency": "yes", "healthcare": "hospital", "name": "Sint Vincentius Ziekenhuis", "wikidata": "Q23926510", "wikipedia": "en:Sint Vincentius Hospital"}}, {"type": "way", "id": 1131524360, "center": {"lat": 0.0022278, "lon": -51.0860026}, "nodes": [10548398166, 10548398167, 10548398168, 10548398169, 10548398166], "tags": {"amenity": "hospital", "healthcare": "hospital", "name": "UPA da Zona Sul"}}, {"type": "way", "id": 1160626267, "center": {"lat": 0.0422529, "lon": -51.0649615}, "nodes": [10794748445, 10794748446, 10794748447, 10794748448, 10794748445], "tags": {"addr:city": "Macap\u00e1", "addr:housenumber": "1332", "addr:postcode": "68900-081", "addr:street": "Avenida Proc\u00f3pio Rola", "addr:suburb": "Central", "amenity": "hospital", "healthcare": "hospital", "name": "Hospital Odontol\u00f3gico do Amap\u00e1", "ref:CNES": "483761", "ref:vatin": "BR38086207000101"}}, {"type": "relation", "id": 2669321, "center": {"lat": 4.9245355, "lon": -52.320847}, "members": [{"type": "way", "ref": 165343020, "role": "outer"}, {"type": "way", "ref": 198749059, "role": "outer"}, {"type": "way", "ref": 198749063, "role": "outer"}, {"type": "way", "ref": 165343019, "role": "outer"}, {"type": "way", "ref": 198749058, "role": "outer"}, {"type": "way", "ref": 198749062, "role": "outer"}, {"type": "way", "ref": 165342644, "role": "outer"}, {"type": "way", "ref": 198749060, "role": "outer"}, {"type": "way", "ref": 165344352, "role": "outer"}, {"type": "way", "ref": 165344353, "role": "outer"}], "tags": {"addr:city": "Cayenne", "addr:postcode": "97300", "addr:street": "Avenue des Flamboyants", "alt_name": "Centre Hospitalier de Cayenne", "amenity": "hospital", "emergency": "yes", "fax": "0594 37 85 83", "healthcare": "hospital", "healthcare:speciality": "intensive", "name": "Centre Hospitalier Andr\u00e9e Rosemon", "operator:type": "public", "phone": "+594 594 39 50 50", "ref:FR:FINESS": "970300026", "short_name": "CHAR", "type": "multipolygon", "type:FR:FINESS": "355", "website": "http://www.ch-cayenne.fr", "wikidata": "Q2945657", "wikipedia": "fr:Centre hospitalier Andr\u00e9e-Rosemon"}}, {"type": "relation", "id": 3723911, "center": {"lat": 2.038512, "lon": -50.7919568}, "members": [{"type": "way", "ref": 183032441, "role": "outer"}, {"type": "way", "ref": 279993631, "role": "outer"}], "tags": {"amenity": "hospital", "type": "multipolygon"}}, {"type": "relation", "id": 6608249, "center": {"lat": 5.8329283, "lon": -55.1326817}, "members": [{"type": "way", "ref": 444201246, "role": "outer"}, {"type": "way", "ref": 444201247, "role": "inner"}], "tags": {"addr:city": "Paramaribo", "addr:housenumber": "68", "addr:street": "Anton Dragtenweg", "amenity": "hospital", "emergency": "yes", "healthcare": "hospital", "name": "RCR Medical Centre", "phone": "(597) 455 200", "type": "multipolygon", "website": "https://www.rcrmedicalcentre.com/", "wikidata": "Q89683656"}}, {"type": "relation", "id": 11213168, "center": {"lat": 6.8163918, "lon": -58.156358}, "members": [{"type": "way", "ref": 817015076, "role": "outer"}, {"type": "way", "ref": 817015466, "role": "outer"}], "tags": {"addr:city": "Georgetown", "addr:street": "New Market Street", "amenity": "hospital", "emergency": "yes", "healthcare": "hospital", "name": "Georgetown Public Hospital Corporation", "type": "multipolygon", "wikidata": "Q5547032", "wikipedia": "en:Georgetown Public Hospital"}}]}