{"version": 0.6, "generator": "Overpass API 0.7.61.5 4133829e", "osm3s": {"timestamp_osm_base": "2023-10-31T20:51:35Z", "copyright": "The data included in this document is from www.openstreetmap.org. The data is made available under ODbL."}, "elements": [{"type": "node", "id": 1136529989, "lat": 9.8630329, "lon": -83.9339858, "tags": {"addr:city": "Guadalupe de Cartago", "amenity": "hospital", "name": "EBAIS de Guadalupe"}}, {"type": "node", "id": 1569488369, "lat": 0.076557, "lon": -80.0430834, "tags": {"amenity": "hospital", "name": "Cl\u00ednica Pedernales"}}, {"type": "node", "id": 1761891266, "lat": 9.4630356, "lon": -84.0624793, "tags": {"addr:city": "Naranjito", "amenity": "hospital", "name": "Ebais", "operator": "CCSS"}}, {"type": "node", "id": 1833709973, "lat": 9.8977996, "lon": -84.0610951, "tags": {"addr:city": "Desamparados", "amenity": "hospital", "healthcare": "hospital", "name": "Cl\u00ednica Hospital Santa Catalina"}}, {"type": "node", "id": 2341675025, "lat": 9.9307714, "lon": -84.0433766, "tags": {"addr:city": "San Pedro", "addr:country": "CR", "amenity": "hospital", "name": "Cl\u00ednica Dental Dra. Vanessa Morales", "phone": "8982-9883", "source": "KG Ground Survey 2015"}}, {"type": "node", "id": 2464833562, "lat": 8.6205444, "lon": -80.5784957, "tags": {"amenity": "hospital"}}, {"type": "node", "id": 3507858989, "lat": 9.933365, "lon": -84.1818991, "tags": {"amenity": "hospital", "name": "Centro M\u00e9dico Torre Fuerte"}}, {"type": "node", "id": 4120972338, "lat": 9.8598916, "lon": -83.9218989, "tags": {"amenity": "hospital", "name": "Hospital Universal"}}, {"type": "node", "id": 4194397389, "lat": 7.9753707, "lon": -80.4204983, "tags": {"amenity": "hospital", "name": "Hospital Gustavo Nelson Collado"}}, {"type": "node", "id": 4300775221, "lat": 9.868106, "lon": -83.9184396, "tags": {"amenity": "hospital", "healthcare": "hospital"}}, {"type": "node", "id": 4300775224, "lat": 9.8662343, "lon": -83.9122547, "tags": {"amenity": "hospital"}}, {"type": "node", "id": 4753787964, "lat": 8.8048635, "lon": -82.5960437, "tags": {"amenity": "hospital", "emergency": "no", "healthcare": "hospital", "name": "Safe Zone"}}, {"type": "node", "id": 4937283386, "lat": 8.2480802, "lon": -80.5455144, "tags": {"amenity": "hospital", "name": "Ministerio de Salud"}}, {"type": "node", "id": 5214357727, "lat": 8.4011333, "lon": -80.2714866, "tags": {"addr:city": "Ant\u00f3n", "addr:street": "v\u00eda panamericana, anton", "amenity": "hospital", "name": "Centro Materno Infantil", "opening_hours": "24/7"}}, {"type": "node", "id": 5355838041, "lat": 7.9562801, "lon": -80.4270714, "tags": {"amenity": "hospital", "description": "Policl\u00ednica Roberto Ramires de Diego El Seguro", "healthcare": "hospital", "name": "Policl\u00ednica Roberto Ramires de Diego"}}, {"type": "node", "id": 5376073854, "lat": 8.9306094, "lon": -82.1818726, "tags": {"amenity": "hospital", "healthcare": "hospital", "name": "Policl\u00ednica de Ramb\u00e1la"}}, {"type": "node", "id": 5546883192, "lat": 8.5338208, "lon": -82.2976136, "tags": {"amenity": "hospital", "healthcare": "hospital", "name": "Centro de Salus"}}, {"type": "node", "id": 6453774585, "lat": 8.5126526, "lon": -80.3553812, "tags": {"addr:street": "Avenida de la Esperanza", "amenity": "hospital", "name": "Centro de Salud Penonom\u00e9", "name:en": "Penonome Health Center", "name:zh": "\u4f69\u8bfa\u8bfa\u6885\u5065\u5eb7\u4e2d\u5fc3", "opening_hours": "Mo-Su 07:00-15:00", "operator": "Ministerio de Salud", "phone": "512-9206", "website": "https://help.unhcr.org/panama/covid-19-2/registro-de-vacunacion-covid-19/"}}, {"type": "node", "id": 6638908729, "lat": 8.4339204, "lon": -82.4201771, "tags": {"addr:city": "David", "addr:street": "Avenida 4a Este", "amenity": "hospital", "healthcare": "hospital", "name": "Hospital y Cl\u00ednica Catt\u00e1n"}}, {"type": "node", "id": 6901670085, "lat": 8.9215207, "lon": -82.1675403, "tags": {"amenity": "hospital", "name": "Hospital de Chiriqu\u00ed Grande"}}, {"type": "node", "id": 8901788487, "lat": 8.0768101, "lon": -80.9368962, "tags": {"amenity": "hospital", "name": "Hospital Luis Chicho F\u00e1brega"}}, {"type": "node", "id": 9029390073, "lat": 8.1371528, "lon": -81.0816175, "tags": {"amenity": "hospital", "name": "Centro de Salud Candelario deLe\u00f3n"}}, {"type": "node", "id": 10184355211, "lat": 7.7871345, "lon": -80.2724738, "tags": {"amenity": "hospital", "healthcare": "hospital", "name": "Hospital Joaqu\u00edn Pablo Franco Savas"}}, {"type": "node", "id": 10846835787, "lat": 9.8536558, "lon": -84.0922758, "tags": {"addr:city": "Salitrillos", "addr:street": "Calle San Isidro", "amenity": "hospital", "healthcare": "hospital", "healthcare:speciality": "general;vaccination", "name": "EBAIS Salitrillos", "wheelchair": "yes"}}, {"type": "node", "id": 10924683337, "lat": 9.448107, "lon": -84.1400057, "tags": {"addr:city": "Quepos", "amenity": "hospital", "healthcare": "hospital", "name": "Sal\u00f3n Comunal de La Inmaculada", "wheelchair": "yes"}}, {"type": "node", "id": 10998264600, "lat": 8.2636718, "lon": -81.4861412, "tags": {"addr:city": "\u00d1\u00fcr\u00fcm", "addr:housenumber": "Alto de Jes\u00fas", "addr:street": "V\u00eda Alto de Jes\u00fas", "amenity": "hospital", "emergency": "no", "healthcare": "hospital", "healthcare:speciality": "general;community", "name": "Puesto de Salud de Alto de Jes\u00fas", "operator": "Ministerio de Salud", "operator:type": "public"}}, {"type": "way", "id": 24857117, "center": {"lat": 9.9333234, "lon": -84.0861924}, "nodes": [270091168, 3816269834, 270091169, 270091170, 270091171, 3735290390, 3735290391, 3735290392, 270091172, 3735290389, 270091173, 3750842095, 2689346670, 2689346671, 2689346672, 2689346673, 2689346674, 4684777485, 4684777487, 2689346676, 3299102413, 270091175, 270091176, 2689346678, 270091168], "tags": {"addr:city": "San Jos\u00e9", "addr:housenumber": "0003", "addr:street": "Paseo Col\u00f3n", "amenity": "hospital", "emergency": "yes", "healthcare": "hospital", "name": "Hospital San Juan de Dios", "operator": "CCSS", "operator:type": "public", "wikidata": "Q5902879", "wikipedia": "es:Hospital San Juan de Dios (San Jos\u00e9)"}}, {"type": "way", "id": 24857118, "center": {"lat": 9.9339512, "lon": -84.0874804}, "nodes": [270091176, 270091175, 3299102413, 2689346676, 270091174, 270091182, 270091183, 2689346678, 270091176], "tags": {"addr:city": "San Jos\u00e9", "addr:housenumber": "0221", "addr:street": "Paseo Col\u00f3n", "amenity": "hospital", "emergency": "yes", "healthcare": "hospital", "healthcare:speciality": "paediatrics", "name": "Hospital Nacional de Ni\u00f1os Dr. Carlos S\u00e1enz Herrera", "operator": "CCSS", "operator:type": "public", "short_name": "HN\u00d1"}}, {"type": "way", "id": 25330875, "center": {"lat": 9.9396026, "lon": -84.1443414}, "nodes": [275991017, 8900557063, 8900557066, 275991018, 8900557065, 8900557067, 275991021, 275991022, 8900557064, 275991017], "tags": {"addr:city": "San Rafael", "addr:street": "Autopista Pr\u00f3spero Fern\u00e1ndez", "amenity": "hospital", "emergency": "yes", "healthcare": "hospital", "name": "Hospital CIMA San Jos\u00e9", "wikidata": "Q5908364"}}, {"type": "way", "id": 25400008, "center": {"lat": 9.9523517, "lon": -84.1152572}, "nodes": [276824345, 10759367996, 276824347, 10759367997, 276824348, 276824349, 276824350, 11016355593, 3021203649, 11016355595, 11016355594, 821910513, 11016355591, 10681063595, 3783625845, 6747026912, 6747026913, 6747026914, 6173617784, 6173617775, 6173617766, 276824355, 6173617764, 6173617767, 6173617774, 276824356, 3256093266, 6348492120, 6348492121, 6348492119, 6348492124, 6348492117, 6348530517, 276824345], "tags": {"addr:city": "San Jos\u00e9", "addr:housenumber": "0003", "addr:street": "Avenida 41", "amenity": "hospital", "building": "no", "emergency": "yes", "healthcare": "hospital", "name": "Hospital M\u00e9xico", "operator": "CCSS", "operator:type": "public", "operator:wikidata": "Q5174896", "operator:wikipedia": "en:Costa Rican Social Security Fund", "wikidata": "Q5404554", "wikipedia": "es:Hospital M\u00e9xico"}}, {"type": "way", "id": 35584324, "center": {"lat": 9.936647, "lon": -83.9760922}, "nodes": [417001437, 6602699853, 8686096748, 6602699852, 6602699851, 417001439, 6602699850, 417001440, 8686096691, 417001442, 417001444, 417001445, 417001446, 6602699856, 6602699857, 6602699858, 6602699859, 6602699860, 417001447, 417001448, 417001450, 417001451, 417001453, 417001455, 417001437], "tags": {"addr:city": "San Ram\u00f3n", "addr:street": "V\u00eda 202", "amenity": "hospital", "healthcare": "hospital", "healthcare:speciality": "psychiatry", "name": "Hospital Psiqui\u00e1trico Dr. Roberto Chac\u00f3n Paut", "operator": "CCSS", "operator:type": "public"}}, {"type": "way", "id": 41374650, "center": {"lat": 9.9492488, "lon": -84.0589219}, "nodes": [506049183, 3501912888, 506049185, 506049187, 506049191, 506049192, 3822808924, 506049194, 506049196, 11105759336, 3822810977, 11105759337, 506049200, 3822808922, 10793991986, 3103753031, 3103753033, 3103753034, 3103753032, 506049202, 506049204, 8903348002, 3671173372, 506049206, 506049183], "tags": {"addr:city": "Calle Blancos", "addr:street": "V\u00eda 109", "amenity": "hospital", "emergency": "yes", "healthcare": "hospital", "name": "Hospital Hotel La Cat\u00f3lica"}}, {"type": "way", "id": 61349850, "center": {"lat": 9.8614773, "lon": -83.9219589}, "nodes": [766163524, 766163525, 766163526, 766163527, 766163524], "tags": {"access": "permissive", "addr:city": "Oriental", "addr:street": "Avenida 6", "alt_name": "Hospital Max Peralta", "amenity": "hospital", "emergency": "yes", "healthcare": "hospital", "name": "Hospital Dr. Maximiliano Peralta Jim\u00e9nez", "operator": "CCSS", "operator:type": "public", "operator:wikidata": "Q5174896", "wikidata": "Q5902747"}}, {"type": "way", "id": 63529874, "center": {"lat": 9.9268972, "lon": -84.0894986}, "nodes": [786655765, 786655767, 786655768, 4684108513, 4684108514, 2687911758, 786655771, 786655765], "tags": {"addr:city": "San Jos\u00e9", "addr:street": "Calle 20", "amenity": "hospital", "emergency": "yes", "healthcare": "hospital", "name": "Cl\u00ednica Dr. Ricardo Moreno Ca\u00f1as", "operator": "CCSS", "operator:type": "public", "operator:wikidata": "Q5174896", "operator:wikipedia": "en:Costa Rican Social Security Fund", "source": "KG Ground Survey 2015"}}, {"type": "way", "id": 63530569, "center": {"lat": 9.9146278, "lon": -84.0968495}, "nodes": [786665665, 786665666, 6140911974, 6140915695, 786665668, 786665669, 786665671, 786665674, 10754803240, 10754803239, 786665675, 786665677, 786665665], "tags": {"addr:city": "San Jos\u00e9", "addr:housenumber": "0271", "addr:street": "V\u00eda 110", "amenity": "hospital", "building:levels": "2", "emergency": "yes", "healthcare": "hospital", "name": "Cl\u00ednica Dr. Sol\u00f3n N\u00fa\u00f1ez Frutos", "operator": "CCSS", "operator:type": "public", "operator:wikidata": "Q5174896"}}, {"type": "way", "id": 67694521, "center": {"lat": 9.9218252, "lon": -84.0700073}, "nodes": [817606182, 10900653618, 10900653620, 10900653619, 10900653621, 817606191, 10900653607, 10900653606, 10900653605, 817606198, 10900648504, 10900653609, 3101718929, 817606201, 3101716328, 10900653608, 817606209, 10900653610, 3651242631, 10900653611, 3948380015, 10900653612, 10900653613, 10900653614, 10900653615, 817606212, 3948380014, 817606214, 10900653616, 817606221, 10900653617, 817606182], "tags": {"addr:city": "San Jos\u00e9", "addr:housenumber": "0004", "addr:street": "Avenida Estado de Israel", "amenity": "hospital", "emergency": "yes", "healthcare": "hospital", "name": "Cl\u00ednica Dr. Carlos Dur\u00e1n Cart\u00edn", "operator": "CCSS", "operator:type": "public", "operator:wikidata": "Q5174896", "operator:wikipedia": "en:Costa Rican Social Security Fund", "wheelchair": "yes"}}, {"type": "way", "id": 68251594, "center": {"lat": 9.9507255, "lon": -84.1172036}, "nodes": [3783625845, 3783625846, 821910549, 821910539, 821910523, 821910515, 3783625841, 3783625842, 3783625843, 3783625844, 821910551, 6173617846, 6173617845, 821910548, 10759478061, 11016355592, 821910513, 11016355591, 10681063595, 3783625845], "tags": {"addr:city": "San Jos\u00e9", "addr:housenumber": "0004", "addr:street": "Calle 86", "amenity": "hospital", "building": "no", "email": "contactenos@ins-cr.com", "emergency": "yes", "healthcare": "hospital", "name": "Hospital del Trauma", "office": "insurance", "operator": "INS", "operator:type": "public", "phone": "2287-6000", "website": "http://portal.ins-cr.com/"}}, {"type": "way", "id": 70568771, "center": {"lat": 9.4426873, "lon": -84.1363597}, "nodes": [842157234, 842157237, 842157240, 842157241, 842157242, 842157243, 842157245, 842157247, 3271390211, 3271390210, 3271390209, 842157249, 3271390208, 842157252, 842157234], "tags": {"addr:city": "Quepos", "addr:street": "Carretera Pac\u00edfica Fern\u00e1ndez Oreamuno", "alt_name": "Hospital Max Ter\u00e1n", "amenity": "hospital", "emergency": "yes", "healthcare": "hospital", "name": "Hospital Dr. Maximiliano Ter\u00e1n Valls", "operator": "CCSS", "operator:type": "public"}}, {"type": "way", "id": 83755549, "center": {"lat": 8.6316829, "lon": -82.9376288}, "nodes": [975480572, 975480574, 9248369146, 975480575, 975480577, 975480572], "tags": {"addr:city": "Corredor", "addr:street": "Carretera Interamericana Sur", "amenity": "hospital", "emergency": "yes", "healthcare": "hospital", "name": "Hospital Ciudad Neily", "operator": "CCSS", "operator:type": "public"}}, {"type": "way", "id": 84969446, "center": {"lat": 9.9642667, "lon": -84.0760219}, "nodes": [986237475, 986237476, 986237477, 986237478, 2402800759, 986237475], "tags": {"addr:city": "San Juan", "addr:street": "Avenida 69", "amenity": "hospital", "emergency": "yes", "healthcare": "hospital", "name": "Cl\u00ednica Rodrigo Fournier Guevara", "operator": "CCSS", "operator:type": "public", "operator:wikidata": "Q5174896", "operator:wikipedia": "en:Costa Rican Social Security Fund"}}, {"type": "way", "id": 128247306, "center": {"lat": 9.9237816, "lon": -84.0812517}, "nodes": [1417699524, 6710544977, 1417699522, 10620482475, 2637864242, 2637864241, 10620482478, 3632299083, 6710559114, 10680870021, 6710559113, 6710559112, 6173662296, 6173662297, 1417699524], "tags": {"addr:city": "San Jos\u00e9", "addr:housenumber": "0178", "addr:street": "Calle Central Alfredo Volio", "alt_name": "Hospital Nacional de la Mujer", "amenity": "hospital", "emergency": "yes", "healthcare": "hospital", "healthcare:speciality": "gynaecology", "name": "Hospital Dr. Adolfo Carit Eva", "operator": "CCSS", "operator:type": "public", "operator:wikidata": "Q5174896"}}, {"type": "way", "id": 129800760, "center": {"lat": 9.903137, "lon": -83.6863899}, "nodes": [1431339116, 11239648309, 1431339132, 3284626649, 1431339177, 3284627557, 2698207752, 11239644029, 11239644030, 1431339139, 3284626650, 3284626653, 2698207756, 2698207754, 3284626657, 3284626658, 1431339117, 1431339122, 1431339116], "tags": {"addr:city": "Turrialba", "addr:street": "V\u00eda 10", "amenity": "hospital", "emergency": "yes", "healthcare": "hospital", "name": "Hospital William Allen Taylor", "operator": "CCSS", "operator:type": "public", "operator:wikidata": "Q5174896", "source": "KG Ground Survey 2015"}}, {"type": "way", "id": 130819612, "center": {"lat": 9.9619998, "lon": -84.0751627}, "nodes": [1440009893, 3831523465, 3974307763, 1440009873, 1440009871, 3831523464, 3831526960, 1440009891, 1440009893], "tags": {"addr:city": "San Juan", "addr:street": "Avenida 63", "amenity": "hospital", "healthcare": "hospital", "name": "Hospital Metropolitano", "source": "KG Ground Survey 2015"}}, {"type": "way", "id": 148723663, "center": {"lat": 9.9544024, "lon": -84.137464}, "nodes": [1617933892, 1617933855, 2662554842, 1617933841, 1617933870, 1617933838, 1617933864, 1617933898, 1617933851, 1617933847, 8467858876, 8467858877, 8467858878, 8467858879, 8467858880, 8467858881, 8467858882, 8467858883, 1617933896, 1617933859, 8467858885, 8467858884, 8467858875, 1617933889, 8467858886, 1617933844, 8467858874, 8467858873, 1617933872, 1617933837, 8467858872, 1617933822, 1617933867, 10821049756, 10740084985, 10740084984, 10740084983, 10740084982, 1617933892], "tags": {"addr:city": "San Jos\u00e9", "addr:housenumber": "0004", "addr:street": "Avenida 41", "amenity": "hospital", "emergency": "no", "healthcare": "hospital", "healthcare:speciality": "psychiatry", "name": "Hospital Nacional de Salud Mental Pbro. Manuel Antonio Chapu\u00ed y Torres", "operator": "CCSS", "operator:type": "public", "operator:wikidata": "Q5174896"}}, {"type": "way", "id": 172464754, "center": {"lat": 9.8935989, "lon": -84.0650493}, "nodes": [1833710061, 3835061082, 3835061083, 3342955209, 3835061085, 1833710102, 1833710095, 3835061088, 1833710074, 1833710066, 1833710061], "tags": {"addr:city": "Desamparados", "addr:street": "Calle Fallas", "alt_name": "Cl\u00ednica Marcial Fallas", "alt_name_1": "CAIS Desamparados", "amenity": "hospital", "emergency": "yes", "healthcare": "hospital", "name": "Centro de Atenci\u00f3n Integral en Salud Dr. Marcial Fallas D\u00edaz", "operator": "CCSS", "operator:type": "public", "operator:wikidata": "Q5174896", "operator:wikipedia": "en:Costa Rican Social Security Fund", "source": "KG Ground Survey 2015"}}, {"type": "way", "id": 189149483, "center": {"lat": 9.9012857, "lon": -84.1032141}, "nodes": [1998017291, 9898008233, 9898008234, 1998017283, 1998017296, 1998017268, 1998017291], "tags": {"addr:city": "Alajuelita", "addr:street": "Avenida 4", "amenity": "hospital", "emergency": "yes", "healthcare": "hospital", "name": "Cl\u00ednica CCSS Alajuelita", "operator": "CCSS", "operator:type": "public", "operator:wikidata": "Q5174896"}}, {"type": "way", "id": 201513043, "center": {"lat": 9.9903792, "lon": -84.1218456}, "nodes": [826619278, 2115097485, 826619279, 826619280, 2115097483, 826619281, 2115103043, 2115103045, 2115097498, 2115103050, 826619282, 2115103046, 826619283, 2115103049, 826619284, 826619285, 826619286, 826619288, 826619289, 826619290, 826619291, 826619292, 5717855712, 826619293, 2115097506, 10981066903, 10981066902, 10981066901, 10981066900, 10981066899, 826619294, 2697001958, 826619295, 826619296, 2697001955, 2697001954, 826619278], "tags": {"addr:city": "Heredia", "addr:street": "Avenida 16", "amenity": "hospital", "emergency": "yes", "healthcare": "hospital", "name": "Hospital San Vicente de Pa\u00fal", "operator": "CCSS", "operator:type": "public", "operator:wikidata": "Q5174896", "wikidata": "Q20160787", "wikipedia": "es:Hospital San Vicente de Pa\u00fal (Costa Rica)"}}, {"type": "way", "id": 216865884, "center": {"lat": 7.7312112, "lon": -81.1049607}, "nodes": [2261875813, 2261875814, 2261875815, 2261875816, 2261875813], "tags": {"amenity": "hospital", "building": "yes", "name": "puesto de salud", "name:en": "health post"}}, {"type": "way", "id": 220539650, "center": {"lat": 0.6092336, "lon": -80.019925}, "nodes": [2296513904, 2296513903, 2296513901, 2296513902, 2296513904], "tags": {"amenity": "hospital"}}, {"type": "way", "id": 220657892, "center": {"lat": 8.2766101, "lon": -82.8608164}, "nodes": [2297489277, 2297489283, 2297489287, 2297489259, 2297489260, 2297489256, 2297489286, 2297489294, 2297489262, 2297489263, 2297489264, 2297489251, 2297489250, 2297489255, 2297489258, 2297489252, 2297489280, 2297489281, 2297489288, 2297489284, 2297489289, 2297489293, 2297489285, 2297489282, 2297489295, 2297489292, 2297489291, 2297489297, 2297489290, 2297489279, 2297489271, 2297489296, 2297489269, 2297489261, 2297489253, 2297489270, 2297489273, 2297489272, 2297489274, 2297489276, 2297489254, 2297489257, 2297489278, 2297489265, 2297489266, 2297489267, 2297489268, 2297489275, 2297489277], "tags": {"amenity": "hospital", "building": "hospital", "emergency": "yes", "name": "Hospital Dionisio Arrocha"}}, {"type": "way", "id": 220663935, "center": {"lat": 8.2786613, "lon": -82.8601108}, "nodes": [2297544424, 2297544440, 2297544438, 2297544434, 2297544436, 2297544418, 2297544433, 2297544431, 2297544420, 2297544428, 2297544426, 2297544424], "tags": {"amenity": "hospital", "emergency": "no", "name": "Hospital Mery Arias (Par\u00e1lisis Cerebral)"}}, {"type": "way", "id": 228756978, "center": {"lat": 9.3429755, "lon": -82.2473327}, "nodes": [2374325411, 2374325410, 2374325409, 2374325408, 2374325411], "tags": {"amenity": "hospital"}}, {"type": "way", "id": 231188707, "center": {"lat": 8.2759424, "lon": -82.8643069}, "nodes": [2395960227, 2395960239, 2395960244, 2395960234, 2395960251, 2395960265, 2395960289, 2395960273, 2395960268, 2395960254, 2395960221, 2395960227], "tags": {"amenity": "hospital", "building": "yes", "name": "Centro Integrado de Salud Puerto Armuelles", "wheelchair": "yes"}}, {"type": "way", "id": 232194056, "center": {"lat": 9.9755531, "lon": -84.8369419}, "nodes": [2405673819, 2405673843, 2405673827, 2405673823, 2405673837, 2405673835, 2405673819], "tags": {"addr:city": "Puntarenas", "addr:street": "Avenida 4", "amenity": "hospital", "emergency": "yes", "healthcare": "hospital", "name": "Cl\u00ednica San Rafael", "operator": "CCSS", "operator:type": "public", "operator:wikidata": "Q5174896", "operator:wikipedia": "en:Costa Rican Social Security Fund", "source": "KG Ground Survey 2015"}}, {"type": "way", "id": 232450032, "center": {"lat": 8.4306738, "lon": -82.4537182}, "nodes": [2408025971, 5656944488, 5656944489, 2408246196, 6252162858, 2357083367, 6252162857, 6252162856, 2408025971], "tags": {"addr:city": "San Pablo Viejo", "amenity": "hospital", "healthcare": "hospital", "name": "Hospital Regional Dr. Rafael Hern\u00e1ndez"}}, {"type": "way", "id": 232476926, "center": {"lat": 8.4322236, "lon": -82.4553583}, "nodes": [2408246196, 2357083318, 2357083381, 2357083385, 2357083256, 2408246441, 2408246455, 2408246444, 2408246450, 2408246488, 2408246498, 2408246511, 2408246540, 2357083223, 2357083354, 2357083268, 2408246601, 6903666457, 2408246270, 2408025971, 5656944488, 5656944489, 2408246196], "tags": {"Info": "http://mensual.prensa.com/mensual/contenido/2004/08/27/hoy/nacionales/17394.html", "addr:city": "San Pablo Viejo", "amenity": "hospital", "healthcare": "hospital", "name": "Hospital Materno Infantil Jos\u00e9 Domingo De Obald\u00eda"}}, {"type": "way", "id": 241305952, "center": {"lat": 8.9875258, "lon": -83.5454036}, "nodes": [2489810699, 9258299623, 2489810698, 2489810696, 2637391710, 2489810702, 2489810695, 2489810701, 2489810699], "tags": {"addr:city": "Ciudad Cort\u00e9s", "addr:street": "Carretera Pac\u00edfica Fern\u00e1ndez Oreamuno", "amenity": "hospital", "building": "no", "emergency": "yes", "healthcare": "hospital", "name": "Hospital Dr. Tom\u00e1s Casas Casaj\u00fas", "operator": "CCSS", "operator:type": "public", "operator:wikidata": "Q5174896", "operator:wikipedia": "en:Costa Rican Social Security Fund"}}, {"type": "way", "id": 258411833, "center": {"lat": 9.1699086, "lon": -83.3308993}, "nodes": [7192189806, 7192189807, 7192189805, 7192189808, 7192189806], "tags": {"addr:city": "Buenos Aires", "addr:street": "Avenida 2", "amenity": "hospital", "emergency": "yes", "healthcare": "hospital", "name": "Hospital de Buenos Aires", "operator": "CCSS", "operator:type": "public", "operator:wikidata": "Q5174896"}}, {"type": "way", "id": 263309077, "center": {"lat": 9.9317765, "lon": -84.0874649}, "nodes": [4684777483, 2689347562, 2689347564, 2689346672, 2689346673, 2689346674, 2689346675, 4684777483], "tags": {"addr:city": "San Jos\u00e9", "addr:housenumber": "0062", "addr:street": "Avenida 8", "amenity": "hospital", "emergency": "yes", "healthcare": "hospital", "healthcare:speciality": "geriatrics", "name": "Hospital Dr. Ra\u00fal Blanco Cervantes", "operator": "CCSS", "operator:type": "public", "operator:wikidata": "Q5174896", "operator:wikipedia": "en:Costa Rican Social Security Fund"}}, {"type": "way", "id": 264054108, "center": {"lat": 10.0001448, "lon": -83.0263135}, "nodes": [2697234584, 3925029137, 3744651904, 2697234586, 5536161526, 5536161522, 2697234587, 2697234588, 6838217077, 2697234590, 2697234591, 3744651903, 8906088906, 3744651902, 3744651901, 8906088907, 8906088908, 8906125487, 3744651900, 8906088909, 8906088910, 2697234584], "tags": {"addr:city": "Lim\u00f3n", "addr:street": "Paseo Dr. Rub\u00e9n Uma\u00f1a Chavarr\u00eda", "amenity": "hospital", "emergency": "yes", "healthcare": "hospital", "name": "Hospital Dr. Tony Facio Castro", "operator": "CCSS", "operator:type": "public", "wikidata": "Q581167"}}, {"type": "way", "id": 264205012, "center": {"lat": 8.813761, "lon": -82.9674361}, "nodes": [2698606677, 2698606678, 2698606679, 2698606680, 6767323423, 6767323424, 2698606681, 2698606683, 2698606685, 2698606684, 2698606677], "tags": {"addr:city": "San Vito", "addr:street": "V\u00eda 237", "alt_name": "Hospital San Vito", "amenity": "hospital", "building": "no", "description": "Acuerdo de Junta Directiva CCSS, Art\u00edculo 8, sesi\u00f3n 9257, del 5 de mayo de 2022.", "emergency": "yes", "healthcare": "hospital", "name": "Hospital Juana Pirola", "operator": "CCSS", "operator:type": "public"}}, {"type": "way", "id": 266865033, "center": {"lat": 9.9992731, "lon": -84.6601395}, "nodes": [2723671151, 3269624061, 3269624062, 2723671152, 2723671153, 2723671154, 2723671155, 2723671156, 2723671151], "tags": {"addr:city": "Esp\u00edritu Santo", "amenity": "hospital", "building": "no", "emergency": "yes", "name": "Cl\u00ednica CCSS Esparza"}}, {"type": "way", "id": 276494675, "center": {"lat": 9.8609778, "lon": -84.2902985}, "nodes": [2810935706, 9586665605, 9586665604, 9586665609, 9586665608, 2810935707, 9586665607, 3342963722, 6766919816, 7367531501, 9586665610, 9586665606, 2810935706], "tags": {"addr:city": "San Antonio", "addr:street": "Ruta Nacional 239", "amenity": "hospital", "emergency": "yes", "healthcare": "hospital", "name": "Centro de Atenci\u00f3n Integral de Salud Puriscal", "operator": "CCSS", "operator:type": "public", "operator:wikidata": "Q5174896", "operator:wikipedia": "en:Costa Rican Social Security Fund", "short_name": "CAIS Puriscal"}}, {"type": "way", "id": 311996349, "center": {"lat": 7.9398203, "lon": -80.4117948}, "nodes": [3177922529, 3177922530, 3177922531, 8433312493, 3177922532, 8433312494, 3177922533, 10922432434, 3177922534, 8433312495, 3177922529], "tags": {"amenity": "hospital", "healthcare": "hospital", "name": "Policl\u00ednica San Juan De Dios"}}, {"type": "way", "id": 317878116, "center": {"lat": 7.809158, "lon": -80.5266403}, "nodes": [3242033610, 3242034912, 3242034800, 3242034937, 3242033610], "tags": {"amenity": "hospital", "building": "public", "emergency": "no", "name": "Sub Centro Salud"}}, {"type": "way", "id": 317878131, "center": {"lat": 7.7394694, "lon": -80.5482501}, "nodes": [3242034888, 3242033620, 3242034928, 3242034968, 3242033602, 3242034973, 3242033649, 3242034788, 3242034957, 3242033631, 3242034888], "tags": {"amenity": "hospital", "emergency": "no", "name": "Hospital"}}, {"type": "way", "id": 317878133, "center": {"lat": 7.7400089, "lon": -80.5480625}, "nodes": [3242034981, 3242033617, 3242034998, 3242034964, 3816945720, 3242035003, 3242034873, 3816945747, 3242033626, 3242035002, 3242034983, 3242034967, 3242033656, 3242033633, 3242035006, 3242033629, 3242034860, 3242033615, 3242034981], "tags": {"amenity": "hospital", "building": "hospital", "emergency": "yes", "name": "Hospital Luis H. Moreno"}}, {"type": "way", "id": 327351470, "center": {"lat": 9.6531665, "lon": -82.7982621}, "nodes": [3340992876, 3340992877, 3340992878, 3340992879, 3340992876], "tags": {"addr:city": "Cahuita", "addr:street": "Corredor Caribe", "amenity": "hospital", "emergency": "yes", "healthcare": "hospital", "name": "Cl\u00ednica CCSS Dra. Rosa Le\u00f3n Chang", "operator": "CCSS", "operator:type": "public", "operator:wikidata": "Q5174896"}}, {"type": "way", "id": 327510617, "center": {"lat": 9.527225, "lon": -84.3652153}, "nodes": [3342988798, 3342988799, 3342988800, 3342988801, 3342988798], "tags": {"addr:city": "Parrita", "addr:street": "Calle La Cl\u00ednica", "amenity": "hospital", "emergency": "yes", "healthcare": "hospital", "name": "Cl\u00ednica CCSS Parrita", "operator": "CCSS", "operator:type": "public", "operator:wikidata": "Q5174896", "operator:wikipedia": "en:Costa Rican Social Security Fund", "short_name": "CAIS Parrita"}}, {"type": "way", "id": 351023350, "center": {"lat": 9.6542152, "lon": -83.971215}, "nodes": [3567410798, 3567410799, 3567410800, 3567410801, 3567410802, 3567410803, 3567410804, 3567410805, 3567410806, 3567410807, 3567410808, 3567410809, 3567410798], "tags": {"addr:city": "Santa Mar\u00eda", "addr:street": "Calle 2", "amenity": "hospital", "emergency": "yes", "healthcare": "hospital", "name": "Cl\u00ednica CCSS Dota", "operator": "CCSS", "operator:type": "public", "operator:wikidata": "Q5174896"}}, {"type": "way", "id": 359249524, "center": {"lat": 9.3676036, "lon": -83.7035321}, "nodes": [3640067006, 3640067007, 9773387237, 9773387240, 3640067008, 9773387241, 3640067009, 3640067010, 3640067011, 4919903874, 4919903875, 9773373857, 3640067006], "tags": {"addr:city": "San Isidro de El General", "addr:street": "Calle 1", "amenity": "hospital", "emergency": "yes", "healthcare": "hospital", "name": "Hospital Dr. Fernando Escalante Pradilla", "operator": "CCSS", "operator:type": "public", "operator:wikidata": "Q5174896"}}, {"type": "way", "id": 369196479, "center": {"lat": 9.673392, "lon": -84.0250725}, "nodes": [3730058041, 3730058042, 3730058043, 3730058044, 3730058041], "tags": {"addr:city": "San Marcos", "amenity": "hospital", "healthcare": "hospital", "name": "CAIS Los Santos", "operator": "CCSS", "operator:type": "public", "operator:wikidata": "Q5174896", "operator:wikipedia": "en:Costa Rican Social Security Fund", "short_name": "CAIS"}}, {"type": "way", "id": 374980269, "center": {"lat": 9.949677, "lon": -84.1162509}, "nodes": [821910551, 3783625847, 3021203649, 11016355595, 11016355594, 821910513, 11016355592, 10759478061, 821910548, 6173617845, 6173617846, 821910551], "tags": {"addr:city": "San Jos\u00e9", "addr:housenumber": "0154", "addr:street": "Avenida 31", "alt_name": "Centro Nacional de Rehabilitaci\u00f3n", "amenity": "hospital", "healthcare": "hospital", "name": "Centro Nacional de Rehabilitaci\u00f3n Dr. Humberto Araya Rojas", "opening_hours": "Mo-Th 07:00-16:00; Fr 07:00-13:00", "operator": "CCSS", "operator:type": "public", "operator:wikidata": "Q5174896", "operator:wikipedia": "en:Costa Rican Social Security Fund", "phone": "22328233", "short_name": "CENARE", "wikidata": "Q5062856"}}, {"type": "way", "id": 379843423, "center": {"lat": 9.9614174, "lon": -84.0648714}, "nodes": [3831852850, 3831852851, 3831852852, 3831852853, 3831852854, 3831852855, 3831856708, 3831856709, 3831856707, 3831856706, 3831852856, 3831852957, 3831852958, 3831852959, 3831852850], "tags": {"addr:city": "Anselmo Llorente", "addr:street": "Avenida 63", "amenity": "hospital", "building": "hospital", "healthcare": "hospital", "name": "Cl\u00ednica UNIBE", "phone": "2297-6300", "source": "KG Ground Survey 2014", "website": "www.clinicaunibe.com"}}, {"type": "way", "id": 380634117, "center": {"lat": 9.9034936, "lon": -84.0690743}, "nodes": [3839561624, 3839561625, 9976055529, 9976055528, 9976055527, 9976055526, 9976055525, 3839561626, 3839561627, 3839561628, 3839561629, 3839561624], "tags": {"addr:city": "Desamparados", "addr:housenumber": "1", "amenity": "hospital", "building": "hospital", "building:levels": "2", "name": "INS Centro M\u00e9dico Regional De Desamparados", "source": "KG Ground Survey 2015"}}, {"type": "way", "id": 381113390, "center": {"lat": 9.8986008, "lon": -84.0665471}, "nodes": [3843604112, 3843604113, 3843604114, 3843604115, 3843604112], "tags": {"addr:city": "Desamparados", "addr:street": "Calle 33", "amenity": "hospital", "building": "yes", "name": "Centro Medico Familiar", "source": "KG Ground Survey 2015"}}, {"type": "way", "id": 390259453, "center": {"lat": 8.433681, "lon": -82.4300406}, "nodes": [3934197724, 8579600873, 8577396488, 3934197725, 3934197726, 3934197727, 8577396485, 8577396484, 8577396483, 8577396482, 3934197731, 8577396480, 8577396479, 3934197730, 3934197729, 3934197728, 3934197724], "tags": {"addr:city": "David", "addr:street": "Calle C Norte", "amenity": "hospital", "building": "hospital", "building:levels": "1", "healthcare": "hospital", "name": "Hospital Cooperativo", "source": "KG Ground Survey 2016"}}, {"type": "way", "id": 390336005, "center": {"lat": 8.4353732, "lon": -82.4404109}, "nodes": [3934937561, 3934937562, 3934937563, 3934937564, 3934937561], "tags": {"addr:city": "David", "amenity": "hospital", "name": "Centro Medico Mae Lewis", "source": "KG Ground Survey 2015"}}, {"type": "way", "id": 391253131, "center": {"lat": 9.9534009, "lon": -84.1904052}, "nodes": [3944626845, 3944626846, 3944626847, 3944626848, 3944626845], "tags": {"addr:city": "Pozos", "amenity": "hospital", "building": "hospital", "internet_access": "wlan", "name": "Lindora Medical Center", "name:en": "Metropolitano Lindora Hospital", "name:es": "Hospital Metropolitano Lindora", "source": "KG Ground Survey 2015"}}, {"type": "way", "id": 395163574, "center": {"lat": 9.9194725, "lon": -84.0535134}, "nodes": [3819472152, 3819510363, 3760425164, 3819510366, 3980614921, 3980614922, 3980614923, 3819472152], "tags": {"addr:city": "San Jos\u00e9", "addr:housenumber": "0012", "addr:street": "Avenida 32", "amenity": "hospital", "emergency": "no", "healthcare": "hospital", "name": "Banco Nacional de Sangre", "operator": "CCSS", "operator:type": "public", "operator:wikidata": "Q5174896", "phone": "2280-9952"}}, {"type": "way", "id": 396075909, "center": {"lat": 9.3697309, "lon": -83.7041775}, "nodes": [9740074803, 3988734731, 3988734729, 3988734732, 3988734733, 9740074803], "tags": {"addr:city": "San Isidro de El General", "addr:housenumber": "50 metros Norte del Ministerio de Salud", "addr:postcode": "11901", "addr:street": "Calle 1", "amenity": "hospital", "building": "yes", "description": "En Hospital Las Am\u00e9ricas somos una gran familia, l\u00edderes en el cuidado de la salud en la Zona Sur de Costa Rica. La calidad humana del personal se siente desde que usted cruza nuestras puertas donde recibir\u00e1 siempre atenci\u00f3n m\u00e9dica al m\u00e1s alto nivel", "email": "info@hospitallasamericas.cr", "emergency": "yes", "healthcare": "hospital", "healthcare:speciality": "audiolog\u00eda;anestesiolog\u00eda;angiolog\u00eda;vascular_perif\u00e9rico;cardiolog\u00eda;cirug\u00eda_est\u00e9tica;cirug\u00eda_reconstructiva;cirug\u00eda_ortop\u00e9dica;cirug\u00eda_general;cirug\u00eda_ginecol\u00f3gica;cirug\u00eda_oftalmolog\u00eda;cirug\u00eda;dermatolog\u00eda;est\u00e9tica;fisioterapia;rehabilitaci\u00f3n;traumatolog", "image": "https://static.wixstatic.com/media/a0edbf_a0fb00d3dc6d443b824178da61db0694~mv2.jpg/v1/fill/w_1903,h_656,al_c,q_85,usm_0.66_1.00_0.01,enc_auto/a0edbf_a0fb00d3dc6d443b824178da61db0694~mv2.jpg", "internet_access": "yes", "internet_access:fee": "customers", "internet_access:ssid": "Hospital Las Am\u00e9ricas Pacientes", "name": "Hospital Las Am\u00e9ricas", "name:es": "Hospital Las Am\u00e9ricas", "opening_hours": "24/7", "operator": "Hospital Las Am\u00e9ricas", "operator:type": "hospital", "phone": "+506 2771 7115", "source": "KG Ground Survey 2016;osm notes;gps", "website": "https://www.hospitallasamericas.com/", "wheelchair": "yes"}}, {"type": "way", "id": 421557877, "center": {"lat": 8.6737609, "lon": -83.0602798}, "nodes": [4213075394, 4213075395, 7461417104, 4213075398, 4213075399, 4213075400, 4213075394], "tags": {"addr:city": "Guaycar\u00e1", "addr:street": "Carretera Interamericana Sur", "amenity": "hospital", "emergency": "yes", "name": "Cl\u00ednica CCSS R\u00edo Claro", "operator": "CCSS"}}, {"type": "way", "id": 426931655, "center": {"lat": 7.9580287, "lon": -80.4268239}, "nodes": [4261865952, 4261865953, 4261865954, 4261865955, 4261865952], "tags": {"addr:city": "Chitr\u00e9", "amenity": "hospital", "emergency": "yes", "healthcare": "hospital", "name": "Hospital Cecilio Castillero"}}, {"type": "way", "id": 429782413, "center": {"lat": 7.7697614, "lon": -80.2758655}, "nodes": [4289654589, 4653836121, 4653836122, 4289654590, 4289654591, 4289654592, 4289654593, 4289654594, 4653836123, 4653836124, 4289654589], "tags": {"amenity": "hospital", "emergency": "yes", "name": "MINSA-CAPSI Las Tablas"}}, {"type": "way", "id": 446134379, "center": {"lat": 9.9164903, "lon": -83.8093954}, "nodes": [4434592819, 4434592820, 4434592821, 4434592822, 4434592819], "tags": {"addr:city": "Pacayas", "addr:street": "Calle 4", "amenity": "hospital", "healthcare": "hospital", "name": "Cl\u00ednica CCSS Pacayas"}}, {"type": "way", "id": 459235603, "center": {"lat": 8.1703391, "lon": -80.6365813}, "nodes": [4551382188, 4551382589, 4551382590, 4551382591, 4551382188], "tags": {"amenity": "hospital", "name": "Centro de Salud de La Loma"}}, {"type": "way", "id": 469581423, "center": {"lat": 7.7863024, "lon": -80.2703074}, "nodes": [4638821329, 4638821330, 4638821331, 4638821332, 4638821329], "tags": {"addr:city": "Las Tablas", "amenity": "hospital", "healthcare": "hospital", "name": "Policl\u00ednica Miguel C\u00e1rdenas"}}, {"type": "way", "id": 489126918, "center": {"lat": 9.9225303, "lon": -84.0699836}, "nodes": [4814029735, 10900639886, 4814029736, 4814029737, 10900639884, 10900639883, 4814029738, 4814029739, 4814029740, 4814029741, 9709122023, 4814029742, 4814029743, 4814029744, 4814029745, 4814029746, 4814029747, 4814029748, 4814029749, 4814029750, 4814029751, 10900639885, 4814029735], "tags": {"addr:city": "San Jos\u00e9", "addr:street": "Avenida Estado de Israel", "amenity": "hospital", "healthcare": "hospital", "name": "Centro de Desarrollo Social Dr. Guillermo Padilla Castro", "operator": "CCSS", "operator:type": "public", "operator:wikidata": "Q5174896"}}, {"type": "way", "id": 496360161, "center": {"lat": 8.2848585, "lon": -81.8743226}, "nodes": [4880701783, 4880701784, 4880701785, 4880701786, 4880701787, 4880701788, 4880701783], "tags": {"addr:city": "San F\u00e9lix", "addr:district": "San F\u00e9lix", "addr:street": "Entrada a Silim\u00edn", "amenity": "hospital", "emergency": "yes", "name": "Hospital Dr. Francisco P\u00e9rez"}}, {"type": "way", "id": 505413658, "center": {"lat": 9.9533265, "lon": -84.0423129}, "nodes": [4953728483, 4953728484, 4953728485, 4953728486, 4953728483], "tags": {"amenity": "hospital", "description": "Se hacen dictamenes m\u00e9dicos y consulta de medicina general", "email": "guerrerobarrantesm@gmail.com", "name": "Consultorio medicina mixta", "operator": "Manuel Guerero", "phone": "506 83904840"}}, {"type": "way", "id": 507370932, "center": {"lat": 9.9230343, "lon": -84.2426069}, "nodes": [5024597803, 9451534646, 9451534649, 9451534648, 9451534647, 9153724379, 4968886550, 4968886551, 9153724370, 6573195463, 4968886552, 6715004085, 9153724380, 9153724378, 5024597803], "tags": {"addr:city": "Col\u00f3n", "addr:street": "Calle Matamoros", "amenity": "hospital", "emergency": "yes", "healthcare": "hospital", "name": "Cl\u00ednica CCSS Mora", "operator": "CCSS", "operator:type": "public", "operator:wikidata": "Q5174896", "operator:wikipedia": "en:Costa Rican Social Security Fund"}}, {"type": "way", "id": 515393796, "center": {"lat": 9.7358813, "lon": -82.9706402}, "nodes": [5033497857, 8589353232, 5033497858, 5033497859, 5033497860, 5033497857], "tags": {"addr:city": "Valle La Estrella", "amenity": "hospital", "name": "Cl\u00ednica CCSS Valle La Estrella - La Fortuna", "official_name": "Cl\u00ednica CCSS La Fortuna", "operator": "CCSS", "operator:type": "public"}}, {"type": "way", "id": 531105313, "center": {"lat": 9.532449, "lon": -82.6700174}, "nodes": [5155828698, 5155828699, 5155828700, 5155828701, 5155828698], "tags": {"addr:city": "Sixaola", "addr:street": "Ruta Nacional 36", "amenity": "hospital", "name": "Cl\u00ednica CCSS Sixaola", "operator": "CCSS"}}, {"type": "way", "id": 537733426, "center": {"lat": 8.2294247, "lon": -81.8332726}, "nodes": [5206457339, 5206457340, 5206457341, 5206457342, 5206457339], "tags": {"addr:city": "Remedios", "amenity": "hospital", "healthcare": "hospital", "name": "Centro de Salud de Remedios"}}, {"type": "way", "id": 552016137, "center": {"lat": 8.0850787, "lon": -80.8885547}, "nodes": [5330314813, 5330314814, 5330314815, 5330314816, 5330314813], "tags": {"amenity": "hospital", "healthcare": "hospital", "healthcare:speciality": "general", "name": "Minsa Capsi La Mata"}}, {"type": "way", "id": 555600762, "center": {"lat": 7.9679534, "lon": -80.437968}, "nodes": [5360194508, 5360194509, 5360194510, 5360194511, 5360194508], "tags": {"amenity": "hospital", "healthcare": "hospital", "name": "Hospital El Vig\u00eda"}}, {"type": "way", "id": 599046758, "center": {"lat": 9.448231, "lon": -82.5164037}, "nodes": [5700544834, 5700544835, 5700544836, 5700544837, 5700544838, 5700544839, 5700544840, 5700544841, 5700544842, 5700544843, 5700544844, 5700544834], "tags": {"addr:city": "Changuinola", "addr:street": "Calle Central", "amenity": "hospital", "healthcare": "hospital", "name": "Hospital Ra\u00fal D\u00e1vila Mena"}}, {"type": "way", "id": 599414865, "center": {"lat": 9.2895324, "lon": -82.3992325}, "nodes": [5702777264, 5702777265, 5702777266, 6993533625, 5702777267, 5702777268, 6993533626, 5702777270, 5702777271, 5702777264], "tags": {"addr:city": "Almirante", "amenity": "hospital", "barrier": "fence", "healthcare": "hospital", "name": "Hospital El Almirante"}}, {"type": "way", "id": 599943140, "center": {"lat": 8.7915158, "lon": -82.6329689}, "nodes": [5706264475, 5706264476, 5706264477, 5706264478, 5706264475], "tags": {"addr:city": "Nueva California", "addr:street": "Calle 5a Oeste", "amenity": "hospital", "healthcare": "hospital", "name": "Hospital de Volc\u00e1n"}}, {"type": "way", "id": 605092446, "center": {"lat": 8.0151817, "lon": -81.3176173}, "nodes": [5739957943, 5739957944, 5739957945, 5739957946, 5739957947, 5739957948, 5739957949, 5739957950, 5739957951, 5739957952, 5739957943], "tags": {"addr:city": "Son\u00e1", "amenity": "hospital", "healthcare": "hospital", "name": "Hospital Ezequiel Abad\u00eda"}}, {"type": "way", "id": 605952291, "center": {"lat": 8.244067, "lon": -80.5577166}, "nodes": [5746099525, 5746099526, 5746099527, 5746099528, 5746099525], "tags": {"addr:city": "Aguadulce", "addr:street": "Avenida Alejandro Tapia", "amenity": "hospital", "healthcare": "hospital", "name": "Hospital Rafael Est\u00e9vez"}}, {"type": "way", "id": 605959795, "center": {"lat": 8.2535666, "lon": -80.5381663}, "nodes": [5746157148, 5746157149, 5746157150, 5746157151, 5746157152, 5746157153, 5746157154, 5746157155, 5746157156, 5746157157, 5746157158, 5746157159, 5746157160, 5746157161, 5746157148], "tags": {"amenity": "hospital", "healthcare": "hospital"}}, {"type": "way", "id": 606136549, "center": {"lat": 7.5432257, "lon": -80.0291267}, "nodes": [5747675572, 5747675573, 9054391227, 9054391228, 5747675574, 5747675575, 5747675572], "tags": {"addr:city": "Pedas\u00ed", "addr:street": "V\u00eda Dr. Belisario Porras", "amenity": "hospital", "healthcare": "hospital", "name": "Hospital de Pedas\u00ed"}}, {"type": "way", "id": 608950998, "center": {"lat": 8.3171108, "lon": -81.2130968}, "nodes": [5768304075, 5768304076, 5768304077, 5768304078, 5768304075], "tags": {"addr:city": "Ca\u00f1azas", "amenity": "hospital", "emergency": "yes", "healthcare": "hospital", "name": "Hospital San Francisco Javier"}}, {"type": "way", "id": 634225620, "center": {"lat": 8.8234622, "lon": -82.843824}, "nodes": [5985664836, 5985664837, 5985664838, 5985664839, 5985664840, 5985664841, 5985664842, 5985664843, 5985664844, 5985664845, 5985664846, 5985664847, 8112102572, 5985664848, 5985664849, 5985664850, 5985664851, 5985664852, 5985664853, 5985664854, 5985664836], "tags": {"amenity": "hospital", "area": "yes", "name": "Hospital de R\u00edo Sereno"}}, {"type": "way", "id": 642229347, "center": {"lat": 9.9460115, "lon": -84.188413}, "nodes": [6046680806, 6046680807, 6046680808, 6046680809, 6046680810, 6046680811, 6046680812, 6046680813, 9678782227, 9678782226, 6046680814, 6046680815, 6046680816, 6046680806], "tags": {"addr:city": "Pozos", "addr:street": "Autopista Pr\u00f3spero Fern\u00e1ndez", "amenity": "hospital", "emergency": "yes", "healthcare": "hospital", "name": "Hospital Cl\u00ednica B\u00edblica"}}, {"type": "way", "id": 653478958, "center": {"lat": 7.8227334, "lon": -80.2812335}, "nodes": [6124245296, 6124245297, 6124245298, 6124245299, 6124245300, 6124245301, 6124245302, 6124245303, 6124245304, 6124245305, 6124245296], "tags": {"amenity": "hospital", "healthcare": "hospital"}}, {"type": "way", "id": 752330016, "center": {"lat": 7.7070608, "lon": -81.2623008}, "nodes": [7031916062, 7031916063, 7031916064, 7031916065, 7031916066, 7031916067, 7031916068, 7031916069, 7031916070, 7031916071, 7031916072, 7031916073, 7031916074, 7031916075, 7031916076, 7031916077, 7031916062], "tags": {"amenity": "hospital", "building": "hospital", "building:levels": "2", "healthcare": "hospital", "name": "Centro de Salud"}}, {"type": "way", "id": 752348368, "center": {"lat": 8.1144068, "lon": -80.6704295}, "nodes": [7032050920, 7032050921, 7032050922, 7032050923, 7032050920], "tags": {"amenity": "hospital", "healthcare": "hospital", "name": "Centro de Salud"}}, {"type": "way", "id": 801743072, "center": {"lat": 8.1016135, "lon": -80.9827901}, "nodes": [7499133059, 7499133060, 7499133061, 7499133062, 7499133059], "tags": {"addr:city": "Santiago de Veraguas", "amenity": "hospital", "healthcare": "hospital"}}, {"type": "way", "id": 801743089, "center": {"lat": 8.1006735, "lon": -80.9831991}, "nodes": [7499146796, 7499146797, 7499146798, 7499146799, 7499146800, 7499146801, 7499146802, 7499146803, 7499146804, 7499146805, 7499146806, 7499146807, 7499146808, 7499146809, 7499146810, 7499146811, 7499146812, 7499146813, 7499146814, 7499146796], "tags": {"amenity": "hospital", "healthcare": "hospital", "name": "Antiguo Hospital de Santiago"}}, {"type": "way", "id": 803194017, "center": {"lat": 8.1081575, "lon": -80.9805837}, "nodes": [7513141241, 7513141242, 7513141243, 7513141244, 7513141245, 7513141246, 7513141247, 7513141248, 7513141249, 7513141250, 7513141251, 7513141252, 7513141253, 7513141254, 7513141255, 7513141256, 7513141241], "tags": {"addr:city": "Santiago de Veraguas", "amenity": "hospital", "healthcare": "hospital", "name": "Policl\u00ednica de la Caja de Seguro Social"}}, {"type": "way", "id": 823903835, "center": {"lat": 7.9417494, "lon": -80.7759495}, "nodes": [7692388196, 7692388197, 7692388198, 7692388199, 7692388196], "tags": {"addr:city": "Oc\u00fa", "addr:street": "Avenida Central", "amenity": "hospital", "healthcare": "hospital", "name": "Hospital Sergio Nu\u00f1ez"}}, {"type": "way", "id": 831060176, "center": {"lat": 9.4965816, "lon": -82.6095367}, "nodes": [7759731124, 7759731125, 7759731126, 7759731127, 7759731128, 7759731129, 7759731130, 7759731131, 7759731124], "tags": {"addr:city": "Guabito", "addr:street": "V\u00eda Changuinola - Guabito", "amenity": "hospital", "healthcare": "hospital", "name": "Policl\u00ednica de Guabito"}}, {"type": "way", "id": 903677901, "center": {"lat": 8.0440764, "lon": -80.9237386}, "nodes": [8392986024, 8392986025, 8392986026, 8392986027, 8392986028, 8392986029, 8392986030, 8392986024], "tags": {"amenity": "hospital", "healthcare": "hospital", "name": "Centro de Salud de Atalaya"}}, {"type": "way", "id": 908171703, "center": {"lat": 7.9242277, "lon": -80.3928145}, "nodes": [8432772002, 8432772001, 8432772000, 8432771999, 8420755410, 8432771998, 8420795022, 8420795023, 8432771997, 8432771996, 8433480274, 8433480273, 8433480272, 8433480271, 8432771988, 8432771989, 8432771992, 8432771990, 8432771991, 8432771994, 8432771993, 8432772002], "tags": {"amenity": "hospital", "name": "Hospital Regional de Azuero Anita Moreno", "wikidata": "Q23004913"}}, {"type": "way", "id": 911650468, "center": {"lat": 8.5131895, "lon": -80.3506592}, "nodes": [8464821540, 8464821539, 8464821538, 8464821537, 8464821536, 8464821535, 8464821534, 8464821533, 8464821532, 8464821540], "tags": {"amenity": "hospital", "healthcare": "hospital", "name": "Hospital Aquilino Tejeira", "name:zh": "Aquilino Tejeira \u533b\u9662", "operator": "Ministerio de Salud"}}, {"type": "way", "id": 911868972, "center": {"lat": 8.643203, "lon": -83.1703959}, "nodes": [8467800562, 8062578079, 8906919161, 8906919159, 8906919160, 8467800563, 8906825838, 8467800564, 1519562954, 7231286315, 1519562959, 8062578128, 8062578129, 8062578130, 8467800565, 8467800562], "tags": {"addr:city": "Golfito", "addr:street": "Calle Central", "amenity": "hospital", "emergency": "yes", "healthcare": "hospital", "name": "Hospital Manuel Mora Valverde", "operator": "CCSS", "operator:type": "public"}}, {"type": "way", "id": 944331754, "center": {"lat": 9.3619731, "lon": -82.252191}, "nodes": [8743051767, 8743060203, 9780143204, 8743060195, 2367788166, 2367793294, 8743060201, 8743060200, 8743060196, 8743051767], "tags": {"addr:city": "Bocas del Toro", "addr:postcode": "010101", "amenity": "hospital", "emergency": "yes", "healthcare": "hospital", "healthcare:speciality": "general;emergency;vaccination;radiology;maternity;internal", "name": "Hospital Guillermo S\u00e1nchez Borb\u00f3n", "operator": "MINSA", "operator:type": "government", "wheelchair": "yes"}}, {"type": "way", "id": 970229886, "center": {"lat": 8.1183983, "lon": -80.9657353}, "nodes": [8978538830, 8978538829, 8978538828, 8978538827, 8978538826, 8978538825, 8978538824, 8978538823, 8978538830], "tags": {"amenity": "hospital", "name": "Centro de Salud de Canto del Llano"}}, {"type": "way", "id": 1015988289, "center": {"lat": 9.8645774, "lon": -83.9374248}, "nodes": [9371324976, 9371324977, 9371324978, 9371324979, 9371324980, 9371324981, 9371324982, 9371324983, 9371324984, 9371324985, 9371324986, 9371324987, 9371324988, 9371324989, 9371324990, 9371324991, 9371324992, 9371324993, 9371324976], "tags": {"amenity": "hospital", "healthcare": "hospital", "name": "Cuidados Paliativos HMP", "operator": "HMP"}}, {"type": "way", "id": 1115326316, "center": {"lat": 8.5210396, "lon": -82.6381636}, "nodes": [10200522930, 10200522931, 10200522932, 10200522933, 10200522930], "tags": {"amenity": "hospital", "healthcare": "hospital", "name": "Policlinica Pablo Espinosa"}}, {"type": "way", "id": 1168011056, "center": {"lat": 9.9368003, "lon": -84.0695075}, "nodes": [10862788712, 10862788713, 10862788714, 10862788715, 10862788712], "tags": {"addr:city": "San Jos\u00e9", "addr:housenumber": "0130", "addr:street": "Calle 17 Clorito Picado", "amenity": "hospital", "emergency": "yes", "healthcare": "hospital", "name": "Hospital Dr. Rafael \u00c1ngel Calder\u00f3n Guardia", "operator": "CCSS", "operator:type": "public", "operator:wikidata": "Q5174896", "short_name": "HCG", "wikidata": "Q5902837", "wikipedia": "es:Hospital Rafael \u00c1ngel Calder\u00f3n Guardia"}}, {"type": "way", "id": 1168131323, "center": {"lat": 9.935156, "lon": -84.068905}, "nodes": [5927438749, 5927341393, 5927341392, 9407626287, 10863625690, 10862617003, 9407626284, 9407626285, 813800531, 3750912884, 3750912883, 5927438693, 3750912882, 3750912881, 3750912880, 5927438743, 5927438744, 5927438745, 813800536, 5927438749], "tags": {"addr:city": "San Jos\u00e9", "amenity": "hospital", "emergency": "yes", "healthcare": "hospital", "operator": "CCSS", "operator:wikidata": "Q5174896"}}, {"type": "relation", "id": 8825060, "center": {"lat": 9.9758639, "lon": -84.3831083}, "members": [{"type": "way", "ref": 635317474, "role": "outer"}, {"type": "way", "ref": 635317467, "role": "inner"}, {"type": "way", "ref": 635317468, "role": "inner"}, {"type": "way", "ref": 635317469, "role": "inner"}, {"type": "way", "ref": 635317470, "role": "inner"}], "tags": {"addr:city": "Atenas", "addr:street": "Avenida 8", "amenity": "hospital", "emergency": "yes", "healthcare": "hospital", "name": "Cl\u00ednica CCSS Atenas", "operator": "CCSS", "operator:type": "public", "operator:wikidata": "Q5174896", "operator:wikipedia": "en:Costa Rican Social Security Fund", "type": "multipolygon"}}, {"type": "relation", "id": 11993942, "center": {"lat": 8.4312187, "lon": -82.4325505}, "members": [{"type": "way", "ref": 378531705, "role": "outer"}, {"type": "way", "ref": 882399895, "role": "inner"}], "tags": {"addr:city": "David", "amenity": "hospital", "building": "hospital", "building:levels": "3", "emergency": "yes", "healthcare": "hospital", "name": "Hospital Chiriqu\u00ed", "type": "multipolygon"}}, {"type": "relation", "id": 12377369, "center": {"lat": 9.9746944, "lon": -84.7513608}, "members": [{"type": "way", "ref": 99659879, "role": "outer"}, {"type": "way", "ref": 911865653, "role": "outer"}, {"type": "way", "ref": 236951051, "role": "outer"}], "tags": {"addr:city": "Chacarita", "addr:street": "Transversal 202", "amenity": "hospital", "emergency": "yes", "healthcare": "hospital", "layer": "1", "name": "Hospital Mons. V\u00edctor Manuel Sanabria Mart\u00ednez", "operator": "CCSS", "operator:type": "public", "operator:wikidata": "Q5174896", "operator:wikipedia": "en:Costa Rican Social Security Fund", "type": "multipolygon"}}, {"type": "relation", "id": 12875019, "center": {"lat": 8.0765446, "lon": -80.9372891}, "members": [{"type": "way", "ref": 957255388, "role": "outer"}, {"type": "way", "ref": 545015993, "role": "outer"}], "tags": {"amenity": "hospital", "healthcare": "hospital", "name": "Hospital Dr. Luis \"Chicho\" F\u00e1brega", "operator": "MINSA", "type": "multipolygon"}}]}