{"version": 0.6, "generator": "Overpass API 0.7.61.5 4133829e", "osm3s": {"timestamp_osm_base": "2023-10-31T20:52:36Z", "copyright": "The data included in this document is from www.openstreetmap.org. The data is made available under ODbL."}, "elements": [{"type": "node", "id": 1319904966, "lat": 5.5633848, "lon": 117.9785183, "tags": {"amenity": "hospital", "name": "Kinabatangan Hospital"}}, {"type": "node", "id": 1440386831, "lat": 0.8695012, "lon": 112.9235302, "tags": {"amenity": "hospital", "name": "RSUD Dr. Achmad Diponegoro"}}, {"type": "node", "id": 1631259169, "lat": 5.3509606, "lon": 115.7405925, "tags": {"amenity": "hospital", "healthcare": "hospital", "name": "Hospital Beaufort", "name:zh": "\u4fdd\u4f5b\u533b\u9662", "operator": "Kementerian Kesihatan Malaysia", "operator:type": "government", "operator:wikidata": "Q4294352", "operator:wikipedia": "en:Ministry of Health (Malaysia)", "wikidata": "Q12687819", "wikipedia": "ms:Hospital Beaufort"}}, {"type": "node", "id": 2295360533, "lat": 2.1465285, "lon": 117.492523, "tags": {"amenity": "hospital"}}, {"type": "node", "id": 2427779632, "lat": 1.2344314, "lon": 111.4624482, "tags": {"amenity": "hospital", "emergency": "yes", "healthcare": "hospital", "name": "Hospital Sri Aman"}}, {"type": "node", "id": 2445304105, "lat": 2.5225347, "lon": 111.4132704, "tags": {"amenity": "hospital", "emergency": "yes", "name": "Hospital Daro"}}, {"type": "node", "id": 2445324703, "lat": 2.1332047, "lon": 111.4929196, "tags": {"amenity": "hospital", "emergency": "yes", "name": "Hospital Sarikei"}}, {"type": "node", "id": 2445324704, "lat": 1.3744174, "lon": 111.5737416, "tags": {"amenity": "hospital", "emergency": "yes", "name": "Hospital Betong"}}, {"type": "node", "id": 2445324705, "lat": 1.3695436, "lon": 110.7858804, "tags": {"amenity": "hospital", "emergency": "yes", "name": "Hospital Simunjan", "operator": "Government", "operator:type": "public"}}, {"type": "node", "id": 2463529040, "lat": 2.9022433, "lon": 112.0773264, "tags": {"amenity": "hospital", "emergency": "yes", "name": "Hospital Mukah"}}, {"type": "node", "id": 2464942604, "lat": 1.4640562, "lon": 110.3292597, "tags": {"amenity": "hospital", "emergency": "no", "healthcare": "hospital", "name": "Hospital Sentosa"}}, {"type": "node", "id": 2467227887, "lat": 5.9281584, "lon": 116.0771362, "tags": {"amenity": "hospital", "name": "Klinik Kissey"}}, {"type": "node", "id": 2467227890, "lat": 5.9279017, "lon": 116.0767683, "tags": {"amenity": "hospital", "name": "Klinik & Surgeri Dr. Goh"}}, {"type": "node", "id": 2467227891, "lat": 5.9280501, "lon": 116.076792, "tags": {"amenity": "hospital", "name": "Klinik & Surgeri Noosob"}}, {"type": "node", "id": 2476436164, "lat": 5.9569188, "lon": 116.0721217, "tags": {"amenity": "hospital", "emergency": "yes", "healthcare": "hospital", "name": "Jabatan Kecemasan QEH"}}, {"type": "node", "id": 2509028121, "lat": 5.8923677, "lon": 116.0467656, "tags": {"amenity": "hospital", "healthcare": "hospital", "name": "Klinik Bumiputera"}}, {"type": "node", "id": 2678583827, "lat": 0.4971992, "lon": 117.5363317, "tags": {"amenity": "hospital", "name": "PMI"}}, {"type": "node", "id": 2744201896, "lat": 2.2670491, "lon": 111.8635794, "tags": {"amenity": "hospital", "name": "1 Malaysia Clinic"}}, {"type": "node", "id": 2896510869, "lat": 5.7268468, "lon": 115.92382, "tags": {"amenity": "hospital", "name": "Hospital Daerah Papar"}}, {"type": "node", "id": 3247816108, "lat": 5.0045834, "lon": 115.9226878, "tags": {"amenity": "hospital", "emergency": "yes", "name": "Klinik Kesihatan Paal", "operator": "Jabatan Kesihatan Malaysia"}}, {"type": "node", "id": 4021991198, "lat": 4.4829151, "lon": 118.6042341, "tags": {"amenity": "hospital", "healthcare": "hospital", "name": "Hospital Semporna", "name:en": "Semporna Hospital", "name:ms": "Hospital Semporna"}}, {"type": "node", "id": 4180503525, "lat": 1.7477089, "lon": 111.3404994, "tags": {"amenity": "hospital", "name": "Hospital Saratok"}}, {"type": "node", "id": 4238755390, "lat": 3.7405136, "lon": 115.4678128, "tags": {"amenity": "hospital"}}, {"type": "node", "id": 4249952490, "lat": 6.0881654, "lon": 116.100492, "tags": {"addr:postcode": "88846", "addr:street": "Pangkalan TLDM Kota Kinabalu", "amenity": "hospital", "healthcare": "hospital", "name": "Hospital Angkatan Tentera Wilayah Kota Kinabalu (HATWKK)"}}, {"type": "node", "id": 4519827891, "lat": 0.7563958, "lon": 110.5851718, "tags": {"addr:postcode": "78554", "addr:street": "Jalan Bonuo Mawa No. 2, Kec. Noyan", "amenity": "hospital", "name": "Puskesmas Noyan", "opening_hours": "Mo-Fr 07:30-01:00", "website": "http://puskesmasnoyan.blogspot.co.id"}}, {"type": "node", "id": 4563026189, "lat": 4.5853689, "lon": 114.217981, "tags": {"amenity": "hospital", "name": "xray,jln setia negara,kuala belait", "name:en": "xray,jln setia negara,kuala belait"}}, {"type": "node", "id": 4691643890, "lat": 0.986975, "lon": 117.9753876, "tags": {"amenity": "hospital", "name": "Rumah Sakit Pratama Sangkulirang"}}, {"type": "node", "id": 4708405813, "lat": 4.9499544, "lon": 114.8314317, "tags": {"amenity": "hospital", "name:en": "The Brunei Cancer Centre", "name:ms": "Pusat Kanser Brunei", "short_name": "BNCC", "short_name_1": "TBCC"}}, {"type": "node", "id": 4708405814, "lat": 4.9502857, "lon": 114.831818, "tags": {"amenity": "hospital", "name:en": "Brunei Neuroscience, Stroke and Rehabilitation Centre", "name:ms": "Pusat Sains Neuro, Strok dan Rehabilitasi Brunei", "short_name": "BNSRC"}}, {"type": "node", "id": 4723539711, "lat": 4.9484724, "lon": 114.8302235, "tags": {"amenity": "hospital", "name": "Gleneagles JPMC", "website": "https://gleneaglesjpmc.com.bn/", "wikidata": "Q47085107"}}, {"type": "node", "id": 4746303827, "lat": 5.5104, "lon": 118.2869814, "tags": {"amenity": "hospital"}}, {"type": "node", "id": 5031399386, "lat": 3.2944703, "lon": 117.6268998, "tags": {"addr:city": "Kota Tarakan", "addr:street": "Jl. Sei. Sembakung", "amenity": "hospital", "description": "ini merupakan lokasi puskesmas yang baru, terletak sekiter 500m dari puskesmas yang lama", "emergency": "yes", "fax": "055121794", "name": "Puskesmas Mamburungan", "operator": "Dinas Kesehatan Kota Tarakan"}}, {"type": "node", "id": 5031399387, "lat": 3.2975562, "lon": 117.6022271, "tags": {"addr:city": "Tarakan", "addr:housenumber": "No. 05 c", "addr:street": "Jl. Pangeran Antasari", "amenity": "hospital", "emergency": "yes", "name": "Puskesmas Gunung Lingkas", "operator": "Dinas Kesehatan Kota Tarakan"}}, {"type": "node", "id": 5031399388, "lat": 3.2967341, "lon": 117.5940302, "tags": {"amenity": "hospital", "name": "Puskesmas Sebengkok", "operator": "Dinas Kesehatan Kota Tarakan"}}, {"type": "node", "id": 5031399389, "lat": 3.3059523, "lon": 117.5851535, "tags": {"amenity": "hospital", "name": "Puskesmas Rarang Rejo", "operator": "Dinas Kesehatan Kota Tarakan"}}, {"type": "node", "id": 5764870953, "lat": 5.9856141, "lon": 116.0773705, "tags": {"amenity": "hospital", "healthcare": "hospital"}}, {"type": "node", "id": 5884155191, "lat": 2.1986797, "lon": 116.7001871, "tags": {"amenity": "hospital", "healthcare": "hospital", "name": "Poskesdes"}}, {"type": "node", "id": 5884170565, "lat": 2.2003093, "lon": 116.6989483, "tags": {"amenity": "hospital", "healthcare": "hospital", "name": "Puskesmas"}}, {"type": "node", "id": 6147237286, "lat": 5.5846641, "lon": 117.8506346, "tags": {"amenity": "hospital", "name": "Hospital Kota Kinabatangan", "opening_hours": "24/7"}}, {"type": "node", "id": 6147237287, "lat": 5.4914859, "lon": 117.840108, "tags": {"amenity": "hospital", "name": "Klinik Kesihatan Bukit Garam", "opening_hours": "Mo-Fr 08:00-17:00"}}, {"type": "node", "id": 7363711424, "lat": 2.830158, "lon": 117.3808, "tags": {"amenity": "hospital", "healthcare": "hospital", "name": "RSU Tanjung Selor"}}, {"type": "node", "id": 7413739479, "lat": 6.9077929, "lon": 116.83781, "tags": {"addr:city": "Kudat", "amenity": "hospital", "healthcare": "hospital", "name": "Hospital Kudat", "wikidata": "Q12687856"}}, {"type": "node", "id": 7587051900, "lat": 4.9801692, "lon": 117.8572761, "tags": {"amenity": "hospital", "healthcare": "hospital", "name": "Infapro", "website": "https://www.bikeandtours.com/en/malaysia/sabah/borneo-east-sabah/danum-valley-conservation-area"}}, {"type": "node", "id": 7848627102, "lat": 4.6774473, "lon": 118.2320309, "tags": {"amenity": "hospital", "contact:fax": "+6089853285", "contact:phone": "+6089894100", "contact:website": "http://hospital.com.my/directory/Sabah/public/Hospital_Kunak.htm", "name": "Kunak Hospital"}}, {"type": "node", "id": 8086065652, "lat": 0.2087035, "lon": 116.3063225, "tags": {"amenity": "hospital", "healthcare": "hospital", "healthcare:speciality": "general", "name": "Puskesmas Pembantu Desa Kelekat", "operator": "Esshy Edmeyzella, Amd.Keb", "operator:type": "government_facility-public"}}, {"type": "node", "id": 8123306992, "lat": 4.5838302, "lon": 114.1994055, "tags": {"amenity": "hospital", "healthcare": "hospital", "name": "Out Patient Department"}}, {"type": "node", "id": 8123306994, "lat": 4.5834142, "lon": 114.1991346, "tags": {"amenity": "hospital", "healthcare": "hospital", "name": "Finance"}}, {"type": "node", "id": 8123306996, "lat": 4.5831531, "lon": 114.1994704, "tags": {"amenity": "hospital", "healthcare": "hospital", "name": "Physician's Clinic"}}, {"type": "node", "id": 8123310823, "lat": 4.5827667, "lon": 114.1990983, "tags": {"amenity": "hospital", "healthcare": "hospital", "name": "Women's Section"}}, {"type": "node", "id": 8123983226, "lat": 4.5837102, "lon": 114.199889, "tags": {"amenity": "hospital", "emergency": "yes", "healthcare": "hospital", "name": "Accident and Emergency Department"}}, {"type": "node", "id": 8165468673, "lat": 4.8890245, "lon": 114.8980642, "tags": {"addr:city": "Bandar Seri Begawan", "addr:housenumber": "The Walk", "addr:postcode": "BE1118", "addr:street": "Jalan Gadong", "amenity": "hospital", "healthcare": "clinic", "healthcare:speciality": "clinic", "name": "E.R. Clinic", "phone": "245 0870"}}, {"type": "node", "id": 8223531517, "lat": 9.021484, "lon": 117.6510129, "tags": {"amenity": "hospital", "name": "Rizal Lying In"}}, {"type": "node", "id": 8223531617, "lat": 9.0208675, "lon": 117.651285, "tags": {"amenity": "hospital", "name": "Dr. Jose Rizal District Hospital"}}, {"type": "node", "id": 8855586694, "lat": 2.1376631, "lon": 117.4229429, "tags": {"amenity": "hospital", "healthcare": "hospital", "name": "Puskesmas Teluk Bayur"}}, {"type": "node", "id": 8927023421, "lat": 6.5324639, "lon": 118.502977, "tags": {"addr:street": "Mambahenauhan PHILIPPINES ISLAND Tawi Tawi PHL", "amenity": "hospital", "name": "Mambahenauhan", "name:en": "Mambahenauhan PHILIPPINES ISLAND"}}, {"type": "node", "id": 8927023921, "lat": 6.8709409, "lon": 118.3949369, "tags": {"addr:street": "Muligi Mihi PHILIPPINES ISLAND Tawi Tawi PHL", "amenity": "hospital", "name": "Muligi Mihi P", "name:en": "Muligi Mihi PHILIPPINES ISLAND"}}, {"type": "node", "id": 8927023922, "lat": 4.7089118, "lon": 119.031228, "tags": {"addr:street": "Panguan PHILIPPINES ISLAND Tawi Tawi", "amenity": "hospital", "name": "Pangu", "name:en": "Panguan PHILIPPINES ISLAND"}}, {"type": "node", "id": 8927074517, "lat": 7.4579038, "lon": 117.2242193, "tags": {"addr:street": "South Mangsee PHILIPPINES ISLAND PALAWAN PHILIPPINES", "amenity": "hospital", "name": "South Mangsee PHILIPPINES ISLAND"}}, {"type": "node", "id": 8940245238, "lat": 1.3515582, "lon": 117.658437, "tags": {"amenity": "hospital", "healthcare": "hospital", "name": "Apotik Bidan Rusda"}}, {"type": "node", "id": 8984337017, "lat": 4.3808203, "lon": 113.9849246, "tags": {"addr:street": "Miri\u2013Bintulu", "amenity": "hospital", "internet_access": "wlan", "name": "Borneo Medical Center", "opening_hours": "24/7"}}, {"type": "node", "id": 9323428984, "lat": 4.8162255, "lon": 114.6631339, "tags": {"abbr_name": "NIC", "amenity": "hospital", "healthcare": "hospital", "healthcare:speciality": "isolation_ward", "name": "National Isolation Centre", "name:en": "National Isolation Centre", "name:ms": "Pusat Pengasingan Kebangsaan", "operator": "Ministry of Health", "operator:type": "government"}}, {"type": "node", "id": 9326427040, "lat": 4.8158287, "lon": 114.661661, "tags": {"abbr_name": "NICE", "amenity": "hospital", "healthcare": "hospital", "healthcare:speciality": "isolation_ward", "name": "National Isolation Centre Extension"}}, {"type": "node", "id": 9507103342, "lat": 0.504687, "lon": 117.534769, "tags": {"amenity": "hospital", "healthcare": "hospital", "name": "IGD RS Meloy"}}, {"type": "node", "id": 9742314309, "lat": 9.928291, "lon": 115.5334774, "tags": {"amenity": "hospital", "healthcare": "hospital"}}, {"type": "node", "id": 9861577510, "lat": 6.0731517, "lon": 116.8005706, "tags": {"amenity": "hospital", "healthcare": "hospital", "name": "Klinik Kesihatan Kg. Perancangan, Ranau"}}, {"type": "node", "id": 9957564839, "lat": 5.1233051, "lon": 115.9412663, "tags": {"amenity": "hospital", "healthcare": "hospital", "name": "Hospital Tenom"}}, {"type": "node", "id": 9971957289, "lat": 4.2470457, "lon": 117.8837331, "tags": {"amenity": "hospital", "healthcare": "hospital", "name": "KMI Tawau Medical Centre"}}, {"type": "way", "id": 45895096, "center": {"lat": 4.8931967, "lon": 114.9323994}, "nodes": [583518151, 585017061, 585017068, 585017071, 4705275743, 585017074, 585017077, 585017079, 9022038273, 585017082, 9022038271, 585017086, 3157787461, 9022038238, 9022038237, 585017096, 585017097, 585017099, 585017103, 585017106, 585017111, 3158077621, 9022038236, 585017115, 585017117, 3158077641, 1012295610, 3158077655, 583518148, 583518149, 8414035264, 8414035263, 8414035262, 583518150, 583518151], "tags": {"addr:postcode": "BA1710", "amenity": "hospital", "emergency": "yes", "healthcare": "hospital", "name": "Hospital RIPAS", "name:en": "Raja Isteri Pengiran Anak Saleha Hospital", "name:ms": "Hospital Raja Isteri Pengiran Anak Saleha", "official_name": "Hospital Raja Isteri Pengiran Anak Saleha", "official_name:en": "Raja Isteri Pengiran Anak Saleha Hospital", "wikidata": "Q7285454"}}, {"type": "way", "id": 105504045, "center": {"lat": 9.7478374, "lon": 118.7444822}, "nodes": [7039937785, 1215068567, 5754260321, 5754317824, 1215068134, 2965646579, 5754317823, 1215067769, 7039937785], "tags": {"addr:city": "Puerto Princesa City", "addr:housenumber": "220", "addr:postcode": "5300", "addr:street": "Malvar St", "alt_name": "Palawan Provincial Hospital", "amenity": "hospital", "contact:phone": "+63920 4408720;+6348 4346864;+6348 4342148", "healthcare": "hospital", "name": "Ospital ng Palawan", "operator": "Department of Health", "operator:type": "government"}}, {"type": "way", "id": 131832454, "center": {"lat": 5.9664192, "lon": 116.0937963}, "nodes": [1450271010, 2483700122, 2483700120, 1450271012, 1450271001, 1450270996, 1450270995, 1450270999, 1450271000, 2483704662, 2483700081, 2483700080, 1450271019, 1450271002, 1450271010], "tags": {"amenity": "hospital", "building": "yes", "emergency": "yes", "healthcare": "hospital", "name": "Queen Elizabeth Hospital 2"}}, {"type": "way", "id": 149164167, "center": {"lat": 5.9565847, "lon": 116.0737364}, "nodes": [1621802055, 1621802088, 8560183625, 8560183626, 1621802083, 8560183624, 1621802043, 1621802081, 8560183650, 1621802085, 8560183648, 8560183649, 1621802080, 1621802039, 1621802067, 1621802058, 1621802056, 8560183627, 8560183628, 8560183629, 8560183630, 1621802095, 8560183631, 8560183632, 8560183633, 8560183634, 8560183635, 8560183636, 8560183637, 8560183638, 8560183639, 8560183640, 8560183641, 8560183642, 8560183643, 1621802051, 8560183644, 8560183646, 8560183647, 8560183645, 8560183657, 8560183656, 8560183655, 8560183654, 8560183653, 8560183652, 8560183651, 1621802055], "tags": {"amenity": "hospital", "emergency": "yes", "healthcare": "hospital", "name": "Queen Elizabeth Hospital", "wikidata": "Q7270341"}}, {"type": "way", "id": 149165320, "center": {"lat": 1.5430464, "lon": 110.3394122}, "nodes": [1621805942, 2422551323, 8496689108, 8496689107, 2422551326, 8496689106, 8496689105, 2422551325, 2422549033, 8496689104, 2422549041, 2422549037, 1621805989, 1621805990, 8496712325, 1621805946, 8496712324, 2422549039, 8496712323, 1621805975, 8496712322, 2422549035, 1621805973, 8496712321, 1621805970, 1621805991, 3622821704, 3622821703, 3622821702, 8496712320, 3622821705, 1621805992, 8496712319, 8496712318, 1621805964, 8496712317, 1621805995, 8496689116, 1621805968, 1621805966, 8496689115, 1621805987, 8496689114, 1621805977, 8496689113, 1621805962, 1621805996, 8496689112, 1621805961, 8496689111, 1621805948, 1621805971, 8496689110, 1621805960, 8496689109, 1621805942], "tags": {"amenity": "hospital", "emergency": "yes", "healthcare": "hospital", "int_name": "Sarawak General Hospital", "name": "Hospital Umum Sarawak", "name:zh": "\u7802\u62c9\u8d8a\u4e2d\u592e\u533b\u9662", "operator": "Kementerian Kesihatan Malaysia", "operator:wikidata": "Q4294352", "operator:wikipedia": "en:Ministry of Health (Malaysia)", "source": "Bing", "wikidata": "Q7423421", "wikimedia_commons": "Category:Sarawak General Hospital", "wikipedia": "en:Sarawak General Hospital"}}, {"type": "way", "id": 237890926, "center": {"lat": 5.9670049, "lon": 116.0929442}, "nodes": [2457630674, 2457630676, 10177423724, 10177423723, 2457630673, 9134067430, 9134732090, 2457630675, 10177423721, 10177423722, 2457630674], "tags": {"amenity": "hospital", "emergency": "yes", "healthcare": "hospital", "name": "KPJ Medical Specialist Center"}}, {"type": "way", "id": 238049616, "center": {"lat": 5.9468879, "lon": 116.0894653}, "nodes": [2450053696, 2459168989, 2459168990, 2450053697, 2450053696], "tags": {"addr:city": "Kota Kinabalu", "amenity": "hospital", "building": "yes", "healthcare": "hospital", "name": "Permai Polyclinic"}}, {"type": "way", "id": 240615908, "center": {"lat": 5.9682941, "lon": 116.064054}, "nodes": [5265792188, 2483367846, 10110473747, 8475129966, 8475129964, 2483367847, 2483367848, 8475129965, 2483367849, 2483367850, 5965522936, 8475129970, 8475129968, 8475129969, 8475129967, 5265792188], "tags": {"amenity": "hospital", "building": "yes", "healthcare": "hospital", "name": "Gleneagles Kota Kinabalu", "wikidata": "Q28128914"}}, {"type": "way", "id": 253738018, "center": {"lat": 6.4570528, "lon": 116.7738957}, "nodes": [2596238154, 2596238150, 2596238153, 2596238152, 2596238151, 2596238149, 2596238154], "tags": {"amenity": "hospital", "emergency": "yes", "healthcare": "hospital", "name": "Hospital Kota Marudu"}}, {"type": "way", "id": 258088118, "center": {"lat": 2.1028938, "lon": 112.1517568}, "nodes": [4782246605, 8121871156, 8121871153, 2634992988, 2634992989, 2634992994, 2634992993, 2634992992, 4782246603, 4782246604, 4782246605], "tags": {"addr:city": "Kanowit", "addr:housename": "Hospital Daerah Kanowit", "addr:postcode": "96700", "amenity": "hospital", "emergency": "yes", "healthcare": "hospital", "name": "Hospital Kanowit", "name:zh": "\u52a0\u62ff\u9038\u533b\u9662", "wikidata": "Q12687849", "wikipedia": "ms:Hospital Kanowit"}}, {"type": "way", "id": 262501076, "center": {"lat": 0.4933184, "lon": 117.5279154}, "nodes": [2681709523, 2681709524, 9494195462, 2681709525, 2681709526, 2681709527, 9494195463, 9494195464, 2681709528, 2681709529, 2681709530, 2681709531, 2681709532, 2681709533, 2681709534, 9494195458, 9494195459, 9494195460, 9494195461, 2681709523], "tags": {"amenity": "hospital", "healthcare": "hospital", "name": "Rumah Sakit Pupuk Kaltim Prima Sangata"}}, {"type": "way", "id": 262501637, "center": {"lat": 0.5313267, "lon": 117.5656353}, "nodes": [2681713739, 2681713740, 2681713741, 9507154123, 2681713742, 9507154120, 9507154121, 9507154122, 2681713739], "tags": {"amenity": "hospital", "healthcare": "hospital", "name": "RSUD Kudungga"}}, {"type": "way", "id": 262797501, "center": {"lat": 4.4113847, "lon": 114.0019106}, "nodes": [2684565577, 8323354025, 8323354024, 2684565578, 8323354022, 2684565576, 8323354023, 2684565575, 2684565577], "tags": {"amenity": "hospital", "building": "yes", "healthcare": "hospital", "name": "Columbia Asia Hospital"}}, {"type": "way", "id": 263617147, "center": {"lat": 1.5781088, "lon": 110.3288926}, "nodes": [2692404345, 8478096440, 8478096441, 2692401154, 2692401152, 2692401150, 2692404342, 2692404344, 2692404341, 2692404347, 8478096438, 2692404348, 7768329591, 2692404343, 2692402762, 2692404345], "tags": {"amenity": "hospital", "emergency": "yes", "name": "Normah Medical Specialist Centre (NMSC)"}}, {"type": "way", "id": 264056358, "center": {"lat": 4.7655685, "lon": 115.0191928}, "nodes": [5743627287, 5743627286, 5743627285, 5743627284, 5743627280, 5743627283, 5743627282, 5743627281, 5743627287], "tags": {"amenity": "hospital", "emergency": "yes", "healthcare": "hospital", "name": "Hospital Limbang", "name:zh": "\u6797\u68a6\u533b\u9662", "operator": "Kementerian Kesihatan Malaysia", "operator:wikidata": "Q4294352"}}, {"type": "way", "id": 269798302, "center": {"lat": 1.5216543, "lon": 110.3384507}, "nodes": [2749355953, 2749355958, 2749355949, 2749355945, 2749355959, 2749355950, 2749355946, 2749355955, 2749355954, 2749355956, 2749355951, 2749355947, 2749355953], "tags": {"amenity": "hospital", "building": "yes", "emergency": "yes", "healthcare": "hospital", "name": "Timberland Medical Centre"}}, {"type": "way", "id": 270520220, "center": {"lat": 1.5225367, "lon": 110.3131492}, "nodes": [2755474880, 2755474883, 2755474884, 2755474881, 2755474882, 2755474886, 2755474879, 2755474885, 2755474880], "tags": {"amenity": "hospital", "name": "Klinik Kesihatan Batu Kawa"}}, {"type": "way", "id": 272242888, "center": {"lat": 1.529202, "lon": 110.3577458}, "nodes": [2771993487, 2771993482, 2771993488, 8485782424, 2771935061, 8485782425, 2771993480, 2771993484, 2771993481, 2771993485, 2771993486, 2771993487], "tags": {"amenity": "hospital", "emergency": "yes", "healthcare": "hospital", "name": "Borneo Medical Centre", "name:zh": "\u5a46\u7f57\u6d32\u533b\u836f\u4e2d\u5fc3"}}, {"type": "way", "id": 272528987, "center": {"lat": 1.5179264, "lon": 110.3784639}, "nodes": [2774649282, 2774649285, 2774649281, 2774649283, 2774649284, 2774649287, 2774649288, 2774649286, 2774649282], "tags": {"amenity": "hospital", "building": "yes", "emergency": "yes", "healthcare": "hospital", "name": "KPJ Kuching Specialist Hospital"}}, {"type": "way", "id": 272531309, "center": {"lat": 4.3745302, "lon": 114.0006058}, "nodes": [2774667730, 2774667731, 2795749395, 2774667732, 2795749396, 2774667733, 2774667734, 2795749397, 2774667735, 2774667730], "tags": {"amenity": "hospital", "healthcare": "hospital", "name": "Hospital Miri", "name:en": "Miri General Hospital", "name:zh": "\u7f8e\u91cc\u4e2d\u592e\u533b\u9662", "operator": "Kementerian Kesihatan Malaysia", "operator:type": "government", "operator:wikidata": "Q4294352", "operator:wikipedia": "en:Ministry of Health (Malaysia)", "wheelchair": "yes"}}, {"type": "way", "id": 274474059, "center": {"lat": 9.7356041, "lon": 118.7339796}, "nodes": [2791884943, 2791884944, 2791884945, 2791884946, 2791884947, 2791884948, 2791884949, 2791884950, 2791884951, 2791884952, 2791884953, 2791884954, 2791884955, 2791884956, 2791884957, 2791884958, 2791884943], "tags": {"amenity": "hospital", "name": "MMG-PPC Cooperative Hospital"}}, {"type": "way", "id": 274474062, "center": {"lat": 9.7468717, "lon": 118.7712731}, "nodes": [2791884967, 2791884968, 2791884969, 2791884970, 2791884967], "tags": {"amenity": "hospital", "name": "Camp General Artemio Ricarte Station Hospital", "name:en": "camp site WESCOM, AFP"}}, {"type": "way", "id": 274478791, "center": {"lat": 9.4343952, "lon": 118.5495102}, "nodes": [2791925774, 2791925775, 9119652231, 2791925776, 2791925777, 2791925774], "tags": {"amenity": "hospital", "healthcare": "hospital", "name": "Aborlan Medicare Hospital"}}, {"type": "way", "id": 277974088, "center": {"lat": 4.8537994, "lon": 115.4041141}, "nodes": [2824086889, 2824086890, 2824086891, 2824086892, 2824086893, 2824086894, 2824086895, 2824086896, 2824086897, 2824086898, 2824086899, 2824086900, 2824087701, 2824087702, 2824087703, 2824087704, 2824086889], "tags": {"amenity": "hospital", "healthcare": "hospital", "name": "Hospital Besar Lawas"}}, {"type": "way", "id": 309195004, "center": {"lat": 9.7544796, "lon": 118.7464527}, "nodes": [3145252300, 3145252301, 3145252302, 3145252303, 5757467585, 5757467584, 5757467586, 5757467589, 5757467588, 5757467587, 3145252300], "tags": {"amenity": "hospital", "name": "Palawan Medical City"}}, {"type": "way", "id": 310970830, "center": {"lat": 4.9489036, "lon": 114.8304428}, "nodes": [3164763901, 3164763822, 3164763952, 3164764032, 3164764033, 3164763901], "tags": {"amenity": "hospital", "name": "Jerudong Park Medical Centre", "name:ms": "Pusat Kesihatan Jerudong Park", "phone": "+673 2611433", "short_name": "JPMC", "website": "http://www.jpmc.com.bn/", "wikidata": "Q6185042", "wikipedia": "en:Jerudong Park Medical Centre"}}, {"type": "way", "id": 320774415, "center": {"lat": 3.2298667, "lon": 113.1001733}, "nodes": [3274194185, 3274192744, 3274192745, 3274192746, 3274192747, 3274192748, 3274192749, 3274192750, 3274192751, 3274192752, 3274192753, 3274192754, 3274192755, 3274192756, 3274192757, 3274192758, 3274192759, 3274192760, 3274194561, 3274194562, 3274194563, 3274194564, 3274194565, 3274194566, 3274194567, 3274194568, 3274194569, 3274194570, 3274194571, 3274194572, 3274194573, 3274194574, 3274194575, 3274194576, 3274194577, 3274194578, 3274194579, 3274194580, 3274194581, 3274194582, 3274194583, 3274194584, 3274194585, 3274194586, 3274194587, 3274194185], "tags": {"amenity": "hospital", "healthcare": "hospital", "name": "Hospital Bintulu", "name:en": "Bintulu General Hospital"}}, {"type": "way", "id": 355068921, "center": {"lat": 1.7020322, "lon": 110.3700617}, "nodes": [3606849193, 3606849196, 3606849195, 3606849194, 3606849193], "tags": {"amenity": "hospital", "name": "Klinik Kesihatan Buntal", "source": "Bing"}}, {"type": "way", "id": 355120143, "center": {"lat": 1.6754349, "lon": 110.2084387}, "nodes": [3607245921, 3607245916, 3607245919, 3607245922, 3607245918, 3607245914, 3607245920, 3607245915, 3607245917, 3607245923, 3607245924, 3607245913, 3607245912, 3607245921], "tags": {"amenity": "hospital", "name": "Klinik Kesihatan Kampung Telaga Air", "source": "Bing"}}, {"type": "way", "id": 359691013, "center": {"lat": 6.0498486, "lon": 116.1288395}, "nodes": [3643626696, 3643626711, 3643626712, 3643626713, 3643626714, 3643626715, 3643626718, 3643626719, 3643626727, 3643626729, 3643626737, 3643626738, 3643626733, 3643626731, 3643626732, 3643626730, 3643626736, 3643626734, 3643626735, 3643626739, 3643626740, 3643626743, 3643626741, 3643626742, 3643645549, 3643570933, 3643570934, 3643570937, 3643570938, 3643570939, 3643570953, 3643570957, 3643570958, 3643570954, 3643570959, 3643570960, 3643570962, 3643626696], "tags": {"addr:city": "Kota Kinabalu", "amenity": "hospital", "healthcare": "hospital", "name": "Hospital Universiti Malaysia Sabah"}}, {"type": "way", "id": 422583468, "center": {"lat": 3.2005105, "lon": 113.0565424}, "nodes": [4834113944, 4223306472, 4223306474, 5689596620, 4223306471, 4223306473, 4223306476, 5689596619, 4834113944], "tags": {"amenity": "hospital", "healthcare": "hospital", "name": "Bintulu Medical Center"}}, {"type": "way", "id": 432973668, "center": {"lat": 4.7108663, "lon": 115.0771211}, "nodes": [4318991434, 4318991436, 4318991437, 4318991440, 4318991441, 4318991439, 4318991438, 4318991435, 4318991434], "tags": {"amenity": "hospital", "healthcare": "hospital", "name": "Hospital Pengiran Isteri Hajah Mariam", "name:en": "Pengiran Isteri Hajah Mariam Hospital", "operator": "Kementerian Kesihatan", "source": "survey", "wikidata": "Q46921203"}}, {"type": "way", "id": 492891406, "center": {"lat": 5.9541837, "lon": 116.6708954}, "nodes": [4848614076, 4848614077, 9949159494, 9949159490, 9935128494, 9949159489, 4848614078, 9935128495, 9935128493, 9935128492, 4848614079, 9935128491, 9935128490, 9935128489, 4848614080, 9935128488, 4848614081, 9935128487, 9935128486, 9935128485, 4848614082, 4848614076], "tags": {"addr:city": "Ranau", "addr:housenumber": "Hospital Ranau", "addr:postcode": "89300", "addr:street": "Jalan Hospital", "amenity": "hospital", "emergency": "no", "healthcare": "hospital", "name": "Hospital Ranau", "operator": "Kementerian Kesihatan Malaysia", "operator:wikidata": "Q4294352"}}, {"type": "way", "id": 497135622, "center": {"lat": 5.0256903, "lon": 119.7769263}, "nodes": [4887471375, 4887471370, 4887471369, 4887471374, 4887471373, 4887471372, 4887471371, 4887471375], "tags": {"addr:city": "Bongao", "addr:postcode": "7500", "amenity": "hospital", "healthcare": "hospital", "name": "Datu Halun Sakilan Memorial Hospital", "source": "Schadow1 Expeditions"}}, {"type": "way", "id": 505712823, "center": {"lat": 2.1468703, "lon": 117.4920695}, "nodes": [4955916476, 4955916477, 9494309460, 9494309459, 4955916478, 4955916479, 4955916480, 9494309463, 9494309464, 9494309465, 9494309466, 9494309462, 9494309461, 4955916476], "tags": {"amenity": "hospital", "healthcare": "hospital", "name": "Rumah Sakit Umum Daerah dr. Abdul Rivai"}}, {"type": "way", "id": 525929577, "center": {"lat": 6.3464896, "lon": 116.4258252}, "nodes": [5115483475, 5115483476, 5115483477, 5115483478, 5115483479, 5115483480, 5115483481, 5115483482, 5115483483, 5115483484, 5115483485, 5115483475], "tags": {"amenity": "hospital", "healthcare": "hospital", "name": "Hospital Daerah Kota Belud"}}, {"type": "way", "id": 534883176, "center": {"lat": 5.8937037, "lon": 117.5547453}, "nodes": [5186241441, 9933874311, 5186241443, 5186241444, 9933874312, 9933874314, 9933874315, 9933874316, 9933874317, 9933874318, 9933874319, 9933874320, 9933874321, 9933874322, 9933874323, 9933874324, 9933874325, 9933874313, 5186241445, 5186241446, 5186241448, 5186241450, 5186241441], "tags": {"addr:city": "Beluran", "alt_name": "Hospital Daerah Beluran", "amenity": "hospital", "healthcare": "hospital", "name": "Hospital Beluran", "phone": "+6089511 233"}}, {"type": "way", "id": 535210570, "center": {"lat": 5.0499402, "lon": 116.4444355}, "nodes": [5188369351, 5188369352, 5188369353, 5188369354, 5188369355, 5188369356, 5188369351], "tags": {"amenity": "hospital", "healthcare": "hospital"}}, {"type": "way", "id": 535612082, "center": {"lat": 5.3713123, "lon": 116.1814111}, "nodes": [5191039797, 9963878980, 10574720144, 5191039799, 5191039800, 5191039801, 5191039797], "tags": {"amenity": "hospital", "healthcare": "hospital", "name": "Hospital Keningau", "name:zh": "\u6839\u5730\u54ac\u533b\u9662"}}, {"type": "way", "id": 556179419, "center": {"lat": 0.4998618, "lon": 117.5376136}, "nodes": [5365287573, 5365287570, 9470857561, 5365287571, 5365287572, 5365287573], "tags": {"amenity": "hospital", "building:levels": "2", "capacity:persons": "200", "healthcare": "hospital", "hospital:type": "C", "name": "RS Pertamedika Aulia", "operator:type": "private"}}, {"type": "way", "id": 556633174, "center": {"lat": 0.1385847, "lon": 117.4651066}, "nodes": [5369437408, 5369437407, 5369437409, 5369437410, 5369437405, 5369437406, 5369437408], "tags": {"amenity": "hospital", "building:levels": "2", "healthcare": "hospital", "hospital:type": "C", "name": "RS Islam Bontang", "operator:type": "private"}}, {"type": "way", "id": 556633304, "center": {"lat": 0.1349552, "lon": 117.4911919}, "nodes": [5369438238, 5369438237, 5369438235, 5369438236, 5369438233, 5369438238], "tags": {"addr:city": "Kota Bontang", "addr:full": "Jalan Letjend R. Suprapto No 22, Bontang Baru, Kecamatan Bontang Utara", "addr:postcode": "75311", "amenity": "hospital", "building:levels": "3", "contact:fax": "(0548) 23275", "contact:phone": "(0548) 25050", "healthcare": "hospital", "hospital:type": "C", "name": "RS Amalia Bontang", "operator:type": "private"}}, {"type": "way", "id": 558550827, "center": {"lat": 0.5047389, "lon": 117.5349183}, "nodes": [5387125794, 9507103320, 9507103319, 5387125793, 5387125792, 9507103321, 5387125791, 5387125794], "tags": {"amenity": "hospital", "building:levels": "3", "healthcare": "hospital", "hospital:type": "D", "name": "RS Meloy", "operator:type": "private", "phone": "0549-24222"}}, {"type": "way", "id": 568676042, "center": {"lat": 0.5230778, "lon": 117.5280375}, "nodes": [5470743071, 5470743070, 5470743069, 5470743068, 5470743067, 5470743066, 5470743065, 5470743064, 5470743063, 5470743062, 5470743071], "tags": {"addr:full": "Jl. Yos Sudarso III No.1 Sengata", "amenity": "hospital", "healthcare": "hospital", "hospital:type": "D", "name": "RS Medika Sangatta", "operator:type": "private", "phone": "0549-23417"}}, {"type": "way", "id": 568676147, "center": {"lat": 0.5169506, "lon": 117.5350579}, "nodes": [5470744173, 5470744172, 5470744171, 5470744170, 5470744173], "tags": {"amenity": "hospital", "healthcare": "hospital", "healthcare:speciality": "maternity;paediatrics", "hospital:type": "D", "name": "RSIA Cahaya Sangatta", "operator:type": "private"}}, {"type": "way", "id": 581181857, "center": {"lat": 4.0412789, "lon": 116.9827384}, "nodes": [5561510067, 5561510064, 5561510065, 5561510066, 5561510067], "tags": {"amenity": "hospital", "healthcare": "hospital", "name": "PUSKESMAS SANUR"}}, {"type": "way", "id": 581181858, "center": {"lat": 4.041841, "lon": 116.9828576}, "nodes": [5561510071, 5561510070, 5561510069, 5561510068, 5561510071], "tags": {"amenity": "hospital", "healthcare": "hospital", "name": "UGD SANUR"}}, {"type": "way", "id": 606848976, "center": {"lat": 8.5353519, "lon": 117.4361758}, "nodes": [2428461614, 5752688613, 5752688612, 5752688611, 5752688610, 5752688609, 5752688608, 2428461614], "tags": {"addr:neighbourhood": "RTN Townsite", "addr:street": "F.P. Mamaclay Avenue", "amenity": "hospital", "contact:email": "rtnfoundation@rtnfi.nickelasia.com", "operator": "Rio Tuba Nickel Foundation", "short_name": "RTN Foundation Hospital"}}, {"type": "way", "id": 607769187, "center": {"lat": 2.7445295, "lon": 111.9466925}, "nodes": [5759180750, 5759180751, 5759180752, 5759180753, 5759180754, 5759180755, 5759180756, 5759180757, 5759180758, 5759180759, 5759180760, 5759180761, 5759180762, 5759180763, 5759180764, 5759180765, 5759180766, 5759180767, 5759180768, 7389233222, 5759180769, 5759180770, 7389233223, 5759180771, 5759180772, 7389233229, 5759180773, 5759180774, 7389233235, 5759180775, 5759180750], "tags": {"amenity": "hospital", "healthcare": "hospital", "name": "Hospital dalat"}}, {"type": "way", "id": 609501170, "center": {"lat": 8.7931754, "lon": 117.8358323}, "nodes": [5773058909, 7039925304, 7039925309, 7039925310, 7039925303, 5773058910, 5773058911, 7039925305, 7039925306, 5773058912, 7039925308, 7039925307, 5773058909], "tags": {"addr:place": "Pangobilian", "amenity": "hospital", "building": "hospital", "healthcare": "hospital", "name": "Southern Palawan Provincial Hospital"}}, {"type": "way", "id": 626648897, "center": {"lat": 6.1435221, "lon": 116.2189032}, "nodes": [5915951019, 5915951020, 5915951021, 5915951022, 5915951023, 5915951024, 5915951025, 5915951026, 5915951027, 5915951028, 5915951029, 5915951030, 5915951031, 5915951032, 5915951033, 5915951034, 5915951035, 6150706387, 5915951036, 5915951037, 5915951038, 5915951039, 5915951040, 5915951041, 5915951019], "tags": {"addr:city": "Tuaran", "addr:postcode": "89200", "amenity": "hospital", "emergency": "yes", "healthcare": "hospital", "healthcare:speciality": "general;paediatrics;surgery;emergency;radiology", "name": "Tuaran Hospital", "operator": "Ministry of Health, Malaysia"}}, {"type": "way", "id": 664575313, "center": {"lat": 4.8402441, "lon": 119.4589466}, "nodes": [6220406746, 6220406747, 6220406748, 6220406749, 6220406746], "tags": {"amenity": "hospital", "healthcare": "hospital", "name": "Datu Alawaddin Bandon Sr Memorial Hospital"}}, {"type": "way", "id": 675125970, "center": {"lat": 5.3115848, "lon": 115.23053}, "nodes": [6322616281, 6322616282, 6322616283, 6322616284, 317162487, 6322616286, 6322616287, 6322616281], "tags": {"amenity": "hospital", "healthcare": "hospital", "name": "Hospital Labuan", "name:en": "Labuan Hospital", "name:zh": "\u7eb3\u95fd\u533b\u9662", "wikidata": "Q7350224", "wikipedia": "ms:Hospital WP Labuan"}}, {"type": "way", "id": 679415462, "center": {"lat": 3.5999267, "lon": 116.9070047}, "nodes": [6362047923, 6362047920, 6362047921, 7362388370, 7362388372, 7362388371, 7362388373, 6362047922, 6362047923], "tags": {"addr:street": "Jl. A. Berahim", "amenity": "hospital", "building": "yes", "emergency": "yes", "healthcare:speciality": "general", "name": "RSUD Akhmad Berahim"}}, {"type": "way", "id": 682900494, "center": {"lat": 5.8581422, "lon": 118.1032047}, "nodes": [6396242997, 8535633326, 8535633324, 8535633325, 6396242998, 8535633323, 8535633322, 6396242999, 8535633321, 8535633320, 6396243000, 8535633319, 8535633318, 8535633317, 8535628516, 8535628509, 8535628510, 8535628511, 8535666379, 8535628512, 6396243001, 8535628513, 1774214837, 10082054353, 8535628514, 6396243002, 8535628515, 6396243003, 8535633330, 6396243006, 6396243004, 8535633329, 6396243005, 8535633328, 8535666394, 8535666400, 8535633327, 6396242997], "tags": {"amenity": "hospital", "healthcare": "hospital", "name": "Hospital Duchess of Kent", "wikidata": "Q12687832"}}, {"type": "way", "id": 684313272, "center": {"lat": 0.1806111, "lon": 117.4704333}, "nodes": [6411049927, 9496901257, 9496901256, 9496901255, 9496901254, 6411049928, 6411049932, 6411049934, 6411049933, 6411049935, 6411049929, 9722415410, 9722415409, 9496901253, 6411049930, 6411049931, 9496901252, 9496901251, 6411049927], "tags": {"amenity": "hospital", "healthcare": "hospital", "name": "RS PKT (Kaltim Medika Utama)"}}, {"type": "way", "id": 689244938, "center": {"lat": 6.1129315, "lon": 116.3252162}, "nodes": [6465873436, 6465873437, 6465873438, 6465873439, 6465873440, 6465873441, 6465873436], "tags": {"amenity": "hospital", "emergency": "no", "healthcare": "hospital", "name": "Klinik"}}, {"type": "way", "id": 689245397, "center": {"lat": 6.156465, "lon": 116.3643896}, "nodes": [6465876125, 6465876126, 6465876127, 6465876128, 6465876125], "tags": {"amenity": "hospital", "emergency": "no", "healthcare": "hospital", "name": "Klinik"}}, {"type": "way", "id": 692654482, "center": {"lat": 4.2600347, "lon": 117.914584}, "nodes": [6502816364, 6502816365, 6502816366, 6502816367, 6502816368, 6502816369, 6502816364], "tags": {"amenity": "hospital", "healthcare": "hospital", "healthcare:speciality": "general", "name": "Hospital Tawau", "name:zh": "\u6597\u6e56\u533b\u9662", "operator": "Kementerian Kesihatan Malaysia", "operator:type": "government", "operator:wikidata": "Q4294352", "operator:wikipedia": "en:Ministry of Health (Malaysia)", "wikidata": "Q12687882", "wikipedia": "ms:Hospital Tawau"}}, {"type": "way", "id": 713958431, "center": {"lat": 9.544135, "lon": 112.8881595}, "nodes": [6712239092, 6712239093, 6712239094, 6712239095, 6712239092], "tags": {"amenity": "hospital", "emergency": "yes", "healthcare": "hospital", "hospital_grade": "2A", "name": "\u6c38\u6691\u7901\u533b\u9662", "name:en": "Hospital of Yongshu Reef", "name:vi": "B\u1ec7nh vi\u1ec7n \u0110\u00e1 V\u0129nh Th\u1eed", "name:zh": "\u6c38\u6691\u7901\u533b\u9662", "name:zh-Hant": "\u6c38\u6691\u7901\u91ab\u9662"}}, {"type": "way", "id": 725275598, "center": {"lat": 3.6031108, "lon": 116.6094135}, "nodes": [6801463653, 6801463654, 6801463655, 6801463656, 9494816237, 6801463657, 9494816238, 9494816239, 9494816240, 6801463658, 6801463659, 9494816234, 6801463660, 9494816236, 9494816235, 6801463661, 6801463653], "tags": {"addr:postcode": "77554", "addr:street": "JL. Respen Tubu", "amenity": "hospital", "healthcare": "hospital", "healthcare:speciality": "general;dentistry;gynaecology;emergency;radiology;internal;surgery", "name": "RSUD MALINAU", "operator": "Goverment", "operator:type": "government"}}, {"type": "way", "id": 731922347, "center": {"lat": 2.5293974, "lon": 112.3289371}, "nodes": [6853840608, 6853840609, 6853840610, 6853840611, 6853840608], "tags": {"amenity": "hospital"}}, {"type": "way", "id": 752615906, "center": {"lat": 4.8921985, "lon": 115.2064287}, "nodes": [5509683779, 7033262530, 7033262531, 7033262532, 5509683779], "tags": {"amenity": "hospital", "healthcare": "hospital", "name": "Klinik Kesihatan Sundar"}}, {"type": "way", "id": 782883580, "center": {"lat": 3.3180371, "lon": 117.6048287}, "nodes": [7310879232, 7310879231, 7363548594, 7363548595, 7363548596, 7363548597, 7363548598, 7363548604, 7363548599, 7363548600, 7363548601, 7363548603, 7363548602, 7363548605, 7363548593, 7363548592, 7310879230, 8661770806, 7310879229, 7310879228, 9491637859, 9491637860, 9491637861, 9491637862, 9491637858, 9491637857, 9491637856, 9491637855, 7310879227, 7310879226, 7310879225, 7310879224, 7310879223, 7310879232], "tags": {"addr:city": "Tarakan", "addr:full": "Jalan Pulau Irian No.1 Tarakan Tengah", "amenity": "hospital", "emergency": "yes", "healthcare": "hospital", "name": "RSUD Dr. Jusuf SK", "operator": "Dinas Kesehatan Provinsi Kalimantan Utara", "operator:type": "government"}}, {"type": "way", "id": 787448216, "center": {"lat": 0.0782778, "lon": 111.4963225}, "nodes": [7362361383, 7362361384, 9491767927, 9491767928, 9491767929, 9491767930, 7362361383], "tags": {"addr:city": "Sintang", "addr:street": "Pattimura", "amenity": "hospital", "healthcare": "hospital", "name": "Rumah sakit umum daerah, ADE MOEHAMAD DJOEN"}}, {"type": "way", "id": 791237110, "center": {"lat": 2.83069, "lon": 117.3808211}, "nodes": [7396905726, 7396905727, 7396905728, 7396905729, 7396905730, 7396905731, 7396905732, 7396905733, 7396905726], "tags": {"addr:city": "Tanjung Selor, Kabupaten Bulungan Kalimantan Utara", "addr:housenumber": "055221118", "addr:postcode": "77212", "addr:street": "Jalan Cendrawasih", "amenity": "hospital", "emergency": "yes", "healthcare": "hospital", "healthcare:speciality": "general;emergency", "internet_access": "yes", "name": "RSU Tanjung Selor", "operator": "Pemerintah Kabupaten Bulungan", "operator:type": "government"}}, {"type": "way", "id": 841169820, "center": {"lat": 4.6769765, "lon": 118.2320735}, "nodes": [7848627023, 7848627100, 7848627101, 7848627020, 7848627015, 7848627086, 7848627087, 7848627085, 7848627014, 7848627084, 7848627021, 7848627022, 7848627059, 7848627058, 7848627016, 7848627061, 7848627062, 7848627060, 7848627017, 7848627040, 7848627042, 7848627044, 7848627064, 7848627063, 7848627045, 7848627065, 7848627066, 7848627046, 7848627067, 7848627054, 7848627068, 7848627070, 7848627071, 7848627069, 7848627056, 7848627055, 7848627050, 7848627072, 7848627073, 7848627051, 7848627052, 7848627074, 7848627075, 7848627048, 7848627076, 7848627026, 7848627079, 7848627081, 7848627028, 7848627083, 7848627057, 7848627091, 7848627092, 7848627093, 7848627090, 7848627025, 7848627024, 7848627089, 7848627018, 7848627095, 7848627094, 7848627019, 7848627088, 7848627023], "tags": {"amenity": "hospital"}}, {"type": "way", "id": 878197691, "center": {"lat": 1.1753483, "lon": 110.5631937}, "nodes": [8170511507, 8170511508, 8170511509, 8170511510, 8170511511, 8170511512, 8170511513, 8170511514, 8170511515, 8170511516, 8170511517, 8170511518, 8170511519, 8170511520, 8170511521, 8170511522, 8170511523, 8170511525, 8170511526, 8170511527, 8170511528, 8170511529, 8170511530, 8170511531, 8170511532, 8170511534, 8170511535, 8170511536, 8170511537, 8170511538, 8170511507], "tags": {"amenity": "hospital", "healthcare": "hospital", "name": "Hospital Serian", "name:zh": "\u897f\u8fde\u533b\u9662", "note": "#mapdemicutm20", "operator": "Kementerian Kesihatan Malaysia", "operator:wikidata": "Q4294352", "operator:wikipedia": "en:Ministry of Health (Malaysia)", "source": "local knowledge"}}, {"type": "way", "id": 886397852, "center": {"lat": 2.013903, "lon": 112.9426798}, "nodes": [8242277765, 8242277766, 4226396789, 8242277767, 8242277768, 8242277769, 8242277770, 8242277771, 8242277772, 8242277773, 8242277774, 8242277765], "tags": {"amenity": "hospital", "healthcare": "hospital"}}, {"type": "way", "id": 886693716, "center": {"lat": 0.1207711, "lon": 110.5892425}, "nodes": [8245112737, 8245112736, 8245112735, 8245112734, 8245112733, 8245112732, 8245112731, 8245112730, 8245112729, 8245112728, 8245112727, 8245112726, 8245112725, 8245112724, 8245112737], "tags": {"amenity": "hospital", "name": "RSUD MTH Djaman, Sanggau", "name:en": "General Hospital Sanggau"}}, {"type": "way", "id": 896444397, "center": {"lat": 5.8988092, "lon": 116.0467037}, "nodes": [8333227045, 8333227046, 8333227047, 8333227048, 8333227049, 8333227050, 8333227051, 8333227052, 8333227053, 8333227054, 8333227045], "tags": {"amenity": "hospital", "healthcare": "hospital", "name": "Klinik Kesihatan Putatan"}}, {"type": "way", "id": 905269640, "center": {"lat": 3.2331476, "lon": 113.0858715}, "nodes": [8406852716, 8406852715, 8406852714, 8406962315, 8406852713, 8406914578, 8406914579, 8406852716], "tags": {"amenity": "hospital", "healthcare": "hospital", "name": "Columbia Asia Hospital"}}, {"type": "way", "id": 912360975, "center": {"lat": 5.9703763, "lon": 116.0929934}, "nodes": [8475507638, 2458641514, 2458641504, 8475531032, 8475507637, 2458641490, 2458641499, 2458641496, 2458641482, 2458641484, 8475507636, 8475507638], "tags": {"amenity": "hospital", "healthcare": "hospital", "name": "Damai Specialist Centre"}}, {"type": "way", "id": 916165452, "center": {"lat": 1.4802075, "lon": 110.4197994}, "nodes": [8509673573, 8509673572, 8509673571, 8509673570, 8509673569, 8509673568, 8509673567, 8509673566, 8509673565, 8509673564, 8509673563, 8509673562, 8509673561, 8509673560, 8509673559, 8509673558, 8509673557, 8509673556, 8509673555, 8509673554, 8509673553, 8509673552, 8509673551, 8509673550, 8509673549, 8509673548, 8509673547, 8509673541, 8509673546, 8509673545, 8509673544, 8509673543, 8509673542, 8509673573], "tags": {"amenity": "hospital", "emergency": "yes", "name": "Pusat Jantung Sarawak (PJS)", "source": "Mapbox"}}, {"type": "way", "id": 926206089, "center": {"lat": 2.296296, "lon": 111.8917096}, "nodes": [8595174306, 8595174305, 8595174290, 8595174291, 8595174304, 8595174292, 8595174303, 8595174302, 8595174301, 8595174300, 8595174299, 8598713521, 8595174298, 8595174297, 8595174296, 8598713520, 8595174295, 8595174294, 8595174293, 2436641184, 8595174306], "tags": {"amenity": "hospital", "emergency": "yes", "healthcare": "hospital", "name": "Hospital Sibu", "name:zh": "\u8bd7\u5deb\u533b\u9662", "operator": "Kementerian Kesihatan Malaysia", "operator:wikidata": "Q4294352", "operator:wikipedia": "en:Ministry of Health (Malaysia)", "wikidata": "Q7507300", "wikimedia_commons": "Category:Sibu Hospital", "wikipedia": "en:Sibu Hospital"}}, {"type": "way", "id": 939182250, "center": {"lat": 9.76412, "lon": 118.748428}, "nodes": [8700189619, 4124619208, 2970266117, 2970266116, 2970266119, 2970266118, 8700189618, 8700189617, 2970266135, 8700180716, 5680801230, 5680801233, 8700180715, 5680801215, 5680801214, 5680801217, 8700180714, 8700180713, 8700180712, 8700180711, 4124619220, 4124619216, 8700180710, 8700180709, 8700180708, 8700180707, 8700189619], "tags": {"amenity": "hospital", "name": "Adventist Hospital Palawan"}}, {"type": "way", "id": 952492658, "center": {"lat": 4.610088, "lon": 114.3036914}, "nodes": [8815853737, 8815853738, 8815853739, 8815789760, 8815853740, 8815853741, 5022042358, 5022042359, 5022042360, 5022043640, 5022043641, 5022043642, 5022043643, 8815853737], "tags": {"amenity": "hospital", "healthcare": "hospital", "name": "Panaga Health Clinic"}}, {"type": "way", "id": 956998177, "center": {"lat": 2.1376619, "lon": 117.4229463}, "nodes": [8855586690, 8855586691, 8855586692, 8855586693, 8855586690], "tags": {"amenity": "hospital", "healthcare": "hospital", "name": "Puskesmas Teluk Bayur"}}, {"type": "way", "id": 960079605, "center": {"lat": 6.0141641, "lon": 116.1194429}, "nodes": [8882863907, 8882863908, 8882863909, 8882863910, 8882863911, 8882863912, 8882863913, 8882863914, 8882863915, 8882863916, 8882874817, 8882874818, 8882874819, 8882874820, 8882874821, 2118839517, 8882874822, 8882874823, 8882874824, 8882874825, 8882874826, 8882874827, 8882874828, 8882874829, 8882874830, 8882874831, 8882874832, 8882874833, 8882863907], "tags": {"amenity": "hospital", "healthcare": "hospital", "name": "Hospital Wanita dan Kanak-Kanak Sabah", "operator": "Kementerian Kesihatan Malaysia", "operator:wikidata": "Q4294352", "operator:wikipedia": "en:Ministry of Health (Malaysia)", "source": "https://openstreetcam.org/details/2371010/888;https://openstreetcam.org/details/2232966/602"}}, {"type": "way", "id": 972603578, "center": {"lat": 1.4303731, "lon": 110.1423059}, "nodes": [2464945722, 9001697579, 9001697580, 9001697581, 9001697582, 9001697583, 9001697584, 2464945722], "tags": {"amenity": "hospital", "emergency": "yes", "healthcare": "hospital", "name": "Hospital Bau", "name:zh": "\u77f3\u9686\u95e8\u533b\u9662", "operator": "Kementerian Kesihatan Malaysia", "operator:type": "government", "operator:wikidata": "Q4294352", "operator:wikipedia": "en:Ministry of Health (Malaysia)", "source": "https://openstreetcam.org/details/2212670/9492"}}, {"type": "way", "id": 973133222, "center": {"lat": 4.4476414, "lon": 114.033954}, "nodes": [9006971530, 9006971531, 9006971532, 9006971533, 9006971534, 9006971535, 9006971530], "tags": {"amenity": "hospital", "healthcare": "hospital", "name": "KPJ Miri Specialist Hospital", "source": "https://openstreetcam.org/details/2201286/60"}}, {"type": "way", "id": 981318225, "center": {"lat": 5.0265565, "lon": 118.313604}, "nodes": [9077312094, 1995330842, 9077312095, 9077312096, 9077312097, 9077312098, 9077312099, 9077312100, 9077312101, 9077312102, 9077312103, 9077312104, 9077312105, 9077312106, 9077312107, 9077312108, 9077312109, 9077312110, 9077312111, 9077312112, 9077312113, 9077312114, 9077312094], "tags": {"amenity": "hospital", "healthcare": "hospital", "name": "Hospital Lahad Datu", "name:en": "Lahad Datu Hospital"}}, {"type": "way", "id": 986604967, "center": {"lat": 9.4123841, "lon": 118.5369664}, "nodes": [9119647976, 9119647977, 9119647978, 9119647979, 9119647976], "tags": {"amenity": "hospital", "healthcare": "hospital", "name": "Aborlan Medicare Hospital"}}, {"type": "way", "id": 986886987, "center": {"lat": 9.239696, "lon": 117.997846}, "nodes": [9122030516, 9122030517, 9122030518, 9122030519, 9122030520, 9122030516], "tags": {"amenity": "hospital", "healthcare": "hospital", "name": "Medicare Hospital"}}, {"type": "way", "id": 986886989, "center": {"lat": 9.2281387, "lon": 117.998861}, "nodes": [9122030529, 9122030530, 9122030531, 9122030532, 9122030529], "tags": {"amenity": "hospital", "healthcare": "hospital", "name": "Quezon Medicare Hospital"}}, {"type": "way", "id": 996299508, "center": {"lat": 4.5835382, "lon": 114.1993302}, "nodes": [9345324775, 9199819749, 9345324764, 9345324765, 9345324766, 9345324767, 9345324768, 9345324769, 9345324770, 9345324773, 9345324772, 9345324771, 9199819752, 9199819753, 9199819754, 9199819755, 9199819756, 9199819757, 9199819758, 9199819759, 9199819760, 9199819761, 9199819762, 9199819763, 9345324774, 9345324776, 9345324775], "tags": {"amenity": "hospital", "healthcare": "hospital", "name": "Suri Seri Begawan Hospital"}}, {"type": "way", "id": 998317254, "center": {"lat": 8.6443869, "lon": 111.9186307}, "nodes": [9217710055, 9217710056, 9217710057, 9217710058, 9217710059, 9217710060, 9217710061, 9217710062, 9217710063, 9217710064, 9217710065, 9217710066, 9217710067, 9217710068, 9217710069, 9217710074, 9217710070, 9217710075, 9217710071, 9217710072, 9217710073, 9217710055], "tags": {"amenity": "hospital", "building": "yes", "healthcare": "hospital", "name": "Trung t\u00e2m y t\u1ebf th\u1ecb tr\u1ea5n Tr\u01b0\u1eddng Sa", "name:en": "Truong Sa Town Medical Centre", "name:id": "Pusat medis kota Truong Sa"}}, {"type": "way", "id": 1010935025, "center": {"lat": 4.8181636, "lon": 114.6630268}, "nodes": [9326799570, 9326799567, 9326799568, 9326799569, 9326799570], "tags": {"amenity": "hospital", "healthcare": "hospital"}}, {"type": "way", "id": 1010935026, "center": {"lat": 4.8159572, "lon": 114.6615238}, "nodes": [9326427096, 9326427097, 9326427091, 9326427098, 9327192795, 9326427099, 9326427100, 9326427101, 9326427102, 9326427103, 9326427104, 9326427105, 9327192809, 9326427106, 9326427096], "tags": {"amenity": "hospital", "healthcare": "hospital"}}, {"type": "way", "id": 1010935027, "center": {"lat": 4.8161678, "lon": 114.6630185}, "nodes": [9326427108, 9327192811, 9326427107, 9326427105, 9326427104, 9326427113, 9326427112, 9326427111, 9326427110, 9327192754, 9326427109, 9326799606, 9323441943, 9323441944, 9323441941, 9326427042, 9326427108], "tags": {"amenity": "hospital", "healthcare": "hospital"}}, {"type": "way", "id": 1019953668, "center": {"lat": 5.6830352, "lon": 116.3709682}, "nodes": [9937496109, 9937496110, 9407106144, 9937496104, 9937496105, 9937496106, 9937496108, 9937496107, 9407106145, 9407106147, 9407106150, 9937513819, 9937513818, 9407106151, 9937513817, 9937496116, 9937496115, 9937496114, 9937496113, 9937496112, 9937496111, 9937496109], "tags": {"amenity": "hospital", "healthcare": "hospital", "name": "Hospital Tambunan"}}, {"type": "way", "id": 1025397646, "center": {"lat": 0.1102723, "lon": 110.7685062}, "nodes": [9454482887, 9454482888, 9454482889, 9454482890, 9454482891, 9454482892, 9454482893, 9454482887], "tags": {"amenity": "hospital", "healthcare": "hospital", "name": "Puskesmas Mukok"}}, {"type": "way", "id": 1026439590, "center": {"lat": 0.1426783, "lon": 117.4479418}, "nodes": [9463455579, 9463455580, 9463455581, 9463455582, 9463455583, 9463455584, 9463455585, 9463455579], "tags": {"amenity": "hospital", "healthcare": "hospital", "name": "Taman Husada Hospital"}}, {"type": "way", "id": 1072010450, "center": {"lat": 2.3008006, "lon": 111.8322792}, "nodes": [9836498090, 9836498091, 9836498092, 9836498093, 9836498096, 9836498095, 9836498094, 9836498090], "tags": {"amenity": "hospital", "building": "hospital", "healthcare": "hospital", "name": "Pusat Pakar Perubatan Sibu", "name:en": "Sibu Specialist Medical Centre", "name:zh": "\u8bd7\u5deb\u4e13\u79d1\u533b\u836f\u4e2d\u5fc3"}}, {"type": "way", "id": 1092589797, "center": {"lat": 3.3402318, "lon": 117.5605387}, "nodes": [10006249889, 5504983034, 10006249890, 10006249891, 10006249892, 10006249893, 10006249894, 7568680142, 7568680139, 10006249895, 10006249896, 10006249889], "tags": {"amenity": "hospital", "healthcare": "hospital", "healthcare:speciality": "general", "name": "Rumah Sakit Umum Tarakan"}}, {"type": "way", "id": 1109868024, "center": {"lat": 4.8976982, "lon": 114.9119642}, "nodes": [3265498604, 3265498603, 3265498609, 3265498585, 3265498564, 3265498247, 3265498242, 3265498241, 3265498240, 3265498246, 3265498565, 3265498602, 3265498606, 10153170752, 10153170751, 10153170750, 3265498638, 3265498625, 3265498621, 3265498611, 3265498607, 3265498604], "tags": {"amenity": "hospital", "healthcare": "hospital", "healthcare:speciality": "psychiatry", "name": "Psychiatry Services", "name:ms": "Perkhidmatan Psikiatri", "name:ms-Arab": "\u06a4\u0631\u062e\u062f\u0645\u062a\u0646 \u06a4\u0633\u064a\u06a9\u064a\u0627\u062a\u0631\u064a", "operator": "Ministry of Health"}}, {"type": "relation", "id": 3232645, "center": {"lat": 5.9559164, "lon": 116.0948724}, "members": [{"type": "way", "ref": 237171488, "role": "outer"}, {"type": "way", "ref": 239703114, "role": "outer"}], "tags": {"addr:city": "Kota Kinabalu", "addr:housename": "Taman Luyang Phase 8", "addr:postcode": "88300", "addr:street": "Jalan Kolam", "amenity": "hospital", "building": "yes", "healthcare": "hospital", "name": "KK Specialist Centre", "type": "multipolygon"}}, {"type": "relation", "id": 13757940, "center": {"lat": 0.1176403, "lon": 117.4708289}, "members": [{"type": "way", "ref": 580200935, "role": "outer"}, {"type": "way", "ref": 839847314, "role": "inner"}], "tags": {"amenity": "hospital", "building": "hospital", "healthcare": "hospital", "operator": "RS LNG Badak", "operator:type": "business", "type": "multipolygon"}}]}