{"version": 0.6, "generator": "Overpass API 0.7.61.5 4133829e", "osm3s": {"timestamp_osm_base": "2023-10-31T20:51:35Z", "copyright": "The data included in this document is from www.openstreetmap.org. The data is made available under ODbL."}, "elements": [{"type": "node", "id": 1104353861, "lat": 9.5620888, "lon": 44.0552701, "tags": {"addr:city": "\u0647\u0631\u062c\u064a\u0633\u0627", "amenity": "hospital", "healthcare": "hospital", "source": "300TDI", "wheelchair": "no"}}, {"type": "node", "id": 1385505916, "lat": 2.0456075, "lon": 45.3584602, "tags": {"addr:city": "\u0645\u0642\u062f\u064a\u0634\u0648", "amenity": "hospital", "source": "Bing"}}, {"type": "node", "id": 1400887801, "lat": 3.3323056, "lon": 42.2157853, "tags": {"amenity": "hospital"}}, {"type": "node", "id": 1404230797, "lat": 5.31361, "lon": 45.87964, "tags": {"amenity": "hospital", "name": "Kulmiye Hospital", "pcode": "NB-3811-S20-002", "source": "UNDP - 2006"}}, {"type": "node", "id": 3713167013, "lat": 1.6285297, "lon": 40.0098868, "tags": {"amenity": "hospital", "healthcare": "hospital", "name": "Leheley Health Center"}}, {"type": "node", "id": 4243444489, "lat": 2.0374681, "lon": 45.3094418, "tags": {"amenity": "hospital", "healthcare": "hospital", "name": "ex dugsi sare banadir"}}, {"type": "node", "id": 4617758189, "lat": 3.8003404, "lon": 42.5438623, "tags": {"amenity": "hospital"}}, {"type": "node", "id": 4800340422, "lat": 9.5880776, "lon": 41.859517, "tags": {"amenity": "hospital", "healthcare": "hospital", "name": "Dilchora Hospital", "name:es": "Hospital Dilchora"}}, {"type": "node", "id": 4873326621, "lat": 2.058425, "lon": 45.3432902, "tags": {"amenity": "hospital", "name:en": "Ibnu Siinaa hospital"}}, {"type": "node", "id": 4997437522, "lat": 9.5596589, "lon": 44.0620784, "tags": {"amenity": "hospital", "healthcare": "hospital", "name": "p/p GARGAAR HOSPITAL"}}, {"type": "node", "id": 6517696674, "lat": 1.7139387, "lon": 44.7649406, "tags": {"amenity": "hospital", "name": "Marka Regional Hospital", "source": "UN UNSOS mission"}}, {"type": "node", "id": 6737970385, "lat": 5.2940636, "lon": 46.954504, "tags": {"addr:street": "Wadada xiindheere", "amenity": "hospital", "name": "Isbitaalka xiindheer", "name:en": "Hindhera hospital"}}, {"type": "node", "id": 7169827512, "lat": 9.5102343, "lon": 49.0857071, "tags": {"amenity": "hospital", "name": "Qardho General Hospital"}}, {"type": "node", "id": 7605011185, "lat": 8.4735713, "lon": 47.3627498, "tags": {"amenity": "hospital", "name": "Manhal Hospital"}}, {"type": "node", "id": 7781858387, "lat": 9.3550649, "lon": 42.7841903, "tags": {"amenity": "hospital", "name": "Blood Bank", "name:en": "blood Bank"}}, {"type": "node", "id": 7866098585, "lat": 9.355069, "lon": 42.7841676, "tags": {"amenity": "hospital", "name": "Somali Regional State Blood Bank"}}, {"type": "node", "id": 8178752253, "lat": 6.1329984, "lon": 46.6248956, "tags": {"amenity": "hospital", "healthcare": "hospital", "name": "Adado General Hospital"}}, {"type": "node", "id": 8267762517, "lat": 9.937449, "lon": 43.1799472, "tags": {"addr:street": "Regional street", "amenity": "hospital", "name:en": "Borama Regional Hospital"}}, {"type": "node", "id": 8426040800, "lat": 9.3523228, "lon": 42.39975, "tags": {"addr:city": "funyanbira", "addr:housenumber": "1", "addr:street": "Gursum Road", "amenity": "hospital", "emergency": "yes", "healthcare": "hospital", "healthcare:speciality": "general", "name": "Gursum health", "phone": "0915444555"}}, {"type": "node", "id": 8497141643, "lat": 1.9826747, "lon": 44.9842064, "tags": {"amenity": "hospital", "name": "Afgoi District Hospital"}}, {"type": "node", "id": 8765527919, "lat": 9.8169526, "lon": 42.1400298, "tags": {"amenity": "hospital", "name": "Harmukale Health Station"}}, {"type": "node", "id": 8929222545, "lat": 9.551041, "lon": 44.0553958, "tags": {"addr:city": "Hargaysia", "addr:housenumber": "1", "addr:street": "Birjeex Street", "amenity": "hospital", "healthcare": "hospital", "name": "Birjeex Militery Hospital", "operator": "Govermantal", "operator:type": "county_government"}}, {"type": "node", "id": 9316126117, "lat": 9.5995179, "lon": 41.8403174, "tags": {"amenity": "hospital", "name": "Delt General Hospital"}}, {"type": "node", "id": 9439100917, "lat": 9.3058254, "lon": 42.127229, "tags": {"amenity": "hospital", "name:en": "Harar Federal Police Hospital New site(Tik)"}}, {"type": "node", "id": 10008079117, "lat": 1.7509352, "lon": 40.0601, "tags": {"addr:housenumber": "7", "addr:street": "Bardere Road", "amenity": "hospital", "name": "Liban pharmacy"}}, {"type": "node", "id": 10008160818, "lat": 1.7499475, "lon": 40.0591691, "tags": {"amenity": "hospital", "name": "bayaan nursing home"}}, {"type": "node", "id": 10008170517, "lat": 1.7517403, "lon": 40.05198, "tags": {"amenity": "hospital", "name": "Samad hospital"}}, {"type": "node", "id": 10008213717, "lat": 1.752054, "lon": 40.0492834, "tags": {"addr:street": "Mayalo Road", "amenity": "hospital", "name": "Albushra hospital"}}, {"type": "node", "id": 10008225618, "lat": 1.7413572, "lon": 40.0553779, "tags": {"addr:street": "Isiolo-Mandera Road", "amenity": "hospital", "healthcare": "hospital", "name": "Al Amannah"}}, {"type": "node", "id": 10008232418, "lat": 1.7507734, "lon": 40.0594099, "tags": {"amenity": "hospital", "name": "jeddah hospital", "tourism": "hotel"}}, {"type": "node", "id": 10008236618, "lat": 1.737892, "lon": 40.0537809, "tags": {"addr:street": "Isiolo-Mandera Road", "amenity": "hospital", "healthcare": "hospital", "name": "Wajir Catholic Mission Dispensary", "name:en": "Wajir Catholic Mission Dispensary"}}, {"type": "node", "id": 10008257217, "lat": 1.740842, "lon": 40.049532, "tags": {"amenity": "hospital", "name": "Wajir maternity and nursing home"}}, {"type": "node", "id": 10008275917, "lat": 1.7477533, "lon": 40.0618683, "tags": {"amenity": "hospital", "name": "Wajir referral Hospital-Main gate"}}, {"type": "node", "id": 10008301417, "lat": 1.7445661, "lon": 40.0570068, "tags": {"addr:street": "Isiolo-Mandera Road", "amenity": "hospital", "healthcare": "hospital", "name": "Afya Medical Clinic and Nursing Home"}}, {"type": "node", "id": 10008317518, "lat": 1.7504849, "lon": 40.06418, "tags": {"amenity": "hospital", "healthcare": "hospital", "name": "Jeddah Hospital - Wagberi branch", "opening_hours": "24/7"}}, {"type": "node", "id": 10008341118, "lat": 1.7541264, "lon": 40.0593366, "tags": {"addr:street": "Wajir-Moyale Road", "amenity": "hospital"}}, {"type": "node", "id": 10035948735, "lat": 2.9780652, "lon": 40.2704078, "tags": {"amenity": "hospital", "healthcare": "hospital", "name": "Burmayo Mandera Dispensary"}}, {"type": "node", "id": 10126035479, "lat": 5.762455, "lon": 45.755452, "tags": {"amenity": "hospital", "healthcare": "hospital", "name": "Balanbale General Hospital"}}, {"type": "node", "id": 10153702232, "lat": 1.7477146, "lon": 40.0624084, "tags": {"amenity": "hospital", "emergency": "yes", "healthcare": "hospital", "healthcare:speciality": "general;biology", "name": "Wajir County Referal Hospital", "operator": "Wajir County Government", "operator:type": "government"}}, {"type": "node", "id": 10297949310, "lat": 5.764092, "lon": 45.7669381, "tags": {"amenity": "hospital", "healthcare": "hospital", "name": "Balanbale MCH"}}, {"type": "node", "id": 10994873907, "lat": 4.1791088, "lon": 42.0512053, "tags": {"amenity": "hospital", "name:en": "Dollo Ado Primary Hospital"}}, {"type": "node", "id": 11099271110, "lat": 1.7396312, "lon": 40.0743662, "tags": {"addr:street": "Township Road", "amenity": "hospital", "name": "The Aga Khan University Hospital", "source": "KRCS"}}, {"type": "node", "id": 11099271120, "lat": 1.7448402, "lon": 40.0834079, "tags": {"addr:street": "Wajirbor Road", "amenity": "hospital", "name": "Jeddah Hospital", "source": "KRCS"}}, {"type": "way", "id": 129213502, "center": {"lat": 0.1949856, "lon": 40.2833131}, "nodes": [1426060813, 1426060775, 1426060743, 1426060663, 1426060619, 1426060639, 1426060727, 1426060770, 1426060794, 1426060836, 1426060813], "tags": {"amenity": "hospital", "healthcare": "hospital", "name": "Health Post 4", "source": "UNHCR-2004"}}, {"type": "way", "id": 188859423, "center": {"lat": 1.1104688, "lon": 44.0289236}, "nodes": [1994963217, 1994963223, 1994963219, 1994963214, 1994963217], "tags": {"amenity": "hospital", "healthcare": "hospital", "name": "Barawe General Hospital"}}, {"type": "way", "id": 220105433, "center": {"lat": 2.030015, "lon": 45.2975881}, "nodes": [2292273395, 2292273397, 9255764210, 2292273396, 2292273394, 4892230760, 4892230761, 1223371658, 2292273395], "tags": {"addr:city": "\u0645\u0642\u062f\u064a\u0634\u0648", "amenity": "hospital", "name": "\u0645\u0633\u062a\u0634\u0641\u0649 \u0627\u0644\u0645\u062f\u064a\u0646\u0629", "name:ar": "\u0645\u0633\u062a\u0634\u0641\u0649 \u0627\u0644\u0645\u062f\u064a\u0646\u0629", "name:en": "Medina Hospital"}}, {"type": "way", "id": 237489641, "center": {"lat": 8.483727, "lon": 47.3575929}, "nodes": [2453819420, 2453819431, 2453819906, 2453819445, 2453819465, 2453819475, 2453819503, 2453819498, 2453819482, 2453819419, 2453819425, 2453819417, 2453819420], "tags": {"amenity": "hospital", "barrier": "wall", "name": "Las Anod Hospital"}}, {"type": "way", "id": 247578097, "center": {"lat": 5.24333, "lon": 44.7341929}, "nodes": [4348227590, 2544662214, 2544662215, 2544662235, 2544662234, 2544662219, 2544662218, 2544662233, 4348227590], "tags": {"amenity": "hospital", "building": "yes", "healthcare": "hospital", "name": "Mustahil Health Center"}}, {"type": "way", "id": 276883215, "center": {"lat": 7.0226234, "lon": 47.0224743}, "nodes": [4537000389, 2814484900, 2814485010, 2814484891, 4537000389], "tags": {"amenity": "hospital", "barrier": "wall", "healthcare": "hospital", "landuse": "healthcare", "name": "Galdogob general hospital"}}, {"type": "way", "id": 277858955, "center": {"lat": 5.5324039, "lon": 46.3837744}, "nodes": [2823058571, 2823058561, 2823058444, 2823058445, 2823058557, 11190644329, 11190644330, 2823058622, 2823057996, 2823057990, 2823058571], "tags": {"amenity": "hospital", "building": "yes", "name": "Dhuusamarreeb Hospital \u0645\u0633\u062a\u0634\u0641\u0649 \u062f\u0648\u0633\u0645\u0631\u064a\u0628", "name:ar": "\u0645\u0633\u062a\u0634\u0641\u0649 \u062f\u0648\u0633\u0645\u0631\u064a\u0628", "name:en": "Dhusamareb Hospital", "name:fr": "H\u00f4pital Dhusamareb"}}, {"type": "way", "id": 296937067, "center": {"lat": 2.032498, "lon": 45.3109107}, "nodes": [3007481823, 3036686914, 3007481824, 3007481825, 3007481826, 3007481823], "tags": {"amenity": "hospital", "healthcare": "hospital"}}, {"type": "way", "id": 305183550, "center": {"lat": 9.5511879, "lon": 44.066845}, "nodes": [3097662713, 3097662711, 3097662709, 3097662705, 3097662706, 3097662701, 3097662692, 3097662694, 3097662696, 3097662704, 3097662702, 3097662707, 3097662710, 3097662714, 3097662724, 3097662722, 3097662713], "tags": {"amenity": "hospital", "healthcare": "hospital", "name": "Adna Adan hospital", "operator": "ADna Adan"}}, {"type": "way", "id": 312787772, "center": {"lat": 3.9420918, "lon": 41.8614143}, "nodes": [3186770728, 3186770729, 3186770730, 3186770731, 3186770732, 3186770733, 3165569315, 3165551232, 3165551231, 3165569303, 3186770734, 3186770728], "tags": {"amenity": "hospital"}}, {"type": "way", "id": 366311066, "center": {"lat": 2.20583, "lon": 40.7566656}, "nodes": [3702867314, 3702867324, 3702867596, 3702867593, 3702867562, 3702867555, 10159063425, 10159063424, 10117465089, 3702867314], "tags": {"amenity": "hospital", "healthcare": "hospital", "name": "Khorof Harar Hospital"}}, {"type": "way", "id": 366311075, "center": {"lat": 2.0202429, "lon": 40.9116406}, "nodes": [3702866786, 3702866783, 3702866775, 3702866767, 3702866763, 3702866765, 3702866771, 3702866780, 3702866784, 3702866787, 3702866786], "tags": {"amenity": "hospital", "name": "Konton Dispensry"}}, {"type": "way", "id": 368147204, "center": {"lat": 9.4082664, "lon": 45.0643716}, "nodes": [3720067472, 3720067473, 3720067474, 3720067475, 3720067500, 3720067477, 3720067478, 3720067479, 3720067480, 3720067481, 3720067472], "tags": {"amenity": "hospital", "barrier": "fence", "healthcare": "hospital", "name": "Odweyne General Hospital", "name:en": "Odweine General Hospital"}}, {"type": "way", "id": 430366600, "center": {"lat": 9.5288231, "lon": 44.0750723}, "nodes": [4296506380, 4296506381, 4296506382, 4296506383, 4296506384, 4296506385, 4296506380], "tags": {"addr:city": "\u0647\u0631\u062c\u064a\u0633\u0627", "addr:street": "Airport Road", "amenity": "hospital", "healthcare": "hospital", "name": "International Hospital \u0627\u0644\u0645\u0633\u062a\u0634\u0641\u0649 \u0627\u0644\u062f\u0648\u0644\u064a", "name:ar": "\u0627\u0644\u0645\u0633\u062a\u0634\u0641\u0649 \u0627\u0644\u062f\u0648\u0644\u064a", "name:en": "Hargeisa International Hospital"}}, {"type": "way", "id": 449347606, "center": {"lat": 9.5597324, "lon": 44.0618233}, "nodes": [4463164565, 4463164566, 4463164567, 8420590838, 4463164568, 4463164569, 4463164570, 4463164565], "tags": {"amenity": "hospital", "name": "Gargaar Multi specialty Hospital"}}, {"type": "way", "id": 550425480, "center": {"lat": 2.0424818, "lon": 45.3038574}, "nodes": [5316380912, 5316380913, 5316380914, 5316380915, 5316380916, 5316380917, 5316380918, 5752275836, 5752275835, 5316380919, 5316380920, 5316381021, 5316381022, 5316381023, 5316381024, 5316381025, 5316381026, 5316381027, 5316381028, 5316381029, 5316380912], "tags": {"amenity": "hospital", "emergency": "yes", "healthcare": "hospital", "name": "Isbitaalka Tababarada & Cilmibaarista ee Muqdisho Somaliya Turkiga", "name:ar": "\u0645\u0642\u062f\u064a\u0634\u0648\u060c \u0627\u0644\u0635\u0648\u0645\u0627\u0644 \u062a\u0631\u0643\u064a\u0627 \u0631\u062c\u0628 \u0637\u064a\u0628 \u0623\u0631\u062f\u0648\u063a\u0627\u0646 \u0627\u0644\u062a\u062f\u0631\u064a\u0628 \u0648\u0627\u0644\u0628\u062d\u0648\u062b \u0645\u0633\u062a\u0634\u0641\u0649", "name:en": "Mogadishu, Somalia Turkey Recep Tayyip Erdogan Training and Research Hospital", "name:so": "Muqdisho, Soomaaliya Turkey Recep Tayyip Erdogan Tababarka iyo Hospital Research", "name:tr": "Mogadi\u015fu Somali T\u00fcrkiye Recep Tayyip Erdo\u011fan E\u011fitim ve Ara\u015ft\u0131rma Hastanesi", "phone": "+90 312 442 42 40"}}, {"type": "way", "id": 599675556, "center": {"lat": 7.7464989, "lon": 40.7023684}, "nodes": [5704573830, 5704573831, 5704573832, 5704573833, 5704573834, 5704573830], "tags": {"amenity": "hospital", "healthcare": "yes"}}, {"type": "way", "id": 648034695, "center": {"lat": 2.8105251, "lon": 40.9344434}, "nodes": [6084647389, 6084647390, 6084647391, 8149896095, 8149896094, 8149896093, 6084647392, 6084647393, 6084647394, 6084647395, 6084647396, 6084647397, 6084647398, 6084647389], "tags": {"addr:city": "El Wak", "addr:street": "Isiolo-Mandera Road", "amenity": "hospital", "healthcare": "hospital", "name": "El Wak District Hospital"}}, {"type": "way", "id": 652715637, "center": {"lat": 3.1107831, "lon": 43.6433161}, "nodes": [6118486783, 6118486782, 6118486781, 6118486780, 6118486779, 6118486778, 8375255465, 8375255464, 8375255463, 8375255466, 6118486777, 6118486776, 6118486775, 6118486774, 6118486773, 6118486772, 8375255469, 8375255468, 8375255467, 8375255470, 6118486783], "tags": {"amenity": "hospital", "building": "yes", "healthcare": "hospital", "name": "Baidoa Regional Hospital"}}, {"type": "way", "id": 674458719, "center": {"lat": 2.7741139, "lon": 45.4968014}, "nodes": [6316337628, 6316337630, 6316337631, 6316337629, 10248314880, 10248314879, 10248314878, 10248314881, 6316337628], "tags": {"amenity": "hospital", "building": "yes", "name": "Jowhar Regional Hospital", "source": "UNSOA II: E045N02_02, SPOT5 image based data capture using different Ancillary Sources coming from UNSOA field mission"}}, {"type": "way", "id": 742808124, "center": {"lat": 2.2083106, "lon": 40.116715}, "nodes": [3702721563, 6953634686, 6953634687, 6953634688, 3702721563], "tags": {"amenity": "hospital", "building": "yes", "healthcare": "hospital", "name": "Tarbaj Health Center"}}, {"type": "way", "id": 745378276, "center": {"lat": 1.7486508, "lon": 40.0587882}, "nodes": [3680029606, 10000055292, 6977337206, 6977337207, 10000055291, 10000055290, 10000055289, 6977337208, 6977337209, 3680029606], "tags": {"addr:city": "Wajir", "addr:street": "Wajir-Moyale road", "amenity": "hospital", "building": "yes", "healthcare": "hospital", "name": "Alfurqan hospital", "operator": "private", "operator:type": "private"}}, {"type": "way", "id": 752162110, "center": {"lat": 7.9820615, "lon": 49.8191423}, "nodes": [7030883563, 7030883564, 9743176546, 7030883567, 7030883563], "tags": {"amenity": "hospital", "layer": "1", "name": "EYL Hospital"}}, {"type": "way", "id": 787549766, "center": {"lat": 5.958059, "lon": 43.5574589}, "nodes": [1104360239, 7363447139, 7363447140, 7363447141, 7363447142, 7363447143, 7363447144, 7363447145, 7363447146, 7363447147, 7363447148, 7363447149, 7363447150, 7363447151, 7363447152, 7363447153, 7363447154, 7363447155, 1104360239], "tags": {"amenity": "hospital", "healthcare": "hospital", "name": "Gode Hospital", "source": "300TDI"}}, {"type": "way", "id": 787549769, "center": {"lat": 9.1381308, "lon": 41.8371439}, "nodes": [1150920739, 7363447169, 7363447170, 7363447171, 1150920739], "tags": {"addr:housenumber": "00678", "addr:street": "Addis", "amenity": "hospital", "email": "abdixy@gmail.com", "healthcare": "hospital", "name": "Girawa", "phone": "0920687804", "source": "GeoDatabase"}}, {"type": "way", "id": 787549770, "center": {"lat": 9.3063819, "lon": 42.1254851}, "nodes": [1175660522, 7363447173, 7363447174, 7363447175, 1175660522], "tags": {"amenity": "hospital", "healthcare": "hospital", "name": "General Hospital"}}, {"type": "way", "id": 787549788, "center": {"lat": 6.9728339, "lon": 45.3366491}, "nodes": [4162488489, 7363447387, 7363447388, 7363447389, 4162488489], "tags": {"amenity": "hospital", "healthcare": "hospital", "name": "Doollo hospital", "name:ar": "\u0645\u0633\u062a\u0634\u0641\u0649 \u062f\u0648\u0644\u0648"}}, {"type": "way", "id": 787549791, "center": {"lat": 9.3596142, "lon": 42.8012068}, "nodes": [4298999595, 7363447424, 7363447425, 7363447426, 7363447427, 7363447428, 7363447429, 7363447430, 7363447431, 7363447432, 7363447433, 7363447434, 7363447435, 7363447436, 4298999595], "tags": {"amenity": "hospital", "healthcare": "hospital", "name": "Karamara General Hospital", "opening_hours": "24/7"}}, {"type": "way", "id": 787549794, "center": {"lat": 5.9598787, "lon": 43.5513548}, "nodes": [4348227289, 7363447458, 7363447459, 7363447460, 7363447461, 7363447462, 7363447463, 7363447464, 7363447465, 7363447466, 4348227289], "tags": {"amenity": "hospital", "healthcare": "hospital", "name": "Gode Hospital "}}, {"type": "way", "id": 787549802, "center": {"lat": 9.3531689, "lon": 42.7874128}, "nodes": [4773226834, 7363447544, 7363447545, 7363447546, 7363447547, 7363447548, 7363447549, 7363447550, 7363447551, 7363447552, 7363447553, 7363447554, 7363447555, 7363447556, 7363447557, 7363447558, 7363447559, 4773226834], "tags": {"amenity": "hospital", "healthcare": "hospital", "name": "Shiek Hassan Referral Hospital", "name:en": "Jijiga referal hospital"}}, {"type": "way", "id": 787549805, "center": {"lat": 9.5879908, "lon": 41.8597508}, "nodes": [7363447595, 7363447596, 7363447597, 7363447598, 7363447599, 7363447600, 7363447601, 7363447602, 7363447603, 7363447604, 7363447605, 7363447606, 7363447607, 7363447608, 7363447609, 7363447610, 7363447611, 7363447612, 7363447613, 7363447595], "tags": {"amenity": "hospital", "healthcare": "hospital"}}, {"type": "way", "id": 787549806, "center": {"lat": 9.5901105, "lon": 41.8558876}, "nodes": [4800340426, 7363447615, 7363447616, 7363447617, 7363447618, 1973452963, 7363447619, 7363447620, 4800340426], "tags": {"amenity": "hospital", "healthcare": "hospital", "name": "\u1348\u1228\u1295\u1233\u12ed \u1206\u1235\u1352\u1273\u120d", "name:en": "French Hospital"}}, {"type": "way", "id": 787549807, "center": {"lat": 9.5995006, "lon": 41.8494209}, "nodes": [4800356822, 7363447622, 7363447623, 7363447624, 7363447625, 7363447626, 7363447627, 7363447628, 7363447629, 7363447630, 7363447631, 7363447632, 7363447633, 7363447634, 7363447635, 7363447636, 7363447637, 7363447638, 7363447639, 7363447640, 4800356822], "tags": {"amenity": "hospital", "healthcare": "hospital", "name": "Art Hospital", "name:am": "\u12a0\u122d\u1275 \u1206\u1235\u1352\u1273\u120d"}}, {"type": "way", "id": 787549818, "center": {"lat": 9.3562269, "lon": 42.7859967}, "nodes": [5116720521, 7363447788, 7363447789, 7363447790, 7363447791, 7363447792, 7363447793, 7363447794, 7363447795, 7363447796, 7363447797, 7363447798, 7363447799, 7363447800, 7363447801, 7363447802, 7363447803, 7363447804, 7363447805, 7363447806, 7363447807, 5116720521], "tags": {"amenity": "hospital", "healthcare": "hospital", "name": "Jigjiga University Shiek Hassan Yabare Referal Hospital", "name:en": "Jigjiga University Meles Zenawi Referal Hospital"}}, {"type": "way", "id": 787549836, "center": {"lat": 9.603784, "lon": 41.8650732}, "nodes": [5374162528, 7363447947, 7363447948, 7363447949, 5374162528], "tags": {"amenity": "hospital", "healthcare": "hospital", "name": "\u12f0\u122c\u12f3\u12cb \u122a\u1305\u1293\u120d \u120b\u1266\u122b\u1276\u122a", "name:en": "Dire Dawa Regional Laboratory"}}, {"type": "way", "id": 787549837, "center": {"lat": 9.6045155, "lon": 41.8650564}, "nodes": [5374162530, 7363447951, 7363447952, 7363447953, 5374162530], "tags": {"amenity": "hospital", "healthcare": "hospital", "name": "\u1290\u121d\u1260\u122d \u12cb\u1295 \u1324\u1293 \u12a0\u1320\u1263\u1260\u1245 \u1323\u1262\u12eb", "name:en": "Number One Health Center"}}, {"type": "way", "id": 788575467, "center": {"lat": 7.0969501, "lon": 40.0021814}, "nodes": [6542276685, 7372627299, 5456612919, 7372627300, 6542276685], "tags": {"amenity": "hospital", "healthcare": "hospital", "name:en": "Neuropsychiatric Speciality Centre of Robe"}}, {"type": "way", "id": 788575471, "center": {"lat": 9.3073189, "lon": 42.1281252}, "nodes": [6786410563, 7372627328, 7372627329, 7372627330, 7372627331, 7372627332, 7372627333, 7372627334, 6786410563], "tags": {"amenity": "hospital", "healthcare": "hospital", "name": "Harer Police Hospital"}}, {"type": "way", "id": 788575472, "center": {"lat": 9.3048427, "lon": 42.1296261}, "nodes": [6786410564, 7372627336, 1171659883, 7372627337, 7372627338, 7372627339, 7372627340, 6786410564], "tags": {"amenity": "hospital", "healthcare": "hospital", "name": "Harer Hospital"}}, {"type": "way", "id": 791235104, "center": {"lat": 3.8087012, "lon": 43.2536488}, "nodes": [1614096661, 1614096571, 7396915095, 7396915096, 7396915097, 7396915098, 7396915099, 7396915100, 1614096661], "tags": {"amenity": "hospital", "healthcare": "hospital"}}, {"type": "way", "id": 791242083, "center": {"lat": 9.5510557, "lon": 44.0668418}, "nodes": [4715776390, 7396992987, 7396992988, 7396992989, 7396992990, 7396992991, 3097662687, 7396992992, 7396992993, 7396992994, 7396992995, 3097662679, 7396992996, 7396992997, 7396992998, 4715776390], "tags": {"addr:city": "\u0647\u0631\u062c\u064a\u0633\u0627", "amenity": "hospital", "email": "mailto:contact@ednahospital.org", "healthcare": "hospital", "name": "Dhakhtarka Adna \u0645\u0633\u062a\u0634\u0641\u0649 \u0623\u062f\u0646\u0627 \u0622\u062f\u0646", "name:ar": "\u0645\u0633\u062a\u0634\u0641\u0649 \u0623\u062f\u0646\u0627 \u0622\u062f\u0646", "name:en": "Edna Adan Maternity Hospital", "name:fr": "Maternit\u00e9 Edna Aden", "opening_hours": "24/7", "phone": "+252 2138014", "website": "https://www.ednahospital.org/", "wikidata": "Q5340013", "wikipedia": "en:Edna Adan Maternity Hospital"}}, {"type": "way", "id": 791242762, "center": {"lat": 8.409271, "lon": 48.4754129}, "nodes": [7396999061, 4728031992, 7396999062, 7396999063, 7396999064, 2324271327, 2324271338, 7396999061], "tags": {"amenity": "hospital", "healthcare": "hospital", "name": "Garowe General Hospital", "name:en": "Garowe General Hospital"}}, {"type": "way", "id": 791244577, "center": {"lat": 9.5645593, "lon": 44.0600567}, "nodes": [5843385585, 7396975961, 7396975962, 7396975963, 7396975964, 9255959738, 7396975965, 7396975966, 7396975967, 7396975968, 5843385585], "tags": {"addr:street": "Goljano Road", "amenity": "hospital", "healthcare": "hospital", "name": "Kaah medical centre"}}, {"type": "way", "id": 791245129, "center": {"lat": 9.5658027, "lon": 44.0609668}, "nodes": [5857136085, 7397008159, 7397008160, 7397008161, 5857136085], "tags": {"amenity": "hospital", "healthcare": "hospital", "name:en": "Haldoor Hospital"}}, {"type": "way", "id": 791246027, "center": {"lat": 2.1429215, "lon": 45.1163066}, "nodes": [6470191188, 7397005677, 7397005678, 7397005679, 6470191188], "tags": {"amenity": "hospital", "building": "hospital", "healthcare": "hospital", "name": "Sajid Hospital", "source": "UNPOS"}}, {"type": "way", "id": 791249655, "center": {"lat": 9.5601184, "lon": 44.0554018}, "nodes": [6832035889, 7397059867, 7397059868, 7397059869, 7397059870, 7397059871, 6832035889], "tags": {"addr:street": "Road Number 1 / \u0637\u0631\u064a\u0642 \u0631\u0642\u0645 1", "amenity": "hospital", "healthcare": "hospital", "internet_access": "wlan", "name": "Disabled people hospital"}}, {"type": "way", "id": 804267095, "center": {"lat": 1.785903, "lon": 44.5326112}, "nodes": [5161408821, 7522812919, 7522812920, 7522812921, 5161408821], "tags": {"amenity": "hospital", "healthcare": "hospital", "name": "Qoryooley General Hospital"}}, {"type": "way", "id": 848044664, "center": {"lat": 2.0212309, "lon": 45.3271577}, "nodes": [7913302694, 5682559622, 9255834800, 9255834799, 5682559621, 5682559627, 9432869764, 9432869762, 5682559624, 5682559623, 7913302694], "tags": {"amenity": "hospital", "healthcare": "hospital", "name": "Yardimeni Hospital"}}, {"type": "way", "id": 965340306, "center": {"lat": 9.5510362, "lon": 44.0668438}, "nodes": [3097663236, 3097662703, 8930352345, 3097662676, 7396992989, 3097663237, 8930352346, 8930352347, 3097663236], "tags": {"amenity": "hospital", "healthcare": "hospital", "name": "Adna Adan Maternity Hospital", "operator": "Adna AAdan Isamaciil", "operator:type": "private"}}, {"type": "way", "id": 1065724009, "center": {"lat": 2.0344011, "lon": 45.2988651}, "nodes": [9786850932, 9786850933, 9786850934, 9786850935, 9786850936, 9786850937, 9786850938, 9786850939, 9786850940, 9786850941, 9786850942, 9786850932], "tags": {"amenity": "hospital", "healthcare": "hospital", "name": "Benadir hospital.", "name:en": "Benadir gynecology, obstetrics and pediatrics hospital", "name:so": "Isbitaalka Banaadir"}}, {"type": "way", "id": 1205438985, "center": {"lat": 2.0694586, "lon": 45.3104794}, "nodes": [11171470312, 11171470313, 11171470314, 11171470315, 11171470312], "tags": {"amenity": "hospital", "healthcare": "hospital", "healthcare:speciality": "general;gynaecology", "name": "kaamil hospital oodweyne"}}, {"type": "relation", "id": 7483488, "center": {"lat": 6.5189564, "lon": 43.4932854}, "members": [{"type": "way", "ref": 516506945, "role": "outer"}, {"type": "way", "ref": 516506947, "role": "inner"}], "tags": {"amenity": "hospital", "building": "yes", "healthcare": "hospital", "name:en": "Denan Hospital", "type": "multipolygon"}}, {"type": "relation", "id": 10705111, "center": {"lat": 4.738148, "lon": 45.2045402}, "members": [{"type": "way", "ref": 586128999, "role": "inner"}, {"type": "way", "ref": 586128998, "role": "inner"}, {"type": "way", "ref": 586128776, "role": "inner"}, {"type": "way", "ref": 586128778, "role": "inner"}, {"type": "way", "ref": 586128779, "role": "inner"}, {"type": "way", "ref": 586129975, "role": "inner"}, {"type": "way", "ref": 586078861, "role": "inner"}, {"type": "way", "ref": 586128500, "role": "inner"}, {"type": "way", "ref": 586128501, "role": "inner"}, {"type": "way", "ref": 586128773, "role": "inner"}, {"type": "way", "ref": 586128774, "role": "inner"}, {"type": "way", "ref": 586078862, "role": "inner"}, {"type": "way", "ref": 586128508, "role": "inner"}, {"type": "way", "ref": 586128511, "role": "inner"}, {"type": "way", "ref": 586128513, "role": "inner"}, {"type": "way", "ref": 586128505, "role": "inner"}, {"type": "way", "ref": 586128996, "role": "inner"}, {"type": "way", "ref": 586128504, "role": "inner"}, {"type": "way", "ref": 586128503, "role": "inner"}, {"type": "way", "ref": 586127513, "role": "inner"}, {"type": "way", "ref": 586127514, "role": "inner"}, {"type": "way", "ref": 586128502, "role": "inner"}, {"type": "way", "ref": 586127512, "role": "inner"}, {"type": "way", "ref": 771922820, "role": "inner"}, {"type": "way", "ref": 585984877, "role": "inner"}, {"type": "way", "ref": 586127628, "role": "inner"}, {"type": "way", "ref": 586401979, "role": "inner"}, {"type": "way", "ref": 586374148, "role": "inner"}, {"type": "way", "ref": 586387666, "role": "inner"}, {"type": "way", "ref": 586401981, "role": "inner"}, {"type": "way", "ref": 771922819, "role": "outer"}, {"type": "way", "ref": 585971995, "role": "inner"}, {"type": "way", "ref": 586374149, "role": "inner"}, {"type": "way", "ref": 586127511, "role": "inner"}], "tags": {"amenity": "hospital", "description": "HospitalGrounds", "healthcare": "hospital", "name": "Regional Hospital", "type": "multipolygon"}}, {"type": "relation", "id": 10705122, "center": {"lat": 4.7337814, "lon": 45.1966125}, "members": [{"type": "way", "ref": 771922850, "role": "inner"}, {"type": "way", "ref": 771922851, "role": "inner"}, {"type": "way", "ref": 771922856, "role": "inner"}, {"type": "way", "ref": 771922855, "role": "inner"}, {"type": "way", "ref": 771922858, "role": "inner"}, {"type": "way", "ref": 771922859, "role": "inner"}, {"type": "way", "ref": 771922857, "role": "inner"}, {"type": "way", "ref": 771922854, "role": "inner"}, {"type": "way", "ref": 771922853, "role": "inner"}, {"type": "way", "ref": 771922852, "role": "inner"}, {"type": "way", "ref": 771922860, "role": "outer"}], "tags": {"amenity": "hospital", "healthcare": "hospital", "name": "Voluntary Hospital", "type": "multipolygon"}}, {"type": "relation", "id": 11127842, "center": {"lat": 6.5190068, "lon": 43.4932558}, "members": [{"type": "way", "ref": 788575460, "role": "outer"}, {"type": "way", "ref": 516506945, "role": "inner"}], "tags": {"amenity": "hospital", "healthcare": "hospital", "type": "multipolygon"}}]}