{"version": 0.6, "generator": "Overpass API 0.7.61.5 4133829e", "osm3s": {"timestamp_osm_base": "2023-10-31T20:52:36Z", "copyright": "The data included in this document is from www.openstreetmap.org. The data is made available under ODbL."}, "elements": [{"type": "node", "id": 1143756708, "lat": 13.4422652, "lon": -16.7197496, "tags": {"amenity": "hospital", "healthcare": "hospital", "name": "Lamtoro Clinic"}}, {"type": "node", "id": 2487593830, "lat": 13.6603565, "lon": -15.0573991, "tags": {"amenity": "hospital", "healthcare": "hospital"}}, {"type": "node", "id": 3357601748, "lat": 10.1778982, "lon": -12.5015402, "tags": {"amenity": "hospital", "emergency": "yes"}}, {"type": "node", "id": 3530428244, "lat": 13.4055818, "lon": -16.7274227, "tags": {"amenity": "hospital", "emergency": "yes", "healthcare": "hospital", "name": "Africmed"}}, {"type": "node", "id": 3777442010, "lat": 12.8986076, "lon": -14.9381684, "tags": {"amenity": "hospital", "healthcare": "yes", "name": "Centre de Sant\u00e9 de Kolda (Sikilo)"}}, {"type": "node", "id": 4002392713, "lat": 16.0667319, "lon": -16.4265564, "tags": {"addr:full": "Universit\u00e9 Gaston Berger de Saint Louis", "amenity": "hospital", "beds": "7", "contact:phone": "+221771691174", "dispensing": "no", "electricity": "grid", "emergency": "yes", "health_amenity:type": "laboratory;emergency_department", "healthcare": "doctor;pharmacy;hospital;dentist;laboratory;birthing_center", "insurance:health": "no", "name": "Service Medico social des Etudiants CROUS", "opening_hours": "24/7", "operational_status": "operational", "operator": "Ministere de l'enseignement sup\u00e9rieure", "operator:type": "public", "osm_id": "b7321bc3-bf62-40aa-a0b3-9e25881e2b43", "staff_count:doctors": "2", "staff_count:nurses": "6", "water_source": "powered_pump", "wheelchair": "yes"}}, {"type": "node", "id": 4197014592, "lat": 13.439618, "lon": -15.5775604, "tags": {"amenity": "hospital", "healthcare": "hospital", "name": "Village Clinic"}}, {"type": "node", "id": 4210769831, "lat": 14.5861921, "lon": -11.7876842, "tags": {"amenity": "hospital", "name": "CSCOM"}}, {"type": "node", "id": 4386416389, "lat": 16.6427296, "lon": -14.9534247, "tags": {"addr:full": "Saint louis", "amenity": "hospital", "contact:phone": "773134228", "electricity": "grid", "emergency": "no", "healthcare": "pharmacy, hospital, doctor, laboratory", "healthcare:equipment": "laboratory, imaging equipment", "insurance:health": "public", "name": "centre de sante amadou malick guaye", "opening_hours": "Mo-Fr 24/24; PH off", "operational_status": "operational", "operator": "Minist\u00e8re de la sant\u00e9 et de l'action sociale", "operator:type": "public", "osm_id": "13f9452a-e180-4a82-a11c-845a2ea62e3e", "source": "#senegal #covid-19 #emergency-health-data-validation #healthsites", "water_source": "well", "wheelchair": "yes"}}, {"type": "node", "id": 4442539089, "lat": 12.7937854, "lon": -16.5096061, "tags": {"amenity": "hospital", "electricity": "grid", "name": "District Sanitaire de Thionck-Essyl", "operational_status": "Operational", "operator": "DR. Abdel Kader S . SARR", "source": "#senegal #covid-19 #emergency-health-data #healthsites"}}, {"type": "node", "id": 4494495240, "lat": 13.7792479, "lon": -14.9734656, "tags": {"amenity": "hospital", "name": "Njoben Wollof Health Post", "operator": "Tamba Sabally"}}, {"type": "node", "id": 4861527021, "lat": 13.0820118, "lon": -11.695658, "tags": {"amenity": "hospital", "fixme": "Check location, no buildings visible at point...", "healthcare": "hospital"}}, {"type": "node", "id": 5238216585, "lat": 14.7151889, "lon": -17.4816358, "tags": {"amenity": "hospital", "healthcare": "hospital", "name": "H\u00f4pital Militaire de Ouakam", "phone": "338603813"}}, {"type": "node", "id": 5298695843, "lat": 14.4387064, "lon": -11.446557, "tags": {"addr:street": "route du lycee", "amenity": "hospital", "name": "CSCOM de Lafia"}}, {"type": "node", "id": 5594772406, "lat": 13.0970981, "lon": -16.7620789, "tags": {"amenity": "hospital", "healthcare": "hospital", "healthcare:speciality": "general", "name": "Kartong Community Clinic", "operator": "Community"}}, {"type": "node", "id": 5836379388, "lat": 13.4129603, "lon": -16.6680257, "tags": {"amenity": "hospital", "name": "fagikunda major hospital"}}, {"type": "node", "id": 6027550386, "lat": 13.3078323, "lon": -14.2103809, "tags": {"amenity": "hospital", "healthcare": "hospital", "name": "Basse health centre"}}, {"type": "node", "id": 6061605039, "lat": 16.0279747, "lon": -16.4584814, "tags": {"amenity": "hospital", "healthcare": "hospital"}}, {"type": "node", "id": 6267165971, "lat": 14.4507129, "lon": -11.439313, "tags": {"amenity": "hospital", "name": "PMI"}}, {"type": "node", "id": 6554143270, "lat": 15.3748574, "lon": -11.4756802, "tags": {"amenity": "hospital", "healthcare": "hospital"}}, {"type": "node", "id": 6557660645, "lat": 18.0750939, "lon": -15.9419011, "tags": {"amenity": "hospital"}}, {"type": "node", "id": 6561834430, "lat": 15.149416, "lon": -11.6526706, "tags": {"amenity": "hospital", "healthcare": "hospital"}}, {"type": "node", "id": 6561834461, "lat": 14.9162246, "lon": -11.7209669, "tags": {"amenity": "hospital", "healthcare": "hospital"}}, {"type": "node", "id": 6566471916, "lat": 14.6168085, "lon": -11.3398917, "tags": {"amenity": "hospital", "healthcare": "hospital", "name": "Cescom"}}, {"type": "node", "id": 6945375788, "lat": 13.4208141, "lon": -16.6817602, "tags": {"amenity": "hospital", "name": "Bundung Maternal & Child Health Hospital"}}, {"type": "node", "id": 7025887086, "lat": 13.2744702, "lon": -16.6471298, "tags": {"amenity": "hospital", "healthcare": "hospital", "name": "Brikama Hospital"}}, {"type": "node", "id": 7129349185, "lat": 10.4802706, "lon": -12.8303882, "tags": {"amenity": "hospital", "name": "Poste de sant\u00e9"}}, {"type": "node", "id": 7151547934, "lat": 13.3966989, "lon": -16.7454379, "tags": {"amenity": "hospital", "healthcare": "hospital", "name": "stop step pharmacy"}}, {"type": "node", "id": 7419189201, "lat": 12.5823346, "lon": -13.3731669, "tags": {"amenity": "hospital", "name": "CS-Sambailo"}}, {"type": "node", "id": 7425715699, "lat": 10.2789443, "lon": -13.4186626, "tags": {"amenity": "hospital", "name": "CS-Bady"}}, {"type": "node", "id": 7425757248, "lat": 10.1363025, "lon": -13.3022788, "tags": {"amenity": "hospital", "name": "CS_Falessade"}}, {"type": "node", "id": 7425780410, "lat": 10.368291, "lon": -13.3555743, "tags": {"amenity": "hospital", "name": "CS_Tondon"}}, {"type": "node", "id": 7425784872, "lat": 10.0755081, "lon": -13.701818, "tags": {"amenity": "hospital", "name": "CS_Tanene"}}, {"type": "node", "id": 7429983523, "lat": 10.9339155, "lon": -13.5007918, "tags": {"amenity": "hospital", "name": "CS_Konsotami"}}, {"type": "node", "id": 7441984166, "lat": 10.7620315, "lon": -11.3607699, "tags": {"amenity": "hospital", "name": "(CS)Arfamoussaya"}}, {"type": "node", "id": 7623365875, "lat": 12.5605015, "lon": -11.4038127, "tags": {"amenity": "hospital", "healthcare": "hospital"}}, {"type": "node", "id": 7643026468, "lat": 10.2083944, "lon": -12.5755507, "tags": {"amenity": "hospital", "healthcare": "hospital", "name": "Poste de sant\u00e9 de Yombo"}}, {"type": "node", "id": 7828839990, "lat": 12.5696414, "lon": -16.2772125, "tags": {"amenity": "hospital", "healthcare": "hospital", "name": "#cognizantindia"}}, {"type": "node", "id": 8100308917, "lat": 13.3912265, "lon": -16.7216219, "tags": {"amenity": "hospital", "name": "Tanka Tanka"}}, {"type": "node", "id": 8132683957, "lat": 13.7500692, "lon": -15.7755584, "tags": {"amenity": "hospital", "beds": "44", "electricity": "Power grid", "emergency": "yes", "healthcare": "Ultrasound,X-Ray,Operating,Theater,Laboratory,Imaging Equipment,Intensive Care Unit,Emergency Department", "name": "Centre de Sant\u00e9 de Nioro du Rip", "operational_status": "Operational", "operator": "MINISTERE DE LA SANTE", "operator:type": "public", "source": "#senegal #covid-19 #emergency-health-data #healthsites", "water_source": "water works", "wheelchair": "yes"}}, {"type": "node", "id": 8132683961, "lat": 14.0993539, "lon": -15.5568434, "tags": {"addr:full": "Quartier Escale Kaffrine", "amenity": "hospital", "beds": "71", "electricity": "grid", "emergency": "yes", "healthcare": "Ultrasound,X-Ray,Operating,Theater,Laboratory,Imaging Equipment,Emergency Department", "name": "EPS (Etablissement Publique de Sant\u00e9) niveau 1 de Kaffrine", "operational_status": "Operational", "operator": "Minist\u00e8re de la sant\u00e9", "operator:type": "Public", "source": "#senegal #covid-19 #emergency-health-data #healthsites", "water_source": "Powered pump", "wheelchair": "yes"}}, {"type": "node", "id": 8132683962, "lat": 14.8583869, "lon": -15.9087225, "tags": {"amenity": "hospital", "electricity": "grid", "emergency": "yes", "healthcare": "X-Ray,Dialysis,Operating,Theater,Laboratory,Imaging Equipment,Intensive Care Unit,Emergency Department", "name": "centre hospitalier national mathlaboul fawzaini de touba", "operational_status": "Operational", "operator": "MATAR LO", "operator:type": "Public", "source": "#senegal #covid-19 #emergency-health-data #healthsites", "water_source": "Powered pump", "wheelchair": "yes"}}, {"type": "node", "id": 8132683966, "lat": 12.7071327, "lon": -15.5611365, "tags": {"amenity": "hospital", "electricity": "grid", "emergency": "yes", "healthcare": "Ultrasound,X-Ray,Laboratory", "name": "District Sanitaire de S\u00e9dhiou", "opening_hours": "24/7", "operational_status": "Operational", "operator": "District Sanitaire de S\u00e9dhiou", "operator:type": "Public", "source": "#senegal #covid-19 #emergency-health-data #healthsites", "water_source": "Water works", "wheelchair": "yes"}}, {"type": "node", "id": 8132683973, "lat": 14.760766, "lon": -16.683435, "tags": {"addr:full": "KHOMBOLE-KEUR MACODOU", "amenity": "hospital", "beds": "57", "electricity": "generator", "emergency": "no", "healthcare": "Ultrasound,MRI,Dialysis,Operating,Theater,Laboratory,Imaging Equipment,Intensive Care Unit", "name": "District sanitaire de Khombole", "operational_status": "Operational", "operator": "MINISTERE DE LA SANTE ET DE L'ACTION SOCIALE", "operator:type": "Public", "source": "#senegal #covid-19 #emergency-health-data #healthsites", "water_source": "water works", "wheelchair": "yes"}}, {"type": "node", "id": 8132683974, "lat": 15.1079614, "lon": -16.6271909, "tags": {"addr:full": "MEKHE-MBAMBARA", "amenity": "hospital", "electricity": "grid", "emergency": "no", "healthcare": "ultrasound,laboratory,intensive care unit,emergency department", "name": "District sanitaire de M\u00e9kh\u00e9", "operational_status": "Operational", "operator": "MINISTERE DE LA SANTE ET DE L'ACTION SOCIALE", "operator:type": "public", "source": "#senegal #covid-19 #emergency-health-data #healthsites", "water_source": "water works", "wheelchair": "no"}}, {"type": "node", "id": 8132683975, "lat": 14.345123, "lon": -16.4259587, "tags": {"addr:full": "Fatick extension, RN2", "amenity": "hospital", "beds": "50", "electricity": "grid", "emergency": "yes", "healthcare": "Emergency Department", "operational_status": "Operational", "operator": "Ordre hospitalier St Jean de Dieu", "operator:type": "Public", "source": "#senegal #covid-19 #emergency-health-data #healthsites", "water_source": "water works", "wheelchair": "yes"}}, {"type": "node", "id": 8132683977, "lat": 14.4918607, "lon": -16.0663037, "tags": {"addr:full": "Gossas", "amenity": "hospital", "beds": "12", "electricity": "grid", "emergency": "yes", "healthcare": "Operating,Theater,Laboratory,Intensive Care Unit,Emergency Department", "name": "Centre de Sant\u00e9 de Gossas", "operational_status": "Operational", "operator": "MINISTERE DE LA SANTE ET DE L'ACTION SOCIALE", "operator:type": "Public", "source": "#senegal #covid-19 #emergency-health-data #healthsites", "water_source": "water works", "wheelchair": "yes"}}, {"type": "node", "id": 8132683981, "lat": 13.981676, "lon": -14.7919726, "tags": {"addr:full": "N1", "amenity": "hospital", "beds": "60", "building": "yes", "electricity": "grid", "emergency": "yes", "healthcare": "Ultrasound,X-Ray,Operating,Theater,Laboratory,Imaging Equipment,Intensive Care Unit,Emergency Department", "name": "CENTRE DE SANTE KOUNGHEUL", "operational_status": "Operational", "operator": "Etat du S\u00e9n\u00e9gal", "operator:type": "public", "source": "#senegal #covid-19 #emergency-health-data #healthsites", "water_source": "powered pump", "wheelchair": "yes"}}, {"type": "node", "id": 8132683983, "lat": 12.9054789, "lon": -14.9484396, "tags": {"addr:full": "Sare Moussa", "amenity": "hospital", "beds": "150", "electricity": "Power grid", "emergency": "yes", "healthcare": "X-Ray,Operating,Theater,Laboratory,Imaging Equipment,Intensive Care Unit,Emergency Department", "name": "Centre Hospitalier R\u00e9gional de Kolda", "operational_status": "Operational", "operator": "Minist\u00e8re de la Sant\u00e9 et de l'Action Sociale", "operator:type": "public", "source": "#senegal #covid-19 #emergency-health-data #healthsites", "water_source": "water works", "wheelchair": "yes"}}, {"type": "node", "id": 8214887520, "lat": 11.2903819, "lon": -10.717446, "tags": {"amenity": "hospital", "name": "H\u00f4pital pr\u00e9fectoral de Dinguiraye"}}, {"type": "node", "id": 8214887818, "lat": 10.7320319, "lon": -11.1056981, "tags": {"amenity": "hospital", "name": "H\u00f4pital pr\u00e9fectoral de Dabola"}}, {"type": "node", "id": 8274362609, "lat": 10.0137152, "lon": -12.8986223, "tags": {"amenity": "hospital", "healthcare": "hospital", "name": "CDS Danmakanya"}}, {"type": "node", "id": 8293282865, "lat": 12.0641984, "lon": -16.025445, "tags": {"amenity": "hospital", "emergency": "no", "healthcare": "hospital", "name": "Hospital Regional de Cacheu - Buota Na Fantchamna"}}, {"type": "node", "id": 8388341429, "lat": 11.4154067, "lon": -12.1098283, "tags": {"amenity": "hospital", "name": "Centre de sant\u00e9 de sannou"}}, {"type": "node", "id": 8415821817, "lat": 13.4168646, "lon": -16.7054762, "tags": {"amenity": "hospital", "healthcare": "hospital", "name": "Sukuta health center"}}, {"type": "node", "id": 8575794048, "lat": 10.9125578, "lon": -15.0306956, "tags": {"amenity": "hospital", "name": "Centre de sant\u00e9 Kadignet"}}, {"type": "node", "id": 8599114128, "lat": 10.842299, "lon": -14.8818454, "tags": {"amenity": "hospital", "healthcare": "yes", "name": "Centre de sant\u00e9 de kapkin"}}, {"type": "node", "id": 8606589641, "lat": 10.9125374, "lon": -14.9187368, "tags": {"amenity": "hospital", "healthcare": "yes", "name": "Centre de sant\u00e9 kasmak"}}, {"type": "node", "id": 8606593452, "lat": 10.8073894, "lon": -15.0218048, "tags": {"amenity": "hospital", "name": "Centre de sant\u00e9 katfoura"}}, {"type": "node", "id": 8639800648, "lat": 16.5227749, "lon": -15.2237618, "tags": {"amenity": "hospital", "healthcare": "hospital", "name": "Poste de Sant\u00e9"}}, {"type": "node", "id": 8699021962, "lat": 11.2206422, "lon": -11.8106427, "tags": {"amenity": "hospital", "name": "Centre de sant\u00e9 de Ko\u00efn"}}, {"type": "node", "id": 8842403921, "lat": 15.0974223, "lon": -10.6428355, "tags": {"amenity": "hospital", "name": "Cscom Dioncoulane"}}, {"type": "node", "id": 8933099797, "lat": 13.8047815, "lon": -13.5824065, "tags": {"amenity": "hospital", "healthcare": "hospital", "name": "Poste de Sant\u00e9 de BOTOU"}}, {"type": "node", "id": 8976826291, "lat": 12.8800253, "lon": -14.9557234, "tags": {"amenity": "hospital", "healthcare": "hospital", "name": "Poste de Sant\u00e9  Sar\u00e9 Kemo"}}, {"type": "node", "id": 9001340425, "lat": 13.1792612, "lon": -16.7561307, "tags": {"addr:lga": "Brikama", "amenity": "hospital", "capacity:beds": "23", "emergency": "yes", "name": "Gunjur Mino Health Center", "opening_hours": "24/7", "operational_status": "operational", "operator": "Haddy Fadera", "operator:type": "public", "phone": "+2207633671", "power_supply:source": "power_grid", "staff_count:doctors": "1", "staff_count:nurses": "35", "wheelchair": "yes"}}, {"type": "node", "id": 9001340427, "lat": 13.1964421, "lon": -16.4575757, "tags": {"addr:lga": "Foni", "addr:street": "Mbula", "amenity": "hospital", "capacity:beds": "5", "emergency": "yes", "name": "Medics for Health Kafuta Health Center", "opening_hours": "24/7", "operational_status": "operational", "operator": "Sarjo Camara", "operator:type": "public", "phone": "+2203936887", "power_supply:source": "power_grid", "staff_count:nurses": "7", "wheelchair": "yes"}}, {"type": "node", "id": 9021712803, "lat": 15.531235, "lon": -15.060569, "tags": {"amenity": "hospital", "healthcare": "hospital"}}, {"type": "node", "id": 9108219424, "lat": 11.7999846, "lon": -15.7399856, "tags": {"addr:city": "Prabis", "addr:street": "Bairro Novo", "amenity": "hospital", "healthcare": "hospital", "healthcare:speciality": "general", "name": "Centro de Sa\u00fade de Pr\u00e1bis", "operator": "Minist\u00e9rio da Sa\u00fade", "operator:type": "public"}}, {"type": "node", "id": 9283130714, "lat": 15.397049, "lon": -15.1141922, "tags": {"amenity": "hospital", "healthcare": "hospital", "name": "District Sanitaire de Lingu\u00e8re"}}, {"type": "node", "id": 9395174640, "lat": 10.6853185, "lon": -12.1828173, "tags": {"amenity": "hospital", "healthcare": "hospital", "healthcare:speciality": "general", "name": "Centre de Sant\u00e9 de Soriyah", "operator": "Healthcare worker", "operator:type": "public"}}, {"type": "node", "id": 9397238423, "lat": 10.0099194, "lon": -13.9508363, "tags": {"amenity": "hospital", "name": "Poste de sant\u00e9 Kito"}}, {"type": "node", "id": 9532026059, "lat": 11.7788967, "lon": -12.2030967, "tags": {"amenity": "hospital", "name": "Centre de sant\u00e9 am\u00e9lior\u00e9 de Donghel Sigon"}}, {"type": "node", "id": 9593879400, "lat": 10.3757599, "lon": -12.0864831, "tags": {"amenity": "hospital", "name": "H\u00f4pital R\u00e9gional de Mamou"}}, {"type": "node", "id": 9602716790, "lat": 11.3343655, "lon": -12.4939032, "tags": {"amenity": "hospital", "name": "Centre de sant\u00e9 de Diari"}}, {"type": "node", "id": 9656268978, "lat": 16.4688218, "lon": -15.6891342, "tags": {"addr:full": "Richard Toll", "amenity": "hospital", "beds": "78", "contact:phone": "339633939", "electricity": "grid", "emergency": "yes", "healthcare": "doctor, pharmacy, laboratory, birthing center, blood donation, physiotherapy dentist, hospital, optometry/ophtalmology", "healthcare:equipment": "laboratory, Emergency Department, Intensive Care Unit, Operating Theater, Dialysis", "insurance:health": "public", "name": "\u00e9tablissement public de sante de richard toll", "opening_hours": "24/7", "operational_status": "operational", "operator": "Minist\u00e8re de la sant\u00e9 et de l'action sociale", "operator:type": "public", "osm_id": "64496ed5-80f2-40bf-b335-02a5dc02b90f", "source": "#senegal #covid-19 #emergency-health-data-validation #healthsites", "staff_count:doctors": "8", "staff_count:nurses": "7", "water_source": "water works", "wheelchair": "yes"}}, {"type": "node", "id": 9656268992, "lat": 16.0256068, "lon": -16.4979662, "tags": {"addr:full": "Saint Louis", "amenity": "hospital", "beds": "5", "electricity": "grid", "emergency": "no", "healthcare": "hospital", "healthcare:equipment": "imaging equipment", "insurance:health": "public", "name": "poste de sante pmi de sor", "opening_hours": "24/7", "operational_status": "operational", "operator": "Minist\u00e8re de la sant\u00e9 et de l'action sociale", "operator:type": "public", "source": "#senegal #covid-19 #emergency-health-data-validation #healthsites", "staff_count:nurses": "1", "water_source": "powered pump", "wheelchair": "limited"}}, {"type": "node", "id": 9656492939, "lat": 16.468625, "lon": -15.689494, "tags": {"addr:full": "Richard Toll", "amenity": "hospital", "beds": "78", "electricity": "grid", "emergency": "yes", "healthcare": "Doctor, Pharmacy, Laboratory, Rehabilitation, Dentist, Optometry/Ophtalmology, Birthing center, Blood donation, Physiotherapy", "healthcare:equipment": "Operating Theater, laboratory, Emergency Department, Intensive Care Unit", "insurance:health": "public", "name": "\u00c9tablissement public de sante de richard toll", "note": "wrong notation opening_hours=24-juil", "operational_status": "operational", "operator": "Minist\u00e8re de la sant\u00e9 et de l'action sociale", "operator:type": "public", "staff_count:doctors": "8", "staff_count:nurses": "7", "water_source": "water works", "wheelchair": "limited"}}, {"type": "node", "id": 9657218654, "lat": 15.9191045, "lon": -16.2702672, "tags": {"addr:full": "Mpal/Saint-Louis", "amenity": "hospital", "contact:phone": "339625497", "electricity": "grid", "emergency": "yes", "healthcare": "hospital", "healthcare:equipment": "laboratory", "insurance:health": "public", "name": "centre de sante de mpal", "opening_hours": "24/7", "operational_status": "operational", "operator": "Minist\u00e8re de la sant\u00e9 et de l'action sociale", "operator:type": "public", "osm_id": "4d789556-f5a7-4367-8b4a-38b9b2665361", "source": "#senegal #covid-19 #emergency-health-data-validation #healthsites", "staff_count:doctors": "1", "staff_count:nurses": "3", "water_source": "powered pump", "wheelchair": "yes"}}, {"type": "node", "id": 9658881518, "lat": 16.010812, "lon": -16.4932212, "tags": {"addr:full": "Saint Louis", "amenity": "hospital", "beds": "25", "contact:phone": "707259088", "electricity": "grid", "emergency": "no", "healthcare": "Laboratory, Dentist, Pharmacy, Doctor, Optometry/Ophtalmology", "healthcare:equipment": "laboratory, imaging equipment", "insurance:health": "public private", "name": "centre de sante de saint_louis", "opening_hours": "24/7", "operational_status": "operational", "operator": "Minist\u00e8re de la sant\u00e9 et de l'action sociale", "operator:type": "public", "osm_id": "28c28ed9-dea1-4525-9abe-4f82d6b0b64e", "source": "#senegal #covid-19 #emergency-health-data-validation #healthsites", "staff_count:doctors": "4", "staff_count:nurses": "0", "water_source": "water works", "wheelchair": "limited"}}, {"type": "node", "id": 9659561598, "lat": 16.6374678, "lon": -14.8015645, "tags": {"addr:full": "Saint Louis", "amenity": "hospital", "beds": "7", "contact:phone": "773752110", "electricity": "grid", "emergency": "no", "healthcare": "hospital", "insurance:health": "public", "name": "poste de sante mboyo", "opening_hours": "24/7", "operational_status": "operational", "operator": "Minist\u00e8re de la sant\u00e9 et de l'action sociale", "operator:type": "public", "staff_count:doctors": "1", "staff_count:nurses": "1", "water_source": "powered pump", "wheelchair": "yes"}}, {"type": "node", "id": 9659613046, "lat": 16.5107737, "lon": -15.5131268, "tags": {"addr:full": "Saint Louis", "amenity": "hospital", "contact:phone": "339531124", "electricity": "grid", "emergency": "yes", "healthcare": "hospital", "healthcare:equipment": "laboratory", "insurance:health": "public", "name": "centre de sante de dagana", "opening_hours": "24/7", "operational_status": "operational", "operator": "Minist\u00e8re de la sant\u00e9 et de l'action sociale", "operator:type": "public", "osm_id": "8eeafc2a-be28-4df6-9abe-1989acc60ceb", "source": "#senegal #covid-19 #emergency-health-data-validation #healthsites", "water_source": "powered pump", "wheelchair": "yes"}}, {"type": "node", "id": 9670991240, "lat": 14.7751516, "lon": -17.3297759, "tags": {"addr:city": "Commune de Keur Massar Nord", "addr:street": "Route de MTOA unit\u00e9 12", "amenity": "hospital", "emergency": "yes", "healthcare": "hospital", "name": "Tawfeikh lavage", "start_date": "2022/04/16"}}, {"type": "node", "id": 9670991241, "lat": 14.7700767, "lon": -17.3350937, "tags": {"amenity": "hospital", "healthcare": "hospital", "name": "Multi service Serigne Babacar Sy"}}, {"type": "node", "id": 9683652817, "lat": 16.4003017, "lon": -16.4229277, "tags": {"amenity": "hospital"}}, {"type": "node", "id": 9695485497, "lat": 11.4465706, "lon": -11.8482029, "tags": {"amenity": "hospital", "name": "Centre de sant\u00e9 de Konah"}}, {"type": "node", "id": 9695557238, "lat": 10.665142, "lon": -14.5861575, "tags": {"amenity": "hospital", "healthcare": "hospital", "name": "Centre de sant\u00e9 de kassapo"}}, {"type": "node", "id": 9768720303, "lat": 18.0700747, "lon": -15.9865234, "tags": {"amenity": "hospital", "healthcare": "hospital"}}, {"type": "node", "id": 9770115360, "lat": 10.9962709, "lon": -12.6977732, "tags": {"amenity": "hospital", "name": "Centre de sant\u00e9 de Donghol Touma"}}, {"type": "node", "id": 9880801991, "lat": 11.2232657, "lon": -12.3169674, "tags": {"amenity": "hospital", "name": "Centre de sant\u00e9 de Daralabe"}}, {"type": "node", "id": 9880830680, "lat": 11.4877417, "lon": -11.5469617, "tags": {"amenity": "hospital", "name": "Centre de sant\u00e9 de Kollet"}}, {"type": "node", "id": 9880831055, "lat": 11.2889336, "lon": -12.2841397, "tags": {"amenity": "hospital", "name": "Centre de sant\u00e9 de Fafabhe"}}, {"type": "node", "id": 9955124519, "lat": 17.0482391, "lon": -13.8984034, "tags": {"amenity": "hospital", "name:en": "Alag center health"}}, {"type": "node", "id": 9989552369, "lat": 16.0647989, "lon": -13.8609154, "tags": {"addr:full": "Galoya/ Pete", "amenity": "hospital", "electricity": "grid", "healthcare": "doctor, pharmacy, birthing center", "insurance:health": "None", "name": "centre de sante de galoya", "opening_hours": "24/7", "operational_status": "operational", "operator": "Minist\u00e8re de la sant\u00e9 et de l'action sociale", "operator:type": "public", "osm_id": "de9953f3-93e9-478e-a806-33e882d2fedf", "source": "#senegal #covid-19 #emergency-health-data-validation #healthsites", "water_source": "well", "wheelchair": "yes"}}, {"type": "node", "id": 9989552409, "lat": 16.3883958, "lon": -14.0716044, "tags": {"amenity": "hospital", "healthcare": "hospital", "insurance:health": "Unknown", "name": "centre de sante de cas-cas", "opening_hours": "unknown", "operational_status": "non_operational", "operator": "Minist\u00e8re de sant\u00e9Minist\u00e8re de la sant\u00e9 et de l'action sociale", "operator:type": "public", "osm_id": "5902ae15-0d15-4cf1-a230-f16e0dba3f31", "source": "#senegal #covid-19 #emergency-health-data-validation #healthsites"}}, {"type": "node", "id": 9989554729, "lat": 16.3803617, "lon": -14.3127759, "tags": {"addr:full": "A\u00e9r\u00e9 Lao/P\u00e9t\u00e9", "amenity": "hospital", "electricity": "grid", "emergency": "no", "healthcare": "doctor, pharmacy, dentist, birthing center, laboratory", "healthcare:equipment": "ultrasound laboratory", "insurance:health": "None", "name": "centre de sante a\u00e9r\u00e9 lao", "opening_hours": "24/7", "operational_status": "operational", "operator": "Minist\u00e8re de la sant\u00e9 et de l'action sociale", "operator:type": "public", "osm_id": "efa526da-6f2c-4e0f-b2c4-2aa7ab246d9e", "source": "#senegal #covid-19 #emergency-health-data-validation #healthsites", "staff_count:doctors": "1", "staff_count:nurses": "1", "water_source": "water works", "wheelchair": "yes"}}, {"type": "node", "id": 9989554732, "lat": 16.1016123, "lon": -13.954996, "tags": {"addr:full": "P\u00e9t\u00e9/Podor", "amenity": "hospital", "contact:phone": "776115025", "electricity": "grid", "emergency": "yes", "healthcare": "doctor, pharmacy, dentist, blood donation, birthing center, laboratory", "healthcare:equipment": "laboratory, Emergency Department", "insurance:health": "public", "name": "centre de sante p\u00e9t\u00e9", "opening_hours": "24/7", "operational_status": "operational", "operator": "Minist\u00e8re de la sant\u00e9 et de l'action sociale", "operator:type": "public", "osm_id": "c080323f-d379-4f4f-9fe2-68ca6eda8456", "source": "#senegal #covid-19 #emergency-health-data-validation #healthsites", "staff_count:doctors": "3", "water_source": "well", "wheelchair": "yes"}}, {"type": "node", "id": 10082108663, "lat": 16.0609545, "lon": -13.8114641, "tags": {"addr:city": "Mbolo Birane", "amenity": "hospital", "healthcare": "hospital", "name": "PHARMACIE", "operator": "Priv\u00e9", "operator:type": "private"}}, {"type": "node", "id": 10579982085, "lat": 11.0647991, "lon": -12.3951703, "tags": {"amenity": "hospital", "name": "H\u00f4pital pr\u00e9fectoral de Pita"}}, {"type": "node", "id": 10579994131, "lat": 11.1083492, "lon": -12.2988074, "tags": {"amenity": "hospital", "name": "Centre de sant\u00e9 de Bantignel"}}, {"type": "node", "id": 10580019735, "lat": 10.9919658, "lon": -12.3849547, "tags": {"amenity": "hospital", "name": "Centre de sant\u00e9 de Bourouwal Tappe"}}, {"type": "node", "id": 10705101000, "lat": 11.0641963, "lon": -12.3953292, "tags": {"amenity": "hospital", "name": "H\u00f4pital pr\u00e9fectoral de Pita"}}, {"type": "node", "id": 10705149637, "lat": 11.1812217, "lon": -12.5540897, "tags": {"amenity": "hospital", "name": "Centre de sant\u00e9 am\u00e9lior\u00e9 de Timbi Madina"}}, {"type": "node", "id": 10723162296, "lat": 15.3506208, "lon": -16.3469011, "tags": {"amenity": "hospital", "healthcare": "hospital", "name": "Maternit\u00e9"}}, {"type": "node", "id": 10860572061, "lat": 15.3040447, "lon": -13.9590618, "tags": {"addr:city": "Ranerou ferlo", "amenity": "hospital", "beds": "55", "electricity": "grid", "insurance:health": "yes", "name": "Centre de sante de Thierno Mouhamadou Sa\u00efdou Ba", "opening_hours": "24/7", "operational_status": "operational", "operator:type": "public", "source": "#senegal #Public Health #Sunu Wer Gye Yaram #WNAH #Healthsites", "water_source": "water_works", "wheelchair": "yes"}}, {"type": "node", "id": 10860572068, "lat": 15.6605149, "lon": -13.2618979, "tags": {"addr:city": "matam", "amenity": "hospital", "beds": "0", "electricity": "grid", "healthcare": "hospital", "insurance:health": "yes", "name": "Hopital regionale de Matam", "opening_hours": "24/7", "operational_status": "operational", "operator:type": "public", "source": "#senegal #Public Health #Sunu Wer Gye Yaram #WNAH #Healthsites", "water_source": "water_works", "wheelchair": "yes"}}, {"type": "node", "id": 10860572095, "lat": 15.9654639, "lon": -13.6065914, "tags": {"addr:city": "Thilogne", "amenity": "hospital", "beds": "33", "electricity": "grid", "insurance:health": "yes", "name": "Centre de sante de Thilogne", "opening_hours": "24/7", "operational_status": "operational", "operator:type": "public", "source": "#senegal #Public Health #Sunu Wer Gye Yaram #WNAH #Healthsites", "water_source": "water_works", "wheelchair": "yes"}}, {"type": "node", "id": 10860572104, "lat": 15.3541181, "lon": -13.027545, "tags": {"addr:city": "X", "amenity": "hospital", "beds": "16", "electricity": "grid", "insurance:health": "yes", "name": "Centre de Sante de Hamady Hounare", "opening_hours": "24/7", "operational_status": "operational", "operator:type": "public", "source": "#senegal #Public Health #Sunu Wer Gye Yaram #WNAH #Healthsites", "water_source": "water_works", "wheelchair": "yes"}}, {"type": "node", "id": 10860572109, "lat": 15.6038666, "lon": -13.3298457, "tags": {"addr:city": "Ourossogui", "amenity": "hospital", "beds": "65", "electricity": "grid", "insurance:health": "yes", "name": "Centre Hospitalier Regional de Ourossogui", "opening_hours": "24/7", "operational_status": "operational", "operator:type": "public", "source": "#senegal #Public Health #Sunu Wer Gye Yaram #WNAH #Healthsites", "water_source": "water_works", "wheelchair": "yes"}}, {"type": "node", "id": 10860572110, "lat": 15.9877066, "lon": -13.6536696, "tags": {"addr:city": "Agnam Civol", "amenity": "hospital", "beds": "53", "electricity": "grid", "insurance:health": "yes", "name": "Hopital Abdoul Cisse Kane", "opening_hours": "24/7", "operational_status": "operational", "operator:type": "public", "source": "#senegal #Public Health #Sunu Wer Gye Yaram #WNAH #Healthsites", "water_source": "water_works", "wheelchair": "yes"}}, {"type": "node", "id": 10860572167, "lat": 15.4854524, "lon": -13.185398, "tags": {"addr:city": "Kanel", "amenity": "hospital", "beds": "22", "electricity": "grid", "insurance:health": "yes", "name": "Centre de sante de reference de Kanel", "opening_hours": "24/7", "operational_status": "operational", "operator:type": "public", "source": "#senegal #Public Health #Sunu Wer Gye Yaram #WNAH #Healthsites", "water_source": "water_works", "wheelchair": "yes"}}, {"type": "node", "id": 10860572244, "lat": 15.6535257, "lon": -13.2538692, "tags": {"addr:city": "Matam", "amenity": "hospital", "beds": "0", "electricity": "grid", "healthcare": "hospital", "insurance:health": "yes", "name": "Centre de sante Matam", "opening_hours": "24/7", "operational_status": "operational", "operator:type": "public", "source": "#senegal #Public Health #Sunu Wer Gye Yaram #WNAH #Healthsites", "water_source": "water_works", "wheelchair": "yes"}}, {"type": "node", "id": 10959254372, "lat": 10.6389615, "lon": -11.8262304, "tags": {"amenity": "hospital", "name": "Centre de sant\u00e9 de Timbo"}}, {"type": "node", "id": 10997434543, "lat": 13.4207947, "lon": -16.6733673, "tags": {"amenity": "hospital", "emergency": "yes", "healthcare": "hospital", "name": "Ahmadiyya Hospital"}}, {"type": "node", "id": 11085308005, "lat": 13.5647056, "lon": -15.7502858, "tags": {"amenity": "hospital", "name": "Illiassa Minor Health Clinic"}}, {"type": "node", "id": 11165231105, "lat": 10.3205447, "lon": -11.0778737, "tags": {"amenity": "hospital", "name": "Centr\u00e8s de sant\u00e9 Passaya"}}, {"type": "node", "id": 11243762067, "lat": 14.7544574, "lon": -17.4637853, "tags": {"amenity": "hospital", "healthcare": "hospital", "name": "Clinique Yama Dr MBODJ"}}, {"type": "way", "id": 32215958, "center": {"lat": 11.041549, "lon": -12.0452974}, "nodes": [361253802, 361253803, 361253805, 361253806, 361253808, 361253809, 361253810, 361253812, 361253813, 361253817, 361253814, 361253827, 361253802], "tags": {"amenity": "hospital", "name": "Centre Sante"}}, {"type": "way", "id": 100202397, "center": {"lat": 14.7743154, "lon": -17.3844039}, "nodes": [1158224297, 1158221515, 1158221508, 1158224306, 1158224311, 4254302213, 1158224315, 1158224320, 1158224297], "tags": {"amenity": "hospital", "barrier": "wall", "healthcare": "hospital", "name": "H\u00f4pital Roi Baudouin", "source": "survey"}}, {"type": "way", "id": 125548270, "center": {"lat": 13.2318305, "lon": -16.0767903}, "nodes": [1394125449, 1394125448, 3405775022, 1394125431, 2540725171, 1394125430, 3405775018, 3405775019, 3405775020, 3405775024, 3405775023, 1394125449], "tags": {"amenity": "hospital", "healthcare": "hospital", "name": "Bwiam General Hospital", "name:tr": "Bwiam Genel Hastanesi", "wikidata": "Q2364301"}}, {"type": "way", "id": 130275531, "center": {"lat": 11.8645, "lon": -15.6309054}, "nodes": [1435338670, 1435338625, 1435338627, 1435338628, 1435338634, 1435338630, 1435338646, 1435338647, 1435338650, 1435338652, 1435338651, 1435338656, 1435338679, 1435338677, 1435338675, 1435338670], "tags": {"amenity": "hospital", "barrier": "wall", "emergency": "yes", "landuse": "military", "name": "Hospital Militar"}}, {"type": "way", "id": 130631676, "center": {"lat": 11.8577139, "lon": -15.6178199}, "nodes": [1438157147, 1438157180, 1438157144, 1437677022, 1437677013, 1438157093, 1438157095, 1438157085, 1438157091, 1438157097, 1438157147], "tags": {"amenity": "hospital", "barrier": "wall", "name": "Hospital Raoul Follereau"}}, {"type": "way", "id": 153697694, "center": {"lat": 18.1049541, "lon": -15.9619948}, "nodes": [1663261704, 1663261702, 1663261700, 1663261703, 1663261704], "tags": {"alt_name": "H\u00f4pital Ould Bouamatou", "amenity": "hospital", "emergency": "yes", "healthcare": "hospital", "name": "Ophthalmological Hospital"}}, {"type": "way", "id": 166815845, "center": {"lat": 14.7262154, "lon": -17.2597138}, "nodes": [1782477602, 2412063063, 1782477600, 1782477601, 1782477603, 1782477602], "tags": {"addr:full": "route de sangalkam", "amenity": "hospital", "beds": "82", "contact:phone": "3.38366327E8", "electricity": "Power grid", "emergency": "yes", "healthcare": "Ultrasound,X-Ray,Operating,Theater,Laboratory,Imaging Equipment,Emergency Department", "name": "Centre Hospitalier Youssou Mbargane Diop", "operational_status": "Operational", "operator": "Cheikh Mbaye SECK", "operator:type": "Public", "source": "#senegal #covid-19 #emergency-health-data #healthsites", "water_source": "Water works", "wheelchair": "yes"}}, {"type": "way", "id": 169804526, "center": {"lat": 14.6426353, "lon": -16.2318536}, "nodes": [254650486, 1809656271, 1809656384, 1809656217, 1809656208, 1809655775, 1809655765, 1809655755, 254650486], "tags": {"addr:city": "Diourbel", "addr:postcode": "21600", "amenity": "hospital", "emergency": "yes", "name": "Centre Hospitalier R\u00e9gional \"Heinrich L\u00fcbke\""}}, {"type": "way", "id": 183044239, "center": {"lat": 10.0472559, "lon": -12.8601147}, "nodes": [1934061272, 1934061098, 1934061074, 1934061320, 1934061125, 1934061272], "tags": {"amenity": "hospital", "name": "Centre PMI"}}, {"type": "way", "id": 183044286, "center": {"lat": 10.0489962, "lon": -12.8614436}, "nodes": [1934061132, 1934061143, 3461564549, 3461564548, 3461564547, 1934061147, 1934061114, 3461564546, 1934061271, 1934061132], "tags": {"addr:city": "\u07de\u07cc\u07f2\u07d8\u07cc\u07e6\u07ca\u07eb", "amenity": "hospital", "name": "H\u00f4pital R\u00e9gional Alpha Oumar Diallo", "name:fr": "Hopital central", "name:ko": "\u07d8\u07ca\u07f2\u07d8\u07ca\u07df\u07cc\u07db\u07cf\u07eb \u07ca\u07df\u07dd\u07ca\u07eb \u07ce\u07e1\u07ca\u07ef\u07d9 \u07d6\u07ca\u07df\u07cf\u07eb"}}, {"type": "way", "id": 191634699, "center": {"lat": 14.7318249, "lon": -17.4448433}, "nodes": [2022167668, 2022167670, 2022167669, 2022167671, 2022167668], "tags": {"amenity": "hospital", "emergency": "yes", "healthcare": "hospital", "name": "H\u00f4pital G\u00e9n\u00e9ral de Grand Yoff", "short_name": "HOGGY"}}, {"type": "way", "id": 193912968, "center": {"lat": 14.6799027, "lon": -17.4620348}, "nodes": [2044201734, 2044201736, 2044201731, 2044201733, 2044201738, 5304605322, 2044201730, 2044201729, 2044201724, 2044201721, 2044201720, 2044201719, 2044201705, 2044201706, 2044201708, 2044201707, 2044201711, 2044201710, 2044201712, 2044201713, 2044201715, 2044201714, 2044201717, 2044201718, 2044201725, 2044201726, 2044201727, 2044201728, 2176990949, 2044201734], "tags": {"addr:street": "Rue 70x55", "amenity": "hospital", "building": "yes", "healthcare": "hospital", "name": "Clinique Fann Hock;SOS Cardio", "source": "bing;survey"}}, {"type": "way", "id": 195543006, "center": {"lat": 16.026429, "lon": -16.5046454}, "nodes": [2059677525, 2059677524, 2059677520, 2059677521, 2059677525], "tags": {"amenity": "hospital", "building": "yes", "building:condition": "good", "building:levels": "1", "building:material": "brick", "healthcare": "hospital", "name": "CCBM electonique", "roof:shape": "flat", "source": "Field survey"}}, {"type": "way", "id": 196123066, "center": {"lat": 12.5562659, "lon": -16.5807251}, "nodes": [2064980481, 3057384465, 3057384461, 3057384456, 2064980460, 2064980646, 3057384430, 3057384467, 2064980679, 2064980481], "tags": {"amenity": "hospital", "emergency": "no"}}, {"type": "way", "id": 196706353, "center": {"lat": 12.8095688, "lon": -16.231975}, "nodes": [2070009942, 2070009935, 2070009938, 2070009944, 2070009950, 2070009948, 2070009952, 2070009954, 2070009958, 2070009960, 2070009962, 2070009966, 2070009964, 2070009956, 2070009946, 2070009942], "tags": {"amenity": "hospital", "name": "Centre Hospitalier de Bignona"}}, {"type": "way", "id": 197039417, "center": {"lat": 14.7059606, "lon": -17.4540171}, "nodes": [2073316407, 2073316405, 2073316410, 2073316412, 2104464366, 2073316409, 2104464365, 2073316411, 2073316402, 2073316401, 2073316399, 2073316400, 2073316392, 2073316389, 2073316395, 2073316393, 2073316386, 2073316385, 2073316388, 2073316387, 2104464362, 2104464363, 2104464364, 2073316404, 2073316403, 2073316407], "tags": {"amenity": "hospital", "beds": "15", "electricity": "Power grid", "emergency": "yes", "healthcare": "hospital", "name": "Centre de sant\u00e9 de Grand Dakar", "operational_status": "Operational", "operator": "MSAS", "operator:type": "public", "source": "#senegal #covid-19 #emergency-health-data #healthsites", "water_source": "groundwater", "wheelchair": "yes"}}, {"type": "way", "id": 200758626, "center": {"lat": 16.0346522, "lon": -16.5032257}, "nodes": [2107212421, 2107212419, 2107212415, 2107212417, 2107212421], "tags": {"amenity": "hospital", "building": "yes", "building:condition": "good", "building:levels": "0", "building:material": "brick", "healthcare": "hospital", "name": "Centre m\u00e9dical de Garnison Nord", "roof:shape": "flat", "source": "Field survey"}}, {"type": "way", "id": 202855790, "center": {"lat": 10.6363591, "lon": -11.4572371}, "nodes": [2127964265, 2127964215, 2131232477, 2127964224, 2127964217, 2127964265], "tags": {"amenity": "hospital", "name": "Mango e.V. operating building", "name:de": "Mango e.V. OP-Zentrum", "source": "Bing"}}, {"type": "way", "id": 205490741, "center": {"lat": 12.5561925, "lon": -12.1834866}, "nodes": [2154538861, 2154538856, 2154538857, 2154538858, 2154538859, 2154538860, 2154538862, 2154538863, 2154561034, 2154538861], "tags": {"amenity": "hospital", "beds": "36", "electricity": "grid", "emergency": "yes", "healthcare": "Ultrasound,Operating,Theater,Laboratory,Imaging Equipment,Emergency Department", "healthcare_departments:general_medicine": "yes", "healthcare_departments:medical_laboratory": "yes", "healthcare_departments:operating_room": "yes", "name": "District Sanitaire de K\u00e9dougou", "operational_status": "Operational", "operator": "Etat du s\u00e9n\u00e9gal", "operator:type": "government", "place:area_alternate": "K\u00e9dougou", "place:description": "Sud-Est du S\u00e9n\u00e9gal (S\u00e9n\u00e9gal Oriental)", "place:nearestlandmark": "Mairie", "source": "#senegal #covid-19 #emergency-health-data #healthsites", "water_source": "powered pump", "wheelchair": "no"}}, {"type": "way", "id": 206818905, "center": {"lat": 14.7118924, "lon": -17.2717612}, "nodes": [2108199147, 2168666851, 7606329476, 7606329477, 2108199147], "tags": {"addr:full": "Rue Savers", "amenity": "hospital", "beds": "40", "electricity": "Power grid", "emergency": "yes", "healthcare": "Ultrasound,X-Ray,Operating,Theater,Laboratory,Imaging Equipment,Emergency Department", "layer": "1", "name": "centre de sant\u00e9 Polyclinique de Rufisque", "operational_status": "Operational", "operator": "\u00c9tat du Senegal", "operator:type": "Public", "source": "#senegal #covid-19 #emergency-health-data #healthsites", "water_source": "Water works", "wheelchair": "yes"}}, {"type": "way", "id": 207157394, "center": {"lat": 12.5580293, "lon": -16.2823823}, "nodes": [2173139457, 2173139456, 2173139455, 2173139458, 10125761192, 10125761193, 2173139457], "tags": {"amenity": "hospital", "healthcare": "hospital", "name": "Hopital Regional de Ziginchor"}}, {"type": "way", "id": 207449367, "center": {"lat": 14.682153, "lon": -17.4506096}, "nodes": [2177046964, 2177046965, 2177046960, 2177046956, 2177046958, 2177046957, 2177046962, 2177046963, 2177046964], "tags": {"addr:city": "dakar", "addr:street": "Avenue Blaise Diagne", "amenity": "hospital", "building": "yes", "healthcare": "hospital", "source": "bing"}}, {"type": "way", "id": 207989994, "center": {"lat": 14.8018023, "lon": -16.9357507}, "nodes": [2182724810, 2182724811, 2182724814, 2182724813, 2182724812, 2182724809, 2182724808, 2182724806, 2182724807, 2182724793, 2182724792, 2182724794, 2182724797, 2182724799, 2182724798, 2182724796, 2182724795, 2182724800, 2182724801, 2182724802, 2182724803, 2182724804, 2182724805, 2182724810], "tags": {"amenity": "hospital", "denomination": "catholic", "name": "Hopital Saint Jean de Dieu", "religion": "christian"}}, {"type": "way", "id": 213114764, "center": {"lat": 14.7272055, "lon": -17.1641207}, "nodes": [2228650975, 2228650948, 2228650950, 4603475566, 2228650987, 2228651042, 2228651064, 2228651104, 2228651106, 2419384083, 4603475565, 6651076201, 6651076202, 2419384074, 2419384059, 2228650975], "tags": {"addr:city": "Diamniadio", "addr:street": "N2", "amenity": "hospital", "emergency": "yes", "healthcare": "hospital", "healthcare:speciality": "paediatrics;general;ophthalmology;dermatology;dentistry", "name": "H\u00f4pital des Enfants de Diamniadio", "phone": "+221 33 836 35 21, +221 33 879 02 00, +221 78 137 25 75", "website": "https://hed.sn/", "wheelchair": "yes"}}, {"type": "way", "id": 227409816, "center": {"lat": 17.5306311, "lon": -14.7081549}, "nodes": [2360954776, 2360954777, 2360954778, 2360954779, 2360954776], "tags": {"addr:city": "\u0628\u0648\u062a\u0644\u0645\u064a\u062a", "amenity": "hospital", "building": "yes", "name": "\u0645\u0633\u062a\u0634\u0641\u0649 \u0628\u0648\u062a\u0644\u0645\u064a\u062a", "name:ar": "\u0645\u0633\u062a\u0634\u0641\u0649 \u0628\u0648\u062a\u0644\u0645\u064a\u062a"}}, {"type": "way", "id": 228620822, "center": {"lat": 18.0632371, "lon": -15.9577321}, "nodes": [2372843435, 4508087539, 4508087555, 2372843436, 2372843437, 2372843438, 2372843435], "tags": {"addr:city": "\u0646\u0648\u0627\u0643\u0634\u0648\u0637", "amenity": "hospital", "barrier": "wall", "emergency": "yes", "name": "\u0645\u0633\u062a\u0634\u0641\u0649 \u0627\u0644\u0635\u062f\u0627\u0642\u0629", "name:ar": "\u0645\u0633\u062a\u0634\u0641\u0649 \u0627\u0644\u0635\u062f\u0627\u0642\u0629", "name:de": "Krankenhaus As-Sadaqa", "name:en": "Hospital As-Sadaqa", "name:fr": "H\u00f4pital de l'Amiti\u00e9"}}, {"type": "way", "id": 228683585, "center": {"lat": 18.0832343, "lon": -15.9991562}, "nodes": [2373441925, 4476594997, 2373441928, 2373441931, 4476594994, 2373441933, 4476594990, 4476594996, 4476599409, 2373441939, 4476599540, 2373441941, 4476594991, 4476599539, 4476594995, 4476594993, 4476599547, 2373441925], "tags": {"addr:city": "\u0646\u0648\u0627\u0643\u0634\u0648\u0637", "addr:postcode": "\u0665\u0662\u0665\u0662", "addr:street": "\u0634\u0627\u0631\u0639 \u062c\u0645\u0627\u0644 \u0639\u0628\u062f \u0627\u0644\u0646\u0627\u0635\u0631", "amenity": "hospital", "barrier": "wall", "emergency": "no", "name": "\u062a\u062e\u0635\u0635\u0627\u062a \u0627\u0644\u0645\u0633\u062a\u0634\u0641\u0649", "name:ar": "\u062a\u062e\u0635\u0635\u0627\u062a \u0627\u0644\u0645\u0633\u062a\u0634\u0641\u0649", "name:fr": "Centre Hospitalier des Sp\u00e9cialit\u00e9s", "operator": "\u0645\u0624\u0633\u0633\u0629 \u0627\u0644\u0633\u064a\u0631\u0641\u0631 \u0627\u0644\u0645\u0648\u0631\u064a\u062a\u0627\u0646\u064a", "phone": "+\u0662\u0662\u0662 \u0664\u0665 \u0662\u0665 \u0665\u0667 \u0664\u0662", "website": "http://chs.mr"}}, {"type": "way", "id": 228683589, "center": {"lat": 18.0744197, "lon": -15.9910818}, "nodes": [2373441996, 2373441998, 2373442001, 2373442003, 2373441996], "tags": {"addr:city": "\u0646\u0648\u0627\u0643\u0634\u0648\u0637", "amenity": "hospital", "name": "\u0645\u0631\u0643\u0632 \u0627\u0644\u0635\u062d\u0629 - \u0627\u0644\u0623\u0645\u0648\u0645\u0629", "name:ar": "\u0645\u0631\u0643\u0632 \u0627\u0644\u0635\u062d\u0629 - \u0627\u0644\u0623\u0645\u0648\u0645\u0629", "name:fr": "Centre de sant\u00e9 -Maternit\u00e9"}}, {"type": "way", "id": 228768015, "center": {"lat": 18.0867547, "lon": -15.9747244}, "nodes": [2374446198, 2374446199, 2374446200, 2374446201, 2374446198], "tags": {"amenity": "hospital", "healthcare": "hospital", "name": "CENTRE ORTHOP\u00c9DIE"}}, {"type": "way", "id": 228831608, "center": {"lat": 18.0816847, "lon": -15.9809668}, "nodes": [2374946130, 2374946131, 2374946133, 2374946135, 2374946130], "tags": {"addr:city": "\u0646\u0648\u0627\u0643\u0634\u0648\u0637", "amenity": "hospital", "name": "\u0639\u064a\u0627\u062f\u0629", "name:ar": "\u0639\u064a\u0627\u062f\u0629", "name:fr": "Polyclinique"}}, {"type": "way", "id": 228842023, "center": {"lat": 18.0857026, "lon": -15.9875377}, "nodes": [2375053094, 2375053095, 3421435699, 2375053096, 2393518396, 2375053097, 2375053094], "tags": {"addr:city": "\u0646\u0648\u0627\u0643\u0634\u0648\u0637", "addr:city:ar": "\u0646\u0648\u0627\u0643\u0634\u0648\u0637", "amenity": "hospital", "healthcare": "hospital", "name": "\u0645\u0631\u0643\u0632 \u0627\u0644\u0635\u062d\u0629", "name:ar": "\u0645\u0631\u0643\u0632 \u0627\u0644\u0635\u062d\u0629", "name:fr": "CENTRE HYGI\u00c8NE"}}, {"type": "way", "id": 228842048, "center": {"lat": 18.091465, "lon": -15.980098}, "nodes": [2375053204, 2375053205, 2375053206, 2375053207, 2375053208, 2375053209, 2375053210, 2375053204], "tags": {"addr:city": "\u0646\u0648\u0627\u0643\u0634\u0648\u0637", "amenity": "hospital", "emergency": "yes", "healthcare": "hospital", "healthcare:speciality": "oncology", "name": "\u0645\u0633\u062a\u0634\u0641\u0649 \u0627\u0644\u0627\u0646\u0643\u0648\u0644\u0648\u062c\u064a\u0627"}}, {"type": "way", "id": 228855228, "center": {"lat": 18.0976337, "lon": -15.9584384}, "nodes": [2375183978, 2375183981, 2375183983, 2375183985, 2375183978], "tags": {"addr:city": "\u0646\u0648\u0627\u0643\u0634\u0648\u0637", "alt_name": "Old Fort, Nouakchott", "amenity": "hospital", "building:levels": "2", "name": "\u0645\u0633\u062a\u0634\u0641\u0649 \u0627\u0644\u0623\u0645 \u0648\u0627\u0644\u0637\u0641\u0644", "name:ar": "\u0645\u0633\u062a\u0634\u0641\u0649 \u0627\u0644\u0623\u0645 \u0648\u0627\u0644\u0637\u0641\u0644", "name:fr": "H\u00f4pital M\u00e8re et Enfant"}}, {"type": "way", "id": 229021978, "center": {"lat": 18.0453094, "lon": -15.9715713}, "nodes": [2376625275, 2376625277, 2376625278, 2376625279, 2376625275], "tags": {"addr:city": "\u0646\u0648\u0627\u0643\u0634\u0648\u0637", "amenity": "hospital", "healthcare": "hospital", "language:ar": "main", "name": "\u0645\u0631\u0643\u0632 \u0627\u0644\u0635\u062d\u0629", "name:ar": "\u0645\u0631\u0643\u0632 \u0627\u0644\u0635\u062d\u0629", "name:de": "Gesundheitszentrum", "name:en": "Health Centre", "name:es": "Centro de salud", "name:fr": "Centre de Sant\u00e9"}}, {"type": "way", "id": 229122528, "center": {"lat": 18.0780051, "lon": -15.983352}, "nodes": [2377544347, 2377544348, 2377544349, 2377544350, 2377544347], "tags": {"addr:city": "\u0646\u0648\u0627\u0643\u0634\u0648\u0637", "amenity": "hospital", "name": "\u0645\u0631\u0643\u0632 \u0627\u0644\u0635\u062d\u0629", "name:ar": "\u0645\u0631\u0643\u0632 \u0627\u0644\u0635\u062d\u0629", "name:fr": "Centre de sant\u00e9"}}, {"type": "way", "id": 229267535, "center": {"lat": 18.0684721, "lon": -15.9850142}, "nodes": [2378877228, 2378877229, 2378877230, 2378877231, 2378877228], "tags": {"addr:city": "\u0646\u0648\u0627\u0643\u0634\u0648\u0637", "amenity": "hospital", "name": "\u0645\u0631\u0643\u0632 \u0635\u062d\u064a", "name:ar": "\u0645\u0631\u0643\u0632 \u0635\u062d\u064a", "name:fr": "CENTRE SANTE"}}, {"type": "way", "id": 229557678, "center": {"lat": 14.7728688, "lon": -17.4097894}, "nodes": [2381336148, 2381336146, 2381336159, 3478004988, 3478004987, 2381336158, 7497807967, 7497807966, 7497807965, 7497807968, 3478005695, 7497807963, 7497807962, 7497807964, 7497807961, 2381336156, 2381336154, 2381336148], "tags": {"amenity": "hospital", "healthcare": "hospital", "name": "Dallal Jamm"}}, {"type": "way", "id": 230061002, "center": {"lat": 18.0953166, "lon": -15.9267737}, "nodes": [2385861611, 2385861524, 2385861430, 2385861431, 2385861611], "tags": {"addr:city": "\u0646\u0648\u0627\u0643\u0634\u0648\u0637", "amenity": "hospital", "name": "\u0645\u0631\u0643\u0632 \u0627\u0644\u0635\u062d\u0629", "name:ar": "\u0645\u0631\u0643\u0632 \u0627\u0644\u0635\u062d\u0629", "name:fr": "CENTRE SANTE"}}, {"type": "way", "id": 230067828, "center": {"lat": 18.0013101, "lon": -15.9719141}, "nodes": [2385943053, 2385943054, 2385943055, 2385943056, 2385943053], "tags": {"addr:city": "\u0646\u0648\u0627\u0643\u0634\u0648\u0637", "amenity": "hospital", "name": "\u0627\u0644\u0645\u0631\u0643\u0632 \u0627\u0644\u0635\u062d\u064a \u0627\u0644\u0633\u0648\u064a\u0633\u0631\u064a", "name:ar": "\u0627\u0644\u0645\u0631\u0643\u0632 \u0627\u0644\u0635\u062d\u064a \u0627\u0644\u0633\u0648\u064a\u0633\u0631\u064a", "name:fr": "Centre de sant\u00e9 suisse"}}, {"type": "way", "id": 230398168, "center": {"lat": 18.0149789, "lon": -15.9593683}, "nodes": [2389084965, 2389084966, 2389084967, 2389084968, 2389084965], "tags": {"addr:city": "\u0646\u0648\u0627\u0643\u0634\u0648\u0637", "amenity": "hospital", "name": "\u0645\u0631\u0643\u0632 \u0627\u0644\u0635\u062d\u0629", "name:ar": "\u0645\u0631\u0643\u0632 \u0627\u0644\u0635\u062d\u0629", "name:fr": "Centre de Sant\u00e9"}}, {"type": "way", "id": 231168874, "center": {"lat": 18.0530736, "lon": -15.9973478}, "nodes": [2395790138, 2395790145, 2395790147, 2395790149, 2395790138], "tags": {"amenity": "hospital", "name": "Maternit\u00e9 Suisse"}}, {"type": "way", "id": 231486127, "center": {"lat": 18.0731223, "lon": -15.9065707}, "nodes": [2392302191, 2398633169, 2398633171, 2398633174, 2398633180, 2398633183, 2392302191], "tags": {"addr:city": "\u0646\u0648\u0627\u0643\u0634\u0648\u0637", "amenity": "hospital", "barrier": "wall", "name": "\u0645\u0633\u062a\u0648\u0635\u0641 \u062a\u0648\u062c\u0646\u064a\u0646", "name:ar": "\u0645\u0633\u062a\u0648\u0635\u0641 \u062a\u0648\u062c\u0646\u064a\u0646", "name:fr": "Centre de sant\u00e9 Toujounine", "short_name:ar": "\u0645\u0633\u062a\u0648\u0635\u0641 \u062a\u0648\u062c"}}, {"type": "way", "id": 231612842, "center": {"lat": 18.1175128, "lon": -15.9173971}, "nodes": [2399586921, 9923459836, 2399586922, 2399586923, 2399586924, 2399586921], "tags": {"amenity": "hospital", "healthcare": "hospital", "name": "\u0645\u0631\u0643\u0632 \u0627\u0644\u0635\u062d\u0629", "name:ar": "\u0645\u0631\u0643\u0632 \u0627\u0644\u0635\u062d\u0629", "name:fr": "Centre de Sant\u00e9"}}, {"type": "way", "id": 233856804, "center": {"lat": 18.0681908, "lon": -15.9658459}, "nodes": [2421847093, 2421847094, 2421847095, 2421847096, 2421847093], "tags": {"addr:city": "\u0646\u0648\u0627\u0643\u0634\u0648\u0637", "amenity": "hospital", "name": "\u0645\u0631\u0643\u0632 \u0627\u0644\u0635\u062d\u0629 \u0625\u064a\u0637\u0627\u0644\u064a\u0627", "name:ar": "\u0645\u0631\u0643\u0632 \u0627\u0644\u0635\u062d\u0629 \u0625\u064a\u0637\u0627\u0644\u064a\u0627", "name:fr": "Centre de sant\u00e9 italie"}}, {"type": "way", "id": 237538835, "center": {"lat": 18.1096821, "lon": -15.9530106}, "nodes": [2454269548, 2454269549, 2454269550, 2454269551, 2454269548], "tags": {"addr:city": "\u0646\u0648\u0627\u0643\u0634\u0648\u0637", "amenity": "hospital", "name": "\u0645\u0633\u062a\u0634\u0641\u0649 \u0639\u0633\u0643\u0631\u064a", "name:ar": "\u0645\u0633\u062a\u0634\u0641\u0649 \u0639\u0633\u0643\u0631\u064a", "name:fr": "H\u00f4pital Militaire"}}, {"type": "way", "id": 238426772, "center": {"lat": 14.7749213, "lon": -16.9384758}, "nodes": [2462681315, 2462681314, 2462681313, 2462681316, 2462681315], "tags": {"amenity": "hospital", "building": "yes", "name": "Hopital Barthim\u00e9e", "source": "bing"}}, {"type": "way", "id": 241512916, "center": {"lat": 18.1016637, "lon": -15.9565231}, "nodes": [2491286198, 2491286199, 2491286200, 2491286201, 2491286198], "tags": {"amenity": "hospital", "name": "Tab El Hadj", "name:fr": "Dispensaire Ksar"}}, {"type": "way", "id": 243107254, "center": {"lat": 13.4449473, "lon": -14.6660297}, "nodes": [2505410064, 2505410067, 2505410070, 2505410073, 2505410064], "tags": {"amenity": "hospital", "healthcare": "hospital", "name": "Bansang Hospital"}}, {"type": "way", "id": 244011850, "center": {"lat": 18.0996304, "lon": -15.9944032}, "nodes": [2381709307, 2381709310, 2381709312, 2381709314, 2381709307], "tags": {"addr:city": "\u0646\u0648\u0627\u0643\u0634\u0648\u0637", "addr:city:ar": "\u0646\u0648\u0627\u0643\u0634\u0648\u0637", "amenity": "hospital", "healthcare": "hospital", "language:ar": "main", "name": "\u0639\u064a\u0627\u062f\u0629 \u0627\u0628\u0646 \u0633\u064a\u0646\u0627", "name:ar": "\u0639\u064a\u0627\u062f\u0629 \u0627\u0628\u0646 \u0633\u064a\u0646\u0627", "name:etymology": "\u0627\u0628\u0646 \u0633\u064a\u0646\u0627", "name:etymology:wikidata": "Q8011", "name:etymology:wikipedia": "ar:\u0627\u0628\u0646 \u0633\u064a\u0646\u0627", "name:fr": "Clinique Ibn Sina"}}, {"type": "way", "id": 244899882, "center": {"lat": 13.1955856, "lon": -16.4576115}, "nodes": [2521700807, 2521700808, 2521700810, 2521700812, 2521700814, 2521700815, 2521700817, 2521700807], "tags": {"amenity": "hospital", "healthcare": "hospital", "name": "Kafuta Health Center"}}, {"type": "way", "id": 247124195, "center": {"lat": 13.2335615, "lon": -16.0802737}, "nodes": [2540633753, 2540633754, 2540633755, 2540633756, 2540633760, 2540633759, 2540633757, 2540633758, 2540633753], "tags": {"amenity": "hospital", "healthcare": "hospital", "name": "Gambia Family Planning Clinic/Office"}}, {"type": "way", "id": 249740590, "center": {"lat": 13.457523, "lon": -16.5772271}, "nodes": [2563060539, 7215112507, 7215112508, 7215112506, 2563060536, 2563060540, 2563060544, 7215112509, 2563060539], "tags": {"amenity": "hospital", "contact:phone": "+220 4228 223", "contact:website": "http://www.rvth.org/", "emergency": "yes", "healthcare": "hospital", "name": "Edward Francis Small Teaching Hospital (EFSTH)", "old_name": "Royal Victoria Teaching Hospi (RVTH)", "wheelchair": "yes", "wikidata": "Q2171145", "wikipedia": "en:Edward Francis Small Teaching Hospital"}}, {"type": "way", "id": 255596695, "center": {"lat": 13.5421936, "lon": -14.7647392}, "nodes": [2612758557, 2612756044, 2612756042, 2612758553, 2612758555, 2612758557], "tags": {"amenity": "hospital", "emergency": "no", "healthcare": "hospital", "name": "Janjanbureh Health Clinic"}}, {"type": "way", "id": 255706212, "center": {"lat": 13.4563761, "lon": -16.5856633}, "nodes": [2613757672, 2613757666, 9158089906, 2613597025, 2613757668, 2613757665, 2613757670, 2613757672], "tags": {"amenity": "hospital", "healthcare": "hospital", "name": "Psychiatric Hospital"}}, {"type": "way", "id": 255951399, "center": {"lat": 13.2744721, "lon": -16.6471424}, "nodes": [2616555456, 2616555462, 2616555425, 2616555431, 2616555456], "tags": {"amenity": "hospital", "healthcare": "hospital", "name": "Brikama Hospital"}}, {"type": "way", "id": 258889747, "center": {"lat": 15.3716675, "lon": -16.4425104}, "nodes": [2641992319, 2641992313, 2641992315, 2641992322, 2641992319], "tags": {"amenity": "hospital", "emergency": "yes", "healthcare": "hospital", "name": "Centre de Sant\u00e9 de K\u00e9b\u00e9mer"}}, {"type": "way", "id": 284711529, "center": {"lat": 10.1784641, "lon": -14.0308524}, "nodes": [6560887248, 2884288817, 2884288769, 2884288754, 6560887248], "tags": {"amenity": "hospital", "building": "yes", "healthcare": "hospital", "name": "H\u00f4pital Pr\u00e9fectoral de Boffa", "source": "Bing;Maxar"}}, {"type": "way", "id": 303686217, "center": {"lat": 10.8210373, "lon": -12.9886031}, "nodes": [3080892710, 3080892711, 3080892712, 3080892713, 3080892710], "tags": {"amenity": "hospital", "name": "Gougoudje Health Center"}}, {"type": "way", "id": 309486569, "center": {"lat": 14.434081, "lon": -11.4251736}, "nodes": [3148230490, 3148230499, 3099862934, 3147216680, 3148230491, 3148230492, 3151850860, 3148230493, 3148230494, 3148230495, 3148230496, 3148230497, 3148230498, 3148230490], "tags": {"alt_name": "Hopital Fouss Daou; H\u00f4pital R\u00e9gional Fousseyni Daou de Kayes", "amenity": "hospital", "barrier": "wall", "health_facility:type": "hospital", "healthcare": "hospital", "name": "H\u00f4pital Fousseyni Daou", "pcode": "ML01H01H001", "source": "OMS Survey; UNICEF 2014; http://www.malisante.net/hopitaux/8-kayes/voir-details.html", "start_date": "1-Apr-2003", "who:code_csref": "ML01H01", "who:distance": "0", "who:nbre_village": "0"}}, {"type": "way", "id": 310577403, "center": {"lat": 11.4646341, "lon": -12.6230526}, "nodes": [3160203537, 3160203534, 3160203535, 3160203536, 3160203537], "tags": {"amenity": "hospital", "healthcare": "hospital", "name": "Centre du Sant\u00e9 de Korb\u00e9"}}, {"type": "way", "id": 316471185, "center": {"lat": 15.6165278, "lon": -16.236426}, "nodes": [3225937262, 3225937263, 9796897651, 9796897652, 9796897654, 3225937264, 3655603544, 3225937265, 3225937262], "tags": {"addr:full": "Keur serigne bara", "amenity": "hospital", "barrier": "wall", "emergency": "yes", "healthcare": "Ultrasound,X-Ray,Dialysis,Operating,Theater,Laboratory,Imaging Equipment,Intensive Care Unit,Emergency Department", "name": "Centre hospitalier r\u00e9gional Amadou Sakhir Mbaye Louga", "operational_status": "Operational", "operator": "MSAS", "operator:type": "public", "source": "#senegal #covid-19 #emergency-health-data #healthsites"}}, {"type": "way", "id": 321948584, "center": {"lat": 14.7386473, "lon": -17.4655884}, "nodes": [3287145003, 3287145004, 3287145005, 3287145006, 3287145007, 3287145008, 3287145009, 2592617451, 2592617452, 3287145010, 3287145001, 3287145002, 3287144996, 3287145003], "tags": {"amenity": "hospital", "name": "SAMU Municipal"}}, {"type": "way", "id": 325739083, "center": {"lat": 18.1005923, "lon": -15.984603}, "nodes": [3323533359, 3323533360, 3323536561, 3323536562, 3323533359], "tags": {"amenity": "hospital", "building": "yes", "healthcare": "hospital", "name": "Clinique Chiva", "name:ar": "\u0645\u0635\u062d\u0629 \u0627\u0644\u0634\u0641\u0627\u0621", "name:en": "Clinique Chiva", "wikidata": "Q5133869", "wikipedia": "en:Clinique Chiva"}}, {"type": "way", "id": 325739084, "center": {"lat": 18.1104036, "lon": -15.976472}, "nodes": [3323536563, 3323536564, 3323536565, 3323536566, 3323536563], "tags": {"addr:city": "\u0646\u0648\u0627\u0643\u0634\u0648\u0637", "addr:city:ar": "\u0646\u0648\u0627\u0643\u0634\u0648\u0637", "amenity": "hospital", "healthcare": "hospital", "language:ar": "main"}}, {"type": "way", "id": 326021992, "center": {"lat": 18.07505, "lon": -15.9519697}, "nodes": [3326379673, 2382646197, 3326379676, 3397552541, 3326379673], "tags": {"addr:city": "\u0646\u0648\u0627\u0643\u0634\u0648\u0637", "amenity": "hospital", "healthcare": "hospital", "name": "\u0639\u064a\u0627\u062f\u0629", "name:ar": "\u0639\u064a\u0627\u062f\u0629", "name:fr": "CLINIQUE"}}, {"type": "way", "id": 326701668, "center": {"lat": 12.9277417, "lon": -16.7390259}, "nodes": [3333717575, 3333717576, 3333717571, 3333717569, 3333717568, 3333717570, 3333717575], "tags": {"amenity": "hospital", "healthcare": "hospital", "source": "Bing + survey"}}, {"type": "way", "id": 328020271, "center": {"lat": 12.8087882, "lon": -16.6542424}, "nodes": [3348391104, 3348391100, 3348391101, 3348391096, 3348391097, 3348391093, 3348391094, 3348391106, 3348391104], "tags": {"amenity": "hospital", "building": "yes", "source": "survey"}}, {"type": "way", "id": 329014092, "center": {"lat": 10.0433498, "lon": -12.8457356}, "nodes": [3358307973, 3358307974, 3358307975, 3358307976, 3358307973], "tags": {"amenity": "hospital", "building": "hospital", "name": "CS_Wondy"}}, {"type": "way", "id": 332247561, "center": {"lat": 18.1164601, "lon": -15.9429709}, "nodes": [3393584017, 3393584018, 3393584019, 3393584020, 3393584021, 3393584022, 3393584017], "tags": {"addr:city": "\u0646\u0648\u0627\u0643\u0634\u0648\u0637", "amenity": "hospital", "barrier": "wall", "name": "\u0645\u0631\u0643\u0632 \u0627\u0644\u0635\u062d\u0629", "name:ar": "\u0645\u0631\u0643\u0632 \u0627\u0644\u0635\u062d\u0629", "name:fr": "Centre de Sant\u00e9"}}, {"type": "way", "id": 332474635, "center": {"lat": 18.086422, "lon": -15.9907174}, "nodes": [3396133048, 3396133049, 3396133050, 3396133051, 2460703121, 3396133048], "tags": {"addr:city": "\u0646\u0648\u0627\u0643\u0634\u0648\u0637", "addr:city:ar": "\u0646\u0648\u0627\u0643\u0634\u0648\u0637", "amenity": "hospital", "healthcare": "hospital", "healthcare:speciality": "cardiology", "name": "\u0637\u0628 \u0627\u0644\u0642\u0644\u0628", "name:ar": "\u0637\u0628 \u0627\u0644\u0642\u0644\u0628", "name:de": "Kardiologie", "name:es": "Cardiolog\u00eda", "name:fr": "Cardiologie"}}, {"type": "way", "id": 332474636, "center": {"lat": 18.0881386, "lon": -15.9879194}, "nodes": [2460703095, 2460703093, 3396133052, 3396133053, 3396133054, 3396133055, 3396133056, 4473450713, 1101989711, 2460703065, 1101989973, 2460703110, 2460703112, 2460703067, 2460703095], "tags": {"addr:city": "\u0646\u0648\u0627\u0643\u0634\u0648\u0637", "addr:city:ar": "\u0646\u0648\u0627\u0643\u0634\u0648\u0637", "amenity": "hospital", "barrier": "wall", "healthcare": "hospital", "name": "\u0627\u0644\u0645\u0633\u062a\u0634\u0641\u0649 \u0627\u0644\u0648\u0637\u0646\u064a", "name:ar": "\u0627\u0644\u0645\u0633\u062a\u0634\u0641\u0649 \u0627\u0644\u0648\u0637\u0646\u064a", "name:fr": "Centre Hospitalier National"}}, {"type": "way", "id": 333235613, "center": {"lat": 14.7249916, "lon": -17.4294169}, "nodes": [3403683235, 3403683236, 3403683237, 3403683238, 3403683235], "tags": {"amenity": "hospital", "name": "Centre hospitalier de Hann"}}, {"type": "way", "id": 334303506, "center": {"lat": 18.0750446, "lon": -15.9418995}, "nodes": [3414187443, 3414187444, 3414187445, 3414187446, 3414187443], "tags": {"addr:city": "\u0646\u0648\u0627\u0643\u0634\u0648\u0637", "amenity": "hospital", "name": "\u0645\u0631\u0643\u0632 \u0627\u0644\u0635\u062d\u0629", "name:ar": "\u0645\u0631\u0643\u0632 \u0627\u0644\u0635\u062d\u0629", "name:fr": "Centre de Sant\u00e9"}}, {"type": "way", "id": 334308412, "center": {"lat": 17.9676732, "lon": -15.9654401}, "nodes": [3414236322, 3414236323, 3414236324, 3414236325, 3414236322], "tags": {"amenity": "hospital", "healthcare": "hospital", "name": "Centre de sant\u00e9"}}, {"type": "way", "id": 334327210, "center": {"lat": 14.9535502, "lon": -16.8196879}, "nodes": [4950617285, 7609450806, 3414387446, 3414387443, 3414387447, 4427846229, 4427846239, 7609450807, 4950617285], "tags": {"addr:full": "Tivaouane", "amenity": "hospital", "beds": "26", "electricity": "grid", "emergency": "yes", "healthcare": "Ultrasound,Laboratory,Imaging Equipment,Emergency Department", "name": "Centre de sant\u00e9 El Massamba Sall", "operational_status": "Operational", "operator": "Minist\u00e8re de la Sant\u00e9 et de l'action Sociale", "operator:type": "Public", "source": "#senegal #covid-19 #emergency-health-data #healthsites", "water_source": "water works", "wheelchair": "yes"}}, {"type": "way", "id": 334332071, "center": {"lat": 14.9466282, "lon": -16.8070808}, "nodes": [3414434379, 3414434376, 3414434373, 3414434374, 3414434375, 3414434379], "tags": {"amenity": "hospital", "emergency": "yes", "name": "Hopital Abdoul Aziz Sy Dabakh"}}, {"type": "way", "id": 334513859, "center": {"lat": 18.0211962, "lon": -15.9419552}, "nodes": [3415947077, 3415947078, 3415947079, 3415947080, 3415947077], "tags": {"addr:city": "\u0646\u0648\u0627\u0643\u0634\u0648\u0637", "amenity": "hospital", "name": "\u0645\u0631\u0643\u0632 \u0627\u0644\u0635\u062d\u0629", "name:ar": "\u0645\u0631\u0643\u0632 \u0627\u0644\u0635\u062d\u0629", "name:fr": "Poste de Sant\u00e9"}}, {"type": "way", "id": 334513860, "center": {"lat": 18.0619212, "lon": -16.0068979}, "nodes": [3415947081, 3415947082, 3415947083, 2396536231, 3415947081], "tags": {"addr:city": "\u0646\u0648\u0627\u0643\u0634\u0648\u0637", "addr:city:ar": "\u0646\u0648\u0627\u0643\u0634\u0648\u0637", "amenity": "hospital", "healthcare": "hospital", "name": "\u0645\u0631\u0643\u0632 \u0627\u0644\u0635\u062d\u064a", "name:ar": "\u0645\u0631\u0643\u0632 \u0627\u0644\u0635\u062d\u064a", "name:fr": "poste de sant\u00e9"}}, {"type": "way", "id": 335053531, "center": {"lat": 18.1215232, "lon": -15.9310131}, "nodes": [3421821257, 3421821258, 3421821259, 3421821260, 3421821257], "tags": {"addr:city": "\u0646\u0648\u0627\u0643\u0634\u0648\u0637", "amenity": "hospital", "name": "\u0645\u0631\u0643\u0632 \u0627\u0644\u0635\u062d\u0629", "name:ar": "\u0645\u0631\u0643\u0632 \u0627\u0644\u0635\u062d\u0629", "name:fr": "Centre de Sant\u00e9"}}, {"type": "way", "id": 335061459, "center": {"lat": 18.0749859, "lon": -15.9357693}, "nodes": [3421883885, 3421883886, 4494317539, 3421883887, 3421883888, 3421883885], "tags": {"addr:city": "\u0646\u0648\u0627\u0643\u0634\u0648\u0637", "amenity": "hospital", "contact:website": "http://www.hczmr.info/", "emergency": "yes", "name": "\u0645\u0633\u062a\u0634\u0641\u0649 \u0627\u0644\u0634\u064a\u062e \u0632\u0627\u064a\u062f", "name:ar": "\u0645\u0633\u062a\u0634\u0641\u0649 \u0627\u0644\u0634\u064a\u062e \u0632\u0627\u064a\u062f", "name:fr": "H\u00f4pital Cheikh Zayed", "short_name": "HCZ"}}, {"type": "way", "id": 335069115, "center": {"lat": 18.0517265, "lon": -15.9579097}, "nodes": [3421963811, 3421963813, 3421963814, 3421963815, 3421963811], "tags": {"amenity": "hospital", "healthcare": "hospital", "name": "\u0645\u0631\u0643\u0632 \u0627\u0644\u0635\u062d\u0629", "name:ar": "\u0645\u0631\u0643\u0632 \u0627\u0644\u0635\u062d\u0629", "name:de": "Gesundheitszentrum", "name:en": "Health Center", "name:fr": "POSTE DE SANTE"}}, {"type": "way", "id": 338080500, "center": {"lat": 14.757443, "lon": -17.4385229}, "nodes": [3451452880, 3451452883, 3451452887, 3451452890, 3451452888, 3451452893, 3451452891, 3451452892, 3451452901, 3451452906, 3451452897, 3451452900, 3451452908, 3451452910, 3451452904, 3451452907, 3451452878, 3451452877, 3451452874, 3451452876, 3451452867, 3451452865, 3451452859, 3451452854, 3451452853, 3451452842, 3451452849, 3451452848, 3451452852, 3451452860, 3451452858, 3451452843, 3451452840, 3451452839, 3451452837, 3451452855, 3451452857, 3451452869, 3451452868, 3451452873, 3451452871, 3451452872, 3451452870, 3451452880], "tags": {"addr:full": "Parcelles Assainies Unit\u00e9 17, Zone Commerciale", "addr:subdistrict": "Unit\u00e9 17", "amenity": "hospital", "beds": "42", "building": "yes", "electricity": "grid", "emergency": "yes", "healthcare": "Ultrasound,Laboratory,Imaging Equipment,Intensive Care Unit,Emergency Department", "name": "Centre de Sant\u00e9 Abdou Aziz Sy Dabakh", "operational_status": "Operational", "operator": "Minist\u00e8re de la Sant\u00e9 et de l'Action Sociale", "operator:type": "Public", "source": "#senegal #covid-19 #emergency-health-data #healthsites #hot_microgrant2020", "water_source": "water works", "wheelchair": "yes"}}, {"type": "way", "id": 338327821, "center": {"lat": 13.8791498, "lon": -16.3688654}, "nodes": [3454042203, 3454042204, 3454042202, 3454042201, 3454042197, 3454041985, 3454042200, 3454042199, 3454042203], "tags": {"addr:full": "Sokone", "amenity": "hospital", "beds": "96", "electricity": "Power grid", "emergency": "yes", "healthcare": "Ultrasound,MRI,Operating,Theater,Laboratory,Imaging Equipment,Emergency Department", "name": "Centre de Sant\u00e9 de Sokone", "operational_status": "Operational", "operator": "Minist\u00e8re de la Sant\u00e9 et de l'Action Sociale", "operator:type": "Public", "source": "#senegal #covid-19 #emergency-health-data #healthsites", "water_source": "water works", "wheelchair": "limited"}}, {"type": "way", "id": 340429420, "center": {"lat": 14.7780164, "lon": -17.3221023}, "nodes": [3476549602, 4864144462, 4864144943, 4864144942, 3476549601, 4864144946, 4864144945, 4864144461, 4864144944, 4864144947, 4864144948, 3476549603, 4864144940, 4864144941, 4864144934, 4864144936, 3476549600, 3476549602], "tags": {"amenity": "hospital", "barrier": "wall", "emergency": "yes", "name": "Hopital de Keur Massar", "source": "SIC-CKM"}}, {"type": "way", "id": 340565098, "center": {"lat": 14.7728904, "lon": -17.394816}, "nodes": [3478053517, 2370732703, 2370732704, 2370728485, 2370728486, 3478053517], "tags": {"addr:city": "Guediawaye", "addr:street": "Sam-Notaire", "amenity": "hospital", "healthcare": "hospital", "name": "Keur Soeurs"}}, {"type": "way", "id": 340592171, "center": {"lat": 14.6612822, "lon": -17.434785}, "nodes": [3478347216, 3478347217, 3478347218, 3478347219, 3701924551, 3478347220, 3478347221, 3478347222, 3478347223, 3478347224, 3478347225, 3478347226, 3478347227, 3478347228, 3478347229, 3478347230, 3478347231, 3478347232, 3478347233, 3478347234, 3478347235, 3478347236, 3478347237, 3478347216], "tags": {"addr:full": "1, avenue Nelson Mandela Dakar", "amenity": "hospital", "beds": "420", "electricity": "grid", "emergency": "yes", "healthcare": "Ultrasound,MRI,X-Ray,Dialysis,Operating,Theater,Laboratory,Imaging Equipment,Intensive Care Unit,Emergency Department", "name": "Hopital Principal de Dakar", "operational_status": "Operational", "operator": "DOCTEUR BA", "operator:type": "Public", "source": "#senegal #covid-19 #emergency-health-data #healthsites", "water_source": "Water works", "wheelchair": "yes"}}, {"type": "way", "id": 340976771, "center": {"lat": 14.14063, "lon": -16.0755925}, "nodes": [3481903458, 3565910105, 3565910079, 3481903338, 3481903339, 3566297355, 3481903350, 3481903349, 3566297421, 3481902692, 3481903352, 3481903355, 3566297463, 3566297462, 3481903356, 3481903457, 3481903458], "tags": {"amenity": "hospital", "barrier": "wall", "healthcare": "hospital", "name": "Hopital El Hadj Ibrahima Niass", "source": "Microsoft Bing orbital imagery"}}, {"type": "way", "id": 348008962, "center": {"lat": 14.7811197, "lon": -16.9233273}, "nodes": [1697005814, 9918521734, 1697005384, 1790898950, 1697006124, 1697005877, 1697005702, 1697005831, 1697005780, 1697006021, 1697005541, 1697005681, 1697005543, 1697005814], "tags": {"addr:city": "Thi\u00e9s", "addr:postcode": "21000", "addr:street": "RS-01", "amenity": "hospital", "emergency": "no", "name": "H\u00f4pital r\u00e9gional de Thi\u00e9s", "operator": "Minist\u00e8re de la Sant\u00e9"}}, {"type": "way", "id": 351445723, "center": {"lat": 14.4569214, "lon": -12.2149045}, "nodes": [3572134645, 3572134646, 3572134639, 3572134635, 3572134645], "tags": {"amenity": "hospital", "barrier": "wall"}}, {"type": "way", "id": 353255670, "center": {"lat": 13.4034269, "lon": -15.7996298}, "nodes": [3590359809, 3590359810, 3590359811, 3590359812, 3590359809], "tags": {"amenity": "hospital", "name": "Kwinella Health Center"}}, {"type": "way", "id": 353260070, "center": {"lat": 12.7003866, "lon": -11.9825618}, "nodes": [3590389385, 3590389386, 3590389387, 3590389388, 3590389385], "tags": {"amenity": "hospital"}}, {"type": "way", "id": 353262890, "center": {"lat": 13.5738192, "lon": -16.077419}, "nodes": [3590415019, 3590415020, 3590415021, 3590415022, 3590415023, 3590415019], "tags": {"amenity": "hospital", "name": "Njawara Clinic"}}, {"type": "way", "id": 360370797, "center": {"lat": 16.5091414, "lon": -14.6539427}, "nodes": [3649239760, 3649239762, 3649239759, 3649239765, 3649239758, 3649239761, 3649239764, 3649239763, 3649239760], "tags": {"addr:full": "NDIOUM", "amenity": "hospital", "electricity": "grid", "emergency": "yes", "healthcare": "Laboratory,Imaging Equipment,Emergency Department", "name": "Hopitale R\u00e9gionale de Ndioum", "operational_status": "Operational", "operator": "MINIST\u00c8RE DE LA SANTE ET DE L'ACTION SOCIALE", "operator:type": "Public", "source": "#senegal #covid-19 #emergency-health-data #healthsites", "water_source": "water works", "wheelchair": "yes"}}, {"type": "way", "id": 360412328, "center": {"lat": 16.1505677, "lon": -13.5072429}, "nodes": [3649602082, 4609578816, 3649602071, 4609578805, 4609578825, 3649602075, 4608637105, 4608637098, 3649602091, 3649602089, 3649602094, 3649602086, 3649602082], "tags": {"addr:city": "\u0643\u064a\u0647\u064a\u062f\u064a", "amenity": "hospital", "barrier": "wall", "emergency": "yes", "healthcare": "hospital", "name": "\u0645\u0633\u062a\u0634\u0641\u0649 \u0643\u064a\u0647\u064a\u062f\u064a", "name:ar": "\u0645\u0633\u062a\u0634\u0641\u0649 \u0643\u064a\u0647\u064a\u062f\u064a", "name:de": "Krankenhaus Kaihaidi", "name:en": "Kaihaidi Hospital", "name:fr": "H\u00f4pital de Ka\u00e9di", "wikidata": "Q144829"}}, {"type": "way", "id": 363833763, "center": {"lat": 18.0522316, "lon": -15.9410917}, "nodes": [3679630953, 3679630954, 3679630955, 3679630956, 3679630953], "tags": {"addr:city": "\u0646\u0648\u0627\u0643\u0634\u0648\u0637", "amenity": "hospital", "barrier": "wall", "healthcare": "hospital", "name": "\u0645\u0631\u0643\u0632 \u0627\u0644\u0635\u062d\u0629", "name:ar": "\u0645\u0631\u0643\u0632 \u0627\u0644\u0635\u062d\u0629", "name:de": "Gesundheitszentrum", "name:en": "Health Center", "name:fr": "Centre de Sant\u00e9"}}, {"type": "way", "id": 365985332, "center": {"lat": 10.0920055, "lon": -12.8427849}, "nodes": [3699808007, 3699808019, 7890187489, 7868998834, 7890187490, 7868998833, 7868998831, 3699808018, 7890187438, 3699808013, 3699808007], "tags": {"amenity": "hospital", "barrier": "fence", "fence_type": "chain_link", "name": "C.R.E.M.S."}}, {"type": "way", "id": 368155287, "center": {"lat": 13.6228855, "lon": -15.8661853}, "nodes": [3720132385, 3720132387, 3720132384, 3720132380, 3720132386, 3720132381, 3720132382, 3720132378, 3720132385], "tags": {"amenity": "hospital", "barrier": "wall", "name": "H\u00f4pital de Keur Moussa Fronti\u00e8re"}}, {"type": "way", "id": 369699606, "center": {"lat": 14.7542902, "lon": -17.3761243}, "nodes": [3734689795, 3734689793, 3734689778, 3734689787, 3734689795], "tags": {"amenity": "hospital", "emergency": "yes", "healthcare": "hospital", "name": "Hopital de Thiaroye"}}, {"type": "way", "id": 370001116, "center": {"lat": 13.6647588, "lon": -15.3977333}, "nodes": [3737320384, 3737320385, 3737320386, 3737320387, 3737320384], "tags": {"amenity": "hospital", "name": "Ballangharr Clinic"}}, {"type": "way", "id": 370001560, "center": {"lat": 13.557834, "lon": -15.9134835}, "nodes": [3737325503, 3737325504, 3737325505, 3737325506, 3737325503], "tags": {"amenity": "hospital", "healthcare": "hospital", "name": "Njaba Kunda Health Clinic"}}, {"type": "way", "id": 370003892, "center": {"lat": 13.5724636, "lon": -15.3239203}, "nodes": [3737343430, 3737343431, 3737343432, 3737343433, 3737343430], "tags": {"amenity": "hospital", "emergency": "no", "name": "Dankunku Clinic"}}, {"type": "way", "id": 370186566, "center": {"lat": 13.4736714, "lon": -16.6883823}, "nodes": [4189260923, 1252674739, 3739105192, 4100803766, 4100803760, 4100803761, 4100803764, 5617736706, 3739105193, 3739105194, 3739105195, 4189260923], "tags": {"amenity": "hospital", "healthcare": "hospital", "name": "Medical Research Council", "wikidata": "Q30280323"}}, {"type": "way", "id": 370203144, "center": {"lat": 13.4593917, "lon": -16.6746118}, "nodes": [3739279134, 3739279135, 3739279136, 3739279137, 3739279134], "tags": {"amenity": "hospital", "healthcare": "hospital", "name": "Serekunda General Hospital"}}, {"type": "way", "id": 370438583, "center": {"lat": 13.5749769, "lon": -15.6068655}, "nodes": [3741374641, 3741374642, 3838334035, 3838334036, 3741374643, 5722474956, 3741374644, 3741374641], "tags": {"addr:city": "Farfeni", "addr:country": "GM", "addr:street": "North Bank Road", "amenity": "hospital", "healthcare": "hospital", "name": "Farafenni Hospital"}}, {"type": "way", "id": 371247166, "center": {"lat": 13.4500656, "lon": -15.5405127}, "nodes": [3748253825, 3748253826, 3748253827, 3748253828, 3748253829, 3748253825], "tags": {"addr:city": "Soma", "addr:street": "Pipeline", "amenity": "hospital", "description": "This is the Soma District Hospital the biggest Health Centre in Lower River Region", "emergency": "yes", "healthcare": "hospital", "healthcare:speciality": "general", "name": "Soma Major Health Center", "operator": "Government", "operator:type": "government"}}, {"type": "way", "id": 372016821, "center": {"lat": 13.8596889, "lon": -14.0793928}, "nodes": [3755565557, 3755565526, 3755565590, 3755565586, 3755565557], "tags": {"amenity": "hospital", "healthcare": "hospital", "surface": "dirt"}}, {"type": "way", "id": 374492438, "center": {"lat": 13.1616921, "lon": -15.0296167}, "nodes": [3778839658, 10655151813, 10655151812, 3778839660, 10655151801, 10655151800, 10655151811, 10655151810, 3778839658], "tags": {"amenity": "hospital"}}, {"type": "way", "id": 376242824, "center": {"lat": 13.3865897, "lon": -14.4026095}, "nodes": [3796862174, 3796862175, 3796862176, 3796862177, 3796862178, 3796862179, 3796862174], "tags": {"amenity": "hospital"}}, {"type": "way", "id": 376243070, "center": {"lat": 13.3867427, "lon": -14.402499}, "nodes": [3796863618, 3796863619, 3796863620, 3796863621, 3796863618], "tags": {"amenity": "hospital"}}, {"type": "way", "id": 376243071, "center": {"lat": 13.3868012, "lon": -14.4023021}, "nodes": [3796863622, 3796863623, 3796863624, 3796863625, 3796863626, 3796863627, 3796863622], "tags": {"amenity": "hospital", "healthcare": "hospital"}}, {"type": "way", "id": 376243073, "center": {"lat": 13.386907, "lon": -14.4024891}, "nodes": [3796863632, 3796863633, 3796863634, 3796863635, 3796863632], "tags": {"amenity": "hospital"}}, {"type": "way", "id": 376243074, "center": {"lat": 13.3869429, "lon": -14.4026302}, "nodes": [3796863636, 3796863637, 3796863638, 3796863639, 3796863636], "tags": {"amenity": "hospital"}}, {"type": "way", "id": 378441514, "center": {"lat": 11.8571691, "lon": -15.6163178}, "nodes": [3818494881, 3818494888, 3818494890, 3818494891, 3818494881], "tags": {"amenity": "hospital", "emergency": "yes", "name": "Hospital 3 de Agosto"}}, {"type": "way", "id": 384017358, "center": {"lat": 13.3078292, "lon": -14.2103811}, "nodes": [3873166876, 3873166877, 3873166878, 3873166879, 3873166876], "tags": {"amenity": "hospital", "healthcare": "hospital", "name": "Basse health centre"}}, {"type": "way", "id": 385775093, "center": {"lat": 13.2035783, "lon": -16.3033321}, "nodes": [3891102655, 3891102869, 3891102870, 3891102880, 3891102879, 3891102885, 3891102881, 3891102860, 3891102861, 3891102654, 3891102655], "tags": {"amenity": "hospital", "name": "Somita Clinic"}}, {"type": "way", "id": 391469181, "center": {"lat": 14.6571018, "lon": -17.4366947}, "nodes": [3946829974, 3946829975, 4257961664, 4257961660, 3946829976, 3946829977, 3946829978, 4257961656, 4257961657, 4257961658, 4257961659, 3946829979, 3946829980, 4257961667, 4257961666, 3946829974], "tags": {"addr:city": "Dakar", "addr:full": "Unit\u00e9 d'oncologie p\u00e9diatrique B.P. 3001 30 Avenue Pasteurr Dakar Senegal", "addr:street": "Route de la Corniche Est", "amenity": "hospital", "contact:phone": "33 823 58 96", "electricity": "generator", "emergency": "yes", "healthcare:speciality": "general;paediatrics;ophthalmology;gynaecology;emergency;cardiology", "name": "H\u00f4pital Aristide Le Dantec", "operational_status": "Operational", "operator": "Minist\u00e8re de Sant\u00e9", "operator:type": "Public", "source": "#senegal #covid-19 #emergency-health-data #healthsites", "water_source": "Water works", "wheelchair": "yes"}}, {"type": "way", "id": 406596106, "center": {"lat": 13.3782494, "lon": -13.8491269}, "nodes": [4086506209, 4086506210, 4086506211, 4086506212, 4086506209], "tags": {"amenity": "hospital", "name": "Song Kunda Health Center"}}, {"type": "way", "id": 408647760, "center": {"lat": 15.4006907, "lon": -15.1120264}, "nodes": [4105472944, 4105472933, 4105472942, 4105472924, 4105472944], "tags": {"amenity": "hospital", "barrier": "wall", "healthcare": "hospital", "name": "H\u00f4pital Magatte Lo"}}, {"type": "way", "id": 409415280, "center": {"lat": 15.278902, "lon": -14.6743605}, "nodes": [4113408990, 4113408989, 4239927226, 4113407988, 4113407986, 4113408990], "tags": {"amenity": "hospital"}}, {"type": "way", "id": 410271253, "center": {"lat": 13.5366832, "lon": -15.4147856}, "nodes": [4121037190, 4121071040, 4121071039, 4121071041, 4121037192, 4121037190], "tags": {"amenity": "hospital", "name": "Clinic"}}, {"type": "way", "id": 417595459, "center": {"lat": 10.3704536, "lon": -13.5779429}, "nodes": [4181153544, 4181153540, 4181153539, 4181153538, 4181153541, 4181153542, 4181153543, 4181153546, 4181153548, 4181153549, 4181153547, 4181153545, 4181153544], "tags": {"amenity": "hospital", "healthcare": "hospital", "name": "PECHINEY"}}, {"type": "way", "id": 417608587, "center": {"lat": 10.3652364, "lon": -13.5819574}, "nodes": [3375225482, 4181265657, 4181265656, 4181265652, 4181265653, 4181265651, 4181265648, 4181265647, 4181265649, 4181265650, 4181265654, 4181265655, 3375225482], "tags": {"amenity": "hospital", "healthcare": "hospital", "name": "HOPITAL D'ETAT"}}, {"type": "way", "id": 422397104, "center": {"lat": 13.7788515, "lon": -13.6736563}, "nodes": [4221355710, 4221355711, 4221355712, 4221355713, 4221355710], "tags": {"addr:city": "Tambacounda", "addr:full": "Libert\u00e9", "amenity": "hospital", "beds": "28", "electricity": "Power grid", "emergency": "yes", "healthcare": "X-Ray,Laboratory", "name": "Centre de sant\u00e9 de Tambacounda", "operational_status": "Operational", "operator": "ministere de la sant\u00e9 du senegal", "operator:type": "Public", "source": "#senegal #covid-19 #emergency-health-data #healthsites", "water_source": "water works", "wheelchair": "limited"}}, {"type": "way", "id": 423039888, "center": {"lat": 14.7511854, "lon": -17.4451774}, "nodes": [6957550483, 4227571816, 4227571813, 4227571812, 4227571802, 4227571814, 6957550483], "tags": {"amenity": "hospital", "healthcare": "hospital", "name": "Poste de sant\u00e9 Unit\u00e9 22"}}, {"type": "way", "id": 424813641, "center": {"lat": 12.0643718, "lon": -16.0251523}, "nodes": [4241883439, 4241883676, 4241883757, 4241883725, 4241883809, 4241883701, 4241883439], "tags": {"amenity": "hospital"}}, {"type": "way", "id": 428036267, "center": {"lat": 16.6219222, "lon": -11.41167}, "nodes": [4271863081, 4518611260, 4518598846, 4271863083, 4271863080, 4271863082, 4271863081], "tags": {"addr:city": "\u0643\u064a\u0641\u0629", "addr:city:ar": "addr:city=\u0643\u064a\u0641\u0629 addr:city:ar=\u0643\u064a\u0641\u0629", "amenity": "hospital", "barrier": "wall", "emergency": "yes", "healthcare": "hospital", "name": "\u0645\u0633\u062a\u0634\u0641\u0649 \u0643\u064a\u0641\u0629", "name:ar": "\u0645\u0633\u062a\u0634\u0641\u0649 \u0643\u064a\u0641\u0629", "name:fr": "Centre H\u00f4pitalier de Kiffa"}}, {"type": "way", "id": 439517325, "center": {"lat": 13.7050279, "lon": -13.6588187}, "nodes": [4371575833, 4371575834, 4371575835, 4371575836, 4371575833], "tags": {"amenity": "hospital"}}, {"type": "way", "id": 442446656, "center": {"lat": 10.4590395, "lon": -13.1664401}, "nodes": [4401294360, 4401294361, 4401294362, 4401294363, 4401294360], "tags": {"amenity": "hospital", "building": "yes"}}, {"type": "way", "id": 442454253, "center": {"lat": 11.3195649, "lon": -12.284634}, "nodes": [4401366097, 4401366100, 4401366079, 4401366077, 4401366097], "tags": {"amenity": "hospital", "building:levels": "1", "name": "Centre Optique R\u00e9gionale de Lab\u00e9"}}, {"type": "way", "id": 442758784, "center": {"lat": 14.9430532, "lon": -16.8136647}, "nodes": [4404180054, 4404180055, 4404180053, 4404180051, 4404180054], "tags": {"amenity": "hospital", "name": "Hopital M\u00e9dine"}}, {"type": "way", "id": 448456040, "center": {"lat": 18.5527778, "lon": -11.4309097}, "nodes": [4454667299, 4454667351, 4454667306, 4454667344, 4454667341, 4454667360, 4454667347, 4454667299], "tags": {"amenity": "hospital", "barrier": "wall", "name": "H\u00f4pital R\u00e9gional de Tidjikja"}}, {"type": "way", "id": 448509520, "center": {"lat": 14.6656985, "lon": -17.4348065}, "nodes": [4455168639, 4455168640, 4455168641, 4455168642, 4455168639], "tags": {"addr:city": "Dakar", "addr:full": "153, RUE Mouss\u00e9 DIOP, Dakar", "addr:street": "Rue Mousse Diop", "amenity": "hospital", "beds": "1", "electricity": "Power grid", "emergency": "no", "healthcare": "hospital", "name": "Centre medico-social de la fonction publique", "operational_status": "Operational", "operator": "Agent de l'\u00e9tat", "operator:type": "Public", "source": "#senegal #covid-19 #emergency-health-data #healthsites", "water_source": "water works", "wheelchair": "no"}}, {"type": "way", "id": 449693178, "center": {"lat": 13.291302, "lon": -14.7121095}, "nodes": [4466280496, 10846817451, 10846817453, 10846817452, 4466280500, 4466280496], "tags": {"amenity": "hospital", "healthcare": "hospital"}}, {"type": "way", "id": 451800649, "center": {"lat": 15.6606941, "lon": -13.2619427}, "nodes": [4486155953, 4602358970, 4486155954, 4486155955, 4486155956, 4602359291, 4486155953], "tags": {"amenity": "hospital", "healthcare": "hospital"}}, {"type": "way", "id": 452700829, "center": {"lat": 13.3869314, "lon": -14.4022739}, "nodes": [4494502316, 4494502317, 4494502318, 4494502319, 4494502320, 4494502321, 4494502316], "tags": {"amenity": "hospital", "name": "Diabugu Batapa Health Center"}}, {"type": "way", "id": 462536655, "center": {"lat": 15.6039078, "lon": -13.3301484}, "nodes": [4579193210, 5568708368, 4579193211, 4579193212, 4579193213, 4579193210], "tags": {"amenity": "hospital", "emergency": "no", "healthcare": "hospital", "name": "Ourossogui Hospital"}}, {"type": "way", "id": 477690933, "center": {"lat": 14.7989743, "lon": -15.9099361}, "nodes": [4709973093, 4709973092, 4709977474, 4709973091, 4709973090, 4709973093], "tags": {"amenity": "hospital", "name": "Hopital de Mback\u00e9"}}, {"type": "way", "id": 477742482, "center": {"lat": 13.4218629, "lon": -16.7268531}, "nodes": [4710450149, 4710450150, 4710450151, 4710450152, 1047014291, 1047013411, 4710450149], "tags": {"amenity": "hospital", "healthcare": "hospital", "name": "Bijilo Medical Center"}}, {"type": "way", "id": 477755585, "center": {"lat": 14.7560788, "lon": -17.4736346}, "nodes": [4710580386, 4710580387, 9678584985, 4710580889, 4710580890, 4710580892, 4710580893, 4710580386], "tags": {"amenity": "hospital", "emergency": "yes", "healthcare": "hospital", "name": "Hopital Phillipe.M.Senghor"}}, {"type": "way", "id": 488031046, "center": {"lat": 13.4179331, "lon": -14.5213234}, "nodes": [4803989775, 4803989776, 4803989777, 4804015369, 4803989778, 4803989779, 4803989775], "tags": {"amenity": "hospital", "description": "Health Post treats basic medical needs :consultations antenatal check ups, birthing, simple sutures, malaria testing and treatment, BP reading, etc. Complex cases will be referred to Bansang Hospital, 23K away", "healthcare": "hospital", "name": "Sare Soffie Health Post", "operator": "1 Midwife, 1 Nurse and 1 Nurse assistant", "smoking": "no"}}, {"type": "way", "id": 492559663, "center": {"lat": 14.7190416, "lon": -17.1835897}, "nodes": [4845569040, 8147486371, 6036600156, 4845569039, 4845569038, 8147486428, 8147486427, 8147486370, 4845569040], "tags": {"addr:city": "Diamniadio", "addr:street": "Croisement Diamniadio", "amenity": "hospital", "barrier": "wall", "name": "Hopital Elisabeth Diouf de Diamniadio"}}, {"type": "way", "id": 494018717, "center": {"lat": 11.1587364, "lon": -16.0269565}, "nodes": [4858568927, 4858568928, 4858568929, 4858568930, 4858568927], "tags": {"amenity": "hospital", "building": "yes", "healthcare": "hospital", "name": "Canogo"}}, {"type": "way", "id": 503002798, "center": {"lat": 12.0687942, "lon": -12.293307}, "nodes": [4933585782, 4933585783, 4736329844, 4933585784, 4933585785, 4933585786, 4933585787, 4933585788, 4933585789, 4933585782], "tags": {"amenity": "hospital", "healthcare": "hospital", "name": "Hopital Pr\u00e9fectoral P"}}, {"type": "way", "id": 510314841, "center": {"lat": 14.4229364, "lon": -16.9872638}, "nodes": [4993571818, 4993571817, 4993571816, 4993571815, 4993571810, 4993571814, 4993571813, 4993571812, 4993571811, 4993571818], "tags": {"amenity": "hospital", "name": "H\u00f4pital D\u00e9partemental de Mbour", "name:ar": "\u0645\u0633\u062a\u0634\u0641\u0649 \u0627\u0644\u0645\u0642\u0627\u0637\u0639\u0629 \u0627\u0645\u0628\u0648\u0631"}}, {"type": "way", "id": 517074222, "center": {"lat": 14.9154815, "lon": -12.4579097}, "nodes": [5046686618, 5046686619, 5046686620, 5046687821, 5046686618], "tags": {"amenity": "hospital"}}, {"type": "way", "id": 531453549, "center": {"lat": 14.7757931, "lon": -17.3556472}, "nodes": [7385964116, 7609456161, 7609456160, 5158972505, 7609456159, 5158972504, 5158972503, 7385964116], "tags": {"amenity": "hospital", "description": "L'hopital n'est pas encore fonctionel \u00e0 ce jour.", "healthcare": "hospital", "layer": "1", "name": "Sheikh Khalifa Bin Hamad Al-Thani"}}, {"type": "way", "id": 532712636, "center": {"lat": 13.3177801, "lon": -13.2843049}, "nodes": [5168995302, 5168995303, 5168995304, 5169113333, 5169113330, 5168995305, 5168995302], "tags": {"amenity": "hospital", "healthcare": "hospital"}}, {"type": "way", "id": 534409914, "center": {"lat": 10.6590568, "lon": -14.6042394}, "nodes": [5182871221, 5182871220, 5182871222, 5182871219, 5182871218, 5182871217, 5182871216, 5182871215, 5182871214, 5182871213, 5182871212, 5182871211, 5182871221], "tags": {"amenity": "hospital", "healthcare": "hospital", "name": "Centre Hospitalier ANAIM de Kamsar", "operator": "ANAIM"}}, {"type": "way", "id": 536378129, "center": {"lat": 14.8593322, "lon": -15.8869674}, "nodes": [7385992778, 5196158804, 5196158803, 5196158806, 5196158805, 7385992778], "tags": {"amenity": "hospital", "healthcare": "hospital", "name": "Cabinet Dentaire Akram;Cabinet Medical AFIA", "phone": "772066586"}}, {"type": "way", "id": 537704686, "center": {"lat": 11.4305175, "lon": -12.6838293}, "nodes": [5206236207, 5206236203, 5206236201, 5206236197, 5206236196, 5206236192, 5206236191, 5206236149, 5948986504, 5948986505, 5206236198, 5206236207], "tags": {"amenity": "hospital", "name": "Hopital pr\u00e9fectoral de L\u00e9louma", "operator": "Public"}}, {"type": "way", "id": 537711158, "center": {"lat": 11.4313759, "lon": -12.6822729}, "nodes": [5206285586, 5206285587, 5206285585, 5206285584, 5948986507, 5948986506, 5206285586], "tags": {"amenity": "hospital", "name": "DPS lelouma"}}, {"type": "way", "id": 539804111, "center": {"lat": 11.4245797, "lon": -12.7358344}, "nodes": [5222891458, 5222891457, 5222891455, 5222913860, 5222891458], "tags": {"amenity": "hospital", "building": "hospital", "name": "Hopital"}}, {"type": "way", "id": 544921141, "center": {"lat": 10.9351546, "lon": -14.2879518}, "nodes": [5267138182, 5267138181, 5267138180, 5267138179, 5267138178, 5267138177, 5267138176, 5267138175, 5267138174, 5267138173, 6214297481, 6214297480, 6214297479, 5267138182], "tags": {"amenity": "hospital", "name": "H\u00f4pital R\u00e9gional de Bok\u00e9"}}, {"type": "way", "id": 560306242, "center": {"lat": 12.6287832, "lon": -12.7899421}, "nodes": [5403388307, 5403388308, 5403388309, 5403388310, 5403388307], "tags": {"amenity": "hospital", "healthcare": "hospital", "name": "Temporary Dar Salaam Health Post"}}, {"type": "way", "id": 560766277, "center": {"lat": 12.8338866, "lon": -11.7700093}, "nodes": [5407667544, 5407667545, 5407667546, 5407667547, 5407667544], "tags": {"amenity": "hospital", "healthcare": "hospital", "name": "District Health Center"}}, {"type": "way", "id": 574779973, "center": {"lat": 11.5894278, "lon": -11.8974245}, "nodes": [5516483981, 5516483982, 5516483983, 5516483984, 5516483981], "tags": {"amenity": "hospital", "emergency": "yes", "healthcare": "hospital", "name": "H\u00f4pital pr\u00e9fectoral de Koubia"}}, {"type": "way", "id": 584069506, "center": {"lat": 13.7532785, "lon": -13.6726093}, "nodes": [5583548835, 5583548836, 5583548837, 5583548838, 5583548835], "tags": {"amenity": "hospital", "name": "H\u00f4pital R\u00e9gional de Tambacounda"}}, {"type": "way", "id": 587057039, "center": {"lat": 16.034427, "lon": -16.5031953}, "nodes": [5608226475, 5608226474, 5608226473, 5608226472, 5914386190, 6630803889, 5608226471, 5914386216, 5914387046, 5608226470, 5608226475], "tags": {"addr:full": "Nord, Saint-Louis, S\u00e9n\u00e9gal", "amenity": "hospital", "beds": "16", "building:condition": "good", "building:levels": "0", "building:material": "brick", "dispensing": "no", "electricity": "Power grid", "emergency": "yes", "healthcare": "MRI,Laboratory,Imaging Equipment,Emergency Department", "insurance:health": "private;public", "name": "Centre m\u00e9dical Garnison Saint-Louis", "operational_status": "Operational", "operator": "Zone militaire n\u00b02 Garnison", "operator:type": "Government", "osm_id": "e476f2f5-20d5-4d4a-aefa-d0c09c5ac100", "roof:shape": "gabled", "source": "#senegal #covid-19 #emergency-health-data #healthsites", "water_source": "water works", "wheelchair": "yes"}}, {"type": "way", "id": 591259419, "center": {"lat": 11.5755918, "lon": -15.4773654}, "nodes": [5644516838, 5644516839, 5644516840, 5644516841, 5644908133, 5644516842, 5644516838], "tags": {"amenity": "hospital", "healthcare": "hospital", "name": "Hospital Militar e Civil", "wikidata": "Q54445732"}}, {"type": "way", "id": 591259427, "center": {"lat": 11.5747655, "lon": -15.4759768}, "nodes": [5644516887, 5644516888, 5644516889, 5644516890, 5644516887], "tags": {"amenity": "hospital", "healthcare": "hospital"}}, {"type": "way", "id": 601314145, "center": {"lat": 12.1689427, "lon": -14.6589453}, "nodes": [5715294236, 5715294237, 5715294238, 5715294239, 5715294240, 5715294241, 5715294242, 5715294243, 5715294244, 5715294245, 5715294246, 5715294247, 5715294236], "tags": {"amenity": "hospital", "healthcare": "hospital", "name": "Hospital de Bafat\u00e1"}}, {"type": "way", "id": 621775274, "center": {"lat": 15.3428422, "lon": -12.9038635}, "nodes": [5873788665, 5873788664, 5873788663, 5873788662, 5873788665], "tags": {"amenity": "hospital", "healthcare": "hospital", "name": "Dispensaire Sithiane"}}, {"type": "way", "id": 624246731, "center": {"lat": 11.7776305, "lon": -13.4928173}, "nodes": [5894776285, 5894775584, 5894775581, 5894775582, 5894775580, 5894775583, 5894776285], "tags": {"amenity": "hospital", "building": "yes", "name": "CS-Kounbia"}}, {"type": "way", "id": 624734295, "center": {"lat": 13.21572, "lon": -15.8640938}, "nodes": [5899442420, 5899442421, 5899442422, 5899442423, 5899442424, 5899442425, 5899442426, 5899442427, 5899442420], "tags": {"amenity": "hospital", "healthcare": "hospital", "name": "Wassadu clinic"}}, {"type": "way", "id": 625101013, "center": {"lat": 16.0343142, "lon": -16.5033545}, "nodes": [5902155278, 5902155277, 5902155276, 5902155275, 5902155278], "tags": {"amenity": "hospital", "building": "hospital", "building:condition": "good", "building:levels": "0", "building:material": "brick", "healthcare": "hospital", "name": "Centre m\u00e9dical Garnison Saint-Louis", "roof:shape": "flat", "source": "field survey"}}, {"type": "way", "id": 628809925, "center": {"lat": 16.0038302, "lon": -16.5094887}, "nodes": [5935625891, 5935632365, 8428821053, 5902104974, 5935625470, 5935625891], "tags": {"amenity": "hospital", "building": "yes", "building:condition": "average", "building:levels": "0", "building:material": "brick", "name": "District sanitaire de Saint-Louis Qrt Hydrobase", "roof:shape": "flat", "source": "field survey Opencities Africa Saint Louis"}}, {"type": "way", "id": 640933481, "center": {"lat": 11.2378014, "lon": -15.0399108}, "nodes": [6037152887, 6037152888, 6037152889, 6037152890, 6037152891, 6037152892, 6037152893, 6037152894, 6037152887], "tags": {"amenity": "hospital", "healthcare": "hospital"}}, {"type": "way", "id": 645478408, "center": {"lat": 13.7625712, "lon": -13.6697476}, "nodes": [6067596656, 6067596657, 6067596658, 6067596659, 6067596656], "tags": {"addr:full": "Quartier abattoir lot num\u00e9ro 3 route h\u00f4tel Asta k\u00e9b\u00e9", "amenity": "hospital", "electricity": "Power grid", "emergency": "yes", "healthcare": "Ultrasound,X-Ray,Operating,Theater,Laboratory", "name": "Plateau m\u00e9dical Fama", "operational_status": "Operational", "operator": "Dr mamadou thiongane", "operator:type": "Private", "source": "#senegal #covid-19 #emergency-health-data #healthsites", "water_source": "water works", "wheelchair": "yes"}}, {"type": "way", "id": 650376799, "center": {"lat": 13.2223648, "lon": -10.4655072}, "nodes": [6101362951, 6101362950, 6101362947, 6101362949, 6101362948, 6101362951], "tags": {"amenity": "hospital", "building": "yes", "name": "Hopital", "operator": "SEMAF"}}, {"type": "way", "id": 658411210, "center": {"lat": 14.7480876, "lon": -17.3959069}, "nodes": [6165735227, 6165735226, 6165735225, 6165735224, 6165735227], "tags": {"amenity": "hospital", "healthcare": "hospital", "name": "poste de sant\u00e9 municipal 1", "source": "survey"}}, {"type": "way", "id": 658714132, "center": {"lat": 14.7516924, "lon": -17.3920028}, "nodes": [4475363125, 6168021993, 6168021992, 6168021991, 6168021990, 6168021989, 4475363125], "tags": {"amenity": "hospital", "healthcare": "hospital", "name": "Poste de sant\u00e9 Croix rouge", "source": "survey"}}, {"type": "way", "id": 661000238, "center": {"lat": 13.7622313, "lon": -13.6672623}, "nodes": [6188454496, 6188454497, 6188454498, 6188454499, 6188454496], "tags": {"amenity": "hospital", "healthcare": "hospital", "name": "Clinique Milogo"}}, {"type": "way", "id": 661105812, "center": {"lat": 10.4119985, "lon": -14.0529981}, "nodes": [6189431941, 6189431940, 6189431939, 6189431938, 6189431941], "tags": {"amenity": "hospital", "building": "yes", "name": "Centre de Sant\u00e9 de Kolia"}}, {"type": "way", "id": 670193787, "center": {"lat": 14.1486499, "lon": -16.6386811}, "nodes": [2514512279, 6276225088, 6276225087, 6276225086, 2514512279], "tags": {"amenity": "hospital", "barrier": "wall", "source": "survey"}}, {"type": "way", "id": 678374463, "center": {"lat": 13.3837989, "lon": -15.2934489}, "nodes": [6351978274, 6351978275, 6351978276, 7305180742, 6351978277, 6351978274], "tags": {"amenity": "hospital", "healthcare": "hospital", "healthcare:speciality": "general;community", "name": "Dongoro Ba Community Health Clinic", "source": "local knowledge;aerial imagery"}}, {"type": "way", "id": 683088414, "center": {"lat": 13.3833281, "lon": -15.5360992}, "nodes": [6398121569, 6398121570, 6398121571, 6398121572, 6398121569], "tags": {"amenity": "hospital", "healthcare": "hospital", "name": "Sare Musa Health Clinic"}}, {"type": "way", "id": 698251957, "center": {"lat": 16.5832863, "lon": -14.2725035}, "nodes": [6557591687, 6557591686, 6557591685, 6557541684, 6557591687], "tags": {"addr:city": "\u0628\u0648\u063a\u064a", "addr:city:ar": "\u0628\u0648\u063a\u064a", "amenity": "hospital", "healthcare": "hospital", "name": "\u0645\u0633\u062a\u0648\u0635\u0641 \u0628\u0648\u063a\u064a", "name:ar": "\u0645\u0633\u062a\u0648\u0635\u0641 \u0628\u0648\u063a\u064a", "name:fr": "Dispensaire de Boghe", "operator": "\u0628\u0644\u062f\u064a\u0629 \u0628\u0648\u063a\u064a", "operator:ar": "\u0628\u0644\u062f\u064a\u0629 \u0628\u0648\u063a\u064a", "operator:wikidata": "Q890721", "operator:wikipedia": "ar:\u0628\u0648\u063a\u064a"}}, {"type": "way", "id": 711292844, "center": {"lat": 14.5666262, "lon": -11.7167686}, "nodes": [4210878523, 6687693486, 6687693485, 6687688684, 4210878523], "tags": {"amenity": "hospital", "building": "yes", "healthcare": "hospital", "name": "Cabinet m\u00e9dical"}}, {"type": "way", "id": 731911809, "center": {"lat": 13.4829867, "lon": -14.052768}, "nodes": [2611882313, 6853751650, 6853751651, 6853751652, 2611882313], "tags": {"amenity": "hospital", "healthcare": "hospital", "name": "Baja Kunda Health Center"}}, {"type": "way", "id": 732678669, "center": {"lat": 11.7818212, "lon": -15.399868}, "nodes": [6860782979, 6860782980, 6860782981, 6860782982, 6860782979], "tags": {"addr:city": "Tite", "amenity": "hospital", "healthcare": "hospital", "healthcare:speciality": "general", "name": "Hospital do setor de Tite"}}, {"type": "way", "id": 732678670, "center": {"lat": 11.7818064, "lon": -15.3995556}, "nodes": [6860782983, 6860782984, 6860845785, 6860845786, 6860782983], "tags": {"addr:city": "Tite", "amenity": "hospital", "healthcare": "hospital", "healthcare:speciality": "general", "name": "Hospital do setor de Tite"}}, {"type": "way", "id": 732678671, "center": {"lat": 11.7821266, "lon": -15.3996452}, "nodes": [6860845787, 6860845788, 6860845789, 6860845790, 6860845787], "tags": {"addr:city": "Tite", "amenity": "hospital", "healthcare": "hospital", "healthcare:speciality": "general", "name": "Hospital do setor de Tite"}}, {"type": "way", "id": 744629162, "center": {"lat": 12.914527, "lon": -14.1179784}, "nodes": [6973760438, 6969165708, 6969165707, 6969165706, 6969165704, 6973760438], "tags": {"amenity": "hospital", "healthcare": "hospital", "name": "Poste de Sant\u00e9 de Kabendou"}}, {"type": "way", "id": 745682329, "center": {"lat": 11.0621954, "lon": -12.3967352}, "nodes": [6979596790, 6979596791, 6979596792, 6979596793, 6979596790], "tags": {"amenity": "hospital", "healthcare": "hospital", "name": "pharmacie nen tebou"}}, {"type": "way", "id": 745684159, "center": {"lat": 11.0641486, "lon": -12.3968473}, "nodes": [6979597853, 6979597854, 6979597855, 6979597856, 6979597857, 6979597858, 6979597853], "tags": {"amenity": "hospital", "healthcare": "hospital", "name": "pharmacie", "operator": "docteur hady"}}, {"type": "way", "id": 771685008, "center": {"lat": 11.3042145, "lon": -15.8375491}, "nodes": [7204002445, 7204002446, 7204002447, 7204002448, 7204002445], "tags": {"amenity": "hospital", "healthcare": "hospital", "name": "Hospital Marcelino Banca", "operator": "Ministerio di Saude", "operator:type": "government"}}, {"type": "way", "id": 772877949, "center": {"lat": 13.4617584, "lon": -16.674123}, "nodes": [7216084270, 7216084268, 7216084267, 7216084269, 7216084270], "tags": {"amenity": "hospital", "healthcare": "hospital", "name": "mbowen clinic"}}, {"type": "way", "id": 783958576, "center": {"lat": 12.2789263, "lon": -14.2183702}, "nodes": [4513887289, 7323026335, 7323026336, 7323026337, 7323026338, 7323026339, 7323026340, 7323026341, 7323026342, 7323026343, 7323026344, 7323026345, 7323026346, 4513887289], "tags": {"amenity": "hospital", "healthcare": "hospital"}}, {"type": "way", "id": 783966631, "center": {"lat": 16.6195508, "lon": -11.4016472}, "nodes": [6567685335, 6567588742, 9557592981, 6567588743, 6567588745, 6567588749, 7323090533, 6567588755, 6567685335], "tags": {"addr:city": "\u0643\u064a\u0641\u0629", "addr:city:ar": "\u0643\u064a\u0641\u0629", "amenity": "hospital", "healthcare": "hospital", "name": "\u0645\u0633\u062a\u0634\u0641\u0649 \u0643\u064a\u0641\u0629 \u0645\u0631\u0643\u0632", "name:ar": "\u0645\u0633\u062a\u0634\u0641\u0649 \u0643\u064a\u0641\u0629 \u0645\u0631\u0643\u0632", "name:fr": "Centre de PMI de Kiffa", "operator": "\u0627\u0644\u0635\u062d\u0629 \u0641\u064a \u0627\u0627\u062c\u0646\u0648\u0628", "operator:ar": "\u0627\u0644\u0635\u062d\u0629 \u0641\u064a \u0627\u0627\u062c\u0646\u0648\u0628"}}, {"type": "way", "id": 783971668, "center": {"lat": 18.062244, "lon": -15.9863249}, "nodes": [7323137445, 7323137446, 7323137447, 7323137448, 7323137449, 7323137450, 7323137451, 7323137452, 7323137453, 7323137454, 7323137445], "tags": {"addr:city": "\u0646\u0648\u0627\u0643\u0634\u0648\u0637", "addr:city:ar": "\u0646\u0648\u0627\u0643\u0634\u0648\u0637", "amenity": "hospital", "healthcare": "hospital"}}, {"type": "way", "id": 783972433, "center": {"lat": 16.9193128, "lon": -15.2375472}, "nodes": [5947926786, 7323134679, 7323134680, 7323134681, 5947926786], "tags": {"amenity": "hospital", "healthcare": "hospital"}}, {"type": "way", "id": 783973103, "center": {"lat": 18.0725513, "lon": -15.9257487}, "nodes": [7323169905, 7323169906, 7323169907, 7323169908, 7323169905], "tags": {"addr:city": "\u0646\u0648\u0627\u0643\u0634\u0648\u0637", "addr:city:ar": "\u0646\u0648\u0627\u0643\u0634\u0648\u0637", "amenity": "hospital", "healthcare": "hospital", "healthcare:speciality": "ophthalmology"}}, {"type": "way", "id": 783974462, "center": {"lat": 18.0935992, "lon": -15.9899946}, "nodes": [7323173030, 7323173031, 7323173032, 7323173033, 9416987260, 7323173034, 9416987268, 9416987263, 7323173035, 7323173036, 7323173030], "tags": {"addr:city": "\u0646\u0648\u0627\u0643\u0634\u0648\u0637", "addr:city:ar": "\u0646\u0648\u0627\u0643\u0634\u0648\u0637", "amenity": "hospital", "healthcare": "hospital", "name": "\u062f\u0627\u0631 \u0627\u0644\u0635\u062d\u0629 \u0627\u0644\u0628\u0631\u0648\u0641\u0633\u0648\u0631 \u0627\u0644\u0634\u064a\u062e\u0627\u0646 \u0627\u062c\u062f\u0648\u062f", "name:ar": "\u062f\u0627\u0631 \u0627\u0644\u0635\u062d\u0629 \u0627\u0644\u0628\u0631\u0648\u0641\u0633\u0648\u0631 \u0627\u0644\u0634\u064a\u062e\u0627\u0646 \u0627\u062c\u062f\u0648\u062f", "name:fr": "Clinique Dar Essiha", "phone": "+22236307385"}}, {"type": "way", "id": 784162066, "center": {"lat": 13.4421048, "lon": -16.7196971}, "nodes": [7325019179, 7325019180, 7325019181, 7325019182, 7325019179], "tags": {"amenity": "hospital", "healthcare": "hospital", "name": "Lamtoro Clinic"}}, {"type": "way", "id": 784166546, "center": {"lat": 13.660379, "lon": -15.0574977}, "nodes": [7325053244, 7325053245, 7325053246, 7325053247, 9436467534, 7395831181, 7325053244], "tags": {"amenity": "hospital", "healthcare": "hospital"}}, {"type": "way", "id": 784166815, "center": {"lat": 13.4445502, "lon": -16.6754324}, "nodes": [7325061365, 7325061366, 7325061367, 7325061368, 3211573886, 7325061369, 7325061370, 7325061371, 7325061365], "tags": {"amenity": "hospital", "healthcare": "hospital", "name": "Westfield Clinic"}}, {"type": "way", "id": 784166946, "center": {"lat": 13.4055503, "lon": -16.727559}, "nodes": [7325059080, 7325059081, 7325059082, 7325059083, 7325059080], "tags": {"amenity": "hospital", "healthcare": "hospital", "name": "Africmed"}}, {"type": "way", "id": 784167157, "center": {"lat": 13.4396207, "lon": -15.5775711}, "nodes": [7325070077, 7325070078, 7325070079, 7325070080, 7325070077], "tags": {"amenity": "hospital", "healthcare": "hospital", "name": "Village Clinic"}}, {"type": "way", "id": 784167461, "center": {"lat": 13.7792714, "lon": -14.9734059}, "nodes": [7325031574, 7325031575, 7325031576, 7325031577, 7325031574], "tags": {"amenity": "hospital", "healthcare": "hospital", "name": "Njoben Wollof Health Post"}}, {"type": "way", "id": 784167686, "center": {"lat": 13.0970092, "lon": -16.7621266}, "nodes": [7494909246, 7325076456, 7325076457, 7512154503, 7494909246], "tags": {"amenity": "hospital", "healthcare": "hospital", "name": "Kartong Community Clinic"}}, {"type": "way", "id": 784168408, "center": {"lat": 13.412889, "lon": -16.6678828}, "nodes": [7325047257, 7325047258, 7325047259, 7325047260, 7325047257], "tags": {"amenity": "hospital", "healthcare": "hospital", "name": "fagikunda major hospital"}}, {"type": "way", "id": 784172543, "center": {"lat": 13.3013965, "lon": -14.2019768}, "nodes": [7325115891, 7325115892, 7325115893, 7325115894, 7325115895, 7325115891], "tags": {"amenity": "hospital", "healthcare": "hospital", "name": "Medical Research Council"}}, {"type": "way", "id": 784172640, "center": {"lat": 13.4207412, "lon": -16.6815381}, "nodes": [7325119596, 6556574993, 6556581983, 6556586645, 7325119596], "tags": {"amenity": "hospital", "healthcare": "hospital", "name": "Bundung Maternal & Child Health Hospital"}}, {"type": "way", "id": 784173159, "center": {"lat": 13.3966657, "lon": -16.7453227}, "nodes": [7249607658, 7249607657, 7249607660, 7249607659, 7249607658], "tags": {"amenity": "hospital", "healthcare": "hospital"}}, {"type": "way", "id": 784173160, "center": {"lat": 13.3966657, "lon": -16.7453227}, "nodes": [7249607659, 7249607658, 7249607657, 7249607660, 7249607659], "tags": {"amenity": "hospital", "healthcare": "hospital", "name": "stop step pharmacy"}}, {"type": "way", "id": 788920317, "center": {"lat": 11.1016466, "lon": -13.8122821}, "nodes": [1633996964, 5968545856, 7375863744, 7375863745, 1633996964], "tags": {"amenity": "hospital", "healthcare": "hospital"}}, {"type": "way", "id": 788920318, "center": {"lat": 10.6920467, "lon": -12.2494468}, "nodes": [1871195664, 2574297122, 6454478479, 1871182258, 1680244487, 1871188168, 1871188154, 1871195664], "tags": {"amenity": "hospital", "healthcare": "hospital", "name": "H\u00f4pital de Dalaba"}}, {"type": "way", "id": 788920324, "center": {"lat": 10.792216, "lon": -10.1855883}, "nodes": [3123374714, 7375871694, 7375871695, 7375871696, 7375871700, 7375871701, 7611892647, 7375871705, 7375871706, 7375871707, 7375871708, 7375871709, 7375871710, 7375871712, 3123374714], "tags": {"addr:city": "Sanguiana", "amenity": "hospital", "healthcare": "hospital", "name": "Centre de Sante"}}, {"type": "way", "id": 788920329, "center": {"lat": 10.9069558, "lon": -13.0339549}, "nodes": [4022681767, 7375871751, 7375871753, 4022814633, 4022814632, 4022814628, 4022814627, 4022814626, 4022681767], "tags": {"addr:city": "T\u00e9lim\u00e9l\u00e9", "amenity": "hospital", "healthcare": "hospital", "name": "Hopital Prefectoral de T\u00e9lim\u00e9l\u00e9"}}, {"type": "way", "id": 788920330, "center": {"lat": 11.3179376, "lon": -12.2853184}, "nodes": [2949629408, 2949629409, 2949629410, 2949629411, 2949629405, 2949629406, 2949629407, 2949629408], "tags": {"amenity": "hospital", "emergency": "yes", "healthcare": "hospital", "healthcare:speciality": "general;paediatrics;gynaecology;chiropractic", "name": "H\u00f4pital R\u00e9gional de Lab\u00e9"}}, {"type": "way", "id": 788920362, "center": {"lat": 10.1781059, "lon": -14.0307563}, "nodes": [7375871924, 2882571577, 2882571576, 2882571573, 7375871925, 2882571568, 6354629385, 2882663580, 2882663578, 2882663576, 3388855696, 7375871926, 7375871927, 7375871928, 7375871924], "tags": {"amenity": "hospital", "healthcare": "hospital", "name": "H\u00f4pital Pr\u00e9fectoral de Boffa", "source": "Bing;Maxar"}}, {"type": "way", "id": 788920372, "center": {"lat": 10.0631147, "lon": -12.8665885}, "nodes": [6960240786, 7375871989, 7375871990, 7375871992, 6960240786], "tags": {"amenity": "hospital", "building": "yes", "healthcare": "hospital", "name": "CDS", "name:fr": "CDS Kenende"}}, {"type": "way", "id": 789975181, "center": {"lat": 14.7759673, "lon": -16.9356561}, "nodes": [2461964794, 7385856641, 7385856642, 7385856643, 2461964794], "tags": {"amenity": "hospital", "building": "hospital", "healthcare": "hospital", "name": "BARTHEMY"}}, {"type": "way", "id": 789978493, "center": {"lat": 14.4519186, "lon": -17.0391584}, "nodes": [3439536216, 7385877720, 7385877721, 7385877722, 7385877723, 7385877724, 7385877725, 7385877726, 3439536216], "tags": {"addr:full": "Saly Center, route de Ngaparou", "amenity": "hospital", "beds": "10", "contact:phone": "2.2134E11", "electricity": "grid", "emergency": "yes", "healthcare": "MRI,Laboratory,Imaging Equipment,Intensive Care Unit,Emergency Department", "name": "Clinique du Littoral", "operational_status": "Operational", "operator": "Audrey CASAHOUS", "operator:type": "private", "source": "#senegal #covid-19 #emergency-health-data #healthsites", "water_source": "Water works", "wheelchair": "yes"}}, {"type": "way", "id": 789979690, "center": {"lat": 13.7865551, "lon": -16.4741945}, "nodes": [4348018858, 7385898842, 7385898843, 7385898844, 7385898845, 7385898846, 4348018858], "tags": {"addr:full": "TOUBACOUTA", "amenity": "hospital", "beds": "4", "electricity": "Power grid", "emergency": "no", "healthcare": "hospital", "name": "Poste de sant\u00e9 Toubacouta", "operational_status": "Operational", "operator": "Ministere de sant\u00e9 et de l'action sociale", "operator:type": "Public", "source": "#senegal #covid-19 #emergency-health-data #healthsites", "water_source": "well", "wheelchair": "no"}}, {"type": "way", "id": 789984265, "center": {"lat": 14.7490896, "lon": -17.3916198}, "nodes": [7385912323, 7385912324, 7385912325, 7385912326, 7385912323], "tags": {"amenity": "hospital", "healthcare": "hospital", "name": "Poste de sante Guinaw rail Sud"}}, {"type": "way", "id": 789986970, "center": {"lat": 14.7363415, "lon": -17.4511452}, "nodes": [4637439020, 7385910262, 7385910263, 7385910264, 4637439020], "tags": {"amenity": "hospital", "healthcare": "hospital", "name": "Maternit\u00e9 de Grand-Yoff;Poste de sant\u00e9 Grand-Yoff 2"}}, {"type": "way", "id": 789987923, "center": {"lat": 14.7457415, "lon": -17.4669308}, "nodes": [4956870864, 7385973088, 7385973089, 7385973090, 4956870864], "tags": {"amenity": "hospital", "healthcare": "hospital", "name": "Institut Pasteur"}}, {"type": "way", "id": 789993765, "center": {"lat": 16.0228415, "lon": -16.505971}, "nodes": [6630804988, 7386018373, 7386018374, 7386018375, 6630804988], "tags": {"alt_name": "Centre Hospitalier R\u00e9gional de Saint-Louis", "amenity": "hospital", "beds": "223", "building": "hospital", "contact:phone": "+221775220240", "dispensing": "no", "electricity": "grid", "emergency": "yes", "health_amenity:type": "x_ray;ultrasound;operating_theater;dialysis;laboratory;imaging_equipment;intensive_care_unit;emergency_department", "insurance:health": "public;private", "name": "H\u00f4pital r\u00e9gional de Saint-Louis", "opening_hours": "24/7", "operational_status": "operational", "operator": "Minist\u00e8re de la sant\u00e8 et de l'action sociale", "operator:type": "public", "osm_id": "a775556d-e3fb-44d4-9ed9-e2024e4bae3f", "source": "bing,survey", "staff_count:doctors": "47", "staff_count:nurses": "254", "water_source": "water_works", "wheelchair": "no"}}, {"type": "way", "id": 791022503, "center": {"lat": 10.2239073, "lon": -13.8961165}, "nodes": [7394782865, 7394782864, 7394782863, 7394782862, 7394782865], "tags": {"amenity": "hospital", "building": "yes"}}, {"type": "way", "id": 791280950, "center": {"lat": 14.6117099, "lon": -11.9002757}, "nodes": [4210625119, 7397387533, 2196616412, 2186627750, 7397387534, 4210625119], "tags": {"amenity": "hospital", "healthcare": "hospital", "name": "CSCOM de Draman\u00e9"}}, {"type": "way", "id": 791282604, "center": {"lat": 14.5660207, "lon": -11.6596319}, "nodes": [4210878540, 7397399455, 7397399456, 7397399457, 4210878540], "tags": {"amenity": "hospital", "healthcare": "hospital", "name": "Maternit\u00e9"}}, {"type": "way", "id": 791332321, "center": {"lat": 14.4209498, "lon": -11.4488152}, "nodes": [5378649007, 7397840782, 7397840783, 9846304280, 5378649007], "tags": {"amenity": "hospital", "healthcare": "hospital", "name": "Hopital Giovardo"}}, {"type": "way", "id": 791354259, "center": {"lat": 15.2734268, "lon": -11.7041098}, "nodes": [6561834387, 7398043292, 6555520524, 7398043293, 7398043294, 7398043295, 7398043296, 6561834387], "tags": {"amenity": "hospital", "healthcare": "hospital", "indoor": "wall", "material": "concrete", "name": "cscom"}}, {"type": "way", "id": 793454518, "center": {"lat": 12.4909706, "lon": -13.2949137}, "nodes": [7419136096, 7419136093, 7419136094, 7419136095, 7419136096], "tags": {"amenity": "hospital", "barrier": "wall", "height": "3", "name": "HP Koundara"}}, {"type": "way", "id": 795639045, "center": {"lat": 10.7620336, "lon": -11.3607937}, "nodes": [7441984171, 7441984167, 7441984170, 7441984169, 7441984168, 7441984171], "tags": {"amenity": "hospital", "barrier": "wall"}}, {"type": "way", "id": 806005288, "center": {"lat": 14.775967, "lon": -17.3717097}, "nodes": [1157121250, 7537411391, 7537411392, 7537411393, 7537411394, 1157121250], "tags": {"addr:full": "S\u00e9n\u00e9gal, Gu\u00e9diawaye, Wakhinane Nimzatte II", "amenity": "hospital", "electricity": "grid", "emergency": "no", "healthcare": "hospital", "name": "District Sanitaire Wakhinane Nimzatt II", "operational_status": "Operational", "operator": "MINISTERE DE LA SANTE ET DE L'ACTION SOCIALE", "operator:type": "public", "source": "#senegal #covid-19 #emergency-health-data #healthsites", "water_source": "Water works", "wheelchair": "yes"}}, {"type": "way", "id": 806007261, "center": {"lat": 14.7299417, "lon": -17.4707985}, "nodes": [1763763741, 7537428331, 7537382610, 7537428332, 1763763741], "tags": {"amenity": "hospital", "healthcare": "hospital"}}, {"type": "way", "id": 806008452, "center": {"lat": 14.6781053, "lon": -17.4456371}, "nodes": [1867582331, 7537395672, 7537395673, 7537395674, 1867582331], "tags": {"amenity": "hospital", "healthcare": "hospital", "name": "Polyclinique de la M\u00e9dina"}}, {"type": "way", "id": 806008678, "center": {"lat": 14.786038, "lon": -17.3667356}, "nodes": [1888604176, 7606329475, 7537397577, 7537397578, 7537397579, 1888604176], "tags": {"amenity": "hospital", "emergency": "no", "healthcare": "hospital", "name": "Centre Medico Sportif Fabrique D'Espoir"}}, {"type": "way", "id": 806017677, "center": {"lat": 12.5546983, "lon": -12.1889869}, "nodes": [2154765195, 7537492653, 7537492654, 7537492655, 2154765195], "tags": {"amenity": "hospital", "healthcare": "hospital", "healthcare_departments:general_medicine": "no", "healthcare_departments:medical_laboratory": "no", "healthcare_departments:operating_room": "no", "name": "Infirmerie Militaire de K\u00e9dougou"}}, {"type": "way", "id": 806021900, "center": {"lat": 12.5081238, "lon": -16.6626325}, "nodes": [2289395139, 7537562387, 7537562388, 7537562389, 2289395139], "tags": {"amenity": "hospital", "healthcare": "hospital", "name": "Hopital d'Elinkine", "source": "bing"}}, {"type": "way", "id": 806022422, "center": {"lat": 13.376638, "lon": -13.3764664}, "nodes": [2386619025, 7537577101, 7537577102, 7537577103, 2386619025], "tags": {"amenity": "hospital", "healthcare": "hospital", "name": "Centre de Premiers Secours"}}, {"type": "way", "id": 806023818, "center": {"lat": 13.5891678, "lon": -15.877776}, "nodes": [2506406010, 7537552976, 7537552977, 7537552978, 2506406010], "tags": {"amenity": "hospital", "emergency": "no", "healthcare": "hospital", "name": "Old Kerr Katim Clinic"}}, {"type": "way", "id": 806024481, "center": {"lat": 14.711646, "lon": -17.270406}, "nodes": [2539765568, 7537581056, 7537581057, 7537581058, 2539765568], "tags": {"addr:city": "Rufisque", "addr:full": "Keury Kao derri\u00e8re la SENELEC \u00e0 c\u00f4t\u00e9 de l'usine GINA en face de la mer, Rufisque, Dakar", "addr:street": "Rue Saver", "amenity": "hospital", "electricity": "Power grid", "email": "pasteurdakar@pasteur.sn", "emergency": "yes", "healthcare": "Ultrasound,MRI,Operating,Theater,Laboratory,Imaging Equipment,Intensive Care Unit,Emergency Department", "healthcare:speciality": "general;gynaecology;dermatology", "name": "Polyclinique Louis Pasteur ''La R\u00e9f\u00e9rence''", "operational_status": "Operational", "operator": "Docteur Serigne Falilou Samb", "operator:type": "Private", "phone": "221 33 839 92 00/221 33 839 92 10", "source": "#senegal #covid-19 #emergency-health-data #healthsites", "water_source": "Water works", "website": "http://www.pasteur.sn/", "wheelchair": "yes"}}, {"type": "way", "id": 806025203, "center": {"lat": 12.8341909, "lon": -11.7556939}, "nodes": [2600109288, 7537585760, 7537585761, 7537585762, 2600109288], "tags": {"amenity": "hospital", "healthcare": "hospital"}}, {"type": "way", "id": 806025698, "center": {"lat": 15.5357517, "lon": -14.9504461}, "nodes": [2617410158, 7537585763, 7607979601, 7607979602, 7537585764, 2617410307, 2617410303, 7537585765, 2617410158], "tags": {"amenity": "hospital", "healthcare": "hospital", "name": "Centre de Sant\u00e9 de Dodji"}}, {"type": "way", "id": 806027345, "center": {"lat": 14.7104835, "lon": -17.4698793}, "nodes": [3165400844, 7537599184, 7537624385, 7537624386, 3165400844], "tags": {"amenity": "hospital", "healthcare": "hospital", "name": "Clinique Suma Assistance", "operator:type": "private", "source": "survey"}}, {"type": "way", "id": 806027578, "center": {"lat": 12.5212405, "lon": -16.392519}, "nodes": [3428192165, 7537625886, 7537625887, 7537625888, 3428192165], "tags": {"amenity": "hospital", "healthcare": "hospital", "name": "Maternit\u00e9 de Badiate-Grand"}}, {"type": "way", "id": 806028888, "center": {"lat": 12.8852457, "lon": -14.9190926}, "nodes": [4278560427, 7537633282, 7537633283, 7537633284, 4278560427], "tags": {"amenity": "hospital", "healthcare": "hospital", "name": "Hopital Regional de Kolda"}}, {"type": "way", "id": 806030328, "center": {"lat": 13.9160926, "lon": -15.6684432}, "nodes": [4437435909, 7537601992, 7537601993, 7537601994, 4437435909], "tags": {"amenity": "hospital", "healthcare": "hospital"}}, {"type": "way", "id": 806777909, "center": {"lat": 14.7480784, "lon": -17.4065897}, "nodes": [4485775395, 7544374687, 7544374688, 7544374689, 4485775395], "tags": {"amenity": "hospital", "healthcare": "hospital", "name": "Institut de Prevoyance Retraite du Senegal Centre Medico-Social de Pikine"}}, {"type": "way", "id": 806778299, "center": {"lat": 14.7482668, "lon": -17.4018889}, "nodes": [4485775397, 7609407562, 7544400458, 7544400459, 7544400460, 7609407561, 4485775397], "tags": {"amenity": "hospital", "healthcare": "hospital", "name": "Poste de sante Catholique Notre Dame du Cap-Vert"}}, {"type": "way", "id": 806779326, "center": {"lat": 14.7430276, "lon": -17.3539093}, "nodes": [4513765042, 7544418826, 7544418827, 7544418828, 4513765042], "tags": {"amenity": "hospital", "healthcare": "hospital", "name": "Hopital psychiatrique de thiaroye"}}, {"type": "way", "id": 806780000, "center": {"lat": 14.7405648, "lon": -17.4176162}, "nodes": [4546600788, 7544395050, 7544395051, 7544395052, 7544395053, 4546600788], "tags": {"amenity": "hospital", "healthcare": "hospital", "name": "Maternit\u00e9 Dalifort Foirail"}}, {"type": "way", "id": 806780374, "center": {"lat": 14.8695485, "lon": -15.864556}, "nodes": [4579580396, 7544434729, 7544434730, 7544434731, 4579580396], "tags": {"amenity": "hospital", "healthcare": "hospital", "name": "Poste de Sant\u00e9 Sourah"}}, {"type": "way", "id": 807140531, "center": {"lat": 12.6356568, "lon": -12.8197899}, "nodes": [5261937514, 7547900257, 7547900258, 7547900259, 7547900260, 7547900261, 7547900262, 5261937514], "tags": {"amenity": "hospital", "healthcare": "hospital"}}, {"type": "way", "id": 807143034, "center": {"lat": 14.8011082, "lon": -17.1860098}, "nodes": [5347149064, 7547952740, 7547952741, 7547952742, 7547952743, 7547952744, 7547952745, 7547952746, 7547952747, 5347149064], "tags": {"amenity": "hospital", "beds": "20", "electricity": "grid", "emergency": "yes", "healthcare": "hospital", "name": "Poste de sant\u00e9 de Bambilor", "operational_status": "Operational", "operator": "R\u00e9publique du S\u00e9n\u00e9gal", "operator:type": "Public", "source": "#senegal #covid-19 #emergency-health-data #healthsites", "water_source": "water works", "wheelchair": "no"}}, {"type": "way", "id": 807148683, "center": {"lat": 14.7228698, "lon": -17.4512597}, "nodes": [5505096626, 7547983630, 7547983631, 7547983632, 7547983633, 5505096626], "tags": {"amenity": "hospital", "healthcare": "hospital", "name": "La Croix Bleue"}}, {"type": "way", "id": 807158844, "center": {"lat": 12.8351792, "lon": -15.9771522}, "nodes": [7036645308, 7548144876, 7609541222, 7548144877, 7548144878, 7548144879, 7609541221, 7609541220, 7036645308], "tags": {"amenity": "hospital", "healthcare": "hospital", "name": "Poste de sant\u00e9", "operator": "Mairie", "source": "survey"}}, {"type": "way", "id": 807159273, "center": {"lat": 14.8750603, "lon": -15.8824056}, "nodes": [7066446186, 7548149408, 7548149409, 7548149410, 7548149411, 7066446186], "tags": {"addr:street": "Route Lompoul - Touba", "amenity": "hospital", "healthcare": "hospital", "name": "Poste de sant\u00e9 Serigne Mouhamadou Moustapha Mbacke", "phone": "339781259"}}, {"type": "way", "id": 807159736, "center": {"lat": 15.3473568, "lon": -16.3482841}, "nodes": [10053201941, 10053201940, 7548151057, 7548151058, 10053201941], "tags": {"amenity": "hospital", "healthcare": "hospital"}}, {"type": "way", "id": 810565642, "center": {"lat": 15.0758006, "lon": -10.8778841}, "nodes": [7578627171, 7578627172, 7591796286, 7578627173, 7578627174, 7578627171], "tags": {"amenity": "hospital", "healthcare": "hospital", "name": "KASD", "operator": "ASD", "operator:type": "public"}}, {"type": "way", "id": 810565652, "center": {"lat": 15.0763777, "lon": -10.8778799}, "nodes": [7578645510, 7578645511, 7578645512, 7578645513, 7578645510], "tags": {"amenity": "hospital", "healthcare": "hospital"}}, {"type": "way", "id": 810565653, "center": {"lat": 15.0755415, "lon": -10.8780824}, "nodes": [7578645514, 7590171954, 7590171955, 7590171956, 7590171957, 7590171958, 7590171959, 7578645515, 7578645516, 7617439060, 7617439059, 7578645517, 7578645514], "tags": {"amenity": "hospital", "healthcare": "hospital"}}, {"type": "way", "id": 814138705, "center": {"lat": 14.6898514, "lon": -17.4631544}, "nodes": [7605237864, 7605237863, 7605237859, 7605237856, 7605237857, 7605237858, 7605237862, 7605237855, 7605237860, 7605237861, 7605237864], "tags": {"amenity": "hospital", "healthcare": "hospital", "name": "Hopital COUD"}}, {"type": "way", "id": 814274652, "center": {"lat": 14.7025286, "lon": -16.880652}, "nodes": [1859359030, 7606329470, 7606329471, 7606329472, 7606329473, 7606329474, 1859359030], "tags": {"amenity": "hospital", "healthcare": "hospital", "name:en": "Poste de Sante de Notto"}}, {"type": "way", "id": 814611168, "center": {"lat": 14.7687976, "lon": -17.3888619}, "nodes": [4475447705, 7609199835, 7609199836, 7609199837, 4475447705], "tags": {"amenity": "hospital", "healthcare": "hospital", "name": "Institut de Pediatrie Social IPS Mouhamadou Fall"}}, {"type": "way", "id": 814626444, "center": {"lat": 15.4847994, "lon": -13.1846999}, "nodes": [7609498721, 7609498722, 7609498723, 7609498724, 7609498725, 7609498726, 7609498727, 7609498728, 7609498729, 7609498730, 7609498731, 7609498732, 7609498721], "tags": {"amenity": "hospital", "healthcare": "hospital"}}, {"type": "way", "id": 814626445, "center": {"lat": 13.0376313, "lon": -14.6401756}, "nodes": [6381867686, 7609498733, 7609498734, 7609498735, 7609498736, 7609498737, 6381867686], "tags": {"amenity": "hospital", "healthcare": "hospital", "name": "Case de Sant\u00e9 Sar\u00e9 Dickel", "name:en": "Sar\u00e9 Dickel Health Hut"}}, {"type": "way", "id": 828908614, "center": {"lat": 13.4828038, "lon": -16.4747951}, "nodes": [7737741052, 7737741053, 7737676028, 7737741054, 7737741055, 7737741056, 7737741052], "tags": {"amenity": "hospital", "description": "Das Health Center Buniadu wird betrieben von project Aid The Gambia im Auftrag von Riverboat Doctors International e.V. in Ganderkesee / Deutschland", "email": "projectaid@work.gm", "emergency": "yes", "healthcare": "hospital", "healthcare:speciality": "general", "image": "https://buschklinik.de/wp-content/uploads/2019/10/P1033674-klein.jpg", "name": "Health Center Buniadu", "opening_hours": "24/7", "operator": "Project Aid The Gambia / Riverboat Doctors International e.V.", "operator:type": "private_non_profit", "solar": "yes"}}, {"type": "way", "id": 854270546, "center": {"lat": 14.720712, "lon": -17.4914879}, "nodes": [7966754170, 7966754160, 7966754153, 7966754150, 7966754144, 7966754170], "tags": {"amenity": "hospital", "healthcare": "hospital"}}, {"type": "way", "id": 875644935, "center": {"lat": 10.9094351, "lon": -12.9988233}, "nodes": [8150268214, 8150268215, 8150268216, 8150288717, 8150268214], "tags": {"amenity": "hospital", "healthcare": "hospital", "healthcare:speciality": "general", "name": "Poste de Sant\u00e9", "operator": "Populations", "operator:type": "public"}}, {"type": "way", "id": 894548102, "center": {"lat": 14.8117292, "lon": -15.8921013}, "nodes": [8314721466, 8314721467, 8314721468, 8314721469, 8314721470, 8314721471, 8314721472, 8314721473, 8314721474, 8314721475, 8314721476, 8314721477, 8314721478, 8314721479, 8314721480, 8314721466], "tags": {"amenity": "hospital", "healthcare": "hospital", "name": "Centre de sant\u00e9 darou salam"}}, {"type": "way", "id": 925374782, "center": {"lat": 14.6922308, "lon": -17.4649264}, "nodes": [8132683967, 8588204738, 8588204737, 8588204736, 8588204735, 8588204734, 8132683967], "tags": {"amenity": "hospital", "electricity": "grid", "emergency": "yes", "healthcare": "Ultrasound,X-Ray,Operating,Theater,Laboratory,Imaging Equipment,Intensive Care Unit,Emergency Department", "name": "Centre hospitalier national pour enfant Albert Royer", "operational_status": "Operational", "operator": "Gouvernement", "operator:type": "public", "source": "#senegal #covid-19 #emergency-health-data #healthsites", "water_source": "Water works", "wheelchair": "yes"}}, {"type": "way", "id": 925374785, "center": {"lat": 14.6931968, "lon": -17.4666171}, "nodes": [2215329478, 2215361037, 9265775447, 2215361032, 2215361030, 2215361029, 2215361028, 8132683932, 2215361031, 2215310047, 2215310053, 2215329474, 2215329478], "tags": {"amenity": "hospital", "emergency": "yes", "healthcare": "hospital", "name": "Hopital de Fann"}}, {"type": "way", "id": 948540122, "center": {"lat": 14.0989168, "lon": -15.5569385}, "nodes": [4234157219, 4234157220, 4234157225, 4234157221, 4234157222, 4234157223, 4234157224, 4234157219], "tags": {"addr:full": "Quartier Escale Kaffrine", "amenity": "hospital", "beds": "71", "electricity": "grid", "emergency": "yes", "healthcare": "hospital", "healthcare:speciality": "emergency;general;radiology;biology", "name": "EPS (Etablissement Publique de Sant\u00e9) niveau 1 de Kaffrine", "operational_status": "Operational", "operator": "Minist\u00e8re de la sant\u00e9", "operator:type": "public", "source": "#senegal #covid-19 #emergency-health-data #healthsites", "water_source": "Powered pump", "wheelchair": "yes"}}, {"type": "way", "id": 948540133, "center": {"lat": 14.1045223, "lon": -15.5267575}, "nodes": [8779899472, 8779899473, 8779899474, 8779899475, 8779899476, 8779899477, 8779899478, 8779899479, 8779899480, 8779899472], "tags": {"amenity": "hospital", "healthcare": "hospital", "name": "H\u00f4pital R\u00e9gional Thierno Birahim Ndao", "start_date": "2021-05-30"}}, {"type": "way", "id": 949531505, "center": {"lat": 12.5598738, "lon": -12.4767377}, "nodes": [8790445154, 8790445155, 8790445156, 8790445157, 8790445154], "tags": {"amenity": "hospital", "healthcare": "hospital", "name": "H\u00f4pital de Nin\u00e9f\u00e9cha"}}, {"type": "way", "id": 956361445, "center": {"lat": 14.4429838, "lon": -16.986058}, "nodes": [8850944418, 8850944419, 8850944420, 8850944421, 8850944418], "tags": {"amenity": "hospital", "healthcare": "hospital", "healthcare:speciality": "general", "name": "poste de sante"}}, {"type": "way", "id": 963931256, "center": {"lat": 14.7102801, "lon": -17.4678687}, "nodes": [3662261605, 6058320984, 8916273245, 8916273246, 3662261605], "tags": {"amenity": "hospital", "healthcare": "hospital"}}, {"type": "way", "id": 972580050, "center": {"lat": 18.3066471, "lon": -15.959288}, "nodes": [9001447949, 9001447950, 9001447951, 9001447952, 9001447953, 9001447954, 9001447955, 9001447956, 9001447957, 9001447958, 9001447949], "tags": {"amenity": "hospital", "building": "yes", "healthcare": "clinic", "name": "Infirmary", "source": "maxar standard", "source_ref": "https://aim.asecna.aero/html/index-fr-FR.html"}}, {"type": "way", "id": 974881471, "center": {"lat": 15.5308437, "lon": -15.0613135}, "nodes": [9021712813, 9021712814, 9021712815, 9021712816, 9021712813], "tags": {"amenity": "hospital", "healthcare": "hospital"}}, {"type": "way", "id": 975046117, "center": {"lat": 14.4352219, "lon": -16.9798044}, "nodes": [9023295277, 9023295278, 9023295279, 9023295280, 9023295277], "tags": {"addr:city": "Mbour", "addr:housenumber": "Grand Mbour", "amenity": "hospital", "healthcare": "hospital", "healthcare:speciality": "maternity", "name": "Maternit\u00e9 Muriel Africa", "operator": "Centre de Sant\u00e9 de Grand Mbour", "operator:type": "public"}}, {"type": "way", "id": 975046390, "center": {"lat": 14.4350352, "lon": -16.9797904}, "nodes": [9023272671, 9023295279, 9023272672, 9023272673, 9023272671], "tags": {"addr:city": "Mbour", "addr:street": "Grand Mbour 2", "amenity": "hospital", "healthcare": "hospital", "healthcare:speciality": "general", "name": "Centre de Sant\u00e9 de Grand Mbour", "operator": "Etat", "operator:type": "public"}}, {"type": "way", "id": 980175730, "center": {"lat": 14.7552055, "lon": -17.3703306}, "nodes": [9067218181, 9067218183, 9067218184, 9067218185, 9067218186, 9067218182, 9067218181], "tags": {"amenity": "hospital", "healthcare": "hospital", "name": "Pharmacie LES PARAS"}}, {"type": "way", "id": 1000791883, "center": {"lat": 16.6341137, "lon": -11.3762288}, "nodes": [6567922316, 6567922308, 6567922311, 6567922313, 6567922316], "tags": {"amenity": "hospital", "healthcare": "hospital"}}, {"type": "way", "id": 1032495939, "center": {"lat": 16.0047351, "lon": -16.4912894}, "nodes": [9513198031, 6040743325, 9513198033, 6038678492, 9513198032, 9513198031], "tags": {"amenity": "hospital", "healthcare": "hospital", "name": "TERRAIN DE JEU"}}, {"type": "way", "id": 1039447539, "center": {"lat": 18.1354641, "lon": -15.9618376}, "nodes": [9571765359, 9571765360, 9571765361, 9571765362, 9571765359], "tags": {"amenity": "hospital", "healthcare": "hospital"}}, {"type": "way", "id": 1039447541, "center": {"lat": 18.1330123, "lon": -15.9635901}, "nodes": [9485067957, 9485067954, 9485067955, 9485067956, 9485067957], "tags": {"amenity": "hospital", "healthcare": "hospital"}}, {"type": "way", "id": 1039447546, "center": {"lat": 18.136037, "lon": -15.9584208}, "nodes": [3950343512, 3950343513, 3950343514, 3950343515, 3950343512], "tags": {"amenity": "hospital", "healthcare": "hospital"}}, {"type": "way", "id": 1046938021, "center": {"lat": 12.9264985, "lon": -11.477983}, "nodes": [9627338968, 9627338969, 9627338970, 9627338971, 9627338968], "tags": {"amenity": "hospital", "healthcare": "clinic"}}, {"type": "way", "id": 1052257042, "center": {"lat": 18.0524729, "lon": -15.9421515}, "nodes": [9670288226, 3679630953, 9670288227, 2383829985, 11064150508, 9670288226], "tags": {"amenity": "hospital", "healthcare": "hospital"}}, {"type": "way", "id": 1061725011, "center": {"lat": 18.0668229, "lon": -15.9341897}, "nodes": [9754482384, 9754482385, 9754482386, 9754482387, 9754482384], "tags": {"addr:city": "smrzovka", "addr:housenumber": "standa", "addr:postcode": "54+5465", "addr:street": "1+541+51gzg", "amenity": "hospital", "emergency": "yes", "healthcare": "hospital", "healthcare:speciality": "matematik", "name": "cikanska osada", "operator": "standa jirous", "operator:type": "matrematik"}}, {"type": "way", "id": 1063122673, "center": {"lat": 18.1354807, "lon": -15.9138784}, "nodes": [9766006649, 9766006650, 9766006651, 9766006652, 9766006649], "tags": {"amenity": "hospital", "healthcare": "hospital"}}, {"type": "way", "id": 1066485330, "center": {"lat": 10.0410316, "lon": -10.7390202}, "nodes": [9793155251, 9793155252, 9793155253, 9793155254, 9793155251], "tags": {"amenity": "hospital", "healthcare": "hospital", "name": "Hospital Regional De Faranah", "name:en": "Faranah Hospital"}}, {"type": "way", "id": 1066739290, "center": {"lat": 14.4387979, "lon": -16.8058712}, "nodes": [9795195760, 9795195761, 9795195762, 9795195763, 9795195760], "tags": {"amenity": "hospital", "healthcare": "hospital"}}, {"type": "way", "id": 1066739981, "center": {"lat": 14.4389871, "lon": -16.8064677}, "nodes": [9795235718, 9795235719, 9795235720, 9795235721, 9795235718], "tags": {"amenity": "hospital", "healthcare": "hospital"}}, {"type": "way", "id": 1078044358, "center": {"lat": 14.7438966, "lon": -17.2800284}, "nodes": [9883801316, 9883853417, 9883853418, 9883853419, 9883853420, 9883801316], "tags": {"amenity": "hospital", "healthcare": "hospital", "healthcare:speciality": "general", "name": "HP", "operator": "KH", "operator:type": "private"}}, {"type": "way", "id": 1083272914, "center": {"lat": 16.146836, "lon": -13.7846059}, "nodes": [9927486389, 9927486388, 9927486387, 9927486386, 9927486385, 9927486384, 9927486383, 9927486380, 9927486389], "tags": {"amenity": "hospital", "name": "Dispensaire", "operator": "oui"}}, {"type": "way", "id": 1083462377, "center": {"lat": 16.1468644, "lon": -13.7845299}, "nodes": [9929101551, 9929101550, 9929101549, 9929101548, 9929101547, 9929101546, 9929101545, 9929101544, 9929101543, 9929101542, 9929101540, 9929101541, 9929101551], "tags": {"amenity": "hospital", "name": "Dispensaire M'bagne", "operator": "population"}}, {"type": "way", "id": 1089673284, "center": {"lat": 11.3313682, "lon": -16.1139962}, "nodes": [9981579055, 9981579056, 9981579057, 9981579058, 9981579059, 9981579055], "tags": {"amenity": "hospital", "healthcare": "hospital"}}, {"type": "way", "id": 1094526269, "center": {"lat": 11.4614283, "lon": -15.9137691}, "nodes": [10024672824, 10024672825, 10024672826, 10024672827, 10024672824], "tags": {"amenity": "hospital", "healthcare": "hospital"}}, {"type": "way", "id": 1096301995, "center": {"lat": 11.2462489, "lon": -16.1625278}, "nodes": [10039491080, 10039491081, 10039491082, 10039491083, 10039491080], "tags": {"amenity": "hospital", "healthcare": "hospital", "name": "Uno Centro di Saude", "operator": "Ministry of Health", "operator:type": "public"}}, {"type": "way", "id": 1098945805, "center": {"lat": 14.7959133, "lon": -16.9362413}, "nodes": [7265393047, 7265393048, 7265393055, 7265393054, 7265393053, 7265393052, 7265393051, 7265393050, 10062583380, 10062583381, 10062583382, 10062583383, 10062583384, 10062583385, 10062583386, 10062583387, 7265393044, 7265393045, 7265393046, 3511547942, 7265393047], "tags": {"amenity": "hospital", "healthcare": "hospital"}}, {"type": "way", "id": 1124935774, "center": {"lat": 10.6486107, "lon": -14.5598653}, "nodes": [10287209170, 10287209171, 10287209172, 10287209173, 10287209174, 10287209170], "tags": {"amenity": "hospital", "healthcare": "hospital", "name": "Hospital De Filima"}}, {"type": "way", "id": 1136757383, "center": {"lat": 14.5001381, "lon": -16.0771518}, "nodes": [10596604673, 10596604674, 10596604675, 10596604676, 10596604673], "tags": {"amenity": "hospital", "healthcare": "hospital"}}, {"type": "way", "id": 1150424292, "center": {"lat": 13.269336, "lon": -16.7590271}, "nodes": [10701763404, 10701769909, 10701769905, 10701769906, 10701769907, 10701763404], "tags": {"addr:city": "Sanyang", "amenity": "hospital", "emergency": "yes", "healthcare": "hospital", "name": "Sanyang Village Health Center", "operator": "Ministry of Health (GoTG)", "operator:type": "public"}}, {"type": "way", "id": 1153920063, "center": {"lat": 14.3271608, "lon": -16.0309017}, "nodes": [10731765256, 10731765257, 10731765258, 10731765259, 10731765256], "tags": {"amenity": "hospital", "healthcare": "hospital", "healthcare:speciality": "maternity", "name": "Poste de Sant\u00e9 Ourour"}}, {"type": "way", "id": 1170962074, "center": {"lat": 13.6810649, "lon": -12.6619167}, "nodes": [10881667305, 10881667306, 10881667307, 10881667308, 10881667305], "tags": {"amenity": "hospital", "healthcare": "hospital"}}, {"type": "way", "id": 1175609797, "center": {"lat": 13.8047976, "lon": -13.5824254}, "nodes": [10924023763, 10924023764, 10924023765, 10924023766, 10924023763], "tags": {"amenity": "hospital", "healthcare": "hospital"}}, {"type": "way", "id": 1177235556, "center": {"lat": 14.7385333, "lon": -17.4570535}, "nodes": [10936809846, 10936809847, 10936809848, 10936809849, 10936809850, 10936809851, 10936809846], "tags": {"addr:city": "Commune de Grand Yoff", "addr:street": "rue GY-189", "amenity": "hospital", "building:levels": "0", "healthcare": "hospital", "name": "Centre m\u00e9dico-social Keru Yakaar"}}, {"type": "relation", "id": 1753787, "center": {"lat": 11.8574241, "lon": -15.6177581}, "members": [{"type": "way", "ref": 130122390, "role": "inner"}, {"type": "way", "ref": 130122396, "role": "inner"}, {"type": "way", "ref": 130122387, "role": "inner"}, {"type": "way", "ref": 130122372, "role": "outer"}], "tags": {"amenity": "hospital", "healthcare": "hospital", "type": "multipolygon"}}, {"type": "relation", "id": 5386723, "center": {"lat": 14.7150394, "lon": -17.4814547}, "members": [{"type": "way", "ref": 361921000, "role": "outer"}, {"type": "way", "ref": 204242612, "role": "inner"}], "tags": {"amenity": "hospital", "healthcare": "hospital", "landuse": "military", "name": "H\u00f4pital Militaire de Ouakam", "type": "multipolygon"}}, {"type": "relation", "id": 5411079, "center": {"lat": 14.1788199, "lon": -16.6604301}, "members": [{"type": "way", "ref": 317525777, "role": "outer"}, {"type": "way", "ref": 363856107, "role": "outer"}], "tags": {"amenity": "hospital", "emergency": "yes", "name": "Centre de Sant\u00e9 de Diofior", "type": "multipolygon"}}, {"type": "relation", "id": 5605265, "center": {"lat": 12.5688416, "lon": -16.2763924}, "members": [{"type": "way", "ref": 218490021, "role": "outer"}, {"type": "way", "ref": 376197623, "role": "outer"}], "tags": {"amenity": "hospital", "emergency": "yes", "healthcare": "hospital", "name": "H\u00f4pital de la Paix", "type": "multipolygon"}}, {"type": "relation", "id": 5637352, "center": {"lat": 11.863639, "lon": -15.5805727}, "members": [{"type": "way", "ref": 142814089, "role": "outer"}, {"type": "way", "ref": 378152622, "role": "outer"}], "tags": {"amenity": "hospital", "area": "yes", "emergency": "yes", "healthcare": "hospital", "name": "Hospital Nacional Sim\u00e3o Mendes", "operator": "Ministerio di Saude", "operator:type": "government", "type": "multipolygon", "wikidata": "Q20047286"}}, {"type": "relation", "id": 6127376, "center": {"lat": 15.2770053, "lon": -14.6736868}, "members": [{"type": "way", "ref": 409415122, "role": "outer"}], "tags": {"amenity": "hospital", "type": "multipolygon"}}, {"type": "relation", "id": 6707632, "center": {"lat": 18.0715587, "lon": -15.9486368}, "members": [{"type": "way", "ref": 453082684, "role": "outer"}, {"type": "way", "ref": 453082686, "role": "outer"}, {"type": "way", "ref": 230044178, "role": "outer"}], "tags": {"addr:city": "\u0646\u0648\u0627\u0643\u0634\u0648\u0637", "amenity": "hospital", "emergency": "no", "name": "\u0645\u0631\u0643\u0632 \u0635\u062d\u0629 \u0627\u0644\u0634\u0631\u0637\u0629", "name:ar": "\u0645\u0631\u0643\u0632 \u0635\u062d\u0629 \u0627\u0644\u0634\u0631\u0637\u0629", "name:fr": "Centre de Sant\u00e9 de la Police", "type": "multipolygon"}}, {"type": "relation", "id": 9659980, "center": {"lat": 11.8308129, "lon": -15.6868323}, "members": [{"type": "way", "ref": 533319283, "role": "outer"}, {"type": "way", "ref": 533319280, "role": "inner"}, {"type": "way", "ref": 533319286, "role": "inner"}], "tags": {"amenity": "hospital", "emergency": "no", "name": "H\u00f4pital de Cumura (l\u00e8pre et tuberculose)", "type": "multipolygon"}}, {"type": "relation", "id": 11190710, "center": {"lat": 12.4561971, "lon": -16.6357799}, "members": [{"type": "way", "ref": 454684713, "role": "outer"}, {"type": "way", "ref": 807152635, "role": "outer"}], "tags": {"amenity": "hospital", "building": "yes", "healthcare": "hospital", "layer": "2", "name": "Maternity Clinic", "type": "multipolygon"}}]}