{"version": 0.6, "generator": "Overpass API 0.7.61.5 4133829e", "osm3s": {"timestamp_osm_base": "2023-10-31T20:53:36Z", "copyright": "The data included in this document is from www.openstreetmap.org. The data is made available under ODbL."}, "elements": [{"type": "node", "id": 49318047, "lat": 15.642411, "lon": 32.4878867, "tags": {"amenity": "hospital", "healthcare": "hospital", "name": "\u0645\u0633\u062a\u0634\u0641\u0649 \u0627\u0645\u062f\u0631\u0645\u0627\u0646 \u0627\u0644\u062a\u0639\u0644\u064a\u0645\u064a"}}, {"type": "node", "id": 595145872, "lat": 12.6168703, "lon": 37.4509954, "tags": {"amenity": "hospital", "emergency": "yes", "name": "Gonder university hospital", "name:am": "\u12e8\u130e\u1295\u12f0\u122d \u12e9\u1292\u1268\u122d\u1232\u1272 \u1206\u1235\u1352\u1273"}}, {"type": "node", "id": 1748678062, "lat": 10.8493702, "lon": 37.6088443, "tags": {"amenity": "hospital", "name": "Health Center Feres Bet"}}, {"type": "node", "id": 1868551914, "lat": 15.635974, "lon": 32.4897019, "tags": {"alt_name:ar": "\u0645\u0633\u062a\u0634\u0641\u0649 \u0627\u0644\u062f\u0627\u064a\u0627\u062a", "amenity": "hospital", "healthcare": "hospital", "name": "\u0645\u0633\u062a\u0634\u0641\u0649 \u0627\u0644\u0642\u0627\u0628\u0644\u0627\u062a \u0644\u0644\u0648\u0644\u0627\u062f\u0629", "name:ar": "\u0645\u0633\u062a\u0634\u0641\u0649 \u0627\u0644\u0642\u0627\u0628\u0644\u0627\u062a \u0644\u0644\u0648\u0644\u0627\u062f\u0629", "name:en": "Obstetrics Hospital"}}, {"type": "node", "id": 2278054522, "lat": 15.4549575, "lon": 36.3947567, "tags": {"amenity": "hospital", "emergency": "yes", "name": "\u0645\u0633\u062a\u0634\u0641\u0649 \u0643\u0633\u0644\u0627 \u0627\u0644\u062a\u0639\u0644\u064a\u0645\u064a", "name:ar": "\u0645\u0633\u062a\u0634\u0641\u0649 \u0643\u0633\u0644\u0627 \u0627\u0644\u062a\u0639\u0644\u064a\u0645\u064a", "name:en": "Kassala Educational Hospital"}}, {"type": "node", "id": 2845734280, "lat": 15.6112608, "lon": 32.54529, "tags": {"amenity": "hospital", "name": "\u0639\u064a\u0627\u062f\u0629 \u062c\u0627\u0645\u0639\u0629 \u0627\u0644\u062e\u0631\u0637\u0648\u0645"}}, {"type": "node", "id": 3364254260, "lat": 19.6090493, "lon": 37.2174472, "tags": {"amenity": "hospital", "name": "Shorta Hodpital", "name:ar": "\u0645\u0633\u062a\u0634\u0641\u0649 \u0627\u0644\u0634\u0631\u0637\u0629"}}, {"type": "node", "id": 3581912299, "lat": 15.5966226, "lon": 32.5726418, "tags": {"addr:street": "\u0634\u0627\u0631\u0639 \u0627\u0644\u0633\u062a\u064a\u0646", "alt_name:ar": "\u0645\u0633\u062a\u0634\u0641\u0649 \u062f\u0631\u064a\u0645 \u0644\u0644\u0646\u0633\u0627\u0621 \u0648\u0627\u0644\u0648\u0644\u0627\u062f\u0629", "amenity": "hospital", "emergency": "yes", "healthcare": "hospital", "healthcare:speciality": "maternity", "name": "\u0645\u0633\u062a\u0634\u0641\u0649 \u062f\u0631\u064a\u0645 \u0627\u0644\u062a\u062e\u0635\u0635\u064a", "name:en": "Dream Specialized Hospital", "opening_hours": "24/7"}}, {"type": "node", "id": 4171743190, "lat": 15.5851709, "lon": 32.5428423, "tags": {"addr:street": "\u0634\u0627\u0631\u0639 1", "amenity": "hospital", "healthcare": "hospital", "name": "\u0645\u0633\u062a\u0634\u0641\u0649 \u062d\u0631\u0627\u0621", "opening_hours": "24/7"}}, {"type": "node", "id": 4662886971, "lat": 14.3965021, "lon": 33.5265425, "tags": {"amenity": "hospital", "healthcare": "hospital", "name": "\u0645\u0633\u062a\u0634\u0641\u064a \u0648\u062f \u0645\u062f\u0646\u064a", "name:ar": "\u0645\u0633\u062a\u0634\u0641\u064a \u0648\u062f \u0645\u062f\u0646\u064a", "operator": "\u062a\u0639\u0644\u064a\u0645\u064a"}}, {"type": "node", "id": 5306021321, "lat": 12.6102929, "lon": 37.4539273, "tags": {"amenity": "hospital", "healthcare": "hospital", "name:en": "UoG Referral Hospital"}}, {"type": "node", "id": 5356977321, "lat": 12.1627062, "lon": 39.6497244, "tags": {"amenity": "hospital", "name": "\u1246\u1266 \u1206\u1235\u1352\u1273\u120d", "name:en": "Kobo Hospital"}}, {"type": "node", "id": 5645445021, "lat": 11.6080164, "lon": 37.3699039, "tags": {"amenity": "hospital", "name": "\u1348\u1208\u1308 \u1205\u12ed\u12c8\u1275 \u122a\u1348\u122b\u120d \u1206\u1235\u1352\u1273\u120d", "name:en": "Felege howot referal hospital", "opening_hours": "24/7"}}, {"type": "node", "id": 5699815813, "lat": 15.4540904, "lon": 36.3640135, "tags": {"amenity": "hospital", "name": "\u0645\u0633\u062a\u0634\u0641\u064a \u0627\u0644\u0643\u0648\u064a\u062a\u064a \u0644\u0644\u0627\u0637\u0641\u0627\u0644", "name:ar": "\u0645\u0633\u062a\u0634\u0641\u064a \u0627\u0644\u0643\u0648\u064a\u062a\u064a \u0644\u0644\u0627\u0637\u0641\u0627\u0644", "opening_hours": "Mo-Su 06:00-06:59"}}, {"type": "node", "id": 6007346723, "lat": 15.6115715, "lon": 32.5591645, "tags": {"amenity": "hospital", "healthcare": "hospital", "name": "\u0645\u0633\u062a\u0634\u0641\u0649 \u0627\u0644\u0631\u0628\u0627\u0637 \u0627\u0644\u062c\u0627\u0645\u0639\u064a", "name:ar": "\u0645\u0633\u062a\u0634\u0641\u0649 \u0627\u0644\u0631\u0628\u0627\u0637 \u0627\u0644\u062c\u0627\u0645\u0639\u064a", "name:en": "Ribat University Hospital"}}, {"type": "node", "id": 6007363151, "lat": 15.6112434, "lon": 32.5597504, "tags": {"amenity": "hospital", "healthcare": "hospital", "name": "\u0645\u0633\u062a\u0634\u0641\u0649 \u0627\u0644\u0634\u0631\u0637\u0629", "name:ar": "\u0645\u0633\u062a\u0634\u0641\u0649 \u0627\u0644\u0634\u0631\u0637\u0629", "name:en": "Police Hospital"}}, {"type": "node", "id": 6009200586, "lat": 19.6195109, "lon": 37.2254119, "tags": {"amenity": "hospital", "name": "Mother care Hospital", "name:ar": "\u0645\u0633\u062a\u0634\u0641\u064a \u0645\u0627\u0630\u0631 \u0643\u064a\u0631"}}, {"type": "node", "id": 6009206186, "lat": 19.6198118, "lon": 37.2160106, "tags": {"amenity": "hospital", "name": "Portsudan Main Hospital"}}, {"type": "node", "id": 6051375565, "lat": 15.6249741, "lon": 32.5277753, "tags": {"amenity": "hospital", "healthcare": "hospital", "name": "\u062d\u0648\u0627\u062f\u062b \u0645\u0633\u062a\u0634\u0641\u064a \u0628\u062d\u0631\u064a", "name:en": "Bahri hospital"}}, {"type": "node", "id": 6051402843, "lat": 15.6257605, "lon": 32.5272734, "tags": {"amenity": "hospital", "healthcare": "hospital", "name": "\u0627\u0644\u0645\u0631\u0643\u0632 \u0627\u0644\u062a\u0634\u062e\u064a\u0635\u064a \u0627\u0644\u0645\u062a\u0637\u0648\u0631", "name:en": "Advanced diagnostic center"}}, {"type": "node", "id": 6052318911, "lat": 15.6259759, "lon": 32.5284461, "tags": {"amenity": "hospital", "healthcare": "hospital", "name": "\u0645\u0633\u062a\u0634\u0641\u0649 \u0628\u062d\u0631\u064a \u0627\u0644\u062a\u0639\u0644\u064a\u0645\u064a", "name:en": "Khartoum bahri teaching hospital"}}, {"type": "node", "id": 6063439353, "lat": 15.6173039, "lon": 32.4844168, "tags": {"amenity": "hospital", "healthcare": "hospital", "name": "\u0645\u0633\u062a\u0634\u0641\u0649 \u0639\u0644\u064a\u0627\u0621 \u0627\u0644\u062a\u062e\u0635\u0635\u064a", "name:ar": "\u0645\u0633\u062a\u0634\u0641\u0649 \u0639\u0644\u064a\u0627\u0621 \u0627\u0644\u062a\u062e\u0635\u0635\u064a", "name:en": "Alia Specialized Hospital"}}, {"type": "node", "id": 6063439354, "lat": 15.6166189, "lon": 32.4844402, "tags": {"amenity": "hospital", "healthcare": "hospital", "name": "\u062d\u0648\u0627\u062f\u062b \u0627\u0644\u0633\u0644\u0627\u062d \u0627\u0644\u0637\u0628\u064a", "name:en": "Trauma And Emergency Silah Tebbi"}}, {"type": "node", "id": 6092481529, "lat": 14.7264294, "lon": 33.3525065, "tags": {"amenity": "hospital", "healthcare": "hospital", "name": "\u0645\u0633\u062a\u0634\u0641\u064a \u0627\u0631\u0628\u062c\u064a \u0627\u0644\u0631\u064a\u0641\u064a"}}, {"type": "node", "id": 6795068075, "lat": 15.6371718, "lon": 32.4823752, "tags": {"alt_name:ar": "\u0645\u0633\u062a\u0634\u0641\u0649 \u0627\u0644\u0623\u0631\u0628\u0639\u064a\u0646", "amenity": "hospital", "healthcare": "hospital", "name": "\u0645\u0633\u062a\u0634\u0641\u0649 \u0627\u0644\u0623\u0631\u0628\u0639\u064a\u0646 \u0627\u0644\u062a\u062e\u0635\u0635\u064a", "name:ar": "\u0645\u0633\u062a\u0634\u0641\u0649 \u0627\u0644\u0623\u0631\u0628\u0639\u064a\u0646 \u0627\u0644\u062a\u062e\u0635\u0635\u064a", "name:en": "Al Arbaeen Hospital"}}, {"type": "node", "id": 6805029875, "lat": 15.67806, "lon": 32.4805958, "tags": {"amenity": "hospital", "healthcare": "hospital", "name": "\u0645\u0633\u062a\u0634\u0641\u0649 \u0627\u0644\u0628\u0644\u0643 \u0627\u0644\u062a\u0639\u0644\u064a\u0645\u064a"}}, {"type": "node", "id": 6817315759, "lat": 15.5996416, "lon": 32.5347739, "tags": {"addr:street": "\u0634\u0627\u0631\u0639 \u0627\u0644\u0645\u0643 \u0646\u0645\u0631", "alt_name:en": "Jafar Ibn Auf Hospital for Children", "amenity": "hospital", "healthcare": "hospital", "name": "\u0645\u0633\u062a\u0634\u0641\u0649 \u062c\u0639\u0641\u0631 \u0628\u0646 \u0639\u0648\u0641 \u0644\u0644\u0623\u0637\u0641\u0627\u0644", "name:ar": "\u0645\u0633\u062a\u0634\u0641\u0649 \u062c\u0639\u0641\u0631 \u0628\u0646 \u0639\u0648\u0641 \u0644\u0644\u0623\u0637\u0641\u0627\u0644", "name:en": "Jafar Ibn Auf Specialized Hospital for Children"}}, {"type": "node", "id": 6833660357, "lat": 15.5255143, "lon": 32.5892103, "tags": {"amenity": "hospital", "healthcare": "hospital", "name": "\u0645\u0633\u062a\u0634\u0641\u0649 \u0627\u0644\u0631\u0627\u0642\u064a \u0627\u0644\u062c\u0627\u0645\u0639\u064a", "name:ar": "\u0645\u0633\u062a\u0634\u0641\u0649 \u0627\u0644\u0631\u0627\u0642\u064a \u0627\u0644\u062c\u0627\u0645\u0639\u064a"}}, {"type": "node", "id": 6840044075, "lat": 14.7299751, "lon": 33.2983151, "tags": {"addr:city": "\u0627\u0644\u062d\u0635\u0627\u062d\u064a\u0635\u0627", "amenity": "hospital", "healthcare": "hospital", "name": "\u0645\u0633\u062a\u0634\u0641\u064a \u0627\u0644\u062d\u0635\u0627\u062d\u064a\u0635\u0627 \u0627\u0644\u062a\u0639\u0644\u064a\u0645\u064a", "name:ar": "\u0645\u0633\u062a\u0634\u0641\u064a \u0627\u0644\u062d\u0635\u0627\u062d\u064a\u0635\u0627 \u0627\u0644\u062a\u0639\u0644\u064a\u0645\u064a"}}, {"type": "node", "id": 6874318814, "lat": 15.5993861, "lon": 32.5292426, "tags": {"amenity": "hospital", "healthcare": "hospital", "name": "\u0645\u0631\u0643\u0632 \u0632\u064a\u0646 \u0627\u0644\u0637\u0628\u064a"}}, {"type": "node", "id": 6877432444, "lat": 15.6262034, "lon": 32.5270293, "tags": {"alt_name:en": "Taha Baashar Hospital", "amenity": "hospital", "healthcare": "hospital", "name": "\u0645\u0633\u062a\u0634\u0641\u0649 \u0637\u0647 \u0628\u0639\u0634\u0631 \u0644\u0644\u0637\u0628 \u0627\u0644\u0646\u0641\u0633\u064a", "name:ar": "\u0645\u0633\u062a\u0634\u0641\u0649 \u0627\u0644\u062f\u0643\u062a\u0648\u0631 \u0637\u0647 \u0628\u0639\u0634\u0631 \u0644\u0644\u0637\u0628 \u0627\u0644\u0646\u0641\u0633\u064a", "name:en": "Taha Baashar Hospital for Psychiatric"}}, {"type": "node", "id": 6894876192, "lat": 15.651063, "lon": 32.5315628, "tags": {"addr:street": "\u0634\u0627\u0631\u0639 \u0627\u0644\u0645\u0639\u0648\u0646\u0629", "amenity": "hospital", "healthcare": "hospital", "name": "\u0645\u0633\u062a\u0634\u0641\u0649 \u062d\u0627\u062c \u0627\u0644\u0635\u0627\u0641\u064a \u0627\u0644\u062a\u0639\u0644\u064a\u0645\u064a", "name:ar": "\u0645\u0633\u062a\u0634\u0641\u0649 \u062d\u0627\u062c \u0627\u0644\u0635\u0627\u0641\u064a \u0627\u0644\u062a\u0639\u0644\u064a\u0645\u064a"}}, {"type": "node", "id": 7038287140, "lat": 15.5981035, "lon": 32.5294337, "tags": {"amenity": "hospital", "healthcare": "hospital", "name": "\u0645\u0633\u062a\u0634\u0641\u0649 \u0627\u0644\u0623\u0646\u0641 \u0648\u0627\u0644\u0623\u0630\u0646 \u0648\u0627\u0644\u062d\u0646\u062c\u0631\u0629", "name:ar": "\u0645\u0633\u062a\u0634\u0641\u0649 \u0627\u0644\u0623\u0646\u0641 \u0648\u0627\u0644\u0623\u0630\u0646 \u0648\u0627\u0644\u062d\u0646\u062c\u0631\u0629", "name:en": "Khartoum ENT Hospital"}}, {"type": "node", "id": 7038742268, "lat": 15.5975651, "lon": 32.5295667, "tags": {"amenity": "hospital", "healthcare": "hospital", "name": "\u0645\u0633\u062a\u0634\u0641\u0649 \u0627\u0644\u0630\u0631\u0629", "name:ar": "\u0645\u0633\u062a\u0634\u0641\u0649 \u0627\u0644\u0630\u0631\u0629"}}, {"type": "node", "id": 7038742274, "lat": 15.6035021, "lon": 32.5349506, "tags": {"amenity": "hospital", "healthcare": "hospital", "healthcare:speciality": "oncology", "name": "\u0645\u0631\u0643\u0632 \u0627\u0644\u062e\u0631\u0637\u0648\u0645 \u0627\u0644\u062a\u062e\u0635\u0635\u064a \u0644\u0644\u0627\u0648\u0631\u0627\u0645"}}, {"type": "node", "id": 7038742276, "lat": 15.6123042, "lon": 32.5453181, "tags": {"amenity": "hospital", "healthcare": "hospital", "name": "\u0645\u0633\u062a\u0634\u0641\u0649 \u0627\u0644\u0639\u064a\u0648\u0646", "name:ar": "\u0645\u0633\u062a\u0634\u0641\u0649 \u0627\u0644\u0639\u064a\u0648\u0646"}}, {"type": "node", "id": 7039034612, "lat": 15.6471631, "lon": 32.4892178, "tags": {"amenity": "hospital", "healthcare": "hospital", "name": "\u0645\u0633\u062a\u0634\u0641\u0649 \u062a\u0642\u0649 \u0627\u0644\u062a\u062e\u0635\u0635\u064a", "name:ar": "\u0645\u0633\u062a\u0634\u0641\u0649 \u062a\u0642\u0649 \u0627\u0644\u062a\u062e\u0635\u0635\u064a", "name:en": "Tuga Specialized Hospital"}}, {"type": "node", "id": 7039114129, "lat": 15.5885231, "lon": 32.5311687, "tags": {"amenity": "hospital", "healthcare": "hospital", "name": "\u0645\u0631\u0643\u0632 \u0627\u0644\u0633\u0644\u0627\u0645 \u0644\u0644\u0628\u0635\u0631\u064a\u0627\u062a"}}, {"type": "node", "id": 7039337962, "lat": 15.6136204, "lon": 32.4848481, "tags": {"amenity": "hospital", "healthcare": "hospital", "name": "\u0645\u0633\u062a\u0634\u0641\u0649 \u0639\u0644\u064a\u0627\u0621 \u0627\u0644\u062a\u062e\u0635\u0635\u064a 2", "name:en": "Officers Hospital"}}, {"type": "node", "id": 7039337970, "lat": 15.6233957, "lon": 32.535416, "tags": {"amenity": "hospital", "healthcare": "hospital", "name": "\u0645\u0631\u0643\u0632 \u0635\u062d\u064a \u0627\u0644\u0627\u0646\u0642\u0627\u0630 \u0628\u062d\u0631\u064a"}}, {"type": "node", "id": 7039411234, "lat": 15.5522881, "lon": 32.5418369, "tags": {"amenity": "hospital", "healthcare": "hospital", "name": "\u0645\u0633\u062a\u0634\u0641\u0649 \u0627\u0644\u062a\u0645\u064a\u0632 \u0644\u0644\u0637\u0648\u0627\u0631\u0626 \u0648\u0627\u0644\u0627\u0635\u0627\u0628\u0627\u062a", "name:ar": "\u0645\u0633\u062a\u0634\u0641\u0649 \u0627\u0644\u062a\u0645\u064a\u0632 \u0644\u0644\u0637\u0648\u0627\u0631\u0626 \u0648\u0627\u0644\u0627\u0635\u0627\u0628\u0627\u062a"}}, {"type": "node", "id": 7040704989, "lat": 15.7414531, "lon": 32.4865648, "tags": {"amenity": "hospital", "healthcare": "hospital", "name": "\u0645\u062c\u0645\u0639 \u0639\u064a\u0627\u062f\u0627\u062a \u0628\u0631\u062c \u0627\u0644\u0645\u0627\u0648\u064a"}}, {"type": "node", "id": 7040720577, "lat": 15.7801458, "lon": 32.5820848, "tags": {"amenity": "hospital", "healthcare": "hospital", "name": "\u0645\u0633\u062a\u0634\u0641\u0649 \u0639\u0645\u0631 \u0645\u062d\u0645\u062f \u0627\u0644\u0641\u0643\u064a"}}, {"type": "node", "id": 7082873498, "lat": 15.4893122, "lon": 32.5524368, "tags": {"amenity": "hospital", "healthcare": "hospital", "name": "\u0645\u0633\u062a\u0634\u0641\u0649 \u0628\u0634\u0627\u0626\u0631 \u0627\u0644\u062a\u0639\u0644\u064a\u0645\u064a"}}, {"type": "node", "id": 7088863526, "lat": 15.4899378, "lon": 32.5510635, "tags": {"amenity": "hospital", "name": "\u0645\u0633\u062c\u062f \u0645\u0633\u062a\u0634\u0641\u0649 \u0628\u0634\u0627\u0626\u0631 \u0627\u0644\u062a\u0639\u0644\u064a\u0645\u064a"}}, {"type": "node", "id": 7141115685, "lat": 15.5995512, "lon": 32.5709038, "tags": {"alt_name": "\u0645\u0633\u062a\u0634\u0641\u0649 \u0631\u0648\u064a\u0627\u0644 \u0643\u064a\u0631 \u0627\u0644\u0639\u0627\u0644\u0645\u064a\u0629", "amenity": "hospital", "healthcare": "hospital", "name": "\u0645\u0633\u062a\u0634\u0641\u0649 \u0631\u0648\u064a\u0627\u0644 \u0643\u064a\u0631", "name:ar": "\u0645\u0633\u062a\u0634\u0641\u0649 \u0631\u0648\u064a\u0627\u0644 \u0643\u064a\u0631", "name:en": "Royal Care Hospital"}}, {"type": "node", "id": 7207950585, "lat": 15.5982251, "lon": 32.6046896, "tags": {"alt_name:ar": "\u0645\u0633\u062a\u0634\u0641\u0649 \u0634\u0631\u0642 \u0627\u0644\u0646\u064a\u0644 \u0627\u0644\u0646\u0645\u0648\u0630\u062c\u064a", "amenity": "hospital", "name": "\u0645\u0633\u062a\u0634\u0641\u0649 \u0634\u0631\u0642 \u0627\u0644\u0646\u064a\u0644", "name:en": "East Nile Hospital"}}, {"type": "node", "id": 7235067085, "lat": 15.5988147, "lon": 32.5350627, "tags": {"amenity": "hospital", "name": "\u0645\u0633\u062a\u0634\u0641\u0649 \u0627\u0644\u0634\u0639\u0628 \u0627\u0644\u062a\u0639\u0644\u064a\u0645\u064a"}}, {"type": "node", "id": 7245677450, "lat": 15.6410627, "lon": 32.4816856, "tags": {"amenity": "hospital", "name": "\u0645\u0631\u0643\u0632 \u0627\u0644\u0628\u0642\u0639\u0629 \u0644\u063a\u0633\u064a\u0644 \u0627\u0644\u0643\u0644\u0649"}}, {"type": "node", "id": 7246990945, "lat": 15.6411877, "lon": 32.4866867, "tags": {"amenity": "hospital", "name": "\u0645\u0634\u0631\u062d\u0629 \u0645\u0633\u062a\u0634\u0641\u0649 \u0627\u0645\u062f\u0631\u0645\u0627\u0646 \u0627\u0644\u062a\u0639\u0644\u064a\u0645\u064a", "name:ar": "\u0645\u0634\u0631\u062d\u0629 \u0645\u0633\u062a\u0634\u0641\u0649 \u0627\u0645\u062f\u0631\u0645\u0627\u0646 \u0627\u0644\u062a\u0639\u0644\u064a\u0645\u064a", "name:en": "Omdurman morgue"}}, {"type": "node", "id": 7252253161, "lat": 15.6651878, "lon": 32.4869385, "tags": {"alt_name": "\u0645\u0633\u062a\u0634\u0641\u0649 \u0645\u0643\u0629 \u0644\u0637\u0628 \u0627\u0644\u0639\u064a\u0648\u0646 - \u0623\u0645 \u062f\u0631\u0645\u0627\u0646", "alt_name:ar": "\u0645\u0633\u062a\u0634\u0641\u0649 \u0645\u0643\u0629 \u0644\u0637\u0628 \u0627\u0644\u0639\u064a\u0648\u0646 - \u0623\u0645 \u062f\u0631\u0645\u0627\u0646", "amenity": "hospital", "name": "\u0645\u0633\u062a\u0634\u0641\u0649 \u0645\u0643\u0629 \u0644\u0637\u0628 \u0627\u0644\u0639\u064a\u0648\u0646", "name:ar": "\u0645\u0633\u062a\u0634\u0641\u0649 \u0645\u0643\u0629 \u0644\u0637\u0628 \u0627\u0644\u0639\u064a\u0648\u0646", "name:en": "Mecca Medicine Eye Hospital"}}, {"type": "node", "id": 7423356032, "lat": 15.0976819, "lon": 33.2238604, "tags": {"addr:street": "\u0634\u0627\u0631\u0639 \u0627\u0644\u062c\u0632\u0627\u0631\u0647", "amenity": "hospital", "healthcare": "hospital", "healthcare:speciality": "general", "name": "\u0645\u0631\u0643\u0632 \u0635\u062d\u064a", "operator": "\u0645\u0631\u0643\u0632  \u0635\u062d\u064a"}}, {"type": "node", "id": 7528067385, "lat": 13.5889041, "lon": 38.1320291, "tags": {"amenity": "hospital", "name:en": "Adi Harush Hospital"}}, {"type": "node", "id": 7726686414, "lat": 15.7223129, "lon": 32.5616875, "tags": {"amenity": "hospital", "name": "\u0645\u0631\u0643\u0632 \u0646\u0648\u0631 \u0627\u0644\u0647\u062f\u0649 \u0627\u0644\u0637\u0628\u064a"}}, {"type": "node", "id": 7746409854, "lat": 15.5874376, "lon": 32.5670624, "tags": {"amenity": "hospital", "name": "\u0627\u0648\u062a\u0627\u062f \u0644\u0644\u0627\u0637\u0631\u0627\u0641 \u0627\u0644\u0635\u0646\u0627\u0639\u064a\u0629"}}, {"type": "node", "id": 7840028405, "lat": 11.5250362, "lon": 37.4002724, "tags": {"addr:street": "Mota Road", "amenity": "hospital", "internet_access": "wlan", "name": "\u1263\u1205\u122d\u12f3\u122d \u12e9", "name:am": "\u1263\u1205\u122d\u12f3\u122d \u12e9\u1295\u1268\u122d\u1232\u1272 \u1325\u1260\u1260 \u130d\u12ee\u1295 \u1235\u1354\u123b\u120b\u12ed\u12dd\u12f5 \u1206\u1235\u1352\u1273\u120d", "name:en": "Tibebe Ghion Specialized Hospital Bahir Dar University"}}, {"type": "node", "id": 7856337095, "lat": 15.5672084, "lon": 32.5513001, "tags": {"alt_name:ar": "\u0645\u0633\u062a\u0634\u0641\u0649 \u0647\u0648\u0627\u0634\u0627", "alt_name:en": "Hawasha Hospital", "amenity": "hospital", "healthcare": "hospital", "name": "\u0645\u0633\u062a\u0634\u0641\u0649 \u0647\u0648\u0627\u0634\u0627 \u0627\u0644\u0635\u064a\u0646\u064a", "name:ar": "\u0645\u0633\u062a\u0634\u0641\u0649 \u0647\u0648\u0627\u0634\u0627 \u0627\u0644\u0635\u064a\u0646\u064a", "name:en": "Hawasha Chinese Hospital"}}, {"type": "node", "id": 7904462760, "lat": 15.6017758, "lon": 32.5310686, "tags": {"amenity": "hospital", "healthcare": "hospital", "name": "\u0645\u0631\u0643\u0632 \u0627\u0644\u0627\u0633\u062a\u0634\u0627\u0631\u0627\u062a \u0627\u0644\u062c\u0644\u062f\u064a\u0629"}}, {"type": "node", "id": 7905516323, "lat": 15.5185415, "lon": 32.4879997, "tags": {"amenity": "hospital", "healthcare": "hospital", "name": "\u0645\u0631\u0643\u0632 \u0628\u0631\u0648\u0642\u0631\u064a\u0633 \u0627\u0644\u0637\u0628\u064a"}}, {"type": "node", "id": 7905516324, "lat": 15.6064852, "lon": 32.6055718, "tags": {"amenity": "hospital", "healthcare": "hospital", "name": "\u0645\u0631\u0643\u0632 \u0635\u062d\u064a \u0627\u0644\u0634\u0647\u064a\u062f \u0627\u0628\u0631\u0627\u0647\u064a\u0645 \u0634\u0645\u0633 \u0627\u0644\u062f\u064a\u0646"}}, {"type": "node", "id": 7947383658, "lat": 15.5767584, "lon": 32.5640269, "tags": {"amenity": "hospital", "name": "\u0645\u0633\u062a\u0634\u0641\u0649 \u0627\u0644\u0641\u064a\u0635\u0644"}}, {"type": "node", "id": 7947424207, "lat": 15.5770626, "lon": 32.5705643, "tags": {"amenity": "hospital", "name": "\u0645\u0631\u0643\u0632 \u0633\u0641\u0627\u0646\u0629 \u0644\u0644\u0639\u0644\u0627\u062c \u0627\u0644\u0637\u0628\u064a\u0639\u064a"}}, {"type": "node", "id": 7966428285, "lat": 15.6639477, "lon": 32.4190731, "tags": {"amenity": "hospital", "name": "\u0645\u0633\u062a\u0634\u0641\u0649 \u0627\u0645\u0628\u062f\u0629 \u0627\u0644\u0646\u0645\u0648\u0630\u062c\u064a"}}, {"type": "node", "id": 8006691391, "lat": 15.645316, "lon": 32.4981902, "tags": {"amenity": "hospital", "healthcare": "hospital", "name": "\u0645\u0633\u062a\u0634\u0641\u0649 \u0627\u0644\u0628\u062d\u064a\u0631\u0629", "name:ar": "\u0645\u0633\u062a\u0634\u0641\u0649 \u0627\u0644\u0628\u062d\u064a\u0631\u0629"}}, {"type": "node", "id": 8006763723, "lat": 15.641767, "lon": 32.4939567, "tags": {"amenity": "hospital", "healthcare": "hospital", "name": "\u0645\u0633\u062a\u0634\u0641\u0649 \u0627\u0644\u0627\u0645\u0631\u0627\u0636 \u0627\u0644\u062c\u0644\u062f\u064a\u0647 \u0648\u0627\u0644\u062a\u0646\u0627\u0633\u0644\u064a\u0647", "name:ar": "\u0645\u0633\u062a\u0634\u0641\u0649 \u0627\u0644\u0627\u0645\u0631\u0627\u0636 \u0627\u0644\u062c\u0644\u062f\u064a\u0647 \u0648\u0627\u0644\u062a\u0646\u0627\u0633\u0644\u064a\u0647"}}, {"type": "node", "id": 8006766734, "lat": 15.6402788, "lon": 32.4936234, "tags": {"amenity": "hospital", "healthcare": "hospital", "name": "\u0645\u0633\u062a\u0634\u0641\u0649 \u0637\u0628 \u0627\u0644\u0645\u0646\u0627\u0637\u0642 \u0627\u0644\u062d\u0627\u0631\u0629"}}, {"type": "node", "id": 8209727440, "lat": 12.1411114, "lon": 33.104971, "tags": {"amenity": "hospital", "name": "Omduluis Primary Health Care Unit"}}, {"type": "node", "id": 8212614223, "lat": 11.830342, "lon": 32.8000128, "tags": {"amenity": "hospital", "description:en": "Primary Health Care Unit", "name": "Abukadhra Primary Health Care Unit"}}, {"type": "node", "id": 8212614224, "lat": 11.9259099, "lon": 32.8737854, "tags": {"amenity": "hospital", "description:en": "Primary Health Care Unit", "name": "Gusfami Primary Health Care Unit"}}, {"type": "node", "id": 8212614225, "lat": 11.9905447, "lon": 32.7588865, "tags": {"amenity": "hospital", "description:en": "Primary Health Care Centre", "name": "Gieger Primary Health Care Centre"}}, {"type": "node", "id": 8212614226, "lat": 11.9826501, "lon": 32.9693605, "tags": {"amenity": "hospital", "description:en": "Primary Health Care Unit", "name": "Koloug Primary Health Care Unit"}}, {"type": "node", "id": 8212926601, "lat": 12.0541, "lon": 32.8202, "tags": {"amenity": "hospital", "description:en": "Primary Health Care Unit", "name": "Kilo 5 Primary Health Care Unit"}}, {"type": "node", "id": 8212926602, "lat": 12.0761102, "lon": 32.7820659, "tags": {"amenity": "hospital", "description:en": "Primary Health Care Unit", "name": "Romale Primary Health Care Unit"}}, {"type": "node", "id": 8212926603, "lat": 12.1409857, "lon": 32.8218962, "tags": {"amenity": "hospital", "description:en": "Primary Health Care Unit", "name": "Kilo 15 Primary Health Care Unit"}}, {"type": "node", "id": 8212926605, "lat": 12.1696612, "lon": 32.7850185, "tags": {"amenity": "hospital", "description:en": "Primary Health Care Unit", "name": "Alaka Primary Health Care Unit"}}, {"type": "node", "id": 8273175917, "lat": 15.3379709, "lon": 38.932133, "tags": {"amenity": "hospital", "name": "E-Nile"}}, {"type": "node", "id": 8451526228, "lat": 15.5768097, "lon": 32.5665128, "tags": {"amenity": "hospital", "name": "\u0645\u062c\u0645\u0639 \u0645\u0643\u0629 \u0644\u0637\u0628 \u0627\u0644\u0639\u064a\u0648\u0646 \u0627\u0644\u062e\u0631\u0637\u0648\u0645"}}, {"type": "node", "id": 8451526427, "lat": 15.6365651, "lon": 32.5245688, "tags": {"amenity": "hospital", "name": "\u0645\u0633\u062a\u0634\u0641\u0649 \u0627\u0644\u0633\u0643\u0631\u064a \u0628\u062d\u0631\u064a"}}, {"type": "node", "id": 8490989617, "lat": 19.7112135, "lon": 30.3946692, "tags": {"amenity": "hospital"}}, {"type": "node", "id": 8642470417, "lat": 15.5621123, "lon": 32.5439501, "tags": {"alt_name": "\u0645\u0633\u062a\u0634\u0641\u0649 \u0633\u0639\u062f \u0623\u0628\u0648 \u0627\u0644\u0639\u0644\u0627", "amenity": "hospital", "healthcare": "hospital", "name": "\u0645\u0633\u062a\u0634\u0641\u0649 \u0633\u0639\u062f \u0623\u0628\u0648 \u0627\u0644\u0639\u0644\u0627 \u0627\u0644\u062a\u0639\u0644\u064a\u0645\u064a", "name:ar": "\u0645\u0633\u062a\u0634\u0641\u0649 \u0633\u0639\u062f \u0623\u0628\u0648 \u0627\u0644\u0639\u0644\u0627 \u0627\u0644\u062a\u0639\u0644\u064a\u0645\u064a", "name:en": "Saad Abu Alela Hospital"}}, {"type": "node", "id": 8642471118, "lat": 15.6277862, "lon": 32.4739258, "tags": {"amenity": "hospital", "name": "\u0645\u0633\u062a\u0634\u0641\u0649 \u0623\u0628\u0648 \u0639\u0646\u062c\u0647 \u0627\u0645\u062f\u0631\u0645\u0627\u0646"}}, {"type": "node", "id": 8661357217, "lat": 11.608003, "lon": 37.3699025, "tags": {"amenity": "hospital", "name": "\u1348\u1208\u1308 \u1205\u12ed\u12c8\u1275 \u122a\u1348\u122b\u120d \u1206\u1235\u1352\u1273\u120d", "name:en": "Felege hiwot referal hospital"}}, {"type": "node", "id": 8677500817, "lat": 11.5804335, "lon": 37.3781815, "tags": {"amenity": "hospital", "healthcare": "hospital", "name:en": "Adinas hospital"}}, {"type": "node", "id": 8817899718, "lat": 10.0178518, "lon": 39.9116556, "tags": {"amenity": "hospital", "name:en": "public hospital shewa robit", "name:fr": "h\u00f4pital publique Shewa robit"}}, {"type": "node", "id": 8821369017, "lat": 10.3177956, "lon": 39.8762232, "tags": {"amenity": "hospital", "name:en": "health centre Bergebi", "name:fr": "centre de sant\u00e9 Bergebi"}}, {"type": "node", "id": 8856063217, "lat": 10.5535735, "lon": 39.9307555, "tags": {"amenity": "hospital", "name:en": "caffa robit health centre", "name:fr": "centre de sant\u00e9 Caffa robit"}}, {"type": "node", "id": 8856063317, "lat": 10.6528677, "lon": 39.8650126, "tags": {"amenity": "hospital", "name:en": "Jaffa health center", "name:fr": "centre de sant\u00e9 de Jaffa"}}, {"type": "node", "id": 8856063517, "lat": 10.5933229, "lon": 39.9217798, "tags": {"amenity": "hospital", "name:en": "Chirete health center", "name:fr": "centre de sant\u00e9 de Chirete"}}, {"type": "node", "id": 8869450782, "lat": 12.7603698, "lon": 37.6088199, "tags": {"amenity": "hospital", "name": "Wogeba Primary Hospital"}}, {"type": "node", "id": 8957794917, "lat": 13.1963205, "lon": 39.2080959, "tags": {"amenity": "hospital", "name:en": "Samre hospital", "name:fr": "h\u00f4pital de Samre"}}, {"type": "node", "id": 9078270794, "lat": 15.598696, "lon": 32.5298443, "tags": {"alt_name:ar": "\u0645\u0633\u062a\u0634\u0641\u0649 \u0641\u064a\u0635\u0644", "alt_name:en": "Faisal Hospital", "amenity": "hospital", "healthcare": "hospital", "name": "\u0645\u0633\u062a\u0634\u0641\u0649 \u0627\u0644\u0641\u064a\u0635\u0644 \u0627\u0644\u062a\u062e\u0635\u0635\u064a", "name:ar": "\u0645\u0633\u062a\u0634\u0641\u0649 \u0627\u0644\u0641\u064a\u0635\u0644 \u0627\u0644\u062a\u062e\u0635\u0635\u064a", "name:en": "Al Faisal Specialized Hospital"}}, {"type": "node", "id": 9078270795, "lat": 15.5986224, "lon": 32.5294018, "tags": {"amenity": "hospital", "healthcare": "hospital", "name": "\u0645\u0633\u062a\u0634\u0641\u0649 \u0627\u0644\u0645\u0646\u064a\u0631\u0629 \u0627\u0644\u062c\u0631\u0627\u062d\u064a", "name:ar": "\u0645\u0633\u062a\u0634\u0641\u0649 \u0627\u0644\u0645\u0646\u064a\u0631\u0629 \u0627\u0644\u062c\u0631\u0627\u062d\u064a"}}, {"type": "node", "id": 9078273718, "lat": 15.6124025, "lon": 32.559641, "tags": {"alt_name:ar": "\u0645\u0633\u062a\u0634\u0641\u0649 \u0639\u0645\u0631 \u0633\u0627\u0648\u064a", "alt_name:en": "Omer Sawi Hospital", "amenity": "hospital", "healthcare": "hospital", "name": "\u0645\u0633\u062a\u0634\u0641\u0649 \u0627\u0644\u0644\u0648\u0627\u0621 \u0639\u0645\u0631 \u0633\u0627\u0648\u064a \u0627\u0644\u0637\u0628\u064a", "name:ar": "\u0645\u0633\u062a\u0634\u0641\u0649 \u0627\u0644\u0644\u0648\u0627\u0621 \u0639\u0645\u0631 \u0633\u0627\u0648\u064a \u0627\u0644\u0637\u0628\u064a", "name:en": "General Omer Sawi Hospital"}}, {"type": "node", "id": 9327485324, "lat": 15.5761076, "lon": 32.5426759, "tags": {"addr:street": "\u0634\u0627\u0631\u0639 \u0645\u062d\u0645\u062f \u0646\u062c\u064a\u0628", "amenity": "hospital", "name": "\u0645\u0631\u0643\u0632 \u0627\u0644\u0646\u0632\u0641 \u0627\u0644\u0645\u0639\u0648\u064a \u0628\u0646 \u0633\u064a\u0646\u0627\u0621"}}, {"type": "node", "id": 9327486318, "lat": 15.5772174, "lon": 32.5422459, "tags": {"addr:street": "\u0634\u0627\u0631\u0639 \u0645\u062d\u0645\u062f \u0646\u062c\u064a\u0628", "amenity": "hospital", "name": "\u0645\u0633\u062a\u0634\u0641\u0649 \u0628\u0646 \u0633\u064a\u0646\u0627\u0621"}}, {"type": "node", "id": 9327486419, "lat": 15.5832583, "lon": 32.5284389, "tags": {"addr:street": "\u0634\u0627\u0631\u0639 \u0627\u062d\u0645\u062f \u062e\u064a\u0631", "amenity": "hospital", "name": "\u0645\u062c\u0645\u0639 \u0627\u0644\u0645\u0639\u0644\u0645 \u0627\u0644\u0637\u0628\u064a \u0627\u0644\u062a\u062e\u0635\u0635\u064a \u0644\u0644\u0633\u0643\u0631\u064a"}}, {"type": "node", "id": 9327486817, "lat": 15.6009015, "lon": 32.5300615, "tags": {"addr:street": "\u0634\u0627\u0631\u0639 21 \u0623\u0643\u062a\u0648\u0628\u0631", "amenity": "hospital", "name": "\u0645\u0633\u062a\u0634\u0641\u0649 \u0628\u0631\u0627\u0621\u0629 \u0644\u0644\u0623\u0637\u0641\u0627\u0644"}}, {"type": "node", "id": 9872804317, "lat": 15.6031233, "lon": 32.5301051, "tags": {"addr:street": "\u0634\u0627\u0631\u0639 \u0628\u0627\u0628\u0643\u0631 \u0628\u062f\u0631\u064a", "amenity": "hospital", "name": "\u0627\u0644\u0635\u0646\u062f\u0648\u0642 \u0627\u0644\u0642\u0648\u0645\u064a \u0644\u0644\u062a\u0623\u0645\u064a\u0646 \u0627\u0644\u0635\u062d\u064a \u0627\u0644\u0648\u0644\u0627\u064a\u0627\u062a \u0628\u0627\u0644\u0638\u0628\u0637"}}, {"type": "node", "id": 9872804318, "lat": 15.6003527, "lon": 32.5275709, "tags": {"amenity": "hospital", "name": "\u0645\u062c\u0645\u0639 \u0639\u064a\u0627\u062f\u0627\u062a \u0641\u062a\u062d \u0627\u0644\u0631\u062d\u0645\u0646 \u0627\u0644\u0628\u0634\u064a\u0631"}}, {"type": "node", "id": 9872804418, "lat": 15.6031131, "lon": 32.5296415, "tags": {"amenity": "hospital", "name": "\u0627\u0644\u0635\u0646\u062f\u0648\u0642 \u0627\u0644\u0642\u0648\u0645\u064a \u0644\u0644\u062a\u0623\u0645\u064a\u0646 \u0627\u0644\u0635\u062d\u064a \u0627\u0644\u0648\u0644\u0627\u064a\u0627\u062a"}}, {"type": "node", "id": 9980015717, "lat": 15.5390143, "lon": 32.532167, "tags": {"amenity": "hospital"}}, {"type": "node", "id": 10018992646, "lat": 14.1527973, "lon": 32.949095, "tags": {"amenity": "hospital", "healthcare": "hospital"}}, {"type": "node", "id": 10019056054, "lat": 14.2251635, "lon": 33.0226014, "tags": {"amenity": "hospital", "healthcare": "hospital"}}, {"type": "node", "id": 10196645826, "lat": 11.5809048, "lon": 37.3780472, "tags": {"amenity": "hospital", "healthcare": "hospital", "name": "\u533b\u9662", "name:en": "hospital"}}, {"type": "node", "id": 10610308105, "lat": 18.1703262, "lon": 30.8068606, "tags": {"amenity": "hospital"}}, {"type": "node", "id": 10610308205, "lat": 18.1702616, "lon": 30.8068621, "tags": {"amenity": "hospital", "name": "\u0645\u0633\u062a\u0634\u0641\u0649 \u0627\u0644\u0648\u0641\u0627\u0642 \u0627\u0644\u0642\u0637\u0631\u064a"}}, {"type": "node", "id": 10773946205, "lat": 18.1698631, "lon": 30.8067732, "tags": {"amenity": "hospital", "internet_access": "wlan", "name": "\u0645\u0633\u062a\u0634\u0641\u0649 \u0627\u0644\u0648\u0641\u0627\u0642 \u0627\u0644\u0642\u0637\u0631\u064a"}}, {"type": "node", "id": 10807047138, "lat": 18.4845663, "lon": 31.8280063, "tags": {"amenity": "hospital", "healthcare": "hospital", "name": "\u0645\u0633\u062a\u0634\u0641\u0649 \u0645\u0631\u0648\u064a \u0627\u0644\u0639\u0633\u0643\u0631\u064a"}}, {"type": "node", "id": 10807062676, "lat": 18.5498206, "lon": 31.8454635, "tags": {"amenity": "hospital", "healthcare": "hospital", "name": "\u0645\u0633\u062a\u0634\u0641\u0649 \u0643\u0631\u064a\u0645\u0629"}}, {"type": "node", "id": 10807066168, "lat": 18.4841833, "lon": 31.8387922, "tags": {"amenity": "hospital", "healthcare": "hospital", "name": "\u0645\u0633\u062a\u0634\u0641\u0649 \u0645\u0631\u0648\u064a \u0627\u0644\u062a\u062e\u0635\u0635\u064a"}}, {"type": "node", "id": 11283493369, "lat": 13.1805481, "lon": 38.2823702, "tags": {"amenity": "hospital", "name": "Kil lHP"}}, {"type": "node", "id": 11283493469, "lat": 13.0877114, "lon": 38.1920476, "tags": {"amenity": "hospital", "name:en": "Deron P"}}, {"type": "node", "id": 11283494069, "lat": 13.0192745, "lon": 38.1051249, "tags": {"amenity": "hospital", "name:en": "Deresgie HP"}}, {"type": "way", "id": 5773443, "center": {"lat": 15.5474173, "lon": 32.5569936}, "nodes": [44880058, 44880060, 44880286, 44880062, 44880058], "tags": {"addr:street": "\u0634\u0627\u0631\u0639 \u0627\u0641\u0631\u064a\u0642\u064a\u0627", "amenity": "hospital", "healthcare": "hospital", "name": "\u0645\u0631\u0643\u0632 \u0627\u0644\u0633\u0648\u062f\u0627\u0646 \u0644\u0644\u0642\u0644\u0628", "name:ar": "\u0645\u0631\u0643\u0632 \u0627\u0644\u0633\u0648\u062f\u0627\u0646 \u0644\u0644\u0642\u0644\u0628", "name:en": "Heart Centre Hospital"}}, {"type": "way", "id": 78578803, "center": {"lat": 15.5768099, "lon": 32.5431607}, "nodes": [921937336, 921937344, 921937406, 921937426, 3159144213, 921937336], "tags": {"addr:city": "\u0627\u0644\u062e\u0631\u0637\u0648\u0645", "addr:street": "\u0634\u0627\u0631\u0639 \u0645\u062d\u0645\u062f \u0646\u062c\u064a\u0628", "amenity": "hospital", "healthcare": "hospital", "name": "\u0645\u0633\u062a\u0634\u0641\u0649 \u0627\u0628\u0646 \u0633\u064a\u0646\u0627", "name:en": "Ibn Sina Hospital", "name:fr": "H\u00f4pital Avicenne"}}, {"type": "way", "id": 98286831, "center": {"lat": 15.5085662, "lon": 32.6251707}, "nodes": [1137239122, 1137239121, 373728912, 1137239128, 1137239116, 1137239125, 1137239113, 1137239118, 1137239122], "tags": {"addr:city": "\u0627\u0644\u062e\u0631\u0637\u0632\u0645", "addr:street": "\u0634\u0627\u0631\u0639 \u0627\u0644\u062e\u0631\u0637\u0648\u0645 \u0645\u062f\u0646\u064a", "amenity": "hospital", "healthcare": "hospital", "name": "\u0645\u0633\u062a\u0634\u0641\u0649 \u0633\u0648\u0628\u0627 \u0627\u0644\u062c\u0627\u0645\u0639\u064a", "name:ar": "\u0645\u0633\u062a\u0634\u0641\u0649 \u0633\u0648\u0628\u0627 \u0627\u0644\u062c\u0627\u0645\u0639\u064a", "name:en": "Soba Medical Campus"}}, {"type": "way", "id": 108703925, "center": {"lat": 15.6165441, "lon": 32.4846187}, "nodes": [1246392134, 1246392133, 1246392139, 1246392138, 1246392134], "tags": {"amenity": "hospital", "healthcare": "hospital"}}, {"type": "way", "id": 126080262, "center": {"lat": 19.622815, "lon": 37.2164177}, "nodes": [1398631372, 1398630966, 1398631261, 1398631410, 1398631372], "tags": {"addr:city": "\u0628\u0648\u0631\u062a\u0633\u0648\u062f\u0627\u0646", "amenity": "hospital", "healthcare": "hospital", "name": "\u0645\u0633\u062a\u0634\u0641\u0649 \u062f\u0642\u0646\u0629", "name:ar": "\u0645\u0633\u062a\u0634\u0641\u0649 \u062f\u0642\u0646\u0629", "name:en": "Degna Hospital"}}, {"type": "way", "id": 130064055, "center": {"lat": 15.5520454, "lon": 32.5422567}, "nodes": [1433673752, 1433673753, 1433673751, 1433673750, 1433673752], "tags": {"addr:street": "\u0634\u0627\u0631\u0639 \u0627\u0644\u0635\u062d\u0627\u0641\u0629", "amenity": "hospital", "healthcare": "hospital", "name": "\u0645\u0633\u062a\u0634\u0641\u0649 \u0627\u0644\u0627\u0643\u0627\u062f\u064a\u0645\u064a\u0649 \u0627\u0644\u062e\u064a\u0631\u064a", "name:ar": "\u0645\u0633\u062a\u0634\u0641\u0649 \u0627\u0644\u0627\u0643\u0627\u062f\u064a\u0645\u064a\u0649 \u0627\u0644\u062e\u064a\u0631\u064a", "name:en": "Khartoum Academic Hospital"}}, {"type": "way", "id": 132671070, "center": {"lat": 15.6113796, "lon": 32.5591941}, "nodes": [1459327090, 4556978094, 1459327089, 1459327085, 11015964065, 1459327088, 11015964102, 1459327090], "tags": {"addr:street": "\u0634\u0627\u0631\u0639 \u0627\u0644\u0645\u0639\u0631\u0636", "alt_name": "Ribat University Hospital", "amenity": "hospital", "healthcare": "hospital", "name": "Police Hospital", "name:ar": "\u0645\u0633\u062a\u0634\u0641\u0649 \u0627\u0644\u0631\u0628\u0627\u0637 \u0627\u0644\u062c\u0627\u0645\u0639\u064a", "name:en": "Rebat University Hospital", "opening_hours": "24/7", "phone": "+249123373143"}}, {"type": "way", "id": 132676381, "center": {"lat": 15.567909, "lon": 32.5752612}, "nodes": [1459355449, 1459355450, 1459355448, 8890676228, 1837206187, 1459355449], "tags": {"amenity": "hospital", "emergency": "yes", "healthcare": "hospital", "name": "\u0645\u0633\u062a\u0634\u0641\u0649 \u0627\u0644\u0633\u0648\u064a\u062f\u064a \u0637\u0628 \u0627\u0644\u0627\u0637\u0641\u0627\u0644 \u0627\u0644\u062e\u064a\u0631\u064a\u0629", "name:ar": "\u0645\u0633\u062a\u0634\u0641\u0649 \u0627\u0644\u0633\u0648\u064a\u062f\u064a \u0637\u0628 \u0627\u0644\u0627\u0637\u0641\u0627\u0644 \u0627\u0644\u062e\u064a\u0631\u064a\u0629", "name:en": "Al Sewedy Pediatric Charity Hospital"}}, {"type": "way", "id": 140179054, "center": {"lat": 15.5996484, "lon": 32.5708614}, "nodes": [1535800693, 11062830409, 1889432024, 1535800684, 1535800688, 5104041478, 1535800693], "tags": {"addr:street": "Abulgasim Hashim Street", "amenity": "hospital", "emergency": "no", "healthcare": "hospital", "name": "Royal Care International Hospital", "name:ar": "\u0645\u0633\u062a\u0634\u0641\u0649 \u0631\u0648\u064a\u0627\u0644 \u0643\u064a\u0631 \u0627\u0644\u0639\u0627\u0644\u0645\u064a", "opening_hours": "24/7", "phone": "015 655 0150"}}, {"type": "way", "id": 144941432, "center": {"lat": 15.3105275, "lon": 38.9117523}, "nodes": [1584159304, 9220650541, 1584159396, 1584159499, 1584159302, 1584159511, 1583772035, 4712565380, 1583772847, 1584159796, 1584159442, 1584159432, 1584159480, 1584159464, 1584159671, 9220650546, 9220650547, 1584159359, 9220650540, 1584159536, 1584159754, 1584159748, 1584159315, 1584159756, 9220650545, 9220650544, 1584159357, 9220650543, 9220650542, 1584159554, 1584159507, 1584159486, 1584159304], "tags": {"addr:city": "\u0623\u0633\u0645\u0631\u0629", "amenity": "hospital", "name": "\u1206\u1235\u1352\u1273\u120d \u1230\u121d\u1260\u120d", "name:ar": "\u0645\u0633\u062a\u0634\u0641\u0649 \u0633\u0645\u0628\u0644", "name:en": "Sembel Hospital"}}, {"type": "way", "id": 156884734, "center": {"lat": 15.5621615, "lon": 32.5439449}, "nodes": [1691245257, 1691245258, 1691245255, 1691245254, 1691245257], "tags": {"addr:city": "\u0627\u0644\u062e\u0631\u0637\u0648\u0645", "addr:street": "\u0634\u0627\u0631\u0639 \u0645\u062d\u0645\u062f \u0646\u062c\u064a\u0628", "amenity": "hospital", "healthcare": "hospital", "name": "Saad Abu Elala", "name:ar": "\u0645\u0633\u062a\u0634\u0641\u0649 \u0633\u0639\u062f \u0627\u0628\u0648 \u0627\u0644\u0639\u0644\u0627"}}, {"type": "way", "id": 156884738, "center": {"lat": 15.5497129, "lon": 32.5479895}, "nodes": [1691245137, 1691245138, 1691245136, 1691245134, 1691245124, 1691245120, 1691245116, 1691245137], "tags": {"amenity": "hospital", "building": "yes", "name": "Thamaa Hospital"}}, {"type": "way", "id": 166763292, "center": {"lat": 15.6255873, "lon": 32.5285982}, "nodes": [1782041876, 1782041874, 1782041919, 1782042600, 1782042686, 1782042689, 1782042604, 1782042208, 1782042397, 1782042594, 1782041876], "tags": {"addr:city": "\u0627\u0644\u062e\u0631\u0637\u0648\u0645 \u0628\u062d\u0631\u064a", "addr:street": "\u0634\u0627\u0631\u0639 \u0627\u0644\u0633\u064a\u062f \u0639\u0644\u064a", "amenity": "hospital", "emergency": "yes", "healthcare": "hospital", "name": "\u0645\u0633\u062a\u0634\u0641\u0649 \u0628\u062d\u0631\u064a \u0627\u0644\u062a\u0639\u0644\u064a\u0645\u064a", "name:ar": "\u0645\u0633\u062a\u0634\u0641\u0649 \u0628\u062d\u0631\u064a \u0627\u0644\u062a\u0639\u0644\u064a\u0645\u064a", "name:en": "Bahri Hospital", "operator": "\u0648\u0632\u0627\u0631\u0629 \u0627\u0644\u0635\u062d\u0629"}}, {"type": "way", "id": 172875588, "center": {"lat": 15.565631, "lon": 32.578731}, "nodes": [1837212096, 1837212097, 1837212098, 1837212099, 1837212096], "tags": {"amenity": "hospital", "building": "yes", "emergency": "no", "name": "Al Rayan Clinic Centre", "name:ar": "\u0639\u064a\u0627\u062f\u0629 \u0627\u0644\u0631\u064a\u0627\u0646"}}, {"type": "way", "id": 180787136, "center": {"lat": 14.7630167, "lon": 33.3737904}, "nodes": [1912517510, 1912517512, 1912517502, 1912517501, 1912517505, 1912517510], "tags": {"amenity": "hospital", "name": "Rufaah Teaching Hospital"}}, {"type": "way", "id": 181411288, "center": {"lat": 10.849462, "lon": 37.6088091}, "nodes": [1918400507, 1918400517, 1748678062, 1918400487, 1918400463, 1918400444, 1918400522, 1918400512, 1918400481, 1918400524, 1918400448, 1918400464, 1918400467, 1918400499, 1918400507], "tags": {"amenity": "hospital"}}, {"type": "way", "id": 188189774, "center": {"lat": 10.0684777, "lon": 34.5447149}, "nodes": [1988173821, 1989318068, 1988173816, 1988173814, 1988173822, 1988173828, 1988173832, 1988173825, 1988173821], "tags": {"amenity": "hospital", "healthcare": "hospital", "name": "Assosa Hospital"}}, {"type": "way", "id": 200437958, "center": {"lat": 11.7988687, "lon": 34.3521896}, "nodes": [2104279105, 2104279117, 2104279161, 2104279101, 2104279115, 2104279113, 2104279128, 2104279130, 2104279105], "tags": {"amenity": "hospital"}}, {"type": "way", "id": 200602347, "center": {"lat": 15.4623681, "lon": 32.4759395}, "nodes": [2105719160, 2105719162, 2105719163, 2105719164, 2105719158, 2105719159, 2105719160], "tags": {"amenity": "hospital", "emergency": "yes", "healthcare": "hospital", "name": "\u0627\u0644\u0645\u0633\u062a\u0634\u0641\u0649 \u0627\u0644\u062a\u0631\u0643\u064a"}}, {"type": "way", "id": 204060523, "center": {"lat": 13.5097672, "lon": 39.4690228}, "nodes": [2140788360, 2748713978, 2140788963, 2140788870, 2140788770, 2140788253, 2140787944, 2140788704, 2140787979, 5579495353, 5579495354, 2140789147, 2140789158, 2140788958, 2140788321, 2140789016, 2140788360], "tags": {"amenity": "hospital", "healthcare": "hospital", "name": "Ayder Riferral Hospital", "name:en": "Ayder Riferral Hospital"}}, {"type": "way", "id": 218058989, "center": {"lat": 15.6376336, "lon": 32.5324528}, "nodes": [2273602547, 2273602546, 2273602548, 2273602549, 2273602547], "tags": {"alt_name:en": "Ahmad Qasem Hospital", "amenity": "hospital", "emergency": "yes", "healthcare": "hospital", "name": "\u0645\u0633\u062a\u0634\u0641\u0649 \u0623\u062d\u0645\u062f \u0642\u0627\u0633\u0645 \u0644\u0644\u0627\u0637\u0641\u0627\u0644", "name:ar": "\u0645\u0633\u062a\u0634\u0641\u0649 \u0623\u062d\u0645\u062f \u0642\u0627\u0633\u0645 \u0644\u0644\u0627\u0637\u0641\u0627\u0644", "name:en": "Ahmad Qasem Hospital for Children"}}, {"type": "way", "id": 218193517, "center": {"lat": 15.6279652, "lon": 32.5521664}, "nodes": [2274645072, 2274645070, 2274645071, 2274645073, 2274645072], "tags": {"alt_name": "\u0645\u0633\u062a\u0634\u0641\u0649 \u0627\u0644\u0627\u0645\u0644 \u0627\u0644\u0648\u0637\u0646\u064a \u0643\u0648\u0628\u0631", "amenity": "hospital", "emergency": "yes", "healthcare": "hospital", "name": "\u0645\u0633\u062a\u0634\u0641\u0649 \u0627\u0644\u0627\u0645\u0644 \u0627\u0644\u0648\u0637\u0646\u064a", "name:ar": "\u0645\u0633\u062a\u0634\u0641\u0649 \u0627\u0644\u0627\u0645\u0644", "name:en": "Al Amal Hospital"}}, {"type": "way", "id": 218269114, "center": {"lat": 15.6510335, "lon": 32.5318056}, "nodes": [2275326672, 2275326673, 2275326674, 2275326671, 3159195893, 2275326672], "tags": {"addr:city": "\u0627\u0644\u062e\u0631\u0637\u0648\u0645 \u0628\u062d\u0631\u064a", "addr:street": "\u0634\u0627\u0631\u0639 \u0627\u0644\u0645\u0639\u0648\u0646\u0629", "amenity": "hospital", "emergency": "yes", "healthcare": "hospital", "name": "\u0645\u0633\u062a\u0634\u0641\u0649 \u0627\u0644\u062d\u0627\u062c \u0627\u0644\u0635\u0627\u0641\u064a", "name:ar": "\u0645\u0633\u062a\u0634\u0641\u0649 \u0627\u0644\u062d\u0627\u062c \u0627\u0644\u0635\u0627\u0641\u064a", "name:en": "Haj Alsafii Hospital"}}, {"type": "way", "id": 218416074, "center": {"lat": 15.641318, "lon": 32.526297}, "nodes": [2276643873, 2276643869, 2276643870, 2276643862, 2276643873], "tags": {"addr:street": "\u0634\u0627\u0631\u0639 \u0627\u0644\u0632\u0639\u064a\u0645 \u0627\u0644\u0627\u0632\u0647\u0631\u064a", "amenity": "hospital", "emergency": "yes", "healthcare": "hospital", "name": "\u0627\u0644\u0645\u0633\u062a\u0634\u0641\u0649 \u0627\u0644\u062f\u0648\u0644\u064a", "name:ar": "\u0627\u0644\u0645\u0633\u062a\u0634\u0641\u0649 \u0627\u0644\u062f\u0648\u0644\u064a", "name:en": "International Hospital"}}, {"type": "way", "id": 218433540, "center": {"lat": 15.6730668, "lon": 32.5451217}, "nodes": [2276847140, 2276847144, 2276847134, 2276847130, 2276847140], "tags": {"amenity": "hospital", "emergency": "no", "healthcare": "hospital", "name": "Health Care Center"}}, {"type": "way", "id": 218434412, "center": {"lat": 15.6731456, "lon": 32.5443008}, "nodes": [2276850116, 2276850109, 2276850112, 2276850120, 2276850116], "tags": {"addr:city": "\u0627\u0644\u062e\u0631\u0637\u0648\u0645 \u0628\u062d\u0631\u064a", "addr:street": "\u0634\u0627\u0631\u0639 \u0627\u0644\u0628\u0631\u0627\u062d\u0629", "amenity": "hospital", "emergency": "yes", "healthcare": "hospital", "name": "\u0645\u062f\u064a\u0646\u0629 \u0627\u0644\u0628\u0631\u0627\u062d\u0629 \u0627\u0644\u0637\u0628\u064a\u0629", "name:ar": "\u0645\u062f\u064a\u0646\u0629 \u0627\u0644\u0628\u0631\u0627\u062d\u0629 \u0627\u0644\u0637\u0628\u064a\u0629", "source": "Bing"}}, {"type": "way", "id": 218435038, "center": {"lat": 15.6731495, "lon": 32.5437515}, "nodes": [2276851049, 2276851047, 2276851050, 2276851048, 2276851049], "tags": {"amenity": "hospital", "healthcare": "hospital", "name": "Baraha Hospital New Extension"}}, {"type": "way", "id": 218565403, "center": {"lat": 15.4552198, "lon": 36.3947516}, "nodes": [2278054249, 9308633791, 9308633790, 2278054260, 2278054259, 2278054250, 2278054247, 2278056175, 2278054245, 2278054256, 9308633802, 2278054249], "tags": {"amenity": "hospital", "emergency": "yes", "name": "Kassala Educational Hospital"}}, {"type": "way", "id": 218568798, "center": {"lat": 15.4512049, "lon": 36.3941375}, "nodes": [2278086542, 2278086543, 2278086545, 2278086541, 2278086542], "tags": {"amenity": "hospital", "name": "\u0645\u0633\u062a\u0634\u0641\u0649 \u0645\u0643\u0629", "name:ar": "\u0645\u0633\u062a\u0634\u0641\u0649 \u0645\u0643\u0629", "name:en": "Mekkah Hospital"}}, {"type": "way", "id": 218580720, "center": {"lat": 15.4769007, "lon": 36.3952742}, "nodes": [2278162428, 2278162417, 2278162411, 2278162430, 2278162428], "tags": {"amenity": "hospital", "designation": "Obstetrics and Gynecology Hospital", "emergency": "yes", "name": "Saudi Hospital"}}, {"type": "way", "id": 220649471, "center": {"lat": 15.6349692, "lon": 32.5165969}, "nodes": [11147709506, 2297428680, 2297428685, 11147526833, 11147709507, 11147709506], "tags": {"amenity": "hospital", "name": "\u0645\u0631\u0643\u0632 \u0635\u062d\u064a \u0627\u0644\u0635\u0628\u0627\u0628\u064a"}}, {"type": "way", "id": 233756202, "center": {"lat": 15.6419812, "lon": 32.4873918}, "nodes": [2420947249, 2420947251, 3159171743, 2420947250, 2420947249], "tags": {"addr:city": "\u0627\u0645 \u062f\u0631\u0645\u0627\u0646", "amenity": "hospital", "healthcare": "hospital", "name": "\u0645\u0633\u062a\u0634\u0641\u0649 \u0623\u0645 \u062f\u0631\u0645\u0627\u0646 \u0627\u0644\u062a\u0639\u0644\u064a\u0645\u064a", "name:en": "omdurman teaching hospital", "operator": "\u0648\u0632\u0627\u0631\u0629 \u0627\u0644\u0635\u062d\u0629"}}, {"type": "way", "id": 235459486, "center": {"lat": 14.726386, "lon": 33.3524}, "nodes": [2435146265, 2435146266, 2435146267, 2435146268, 2435146265], "tags": {"amenity": "hospital", "building": "yes", "name": "\u0645\u0633\u062a\u0634\u0641\u064a \u0627\u0631\u0628\u062c\u064a \u0627\u0644\u0631\u064a\u0641\u064a"}}, {"type": "way", "id": 253500866, "center": {"lat": 13.1857911, "lon": 30.2232912}, "nodes": [2594251887, 2594251892, 2594251864, 2594251873, 2594251846, 2594251850, 2594251838, 2594251835, 2594251818, 2594251821, 2594251803, 2594251771, 2594251884, 2594251887], "tags": {"addr:city": "\u0627\u0644\u0623\u0628\u064a\u0636", "addr:city:ar": "\u0627\u0644\u0623\u0628\u064a\u0636", "amenity": "hospital", "healthcare": "hospital", "name": "\u0645\u0633\u062a\u0634\u0641\u0649 \u0627\u0644\u0623\u0628\u064a\u0636 \u0627\u0644\u062a\u0639\u0644\u064a\u0645\u064a", "name:ar": "\u0645\u0633\u062a\u0634\u0641\u0649 \u0627\u0644\u0623\u0628\u064a\u0636 \u0627\u0644\u062a\u0639\u0644\u064a\u0645\u064a"}}, {"type": "way", "id": 263726740, "center": {"lat": 14.2686965, "lon": 39.4666654}, "nodes": [2693696241, 2693696337, 2693696335, 2693696417, 2693696424, 2693696473, 2693696479, 2693696532, 2693696583, 2693696591, 2693696589, 2693696585, 2693696600, 2693696649, 2693696327, 2693696237, 2693696180, 2693696163, 2693696078, 2693696066, 2693696072, 2693696085, 2693696092, 2693696159, 2693696170, 2693696221, 2693696241], "tags": {"amenity": "hospital", "barrier": "wall", "healthcare": "hospital", "name": "Adigrat Ras Sibhat Hospital"}}, {"type": "way", "id": 263973652, "center": {"lat": 14.1927762, "lon": 39.5600553}, "nodes": [2696540312, 2696540291, 2696540296, 9235366371, 2696540319, 2696540312], "tags": {"amenity": "hospital", "barrier": "wall", "healthcare": "hospital"}}, {"type": "way", "id": 292033749, "center": {"lat": 14.9225854, "lon": 33.4202331}, "nodes": [2955455651, 2955455636, 2955455649, 2955455663, 2955455642, 2955455654, 2955455651], "tags": {"amenity": "hospital", "name": "Tambool Hospital"}}, {"type": "way", "id": 294266662, "center": {"lat": 15.617108, "lon": 32.6320313}, "nodes": [2978320034, 2978320035, 2978320036, 2978320037, 3159200936, 2978320034], "tags": {"amenity": "hospital", "emergency": "yes", "healthcare": "hospital", "name": "\u0645\u0633\u062a\u0634\u0641\u0649 \u0627\u0644\u0628\u0627\u0646 \u062c\u062f\u064a\u062f", "name:ar": "\u0645\u0633\u062a\u0634\u0641\u0649 \u0627\u0644\u0628\u0627\u0646 \u062c\u062f\u064a\u062f", "name:en": "El-Ban JAdeed Hospital"}}, {"type": "way", "id": 294266663, "center": {"lat": 15.5983692, "lon": 32.6047064}, "nodes": [2978320038, 2978320039, 2978320040, 2978320041, 2978320042, 2978320038], "tags": {"addr:street": "\u0645\u0633\u062a\u0634\u0641\u0649 \u0634\u0631\u0642 \u0627\u0644\u0646\u064a\u0644", "amenity": "hospital", "healthcare": "hospital", "name": "\u0645\u0633\u062a\u0634\u0641\u0649 \u0634\u0631\u0642 \u0627\u0644\u0646\u064a\u0644", "name:ar": "\u0645\u0633\u062a\u0634\u0641\u0649 \u0634\u0631\u0642 \u0627\u0644\u0646\u064a\u0644"}}, {"type": "way", "id": 294690733, "center": {"lat": 15.5402619, "lon": 32.5677671}, "nodes": [2982875072, 2982875073, 2982875074, 2982875075, 2982875072], "tags": {"amenity": "hospital", "healthcare": "hospital", "name": "El-Sheikh Hospital", "name:ar": "\u0645\u0633\u062a\u0634\u0641\u0649 \u0627\u0644\u0634\u064a\u062e \u0627\u0644\u062a\u062e\u0635\u0635\u064a"}}, {"type": "way", "id": 300687641, "center": {"lat": 15.5971481, "lon": 32.529899}, "nodes": [3047975286, 8835834894, 8835834895, 3047975287, 3047975288, 3047975289, 3047975286], "tags": {"amenity": "hospital", "name": "\u0645\u0639\u0645\u0644 \u0627\u0633\u062a\u0627\u0643"}}, {"type": "way", "id": 302414519, "center": {"lat": 15.8358166, "lon": 32.5165044}, "nodes": [3066735369, 3066735370, 3066735371, 3066735372, 3066735369], "tags": {"amenity": "hospital", "healthcare": "hospital", "name": "\u0645\u0633\u062a\u0634\u0641\u0649 \u0627\u0644\u0643\u0644\u064a\u0629 \u0627\u0644\u062d\u0631\u0628\u064a\u0629", "name:tr": "Askeri \u00dcniversite Hastanesi"}}, {"type": "way", "id": 310491179, "center": {"lat": 15.5979702, "lon": 32.5324489}, "nodes": [3159126031, 4303377832, 8835834964, 3159126032, 8432868750, 4303377821, 3159126033, 3159126034, 3159126035, 2138742407, 3159126031], "tags": {"addr:city": "\u0627\u0644\u062e\u0631\u0637\u0648\u0645", "addr:street": "Hospital Street", "amenity": "hospital", "emergency": "yes", "healthcare": "hospital", "name": "\u0645\u0633\u062a\u0634\u0641\u0649 \u0627\u0644\u062e\u0631\u0637\u0648\u0645", "name:en": "Khartoum Hospital", "operator": "\u0648\u0632\u0627\u0631\u0629 \u0627\u0644\u0635\u062d\u0629", "operator:type": "government"}}, {"type": "way", "id": 310494133, "center": {"lat": 15.2435132, "lon": 32.4981515}, "nodes": [3159153536, 3159153537, 3159153538, 3159153539, 3159153536], "tags": {"addr:city": "\u0627\u0644\u062e\u0631\u0637\u0648\u0645", "addr:street": "\u0634\u0627\u0631\u0639 \u0627\u0644\u062c\u0628\u0644", "amenity": "hospital", "name": "\u0645\u0633\u062a\u0634\u0641\u0649 \u062c\u0628\u0644 \u0623\u0648\u0644\u064a\u0627\u0621, \u0627\u0644\u0633\u0648\u062f\u0627\u0646", "operator": "\u0648\u0632\u0627\u0631\u0629 \u0627\u0644\u0635\u062d\u0629"}}, {"type": "way", "id": 310495246, "center": {"lat": 15.5387905, "lon": 32.5526023}, "nodes": [3159156522, 3159156523, 3159156524, 3159156525, 3159156522], "tags": {"addr:city": "\u0627\u0644\u062e\u0631\u0637\u0648\u0645", "addr:street": "\u0634\u0627\u0631\u0639 \u0645\u0633\u062a\u0634\u0641\u0649 \u0627\u0628\u0631\u0647\u064a\u0645 \u0645\u0627\u0644\u0643", "amenity": "hospital", "healthcare": "hospital", "name": "\u0645\u0633\u062a\u0634\u0641\u0649 \u0627\u0628\u0631\u0627\u0647\u064a\u0645 \u0645\u0627\u0644\u0643", "name:ar": "\u0645\u0633\u062a\u0634\u0641\u0649 \u0627\u0628\u0631\u0627\u0647\u064a\u0645 \u0645\u0627\u0644\u0643", "name:en": "Ibrahim Malik Teaching Hospital"}}, {"type": "way", "id": 310495649, "center": {"lat": 15.4896819, "lon": 32.5518214}, "nodes": [3159165626, 3159165627, 3159165629, 3159165628, 3159165626], "tags": {"addr:city": "\u0627\u0644\u062e\u0631\u0637\u0648\u0645", "amenity": "hospital", "healthcare": "hospital", "name": "\u0645\u0633\u062a\u0634\u0641\u0649 \u0628\u0634\u0627\u0626\u0631 \u0627\u0644\u062a\u0639\u0644\u064a\u0645\u064a", "name:ar": "\u0645\u0633\u062a\u0634\u0641\u0649 \u0628\u0634\u0627\u0626\u0631 \u0627\u0644\u062a\u0639\u0644\u064a\u0645\u064a", "operator": "\u0648\u0632\u0627\u0631\u0629 \u0627\u0644\u0635\u062d\u0629"}}, {"type": "way", "id": 310495851, "center": {"lat": 15.6122818, "lon": 32.5453172}, "nodes": [3159167417, 3159167421, 3159167418, 3159167419, 3159167420, 3159167417], "tags": {"addr:city": "\u0627\u0644\u062e\u0631\u0637\u0648\u0645", "addr:street": "Nile Street", "amenity": "hospital", "name": "\u0645\u0633\u062a\u0634\u0641\u0649 \u0627\u0644\u0639\u064a\u0648\u0646", "operator": "\u0648\u0632\u0627\u0631\u0629 \u0627\u0644\u0635\u062d\u0629"}}, {"type": "way", "id": 310496655, "center": {"lat": 15.6358933, "lon": 32.4891782}, "nodes": [3159172447, 3159172448, 3159172449, 3159172450, 3159172447], "tags": {"addr:city": "\u0627\u0645\u062f\u0631\u0645\u0627\u0646", "addr:street": "Mawrada Road", "amenity": "hospital", "healthcare": "hospital", "name": "\u0645\u0633\u062a\u0634\u0641\u0649 \u0623\u0645 \u062f\u0631\u0645\u0627\u0646 \u0644\u0644\u0648\u0644\u0627\u062f\u0629"}}, {"type": "way", "id": 310496868, "center": {"lat": 15.6154837, "lon": 32.4847481}, "nodes": [3159174792, 3159174793, 3159174794, 3159174795, 3159174792], "tags": {"amenity": "hospital", "healthcare": "hospital", "name": "\u0645\u0633\u062a\u0634\u0641\u0649 \u0627\u0644\u0633\u0644\u0627\u062d \u0627\u0644\u0637\u0628\u064a"}}, {"type": "way", "id": 310497165, "center": {"lat": 15.6411498, "lon": 32.4824253}, "nodes": [3159177592, 3159177593, 3159177594, 3159177595, 667115334, 3159177592], "tags": {"addr:city": "\u0627\u0645 \u062f\u0631\u0645\u0627\u0646", "addr:street": "\u0634\u0627\u0631\u0639 \u0627\u0644\u0639\u0631\u0636\u0629", "amenity": "hospital", "healthcare": "hospital", "name": "\u0645\u0633\u062a\u0634\u0641\u0649 \u0627\u0644\u062a\u062c\u0627\u0646\u064a \u0627\u0644\u0645\u0627\u062d\u064a", "operator": "\u0648\u0632\u0627\u0631\u0629 \u0627\u0644\u0635\u062d\u0629"}}, {"type": "way", "id": 310497770, "center": {"lat": 15.6582969, "lon": 32.4623622}, "nodes": [3159182663, 3159182667, 3159182664, 3159182665, 3159182666, 3159182663], "tags": {"addr:city": "\u0627\u0645 \u062f\u0631\u0645\u0627\u0646", "addr:street": "\u0634\u0627\u0631\u0639 \u0627\u0645\u0628\u062f\u0629 \u0627\u0644\u0648\u0627\u062c\u0647\u0629", "amenity": "hospital", "healthcare": "hospital", "name": "\u0645\u0633\u062a\u0634\u0641\u0649 \u0627\u0644\u0635\u062f\u0627\u0642\u0629 \u0627\u0644\u0635\u064a\u0646\u064a", "name:ar": "\u0645\u0633\u062a\u0634\u0641\u0649 \u0627\u0644\u0635\u062f\u0627\u0642\u0629 \u0627\u0644\u0635\u064a\u0646\u064a"}}, {"type": "way", "id": 310497928, "center": {"lat": 15.6697162, "lon": 32.4825884}, "nodes": [3159184361, 3159184362, 3159184363, 3159184364, 3159184365, 3159184361], "tags": {"amenity": "hospital", "emergency": "yes", "healthcare": "hospital", "name": "\u0627\u0644\u0645\u0633\u062a\u0634\u0641\u0649 \u0627\u0644\u0633\u0639\u0648\u062f\u0649 \u0644\u0644\u0648\u0644\u0627\u062f\u0629", "name:en": "Saudi Hospital"}}, {"type": "way", "id": 312153756, "center": {"lat": 15.5695978, "lon": 32.5308213}, "nodes": [3179934361, 3179934365, 3179934362, 3179934363, 3179934364, 3179934361], "tags": {"addr:city": "\u0627\u0644\u062e\u0631\u0637\u0648\u0645", "addr:city:ar": "\u0627\u0644\u062e\u0631\u0637\u0648\u0645", "amenity": "hospital", "healthcare": "hospital", "language:ar": "main", "name": "\u0645\u0631\u0643\u0632 \u0635\u062d\u064a \u0627\u0644\u0645\u0627\u064a\u0642\u0648\u0645\u0627", "name:ar": "\u0645\u0631\u0643\u0632 \u0635\u062d\u064a \u0627\u0644\u0645\u0627\u064a\u0642\u0648\u0645\u0627"}}, {"type": "way", "id": 312558391, "center": {"lat": 10.6862331, "lon": 37.537189}, "nodes": [3184305962, 3184305963, 3184305964, 9051055315, 3184305965, 9051055316, 3184305966, 3184305967, 3184305968, 3184305969, 3184305970, 3184305961, 3184305971, 3184305962], "tags": {"amenity": "hospital"}}, {"type": "way", "id": 317326008, "center": {"lat": 10.337004, "lon": 39.9608324}, "nodes": [3235712189, 3235712190, 3235712191, 3235712192, 3235712193, 3235712189], "tags": {"amenity": "hospital", "emergency": "no", "name": "Effesson Regional Hospital"}}, {"type": "way", "id": 319528084, "center": {"lat": 15.301387, "lon": 38.8993636}, "nodes": [3259522699, 3259522700, 3259522701, 3259522702, 3259522703, 4261766714, 9220530796, 9220530795, 9220530794, 9220530793, 9220530792, 3259522699], "tags": {"addr:city": "\u0623\u0633\u0645\u0631\u0629", "amenity": "hospital", "emergency": "no", "name": "St Mary's Psychiatric Hospital Sembel \u0645\u0633\u062a\u0634\u0641\u0649 \u0633\u0627\u0646\u062a \u0645\u0627\u0631\u064a \u0644\u0644\u0623\u0645\u0631\u0627\u0636 \u0627\u0644\u0646\u0641\u0633\u064a\u0629 \u0633\u0645\u0628\u0644", "name:ar": "\u0645\u0633\u062a\u0634\u0641\u0649 \u0633\u0627\u0646\u062a \u0645\u0627\u0631\u064a \u0644\u0644\u0623\u0645\u0631\u0627\u0636 \u0627\u0644\u0646\u0641\u0633\u064a\u0629 \u0633\u0645\u0628\u0644", "name:en": "St Mary's Psychiatric Hospital Sembel", "phone": "+2911 153186"}}, {"type": "way", "id": 320606367, "center": {"lat": 14.2522882, "lon": 32.9980496}, "nodes": [3271975368, 10086484496, 3271975369, 3271975370, 3271975371, 10047036464, 10047036461, 10047036456, 10047036453, 10047036521, 10047036518, 10047036541, 10047036536, 10047036535, 10047036530, 10047036667, 10047036666, 3271975368], "tags": {"amenity": "hospital", "healthcare": "hospital", "name": "\u0645\u0633\u062a\u0634\u0641\u0649 \u0627\u0644\u0645\u0646\u0627\u0642\u0644"}}, {"type": "way", "id": 320898695, "center": {"lat": 14.2589642, "lon": 32.9862337}, "nodes": [3275749367, 3275749368, 10065546043, 10065546046, 3275749369, 10065546050, 10065546049, 3275749370, 3275749367], "tags": {"amenity": "hospital", "name": "\u0627\u0644\u0647\u0644\u0627\u0644 \u0627\u0644\u0627\u062d\u0645\u0631"}}, {"type": "way", "id": 321168456, "center": {"lat": 13.4997466, "lon": 39.4837768}, "nodes": [3278951642, 3278951643, 3278951644, 9063703314, 9063703313, 9063705895, 3278951645, 3278951646, 9063705894, 3278951647, 3278951642], "tags": {"amenity": "hospital", "name": "Mekelle General Hospital", "name:en": "Mekelle General Hospital", "name:ti": "\u1218\u1250\u1208 \u1206\u1235\u1352\u1273\u120d"}}, {"type": "way", "id": 321473784, "center": {"lat": 15.3357794, "lon": 38.9248676}, "nodes": [3282170421, 9220467147, 9220467149, 9220467148, 9220467150, 9220467151, 9220467152, 9220467153, 9220467156, 9220467155, 9220467154, 9220467158, 9220467159, 2439914803, 2439914802, 9220467157, 9220467160, 7366871342, 9220467161, 9220467162, 9220467163, 9220467136, 9220467135, 9220467134, 3282170424, 9220467164, 3282170421], "tags": {"addr:city": "\u0623\u0633\u0645\u0631\u0629", "amenity": "hospital", "name": "\u1218\u12ab\u1290 \u1205\u12ed\u12c8\u1275 \u1206\u1235\u1352\u1273\u120d", "name:ar": "\u0645\u0633\u062a\u0634\u0641\u0649 \u0645\u064a\u0643\u0627\u0646 \u0647\u064a\u0648\u062a", "name:en": "Mekane Hiwot Hospital"}}, {"type": "way", "id": 323586643, "center": {"lat": 15.5762398, "lon": 32.5345702}, "nodes": [3303664289, 3303664290, 3303664291, 3303664293, 3303664292, 3303664289], "tags": {"addr:city": "\u0627\u0644\u062e\u0631\u0637\u0648\u0645", "addr:street": "Sahafa Street", "amenity": "hospital", "building": "hospital", "emergency": "no", "healthcare": "hospital", "height": "19.70", "name": "\u0645\u0633\u062a\u0634\u0641\u0649 \u0627\u0644\u062c\u0648\u062f\u0629"}}, {"type": "way", "id": 329899933, "center": {"lat": 15.6289486, "lon": 32.4724549}, "nodes": [3368430710, 3368430711, 3368430712, 3368430713, 3368430710], "tags": {"amenity": "hospital", "healthcare": "hospital", "name": "\u0645\u0633\u062a\u0634\u0641\u0649 \u0627\u0628\u0648 \u0639\u0646\u062c\u0629", "name:ar": "\u0645\u0633\u062a\u0634\u0641\u0649 \u0627\u0628\u0648 \u0639\u0646\u062c\u0629", "name:en": "Abo Anga Hospital", "name:tr": "Ebu Anja Hastanesi"}}, {"type": "way", "id": 331779256, "center": {"lat": 15.581903, "lon": 32.5287699}, "nodes": [3179935319, 3388810290, 3388806189, 3876928668, 3388810289, 3388806191, 3179935319], "tags": {"amenity": "hospital", "name": "\u0645\u0631\u0643\u0632 \u0635\u062d\u064a \u0627\u0644\u0633\u062c\u0627\u0646\u0629"}}, {"type": "way", "id": 341617974, "center": {"lat": 15.5330608, "lon": 32.515957}, "nodes": [7010784003, 3487568440, 3487568441, 3487568442, 7010784003], "tags": {"amenity": "hospital", "healthcare": "hospital", "name": "\u0645\u0631\u0643\u0632 \u0635\u062d\u064a \u0627\u0644\u0634\u0647\u064a\u062f \u062e\u0627\u0644\u062f"}}, {"type": "way", "id": 342021299, "center": {"lat": 15.5282671, "lon": 32.5358259}, "nodes": [6796767527, 3490743028, 3490743029, 3490743030, 6796767527], "tags": {"amenity": "hospital", "healthcare": "hospital", "name": "\u0645\u0633\u062a\u0634\u0641\u0649 \u062d\u0648\u062f\u0627\u062b \u0627\u0644\u062e\u0631\u0637\u0648\u0645 \u062c\u0646\u0648\u0628;\u0645\u0633\u062a\u0634\u0641\u0649 \u062c\u0628\u0631\u0629 \u0644\u0644\u0637\u0648\u0627\u0631\u0626"}}, {"type": "way", "id": 355791678, "center": {"lat": 15.611223, "lon": 32.5452236}, "nodes": [3613293313, 3613293314, 3613293315, 3613293316, 3711811687, 3613293313], "tags": {"amenity": "hospital"}}, {"type": "way", "id": 361640691, "center": {"lat": 13.5092789, "lon": 39.4694628}, "nodes": [3660964537, 3660964534, 3660964543, 3660964541, 3660964537], "tags": {"amenity": "hospital"}}, {"type": "way", "id": 361640692, "center": {"lat": 13.5099116, "lon": 39.4699134}, "nodes": [3660964538, 3660964542, 3660964544, 3660964540, 3660964532, 3660964536, 3660964545, 3660964539, 3660964530, 3660964538], "tags": {"amenity": "hospital"}}, {"type": "way", "id": 361640693, "center": {"lat": 13.5094312, "lon": 39.4694961}, "nodes": [3660964535, 3660964531, 3660964533, 3660964546, 3660964535], "tags": {"amenity": "hospital"}}, {"type": "way", "id": 364442528, "center": {"lat": 15.6454606, "lon": 32.4899486}, "nodes": [3684895239, 3684895240, 3684895241, 3684895242, 3684895239], "tags": {"addr:city": "\u0627\u0645 \u062f\u0631\u0645\u0627\u0646", "addr:street": "\u0634\u0627\u0631\u0639 \u0627\u0644\u0634\u0647\u062f\u0627\u0621", "amenity": "hospital", "healthcare": "hospital", "name": "\u0639\u064a\u0627\u062f\u0627\u062a \u0639\u0628\u062f \u0627\u0644\u0645\u0646\u0639\u0645 \u0645\u062d\u0645\u062f", "name:ar": "\u0639\u064a\u0627\u062f\u0627\u062a \u0639\u0628\u062f \u0627\u0644\u0645\u0646\u0639\u0645 \u0645\u062d\u0645\u062f", "name:en": "Abdelmonem Mohammed Clinics"}}, {"type": "way", "id": 364442529, "center": {"lat": 15.6457552, "lon": 32.4901703}, "nodes": [3684895243, 3684895244, 3684895245, 3684895246, 3684895243], "tags": {"addr:city": "\u0627\u0645 \u062f\u0631\u0645\u0627\u0646", "addr:street": "\u0634\u0627\u0631\u0639 \u0627\u0644\u0634\u0647\u062f\u0627\u0621", "amenity": "hospital", "healthcare": "hospital", "name": "\u0645\u0633\u062a\u0634\u0641\u0649 \u0627\u0633\u064a\u0627", "name:ar": "\u0645\u0633\u062a\u0634\u0641\u0649 \u0627\u0633\u064a\u0627", "name:en": "Asia Hospital"}}, {"type": "way", "id": 364442530, "center": {"lat": 15.6371724, "lon": 32.4823762}, "nodes": [3684895247, 3684895248, 3684895249, 3684895250, 3684895247], "tags": {"addr:city": "\u0627\u0645 \u062f\u0631\u0645\u0627\u0646", "amenity": "hospital", "name": "\u0645\u0633\u062a\u0634\u0641\u0649 \u0627\u0644\u0627\u0631\u0628\u0639\u064a\u0646", "name:en": "Al-Arbaeen hospital"}}, {"type": "way", "id": 368366605, "center": {"lat": 14.0268775, "lon": 38.7748011}, "nodes": [3722092550, 3722092551, 3722092552, 3722092553, 8479592003, 3722092554, 3722092550], "tags": {"amenity": "hospital", "barrier": "wall", "emergency": "yes", "name": "Maheber Dego Health Center"}}, {"type": "way", "id": 385554609, "center": {"lat": 15.571405, "lon": 32.5349584}, "nodes": [3888972577, 3888972578, 3888972572, 3888972570, 3888972577], "tags": {"addr:city": "\u0627\u0644\u062e\u0631\u0637\u0648\u0645", "addr:city:ar": "\u0627\u0644\u062e\u0631\u0637\u0648\u0645", "amenity": "hospital", "building": "yes", "healthcare": "hospital", "language:ar": "main", "name": "\u0635\u062d\u0629 \u0648\u0639\u0627\u0641\u064a\u0629", "name:ar": "\u0635\u062d\u0629 \u0648\u0639\u0627\u0641\u064a\u0629"}}, {"type": "way", "id": 395177094, "center": {"lat": 14.1143538, "lon": 38.601417}, "nodes": [5639204522, 3980791799, 3980791800, 3980791801, 5639204522], "tags": {"amenity": "hospital", "healthcare": "hospital", "landuse": "healthcare", "name:en": "Wukro Maray Primary Hospital"}}, {"type": "way", "id": 395177103, "center": {"lat": 14.1105068, "lon": 38.7280141}, "nodes": [3980791856, 3980791857, 8462198356, 8462198355, 8462198354, 3980791858, 8462198358, 3980791859, 4037365029, 8463537873, 4037367462, 8462198357, 3980791856], "tags": {"amenity": "hospital", "name": "Referral Hospital"}}, {"type": "way", "id": 407500000, "center": {"lat": 11.6080062, "lon": 37.3699197}, "nodes": [4095528857, 4095528860, 4095528861, 4095528862, 4095528865, 4095528866, 4095528863, 4095528864, 4095528859, 4095528858, 4095528856, 8134428528, 4095528857], "tags": {"amenity": "hospital"}}, {"type": "way", "id": 421960240, "center": {"lat": 15.623371, "lon": 39.4652606}, "nodes": [4216931131, 4216931130, 4216931129, 4216931128, 4216931127, 4216931126, 4216931125, 4216931124, 4216931123, 4216931144, 4216931132, 4216931133, 4216931143, 4216931142, 4216931134, 4216931135, 4216931120, 4216931121, 4216931136, 4216931137, 4216931138, 4216936612, 4216931122, 4216931141, 4216931140, 4216931139, 4216931131], "tags": {"addr:city": "\u0645\u0635\u0648\u0639", "amenity": "hospital", "name": "Massawa Hospital \u0645\u0633\u062a\u0634\u0641\u0649 \u0645\u0635\u0648\u0639", "name:ar": "\u0645\u0633\u062a\u0634\u0641\u0649 \u0645\u0635\u0648\u0639", "name:en": "Massawa Hospital"}}, {"type": "way", "id": 435180046, "center": {"lat": 15.5910894, "lon": 32.5277344}, "nodes": [4331193339, 4331193340, 4331193331, 4331193329, 4331193339], "tags": {"amenity": "hospital", "building": "hospital", "healthcare": "hospital", "name": "\u0645\u0631\u0643\u0632 \u0637\u064a\u0628\u0647 \u0644\u0644\u0627\u0648\u0631\u0627\u0645", "name:ar": "\u0645\u0631\u0643\u0632 \u0637\u064a\u0628\u0647 \u0644\u0644\u0627\u0648\u0631\u0627\u0645"}}, {"type": "way", "id": 438997570, "center": {"lat": 15.5251108, "lon": 32.5144152}, "nodes": [7004748961, 4366273725, 4366273723, 4366273722, 7004748961], "tags": {"addr:street": "\u0634\u0627\u0631\u0639 \u062c\u0628\u0631\u0629 \u0627\u0644\u0639\u0627\u0645", "alt_name": "\u0645\u0633\u062a\u0634\u0641\u0649 \u0627\u0644\u0627\u0646\u062c\u0627\u0632 - \u062c\u0628\u0631\u0629", "amenity": "hospital", "description": "\u0627\u0644\u062e\u0631\u0637\u0648\u0645 \u062c\u0628\u0631\u0647 \u0645\u0631\u0628\u0639 15 \u0644\u0641\u0629 \u062c\u0628\u0631\u0647 \u062c\u0646\u0648\u0628", "healthcare": "hospital", "name": "\u0645\u0633\u062a\u0634\u0641\u0649 \u0627\u0644\u0627\u0646\u062c\u0627\u0632 \u0627\u0644\u0627\u0644\u0645\u0627\u0646\u064a \u0627\u0644\u0633\u0648\u062f\u0627\u0646\u064a \u0627\u0644\u062a\u062e\u0635\u0635\u064a", "name:ar": "\u0645\u0633\u062a\u0634\u0641\u0649 \u0627\u0644\u0627\u0646\u062c\u0627\u0632 \u0627\u0644\u0627\u0644\u0645\u0627\u0646\u064a \u0627\u0644\u0633\u0648\u062f\u0627\u0646\u064a \u0627\u0644\u062a\u062e\u0635\u0635\u064a", "name:en": "Injaaz German-Sudanese Specialized Hospital"}}, {"type": "way", "id": 439275650, "center": {"lat": 11.8112251, "lon": 38.5840511}, "nodes": [4369151461, 4369151462, 4369151463, 4369151464, 4369151465, 4369151466, 4369151467, 4369151468, 4369151469, 4369151470, 4369151461], "tags": {"amenity": "hospital", "name": "Debre Zebit Health Clinic"}}, {"type": "way", "id": 443152613, "center": {"lat": 13.7545262, "lon": 39.7019466}, "nodes": [4407825891, 4407825892, 4407825893, 9083673449, 4407825894, 9081582899, 4407825895, 4407825891], "tags": {"amenity": "hospital", "barrier": "fence", "name": "Haike Meshal Health Center"}}, {"type": "way", "id": 443156676, "center": {"lat": 13.7354501, "lon": 39.0002626}, "nodes": [4407855390, 8543919024, 8543919025, 8543919026, 8543919027, 4407855391, 4407855392, 8543874193, 4407855393, 4407855390], "tags": {"amenity": "hospital", "name": "Werkamba Health Center"}}, {"type": "way", "id": 443184116, "center": {"lat": 13.7515029, "lon": 39.7092874}, "nodes": [4408076128, 4408076129, 4408076130, 4408076131, 4408076128], "tags": {"amenity": "hospital", "building": "hospital", "name": "Haike Meshal Health Post"}}, {"type": "way", "id": 447845553, "center": {"lat": 15.3355865, "lon": 38.9343889}, "nodes": [4449106514, 4449106515, 4449106516, 4449106517, 4449106514], "tags": {"addr:city": "Asmara", "addr:street": "175-4 Street", "amenity": "hospital", "name": "\u0645\u062c\u0645\u0639 \u0627\u0644\u0633\u0644\u0627\u0645 \u0627\u0644\u0637\u0628\u064a Salam Polyclinic", "name:ar": "\u0645\u062c\u0645\u0639 \u0627\u0644\u0633\u0644\u0627\u0645 \u0627\u0644\u0637\u0628\u064a", "name:en": "Salam Polyclinic"}}, {"type": "way", "id": 448308893, "center": {"lat": 13.1603043, "lon": 32.6695441}, "nodes": [4453309227, 4453309228, 4453309229, 5172989026, 5172989025, 4453309230, 5172989024, 5172989023, 4453309226, 4453309225, 4453309224, 4453309223, 4453309222, 4453309221, 4453309220, 4453309235, 4453309219, 4453309227], "tags": {"amenity": "hospital", "name": "Kosti Teaching Hospital Compound"}}, {"type": "way", "id": 458690155, "center": {"lat": 14.361233, "lon": 33.1561277}, "nodes": [4546514422, 4546514423, 4547688447, 4546514425, 4546514426, 4546514427, 4546514422], "tags": {"addr:street": "\u0645\u0639\u0631\u0648\u0641 \u0627\u0644\u0635\u062f\u064a\u0642", "amenity": "hospital", "name": "yasir"}}, {"type": "way", "id": 459885532, "center": {"lat": 15.5541299, "lon": 37.8898993}, "nodes": [4556103098, 4556103099, 4556103100, 4556103101, 4556103098], "tags": {"addr:city": "\u0623\u063a\u0648\u0631\u062f\u0627\u062a", "amenity": "hospital", "name": "\u0100k'ordat Hospital \u0645\u0633\u062a\u0634\u0641\u0649 \u0623\u063a\u0648\u0631\u062f\u0627\u062a", "name:ar": "\u0645\u0633\u062a\u0634\u0641\u0649 \u0623\u063a\u0648\u0631\u062f\u0627\u062a", "name:en": "\u0100k'ordat Hospital"}}, {"type": "way", "id": 470201219, "center": {"lat": 14.3960749, "lon": 33.5264497}, "nodes": [4644141126, 4644141127, 4644141128, 4644141129, 4644141130, 4644141126], "tags": {"amenity": "hospital", "healthcare": "hospital", "name": "\u0645\u0633\u062a\u0634\u0641\u064a \u0648\u062f \u0645\u062f\u0646\u064a", "name:ar": "\u0645\u0633\u062a\u0634\u0641\u064a \u0648\u062f \u0645\u062f\u0646\u064a"}}, {"type": "way", "id": 473310585, "center": {"lat": 15.58649, "lon": 32.5350117}, "nodes": [4674460070, 4674460060, 4674460057, 4674460067, 4674460070], "tags": {"amenity": "hospital", "healthcare": "hospital", "name": "\u062c\u0627\u0628\u0631 \u0627\u0628\u0648 \u0627\u0644\u0639\u0632", "name:ar": "\u0645\u0633\u062a\u0634\u0641\u0649 \u062c\u0627\u0628\u0631 \u0627\u0628\u0648 \u0627\u0644\u0639\u0632 \u0644\u0645\u0631\u0636\u064a \u0627\u0644\u0633\u0643\u0631\u064a"}}, {"type": "way", "id": 473338325, "center": {"lat": 15.585291, "lon": 32.5465578}, "nodes": [4674701050, 4674701051, 4674701034, 4674701031, 4674701050], "tags": {"addr:city": "\u0627\u0644\u062e\u0631\u0637\u0648\u0645", "addr:street": "\u0634\u0627\u0631\u0639 1", "amenity": "hospital", "healthcare": "hospital", "name": "\u0645\u0633\u062a\u0634\u0641\u0649 \u0627\u0641\u0631\u064a\u0642\u064a\u0627 \u0627\u0644\u062a\u062e\u0635\u0635\u064a \u0644\u0644\u0627\u0646\u0641 \u0648\u0627\u0644\u0627\u0630\u0646 \u0648\u0627\u0644\u062d\u0646\u062c\u0631\u0629", "name:ar": "\u0645\u0633\u062a\u0634\u0641\u0649 \u0627\u0641\u0631\u064a\u0642\u064a\u0627 \u0627\u0644\u062a\u062e\u0635\u0635\u064a", "name:en": "Africa Specialized Hospital"}}, {"type": "way", "id": 473338366, "center": {"lat": 15.5841009, "lon": 32.5459733}, "nodes": [4674700964, 4674700968, 4674700942, 4674700938, 4674700964], "tags": {"amenity": "hospital", "healthcare": "hospital", "name": "\u0645\u0633\u062a\u0634\u0641\u0649 \u062d\u0631\u0627\u0621 \u0627\u0644\u0637\u0628\u064a", "name:ar": "\u0645\u0633\u062a\u0634\u0641\u0649 \u062d\u0631\u0627\u0621 \u0627\u0644\u0637\u0628\u064a"}}, {"type": "way", "id": 482273868, "center": {"lat": 15.5921856, "lon": 32.5367865}, "nodes": [4751159844, 4751159856, 4751159848, 4751159846, 4751159844], "tags": {"amenity": "hospital", "healthcare": "hospital", "name": "\u0645\u0631\u0643\u0632 \u0627\u0633\u0628\u0627\u064a\u0646 \u0643\u064a\u0631 \u0644\u062a\u0642\u0648\u064a\u0645 \u0627\u0644\u0639\u0645\u0648\u062f \u0627\u0644\u0641\u0642\u0631\u064a"}}, {"type": "way", "id": 482879426, "center": {"lat": 15.591838, "lon": 32.5417974}, "nodes": [4756587560, 4756587555, 4756587557, 4756587554, 4756587556, 4756587558, 4756587559, 4756587560], "tags": {"amenity": "hospital", "healthcare": "hospital", "name": "\u0645\u0633\u062a\u0634\u0641\u0649 \u0627\u0644\u0627\u0645\u0644 \u0627\u0644\u0648\u0637\u0646\u064a \u0627\u0644\u062e\u0631\u0637\u0648\u0645 2"}}, {"type": "way", "id": 482899334, "center": {"lat": 15.5945338, "lon": 32.5398761}, "nodes": [6054136189, 4756757902, 4756757903, 4756757904, 6054136189], "tags": {"amenity": "hospital", "healthcare": "hospital", "name": "\u0627\u0644\u0645\u0631\u0643\u0632 \u0627\u0644\u0637\u0628\u064a \u0627\u0644\u062d\u062f\u064a\u062b", "name:ar": "\u0627\u0644\u0645\u0631\u0643\u0632 \u0627\u0644\u0637\u0628\u064a \u0627\u0644\u062d\u062f\u064a\u062b", "name:en": "Modern Medical Centre"}}, {"type": "way", "id": 485718891, "center": {"lat": 15.5721687, "lon": 32.5509445}, "nodes": [4784938166, 4784938165, 4784938142, 4784938174, 4784938176, 4784938166], "tags": {"addr:street": "\u0634\u0627\u0631\u0639 \u0623\u0641\u0631\u064a\u0642\u064a\u0627", "amenity": "hospital", "building": "yes", "healthcare": "hospital", "name": "\u0645\u0633\u062a\u0634\u0641\u06cc \u0627\u0644\u0623\u0637\u0628\u0627\u0621"}}, {"type": "way", "id": 485719266, "center": {"lat": 15.5775596, "lon": 32.5492349}, "nodes": [4784939298, 4784939303, 4784939307, 4784939296, 4784939298], "tags": {"amenity": "hospital", "healthcare": "hospital", "name": "\u0645\u0633\u062a\u0634\u0641\u0649 \u0634\u0648\u0627\u0645\u062e"}}, {"type": "way", "id": 485719277, "center": {"lat": 15.5769909, "lon": 32.549746}, "nodes": [6590269585, 4784939309, 4784939313, 7358071486, 6590269585], "tags": {"addr:city": "\u0627\u0644\u062e\u0631\u0637\u0648\u0645", "addr:street": "\u0634\u0627\u0631\u0639 25", "amenity": "hospital", "building:levels": "3", "healthcare": "hospital", "healthcare:speciality": "ophthalmology", "name": "\u0645\u0631\u0643\u0632 \u0627\u0644\u0632\u0631\u0642\u0627\u0621 \u0627\u0644\u062a\u062e\u0635\u0635\u064a \u0644\u0637\u0628 \u0648\u062c\u0631\u0627\u062d\u0629 \u0627\u0644\u0639\u064a\u0648\u0646"}}, {"type": "way", "id": 485793444, "center": {"lat": 15.5666463, "lon": 32.549977}, "nodes": [4785593275, 4785593281, 4785593227, 4785593222, 4785593275], "tags": {"amenity": "hospital", "healthcare": "hospital", "name": "\u0645\u0633\u062a\u0634\u0641\u0649 \u0627\u0644\u0642\u0645\u0629 \u0627\u0644\u062a\u062e\u0635\u0635\u064a", "name:ar": "\u0645\u0633\u062a\u0634\u0641\u0649 \u0627\u0644\u0642\u0645\u0629 \u0627\u0644\u062a\u062e\u0635\u0635\u064a", "name:en": "Al Gima Specialized Hospital"}}, {"type": "way", "id": 485793795, "center": {"lat": 15.5650055, "lon": 32.5496596}, "nodes": [4785592960, 4785592964, 4785592922, 4785592918, 4785592960], "tags": {"amenity": "hospital", "healthcare": "hospital", "name": "\u0645\u0633\u062a\u0634\u0641\u0649 \u0627\u0644\u0637\u0628\u064a\u0628 \u0627\u0644\u0645\u0631\u0643\u0632\u064a"}}, {"type": "way", "id": 501107262, "center": {"lat": 14.6989483, "lon": 39.4223513}, "nodes": [4920024497, 4920024498, 4920024499, 4920024500, 4920024497], "tags": {"addr:city": "\u0635\u0646\u0639\u0641\u064a", "addr:city:ar": "\u0635\u0646\u0639\u0641\u064a", "amenity": "hospital", "healthcare": "hospital", "name": "\u0645\u0633\u062a\u0634\u0641\u0649 \u0635\u0646\u0639\u0641\u064a", "name:ar": "\u0645\u0633\u062a\u0634\u0641\u0649 \u0635\u0646\u0639\u0641\u064a", "name:fr": "H\u00f4pital de Senaf\u00e9"}}, {"type": "way", "id": 519038283, "center": {"lat": 14.11423, "lon": 38.3039297}, "nodes": [5061860696, 5061860697, 5061860698, 5061860699, 5061860696], "tags": {"amenity": "hospital", "name": "Suhul Referral Hospital"}}, {"type": "way", "id": 524496588, "center": {"lat": 15.5996484, "lon": 32.5708614}, "nodes": [1889432024, 1535800684, 1535800688, 5104041478, 1535800693, 1535800690, 1889432024], "tags": {"addr:city": "Khartoum", "addr:street": "\u0634\u0627\u0631\u0639 \u0645\u062d\u0645\u062f \u0635\u0644\u0627\u062d \u0627\u0644\u062f\u064a\u0646", "amenity": "hospital", "emergency": "yes", "healthcare": "hospital", "healthcare:speciality": "general", "name": "\u0645\u0633\u062a\u0634\u0641\u0649 \u0631\u0648\u064a\u0627\u0644 \u0643\u064a\u0631", "name:ar": "\u0645\u0633\u062a\u0634\u0641\u0649 \u0631\u0648\u064a\u0627\u0644 \u0643\u064a\u0631", "name:en": "Royal Care Hospital"}}, {"type": "way", "id": 563080098, "center": {"lat": 15.4542086, "lon": 39.0946421}, "nodes": [5427061145, 5427614128, 5427060974, 5427061165, 5427060942, 5427061016, 5426810620, 5426810606, 5426812022, 5427061184, 5427061149, 5426812031, 5427061133, 5427061145], "tags": {"addr:city": "\u062c\u0646\u062f\u0639", "addr:city:ar": "\u062c\u0646\u062f\u0639", "alt_name:ar": "\u0645\u0633\u062a\u0634\u0641\u0649 \u062c\u0646\u062f\u0639", "alt_name:en": "Ghinda Hospital", "amenity": "hospital", "healthcare": "hospital", "name": "Zonal Referral Hospital Ghinda \u0645\u0633\u062a\u0634\u0641\u0649 \u0627\u0644\u0625\u062d\u0627\u0644\u0629 \u0645\u0646\u0637\u0642\u064a \u062c\u0646\u062f\u0639", "name:ar": "\u0645\u0633\u062a\u0634\u0641\u0649 \u0627\u0644\u0625\u062d\u0627\u0644\u0629 \u0645\u0646\u0637\u0642\u064a \u062c\u0646\u062f\u0639", "name:en": "Zonal Referral Hospital Ghinda"}}, {"type": "way", "id": 585949959, "center": {"lat": 11.5942341, "lon": 39.2111029}, "nodes": [5599080203, 5599080205, 5599080206, 5599080207, 5599080203], "tags": {"amenity": "hospital", "healthcare": "hospital", "name": "Clinic"}}, {"type": "way", "id": 586341541, "center": {"lat": 10.5084612, "lon": 37.9885425}, "nodes": [5602287391, 5602287392, 5602287393, 5602287394, 5602287391], "tags": {"amenity": "hospital", "healthcare": "hospital", "name": "Kuyi Hospital"}}, {"type": "way", "id": 601786135, "center": {"lat": 15.5942912, "lon": 32.5608701}, "nodes": [5718344203, 5718344218, 4210564048, 5718344202, 5718344203], "tags": {"amenity": "hospital", "healthcare": "hospital", "name": "\u0645\u0633\u062a\u0634\u0641\u0649 \u0627\u0644\u0634\u0627\u0645\u064a \u0644\u0637\u0628 \u0627\u0644\u0639\u064a\u0648\u0646"}}, {"type": "way", "id": 602204307, "center": {"lat": 15.5980282, "lon": 32.5716237}, "nodes": [5720884312, 11072359098, 11072359097, 5720884310, 5720884309, 11072359096, 11072359088, 11072359089, 11072359090, 11072359091, 11072359092, 11072359095, 11072359094, 11072359093, 11072359087, 11072359086, 11072359085, 11072359084, 11072359083, 5720884311, 5720884312], "tags": {"amenity": "hospital", "healthcare": "hospital", "name": "\u0645\u0633\u062a\u0634\u0641\u0649 \u0627\u0644\u0623\u0645\u0644 \u0627\u0644\u062a\u062e\u0635\u0635\u064a"}}, {"type": "way", "id": 614753021, "center": {"lat": 15.3081917, "lon": 32.8645051}, "nodes": [5814502918, 5814502919, 5814502920, 5814502921, 5814502918], "tags": {"amenity": "hospital", "emergency": "yes", "healthcare": "hospital"}}, {"type": "way", "id": 632728619, "center": {"lat": 14.8481462, "lon": 39.3740686}, "nodes": [5973891778, 5973891777, 5973891776, 5973891775, 5973891778], "tags": {"amenity": "hospital", "name": "\u1206\u1235\u1352\u1273\u120d \u12d3\u12f2 \u1250\u12ed\u1215", "name:en": "Adi-keih Hospital"}}, {"type": "way", "id": 633762595, "center": {"lat": 14.8513517, "lon": 39.3733913}, "nodes": [5982188943, 5982188937, 5982188942, 5982188941, 5982188940, 5982188939, 6001733419, 6001733421, 6001733420, 6001733438, 6001733441, 6001733406, 5982188938, 6001733409, 6001733412, 5982188935, 5982188943], "tags": {"amenity": "hospital"}}, {"type": "way", "id": 644370468, "center": {"lat": 13.4736626, "lon": 39.5370148}, "nodes": [4820156425, 6060448747, 6060448748, 6060448749, 6060448750, 6060448751, 6060448752, 6060448753, 6060448754, 6060448755, 6060448756, 6060448757, 6060448758, 6060448759, 6060448760, 4820156425], "tags": {"addr:street": "Quiha - Mekelle Street", "amenity": "hospital", "building": "hospital", "healthcare": "hospital", "name:en": "Quiha Zonal Hospital and Opthalmology"}}, {"type": "way", "id": 724615973, "center": {"lat": 15.6306678, "lon": 32.5597274}, "nodes": [6795889420, 6795889421, 6795889422, 6795889423, 6795889424, 6795889425, 11137075479, 11136785669, 11136785668, 6795889420], "tags": {"amenity": "hospital", "emergency": "no", "healthcare": "hospital", "healthcare:speciality": "psychiatry", "name": "\u0645\u0633\u062a\u0634\u0641\u0649 \u0639\u0628\u062f \u0627\u0644\u0639\u0627\u0644 \u0627\u0644\u0625\u062f\u0631\u064a\u0633\u064a", "name:en": "Al Edrisi Hospital", "operator": "Police", "operator:type": "government"}}, {"type": "way", "id": 732129349, "center": {"lat": 12.1630156, "lon": 39.6501477}, "nodes": [6855486953, 6855486951, 6855486950, 6855486947, 6855486953], "tags": {"amenity": "hospital", "name": "\u1246\u1266 \u1206\u1235\u1352\u1273\u120d", "name:en": "Kobo Hospital"}}, {"type": "way", "id": 732360313, "center": {"lat": 14.4013957, "lon": 33.5055688}, "nodes": [6857913039, 6857913040, 6857913041, 6857913042, 6857913039], "tags": {"amenity": "hospital", "healthcare": "hospital", "name": "\u0645\u0631\u0643\u0632 \u062b\u0631\u064a\u0627 \u0644\u063a\u0633\u064a\u0644  \u0627\u0644\u0643\u0644\u0649"}}, {"type": "way", "id": 736736896, "center": {"lat": 15.6878851, "lon": 32.4914421}, "nodes": [6897753533, 6897753534, 6897753535, 6897753536, 6897753533], "tags": {"amenity": "hospital", "healthcare": "hospital", "name": "\u0645\u0633\u062a\u0634\u0641\u0649 \u0627\u0644\u0646\u0648", "name:en": "El-Nau Hospital"}}, {"type": "way", "id": 737337194, "center": {"lat": 15.4535007, "lon": 32.5052452}, "nodes": [6903193393, 6903193394, 6903193395, 6903193396, 6903193393], "tags": {"amenity": "hospital", "healthcare": "hospital", "name": "\u0645\u0633\u062a\u0634\u0641\u0649 \u0627\u0644\u0634\u0641\u0627\u0621 \u0627\u0644\u062a\u062e\u0635\u0635\u064a"}}, {"type": "way", "id": 740919826, "center": {"lat": 15.6474603, "lon": 32.4186794}, "nodes": [6936744215, 6936744216, 6936744217, 6936744218, 6936744215], "tags": {"amenity": "hospital", "healthcare": "hospital", "name": "\u0645\u0633\u062a\u0634\u0641\u0649 \u0644\u064a\u0628\u064a\u0627"}}, {"type": "way", "id": 742171179, "center": {"lat": 14.4204891, "lon": 33.4861078}, "nodes": [6948228879, 6948228880, 6948228881, 6948228882, 6948228883, 6948228884, 6948272985, 6948228879], "tags": {"amenity": "hospital", "healthcare": "hospital", "name": "\u0645\u0633\u062a\u0634\u0641\u064a \u0627\u0644\u062a\u0627\u0647\u064a\u0644\u064a \u0645\u062f\u0646\u064a"}}, {"type": "way", "id": 743760956, "center": {"lat": 13.822422, "lon": 33.5386789}, "nodes": [6960998579, 6960998580, 6960998581, 6960998582, 6960998579], "tags": {"amenity": "hospital", "healthcare": "hospital", "name": "\u0645\u0633\u062a\u0634\u0641\u064a \u0648\u062f \u0627\u0644\u062d\u062f\u0627\u062f \u0627\u0644\u062a\u062e\u0635\u0635\u064a"}}, {"type": "way", "id": 748898622, "center": {"lat": 15.2118219, "lon": 33.0617136}, "nodes": [7003546389, 7003546390, 7003546391, 7003546392, 7003546389], "tags": {"amenity": "hospital", "healthcare": "hospital", "name": "\u0645\u0633\u062a\u0634\u0641\u064a \u0627\u0644\u062a\u0643\u064a\u0646\u0629"}}, {"type": "way", "id": 748983525, "center": {"lat": 14.0568385, "lon": 35.4774434}, "nodes": [7004175136, 7004175137, 7004175138, 7004175139, 7004175140, 7004175141, 7004175136], "tags": {"amenity": "hospital", "healthcare": "hospital", "healthcare:speciality": "general", "name": "\u0645\u0631\u0643\u0632 \u0635\u062d\u064a \u0627\u0644\u0634\u0645\u064a\u0644\u064a\u0627\u0628", "name:ar": "\u0645\u0631\u0643\u0632 \u0635\u062d\u064a \u0627\u0644\u0634\u0645\u064a\u0644\u064a\u0627\u0628", "name:en": "Health care Center", "operator": "\u0627\u0644\u0635\u0646\u062f\u0648\u0642 \u0627\u0644\u0642\u0648\u0645\u064a \u0644\u0644\u062a\u0627\u0645\u064a\u0646 \u0627\u0644\u0635\u062d\u064a", "operator:type": "public"}}, {"type": "way", "id": 753399920, "center": {"lat": 15.6636315, "lon": 32.41964}, "nodes": [7039337964, 7039337965, 7039337966, 7039337967, 7039337964], "tags": {"amenity": "hospital", "healthcare": "hospital", "name": "\u0645\u0633\u062a\u0634\u0641\u0649 \u0642\u0637\u0631 \u0627\u0644\u0646\u062f\u064a"}}, {"type": "way", "id": 753550636, "center": {"lat": 15.7491453, "lon": 32.5241994}, "nodes": [7040696084, 7040704985, 7040704986, 7040704987, 7040696084], "tags": {"amenity": "hospital", "healthcare": "hospital", "name": "\u0645\u0631\u0643\u0632 \u0635\u062d\u064a \u0643\u0631\u0631\u064a \u0627\u0644\u0639\u062c\u064a\u062c\u0629"}}, {"type": "way", "id": 753550637, "center": {"lat": 15.737034, "lon": 32.4780757}, "nodes": [7040704990, 7040704991, 7040704992, 7040704993, 7040704990], "tags": {"amenity": "hospital", "healthcare": "hospital", "name": "\u0639\u064a\u0627\u062f\u0629 \u0627\u0644\u062d\u0627\u0631\u0629 48"}}, {"type": "way", "id": 770816741, "center": {"lat": 15.6009264, "lon": 32.530094}, "nodes": [8835834456, 7038742267, 7194871727, 7194871728, 8835834456], "tags": {"amenity": "hospital", "building": "hospital", "healthcare": "hospital", "name": "\u0645\u0633\u062a\u0634\u0641\u0649 \u0627\u0647\u0644 \u0627\u0644\u062d\u0636\u0631\u0629 \u0627\u0644\u062e\u0627\u0635"}}, {"type": "way", "id": 770816761, "center": {"lat": 15.5994588, "lon": 32.5332085}, "nodes": [7194871836, 7038742271, 7194871838, 7194871835, 7194871836], "tags": {"amenity": "hospital", "building": "hospital", "healthcare": "hospital", "name": "\u0645\u0633\u062a\u0648\u0635\u0641 \u0627\u0644\u0628\u0644\u0633\u0645"}}, {"type": "way", "id": 770816768, "center": {"lat": 15.5997952, "lon": 32.5324619}, "nodes": [7038742273, 7194871859, 7194871860, 7194871861, 7038742273], "tags": {"amenity": "hospital", "building": "hospital", "healthcare": "hospital", "name": "\u0645\u062c\u0645\u0639 \u0633\u0628\u0623 \u0627\u0644\u0637\u0628\u064a"}}, {"type": "way", "id": 770816771, "center": {"lat": 15.5990793, "lon": 32.5312379}, "nodes": [7038742272, 7194871880, 7194871881, 7194871882, 7038742272], "tags": {"amenity": "hospital", "building": "hospital", "healthcare": "hospital", "name": "\u0628\u0631\u062c \u0627\u0644\u0627\u0645\u0644"}}, {"type": "way", "id": 783795561, "center": {"lat": 15.0135761, "lon": 33.0979769}, "nodes": [7321021243, 7321021244, 7321021245, 7321021246, 7321021247, 8279837233, 7321021248, 8279825308, 7321021243], "tags": {"amenity": "hospital", "emergency": "yes", "healthcare": "hospital", "healthcare:speciality": "general;dialysis;internal;maternity", "name": "Elmielg specialist regioinal hospital"}}, {"type": "way", "id": 783949757, "center": {"lat": 14.7210671, "lon": 38.8425342}, "nodes": [7322910131, 7322910132, 7322910133, 7322910134, 7322910131], "tags": {"amenity": "hospital", "healthcare": "hospital", "name": "Mini Hospital \u0627\u0644\u0645\u0633\u062a\u0634\u0641\u0649 \u0627\u0644\u0635\u063a\u064a\u0631", "name:ar": "\u0627\u0644\u0645\u0633\u062a\u0634\u0641\u0649 \u0627\u0644\u0635\u063a\u064a\u0631", "name:en": "Mini Hospital"}}, {"type": "way", "id": 783951928, "center": {"lat": 15.3060213, "lon": 38.9230696}, "nodes": [7083377487, 7322952659, 7322952660, 7322952661, 7322952662, 7322952663, 7083377487], "tags": {"amenity": "hospital", "healthcare": "hospital", "name": "Godaif Community Hospital"}}, {"type": "way", "id": 783954069, "center": {"lat": 15.7804956, "lon": 38.4523239}, "nodes": [7322977933, 7322977934, 7322977935, 7322977936, 7322977933], "tags": {"addr:city": "\u0643\u0631\u0646", "addr:city:ar": "\u0643\u0631\u0646", "amenity": "hospital", "healthcare": "hospital", "name": "Keren Hospital \u0645\u0633\u062a\u0634\u0641\u0649 \u0643\u0631\u0646", "name:ar": "\u0645\u0633\u062a\u0634\u0641\u0649 \u0643\u0631\u0646", "name:en": "Keren Hospital"}}, {"type": "way", "id": 783957966, "center": {"lat": 14.5526011, "lon": 38.497758}, "nodes": [7270303551, 7323023197, 7323023198, 7389588183, 7323023199, 7270303551], "tags": {"amenity": "hospital", "healthcare": "hospital"}}, {"type": "way", "id": 786450006, "center": {"lat": 11.7458717, "lon": 32.8156026}, "nodes": [7353501286, 7353501287, 7353501288, 7353501290, 7353501291, 7353501286], "tags": {"amenity": "hospital", "healthcare": "hospital", "name": "Renk Military Hospital", "operator": "SPLA"}}, {"type": "way", "id": 786478395, "center": {"lat": 15.5771035, "lon": 32.5664632}, "nodes": [7353818641, 7353818642, 7353818643, 7353818644, 7353818645, 7353818641], "tags": {"amenity": "hospital", "healthcare": "hospital", "name": "\u0645\u0633\u062a\u0634\u0641\u0649 \u0645\u0643\u0629 \u0644\u0637\u0628 \u0627\u0644\u0639\u064a\u0648\u0646", "name:en": "Makkah Eye Complex"}}, {"type": "way", "id": 786478803, "center": {"lat": 15.4797555, "lon": 32.4827167}, "nodes": [2142316388, 7353823285, 7353823286, 7353823287, 2142316388], "tags": {"addr:country": "SD", "addr:state": "\u0627\u0644\u062e\u0631\u0637\u0648\u0645", "addr:street": "\u0634\u0627\u0631\u0639 \u0646\u0648\u0628\u0627\u062a\u064a\u0627", "amenity": "hospital", "healthcare": "hospital", "name": "\u0639\u064a\u0627\u062f\u0627\u062a \u0646\u0648\u0628\u0627\u062a\u064a\u0627;\u0645\u062c\u0645\u0639 \u0637\u0628\u064a \u0646\u0648\u0628\u0627\u062a\u064a\u0627"}}, {"type": "way", "id": 786479235, "center": {"lat": 17.6812779, "lon": 33.9765381}, "nodes": [7353821008, 7353821009, 7353821010, 7353821011, 7353821012, 7353821013, 7353821014, 7353821015, 7353821008], "tags": {"amenity": "hospital", "healthcare": "hospital"}}, {"type": "way", "id": 786480109, "center": {"lat": 13.5478237, "lon": 33.6141707}, "nodes": [7353831615, 7353831616, 7353831617, 7353831618, 7353831615], "tags": {"amenity": "hospital", "emergency": "yes", "healthcare": "hospital", "name": "\u0645\u0633\u062a\u0634\u0641\u0649 \u0633\u0646\u0627\u0631", "name:ar": "\u0645\u0633\u062a\u0634\u0641\u0649 \u0633\u0646\u0627\u0631", "name:en": "Sennar Hospital"}}, {"type": "way", "id": 786480679, "center": {"lat": 15.6960865, "lon": 32.4804714}, "nodes": [7353788668, 7353788669, 7353788670, 7353788671, 7353788672, 7353788673, 7353788668], "tags": {"addr:city": "\u0627\u0644\u062b\u0648\u0631\u0629 \u062d \u0669", "amenity": "hospital", "healthcare": "hospital", "name": "\u0645\u0633\u062a\u0634\u0641\u0649 \u0639\u0628\u0648\u062f\u0629", "name:en": "Abouda Hospital"}}, {"type": "way", "id": 786481176, "center": {"lat": 15.6539616, "lon": 32.6239687}, "nodes": [7353822838, 7353822839, 7353822840, 7353822841, 7353822842, 7353822843, 7353822844, 7353822845, 7353822846, 7353822847, 7353822848, 7353822838], "tags": {"amenity": "hospital", "emergency": "yes", "healthcare": "hospital", "name": "AlShahyda Nada", "name:ar": "\u0645\u0631\u0643\u0632 \u0635\u062d\u064a \u0627\u0644\u0634\u0647\u064a\u062f\u0647 \u0646\u062f\u0649", "operator": "Ministry of Health"}}, {"type": "way", "id": 786481961, "center": {"lat": 15.5829908, "lon": 32.5285925}, "nodes": [7353838334, 7353838335, 7353838336, 7353838337, 7353838338, 7353838339, 7353838340, 7353838341, 7353838342, 7353838334], "tags": {"amenity": "hospital", "healthcare": "hospital", "name": "\u0645\u0631\u0643\u0632 \u0627\u0644\u0645\u0639\u0644\u0645 \u0627\u0644\u0635\u062d\u064a"}}, {"type": "way", "id": 786492279, "center": {"lat": 15.5497267, "lon": 32.539199}, "nodes": [7353987847, 7353987848, 7353987849, 7353987850, 7353987851, 7353987852, 7353987847], "tags": {"addr:street": "\u0634\u0627\u0631\u0639 \u0627\u0644\u0635\u062d\u0627\u0641\u0629", "amenity": "hospital", "healthcare": "hospital", "name": "\u0645\u0631\u0643\u0632 \u0635\u062d\u064a \u0633\u0645\u064a\u0631"}}, {"type": "way", "id": 786492638, "center": {"lat": 15.5632269, "lon": 32.5369233}, "nodes": [7353972679, 7353972680, 7353972681, 7353972682, 7353972679], "tags": {"amenity": "hospital", "healthcare": "hospital"}}, {"type": "way", "id": 786493255, "center": {"lat": 15.4225536, "lon": 32.836574}, "nodes": [7353990838, 7353990839, 7353990840, 7353990841, 7353990838], "tags": {"amenity": "hospital", "healthcare": "hospital", "name": "Um Dawan Ban Hospital", "name:en": "Um Dawan Ban Hospital"}}, {"type": "way", "id": 786504606, "center": {"lat": 15.560261, "lon": 32.5521332}, "nodes": [7354096843, 7354096844, 7354096845, 7354096846, 7354096847, 7354096843], "tags": {"amenity": "hospital", "email": "info@kbcc-sd.org", "healthcare": "hospital", "name": "Khartoum Breast Care center", "name:ar": "\u0645\u0631\u0643\u0632 \u0627\u0644\u062e\u0631\u0637\u0648\u0645 \u0644\u0644\u0639\u0646\u0627\u064a\u0629 \u0628\u0627\u0644\u062b\u062f\u064a", "name:en": "Khartoum Breast Care center", "phone": "+249183730226", "website": "http://www.khartoumbreastcarecentre.org"}}, {"type": "way", "id": 786506080, "center": {"lat": 14.7299583, "lon": 33.4766909}, "nodes": [7354098106, 7354098107, 7354098108, 7354098109, 7354098106], "tags": {"amenity": "hospital", "healthcare": "hospital"}}, {"type": "way", "id": 786506597, "center": {"lat": 15.5826453, "lon": 32.5693476}, "nodes": [7354122087, 11116532939, 11116532950, 11116532949, 11116532940, 7354122088, 7354122089, 11116532943, 11116532942, 11116532941, 11116532944, 11116532947, 11116532946, 11116532945, 11116532948, 7354122090, 7354122087], "tags": {"amenity": "hospital", "building": "yes", "healthcare": "hospital", "name": "\u0645\u0633\u062a\u0634\u0641\u0649 \u0645\u0647\u064a\u0631\u0629", "name:ar": "\u0645\u0633\u062a\u0634\u0641\u0649 \u0645\u0647\u064a\u0631\u0629", "name:en": "Mehaira Hospital", "opening_hours": "24/7", "phone": "011 211 1116"}}, {"type": "way", "id": 786508556, "center": {"lat": 15.6415166, "lon": 32.4886343}, "nodes": [7354131181, 7354131182, 7354131183, 7354131184, 7354131181], "tags": {"amenity": "hospital", "healthcare": "hospital", "name": "\u0645\u0633\u062a\u0634\u0641\u0649 \u0627\u0645\u062f\u0631\u0645\u0627\u0646 \u0644\u0644\u0627\u0637\u0641\u0627\u0644", "name:ar": "\u0645\u0633\u062a\u0634\u0641\u0649 \u0627\u0645\u062f\u0631\u0645\u0627\u0646 \u0644\u0644\u0627\u0637\u0641\u0627\u0644", "name:en": "omdurman children's hospital"}}, {"type": "way", "id": 786508929, "center": {"lat": 15.8564289, "lon": 32.5146838}, "nodes": [7354085256, 7354085257, 7354085258, 7354085259, 7354085256], "tags": {"amenity": "hospital", "healthcare": "hospital", "name": "\u0645\u0631\u0643\u0632 \u0635\u062d\u064a \u0627\u0645 \u0628\u0627\u062f\u0648\u0628\u0627"}}, {"type": "way", "id": 786509309, "center": {"lat": 15.6018691, "lon": 32.5300041}, "nodes": [7354128623, 7354128624, 7354128625, 7354128626, 7354128627, 7354128628, 7354128623], "tags": {"addr:street": "21st October Street", "amenity": "hospital", "building": "hospital", "healthcare": "hospital", "name": "\u0645\u0631\u0643\u0632 \u0627\u0644\u0646\u064a\u0644\u064a\u0646 \u0644\u0644\u062a\u0634\u062e\u064a\u0635 \u0627\u0644\u0637\u0628\u064a"}}, {"type": "way", "id": 786511332, "center": {"lat": 19.6362182, "lon": 37.2213474}, "nodes": [7354170208, 7354170209, 7354170210, 7354170211, 7354170212, 7354170213, 7354170214, 7354170215, 7354170216, 7354170217, 7354170218, 7354170219, 7354170220, 7354170221, 7354170208], "tags": {"amenity": "hospital", "healthcare": "hospital", "name": "Muwani Hospital", "name:ar": "\u0645\u0633\u062a\u0634\u0641\u0649 \u0627\u0644\u0645\u0648\u0627\u0646\u064a", "name:tr": "Liman Hastanesi"}}, {"type": "way", "id": 786512781, "center": {"lat": 15.7233571, "lon": 32.4853064}, "nodes": [7354181352, 7354181353, 7354181354, 7354181355, 7354181356, 7354181357, 7354181352], "tags": {"addr:street": "\u0634\u0627\u0631\u0639 \u0627\u0644\u0646\u0635", "amenity": "hospital", "healthcare": "hospital", "name": "\u0645\u0633\u062a\u0634\u0641\u0649 \u0637\u064a\u0628\u0629", "name:ar": "\u0645\u0633\u062a\u0634\u0641\u0649 \u0637\u064a\u0628\u0629", "name:en": "Tayba Hospital"}}, {"type": "way", "id": 786513802, "center": {"lat": 13.1613903, "lon": 32.6702838}, "nodes": [7354185656, 7354185657, 7354185658, 7354185659, 7354185660, 7354185661, 7354185656], "tags": {"amenity": "hospital", "healthcare": "hospital", "name": "Alyamama Hospital"}}, {"type": "way", "id": 786533172, "center": {"lat": 13.1605208, "lon": 32.6709566}, "nodes": [7354371351, 7354371352, 7354371353, 7354371354, 7354371351], "tags": {"amenity": "hospital", "healthcare": "hospital", "name": "Bahar-Abyad Hospital"}}, {"type": "way", "id": 786534423, "center": {"lat": 13.1384053, "lon": 32.6819993}, "nodes": [7354397836, 7354397837, 7354397838, 7354397839, 7354397840, 7354397841, 7354397842, 7354397843, 7354397844, 7354397845, 7354397846, 7354397847, 7354397848, 7354397836], "tags": {"amenity": "hospital", "healthcare": "hospital", "name": "Military hospital"}}, {"type": "way", "id": 786539309, "center": {"lat": 15.5474498, "lon": 32.5587506}, "nodes": [7354426062, 7354426063, 7354426064, 7354426065, 7354426062], "tags": {"amenity": "hospital", "healthcare": "hospital", "name": "\u0645\u0633\u062a\u0634\u0641\u0649 \u0646\u0648\u0631 \u0627\u0644\u0639\u064a\u0648\u0646"}}, {"type": "way", "id": 786540617, "center": {"lat": 15.5771736, "lon": 32.5591353}, "nodes": [7354457682, 7354458285, 7354457684, 11052068784, 8182070224, 8182070225, 7354457682], "tags": {"addr:postcode": "11111", "addr:street": "Mecca Street", "amenity": "hospital", "building": "yes", "healthcare": "hospital", "name": "\u0645\u0633\u062a\u0634\u0641\u0649 \u062f\u0627\u0631 \u0627\u0644\u0639\u0644\u0627\u062c"}}, {"type": "way", "id": 786542219, "center": {"lat": 15.5754689, "lon": 32.5342663}, "nodes": [7354445455, 7354445456, 7354445457, 7354445458, 7354445459, 7354445455], "tags": {"addr:street": "\u0634\u0627\u0631\u0639 \u0627\u0644\u0635\u062d\u0627\u0641\u0629", "amenity": "hospital", "healthcare": "hospital", "name": "\u0645\u0633\u062a\u0634\u0641\u0649 \u0627\u0644\u0627\u0646\u062c\u0627\u0632", "name:en": "El Injaz Hospital"}}, {"type": "way", "id": 786552825, "center": {"lat": 15.575752, "lon": 32.5580071}, "nodes": [7354552664, 7354552665, 7354552666, 7354552667, 7354552668, 7354552669, 7354552670, 7354552673, 7354552664], "tags": {"addr:postcode": "11111", "addr:street": "Mecca Street", "amenity": "hospital", "healthcare": "hospital", "name": "\u0645\u0633\u062a\u0634\u0641\u0649 \u064a\u0633\u062a\u0628\u0634\u0631\u0648\u0646", "name:ar": "\u0645\u0633\u062a\u0634\u0641\u0649 \u064a\u0633\u062a\u0628\u0634\u0631\u0648\u0646"}}, {"type": "way", "id": 786553934, "center": {"lat": 15.5624332, "lon": 32.5364665}, "nodes": [7354531768, 7354531769, 7354531770, 7354531771, 7354531767, 7354531772, 7354531773, 7354531774, 7354531768], "tags": {"addr:postcode": "11111", "addr:street": "\u0634\u0627\u0631\u0639 \u0627\u0644\u0635\u062d\u0627\u0641\u0629", "amenity": "hospital", "healthcare": "hospital", "name": "Health care Hospital", "name:ar": "\u0645\u0633\u062a\u0634\u0641\u0649 \u0647\u064a\u0644\u062b \u0643\u064a\u0631", "name:en": "Health care Hospital"}}, {"type": "way", "id": 786554333, "center": {"lat": 15.6101832, "lon": 32.6186898}, "nodes": [7354588115, 7354588116, 7354588117, 7354588115], "tags": {"addr:street": "\u0634\u0627\u0631\u0639 \u0627\u0644\u062d\u0627\u062c \u064a\u0648\u0633\u0641", "amenity": "hospital", "healthcare": "hospital", "name": "\u0645\u0633\u062a\u0634\u0641\u0649 \u0628\u0634\u0627\u0626\u0631 \u0627\u0644\u062e\u0627\u0635 \u0662", "name:ar": "\u0645\u0633\u062a\u0634\u0641\u0649 \u0628\u0634\u0627\u0626\u0631 \u0627\u0644\u062e\u0627\u0635 \u0662"}}, {"type": "way", "id": 786555236, "center": {"lat": 14.0399575, "lon": 35.3873535}, "nodes": [7354594626, 7354594627, 7354594628, 7354594629, 7354594630, 7354594631, 7354594632, 7354594633, 7354594634, 7354594635, 7354594636, 7354594637, 7354594638, 7354594639, 7354594626], "tags": {"addr:street": "\u0634\u0627\u0631\u0639 \u0627\u0644\u0645\u0633\u062a\u0634\u0641\u064a", "amenity": "hospital", "healthcare": "hospital", "name": "\u0645\u0633\u062a\u0634\u0641\u0649 \u0627\u0644\u0642\u0636\u0627\u0631\u0641 \u0627\u0644\u062a\u0639\u0644\u064a\u0645\u064a", "name:ar": "\u0645\u0633\u062a\u0634\u0641\u0649 \u0627\u0644\u0642\u0636\u0627\u0631\u0641 \u0627\u0644\u062a\u0639\u0644\u064a\u0645\u064a"}}, {"type": "way", "id": 786582586, "center": {"lat": 14.0573797, "lon": 35.369984}, "nodes": [7354873554, 7354873555, 7354873556, 7354873557, 7354873554], "tags": {"addr:street": "\u0645\u062f\u062e\u0644 \u0627\u0644\u0645\u062f\u064a\u0646\u0629", "amenity": "hospital", "healthcare": "hospital", "name": "\u0645\u0633\u062a\u0634\u0641\u0649 \u0627\u0644\u062a\u0627\u0647\u064a\u0644", "name:ar": "\u0645\u0633\u062a\u0634\u0641\u0649 \u0627\u0644\u062a\u0627\u0647\u064a\u0644"}}, {"type": "way", "id": 786583263, "center": {"lat": 15.6997506, "lon": 32.4767059}, "nodes": [7354895337, 7354895338, 7354895339, 7354895340, 7354895337], "tags": {"addr:street": "\u0634\u0627\u0631\u0639 \u0627\u0644\u0634\u0646\u0642\u064a\u0637\u064a", "amenity": "hospital", "healthcare": "hospital", "name": "\u0645\u0633\u062a\u0634\u0641\u0649 \u0627\u0644\u062f\u0633\u0648\u0642\u064a \u0627\u0644\u062a\u062e\u0635\u0635\u064a", "name:ar": "\u0645\u0633\u062a\u0634\u0641\u0649 \u0627\u0644\u062f\u0633\u0648\u0642\u064a \u0627\u0644\u062a\u062e\u0635\u0635\u064a", "name:en": "Al Desoogi specialist Hospital"}}, {"type": "way", "id": 786583969, "center": {"lat": 15.643452, "lon": 32.4891261}, "nodes": [7354898344, 7354898345, 7354898346, 7354898347, 7354898348, 7354898344], "tags": {"addr:street": "\u0634\u0627\u0631\u0639 \u0627\u0644\u0645\u0644\u0627\u0632\u0645\u064a\u0646", "amenity": "hospital", "healthcare": "hospital", "name": "\u0645\u0633\u062a\u0634\u0641\u0649 \u0627\u0644\u0646\u064a\u0644 \u0627\u0644\u0627\u0632\u0631\u0642", "name:ar": "\u0645\u0633\u062a\u0634\u0641\u0649 \u0627\u0644\u0646\u064a\u0644 \u0627\u0644\u0627\u0632\u0631\u0642", "name:en": "Blue Nile Hospital"}}, {"type": "way", "id": 786899244, "center": {"lat": 15.6439619, "lon": 32.4890972}, "nodes": [7356529604, 7356529605, 7356529606, 7356529607, 7356529608, 7356529609, 7356529604], "tags": {"addr:housenumber": "798", "addr:street": "\u0634\u0627\u0631\u0639 \u0627\u0644\u0634\u0647\u062f\u0627\u0621", "amenity": "hospital", "email": "alwidadhospital@gmail.com", "healthcare": "hospital", "name": "\u0645\u0633\u062a\u0634\u0641\u0649 \u0627\u0644\u0648\u062f\u0627\u062f", "name:ar": "\u0645\u0633\u062a\u0634\u0641\u0649 \u0627\u0644\u0648\u062f\u0627\u062f", "name:en": "Al-Widad hospital", "phone": "00249187564837"}}, {"type": "way", "id": 786902062, "center": {"lat": 15.643492, "lon": 32.4694318}, "nodes": [7356562759, 7356562760, 7356562761, 7356562762, 7356562759], "tags": {"addr:street": "\u0634\u0627\u0631\u0639 \u0627\u0644\u0639\u0631\u0636\u0629", "amenity": "hospital", "healthcare": "hospital", "name": "\u0645\u0633\u062a\u0634\u0641\u0649 \u0627\u0644\u0648\u0627\u0644\u062f\u064a\u0646 \u0644\u0644\u0639\u064a\u0648\u0646", "name:ar": "\u0645\u0633\u062a\u0634\u0641\u0649 \u0627\u0644\u0648\u0627\u0644\u062f\u064a\u0646 \u0644\u0644\u0639\u064a\u0648\u0646"}}, {"type": "way", "id": 787043257, "center": {"lat": 15.5544593, "lon": 32.503502}, "nodes": [7039287478, 7357865504, 7357865505, 7357865506, 7039287478], "tags": {"addr:street": "\u0634\u0627\u0631\u0639 \u0627\u0644\u0643\u0644\u0627\u0643\u0644\u0629", "amenity": "hospital", "healthcare": "hospital", "name": "\u0645\u0633\u062a\u0634\u0641\u0649 \u0628\u0633\u062a \u0643\u064a\u0631", "name:ar": "\u0645\u0633\u062a\u0634\u0641\u0649 \u0628\u0633\u062a \u0643\u064a\u0631", "name:en": "Best Care Hospital"}}, {"type": "way", "id": 787044464, "center": {"lat": 15.6028571, "lon": 32.5363457}, "nodes": [4942680521, 7357882651, 7357882652, 7357882653, 7357882654, 7357882655, 7357882656, 7357882657, 4942680521], "tags": {"addr:street": "\u0634\u0627\u0631\u0639 \u0627\u0644\u0634\u064a\u062e \u0645\u0635\u0637\u0641\u064a \u0627\u0644\u0627\u0645\u064a\u0646", "amenity": "hospital", "building": "yes", "healthcare": "hospital", "name": "\u0645\u0633\u062a\u0634\u0641\u0649 \u0627\u0645\u0628\u0631\u064a\u0627\u0644", "name:ar": "\u0645\u0633\u062a\u0634\u0641\u0649 \u0627\u0645\u0628\u0631\u064a\u0627\u0644", "name:en": "Imperial Hospital", "phone": "+249 18 376 6773"}}, {"type": "way", "id": 787044976, "center": {"lat": 15.6004337, "lon": 32.5334146}, "nodes": [4973084923, 7357889819, 7357889820, 7357889821, 4973084923], "tags": {"addr:street": "\u0634\u0627\u0631\u0639 \u0627\u0644\u0633\u064a\u062f \u0639\u0628\u062f \u0627\u0644\u0631\u062d\u0645\u0646", "amenity": "hospital", "building": "hospital", "healthcare": "hospital", "name": "\u0645\u0633\u062a\u0634\u0641\u0649 \u0627\u0644\u0632\u064a\u062a\u0648\u0646\u0629", "name:ar": "\u0645\u0633\u062a\u0634\u0641\u0649 \u0627\u0644\u0632\u064a\u062a\u0648\u0646\u0629", "name:en": "Zaytoona hospital"}}, {"type": "way", "id": 787049161, "center": {"lat": 15.6004738, "lon": 32.5315765}, "nodes": [5003299321, 7357928622, 7357928623, 7357928624, 7357928625, 7357928626, 5003299321], "tags": {"addr:street": "\u0634\u0627\u0631\u0639 \u0627\u0644\u0633\u064a\u062f \u0639\u0628\u062f \u0627\u0644\u0631\u062d\u0645\u0646", "amenity": "hospital", "building": "hospital", "healthcare": "hospital", "name": "\u0645\u0631\u0643\u0632 \u0627\u0644\u062d\u0643\u0645\u0629 \u0627\u0644\u0637\u0628\u064a", "name:ar": "\u0645\u0631\u0643\u0632 \u0627\u0644\u062d\u0643\u0645\u0629 \u0627\u0644\u0637\u0628\u064a"}}, {"type": "way", "id": 787049607, "center": {"lat": 15.6042728, "lon": 32.5165031}, "nodes": [5208710021, 7357908575, 7357908576, 7357908577, 7357908578, 7357908579, 5208710021], "tags": {"amenity": "hospital", "healthcare": "hospital", "name": "\u0645\u0633\u062a\u0634\u0641\u0649 \u0627\u0644\u0645\u0642\u0631\u0646 \u0627\u0644\u062c\u0627\u0645\u0639\u064a"}}, {"type": "way", "id": 787049922, "center": {"lat": 15.6089627, "lon": 32.4594896}, "nodes": [5289086424, 7357936293, 7357936294, 7357936295, 5289086424], "tags": {"amenity": "hospital", "healthcare": "hospital", "name": "\u0645\u062c\u0645\u0639 \u064a\u0634\u0641\u064a\u0646 \u0627\u0644\u0637\u0628\u064a"}}, {"type": "way", "id": 787050555, "center": {"lat": 16.1404156, "lon": 36.2023091}, "nodes": [5782292617, 7357939822, 7357939823, 7357939824, 7357939825, 7357939826, 7357939827, 7357939828, 7357939829, 7357939830, 5782292617], "tags": {"amenity": "hospital", "healthcare": "hospital", "healthcare:speciality": "clinic;general", "name": "umalgura HC", "operator": "ministry of health"}}, {"type": "way", "id": 787051022, "center": {"lat": 16.1835157, "lon": 36.1018028}, "nodes": [5782304782, 7357948905, 7357948906, 7357948907, 7357948908, 7357948909, 7357948910, 5782304782], "tags": {"amenity": "hospital", "healthcare": "hospital", "healthcare:speciality": "general;clinic", "name": "hedalia IDP HC"}}, {"type": "way", "id": 787051855, "center": {"lat": 16.0429982, "lon": 36.1267145}, "nodes": [5782318116, 7357945938, 7357945939, 7357945940, 5782318116], "tags": {"amenity": "hospital", "building": "hospital", "healthcare": "hospital", "healthcare:speciality": "community", "name": "talatashara issa eljag HC", "operator": "ministry of health of sudan"}}, {"type": "way", "id": 787053398, "center": {"lat": 14.9436122, "lon": 33.2420253}, "nodes": [5847264285, 7357963135, 7357963136, 7357963137, 7357963138, 5847264285], "tags": {"amenity": "hospital", "healthcare": "hospital", "name": "Al-Hilaliya  Teaching Hospital"}}, {"type": "way", "id": 787053562, "center": {"lat": 15.60116, "lon": 32.529664}, "nodes": [5968326385, 7357965063, 7357965064, 7357965065, 5968326385], "tags": {"amenity": "hospital", "building": "hospital", "healthcare": "hospital", "name": "\u0627\u0644\u0645\u0631\u0643\u0632 \u0627\u0644\u062f\u0648\u0644\u064a \u0644\u0644\u0633\u0645\u0639 \u0627\u0644\u0645\u062a\u0637\u0648\u0631", "name:ar": "\u0627\u0644\u0645\u0631\u0643\u0632 \u0627\u0644\u062f\u0648\u0644\u064a \u0644\u0644\u0633\u0645\u0639 \u0627\u0644\u0645\u062a\u0637\u0648\u0631", "name:en": "International Advanced Hearing Centdr"}}, {"type": "way", "id": 787054570, "center": {"lat": 15.6009401, "lon": 32.5304295}, "nodes": [5968383986, 7357973489, 7357973490, 7357973491, 5968383986], "tags": {"amenity": "hospital", "building": "hospital", "healthcare": "hospital", "name": "\u0645\u0631\u0643\u0632 \u0637\u0628 \u0627\u0644\u0627\u0633\u0646\u0627\u0646 \u0627\u0644\u062d\u062f\u064a\u062b", "name:ar": "\u0645\u0631\u0643\u0632 \u0637\u0628 \u0627\u0644\u0627\u0633\u0646\u0627\u0646 \u0627\u0644\u062d\u062f\u064a\u062b", "name:en": "Modern Dental Center"}}, {"type": "way", "id": 787056265, "center": {"lat": 15.637959, "lon": 32.5676343}, "nodes": [5993266785, 7357963049, 7357963050, 7357963051, 7357963052, 7357963053, 7357963054, 7357963055, 5993266785], "tags": {"amenity": "hospital", "healthcare": "hospital", "name": "Asbab hospital", "name:ar": "\u0645\u0633\u062a\u0634\u0641\u0649 \u0627\u0633\u0628\u0627\u0628 \u0627\u0644\u0642\u0637\u0631\u064a"}}, {"type": "way", "id": 787057590, "center": {"lat": 15.6001415, "lon": 32.5216664}, "nodes": [6013592304, 7357997092, 7357997093, 8813958532, 6013592304], "tags": {"addr:street": "\u0634\u0627\u0631\u0639 \u0627\u0644\u0634\u064a\u062e \u0645\u0635\u0637\u0641\u064a \u0627\u0644\u0627\u0645\u064a\u0646", "amenity": "hospital", "healthcare": "hospital", "healthcare:speciality": "maternity", "name": "\u0645\u0633\u062a\u0634\u0641\u0649 \u0627\u0644\u0631\u0627\u0647\u0628\u0627\u062a \u0644\u0644\u0648\u0644\u0627\u062f\u0629"}}, {"type": "way", "id": 787058029, "center": {"lat": 15.5428853, "lon": 32.4972973}, "nodes": [6051360120, 7357963652, 7357963653, 7357963654, 7357963655, 7357963656, 6051360120], "tags": {"amenity": "hospital", "healthcare": "hospital", "name": "\u0645\u0631\u0643\u0632 \u0627\u0644\u0634\u062c\u0631\u0629 \u0627\u0644\u0635\u062d\u064a"}}, {"type": "way", "id": 787061105, "center": {"lat": 15.6442473, "lon": 32.4649726}, "nodes": [6068785310, 7358039505, 7358039506, 7358039507, 6068785310], "tags": {"amenity": "hospital", "healthcare": "hospital", "name": "\u0645\u0633\u062a\u0634\u0641\u0649 \u0648\u0639\u062f \u0627\u0644\u062a\u062e\u0635\u0635\u064a"}}, {"type": "way", "id": 787061843, "center": {"lat": 17.3299419, "lon": 34.4417268}, "nodes": [6109470789, 7358033812, 7358033813, 7358033814, 7358033815, 7358033816, 7358033817, 7358033818, 6109470789], "tags": {"amenity": "hospital", "emergency": "yes", "healthcare": "hospital", "name": "Seidoon hospital", "name:ar": "\u0645\u0633\u062a\u0634\u0641\u064a \u0633\u064a\u062f\u0648\u0646", "operator": "state government"}}, {"type": "way", "id": 787062435, "center": {"lat": 15.6813746, "lon": 32.7181498}, "nodes": [6191729788, 7358028497, 7358028498, 7358028499, 6191729788], "tags": {"amenity": "hospital", "healthcare": "hospital", "name": "\u0645\u0631\u0643\u0632 \u0635\u062d\u064a \u0627\u0644\u0635\u062d\u0641\u064a\u064a\u0646"}}, {"type": "way", "id": 787064022, "center": {"lat": 15.5986964, "lon": 32.5298418}, "nodes": [6242093485, 7358053625, 7358053626, 7358053627, 6242093485], "tags": {"addr:street": "\u0634\u0627\u0631\u0639 \u0627\u0644\u0627\u0633\u0628\u062a\u0627\u0644\u064a\u0629", "amenity": "hospital", "healthcare": "hospital", "name": "\u0645\u0633\u062a\u0634\u0641\u0649 \u0627\u0644\u0641\u064a\u0635\u0644 \u0627\u0644\u062a\u062e\u0635\u0635\u064a", "name:ar": "\u0645\u0633\u062a\u0634\u0641\u0649 \u0627\u0644\u0641\u064a\u0635\u0644 \u0627\u0644\u062a\u062e\u0635\u0635\u064a", "name:en": "Al Faisal Specialized Hospital", "phone": "249155771000+"}}, {"type": "way", "id": 787064477, "center": {"lat": 15.2218711, "lon": 36.1777625}, "nodes": [6639676934, 7358070779, 7358070780, 7358070781, 6639676934], "tags": {"amenity": "hospital", "healthcare": "hospital", "name": "\u062f.\u0645\u0628\u0627\u0631\u0643 \u0623\u062d\u0645\u062f \u062d\u0633\u0646", "name:ar": "\u062f.\u0645\u0628\u0627\u0631\u0643 \u0623\u062d\u0645\u062f \u062d\u0633\u0646", "opening_hours": "Mo-Su 07:00-18:00", "phone": "0962122213"}}, {"type": "way", "id": 787064778, "center": {"lat": 15.7124925, "lon": 32.4764657}, "nodes": [6794792390, 7358057181, 7358057182, 7358057183, 6794792390], "tags": {"amenity": "hospital", "healthcare": "hospital", "name": "\u0645\u0633\u062a\u0634\u0641\u0649 \u0627\u0644\u062a\u0647\u0627\u0645\u064a"}}, {"type": "way", "id": 787065730, "center": {"lat": 15.6207232, "lon": 32.4669889}, "nodes": [6795166106, 7358061682, 7358061683, 7358061684, 6795166106], "tags": {"amenity": "hospital", "healthcare": "hospital", "name": "\u0645\u0633\u062a\u0648\u0635\u0641 \u062f\u0643\u062a\u0648\u0631 \u0646\u0648\u0631\u064a\u0646"}}, {"type": "way", "id": 787079630, "center": {"lat": 15.6827681, "lon": 32.4996482}, "nodes": [6795813971, 7358235792, 7358235793, 7358235794, 7358235795, 7358235796, 7358235797, 7358235798, 6795813971], "tags": {"addr:street": "\u0634\u0627\u0631\u0639 \u0627\u0644\u0648\u0627\u062f\u064a", "amenity": "hospital", "healthcare": "hospital", "name": "\u0645\u0633\u062a\u0634\u0641\u0649 \u0627\u0644\u0631\u0648\u0636\u0629", "name:ar": "\u0645\u0633\u062a\u0634\u0641\u0649 \u0627\u0644\u0631\u0648\u0636\u0629"}}, {"type": "way", "id": 787119156, "center": {"lat": 15.6967789, "lon": 32.5048242}, "nodes": [7358609040, 6795863418, 7358609041, 7358609042, 7358609040], "tags": {"amenity": "hospital", "healthcare": "hospital", "name": "\u0645\u0631\u0643\u0632 \u0635\u062d\u064a \u0627\u0644\u0639\u0645\u0631\u0627\u0646"}}, {"type": "way", "id": 787119550, "center": {"lat": 15.4657863, "lon": 32.5032002}, "nodes": [6796825134, 7358651010, 7358651011, 7358651012, 6796825134], "tags": {"amenity": "hospital", "healthcare": "hospital", "name": "\u0645\u0631\u0643\u0632 \u0627\u0644\u062d\u0643\u0645\u0629 \u0627\u0644\u0635\u062d\u064a"}}, {"type": "way", "id": 787387166, "center": {"lat": 15.4678211, "lon": 32.5025164}, "nodes": [6796835409, 7361995966, 7361995967, 7361995968, 7361995969, 7361995970, 7361995971, 6796835409], "tags": {"amenity": "hospital", "building": "hospital", "healthcare": "hospital", "name": "\u0645\u062c\u0645\u0639 \u0627\u0644\u0639\u0646\u0648\u062f \u0627\u0644\u0637\u0628\u064a"}}, {"type": "way", "id": 787387513, "center": {"lat": 15.5662406, "lon": 32.5581635}, "nodes": [11049237067, 7361993914, 11049237074, 11049237071, 11049237070, 11049237065, 11049237068, 11049237069, 11049237067], "tags": {"addr:street": "\u0634\u0627\u0631\u0639 \u0639\u0628\u064a\u062f \u062e\u062a\u0645", "amenity": "hospital", "building": "yes", "healthcare": "hospital", "name": "\u0645\u0633\u062a\u0634\u0641\u0649 \u0627\u0644\u0633\u0627\u062d\u0629"}}, {"type": "way", "id": 787388008, "center": {"lat": 15.6091446, "lon": 32.6259365}, "nodes": [6812638987, 7361992547, 7361992548, 7361992549, 6812638987], "tags": {"addr:street": "\u0634\u0627\u0631\u0639 \u0627\u0644\u062d\u0627\u062c \u064a\u0648\u0633\u0641", "amenity": "hospital", "healthcare": "hospital", "healthcare:speciality": "paediatrics", "name": "\u0645\u0633\u062a\u0634\u0641\u0649 \u062a\u0628\u0627\u0631\u0643 \u0644\u0644\u0627\u0637\u0641\u0627\u0644"}}, {"type": "way", "id": 787388825, "center": {"lat": 15.6009251, "lon": 32.5322952}, "nodes": [6834456878, 7361999652, 7361999653, 7361999654, 6834456878], "tags": {"amenity": "hospital", "healthcare": "hospital", "name": "\u0645\u0633\u062a\u0634\u0641\u0649 \u0645\u0648\u062f\u0629 \u0627\u0644\u0637\u0628\u064a", "name:ar": "\u0645\u0633\u062a\u0634\u0641\u0649 \u0645\u0648\u062f\u0629 \u0627\u0644\u0637\u0628\u064a", "name:en": "Mowada Hospital"}}, {"type": "way", "id": 787389393, "center": {"lat": 14.7197714, "lon": 33.314791}, "nodes": [6839948185, 7361992004, 7361992005, 7361992006, 6839948185], "tags": {"addr:city": "\u0627\u0644\u062d\u0635\u0627\u062d\u064a\u0635\u0627", "addr:street": "\u0634\u0627\u0631\u0639 \u0627\u0644\u062e\u0631\u0637\u0648\u0645 - \u0645\u062f\u0646\u064a", "amenity": "hospital", "healthcare": "hospital", "name": "\u0645\u0633\u062a\u0648\u0635\u0641 \u062d\u064a \u0627\u0644\u0636\u0642\u0627\u0644\u0629"}}, {"type": "way", "id": 787391136, "center": {"lat": 14.7294486, "lon": 33.2984631}, "nodes": [6840044076, 7361982506, 7361982507, 7361982508, 6840044076], "tags": {"amenity": "hospital", "healthcare": "hospital", "name": "\u0645\u0633\u062a\u0634\u0641\u064a \u0627\u0644\u062d\u0635\u0627\u062d\u064a\u0635\u0627 \u0627\u0644\u062a\u0639\u0644\u064a\u0645\u064a"}}, {"type": "way", "id": 787391482, "center": {"lat": 14.3983621, "lon": 33.5330175}, "nodes": [6870817632, 7362020936, 7362020937, 7362020938, 7362020939, 7362020940, 6870817632], "tags": {"amenity": "hospital", "healthcare": "hospital", "name": "\u0645\u0633\u062a\u0634\u0641\u064a \u0627\u0644\u0634\u0631\u0637\u0629"}}, {"type": "way", "id": 787392004, "center": {"lat": 15.5117976, "lon": 32.5791126}, "nodes": [6874115331, 7362019601, 7362019602, 7362019603, 6874115331], "tags": {"amenity": "hospital", "healthcare": "hospital", "name": "\u0645\u0631\u0643\u0632 \u0635\u062d\u064a \u0627\u0644\u0628\u0634\u0631\u064a", "name:ar": "\u0645\u0631\u0643\u0632 \u0635\u062d\u064a \u0627\u0644\u0628\u0634\u0631\u064a"}}, {"type": "way", "id": 787392258, "center": {"lat": 15.5317666, "lon": 32.5560021}, "nodes": [6874237930, 7362031246, 7362031247, 7362031248, 6874237930], "tags": {"addr:street": "\u0634\u0627\u0631\u0639 \u0627\u0644\u0645\u064a\u0646\u0627\u0621 \u0627\u0644\u0628\u0631\u064a", "amenity": "hospital", "healthcare": "hospital", "name": "\u0645\u0633\u062a\u0634\u0641\u0649 \u062e\u0627\u0644\u062f \u0627\u062d\u0645\u062f \u062d\u0645\u064a\u062f\u0629"}}, {"type": "way", "id": 787392545, "center": {"lat": 15.555504, "lon": 32.5375121}, "nodes": [6874244948, 7362007506, 7362007507, 7362007508, 6874244948], "tags": {"addr:street": "\u0634\u0627\u0631\u0639 \u0627\u0644\u0635\u062d\u0627\u0641\u0629", "amenity": "hospital", "building": "hospital", "healthcare": "hospital", "healthcare:speciality": "dentist", "name": "\u0645\u0631\u0643\u0632 \u0631\u0632\u0627\u0646 \u0627\u0644\u0635\u062d\u064a", "name:ar": "\u0645\u0631\u0643\u0632 \u0631\u0632\u0627\u0646 \u0627\u0644\u0635\u062d\u064a"}}, {"type": "way", "id": 787393647, "center": {"lat": 15.5993523, "lon": 32.534086}, "nodes": [6874255326, 7362035727, 7362035728, 7362035729, 6874255326], "tags": {"amenity": "hospital", "healthcare": "hospital", "name": "\u0645\u0633\u062a\u0634\u0641\u0649 \u0627\u0644\u0634\u0631\u064a\u0641"}}, {"type": "way", "id": 787396247, "center": {"lat": 15.6829683, "lon": 32.4997581}, "nodes": [7358235797, 6874299547, 7362047509, 7362047510, 7358235794, 7358235795, 7358235796, 7358235797], "tags": {"amenity": "hospital", "healthcare": "hospital", "name": "\u0645\u0633\u062a\u0634\u0641\u0649 \u064a\u0633\u062a\u0628\u0634\u0631\u0648\u0646", "name:ar": "\u0645\u0633\u062a\u0634\u0641\u0649 \u064a\u0633\u062a\u0628\u0634\u0631\u0648\u0646"}}, {"type": "way", "id": 787397311, "center": {"lat": 15.5987096, "lon": 32.5301442}, "nodes": [6874299550, 8432868736, 7362040311, 7362040312, 6874299550], "tags": {"amenity": "hospital", "healthcare": "hospital", "name": "\u0645\u0633\u062a\u0634\u0641\u0649 \u0627\u0628\u0646 \u0627\u0644\u0647\u064a\u062b\u0645"}}, {"type": "way", "id": 787399233, "center": {"lat": 15.5990159, "lon": 32.5300824}, "nodes": [6874302163, 7362079098, 7362079099, 7362079100, 6874302163], "tags": {"amenity": "hospital", "healthcare": "hospital", "name": "\u0645\u0633\u062a\u0634\u0641\u0649 \u0627\u0646\u0637\u0627\u0644\u064a\u0627"}}, {"type": "way", "id": 787446571, "center": {"lat": 15.5985969, "lon": 32.6161936}, "nodes": [6898081295, 7362317994, 7362317995, 7362317996, 6898081295], "tags": {"amenity": "hospital", "healthcare": "hospital", "name": "\u0645\u062c\u0645\u0639 \u062d\u064a \u0627\u0644\u062c\u0627\u0645\u0639\u0629 \u0627\u0644\u0637\u0628\u064a"}}, {"type": "way", "id": 787446836, "center": {"lat": 15.7238533, "lon": 32.5799494}, "nodes": [6971725034, 7362381154, 3665250029, 7362381155, 6971725034], "tags": {"amenity": "hospital", "healthcare": "hospital", "name": "\u0645\u0633\u062a\u0634\u0641\u0649 \u0627\u0644\u0634\u0647\u064a\u062f \u0639\u0644\u064a \u0639\u0628\u062f \u0627\u0644\u0641\u062a\u0627\u062d"}}, {"type": "way", "id": 787447591, "center": {"lat": 15.7138187, "lon": 32.578874}, "nodes": [6964900792, 7362336853, 7362336854, 7362336855, 6964900792], "tags": {"amenity": "hospital", "healthcare": "hospital", "name": "\u0645\u0633\u062a\u0634\u0641\u0649 \u0627\u0644\u062f\u0631\u0648\u0634\u0627\u0628 \u0627\u0644\u062a\u062e\u0635\u0635\u064a \u0644\u0644\u0648\u0644\u0627\u062f\u0629"}}, {"type": "way", "id": 787448013, "center": {"lat": 15.7388151, "lon": 32.5652327}, "nodes": [6969107530, 7362392336, 7362392337, 7362392338, 7607644142, 6969107530], "tags": {"amenity": "hospital", "healthcare": "hospital", "name": "\u0645\u0633\u062a\u0634\u0641\u0649 \u0627\u0644\u0631\u064a\u062d\u0627\u0646"}}, {"type": "way", "id": 787448291, "center": {"lat": 15.7135606, "lon": 32.5781936}, "nodes": [6991640685, 7362399313, 7362399314, 7362399315, 6991640685], "tags": {"amenity": "hospital", "healthcare": "hospital", "name": "Aldroushap", "name:ar": "\u0645\u0633\u062a\u0634\u0641\u0649 \u0627\u0644\u062f\u0631\u0648\u0634\u0627\u0628 \u0627\u0644\u062a\u062e\u0635\u0635\u064a \u0644\u0644\u0648\u0644\u0627\u062f\u0629", "name:en": "Aldroshap Specialised Maternity Hospital"}}, {"type": "way", "id": 787448638, "center": {"lat": 15.5234153, "lon": 32.504}, "nodes": [7004741302, 7362391294, 7362391295, 7362391296, 7004741302], "tags": {"amenity": "hospital", "healthcare": "hospital", "name": "\u0645\u0633\u062a\u0634\u0641\u0649 \u062f\u0644\u0645\u0648\u0646 \u0627\u0644\u062e\u0627\u0635"}}, {"type": "way", "id": 787449248, "center": {"lat": 15.5161078, "lon": 32.4970788}, "nodes": [7005475380, 7362396979, 7362396980, 7362396981, 7005475380], "tags": {"amenity": "hospital", "healthcare": "hospital", "name": "\u0645\u0631\u0643\u0632 \u0627\u0644\u0633\u0644\u0627\u0645\u0629 \u0644\u0644\u0639\u0644\u0627\u062c \u0627\u0644\u0637\u0628\u064a\u0639\u064a"}}, {"type": "way", "id": 787454491, "center": {"lat": 15.598623, "lon": 32.5294021}, "nodes": [7038742269, 7362442408, 7362442409, 7362442410, 7038742269], "tags": {"amenity": "hospital", "healthcare": "hospital", "name": "\u0645\u0633\u062a\u0634\u0641\u0649 \u0627\u0644\u0645\u0646\u064a\u0631\u0629", "name:ar": "\u0645\u0633\u062a\u0634\u0641\u0649 \u0627\u0644\u0645\u0646\u064a\u0631\u0629"}}, {"type": "way", "id": 787458687, "center": {"lat": 15.6027565, "lon": 32.5386148}, "nodes": [7039034609, 7362485053, 7362485054, 7362485055, 7362485056, 7362485057, 7362485058, 7362485059, 7362485060, 7362485061, 7039034609], "tags": {"amenity": "hospital", "building": "hospital", "healthcare": "hospital", "name": "\u0645\u0631\u0643\u0632 \u062f\u0643\u062a\u0648\u0631\u0629 \u0633\u0644\u0645\u064a \u0644\u063a\u0633\u064a\u0644 \u0627\u0644\u0643\u0644\u064a", "name:ar": "\u0645\u0631\u0643\u0632 \u062f\u0643\u062a\u0648\u0631\u0629 \u0633\u0644\u0645\u064a \u0644\u063a\u0633\u064a\u0644 \u0627\u0644\u0643\u0644\u064a"}}, {"type": "way", "id": 787459085, "center": {"lat": 15.5677399, "lon": 32.5653439}, "nodes": [7039034610, 11068793400, 11068793399, 7362488910, 7362488911, 11068793403, 11068793402, 11068793401, 11068793404, 7362488912, 7039034610], "tags": {"amenity": "hospital", "building": "yes", "healthcare": "hospital", "name": "\u0645\u0633\u062a\u0634\u0641\u0649 \u0641\u064a\u0648\u062a\u0634\u0631 \u0627\u0644\u062a\u062e\u0635\u0635\u064a"}}, {"type": "way", "id": 787460655, "center": {"lat": 15.6124112, "lon": 32.5596575}, "nodes": [7039034611, 7362517767, 7362517768, 7362517769, 7362517770, 7362517777, 7362517771, 7362517772, 7362517773, 7362517774, 7362517775, 7362517776, 7039034611], "tags": {"amenity": "hospital", "healthcare": "hospital", "name": "\u0645\u0633\u062a\u0634\u0641\u0649 \u0627\u0644\u0644\u0648\u0627\u0621 \u0639\u0645\u0631 \u0635\u0627\u0648\u064a"}}, {"type": "way", "id": 787490841, "center": {"lat": 15.6363803, "lon": 32.5305986}, "nodes": [7039114130, 11262440116, 7362807226, 11262440115, 7362807227, 7362807228, 7039114130], "tags": {"amenity": "hospital", "building": "hospital", "healthcare": "hospital", "name": "\u0645\u062c\u0645\u0639 \u0643\u0646\u0627\u0646 \u0627\u0644\u0637\u0628\u064a"}}, {"type": "way", "id": 787491007, "center": {"lat": 15.6402995, "lon": 32.4936072}, "nodes": [7039266018, 7362846017, 7362846018, 7362846019, 7039266018], "tags": {"amenity": "hospital", "healthcare": "hospital", "name": "\u0645\u0633\u062a\u0634\u0641\u0649 \u0637\u0628 \u0627\u0644\u0645\u0646\u0627\u0637\u0642 \u0627\u0644\u062d\u0627\u0631\u0629"}}, {"type": "way", "id": 787491750, "center": {"lat": 15.6432346, "lon": 32.4677956}, "nodes": [7039266019, 7362848881, 7362848882, 7362848883, 7039266019], "tags": {"amenity": "hospital", "healthcare": "hospital", "name": "\u0645\u0633\u062a\u0634\u0641\u0649 \u0627\u0644\u0648\u0627\u0644\u062f\u064a\u0646 \u0627\u0644\u062e\u064a\u0631 \u0644\u0637\u0628 \u0627\u0644\u0639\u064a\u0648\u0646"}}, {"type": "way", "id": 787492118, "center": {"lat": 15.6407715, "lon": 32.4973486}, "nodes": [7039274719, 7362858375, 7362858376, 7362858377, 7039274719], "tags": {"amenity": "hospital", "healthcare": "hospital", "name": "\u0645\u0633\u062a\u0634\u0641\u0649 \u0627\u0644\u0645\u0644\u0627\u0632\u0645\u064a\u0646"}}, {"type": "way", "id": 787514523, "center": {"lat": 15.6419494, "lon": 32.4916224}, "nodes": [7039274720, 7363067497, 7363067498, 7363067499, 7039274720], "tags": {"amenity": "hospital", "healthcare": "hospital", "name": "\u0645\u0633\u062a\u0634\u0641\u0649 \u062f\u0643\u062a\u0648\u0631 \u0646\u062c\u064a\u0628"}}, {"type": "way", "id": 787516219, "center": {"lat": 15.6434111, "lon": 32.4879535}, "nodes": [7039274721, 7363083313, 7363083314, 7363083315, 7039274721], "tags": {"amenity": "hospital", "healthcare": "hospital", "name": "\u0645\u0633\u062a\u0634\u0641\u0649 \u0627\u0644\u0628\u0642\u0639\u0629"}}, {"type": "way", "id": 787520951, "center": {"lat": 15.5946893, "lon": 32.5733393}, "nodes": [7039296177, 7363127513, 7363127514, 7363127515, 7039296177], "tags": {"amenity": "hospital", "healthcare": "hospital", "name": "\u0645\u0631\u0643\u0632 \u0648\u0627\u0631\u0641\u0643\u0648 \u0644\u0637\u0628 \u0627\u0644\u0627\u0633\u0646\u0627\u0646"}}, {"type": "way", "id": 787523780, "center": {"lat": 15.6370035, "lon": 32.48332}, "nodes": [7039296179, 7363160155, 7363160156, 7363160157, 7363160158, 7363160159, 7363160160, 7039296179], "tags": {"amenity": "hospital", "healthcare": "hospital", "name": "\u0645\u0633\u062a\u0634\u0641\u0649 \u0646\u0648\u0646"}}, {"type": "way", "id": 787524056, "center": {"lat": 15.652919, "lon": 32.5251768}, "nodes": [7039296180, 7363160161, 7363160162, 7363160163, 7039296180], "tags": {"amenity": "hospital", "healthcare": "hospital", "name": "\u0645\u0631\u0643\u0632 \u0635\u062d\u064a \u0634\u0645\u0628\u0627\u062a"}}, {"type": "way", "id": 787524231, "center": {"lat": 15.6649589, "lon": 32.4565869}, "nodes": [7039296181, 7363148410, 7363148411, 7363148412, 7039296181], "tags": {"amenity": "hospital", "healthcare": "hospital", "name": "\u0645\u0633\u062a\u0634\u0641\u0649 \u0627\u0644\u0627\u0646\u0641\u0627\u0644"}}, {"type": "way", "id": 787526773, "center": {"lat": 15.6476608, "lon": 32.4938272}, "nodes": [7039296182, 7363197821, 7363197822, 7363197823, 7039296182], "tags": {"amenity": "hospital", "healthcare": "hospital", "name": "\u0645\u0631\u0643\u0632 \u064a\u0634\u0641\u064a\u0646 \u0644\u0644\u0633\u0645\u0639"}}, {"type": "way", "id": 787549756, "center": {"lat": 13.4882069, "lon": 39.4719302}, "nodes": [7363447059, 7363447060, 7363447061, 7363447062, 7363447063, 7363447064, 7363447059], "tags": {"amenity": "hospital", "building": "yes", "name": "Emmanual Higher Clinic"}}, {"type": "way", "id": 787549757, "center": {"lat": 13.4907348, "lon": 39.4713965}, "nodes": [7363447065, 7363447066, 7363447067, 7363447068, 7363447069, 7363447070, 7363447071, 7363447072, 7363447065], "tags": {"amenity": "hospital", "building": "hospital", "name": "Markos Hospital"}}, {"type": "way", "id": 787549768, "center": {"lat": 14.1203147, "lon": 38.7285483}, "nodes": [1150886355, 8462186298, 8462186293, 8462186290, 8462186291, 8462186297, 8462186296, 7363447165, 7363447166, 8462186299, 8462186300, 1150886355], "tags": {"amenity": "hospital", "barrier": "fence", "designation": "Referal Hospital", "emergency": "yes", "healthcare": "hospital", "name": "Aksum K'Idist Maryam Hospital"}}, {"type": "way", "id": 787549774, "center": {"lat": 11.5996253, "lon": 37.3723426}, "nodes": [1831739031, 7363447228, 7363447229, 7363447230, 7363447231, 11302535824, 7363447232, 7363447233, 7363447234, 1831739031], "tags": {"amenity": "hospital", "healthcare": "hospital", "name": "Aflagat General Hospital"}}, {"type": "way", "id": 787549775, "center": {"lat": 13.6932202, "lon": 39.5851114}, "nodes": [7363447235, 2018265152, 7363447237, 7363447238, 7363447239, 7363447240, 7363447241, 7363447242, 7363447243, 7363447244, 7363447245, 7363447246, 7363447247, 7363447248, 7363447249, 7363447250, 7363447251, 7363447252, 7363447253, 7363447235], "tags": {"amenity": "hospital", "building": "hospital", "health_facility:type": "health_center", "healthcare": "hospital", "name": "Agulae Health Centre"}}, {"type": "way", "id": 787549778, "center": {"lat": 13.6930077, "lon": 39.5852269}, "nodes": [2018265152, 7363447277, 7363447278, 7363447279, 7363447280, 7363447281, 2018265152], "tags": {"amenity": "hospital", "health_facility:type": "health_center", "healthcare": "hospital", "name": "Agulae Health Centre"}}, {"type": "way", "id": 787549780, "center": {"lat": 12.0398185, "lon": 39.0533279}, "nodes": [2822055326, 7363447289, 7363447290, 7363447291, 7363447292, 7363447293, 7363447294, 7363447295, 7363447296, 7363447297, 7363447298, 7363447299, 7363447300, 7363447301, 7363447302, 2822055326], "tags": {"amenity": "hospital", "healthcare": "hospital", "name": "Lalibela Hospital"}}, {"type": "way", "id": 787549786, "center": {"lat": 11.1951873, "lon": 36.9717055}, "nodes": [3915843580, 7363447363, 7363447364, 7363447365, 7363447366, 7363447367, 7363447368, 7363447369, 7363447370, 7363447371, 7363447372, 7363447373, 7363447374, 7363447375, 7363447376, 7363447377, 7363447378, 7363447379, 7363447380, 3915843580], "tags": {"amenity": "hospital", "healthcare": "hospital", "name": "Afessa Health centre"}}, {"type": "way", "id": 787549789, "center": {"lat": 13.7935466, "lon": 39.5974266}, "nodes": [4259759619, 7363447391, 7363447392, 7363447393, 7363447394, 7363447395, 7363447396, 7363447397, 7363447398, 7363447399, 8902214394, 7363447401, 7363447402, 7363447403, 7363447404, 7363447405, 4259759619], "tags": {"amenity": "hospital", "healthcare": "hospital", "name": "Wukro General Hospital"}}, {"type": "way", "id": 787549800, "center": {"lat": 13.4540223, "lon": 36.485798}, "nodes": [4727106692, 7363447515, 7363447516, 7363447517, 7363447518, 7363447519, 7363447520, 7363447521, 7363447522, 7363447523, 7363447524, 4727106692], "tags": {"amenity": "hospital", "healthcare": "hospital", "name:en": "Abrhajira Primary Hospital", "name:zh": "\u963f\u5e03\u62c9\u54c8\u57fa\u62c9\u521d\u7ea7\u533b\u9662"}}, {"type": "way", "id": 787549801, "center": {"lat": 10.0075591, "lon": 39.9039686}, "nodes": [4748799524, 7363447526, 7363447527, 7363447528, 7363447529, 7363447530, 7363447531, 7363447532, 7363447533, 7363447534, 7363447535, 7363447536, 7363447537, 7363447538, 7363447539, 7363447540, 7363447541, 7363447542, 4748799524], "tags": {"amenity": "hospital", "healthcare": "hospital", "name:en": "Yifat Hospital"}}, {"type": "way", "id": 787549803, "center": {"lat": 12.1462946, "lon": 39.9821193}, "nodes": [4781570421, 7363447561, 7363447562, 7363447563, 7363447564, 7363447565, 7363447566, 7363447567, 4781570421], "tags": {"amenity": "hospital", "healthcare": "hospital", "name:en": "Kelewan Amanuel Hospital"}}, {"type": "way", "id": 787549808, "center": {"lat": 13.4846087, "lon": 39.5369039}, "nodes": [7363447641, 7363447642, 7363447643, 7363447644, 7363447645, 7363447646, 7363447647, 7363447648, 7363447649, 7363447650, 7363447651, 7363447652, 7363447653, 7363447654, 7363447655, 7363447656, 7363447641], "tags": {"amenity": "hospital", "healthcare": "hospital"}}, {"type": "way", "id": 787549809, "center": {"lat": 13.4736588, "lon": 39.5371114}, "nodes": [7363447657, 7363447658, 7363447659, 7363447660, 7363447661, 7363447662, 7363447663, 7363447664, 7363447665, 7363447657], "tags": {"amenity": "hospital", "healthcare": "hospital"}}, {"type": "way", "id": 787549810, "center": {"lat": 11.8327376, "lon": 39.5997098}, "nodes": [2706191537, 4820158124, 7363447667, 7363447668, 7363447669, 7363447670, 7363447671, 7363447672, 7363447673, 7363447674, 7363447675, 7363447676, 7363447677, 7363447678, 7363447679, 7363447680, 7363447681, 7363447682, 7363447683, 7363447684, 7363447685, 7363447686, 2706191537], "tags": {"amenity": "hospital", "healthcare": "hospital", "name:en": "Woldia General Hospital"}}, {"type": "way", "id": 787549812, "center": {"lat": 14.3944336, "lon": 39.3912201}, "nodes": [4838712723, 7363447703, 7363447704, 7363447705, 7363447706, 7363447707, 7363447708, 7363447709, 7363447710, 7363447711, 7363447712, 7363447713, 7363447714, 7363447715, 7363447716, 7363447717, 7363447718, 7363447719, 7363447720, 7363447721, 7363447722, 7363447723, 7363447724, 7363447725, 7363447726, 4838712723], "tags": {"amenity": "hospital", "healthcare": "hospital", "name": "\u134b\u1342 \u1206\u1235\u1352\u1273\u120d Fatsi Hospital", "name:am": "\u134b\u1342 \u1206\u1235\u1352\u1273\u120d Fatsi Hospital"}}, {"type": "way", "id": 787549829, "center": {"lat": 11.5956927, "lon": 37.4169494}, "nodes": [5303198525, 7363447878, 10006302080, 10006302079, 10006302078, 5303198525], "tags": {"amenity": "hospital", "healthcare": "hospital", "name:en": "Abay Mado Hospital"}}, {"type": "way", "id": 787549830, "center": {"lat": 12.6209509, "lon": 39.0335652}, "nodes": [5306056822, 7363447890, 7363447891, 7363447892, 7363447893, 7363447894, 7363447895, 7363447896, 7363447897, 7363447898, 7363447899, 7363447900, 7363447901, 7363447902, 7363447904, 7363447905, 7363447906, 7363447907, 7363447908, 7363447909, 7363447910, 7363447911, 7363447912, 7363447913, 7363447914, 7363447915, 5306056822], "tags": {"amenity": "hospital", "healthcare": "hospital", "name": "\u1270\u1348\u122b \u1203\u12ed\u1209 \u1218\u1273\u1230\u1262\u12eb \u1206\u1235\u1352\u1273\u120d", "name:am": "\u1270\u1348\u122b \u1203\u12ed\u1209 \u1218\u1273\u1230\u1262\u12eb \u1206\u1235\u1352\u1273\u120d", "name:en": "Tefera Hailu Memorial Hospital", "phone": "+251334401077"}}, {"type": "way", "id": 787549832, "center": {"lat": 12.5977305, "lon": 37.4498936}, "nodes": [5314782622, 7363447924, 7363447925, 7363447926, 5314782622], "tags": {"amenity": "hospital", "healthcare": "hospital", "name": "\u12a0\u12ed\u1264\u12ad\u1235 \u1206\u1235\u1352\u1273\u120d", "name:am": "\u12a0\u12ed\u1264\u12ad\u1235 \u1206\u1235\u1352\u1273\u120d", "name:en": "Ibex Hospital"}}, {"type": "way", "id": 787549838, "center": {"lat": 13.2921408, "lon": 38.994234}, "nodes": [5470214523, 7363447955, 7363447956, 7363447957, 7363447958, 7363447959, 7363447960, 7363447961, 7363447962, 7363447963, 7363447964, 7363447965, 7363447966, 7363447967, 7363447968, 7363447969, 7363447970, 7363447971, 7363447972, 7363447973, 7363447974, 5470214523], "tags": {"amenity": "hospital", "healthcare": "hospital", "name:en": "Yechilla Primary Hospital", "opening_hours": "24/7", "phone": "+25134420010"}}, {"type": "way", "id": 787549841, "center": {"lat": 11.1271018, "lon": 39.226997}, "nodes": [5599097937, 7363447992, 7363447993, 7363447994, 7363447995, 7363447996, 7363447997, 7363447998, 7363447999, 7363448000, 7363448001, 5599097937], "tags": {"amenity": "hospital", "healthcare": "hospital", "name": "fitto clink"}}, {"type": "way", "id": 787561970, "center": {"lat": 10.6725381, "lon": 37.3740454}, "nodes": [5599124855, 7363526750, 7363526751, 7363526752, 5599124855], "tags": {"amenity": "hospital", "healthcare": "hospital"}}, {"type": "way", "id": 787561973, "center": {"lat": 11.5942105, "lon": 37.4011401}, "nodes": [5645364727, 7363526775, 7363526776, 7363526777, 7363526778, 7363526779, 7363526780, 7363526781, 7363526782, 5645364727], "tags": {"amenity": "hospital", "healthcare": "hospital", "internet_access": "wlan", "name": "\u130b\u121d\u1262 \u1320\u1245\u120b\u120b \u1206\u1235\u1352\u1273\u120d", "name:en": "Gamby general hospital", "opening_hours": "24/7", "phone": "0582204303"}}, {"type": "way", "id": 788575444, "center": {"lat": 13.0249154, "lon": 39.5248166}, "nodes": [5909732587, 7372624727, 7372624728, 7372624729, 7372624730, 7372624731, 7372624732, 2702338900, 7372624733, 7372624734, 7372624735, 7372624736, 5909732587], "tags": {"amenity": "hospital", "healthcare": "hospital", "name:en": "Betmara Health Center"}}, {"type": "way", "id": 788575445, "center": {"lat": 12.1103707, "lon": 38.1682637}, "nodes": [5936188355, 7372624738, 7372624739, 7372624740, 7372624741, 7372624742, 7372624743, 7372624744, 7372624745, 7372624746, 7372624747, 7372624748, 7372624749, 7372624750, 7372624751, 7372624752, 7372624753, 7372624754, 7372624755, 7372624756, 7372624757, 7372624758, 7372624759, 7372624760, 7372624761, 7372624762, 7372624763, 7372624764, 7372624765, 7372624766, 7372624767, 7372624768, 5936188355], "tags": {"amenity": "hospital", "healthcare": "hospital", "operator": "Selamaya healh center"}}, {"type": "way", "id": 788575446, "center": {"lat": 12.3064796, "lon": 38.2739866}, "nodes": [9264917975, 5936195921, 7372624771, 7372624772, 7372624773, 7372624774, 7372624775, 7372624776, 7372624777, 7372624778, 9264917973, 9264917974, 9264917975], "tags": {"amenity": "hospital", "healthcare": "hospital", "name": "Qualisa health center"}}, {"type": "way", "id": 788575447, "center": {"lat": 12.2885157, "lon": 38.0435226}, "nodes": [5936204112, 7372624782, 7372624783, 7372624784, 7372627085, 7372627086, 7372627087, 7372627088, 7372627089, 7372627090, 7372627091, 7372627092, 7372627093, 7372627094, 7372627095, 7372627096, 7372627097, 5936204112], "tags": {"amenity": "hospital", "healthcare": "hospital", "name": "Worgaja health center"}}, {"type": "way", "id": 788575448, "center": {"lat": 12.2217635, "lon": 38.1501012}, "nodes": [5936206372, 7372627099, 7372627100, 7372627101, 7372627102, 7372627103, 7372627104, 7372627105, 7372627106, 7372627107, 7372627108, 7372627109, 7372627110, 7372627111, 7372627112, 7372627113, 7372627114, 7372627115, 7372627116, 5936206372], "tags": {"amenity": "hospital", "healthcare": "hospital", "name": "Gela matebiya health center"}}, {"type": "way", "id": 788575449, "center": {"lat": 11.2472579, "lon": 38.3921061}, "nodes": [5936212783, 7372627118, 7372627119, 7372627120, 7372627121, 7372627122, 7372627123, 7372627124, 7372627125, 7372627126, 7372627127, 7372627128, 7372627129, 5936212783], "tags": {"amenity": "hospital", "healthcare": "hospital", "name": "Yequasa health center"}}, {"type": "way", "id": 788575450, "center": {"lat": 11.3403172, "lon": 38.338644}, "nodes": [5936220935, 7372627131, 7372627132, 7372627133, 7372627134, 7372627135, 7372627136, 7372627137, 7372627138, 7372627139, 7372627140, 7372627141, 7372627142, 7372627143, 7372627144, 7372627145, 7372627146, 5936220935], "tags": {"amenity": "hospital", "healthcare": "hospital", "name": "Gujign health center"}}, {"type": "way", "id": 788575463, "center": {"lat": 12.9374831, "lon": 39.5167715}, "nodes": [6427477886, 7372627264, 7372627265, 7372627266, 7372627267, 7372627268, 7372627269, 7372627270, 7372627271, 7372627272, 7372627273, 7372627274, 7372627275, 7372627276, 6427477886], "tags": {"amenity": "hospital", "healthcare": "hospital", "name:en": "Adi Shu Health Center"}}, {"type": "way", "id": 788575468, "center": {"lat": 10.1199072, "lon": 39.6601628}, "nodes": [6615578085, 7372627302, 7372627303, 7372627304, 7372627305, 7372627306, 6615578085], "tags": {"amenity": "hospital", "healthcare": "hospital", "name:en": "Molale"}}, {"type": "way", "id": 788575469, "center": {"lat": 10.1160224, "lon": 39.6548186}, "nodes": [6615578185, 7372627308, 7372627309, 7372627310, 7372627311, 7372627312, 7372627313, 7372627314, 7372627315, 7372627316, 7372627317, 7372627318, 6615578185], "tags": {"amenity": "hospital", "healthcare": "hospital", "name:en": "Molale Hospital"}}, {"type": "way", "id": 788575478, "center": {"lat": 11.1292004, "lon": 39.63388}, "nodes": [2206472882, 5473371356, 6961326587, 7372627383, 2206472882], "tags": {"amenity": "hospital", "healthcare": "hospital", "name:en": "Mesret Medical and Surgical Specialty Center"}}, {"type": "way", "id": 788575480, "center": {"lat": 11.2665249, "lon": 39.2566187}, "nodes": [7005505785, 7372627405, 7372627406, 7372627407, 7372627408, 7005505785], "tags": {"amenity": "hospital", "healthcare": "hospital", "name:en": "Tenta Hospital"}}, {"type": "way", "id": 788575487, "center": {"lat": 10.7104586, "lon": 39.8812803}, "nodes": [7372627444, 7176839687, 7372627446, 7372627447, 7372627448, 7372627449, 7372627450, 7372627451, 7372627452, 7372627453, 7372627454, 7372627455, 7372627444], "tags": {"amenity": "hospital", "healthcare": "hospital", "name": "\u12a8\u121a\u1234 \u122a\u1348\u122b\u120d \u1206\u1235\u1352\u1273\u120d", "name:en": "Kemisse referral Hospital"}}, {"type": "way", "id": 788575488, "center": {"lat": 13.5075434, "lon": 39.4705861}, "nodes": [7179525585, 7372627457, 9074626170, 9074626169, 7179525585], "tags": {"addr:street": "Witten Germany Street", "amenity": "hospital", "healthcare": "hospital", "internet_access": "wlan", "name": "\u122a\u121d\u1293 \u1218\u1263\u12a5\u1273\u12ca \u1206\u1235\u1352\u1273\u120d", "name:en": "Rimna primary Hospital near Akusam software hub"}}, {"type": "way", "id": 788575491, "center": {"lat": 10.3236897, "lon": 37.7258938}, "nodes": [7287787285, 7372627481, 7372627482, 7372627483, 7372627484, 7372627485, 7372627486, 7372627487, 7372627488, 7372627489, 7287787285], "tags": {"amenity": "hospital", "healthcare": "hospital", "name": "\u12f0\u1265\u1228 \u121b\u122d\u1246\u1235 \u122a\u1348\u122b\u120d \u1206\u1235\u1352\u1273\u120d", "name:en": "Debre Markos Referal Hospita"}}, {"type": "way", "id": 788771054, "center": {"lat": 15.6662172, "lon": 32.482228}, "nodes": [7039296183, 7374377959, 7374377960, 7374377961, 7039296183], "tags": {"amenity": "hospital", "healthcare": "hospital", "name": "\u0645\u0633\u062a\u0634\u0641\u0649 \u0627\u0644\u0646\u062f\u0649"}}, {"type": "way", "id": 788772153, "center": {"lat": 15.5929911, "lon": 32.4607928}, "nodes": [7039337963, 7374316371, 7374316372, 7374316373, 7039337963], "tags": {"amenity": "hospital", "healthcare": "hospital", "name": "\u0645\u0633\u062a\u0634\u0641\u0649 \u0627\u0644\u0627\u0645\u0627\u0645 \u0639\u0628\u062f \u0627\u0644\u0631\u062d\u0645\u0646 \u0627\u0644\u0645\u0647\u062f\u064a", "name:tr": "\u0130mam Abd al-Rahman al-Mehdi Hastanesi"}}, {"type": "way", "id": 788772540, "center": {"lat": 15.6673941, "lon": 32.4542008}, "nodes": [7039337968, 7374379986, 7374379987, 7374379988, 7039337968], "tags": {"amenity": "hospital", "healthcare": "hospital", "name": "\u0645\u0633\u062a\u0634\u0641\u0649 \u0627\u0644\u0642\u0648\u0635\u064a"}}, {"type": "way", "id": 788772842, "center": {"lat": 15.6240431, "lon": 32.5512035}, "nodes": [7039337969, 7374377229, 11234281868, 7374377230, 7374377231, 7039337969], "tags": {"addr:city": "\u0627\u0644\u062e\u0631\u0637\u0648\u0645", "addr:street": "\u0634\u0627\u0631\u0639 \u0627\u0644\u062d\u0627\u062c \u064a\u0648\u0633\u0641", "amenity": "hospital", "emergency": "yes", "healthcare": "hospital", "healthcare:speciality": "general", "is_in:country": "Sudan", "is_in:country_code": "SD", "name": "\u0645\u0633\u062a\u0634\u0641\u0649 \u0628\u062d\u0631\u064a \u0627\u0644\u0639\u0633\u0643\u0631\u064a", "operator": "corporation", "operator:type": "government"}}, {"type": "way", "id": 788773933, "center": {"lat": 15.6488064, "lon": 32.3692212}, "nodes": [7039368454, 7374349622, 7374349623, 7374349624, 7039368454], "tags": {"amenity": "hospital", "healthcare": "hospital", "name": "\u0645\u0633\u062a\u0634\u0641\u0649 \u0627\u0644\u0631\u0627\u062c\u062d\u064a"}}, {"type": "way", "id": 788774552, "center": {"lat": 15.606476, "lon": 32.5789986}, "nodes": [7039368455, 7374385577, 7374385578, 7374385579, 7039368455], "tags": {"amenity": "hospital", "healthcare": "hospital", "name": "\u0645\u0633\u062a\u0634\u0641\u0649 \u0627\u0644\u0634\u0631\u064a\u0641 \u0644\u0644\u0627\u0645\u0631\u0627\u0636 \u0627\u0644\u0646\u0641\u0633\u064a\u0629"}}, {"type": "way", "id": 788774705, "center": {"lat": 15.638622, "lon": 32.6074307}, "nodes": [7039411235, 7374394794, 7374394795, 7374394796, 7039411235], "tags": {"amenity": "hospital", "healthcare": "hospital", "name": "\u0645\u0633\u062a\u0634\u0641\u0649 \u0639\u0628\u0627\u062f\u0629 \u0639\u0628\u062f \u0627\u0644\u0644\u0647"}}, {"type": "way", "id": 788776366, "center": {"lat": 15.6243165, "lon": 32.4184673}, "nodes": [7039411237, 7374410762, 7374410763, 7374410764, 7039411237], "tags": {"amenity": "hospital", "healthcare": "hospital", "name": "\u0645\u0633\u062a\u0634\u0641\u0649 \u0627\u0644\u0646\u0647\u0636\u0629"}}, {"type": "way", "id": 788776474, "center": {"lat": 15.6895871, "lon": 32.5550208}, "nodes": [7039439574, 7374410765, 7374410766, 7374410767, 7039439574], "tags": {"amenity": "hospital", "healthcare": "hospital", "name": "\u0645\u062c\u0645\u0639 \u0627\u0633 \u062f\u064a \u0627\u0644\u0637\u0628\u064a"}}, {"type": "way", "id": 788777146, "center": {"lat": 15.6639403, "lon": 32.418065}, "nodes": [7039439575, 7374409720, 7374409721, 7374409722, 7039439575], "tags": {"amenity": "hospital", "healthcare": "hospital", "name": "\u0645\u0633\u062a\u0634\u0641\u0649 \u0627\u0644\u0627\u0645 \u0648 \u0627\u0644\u0637\u0641\u0644 \u062c\u0627\u064a\u0643\u0627"}}, {"type": "way", "id": 788777811, "center": {"lat": 15.5537408, "lon": 32.5463096}, "nodes": [7039439577, 7374390017, 7374390018, 7374390019, 7039439577], "tags": {"amenity": "hospital", "healthcare": "hospital", "name": "\u0645\u0631\u0643\u0632 \u0627\u0644\u0633\u0648\u062f\u0627\u0646 \u0644\u0644\u0639\u064a\u0648\u0646"}}, {"type": "way", "id": 788778202, "center": {"lat": 15.5729356, "lon": 32.5775375}, "nodes": [7039439578, 7374403269, 7374403270, 7374403271, 7039439578], "tags": {"amenity": "hospital", "healthcare": "hospital", "name": "\u0645\u0633\u062a\u0634\u0641\u0649 \u062c\u0631\u0634"}}, {"type": "way", "id": 788779298, "center": {"lat": 15.6110327, "lon": 32.6197194}, "nodes": [7039439579, 7374438027, 7374438028, 7374438029, 7374438030, 7039439579], "tags": {"amenity": "hospital", "healthcare": "hospital", "name": "\u0645\u0631\u0643\u0632 \u062c\u0645\u0627\u0646\u0629 \u0644\u0637\u0628 \u0627\u0644\u0627\u0633\u0646\u0627\u0646"}}, {"type": "way", "id": 788779536, "center": {"lat": 15.6554835, "lon": 32.6134966}, "nodes": [7040091876, 7374429446, 7374429447, 7374429448, 7040091876], "tags": {"amenity": "hospital", "healthcare": "hospital", "name": "\u0645\u0633\u062a\u0648\u0635\u0641 \u0643\u0627\u0641\u0648\u0631\u064a \u0634\u0631\u0642"}}, {"type": "way", "id": 788779662, "center": {"lat": 15.5096957, "lon": 32.6631148}, "nodes": [7040091878, 7374453485, 7374453486, 7374453487, 7040091878], "tags": {"amenity": "hospital", "healthcare": "hospital", "name": "\u0645\u0633\u062a\u0634\u0641\u0649 \u0627\u0644\u0633\u0644\u0627\u0645 \u0644\u0627\u0645\u0631\u0627\u0636 \u0627\u0644\u0642\u0644\u0628"}}, {"type": "way", "id": 788779885, "center": {"lat": 15.6878242, "lon": 32.4516224}, "nodes": [7040458716, 7374434991, 7374434992, 7374434993, 7040458716], "tags": {"amenity": "hospital", "healthcare": "hospital", "name": "\u0645\u0633\u062a\u0634\u0641\u0649 \u0634\u0641\u0627\u0621 \u0627\u0644\u0639\u0644\u064a\u0644"}}, {"type": "way", "id": 788780380, "center": {"lat": 15.6913419, "lon": 32.4764989}, "nodes": [7040458717, 7374431028, 7374431029, 7374431030, 7040458717], "tags": {"amenity": "hospital", "healthcare": "hospital", "name": "\u0645\u0631\u0643\u0632 \u0627\u0644\u0631\u0648\u0645\u064a \u0627\u0644\u0637\u0628\u064a"}}, {"type": "way", "id": 788784197, "center": {"lat": 15.7478891, "lon": 32.5237182}, "nodes": [7040696083, 7374487434, 7374487435, 7374487436, 7040696083], "tags": {"amenity": "hospital", "healthcare": "hospital", "name": "\u0645\u0633\u062a\u0634\u0641\u0649 \u0627\u0644\u062c\u0645\u0648\u0639\u064a\u0629"}}, {"type": "way", "id": 788784649, "center": {"lat": 15.7523292, "lon": 32.5242983}, "nodes": [7040704988, 7374505368, 7374505369, 7374505370, 7040704988], "tags": {"amenity": "hospital", "healthcare": "hospital", "name": "\u0645\u0631\u0643\u0632 \u0627\u0644\u0633\u0644\u0627\u0645 \u0627\u0644\u0637\u0628\u064a"}}, {"type": "way", "id": 788785181, "center": {"lat": 15.683337, "lon": 32.4999078}, "nodes": [7040720576, 7374509506, 7374509507, 7374509508, 7040720576], "tags": {"amenity": "hospital", "healthcare": "hospital", "healthcare:speciality": "paediatrics", "name": "\u0639\u064a\u0627\u062f\u0629 \u062e\u0644\u064a\u0644 \u0644\u0644\u0627\u0637\u0641\u0627\u0644", "name:ar": "\u0639\u064a\u0627\u062f\u0629 \u062e\u0644\u064a\u0644 \u0644\u0644\u0627\u0637\u0641\u0627\u0644"}}, {"type": "way", "id": 788786284, "center": {"lat": 15.6791846, "lon": 32.4368903}, "nodes": [7040720578, 7374517650, 7374517651, 7374517652, 7040720578], "tags": {"amenity": "hospital", "healthcare": "hospital", "name": "\u0645\u0633\u062a\u0634\u0641\u0649 \u0627\u0644\u0635\u0627\u0644\u062d\u064a\u0646"}}, {"type": "way", "id": 788786725, "center": {"lat": 15.6611994, "lon": 32.549332}, "nodes": [7040720579, 7374531780, 7374531781, 7374531782, 7040720579], "tags": {"amenity": "hospital", "healthcare": "hospital", "name": "\u0645\u0631\u0643\u0632 \u0646\u0648\u0631 \u0627\u0644\u0647\u062f\u064a \u0644\u0644\u0639\u0644\u0627\u062c \u0648 \u0627\u0644\u062a\u0627\u0647\u064a\u0644"}}, {"type": "way", "id": 788786939, "center": {"lat": 15.7647254, "lon": 32.5836327}, "nodes": [7040720580, 7374533028, 7374533029, 7374533030, 7040720580], "tags": {"amenity": "hospital", "healthcare": "hospital", "name": "\u0645\u0633\u062a\u0634\u0641\u0649 \u0627\u0644\u0634\u0647\u064a\u062f \u0627\u0644\u0645\u0639\u0632 \u0627\u0644\u0639\u0628\u0627\u062f\u064a"}}, {"type": "way", "id": 788787440, "center": {"lat": 15.4809034, "lon": 32.4827538}, "nodes": [7044817264, 7374530732, 7374530733, 7374530734, 7044817264], "tags": {"amenity": "hospital", "healthcare": "hospital", "name": "\u0645\u0633\u062a\u0634\u0641\u0649 \u0645\u0643\u0629 \u0644\u0637\u0628 \u0627\u0644\u0639\u064a\u0648\u0646"}}, {"type": "way", "id": 788787807, "center": {"lat": 15.8046879, "lon": 32.5897011}, "nodes": [7050332794, 7374529933, 7374529934, 7374529935, 7050332794], "tags": {"amenity": "hospital", "healthcare": "hospital", "name": "\u0645\u0631\u0643\u0632 \u0635\u062d\u064a \u0627\u0644\u062e\u0645\u062c\u0627\u0628 \u0648\u0627\u0644\u062a\u0628\u0646\u0629"}}, {"type": "way", "id": 788788236, "center": {"lat": 15.4811851, "lon": 32.4827341}, "nodes": [7066415795, 7374492447, 7374492448, 7374492449, 7066415795], "tags": {"amenity": "hospital", "healthcare": "hospital", "name": "\u0645\u0633\u062a\u0634\u0641\u0649 \u0645\u0643\u0629 \u0644\u0644\u0639\u064a\u0648\u0646 - \u0627\u0644\u0643\u0644\u0627\u0643\u0644\u0629"}}, {"type": "way", "id": 788790306, "center": {"lat": 15.4212854, "lon": 32.4935178}, "nodes": [7066523705, 7374517664, 7374517665, 7374517666, 7066523705], "tags": {"amenity": "hospital", "healthcare": "hospital", "name": "\u0645\u0631\u0643\u0632 \u0627\u0645 \u0639\u0634\u0631 \u0627\u0644\u0635\u062d\u064a"}}, {"type": "way", "id": 788790484, "center": {"lat": 15.4313319, "lon": 32.5080478}, "nodes": [7066582009, 7374583192, 7374583193, 7374583194, 7066582009], "tags": {"amenity": "hospital", "healthcare": "hospital", "name": "\u0645\u0633\u062a\u0634\u0641\u0649 \u0627\u0644\u0627\u062d\u062a\u064a\u0627\u0637\u064a \u0627\u0644\u0645\u0631\u0643\u0632\u064a"}}, {"type": "way", "id": 788790588, "center": {"lat": 15.4424805, "lon": 32.5396968}, "nodes": [7066589666, 7374574939, 7374574940, 7374574941, 7066589666], "tags": {"amenity": "hospital", "healthcare": "hospital", "name": "\u0645\u0631\u0643\u0632 \u0627\u0644\u0627\u0645\u0644 \u0627\u0644\u0635\u062d\u064a"}}, {"type": "way", "id": 788790908, "center": {"lat": 14.4722112, "lon": 33.2470902}, "nodes": [7075557015, 7374584009, 7374584010, 7374584011, 7075557015], "tags": {"addr:city": "\u0642\u0631\u064a\u0629 \u0646\u062c\u0631\u0648", "amenity": "hospital", "description": "\u0645\u0631\u0643\u0632 \u0642\u0631\u064a\u0629 \u0646\u062c\u0631\u0648 \u0628\u0646\u064a \u0643\u0630\u0644\u0643 \u0628\u0648\u0627\u0633\u0637\u0629 \u0645\u0646\u0638\u0645\u0629 \u0627\u0644\u0645\u0648\u062a\u0645\u0631 \u0627\u0644\u0627\u0633\u0644\u0627\u0645\u064a \u0648\u0627\u0644\u062a\u064a \u0643\u0627\u0646 \u0644\u0644\u0627\u062e \u0639\u0645\u0627\u0631 \u0627\u062d\u0645\u062f \u0628\u0627\u0628\u0643\u0631 \u0627\u0644\u0628\u0627\u0639 \u0627\u0644\u0637\u0648\u064a\u0644 \u0641\u064a \u0627\u0644\u0623\u062a\u0635\u0627\u0644 \u0628\u0647\u0630\u0647 \u0627\u0644\u0645\u0646\u0638\u0645\u0629 \u0648\u0627\u0642\u0646\u0627\u0639\u0647\u0627 \u0644\u0639\u0645\u0644 \u0647\u0630\u0627\u0621 \u0627\u0644\u0645\u0633\u062a\u0648\u0635\u0641 \u0646\u0633\u0628\u0629 \u0644\u062d\u0648\u062c\u0629 \u0627\u0644\u0642\u0631\u064a\u0629 \u0648\u0645\u0627 \u062c\u0627\u0648\u0631\u0647\u0627 \u0644\u0645\u062b\u0644 \u0647\u0630\u0627 \u0627\u0644\u0635\u0631\u062d \u0627\u0644\u0637\u0628\u064a \u0627\u0644\u0643\u0628\u064a\u0631.", "ele": "410", "emergency": "yes", "healthcare": "hospital", "healthcare:speciality": "general;chiropractic;gynaecology;ophthalmology;paediatrics;internal;orthopaedics;dermatology;otolaryngology;psychiatry;dentist", "name": "\u0645\u0631\u0643\u0632 \u0635\u062d\u064a \u0642\u0631\u064a\u0629 \u0646\u062c\u0631\u0648", "operator": "\u0648\u0644\u0627\u064a\u0629 \u0627\u0644\u062c\u0632\u064a\u0631\u0629", "operator:type": "public", "source": "survey;local knowledge;aerial imagery;gps;streetlevel imagery", "website": "https://nagaroo.wordpress.com/%D9%86%D8%AC%D8%B1%D9%88-%D9%81%D9%8A-%D8%B3%D8%B7%D9%88%D8%B1/", "wikidata": "Q76631638"}}, {"type": "way", "id": 788791179, "center": {"lat": 15.5141812, "lon": 32.5925113}, "nodes": [7095722779, 7374581453, 7374581454, 7374581455, 7095722779], "tags": {"amenity": "hospital", "healthcare": "hospital", "name": "\u0645\u0633\u062a\u0634\u0641\u0649 \u062c\u0627\u0645\u0639\u0629 \u0627\u0644\u0631\u0627\u0632\u064a"}}, {"type": "way", "id": 788792097, "center": {"lat": 15.5411055, "lon": 32.5048084}, "nodes": [7120149469, 7374583062, 7374583063, 7374583064, 7120149469], "tags": {"amenity": "hospital", "healthcare": "hospital", "name": "\u0645\u0633\u062a\u0634\u0641\u0649 \u0627\u0644\u0645\u062f\u0631\u0639\u0627\u062a"}}, {"type": "way", "id": 788792491, "center": {"lat": 15.6646892, "lon": 32.4181493}, "nodes": [7039439575, 7236631389, 7374595460, 7374595461, 2457285982, 7039439575], "tags": {"amenity": "hospital", "healthcare": "hospital", "name": "\u0645\u0633\u062a\u0634\u0641\u0649 \u0627\u0645\u0628\u062f\u0629 \u0627\u0644\u0646\u0645\u0648\u0630\u062c\u064a"}}, {"type": "way", "id": 788792601, "center": {"lat": 15.6442037, "lon": 32.4740604}, "nodes": [7245629521, 7374605735, 7374605736, 7374605737, 7245629521], "tags": {"amenity": "hospital", "healthcare": "hospital", "name": "\u0645\u0631\u0643\u0632 \u0647\u0648\u0627\u0634\u0627 \u0627\u0644\u0637\u0628\u064a - \u0627\u0644\u0639\u0631\u0636\u0629"}}, {"type": "way", "id": 788793005, "center": {"lat": 15.6614485, "lon": 32.4862821}, "nodes": [7252298758, 7374597380, 7374597381, 7374597382, 7252298758], "tags": {"amenity": "hospital", "healthcare": "hospital", "name": "\u0645\u0633\u062a\u0634\u0641\u0649 \u062a\u0628\u0627\u0631\u0643 \u0644\u0644\u0627\u0637\u0641\u0627\u0644"}}, {"type": "way", "id": 788793167, "center": {"lat": 15.6573501, "lon": 32.4859085}, "nodes": [7252300852, 7374616188, 7374616189, 7374616190, 7252300852], "tags": {"amenity": "hospital", "healthcare": "hospital", "name": "\u0645\u0633\u062a\u0634\u0641\u0649 \u0645\u0643\u0629 \u0627\u0644\u062e\u064a\u0631\u064a"}}, {"type": "way", "id": 790417508, "center": {"lat": 15.3131463, "lon": 38.9390662}, "nodes": [6011895586, 7389623603, 7389623604, 9234402927, 7389623606, 7389623607, 7389623608, 7389623609, 7389623610, 7389623611, 6011895586], "tags": {"amenity": "hospital", "healthcare": "hospital", "name": "Halibet Referral Hospital", "name:ar": "kahawta"}}, {"type": "way", "id": 793623293, "center": {"lat": 15.0977622, "lon": 33.2239422}, "nodes": [7423356026, 7423356027, 7423356028, 7423356029, 7423356030, 7423356031, 7423356026], "tags": {"addr:street": "\u0634\u0627\u0631\u0639 \u0627\u0644\u062c\u0632\u0627\u0631\u0647", "amenity": "hospital", "healthcare": "hospital", "healthcare:speciality": "general", "name": "\u0627\u0644\u0645\u0631\u0643\u0632 \u0627\u0644\u0635\u062d\u064a"}}, {"type": "way", "id": 807436299, "center": {"lat": 15.6376832, "lon": 32.5325655}, "nodes": [7550552274, 7550552275, 7550552276, 7550552277, 7550552278, 7550552274], "tags": {"amenity": "hospital", "healthcare": "hospital", "name": "\u0645\u0633\u062a\u0634\u0641\u0649 \u0627\u062d\u0645\u062f \u0642\u0627\u0633\u0645"}}, {"type": "way", "id": 815520727, "center": {"lat": 15.5556108, "lon": 32.6529936}, "nodes": [7616508605, 7616508606, 7616508607, 7616508608, 7616508609, 7616508610, 7616508611, 7616508612, 7616508605], "tags": {"amenity": "hospital", "healthcare": "hospital"}}, {"type": "way", "id": 816240428, "center": {"lat": 14.3167867, "lon": 33.5020138}, "nodes": [7623234580, 7623234581, 7623234582, 7623234583, 7623234580], "tags": {"amenity": "hospital", "healthcare": "hospital", "name": "Alsoriba Health care center"}}, {"type": "way", "id": 818396745, "center": {"lat": 15.8273054, "lon": 38.5376581}, "nodes": [7642906774, 7642906775, 7642906776, 7642906777, 7642906778, 7642906779, 7642906780, 7642906781, 7642906782, 7642906783, 7642906784, 7642940185, 7642940186, 7642940187, 7642940188, 7642940189, 7642906774], "tags": {"amenity": "hospital", "healthcare": "hospital", "name": "Ospedale di Feledarib"}}, {"type": "way", "id": 818455121, "center": {"lat": 14.9291943, "lon": 39.1377415}, "nodes": [7643471914, 7643471915, 7643471916, 7643471917, 7643471918, 7643471919, 7643471920, 7643471914], "tags": {"amenity": "hospital", "healthcare": "hospital", "name": "Ospedale di Engal\u00e0"}}, {"type": "way", "id": 819090721, "center": {"lat": 15.5396938, "lon": 32.5678437}, "nodes": [7649371669, 7649388743, 7649388744, 7649388745, 7649371669], "tags": {"addr:street": "\u0634\u0627\u0631\u0639 \u0639\u0628\u062f \u062e\u062a\u0645", "amenity": "hospital", "healthcare": "hospital", "name": "\u0645\u0633\u062a\u0634\u0641\u0649 \u0627\u0644\u0634\u064a\u062e"}}, {"type": "way", "id": 819091942, "center": {"lat": 15.5571145, "lon": 32.5052524}, "nodes": [7117655403, 7649416620, 7649416621, 7649416622, 7117655403], "tags": {"amenity": "hospital", "healthcare": "hospital", "name": "\u0645\u062f\u064a\u0646\u0629 \u0627\u0644\u062e\u0631\u0637\u0648\u0645 \u0644\u062a\u0646\u0645\u064a\u0629 \u0642\u062f\u0631\u0627\u062a \u0627\u0644\u0627\u0637\u0641\u0627\u0644"}}, {"type": "way", "id": 909709685, "center": {"lat": 15.0973393, "lon": 37.5809734}, "nodes": [2872855997, 2872855998, 2872855999, 2872856000, 8446561894, 8446561895, 8446561880, 8446561881, 8446561882, 8446561883, 2872856203, 8446561885, 2872856204, 9220698733, 8446561862, 2872856205, 8446561870, 8446561871, 2872856206, 2872856207, 2872856208, 8446561853, 8446561852, 8446561851, 8446561850, 2872855978, 2872855979, 2872855980, 2872855981, 2872855982, 2872855983, 8446561847, 2872855984, 2872855985, 2872855986, 2872855987, 2872855988, 2872855990, 9220698734, 2872855991, 2872855992, 2872855993, 2872855994, 2872855995, 2872855996, 2872855997], "tags": {"addr:city": "\u0628\u0627\u0631\u0646\u062a\u0648", "amenity": "hospital", "healthcare": "hospital", "name": "Hospital of Barentu \u0645\u0633\u062a\u0634\u0641\u0649 \u0628\u0627\u0631\u0646\u062a\u0648", "name:ar": "\u0645\u0633\u062a\u0634\u0641\u0649 \u0628\u0627\u0631\u0646\u062a\u0648", "name:en": "Hospital of Barentu"}}, {"type": "way", "id": 917417335, "center": {"lat": 14.9049867, "lon": 38.8219606}, "nodes": [3995644736, 3995644737, 9671066297, 9670978099, 9670978100, 8520896957, 3995644735, 3995644711, 3995644699, 3995644408, 3995644412, 3995643513, 3995643504, 3995643520, 3995644394, 3995644406, 3995644707, 3995644736], "tags": {"amenity": "hospital"}}, {"type": "way", "id": 919232504, "center": {"lat": 13.6381138, "lon": 39.1762416}, "nodes": [8537304672, 8537304671, 8537304670, 8537304669, 8537319963, 8537304672], "tags": {"amenity": "hospital"}}, {"type": "way", "id": 921274076, "center": {"lat": 13.5389933, "lon": 39.0382554}, "nodes": [8553516197, 8553516196, 8553516195, 8553516194, 8553516197], "tags": {"amenity": "hospital", "barrier": "wall"}}, {"type": "way", "id": 926557611, "center": {"lat": 13.6564979, "lon": 38.1579356}, "nodes": [8598077730, 8598077729, 8598077728, 8598077727, 9120096193, 9120096190, 8598077726, 8598077725, 8598077724, 8598077730], "tags": {"amenity": "hospital", "barrier": "fence", "healthcare": "hospital", "name": "Mai-Aini Health Center", "operational_status": "operational", "operator": "ARRA"}}, {"type": "way", "id": 978764158, "center": {"lat": 13.0105594, "lon": 38.1130247}, "nodes": [9056417167, 9056417166, 9056417165, 9056417164, 9056417163, 9056417162, 9056417161, 9056417160, 9056417159, 9056417167], "tags": {"amenity": "hospital", "barrier": "fence", "healthcare": "hospital"}}, {"type": "way", "id": 981597946, "center": {"lat": 13.3693875, "lon": 39.7584808}, "nodes": [9079516417, 9079516416, 9079516415, 9079516414, 9079516417], "tags": {"amenity": "hospital", "barrier": "fence"}}, {"type": "way", "id": 982444992, "center": {"lat": 13.6462012, "lon": 39.7228047}, "nodes": [9085925292, 9085925291, 9085925290, 9085925289, 9085925288, 9085925287, 9085925286, 9085925285, 9085925284, 9085925283, 9085925282, 9085925281, 9085925292], "tags": {"amenity": "hospital", "name": "Kelisha Health Center", "name:en": "Kelisha Health Center", "opening_hours": "Mo-Fr 09:00-17:00"}}, {"type": "way", "id": 986382521, "center": {"lat": 13.5710213, "lon": 38.1381181}, "nodes": [9117856693, 9117856692, 9117856691, 9117856690, 9117856693], "tags": {"amenity": "hospital", "barrier": "fence"}}, {"type": "way", "id": 989366801, "center": {"lat": 14.1948815, "lon": 38.8841309}, "nodes": [9144648550, 9144648549, 9144648548, 9144648547, 9144648546, 9144648545, 9144648544, 9144648543, 9144648542, 9144648541, 9144648540, 9144648539, 9144648538, 9144648537, 9144648536, 9144648535, 9144648534, 9144648533, 9144648532, 9144648531, 9144648530, 9144648529, 9144648550], "tags": {"amenity": "hospital", "name": "Ras Mengesha Yohanis Hospital"}}, {"type": "way", "id": 991300080, "center": {"lat": 13.8652471, "lon": 39.7384823}, "nodes": [9159061410, 9159061409, 9159061408, 9159061407, 9159061406, 9159061410], "tags": {"amenity": "hospital", "barrier": "fence", "name": "Atsbi Hospital"}}, {"type": "way", "id": 996347258, "center": {"lat": 13.3561234, "lon": 37.3782037}, "nodes": [9200272799, 8707113492, 9200272798, 9200272797, 9200272796, 9200272795, 9200272794, 9200272799], "tags": {"amenity": "hospital", "barrier": "fence"}}, {"type": "way", "id": 998689877, "center": {"lat": 14.4029672, "lon": 38.787041}, "nodes": [9220754698, 9220754697, 9220754696, 9220754695, 9220754698], "tags": {"amenity": "hospital", "barrier": "wall", "healthcare": "hospital"}}, {"type": "way", "id": 1000481595, "center": {"lat": 14.0483703, "lon": 39.5870957}, "nodes": [9235015566, 9235015565, 9235015564, 9235015563, 9235015562, 9235015561, 9235015560, 9235015559, 9235015558, 9235015566], "tags": {"amenity": "hospital", "barrier": "fence"}}, {"type": "way", "id": 1001390437, "center": {"lat": 12.5206009, "lon": 39.5117726}, "nodes": [9243086063, 9243086062, 9243086061, 9243086060, 9243086059, 9243086058, 9243086057, 9303724864, 9243086063], "tags": {"amenity": "hospital", "barrier": "fence", "name": "Korem General Hospital"}}, {"type": "way", "id": 1001453946, "center": {"lat": 13.241003, "lon": 39.5206245}, "nodes": [9243558154, 9243558153, 9243558152, 9243558151, 9243558150, 9243558154], "tags": {"amenity": "hospital", "barrier": "fence", "health_facility:type": "health_center", "name": "Adigidem Health Centre"}}, {"type": "way", "id": 1001837691, "center": {"lat": 12.6899163, "lon": 39.6524115}, "nodes": [9246761212, 9246761211, 9246761210, 9246761209, 9246761208, 9246761212], "tags": {"amenity": "hospital", "barrier": "fence"}}, {"type": "way", "id": 1005833715, "center": {"lat": 12.7993973, "lon": 39.6467896}, "nodes": [9280301729, 9280301728, 9280301727, 9280301726, 9280301725, 9280301724, 9280301667, 9280301723, 9280301669, 9280301672, 9280301675, 9280301679, 9280301678, 9280301722, 9280301729], "tags": {"amenity": "hospital", "barrier": "wall"}}, {"type": "way", "id": 1008337483, "center": {"lat": 12.6049135, "lon": 39.5160586}, "nodes": [9302676677, 2704336912, 2704336855, 2704336812, 9302676676, 9302676677], "tags": {"amenity": "hospital", "name": "Hashenge Health Center"}}, {"type": "way", "id": 1010647228, "center": {"lat": 12.4354424, "lon": 38.7167068}, "nodes": [9324421635, 9324421634, 9324969018, 9324421633, 9324421632, 9324421631, 9324421635], "tags": {"amenity": "hospital", "barrier": "wall", "name": "Amde Werq Primary Hospital", "name:en": "Amde Werq Primary Hospital"}}, {"type": "way", "id": 1011014500, "center": {"lat": 12.4058919, "lon": 38.0865439}, "nodes": [9327589929, 9327589928, 9327589927, 9327589926, 9327589925, 9327589924, 9327589923, 9327589929], "tags": {"amenity": "hospital", "barrier": "fence", "name": "Gohala Hospital", "name:en": "Gohala Hospital"}}, {"type": "way", "id": 1011420951, "center": {"lat": 13.1420172, "lon": 37.8926523}, "nodes": [9331761331, 9331761330, 9331761329, 9331761328, 9331761327, 9331761326, 9331761325, 9331761324, 9331761323, 9331761331], "tags": {"amenity": "hospital", "barrier": "fence", "emergency": "yes", "name": "\u12f0\u1263\u122d\u1245 \u1206\u1235\u1352\u1273\u120d", "name:am": "\u12f0\u1263\u122d\u1245 \u1206\u1235\u1352\u1273\u120d", "name:en": "Debark Hospital"}}, {"type": "way", "id": 1011730869, "center": {"lat": 12.7516725, "lon": 37.4112502}, "nodes": [9334542856, 9334542855, 9334491514, 9334542854, 9334542853, 9334542852, 9334542851, 9334542850, 9334542849, 9334542848, 9334542856], "tags": {"amenity": "hospital", "barrier": "fence"}}, {"type": "way", "id": 1013050063, "center": {"lat": 12.7758104, "lon": 36.4126222}, "nodes": [9346276159, 9346276158, 9346266878, 9346276157, 9350182186, 9350185351, 9346276156, 9350185369, 9346276159], "tags": {"amenity": "hospital", "barrier": "fence", "name": "Metema Primary Hospital", "name:en": "Metema Primary Hospital"}}, {"type": "way", "id": 1018805121, "center": {"lat": 11.749496, "lon": 32.8003993}, "nodes": [9396981082, 9396981083, 9396981084, 9396981085, 9396981086, 9396981082], "tags": {"addr:city": "Renk", "amenity": "hospital", "healthcare": "hospital", "name": "Renk County Hospital"}}, {"type": "way", "id": 1019083004, "center": {"lat": 11.6100998, "lon": 32.7252828}, "nodes": [9399706247, 9399706248, 9399706249, 9399706250, 9399706247], "tags": {"addr:city": "Wadakona", "amenity": "hospital", "healthcare": "hospital", "name": "N.H.I.F Primary Health Care Centre"}}, {"type": "way", "id": 1019083005, "center": {"lat": 11.6078153, "lon": 32.7281603}, "nodes": [9399706251, 9399706252, 9399706253, 9399706254, 9399706251], "tags": {"addr:city": "Wadakona", "amenity": "hospital", "emergency": "yes", "healthcare": "hospital", "name": "Wadakon Primary Health Care Centre"}}, {"type": "way", "id": 1019201452, "center": {"lat": 10.4444187, "lon": 32.2013672}, "nodes": [9400504980, 9400504981, 9400504982, 9400504983, 9400504980], "tags": {"amenity": "hospital", "healthcare": "hospital", "name": "Melut County Hospital"}}, {"type": "way", "id": 1019201456, "center": {"lat": 10.4370879, "lon": 32.1897835}, "nodes": [9400504996, 9400504997, 9400504998, 9400504999, 9400504996], "tags": {"amenity": "hospital", "healthcare": "hospital", "name": "Melut Primary Health Care Centre"}}, {"type": "way", "id": 1020479964, "center": {"lat": 13.3800707, "lon": 38.7975459}, "nodes": [9412097399, 9412097398, 9412097397, 9412097396, 9412097399], "tags": {"amenity": "hospital", "barrier": "fence"}}, {"type": "way", "id": 1029271930, "center": {"lat": 11.7353322, "lon": 38.4662394}, "nodes": [9489449369, 9489449368, 9489449367, 9489449366, 9489449365, 9489449291, 9489449364, 9489449363, 9489449362, 9489449361, 9489449369], "tags": {"amenity": "hospital", "barrier": "wall"}}, {"type": "way", "id": 1030952749, "center": {"lat": 10.5587273, "lon": 37.47865}, "nodes": [9502969488, 9502969487, 9502969482, 9502969486, 9502969485, 9502969488], "tags": {"amenity": "hospital", "barrier": "fence"}}, {"type": "way", "id": 1032965251, "center": {"lat": 10.7135958, "lon": 36.4913343}, "nodes": [9517225403, 9517225402, 9517225401, 9517225400, 9517225403], "tags": {"amenity": "hospital", "barrier": "wall", "name": "Zigem Health Center", "name:en": "Zigem Health Center"}}, {"type": "way", "id": 1033250103, "center": {"lat": 10.6891796, "lon": 36.3885768}, "nodes": [9519499508, 9519499507, 9519499506, 9519499505, 9519499508], "tags": {"amenity": "hospital"}}, {"type": "way", "id": 1037934318, "center": {"lat": 10.9647721, "lon": 36.5085648}, "nodes": [9560095996, 9560095995, 9560095994, 9560095993, 9560095831, 9560095992, 9560095996], "tags": {"amenity": "hospital", "barrier": "fence", "healthcare": "hospital"}}, {"type": "way", "id": 1092228772, "center": {"lat": 11.5796552, "lon": 37.3742278}, "nodes": [10003176639, 10003176634, 10003176635, 10003176636, 10003176637, 10003176638, 10003176639], "tags": {"amenity": "hospital", "healthcare": "hospital", "name": "Hospital"}}, {"type": "way", "id": 1092485183, "center": {"lat": 11.5915642, "lon": 37.3283608}, "nodes": [9924868472, 9924868471, 9924868470, 9924868450, 9924868453, 9924868637, 9924868638, 9924868454, 9924868457, 9924868416, 9924868417, 9924868419, 9924868420, 9924868421, 9924868422, 9924868636, 9924868458, 9924868461, 9924868460, 9924868439, 9924868440, 9924868441, 9924868442, 9924868465, 9924868464, 9924868463, 9924868468, 9924868467, 9924868472], "tags": {"amenity": "hospital", "healthcare": "hospital", "name": "Defense Hospital"}}, {"type": "way", "id": 1092889659, "center": {"lat": 11.6954235, "lon": 36.9497587}, "nodes": [10008892387, 10009043057, 10008892388, 10008892389, 10008892390, 10008892391, 10008892392, 10008892387], "tags": {"amenity": "hospital", "healthcare": "hospital", "name": "Liben Town Primary Hospital"}}, {"type": "way", "id": 1098822116, "center": {"lat": 14.2312486, "lon": 32.9853299}, "nodes": [10060939442, 10060939443, 10060939444, 10060939445, 10060939442], "tags": {"amenity": "hospital", "healthcare": "hospital"}}, {"type": "way", "id": 1110328563, "center": {"lat": 10.5563713, "lon": 34.2825819}, "nodes": [10157483233, 10157483234, 10157483235, 10157483236, 10157483237, 10157483238, 10157483239, 10157483240, 10157483233], "tags": {"amenity": "hospital", "healthcare": "hospital", "name": "Al Kurumuk Hospital"}}, {"type": "way", "id": 1181771844, "center": {"lat": 15.6812068, "lon": 32.4810195}, "nodes": [10973886005, 10973886006, 10973886007, 10973886008, 10973886005], "tags": {"amenity": "hospital", "healthcare": "hospital", "name": "\u0645\u0633\u062a\u0634\u0641\u0649 \u0627\u0644\u0628\u0644\u0643 \u0644\u0644\u0623\u0637\u0641\u0627\u0644", "name:en": "Al-Buluk Hospital"}}, {"type": "way", "id": 1183348087, "center": {"lat": 18.0434682, "lon": 30.9554657}, "nodes": [10989038013, 10989038014, 8402799356, 8402799359, 8402799358, 10989038015, 10989038016, 10989038017, 10989038013], "tags": {"amenity": "hospital", "healthcare": "hospital", "name": "\u0645\u0633\u062a\u0634\u0641\u0649 \u0627\u0644\u062f\u0628\u0647", "name:tr": "Al-Dabbah Hastanesi"}}, {"type": "way", "id": 1186677053, "center": {"lat": 15.8041046, "lon": 32.3907327}, "nodes": [2421206150, 2421206121, 2421206124, 2421206152, 2421206150], "tags": {"amenity": "hospital", "healthcare": "hospital", "name": "\u0645\u0633\u062a\u0634\u0641\u0649 \u0627\u0644\u0641\u062a\u062d", "name:ar": "\u0645\u0633\u062a\u0634\u0641\u0649 \u0627\u0644\u0641\u062a\u062d", "name:tr": "Al-Fateh Hastanesi"}}, {"type": "way", "id": 1207549032, "center": {"lat": 11.9349568, "lon": 36.8822658}, "nodes": [11188874759, 11188874760, 11188874761, 11188874762, 11188874759], "tags": {"amenity": "hospital", "healthcare": "hospital"}}, {"type": "relation", "id": 6017767, "center": {"lat": 18.484162, "lon": 31.8388175}, "members": [{"type": "way", "ref": 400967649, "role": "outer"}, {"type": "way", "ref": 400967654, "role": "inner"}], "tags": {"amenity": "hospital", "healthcare": "hospital", "type": "multipolygon"}}, {"type": "relation", "id": 6594771, "center": {"lat": 13.4846609, "lon": 39.5369734}, "members": [{"type": "way", "ref": 410659890, "role": "outer"}, {"type": "way", "ref": 410659897, "role": "outer"}, {"type": "way", "ref": 410659888, "role": "outer"}], "tags": {"addr:street": "Quiha - Enda Gabir Street", "amenity": "hospital", "building": "yes", "healthcare": "hospital", "name:en": "Quiha HEWO Hospital", "type": "multipolygon"}}, {"type": "relation", "id": 12451943, "center": {"lat": 13.6254373, "lon": 38.9903367}, "members": [{"type": "way", "ref": 584838360, "role": "outer"}, {"type": "way", "ref": 917736624, "role": "outer"}], "tags": {"amenity": "hospital", "emergency": "yes", "healthcare": "hospital", "type": "multipolygon"}}, {"type": "relation", "id": 13319603, "center": {"lat": 13.985989, "lon": 39.4317797}, "members": [{"type": "way", "ref": 992257733, "role": "outer"}, {"type": "way", "ref": 992257730, "role": "outer"}], "tags": {"amenity": "hospital", "type": "multipolygon"}}, {"type": "relation", "id": 13370935, "center": {"lat": 13.4002457, "lon": 37.3990099}, "members": [{"type": "way", "ref": 996550289, "role": "outer"}], "tags": {"amenity": "hospital", "type": "multipolygon"}}, {"type": "relation", "id": 13516895, "center": {"lat": 12.7798439, "lon": 39.5415261}, "members": [{"type": "way", "ref": 1009559920, "role": "inner"}, {"type": "way", "ref": 476368170, "role": "outer"}], "tags": {"amenity": "hospital", "name": "\u1208\u121d\u1208\u121d \u12ab\u122d\u120d \u1206\u1235\u1352\u1273\u120d", "name:en": "Lemlem Karl Hospital", "name:ti": "\u1208\u121d\u1208\u121d \u12ab\u122d\u120d \u1206\u1235\u1352\u1273\u120d", "type": "multipolygon"}}, {"type": "relation", "id": 13542545, "center": {"lat": 12.9683057, "lon": 37.7531816}, "members": [{"type": "way", "ref": 1011476760, "role": "outer"}, {"type": "way", "ref": 1011476746, "role": "outer"}], "tags": {"amenity": "hospital", "emergency": "yes", "type": "multipolygon"}}]}