{"version": 0.6, "generator": "Overpass API 0.7.61.5 4133829e", "osm3s": {"timestamp_osm_base": "2023-10-31T20:52:36Z", "copyright": "The data included in this document is from www.openstreetmap.org. The data is made available under ODbL."}, "elements": [{"type": "node", "id": 1960676145, "lat": 15.1280706, "lon": -23.6763497, "tags": {"amenity": "hospital", "name": "Hospital Santiago Norte"}}, {"type": "node", "id": 2229625198, "lat": 17.180185, "lon": -25.0646607, "tags": {"amenity": "hospital", "healthcare": "hospital", "name": "Hospital Regional Dr. Jo\u00e3o Morais"}}, {"type": "node", "id": 2444646397, "lat": 17.1263549, "lon": -25.0477673, "tags": {"addr:city": "Cha de Joao Vaz", "amenity": "hospital", "emergency": "yes", "name": "posto sanitario", "operator": "ministerio de saude"}}, {"type": "node", "id": 2447408052, "lat": 16.5617469, "lon": -24.3573975, "tags": {"amenity": "hospital", "name": "Centro de Sa\u00fade"}}, {"type": "node", "id": 2448091300, "lat": 16.5537613, "lon": -24.0819561, "tags": {"amenity": "hospital"}}, {"type": "node", "id": 2477944574, "lat": 17.1241756, "lon": -25.1612827, "tags": {"amenity": "hospital", "name": "Posto Sanit\u00e1rio da Gar\u00e7a"}}, {"type": "node", "id": 2477970478, "lat": 17.1487008, "lon": -25.01387, "tags": {"amenity": "hospital", "name": "Centro de Sa\u00fade", "operator": "Minist\u00e9rio da Sa\u00fade"}}, {"type": "node", "id": 2504188510, "lat": 17.0921963, "lon": -25.2489402, "tags": {"amenity": "hospital"}}, {"type": "node", "id": 2505173744, "lat": 17.0868568, "lon": -25.1383003, "tags": {"amenity": "hospital"}}, {"type": "node", "id": 2572776875, "lat": 16.615448, "lon": -24.2983825, "tags": {"amenity": "hospital", "healthcare": "hospital"}}, {"type": "node", "id": 3133571271, "lat": 17.0194937, "lon": -25.0657996, "tags": {"amenity": "hospital", "cmt": "02-JUL-13 12:39:54", "designation": "Rehabilitation", "name": "Clinica Reabil", "sym": "Medical Facility"}}, {"type": "node", "id": 3133582540, "lat": 17.020112, "lon": -25.0659562, "tags": {"amenity": "hospital", "cmt": "02-JUL-13 12:43:11", "designation": "Dentist", "name": "Clinica Dentar", "sym": "Medical Facility"}}, {"type": "node", "id": 3284129017, "lat": 16.6425749, "lon": -24.3888585, "tags": {"amenity": "hospital"}}, {"type": "node", "id": 4171948865, "lat": 17.1108041, "lon": -25.0693706, "tags": {"amenity": "hospital", "healthcare": "hospital", "name": "Delega\u00e7\u00e3o Municipal;Posto Sanit\u00e1rio"}}, {"type": "node", "id": 4173228597, "lat": 16.9576083, "lon": -25.3109431, "tags": {"amenity": "hospital", "name": "Posto Sanit\u00e1rio"}}, {"type": "node", "id": 4253271350, "lat": 17.0773321, "lon": -25.1922921, "tags": {"amenity": "hospital"}}, {"type": "node", "id": 4313356978, "lat": 17.1234332, "lon": -25.2029922, "tags": {"amenity": "hospital"}}, {"type": "node", "id": 4596256400, "lat": 17.1024408, "lon": -25.0363655, "tags": {"amenity": "hospital", "name": "Unidade Sanit\u00e1ria de Base"}}, {"type": "node", "id": 4693911434, "lat": 15.0428067, "lon": -24.3393876, "tags": {"amenity": "hospital", "name": "Centro de saude dos Mosteiros"}}, {"type": "node", "id": 4721884199, "lat": 15.1373826, "lon": -23.7595145, "tags": {"amenity": "hospital", "healthcare": "centre", "name": "Posto de Sa\u00fade de Ribeira da Barca"}}, {"type": "node", "id": 4841694321, "lat": 16.6147636, "lon": -24.2987517, "tags": {"amenity": "hospital", "healthcare": "hospital", "name": "Enfermaria Regional de S\u00e3o Nicolau", "name:es": "Enfermer\u00eda Regional de Sao Nicolau", "name:pt": "Enfermaria Regional de S\u00e3o Nicolau"}}, {"type": "node", "id": 5305126414, "lat": 15.1394676, "lon": -23.2125953, "tags": {"addr:street": "Avenida Am\u00edlcar Cabral", "amenity": "hospital", "healthcare": "hospital", "name": "Posto Sanit\u00e1rio \"Entermaria Regional\""}}, {"type": "node", "id": 5306870234, "lat": 15.2473521, "lon": -23.1155787, "tags": {"amenity": "hospital", "healthcare": "hospital", "name": "Posto Sanit\u00e1rio de Pedro Vaz", "phone": "+238 256 20 20"}}, {"type": "node", "id": 5649940421, "lat": 16.8925253, "lon": -24.986631, "tags": {"amenity": "hospital", "healthcare": "hospital", "name": "MEDICENTRO  CLINICA"}}, {"type": "node", "id": 6325872869, "lat": 16.7549029, "lon": -22.9440881, "tags": {"amenity": "hospital", "healthcare": "hospital", "name": "Centro de Sa\u00fade"}}, {"type": "node", "id": 7295530085, "lat": 16.9570067, "lon": -25.3108074, "tags": {"amenity": "hospital", "name": "Posto Sanit\u00e1rio"}}, {"type": "node", "id": 7426734305, "lat": 15.0222969, "lon": -23.5547666, "tags": {"amenity": "hospital", "healthcare": "hospital", "name": "Hospital de S\u00e3o Domingos"}}, {"type": "node", "id": 9084228737, "lat": 16.7557196, "lon": -22.9412735, "tags": {"amenity": "hospital", "healthcare": "hospital", "name": "Clinica Sanida"}}, {"type": "node", "id": 10054158005, "lat": 17.0536367, "lon": -25.182835, "tags": {"amenity": "hospital", "healthcare": "hospital", "name": "Posto Sanit\u00e1rio"}}, {"type": "way", "id": 194252475, "center": {"lat": 14.9203197, "lon": -23.5055219}, "nodes": [6828931959, 2047739146, 6828931960, 6828931958, 2047739138, 2047739150, 2047739154, 2047739156, 2047739151, 2047739157, 2047739159, 9788766782, 6154323566, 9788884549, 6154323565, 6828931959], "tags": {"addr:city": "Praia", "addr:country": "CV", "addr:street": "Rua Borjona de Freitas", "amenity": "hospital", "building": "hospital", "emergency": "yes", "healthcare": "hospital", "name": "Hospital Agostinho Neto", "name:zh": "\u963f\u6208\u65af\u8482\u5c3c\u5965\u00b7\u5185\u56fe\u535a\u58eb"}}, {"type": "way", "id": 194262688, "center": {"lat": 14.8863921, "lon": -24.497448}, "nodes": [2047884217, 5165554227, 1779078552, 2047884213, 2047884209, 2047884199, 5165551780, 9796280348, 9796280345, 1779078571, 2047884217], "tags": {"amenity": "hospital", "area": "yes", "healthcare": "hospital", "wheelchair": "yes"}}, {"type": "way", "id": 236839620, "center": {"lat": 14.9242049, "lon": -23.5084069}, "nodes": [2448069910, 2448069911, 2448069912, 2448069913, 2448069914, 2448069915, 2448069916, 2448069917, 2448069918, 2448069919, 2448069920, 2448069910], "tags": {"addr:city": "Praia", "amenity": "hospital", "building": "yes", "emergency": "no", "healthcare": "hospital", "name": "PMI"}}, {"type": "way", "id": 236852997, "center": {"lat": 16.7487797, "lon": -22.935297}, "nodes": [2448172903, 2448172900, 2448172902, 2448172904, 2448172903], "tags": {"amenity": "hospital", "emergency": "yes", "healthcare": "hospital", "name": "Hospital Ramiro Figueira"}}, {"type": "way", "id": 239654104, "center": {"lat": 14.9605772, "lon": -23.5558048}, "nodes": [2474345733, 2474345736, 2474345738, 2474345741, 2474345744, 2474345746, 2474345748, 2474345750, 2474345733], "tags": {"amenity": "hospital", "building": "yes", "emergency": "no", "name": "Hospital de Trindade, Psicatria"}}, {"type": "way", "id": 413404864, "center": {"lat": 16.957624, "lon": -25.3109459}, "nodes": [4147337348, 4147331203, 4147331204, 4147337351, 4147337348], "tags": {"amenity": "hospital", "building": "hospital", "name": "Posto San\u00e1rio"}}, {"type": "way", "id": 432838772, "center": {"lat": 16.824582, "lon": -25.0603788}, "nodes": [4317923498, 4317923501, 4317923504, 10146896827, 10146896826, 10146896825, 4317923505, 4317923506, 4317923507, 4317923508, 4317923509, 4317923510, 4317923498], "tags": {"amenity": "hospital", "building": "hospital"}}, {"type": "way", "id": 468044721, "center": {"lat": 17.1242395, "lon": -25.1611554}, "nodes": [4625950332, 4625950333, 4625950334, 4625950335, 4625950336, 4625950337, 4625950338, 4625950339, 4625950332], "tags": {"amenity": "hospital", "building": "yes"}}, {"type": "way", "id": 479000251, "center": {"lat": 15.1374898, "lon": -23.7597844}, "nodes": [4721675785, 4721675786, 4721675787, 4721675788, 4721675785], "tags": {"amenity": "hospital", "building": "yes"}}, {"type": "way", "id": 482699649, "center": {"lat": 16.8926347, "lon": -24.9866059}, "nodes": [4755014242, 4755014243, 4755014244, 4755014245, 4755014246, 4755014242], "tags": {"amenity": "hospital", "building": "residential", "healthcare": "hospital", "name": "MEDICENTRO  CLINICA"}}, {"type": "way", "id": 485198875, "center": {"lat": 16.8844996, "lon": -24.9852657}, "nodes": [4779706321, 4756269017, 4779706322, 4779706323, 4742693915, 4756271859, 4756271860, 4166010280, 4756271838, 6416618581, 6416618582, 6453207334, 6453207333, 4742693887, 4779706321], "tags": {"amenity": "hospital", "name": "Hospital Baptista de Sousa"}}, {"type": "way", "id": 531362579, "center": {"lat": 16.1741155, "lon": -22.9112042}, "nodes": [5158135277, 5158135278, 5158135279, 5158135280, 5158135277], "tags": {"amenity": "hospital", "healthcare": "hospital", "name": "Centro de Sa\u00fade da Boavista", "phone": "+238 251 11 67"}}, {"type": "way", "id": 533928878, "center": {"lat": 16.7549298, "lon": -22.9440927}, "nodes": [5179261940, 5179261823, 5179261504, 5179261500, 5179261940], "tags": {"amenity": "hospital", "building": "yes", "healthcare": "hospital", "name": "Centro de Sa\u00fade", "source": "Bing"}}, {"type": "way", "id": 536818255, "center": {"lat": 15.1394028, "lon": -23.2125762}, "nodes": [5199464745, 5199464746, 5199464747, 5199464748, 5199464749, 5199464750, 5199464751, 5199464752, 5199464745], "tags": {"amenity": "hospital", "building": "yes", "healthcare": "hospital", "name": "Posto Sanit\u00e1rio \"Entermaria Regional\""}}, {"type": "way", "id": 543259080, "center": {"lat": 15.2291419, "lon": -23.2115117}, "nodes": [5306850285, 5251730039, 5251730040, 5251730041, 5306850285], "tags": {"amenity": "hospital", "building": "yes", "healthcare": "hospital", "name": "Posto Sanit\u00e1rio"}}, {"type": "way", "id": 543310653, "center": {"lat": 15.2473366, "lon": -23.115587}, "nodes": [5252207857, 5252207858, 5252207859, 5252207860, 5252207857], "tags": {"amenity": "hospital", "building": "yes", "healthcare": "hospital", "name": "Posto Sanit\u00e1rio de Pedro Vaz"}}, {"type": "way", "id": 547305285, "center": {"lat": 17.107005, "lon": -25.2454178}, "nodes": [5288152912, 5288152913, 5288152914, 5288152915, 5288152916, 5288152917, 5288152918, 5288152919, 5288152920, 5288155721, 5288155722, 5288155723, 5288155724, 5288155725, 5288155726, 5288155727, 5288155728, 5288152912], "tags": {"amenity": "hospital", "building": "yes"}}, {"type": "way", "id": 549195188, "center": {"lat": 15.142452, "lon": -23.2103612}, "nodes": [5199445629, 5199445630, 5199445635, 5199445636, 5305152514, 5305152515, 5199445629], "tags": {"amenity": "hospital", "healthcare": "hospital", "name": "Hospital do Maio"}}, {"type": "way", "id": 599176551, "center": {"lat": 17.1801574, "lon": -25.0646425}, "nodes": [5701389218, 5701389219, 5701389220, 5701405521, 9484055978, 9484055979, 9484055980, 5701405522, 5701405523, 5701405525, 5701405526, 5701405527, 5701405528, 5701405529, 5701405530, 5701405531, 5701389218], "tags": {"amenity": "hospital", "building": "yes", "healthcare": "hospital", "name": "Hospital Regional Dr. Jo\u00e3o Morais"}}, {"type": "way", "id": 605007012, "center": {"lat": 17.1206704, "lon": -24.9866772}, "nodes": [5739219554, 5739219555, 9114725167, 9114725172, 5739219556, 5739219557, 5739219554], "tags": {"amenity": "hospital", "healthcare": "hospital", "name": "Centro Sa\u00fade"}}, {"type": "way", "id": 608318941, "center": {"lat": 17.1263031, "lon": -25.0477709}, "nodes": [5763566190, 5763566191, 5763566192, 5763566193, 5763566190], "tags": {"amenity": "hospital", "healthcare": "hospital"}}, {"type": "way", "id": 617833222, "center": {"lat": 16.9569843, "lon": -25.3108053}, "nodes": [5840003075, 5840003076, 5840003077, 5840003078, 5840003075], "tags": {"amenity": "hospital", "building": "yes", "healthcare": "hospital", "name": "Posto Sanit\u00e1rio"}}, {"type": "way", "id": 627428836, "center": {"lat": 17.0213499, "lon": -25.0676803}, "nodes": [5922864601, 5922864602, 5922864603, 5922864604, 5922864605, 5922864606, 5922864607, 5922864601], "tags": {"amenity": "hospital", "healthcare": "hospital", "name": "Centro de Sa\u00fade"}}, {"type": "way", "id": 643175871, "center": {"lat": 17.0773415, "lon": -25.1923309}, "nodes": [6053285296, 6053285297, 6053285298, 6053285299, 6053285296], "tags": {"amenity": "hospital", "building": "yes"}}, {"type": "way", "id": 680744180, "center": {"lat": 16.6147877, "lon": -24.2988414}, "nodes": [6374364364, 6374364357, 6374364366, 6374364367, 11146257068, 11146257080, 6374364364], "tags": {"amenity": "hospital", "building": "hospital", "healthcare": "hospital"}}, {"type": "way", "id": 741983721, "center": {"lat": 15.2776117, "lon": -23.7533515}, "nodes": [6945945466, 6945945467, 6945945468, 6945945469, 6945945470, 6945945471, 6945945466], "tags": {"amenity": "hospital", "healthcare": "hospital"}}, {"type": "way", "id": 747921296, "center": {"lat": 15.1960049, "lon": -23.5988883}, "nodes": [6997417082, 1960735632, 6997417083, 6997417084, 6997417082], "tags": {"amenity": "hospital", "healthcare": "hospital", "name": "Centro de Sa\u00fade de S\u00e3o Miguel"}}, {"type": "way", "id": 783905608, "center": {"lat": 14.9255348, "lon": -23.5682095}, "nodes": [7322176364, 7322176365, 7319130856, 7319130855, 7319130851, 7322176364], "tags": {"amenity": "hospital", "healthcare": "hospital"}}, {"type": "way", "id": 783907671, "center": {"lat": 14.8977761, "lon": -24.4988081}, "nodes": [1960722723, 7322111960, 5426641535, 7322111961, 1960722723], "tags": {"amenity": "hospital", "healthcare": "hospital"}}, {"type": "way", "id": 783907805, "center": {"lat": 17.1263048, "lon": -25.0477709}, "nodes": [5763566190, 7322218269, 5763566192, 5763566193, 5763566190], "tags": {"amenity": "hospital", "healthcare": "hospital", "name": "posto sanitario"}}, {"type": "way", "id": 783908081, "center": {"lat": 16.5617474, "lon": -24.3574385}, "nodes": [7322210601, 7322210602, 7322210603, 7322210604, 7322210601], "tags": {"amenity": "hospital", "healthcare": "hospital", "name": "Centro de Sa\u00fade"}}, {"type": "way", "id": 783908244, "center": {"lat": 16.6134534, "lon": -24.1319451}, "nodes": [6195859160, 2448090445, 6195859146, 6195859145, 6195859143, 6195859157, 6195859160], "tags": {"amenity": "hospital", "healthcare": "hospital"}}, {"type": "way", "id": 783912243, "center": {"lat": 16.5538438, "lon": -24.0820256}, "nodes": [7322208039, 7322208040, 7322208041, 7322208042, 7322208039], "tags": {"amenity": "hospital", "healthcare": "hospital"}}, {"type": "way", "id": 783912313, "center": {"lat": 17.1486839, "lon": -25.013871}, "nodes": [7322201378, 7322201379, 7322201380, 7322201381, 7322201382, 7322201383, 7322201384, 7322255185, 7322255186, 7322255187, 7322201378], "tags": {"amenity": "hospital", "healthcare": "hospital", "name": "Centro de Sa\u00fade"}}, {"type": "way", "id": 783912577, "center": {"lat": 17.0869242, "lon": -25.1382508}, "nodes": [7322234336, 7322234337, 7322234338, 7322234339, 7322234336], "tags": {"amenity": "hospital", "healthcare": "hospital"}}, {"type": "way", "id": 783915738, "center": {"lat": 17.0194499, "lon": -25.065813}, "nodes": [7322256758, 7322256759, 5932089119, 7322256760, 7322256761, 7322256758], "tags": {"amenity": "hospital", "healthcare": "hospital", "name": "Clinica Reabil"}}, {"type": "way", "id": 783915968, "center": {"lat": 17.0201504, "lon": -25.0660126}, "nodes": [7322321814, 7322321815, 7322321816, 5932089151, 5932089150, 7322321814], "tags": {"amenity": "hospital", "healthcare": "hospital", "name": "Clinica Dentar"}}, {"type": "way", "id": 783916111, "center": {"lat": 17.1022509, "lon": -25.0353654}, "nodes": [7322204770, 7322204771, 7322204772, 7322204773, 3561345287, 7322204774, 5818388676, 7322204775, 7322204770], "tags": {"amenity": "hospital", "healthcare": "hospital", "name": "Montanha"}}, {"type": "way", "id": 783916271, "center": {"lat": 16.6425213, "lon": -24.3888673}, "nodes": [7322257023, 7322257024, 7322257025, 7322257026, 7322257027, 7322257028, 7322257029, 7322257030, 7322257031, 7322257023], "tags": {"amenity": "hospital", "healthcare": "hospital"}}, {"type": "way", "id": 783918448, "center": {"lat": 17.1234367, "lon": -25.2030023}, "nodes": [4311515869, 4311515868, 4311515867, 4311515866, 4311515865, 4311515864, 4311515861, 4311515862, 4311515858, 6426777864, 4311515869], "tags": {"amenity": "hospital", "healthcare": "hospital"}}, {"type": "way", "id": 783918973, "center": {"lat": 17.1023306, "lon": -25.0364573}, "nodes": [7322340261, 7322340262, 7322340263, 7322340264, 7322340265, 7322340261], "tags": {"amenity": "hospital", "healthcare": "hospital", "name": "Unidade Sanit\u00e1ria de Base"}}, {"type": "way", "id": 783919016, "center": {"lat": 15.0428158, "lon": -24.3393594}, "nodes": [7322338224, 7322338225, 7322338226, 7322338227, 7322338224], "tags": {"amenity": "hospital", "healthcare": "hospital", "name": "Centro de saude dos Mosteiros"}}, {"type": "way", "id": 1176869417, "center": {"lat": 16.7500508, "lon": -22.9352644}, "nodes": [10933606779, 10933606780, 10933606781, 10933606782, 10933606779], "tags": {"amenity": "hospital", "building": "yes", "healthcare": "hospital"}}]}