{"version": 0.6, "generator": "Overpass API 0.7.61.5 4133829e", "osm3s": {"timestamp_osm_base": "2023-10-31T20:52:36Z", "copyright": "The data included in this document is from www.openstreetmap.org. The data is made available under ODbL."}, "elements": [{"type": "node", "id": 887165850, "lat": 19.0903572, "lon": -104.2933739, "tags": {"amenity": "hospital", "name": "Clinica IMMS Valle"}}, {"type": "node", "id": 1177821882, "lat": 19.4260638, "lon": -102.071614, "tags": {"amenity": "hospital", "healthcare": "hospital", "name": "Hospital Civil"}}, {"type": "node", "id": 1309381060, "lat": 19.2524176, "lon": -103.72372, "tags": {"amenity": "hospital", "healthcare": "hospital", "name": "Clinica No. 11 del IMSS"}}, {"type": "node", "id": 1309381274, "lat": 19.2489708, "lon": -103.726646, "tags": {"amenity": "hospital", "healthcare": "hospital", "name": "Centro Medico de Colima"}}, {"type": "node", "id": 1311148856, "lat": 19.2409997, "lon": -103.7360241, "tags": {"amenity": "hospital", "healthcare": "hospital", "name": "Cl\u00ednica No. 19", "operator": "Instituto Mexicano del Seguro Social", "operator:short": "IMSS", "operator:wikidata": "Q904999"}}, {"type": "node", "id": 1375482843, "lat": 17.6009156, "lon": -101.418858, "tags": {"amenity": "hospital", "emergency": "yes", "name": "CENTRO DE SALUD"}}, {"type": "node", "id": 1431533802, "lat": 19.204225, "lon": -100.1335062, "tags": {"amenity": "hospital", "emergency": "no", "healthcare": "hospital", "name": "Red Cross"}}, {"type": "node", "id": 1659384815, "lat": 19.9779736, "lon": -102.2918189, "tags": {"amenity": "hospital", "emergency": "yes", "name": "IMSS"}}, {"type": "node", "id": 2069080338, "lat": 19.698731, "lon": -101.1763042, "tags": {"amenity": "hospital", "designation": "CAMEDIC", "emergency": "yes", "name": "Camedic", "source": "CAMEDIC"}}, {"type": "node", "id": 2099167524, "lat": 17.6492775, "lon": -101.5480789, "tags": {"amenity": "hospital", "name": "Hospital General"}}, {"type": "node", "id": 2099167533, "lat": 17.6500315, "lon": -101.5434237, "tags": {"amenity": "hospital", "name": "Seguro social Instituto Mexicano"}}, {"type": "node", "id": 2200895506, "lat": 19.191048, "lon": -100.1306213, "tags": {"amenity": "hospital", "healthcare": "hospital", "name": "Maternidad del Lago"}}, {"type": "node", "id": 2200895575, "lat": 19.1957058, "lon": -100.1340794, "tags": {"amenity": "hospital", "healthcare": "hospital", "name": "IMSS"}}, {"type": "node", "id": 2200895582, "lat": 19.1979239, "lon": -100.1299243, "tags": {"addr:city": "Valle de Bravo", "addr:postcode": "51200", "addr:street": "Fco. Gonz\u00e1lez Bocanegra", "amenity": "hospital", "healthcare": "hospital", "name": "Cl\u00ednica San Carlos"}}, {"type": "node", "id": 2200895598, "lat": 19.1849196, "lon": -100.1254588, "tags": {"amenity": "hospital", "healthcare": "hospital", "name": "El Manguito"}}, {"type": "node", "id": 2210736623, "lat": 19.2468213, "lon": -100.0973481, "tags": {"amenity": "hospital", "emergency": "no", "name": "CLINICA"}}, {"type": "node", "id": 2393440169, "lat": 19.1461041, "lon": -102.2195957, "tags": {"amenity": "hospital", "emergency": "yes", "name": "Hospital Municipal"}}, {"type": "node", "id": 2457607436, "lat": 19.8129475, "lon": -101.7878606, "tags": {"addr:city": "Zacapu", "addr:postcode": "58600", "addr:street": "Morelia - Jiquilpan", "amenity": "hospital", "emergency": "yes", "name": "Centro de Salud/ Cruz Roja Zacapu", "wheelchair": "yes"}}, {"type": "node", "id": 2457610059, "lat": 19.8142445, "lon": -101.782082, "tags": {"addr:city": "Zacapu", "addr:housename": "Clinica IMSS Zacapu", "amenity": "hospital", "designation": "CLINICA FAMILIAR IMSS", "emergency": "yes", "name": "IMSS", "wheelchair": "yes"}}, {"type": "node", "id": 2730523847, "lat": 19.392143, "lon": -102.057972, "tags": {"amenity": "hospital", "emergency": "yes", "healthcare": "hospital", "name": "Protecci\u00f3n Civil"}}, {"type": "node", "id": 3118458715, "lat": 19.6958375, "lon": -101.1732184, "tags": {"amenity": "hospital", "name": "Sanatorio de la Luz"}}, {"type": "node", "id": 3127815370, "lat": 19.6821232, "lon": -101.172639, "tags": {"amenity": "hospital", "name": "Memorial"}}, {"type": "node", "id": 3292669782, "lat": 19.7388353, "lon": -101.215388, "tags": {"amenity": "hospital", "name": "Santa Isabel"}}, {"type": "node", "id": 3633028513, "lat": 19.4084122, "lon": -102.056462, "tags": {"amenity": "hospital", "healthcare": "hospital", "name": "Hospital El Angel"}}, {"type": "node", "id": 3633028516, "lat": 19.4119431, "lon": -102.0534, "tags": {"amenity": "hospital", "healthcare": "hospital", "name": "Hospital Fray Juan de San Miguel"}}, {"type": "node", "id": 3663866866, "lat": 19.984681, "lon": -102.2801917, "tags": {"amenity": "hospital", "name": "Hospital San Jos\u00e9"}}, {"type": "node", "id": 4154044593, "lat": 18.8969852, "lon": -100.1478285, "tags": {"amenity": "hospital", "name": "INSTITUTO DE SEGURIDAD SOCIAL"}}, {"type": "node", "id": 4888994862, "lat": 19.3754532, "lon": -103.7081988, "tags": {"addr:city": "Suchitlan, Comala, Colima", "addr:housenumber": "s/n", "addr:postcode": "28459", "addr:street": "Cedro", "amenity": "hospital", "name": "Centro de Salud Suchitlan"}}, {"type": "node", "id": 4962765360, "lat": 19.1123668, "lon": -103.7332911, "tags": {"amenity": "hospital", "name": "Centro de Salud Los Ortices"}}, {"type": "node", "id": 4966718360, "lat": 19.4180687, "lon": -103.7523388, "tags": {"amenity": "hospital", "name": "Centro de Salud El Remudadero", "operator": "Sector Salud"}}, {"type": "node", "id": 4966718379, "lat": 19.4052411, "lon": -103.754021, "tags": {"amenity": "hospital", "healthcare": "hospital", "name": "Centro de Salud Los Colomos"}}, {"type": "node", "id": 5267157699, "lat": 18.354301, "lon": -100.6717437, "tags": {"amenity": "hospital", "healthcare": "hospital", "name": "Hospital General de Sub Zona #19 Emiliano Zapata"}}, {"type": "node", "id": 5283091966, "lat": 18.469824, "lon": -100.5805896, "tags": {"amenity": "hospital", "healthcare": "hospital", "name": "Centro de Salud"}}, {"type": "node", "id": 5355288362, "lat": 19.7384767, "lon": -102.4845061, "tags": {"addr:city": "Ting\u00fcindin", "addr:postcode": "59980", "addr:street": "Ting\u00fcind\u00edn-Tac\u00e1tzcuaro", "amenity": "hospital", "healthcare": "hospital", "name": "Centro de salud"}}, {"type": "node", "id": 5541660338, "lat": 19.2297949, "lon": -102.5861338, "tags": {"amenity": "hospital", "healthcare": "hospital"}}, {"type": "node", "id": 5556728049, "lat": 18.3569629, "lon": -102.2893258, "tags": {"amenity": "hospital", "healthcare": "hospital", "name": "Hospital Arteaga"}}, {"type": "node", "id": 5579486844, "lat": 19.8029098, "lon": -100.1287486, "tags": {"addr:city": "El Oro de Hidalgo", "addr:street": "Calle la Ruleta", "amenity": "hospital", "emergency": "yes", "healthcare": "hospital", "healthcare:speciality": "gynaecology;general;paediatrics;orthopaedics;radiology", "name": "Centro M\u00e9dico El Oro"}}, {"type": "node", "id": 5607560582, "lat": 19.0437767, "lon": -104.319859, "tags": {"amenity": "hospital", "healthcare": "hospital"}}, {"type": "node", "id": 5622304623, "lat": 19.256751, "lon": -100.0119652, "tags": {"amenity": "hospital", "name": "Hospital - IMSS Amanalco"}}, {"type": "node", "id": 5820789218, "lat": 19.8181012, "lon": -101.7881945, "tags": {"addr:city": "Zacapu", "addr:housenumber": "137", "addr:postcode": "58600", "addr:street": "Lic. Justo Mendoza", "amenity": "hospital", "emergency": "yes", "healthcare": "hospital", "healthcare:speciality": "radiology", "name": "DIAGN\u00d3STICO M\u00c9DICO NACIONES UNIDAS"}}, {"type": "node", "id": 5838690498, "lat": 18.9480405, "lon": -103.9009158, "tags": {"amenity": "hospital", "healthcare": "hospital", "name": "Sentro de Salud"}}, {"type": "node", "id": 5891806584, "lat": 18.3557106, "lon": -100.6680248, "tags": {"amenity": "hospital", "healthcare": "hospital", "name": "Hospital Pungarabato"}}, {"type": "node", "id": 5900300385, "lat": 18.3557708, "lon": -100.6607637, "tags": {"amenity": "hospital", "healthcare": "hospital", "name": "Cruz Roja"}}, {"type": "node", "id": 5966916988, "lat": 18.908436, "lon": -100.1522546, "tags": {"amenity": "hospital", "name": "dra amada"}}, {"type": "node", "id": 6169094886, "lat": 19.1886116, "lon": -102.8433972, "tags": {"amenity": "hospital", "name": "Hospital P\u00fablico De Tepalcatepec"}}, {"type": "node", "id": 6405726165, "lat": 17.9896798, "lon": -102.2127793, "tags": {"addr:city": "L\u00e1zaro C\u00e1rdenas", "addr:postcode": "60995", "addr:street": "Puerto Pe\u00f1asco", "amenity": "hospital", "healthcare": "hospital", "healthcare:speciality": "dermatology;anti_edad;Cavitaci\u00f3n", "name": "Clinica Pod Health"}}, {"type": "node", "id": 6789385286, "lat": 19.1001439, "lon": -102.3631895, "tags": {"amenity": "hospital", "name": "ISSTE", "name:es": "ISSSTE"}}, {"type": "node", "id": 7185709210, "lat": 19.1157489, "lon": -104.3448956, "tags": {"amenity": "hospital", "healthcare": "hospital", "name": "Medica Pacifico Hospita\u00f1"}}, {"type": "node", "id": 7235676143, "lat": 19.102551, "lon": -104.3290323, "tags": {"amenity": "hospital", "healthcare": "hospital", "name": "Hospital Echauri"}}, {"type": "node", "id": 7237373528, "lat": 19.0665625, "lon": -104.2988993, "tags": {"amenity": "hospital", "healthcare": "hospital", "name": "Hospital Naval"}}, {"type": "node", "id": 8231958764, "lat": 19.9492509, "lon": -103.7623301, "tags": {"amenity": "hospital", "healthcare": "hospital"}}, {"type": "node", "id": 8283980021, "lat": 19.6890019, "lon": -100.5645596, "tags": {"amenity": "hospital", "healthcare": "hospital", "name": "Sanatorio La Luz"}}, {"type": "node", "id": 8379514896, "lat": 19.6273849, "lon": -103.4207646, "tags": {"amenity": "hospital", "healthcare": "hospital", "name": "Hospital Santa Mar\u00eda"}}, {"type": "node", "id": 8379514897, "lat": 19.6287112, "lon": -103.4135911, "tags": {"amenity": "hospital", "healthcare": "hospital", "name": "I.M.S.S. Zapotiltic"}}, {"type": "node", "id": 8379514898, "lat": 19.6300234, "lon": -103.4193422, "tags": {"amenity": "hospital", "healthcare": "hospital", "name": "Hospital Mariano Escobedo"}}, {"type": "node", "id": 8379514900, "lat": 19.6304413, "lon": -103.4212569, "tags": {"amenity": "hospital", "healthcare": "hospital", "name": "Centro de Salud Zapotiltic"}}, {"type": "node", "id": 8381755305, "lat": 19.5512222, "lon": -103.3739843, "tags": {"amenity": "hospital", "healthcare": "hospital", "name": "Centro Quiropr\u00e1ctico de Occidente"}}, {"type": "node", "id": 8385330984, "lat": 19.7106322, "lon": -103.4624058, "tags": {"amenity": "hospital", "healthcare": "hospital", "name": "Hospital Santa Cecilia"}}, {"type": "node", "id": 8385330985, "lat": 19.7105565, "lon": -103.4627706, "tags": {"amenity": "hospital", "healthcare": "hospital", "name": "Unidad M\u00e9dica Doytravi"}}, {"type": "node", "id": 8388630686, "lat": 19.2383661, "lon": -104.5680192, "tags": {"amenity": "hospital", "healthcare": "hospital", "name": "Hospital Comunitario Cihuatl\u00e1n"}}, {"type": "node", "id": 8695471450, "lat": 19.884462, "lon": -103.5985575, "tags": {"amenity": "hospital", "healthcare": "hospital", "name": "Hospital Santa Mar\u00eda Inmaculada"}}, {"type": "node", "id": 8695471451, "lat": 19.8841523, "lon": -103.5978013, "tags": {"amenity": "hospital", "healthcare": "hospital", "name": "Centro M\u00e9dico DALOO"}}, {"type": "node", "id": 8695471452, "lat": 19.8820381, "lon": -103.5972484, "tags": {"amenity": "hospital", "healthcare": "hospital", "name": "Consultorio M\u00e9dico de Ginecolog\u00eda"}}, {"type": "node", "id": 8695471456, "lat": 19.8806056, "lon": -103.5888189, "tags": {"amenity": "hospital", "healthcare": "hospital", "name": "UMF ISSSTE Sayula"}}, {"type": "node", "id": 8914982591, "lat": 19.5496756, "lon": -104.4779323, "tags": {"amenity": "hospital", "healthcare": "hospital", "name": "CENTRO DE SALUD"}}, {"type": "node", "id": 9733743087, "lat": 19.9593743, "lon": -102.3097956, "tags": {"addr:city": "Jacona", "addr:housenumber": "81", "addr:postcode": "59893", "addr:street": "Calle 20 de Noviembre", "amenity": "hospital", "healthcare": "hospital", "name": "IMSS", "operator": "Instituto Mexicano del Seguro Social", "operator:short": "IMSS", "operator:type": "public", "operator:wikidata": "Q904999", "wheelchair": "yes"}}, {"type": "node", "id": 9858785539, "lat": 19.2483236, "lon": -103.7171027, "tags": {"amenity": "hospital", "healthcare": "hospital", "name": "Jurisdicci\u00f3n Sanitaria 1"}}, {"type": "node", "id": 9957612619, "lat": 19.4431552, "lon": -100.3507648, "tags": {"amenity": "hospital", "healthcare": "hospital", "name": "IMSS", "operator": "Instituto Mexicano del Seguro Social", "operator:short": "IMSS", "operator:wikidata": "Q904999"}}, {"type": "node", "id": 10046684718, "lat": 19.0711191, "lon": -100.2587724, "tags": {"amenity": "hospital", "healthcare": "hospital", "name": "CSRD Vicente Guerrero ISEM"}}, {"type": "node", "id": 11175961137, "lat": 19.6958472, "lon": -101.20023, "tags": {"addr:housenumber": "788", "addr:postcode": "58010", "addr:street": "Calle Cuautla", "amenity": "hospital", "name": "Sanatorio Cuautla"}}, {"type": "way", "id": 177601148, "center": {"lat": 19.6787507, "lon": -101.6159508}, "nodes": [1880248855, 1880248856, 1975928099, 1975928098, 1880248848, 1880248855], "tags": {"amenity": "hospital", "name": "Cl\u00ednica"}}, {"type": "way", "id": 185915678, "center": {"lat": 19.1060553, "lon": -104.3318206}, "nodes": [1966018640, 1966018639, 8344899070, 8344899065, 8344899064, 8344899066, 8344899067, 8344899063, 8344899071, 8344899072, 1966018635, 8344899068, 8344899069, 8612115006, 8612115005, 1966018630, 1966018624, 1966018628, 1966018632, 1966018633, 1966018636, 8345079053, 8345079051, 1966018642, 1966018640], "tags": {"amenity": "hospital", "healthcare": "hospital", "name": "Hospital IMSS"}}, {"type": "way", "id": 185915713, "center": {"lat": 19.1165454, "lon": -104.3275076}, "nodes": [1966018711, 1966018713, 1966018712, 1966018709, 1966018710, 1966018711], "tags": {"amenity": "hospital", "healthcare": "hospital", "name": "Hospital general de Manzanillo"}}, {"type": "way", "id": 188831164, "center": {"lat": 19.2572661, "lon": -103.6898951}, "nodes": [1994529778, 10705375828, 1994529767, 1994529772, 1994529764, 1994529774, 11053885648, 11053885647, 11053885644, 1994529782, 10773968505, 1994529786, 1994529788, 10773968511, 10773968510, 10773968506, 1994529778], "tags": {"addr:city": "Colima", "addr:street": "Camino Real de Colima", "amenity": "hospital", "emergency": "yes", "healthcare": "hospital", "name": "Hospital General Universitario de Colima", "name:es": "Hospital Regional Universitario", "phone": "+52-312-3161902", "website": "https://saludcolima.gob.mx/hospitales/regionaluniversitario/", "wheelchair": "yes"}}, {"type": "way", "id": 189315425, "center": {"lat": 19.3908775, "lon": -102.0225319}, "nodes": [1999575607, 1999575606, 1999575609, 1999575610, 8114596313, 1999575607], "tags": {"addr:postcode": "60157", "addr:street": "Plutarco Elias Calles", "amenity": "hospital", "emergency": "yes", "healthcare": "hospital", "name": "Hospital General Regional \"Dr. Pedro Daniel Mart\u00ednez\"", "wheelchair": "yes"}}, {"type": "way", "id": 199419020, "center": {"lat": 19.4754778, "lon": -103.3031381}, "nodes": [2094184196, 2094184198, 2094184197, 2094184195, 2094184196], "tags": {"amenity": "hospital", "emergency": "yes", "healthcare": "hospital", "name": "IMSS Clinica"}}, {"type": "way", "id": 200351427, "center": {"lat": 19.4780323, "lon": -103.3031184}, "nodes": [2103414742, 2103414739, 2103414755, 2103414738, 2103414742], "tags": {"amenity": "hospital", "emergency": "no", "name": "Centro de Salud"}}, {"type": "way", "id": 200524463, "center": {"lat": 19.5568077, "lon": -103.384657}, "nodes": [2104981143, 2104981144, 2104981142, 2104981146, 2104981143], "tags": {"amenity": "hospital", "name": "IMSS Tuxpan"}}, {"type": "way", "id": 246257908, "center": {"lat": 19.7203197, "lon": -103.4608724}, "nodes": [2533171883, 1244249900, 4827366946, 2533171884, 2533171883], "tags": {"amenity": "hospital", "name": "Instituto Mexicano del Seguro Social"}}, {"type": "way", "id": 257577403, "center": {"lat": 19.4257395, "lon": -100.3594178}, "nodes": [2630704435, 2630702539, 9968432027, 2630702537, 2630702535, 2630704437, 1286494784, 2630704435], "tags": {"addr:city": "Zit\u00e1cuaro", "addr:housenumber": "49", "addr:street": "Avenida Morelia", "amenity": "hospital", "healthcare": "hospital", "name": "Centro de desarrollo comunitario"}}, {"type": "way", "id": 257577465, "center": {"lat": 19.4323918, "lon": -100.3691884}, "nodes": [2630705510, 2630705511, 2630705512, 2630705513, 2630705510], "tags": {"addr:housename": "Hospital General Zitacuaro", "amenity": "hospital", "emergency": "yes", "name": "Hospital General Regional de Zitacuaro"}}, {"type": "way", "id": 259319626, "center": {"lat": 17.9640565, "lon": -102.1993796}, "nodes": [2647189848, 2653605174, 2653605168, 2653605165, 2653605159, 2647189850, 2647189851, 8186896977, 2647189852, 2647189853, 8186896976, 2647189855, 8186896978, 2647189857, 4588501578, 2647189858, 2653605228, 2653605231, 8189940611, 8189940612, 2647189859, 2647189861, 2647189862, 8189940613, 8189940614, 2653599509, 2653599504, 2647189848], "tags": {"amenity": "hospital", "emergency": "yes", "name": "Hospital IMSS"}}, {"type": "way", "id": 260260747, "center": {"lat": 17.9600239, "lon": -102.2048827}, "nodes": [2657367067, 2657367068, 2657367069, 2657367070, 2657367067], "tags": {"amenity": "hospital", "name": "ISSSTE Ricardo Flores Mag\u00f3n"}}, {"type": "way", "id": 260576786, "center": {"lat": 17.9724426, "lon": -102.2126529}, "nodes": [2661009643, 3875530857, 2661009665, 2661009644, 2661009645, 2661009646, 3875530859, 3875530862, 2661009647, 2661009648, 2661009643], "tags": {"amenity": "hospital", "military": "hospital", "name": "Hospital Naval Militar"}}, {"type": "way", "id": 279058419, "center": {"lat": 19.2212577, "lon": -103.7265155}, "nodes": [2833170516, 2833177048, 2833170517, 2833170519, 2833170518, 10754504507, 2833170516], "tags": {"amenity": "hospital", "healthcare": "hospital", "healthcare:speciality": "oncology;dialysis", "name": "Centro Estatal de Cancerolog\u00eda"}}, {"type": "way", "id": 288264071, "center": {"lat": 19.4754206, "lon": -100.4898122}, "nodes": [6841785697, 6841785695, 6841785692, 2918222437, 2918222438, 2918222439, 1820712998, 6841785697], "tags": {"amenity": "hospital", "name": "IMMS"}}, {"type": "way", "id": 288312333, "center": {"lat": 18.9035394, "lon": -100.158129}, "nodes": [2918732567, 2918732568, 2918728100, 2918728099, 2918732569, 2918732570, 2918732567], "tags": {"amenity": "hospital", "name": "Hospital Gral. de Tejupilco", "wheelchair": "yes"}}, {"type": "way", "id": 288398715, "center": {"lat": 19.4581517, "lon": -100.4948821}, "nodes": [6844478989, 2919648518, 2919648519, 2919648520, 2919648521, 2919648515, 6844478990, 6844478989], "tags": {"addr:city": "Jungapeo", "amenity": "hospital", "name": "Centro de Salud"}}, {"type": "way", "id": 288398744, "center": {"lat": 19.4889726, "lon": -100.4843982}, "nodes": [7877201159, 2919648816, 2919648817, 7877201160, 7877201161, 7877201159], "tags": {"amenity": "hospital"}}, {"type": "way", "id": 295952189, "center": {"lat": 19.6995503, "lon": -101.1808653}, "nodes": [2997138882, 5805618565, 5805618566, 5805618564, 2997138882], "tags": {"amenity": "hospital", "name": "Hospital Infantil"}}, {"type": "way", "id": 296784903, "center": {"lat": 19.5554974, "lon": -100.4706395}, "nodes": [3005966263, 3005966264, 3005966265, 3005966257, 3005966256, 3005966259, 3005966260, 3005966261, 3005966262, 3005966266, 3005966263], "tags": {"amenity": "hospital", "healthcare": "hospital", "name": "IMMS"}}, {"type": "way", "id": 298030917, "center": {"lat": 19.7335868, "lon": -101.1045331}, "nodes": [3019471022, 8187050102, 8187009153, 8187009154, 8187009155, 8187009156, 8187009157, 8187009158, 8187009159, 8187009160, 8187009150, 8187009161, 8187009162, 3019471023, 8187050082, 8187009151, 8187050083, 3019471024, 3019471025, 3019471026, 8187009152, 3019471027, 3019471028, 3019471022], "tags": {"amenity": "hospital", "name": "Hospital Regional ISSSTE Morelia"}}, {"type": "way", "id": 298030980, "center": {"lat": 19.7246308, "lon": -101.0928326}, "nodes": [3019472303, 3019472304, 3019472305, 3019472306, 3019472307, 3019472308, 3019472309, 3019472310, 3019472311, 3019472312, 3019472313, 3019472314, 3019472303], "tags": {"amenity": "hospital", "name": "Hospital Regional N\u00b01 IMMS"}}, {"type": "way", "id": 311422960, "center": {"lat": 19.8098543, "lon": -101.7948334}, "nodes": [3170613153, 6612472681, 6562144854, 3170613150, 3170613152, 3170613153], "tags": {"addr:city": "Zacapu", "amenity": "hospital", "emergency": "yes", "name": "Clinica del ISSTE"}}, {"type": "way", "id": 311423429, "center": {"lat": 19.8085416, "lon": -101.7891293}, "nodes": [3170627053, 3170627051, 3170627050, 3170627049, 3170627048, 6612516223, 6612516224, 6612516225, 3751833530, 3170627053], "tags": {"amenity": "hospital", "designation": "Centro m\u00e9dico y especialidades de Zacapu", "emergency": "yes", "name": "Centro m\u00e9dico de Zacapu"}}, {"type": "way", "id": 316478073, "center": {"lat": 19.5948646, "lon": -102.4734598}, "nodes": [3226017820, 8198845173, 8198845174, 3226017821, 8198845165, 3226017822, 3226017823, 3226017824, 3226017825, 3226017826, 3226017827, 3226017828, 3226017820], "tags": {"amenity": "hospital", "name": "IMSS"}}, {"type": "way", "id": 328300620, "center": {"lat": 19.9430254, "lon": -105.2506757}, "nodes": [3351188869, 3351188849, 3351188843, 3351188841, 3351188837, 3351188840, 3351188838, 3351188847, 3351188852, 3351188848, 3351188853, 3351188860, 3351188869], "tags": {"amenity": "hospital", "name": "Hospital de Primer Contacto Tomatlan", "operator": "Secretaria de Salud Jalisco", "operator:type": "public", "wheelchair": "yes"}}, {"type": "way", "id": 358728151, "center": {"lat": 19.5298943, "lon": -101.5735693}, "nodes": [3636125480, 8266590408, 8266590409, 8266590410, 3636125479, 3636125478, 8266590407, 8266590406, 8266590405, 8266607158, 8266590404, 8266590403, 8266590402, 8266590401, 3636125481, 8266590411, 8266590412, 3636125480], "tags": {"amenity": "hospital", "healthcare": "hospital", "name": "Hospital General de P\u00e1tzcuaro"}}, {"type": "way", "id": 376730218, "center": {"lat": 19.5796956, "lon": -105.0883376}, "nodes": [3801222072, 3801222073, 3801222074, 8224258811, 8224258812, 3801222075, 3801222072], "tags": {"amenity": "hospital"}}, {"type": "way", "id": 377696544, "center": {"lat": 18.2739804, "lon": -103.348553}, "nodes": [3810843491, 3810843492, 3810843493, 3810843494, 3810843491], "tags": {"amenity": "hospital"}}, {"type": "way", "id": 378176249, "center": {"lat": 19.3860784, "lon": -104.969722}, "nodes": [3815930124, 3815930125, 3815930126, 3815930127, 3815930124], "tags": {"amenity": "hospital"}}, {"type": "way", "id": 381672522, "center": {"lat": 19.6106624, "lon": -104.4538578}, "nodes": [6350510621, 3848360421, 3848360422, 3848360423, 6350510621], "tags": {"addr:city": "colonia Jardines de San Esteban, La Resolana", "addr:housenumber": "84", "addr:postcode": "48938", "addr:street": "Calle Agust\u00edn Y\u00e1\u00f1ez", "amenity": "hospital", "healthcare": "hospital", "healthcare:speciality": "general", "name": "CASIMIRO CASTILLO"}}, {"type": "way", "id": 398357123, "center": {"lat": 18.5224059, "lon": -100.1618529}, "nodes": [4011218269, 4011218270, 4011218271, 4011218272, 4011218269], "tags": {"amenity": "hospital", "name": "hospitales"}}, {"type": "way", "id": 401292774, "center": {"lat": 19.2508978, "lon": -103.7135289}, "nodes": [8166658835, 8166658834, 8166658833, 8166658832, 8166658836, 8166658827, 8166658826, 8166658828, 8166658829, 8166658838, 8166658837, 8166658830, 8166658831, 8166658835], "tags": {"addr:city": "Colima", "addr:street": "Ignacio Sandoval", "amenity": "hospital", "healthcare": "hospital", "name": "ISSSTE", "operator": "Instituto de Seguridad y Servicios Sociales de los Trabajadores del Estado", "operator:short": "ISSSTE", "operator:wikidata": "Q954557"}}, {"type": "way", "id": 401330452, "center": {"lat": 19.911688, "lon": -100.0146343}, "nodes": [4037715750, 4037715751, 4037715752, 4037715753, 4037715754, 4037715750], "tags": {"amenity": "hospital", "name": "Hospital"}}, {"type": "way", "id": 410359799, "center": {"lat": 18.6525704, "lon": -100.3822777}, "nodes": [4121916489, 4121916490, 4121916491, 4121916492, 4121916489], "tags": {"amenity": "hospital", "name": "ISEM"}}, {"type": "way", "id": 413068744, "center": {"lat": 19.7283929, "lon": -101.1806002}, "nodes": [4177669096, 4177669094, 4177669095, 4177669097, 4177669096], "tags": {"amenity": "hospital", "description": "Clinica familiar del ISSSTE", "name": "Cl\u00ednica familiar ISSSTE", "operator": "ISSSTE"}}, {"type": "way", "id": 442071413, "center": {"lat": 19.1306019, "lon": -100.0661346}, "nodes": [4397622432, 4397622433, 4397622434, 4397622435, 8722019806, 8722019805, 4397622432], "tags": {"amenity": "hospital", "name": "Centro de Salud"}}, {"type": "way", "id": 442074193, "center": {"lat": 19.203138, "lon": -100.1359063}, "nodes": [6253268769, 6253268736, 6253268775, 6253268733, 6253268732, 6253268735, 6253268731, 6253268738, 6253268730, 6253268726, 6253268734, 6253268727, 6253268728, 6253268729, 6253268723, 6253268769], "tags": {"amenity": "hospital", "healthcare": "hospital", "name": "Hospital General"}}, {"type": "way", "id": 460788604, "center": {"lat": 19.6038385, "lon": -102.4751697}, "nodes": [4563927961, 4563927962, 4563927963, 4563927964, 4563927965, 4563927966, 4563927967, 4563927961], "tags": {"amenity": "hospital", "name": "Hospital Regional de Los Reyes"}}, {"type": "way", "id": 460847080, "center": {"lat": 19.5888903, "lon": -102.4613418}, "nodes": [4564447480, 4564447481, 4564447482, 4564447483, 4564447484, 4564447485, 4564447486, 4564447480], "tags": {"amenity": "hospital", "name": "UMF ISSSTE Los Reyes"}}, {"type": "way", "id": 461190714, "center": {"lat": 19.5045863, "lon": -101.6021888}, "nodes": [4567295364, 6903308213, 6903308212, 6903308211, 4567295364], "tags": {"amenity": "hospital", "name": "Centro de Salud P\u00e1tzcuaro"}}, {"type": "way", "id": 461236797, "center": {"lat": 19.5040476, "lon": -101.6208296}, "nodes": [4567706512, 4567706513, 4567706514, 4567706515, 4567706512], "tags": {"amenity": "hospital", "name": "Cl\u00ednica Hospital ISSSTE P\u00e1tzcuaro"}}, {"type": "way", "id": 461947780, "center": {"lat": 19.6990718, "lon": -101.1829837}, "nodes": [4573815164, 4573815165, 4573815166, 4573815167, 4573815168, 4573815169, 4573815170, 4573815171, 4573815164], "tags": {"amenity": "hospital", "name": "Hospital General Doctor Miguel Silva"}}, {"type": "way", "id": 464466014, "center": {"lat": 19.5651212, "lon": -101.4163701}, "nodes": [4595681075, 4595681334, 4595681367, 4595681292, 4595681075], "tags": {"amenity": "hospital", "name": "Centro de Salud Lagunillas"}}, {"type": "way", "id": 464801946, "center": {"lat": 19.4272637, "lon": -102.0558556}, "nodes": [4598743050, 4598743051, 4598743052, 4598743053, 4598743050], "tags": {"amenity": "hospital", "healthcare": "hospital", "name": "IMSS Hospital General de Zona No. 8 Uruapan", "operator": "Instituto Mexicano del Seguro Social", "operator:short": "IMSS", "operator:wikidata": "Q904999"}}, {"type": "way", "id": 464825737, "center": {"lat": 19.692194, "lon": -101.1545648}, "nodes": [4598950517, 4598950518, 8230379166, 8230379165, 8230379164, 8230379169, 8230379170, 8230379171, 4598950519, 8230468850, 8230379174, 8230379172, 4598950520, 8230379173, 4598950533, 4598950532, 8230379162, 8230379163, 4598950531, 8230443075, 4598950530, 4598950524, 8230379175, 8230443073, 8230379176, 8230379177, 4598950525, 8230443072, 4598950526, 4598950527, 4598950528, 4598950529, 8230443061, 8230379167, 8230379168, 4598950517], "tags": {"amenity": "hospital", "name": "Hospital de la Mujer"}}, {"type": "way", "id": 484439642, "center": {"lat": 19.9903598, "lon": -102.2783868}, "nodes": [4771926211, 4771926212, 4771926213, 4771926214, 4771926211], "tags": {"amenity": "hospital", "name": "Hospital General de Zamora"}}, {"type": "way", "id": 485037044, "center": {"lat": 19.0662578, "lon": -102.3212013}, "nodes": [4777932486, 4777932487, 4777932488, 4777932489, 4777932490, 4777932486], "tags": {"amenity": "hospital", "name": "Hospital General de Apatzing\u00e1n"}}, {"type": "way", "id": 486172036, "center": {"lat": 19.6767257, "lon": -100.5153765}, "nodes": [6806298450, 8096150968, 4788638277, 8096097265, 4788638278, 4788638279, 4788638280, 4788638281, 8096150963, 8096097264, 6806298450], "tags": {"amenity": "hospital", "name": "Hospital General de Ciudad Hidalgo"}}, {"type": "way", "id": 486172060, "center": {"lat": 19.6884775, "lon": -100.5529934}, "nodes": [8431639212, 4788638390, 8431639213, 8431639214, 8431639211, 8431639212], "tags": {"amenity": "hospital", "name": "IMSS Unidad de Medicina Familiar No. 19"}}, {"type": "way", "id": 489868754, "center": {"lat": 19.6973181, "lon": -103.4784691}, "nodes": [4820769515, 4820769513, 7906006935, 6481082007, 4820769515], "tags": {"amenity": "hospital", "name": "Hospital Regional Zapotl\u00e1n"}}, {"type": "way", "id": 490133100, "center": {"lat": 19.6848895, "lon": -103.4680067}, "nodes": [4823148465, 4823148466, 4823148467, 4823148468, 4823148469, 8547499999, 4823148471, 8547499994, 4823148465], "tags": {"amenity": "hospital", "name": "Cl\u00ednica Hospital ISSSTE Ciudad Guzm\u00e1n"}}, {"type": "way", "id": 492666547, "center": {"lat": 18.9059382, "lon": -103.8841984}, "nodes": [4846539965, 8527246957, 8527246958, 3799682288, 4846539968, 4846539965], "tags": {"amenity": "hospital", "healthcare": "hospital", "name": "Hospital General de Tecom\u00e1n"}}, {"type": "way", "id": 541633286, "center": {"lat": 19.4079085, "lon": -102.0090912}, "nodes": [5237280540, 5237280599, 5237280533, 5237280526, 5237280559, 5237280567, 5237280540], "tags": {"amenity": "hospital", "healthcare": "hospital", "name": "Unidad M\u00e9dica Familiar 76"}}, {"type": "way", "id": 549165691, "center": {"lat": 18.4728129, "lon": -100.5844108}, "nodes": [5304896759, 5304896760, 5304896761, 5304896762, 5304896763, 5304896764, 5304896759], "tags": {"amenity": "hospital", "healthcare": "hospital", "name": "IMSS"}}, {"type": "way", "id": 550945435, "center": {"lat": 19.6676124, "lon": -101.1985356}, "nodes": [5320870147, 5320870148, 5320870149, 5320870150, 5320870147], "tags": {"amenity": "hospital", "healthcare": "hospital", "name": "Santa Elena"}}, {"type": "way", "id": 563471179, "center": {"lat": 19.2781507, "lon": -103.7519645}, "nodes": [5430011488, 8201079120, 5430011489, 5430011490, 5430011491, 5426855892, 5430011493, 8201064385, 8201079119, 5430011488], "tags": {"amenity": "hospital", "healthcare": "hospital", "healthcare:speciality": "gynaecology;pediatry", "name": "Hospital Materno Infantil"}}, {"type": "way", "id": 563471180, "center": {"lat": 19.2700879, "lon": -103.7604061}, "nodes": [6353134732, 6353134733, 6353134734, 6353134735, 5430011494, 6353134736, 6353134732], "tags": {"amenity": "hospital", "healthcare": "hospital", "name": "HGZ1 IMSS"}}, {"type": "way", "id": 593180990, "center": {"lat": 19.8057541, "lon": -100.8998905}, "nodes": [5659598885, 5659598886, 5659598887, 5659598888, 5659598885], "tags": {"amenity": "hospital", "healthcare": "hospital", "healthcare:speciality": "general", "name": "Enfermeria."}}, {"type": "way", "id": 633068597, "center": {"lat": 17.6463665, "lon": -101.5499085}, "nodes": [5976249185, 8073419639, 5976249186, 5976249187, 5976249188, 5976249185], "tags": {"amenity": "hospital", "healthcare": "hospital", "name": "Cruz Roja"}}, {"type": "way", "id": 664951084, "center": {"lat": 19.0894133, "lon": -104.2945892}, "nodes": [6223969264, 6223969265, 6223969266, 6223969267, 6223969268, 6223969269, 6223969264], "tags": {"amenity": "hospital", "healthcare": "hospital", "name": "ISSSTE"}}, {"type": "way", "id": 665151547, "center": {"lat": 19.0901802, "lon": -104.2933278}, "nodes": [6225770688, 6225770690, 6225770691, 6693344670, 6225770688], "tags": {"amenity": "hospital", "healthcare": "hospital", "name": "Clinica IMSS"}}, {"type": "way", "id": 666163558, "center": {"lat": 19.1114598, "lon": -104.3312606}, "nodes": [6236818865, 6236818866, 6236818867, 6236818868, 6236818865], "tags": {"amenity": "hospital", "healthcare": "rehabilitation", "name": "Centro de Atenci\u00f3n Especializado en Adicciones Bill y Bob AC"}}, {"type": "way", "id": 666163761, "center": {"lat": 19.116211, "lon": -104.3263806}, "nodes": [3804036877, 6236822803, 6236822804, 1966018709, 3804036877], "tags": {"amenity": "hospital", "healthcare": "rehabilitation"}}, {"type": "way", "id": 667827623, "center": {"lat": 19.2070777, "lon": -100.1370221}, "nodes": [6253285805, 6253285804, 6253285803, 6253285811, 6253285815, 6253285825, 6253285807, 6253285824, 6253285800, 6253285802, 6253285805], "tags": {"amenity": "hospital", "name": "Hospital Regional ISSEMyM"}}, {"type": "way", "id": 683460625, "center": {"lat": 19.8142837, "lon": -101.782323}, "nodes": [6401589899, 6453420054, 6592718087, 6453420055, 6453420056, 6592718089, 6592718092, 6592718068, 6592718109, 6401589900, 6592718111, 6592718113, 6592718114, 6401589901, 6453420063, 6401589902, 6401589903, 6401589904, 6592718078, 6592718079, 6401589905, 6401589906, 6453420053, 6401589907, 6592718086, 6401589899], "tags": {"amenity": "hospital", "healthcare": "hospital", "name": "IMSS"}}, {"type": "way", "id": 683630997, "center": {"lat": 19.9843243, "lon": -102.7153345}, "nodes": [4366553933, 8440402368, 4555703441, 4711987555, 4554968814, 4554968813, 4554968812, 8440402362, 4366553933], "tags": {"amenity": "hospital", "healthcare": "hospital"}}, {"type": "way", "id": 687710731, "center": {"lat": 19.4063546, "lon": -101.6426235}, "nodes": [6447046700, 6447046701, 6447046702, 6447046711, 6447046700], "tags": {"amenity": "hospital", "emergency": "no", "name": "centro de salud"}}, {"type": "way", "id": 688039835, "center": {"lat": 19.4096432, "lon": -101.6297812}, "nodes": [6450716918, 6759763468, 8140933027, 6450716919, 6450716920, 6450716918], "tags": {"amenity": "hospital", "name": "IMSS"}}, {"type": "way", "id": 731839586, "center": {"lat": 19.5505467, "lon": -102.3482774}, "nodes": [6853206364, 6853206365, 6853206369, 6853206366, 6853206367, 6853206368, 6853206364], "tags": {"addr:city": "Nuevo Zirosto", "addr:housenumber": "SN", "addr:postcode": "60200", "addr:street": "Calle Olivo", "amenity": "hospital", "healthcare": "hospital", "name": "Centro de Salud", "operator": "IMMS", "operator:type": "government"}}, {"type": "way", "id": 741753448, "center": {"lat": 19.6592702, "lon": -102.3328575}, "nodes": [6943795274, 6943795275, 6943795276, 6943795277, 6943795274], "tags": {"amenity": "hospital", "healthcare": "hospital"}}, {"type": "way", "id": 840415609, "center": {"lat": 19.9177211, "lon": -101.7465926}, "nodes": [7842164685, 7842164686, 7842164687, 7842164688, 7842164685], "tags": {"amenity": "hospital", "healthcare": "hospital", "name": "Centro de Salud Villa Jim\u00e9nez", "operator": "SSA", "operator:type": "government"}}, {"type": "way", "id": 849836440, "center": {"lat": 18.5712542, "lon": -100.3130529}, "nodes": [7928656868, 7928656869, 7928656870, 7928656871, 7928656868], "tags": {"amenity": "hospital", "healthcare": "hospital", "name": "Hospital General San Pedro Lim\u00f3n"}}, {"type": "way", "id": 857830890, "center": {"lat": 19.6788729, "lon": -101.3473329}, "nodes": [7997424295, 7997424382, 7997424425, 7997424465, 7997417567, 7997424308, 7997424350, 7997424295], "tags": {"amenity": "hospital", "healthcare": "hospital"}}, {"type": "way", "id": 868601564, "center": {"lat": 17.9736255, "lon": -102.2245921}, "nodes": [8096429160, 8227853812, 8226846615, 2651238436, 8096429159, 8096429157, 8096476485, 8096429158, 8096476483, 8096429160], "tags": {"amenity": "hospital", "healthcare": "hospital", "name": "IMSS Unidad de Medicina Familiar No.78"}}, {"type": "way", "id": 885228358, "center": {"lat": 19.9494462, "lon": -103.7623233}, "nodes": [8231958765, 8231958766, 8231958767, 8231958768, 8231958769, 8231958770, 8231958771, 8231958772, 8231958773, 8231958774, 8231958775, 8231958776, 8231958777, 8231958778, 8231958779, 8231958780, 8231958781, 8231958782, 8231958783, 8231958765], "tags": {"amenity": "hospital", "emergency": "yes", "healthcare": "clinic", "healthcare:speciality": "general", "name": "Centro de Salud Tapalpa"}}, {"type": "way", "id": 885410120, "center": {"lat": 19.2601271, "lon": -103.7071893}, "nodes": [8233372372, 2647353232, 8233372371, 8233372370, 8233372369, 2647353227, 8248035929, 8233372368, 8248035930, 8248035931, 2647353235, 8233372367, 8248035933, 8248035932, 8233372372], "tags": {"addr:city": "Colima", "addr:housenumber": "1699", "addr:postcode": "28018", "addr:street": "Avenida Ignacio Sandoval", "amenity": "hospital", "emergency": "yes", "healthcare": "hospital", "name": "Hospital Puerta de Hierro Colima", "phone": "+52-312-3162400", "start_date": "2012", "website": "https://hospitalespuertadehierro.com", "wheelchair": "yes"}}, {"type": "way", "id": 889457303, "center": {"lat": 19.6830055, "lon": -101.191611}, "nodes": [8502879868, 8502879874, 8502879867, 581080048, 8269207012, 8269212540, 8269224753, 8269224752, 8269224751, 8269224750, 8269212539, 8269224749, 8269224748, 8269224747, 8269212538, 8269212537, 8269212536, 8269212535, 8269212534, 8269212533, 8269212532, 8502879869, 8502879871, 8502879876, 8502879873, 8502879875, 8502879872, 8502879870, 8502879868], "tags": {"addr:city": "Morelia", "addr:postcode": "58070", "addr:street": "C. Virrey de Mendoza 2000", "amenity": "hospital", "emergency": "yes", "name": "Hospital Star M\u00e9dica Morelia", "wheelchair": "yes"}}, {"type": "way", "id": 891272145, "center": {"lat": 19.6889634, "lon": -100.5648251}, "nodes": [8283980023, 4787117422, 4787117421, 8283980024, 8283980025, 8283980026, 8283980027, 8283980028, 8283980029, 8283980023], "tags": {"amenity": "hospital", "healthcare": "hospital", "name": "Cruz Roja Mexicana"}}, {"type": "way", "id": 925868933, "center": {"lat": 19.0533417, "lon": -104.3038713}, "nodes": [8592366495, 8589120274, 8589120332, 8589120333, 2884812499, 8592366473, 8589120335, 8589120336, 8589120337, 8589120338, 8589120273, 8592366495], "tags": {"amenity": "hospital", "name": "Jurisdiccion Sanitaria No 3"}}, {"type": "way", "id": 931890828, "center": {"lat": 19.2526438, "lon": -103.7236999}, "nodes": [8639214846, 8639214847, 8639214848, 8639214849, 8639214846], "tags": {"amenity": "hospital", "healthcare": "hospital"}}, {"type": "way", "id": 931890830, "center": {"lat": 19.2518547, "lon": -103.7234293}, "nodes": [8639214870, 8639214871, 8639214872, 8639214873, 8639214874, 8639214875, 8639214876, 8639214877, 8639214870], "tags": {"amenity": "hospital", "healthcare": "hospital"}}, {"type": "way", "id": 931890831, "center": {"lat": 19.2518205, "lon": -103.7238928}, "nodes": [8639214878, 8639214879, 8639214880, 8639214881, 8639214878], "tags": {"amenity": "hospital", "healthcare": "hospital"}}, {"type": "way", "id": 931890832, "center": {"lat": 19.2520923, "lon": -103.72421}, "nodes": [8639214882, 8639214887, 8639214883, 8639214884, 8639214885, 8639214882], "tags": {"amenity": "hospital", "healthcare": "hospital"}}, {"type": "way", "id": 938627641, "center": {"lat": 19.8847388, "lon": -103.5891118}, "nodes": [8695456842, 8695456843, 8695456844, 8695456845, 8695456846, 8695456847, 8695456848, 8695456849, 8695456842], "tags": {"amenity": "hospital", "healthcare": "hospital", "name": "I.M.S.S. Cl\u00ednica #62 Sayula"}}, {"type": "way", "id": 938627642, "center": {"lat": 19.8850999, "lon": -103.5904195}, "nodes": [8695456850, 8695456851, 8695456852, 8695456850], "tags": {"amenity": "hospital", "healthcare": "hospital", "name": "Cruz Roja Mexicana Delegaci\u00f3n Sayula"}}, {"type": "way", "id": 964700557, "center": {"lat": 19.3755053, "lon": -103.7083052}, "nodes": [8923353990, 8923353991, 8923353992, 8923353993, 8923353990], "tags": {"addr:city": "Suchitlan, Comala, Colima", "addr:postcode": "28459", "addr:street": "Calle Cedro", "amenity": "hospital", "healthcare": "hospital", "name": "Centro de Salud Suchitl\u00e1n"}}, {"type": "way", "id": 983415680, "center": {"lat": 19.261249, "lon": -103.7064324}, "nodes": [9092735868, 9092735869, 9092735870, 9092735871, 9092735868], "tags": {"addr:city": "Colima", "addr:housenumber": "1801", "addr:postcode": "28018", "addr:street": "Avenida Ignacio Sandoval", "amenity": "hospital", "email": "contacto@hospitalcolima.com", "emergency": "yes", "healthcare": "hospital", "healthcare:speciality": "cardiology;plastic_surgery;surgery;gynaecology;internal;paediatrics;urology;orthopaedics", "name": "Hospital Colima", "phone": "+52-312-3968625", "website": "https://hospitalcolima.com", "wheelchair": "yes"}}, {"type": "way", "id": 1085175165, "center": {"lat": 19.4426806, "lon": -100.355283}, "nodes": [9943351125, 9943351126, 9943351127, 9943351128, 9943351125], "tags": {"addr:city": "Zit\u00e1cuaro", "addr:postcode": "61500", "addr:street": "Calle Doctor Emilio Garc\u00eda Norte", "amenity": "hospital", "healthcare": "hospital", "healthcare:speciality": "general", "name": "Subdelegaci\u00f3n Zit\u00e1cuaro", "operator": "Instituto Mexicano del Seguro Social", "operator:short": "IMSS", "operator:type": "public", "operator:wikidata": "Q904999"}}, {"type": "way", "id": 1098385403, "center": {"lat": 19.663711, "lon": -101.2248577}, "nodes": [10057106359, 7995989072, 10057106360, 10057106361, 10057106362, 10057106359], "tags": {"amenity": "hospital", "healthcare": "hospital", "healthcare:speciality": "salud_mental", "name": "CENTRO TAASM", "operator": "GOBIERNO", "operator:type": "public"}}, {"type": "way", "id": 1151009187, "center": {"lat": 19.2381041, "lon": -103.709942}, "nodes": [10707372044, 10707372045, 10707372046, 10707372047, 10707372044], "tags": {"amenity": "hospital", "healthcare": "hospital", "name": "Cl\u00ednica No. 16", "operator": "Instituto Mexicano del Seguro Social", "operator:short": "IMSS", "operator:wikidata": "Q904999"}}, {"type": "way", "id": 1152512735, "center": {"lat": 19.2520337, "lon": -103.723897}, "nodes": [10719780562, 10719780563, 11069989597, 10719780574, 10719780564, 10719780565, 10719780566, 10719780567, 10719780568, 10719780569, 10719780570, 10719780571, 10719780572, 10719780573, 10719780562], "tags": {"amenity": "hospital", "healthcare": "hospital"}}, {"type": "way", "id": 1152771584, "center": {"lat": 18.9974949, "lon": -103.7362556}, "nodes": [10702113772, 10722240716, 10722240717, 10722240718, 10702113773, 10702113772], "tags": {"amenity": "hospital", "healthcare": "hospital"}}, {"type": "way", "id": 1153585500, "center": {"lat": 19.6287735, "lon": -103.413639}, "nodes": [10728321312, 10728321314, 10728321315, 10728321313, 10728321312], "tags": {"amenity": "hospital", "healthcare": "hospital"}}, {"type": "way", "id": 1180053574, "center": {"lat": 19.2491445, "lon": -103.7265579}, "nodes": [10960115429, 10960115441, 10960115438, 10960115453, 10960115430, 10960115449, 10960115431, 10960115432, 10960115433, 10960115448, 10960115434, 10960115435, 10960115446, 10960115436, 10960115442, 10960115437, 10960115429], "tags": {"amenity": "hospital", "healthcare": "hospital"}}, {"type": "way", "id": 1180100476, "center": {"lat": 19.3250424, "lon": -103.6051542}, "nodes": [10960481316, 10960481317, 10960481318, 10960481319, 10960481316], "tags": {"amenity": "hospital", "healthcare": "hospital", "name": "UMF No. 5", "operator": "Instituto Mexicano del Seguro Social", "operator:short": "IMSS", "operator:wikidata": "Q904999"}}, {"type": "way", "id": 1190897097, "center": {"lat": 19.234065, "lon": -104.5734954}, "nodes": [11057407784, 11057407785, 11057407786, 11057407787, 11057407788, 11057407789, 11057407790, 11057407791, 11057407792, 11057407793, 11057407794, 11057407784], "tags": {"amenity": "hospital", "healthcare": "hospital", "name": "Hospital Comunitario Cihuatl\u00e1n"}}, {"type": "way", "id": 1192147269, "center": {"lat": 19.7039955, "lon": -101.2026023}, "nodes": [11067420031, 11067420032, 11067420033, 11067420034, 11067420035, 11067420036, 11067420037, 11067420038, 11067420031], "tags": {"amenity": "hospital", "healthcare": "hospital"}}, {"type": "relation", "id": 8648858, "center": {"lat": 17.9675585, "lon": -102.2014937}, "members": [{"type": "way", "ref": 259329049, "role": "outer"}, {"type": "way", "ref": 623024224, "role": "inner"}, {"type": "way", "ref": 623024225, "role": "inner"}, {"type": "way", "ref": 623024226, "role": "inner"}], "tags": {"amenity": "hospital", "building": "yes", "name": "Hospital General", "type": "multipolygon"}}, {"type": "relation", "id": 10716237, "center": {"lat": 19.176808, "lon": -100.2189154}, "members": [{"type": "way", "ref": 772798309, "role": "inner"}, {"type": "way", "ref": 772798310, "role": "outer"}], "tags": {"amenity": "hospital", "building": "hospital", "name": "UFM 234", "operator": "IMSS", "type": "multipolygon"}}, {"type": "relation", "id": 12289557, "center": {"lat": 19.6953025, "lon": -101.1792423}, "members": [{"type": "way", "ref": 613592517, "role": "inner"}, {"type": "way", "ref": 905029940, "role": "outer"}], "tags": {"amenity": "hospital", "building": "hospital", "name": "Cruz Roja Mexicana", "type": "multipolygon"}}]}