{"version": 0.6, "generator": "Overpass API 0.7.61.5 4133829e", "osm3s": {"timestamp_osm_base": "2023-10-31T20:54:41Z", "copyright": "The data included in this document is from www.openstreetmap.org. The data is made available under ODbL."}, "elements": [{"type": "node", "id": 475367904, "lat": 29.9660774, "lon": 31.2542684, "tags": {"alt_name": "\u0645\u0633\u062a\u0634\u0641\u0649 \u0645\u0633\u062c\u062f \u0627\u0644\u0641\u062a\u062d", "amenity": "hospital", "name": "\u0645\u0633\u062a\u0634\u0641\u0649 \u0627\u0644\u0641\u062a\u062d \u0627\u0644\u0625\u0633\u0644\u0627\u0645\u064a", "name:ar": "\u0645\u0633\u062a\u0634\u0641\u0649 \u0627\u0644\u0641\u062a\u062d \u0627\u0644\u0625\u0633\u0644\u0627\u0645\u064a", "name:en": "Alfath Islamic Hospital"}}, {"type": "node", "id": 498886460, "lat": 21.5320022, "lon": 39.1781249, "tags": {"amenity": "hospital", "capacity": "371", "emergency": "yes", "name": "New Jeddah hospital"}}, {"type": "node", "id": 517381615, "lat": 28.4883845, "lon": 34.5114594, "tags": {"alt_name": "\u0645\u0633\u062a\u0634\u0641\u0649 \u0630\u0647\u0628 \u0627\u0644\u0625\u062e\u062a\u0635\u0627\u0635\u064a", "amenity": "hospital", "name": "\u0645\u0633\u062a\u0634\u0641\u0649 \u0630\u0647\u0628 \u0627\u0644\u0625\u062e\u062a\u0635\u0627\u0635\u064a", "name:ar": "\u0645\u0633\u062a\u0634\u0641\u0649 \u0630\u0647\u0628 \u0627\u0644\u0625\u062e\u062a\u0635\u0627\u0635\u064a", "name:ar1": "\u0645\u0633\u062a\u0634\u0641\u0649 \u0630\u0647\u0628 \u0627\u0644\u0625\u062e\u062a\u0635\u0627\u0635\u064a", "name:en": "Dahab Specialised Hospital", "name:ru": "\u0414\u0430\u0445\u0430\u0431\u0441\u043a\u0430\u044f \u0441\u043f\u0435\u0446\u0438\u0430\u043b\u0438\u0437\u0438\u0440\u043e\u0432\u0430\u043d\u0430\u044f \u0431\u043e\u043b\u044c\u043d\u0438\u0446\u0430", "operator": "Deco International"}}, {"type": "node", "id": 560598875, "lat": 21.5285939, "lon": 39.1577749, "tags": {"amenity": "hospital", "name": "Saudi American Polyclinic"}}, {"type": "node", "id": 653596105, "lat": 29.8399443, "lon": 31.3229757, "tags": {"amenity": "hospital", "name": "\u0645\u0633\u062a\u0634\u0641\u064a \u0627\u0644\u0646\u0635\u0631", "name:ar": "\u0645\u0633\u062a\u0634\u0641\u064a \u0627\u0644\u0646\u0635\u0631", "name:en": "El nasr"}}, {"type": "node", "id": 1096899963, "lat": 21.6124045, "lon": 39.1694832, "tags": {"amenity": "hospital", "name": "Badruhddin Hospital"}}, {"type": "node", "id": 1493105013, "lat": 25.914816, "lon": 34.4046257, "tags": {"amenity": "hospital"}}, {"type": "node", "id": 1497744277, "lat": 21.5256557, "lon": 39.1678509, "tags": {"addr:street": "Falasteen Street", "amenity": "hospital", "jpoi_id": "100524", "name": "Dr. Soliman Fakeeh Hospital (12,588 patient )", "phone": "+966 12 6655000"}}, {"type": "node", "id": 1887561551, "lat": 24.0827924, "lon": 38.0503628, "tags": {"amenity": "hospital", "name": "\u0645\u0633\u062a\u0634\u0641\u064a \u064a\u0646\u0628\u0639 \u0627\u0644\u0639\u0627\u0645", "name:en": "Yanbu General Hospital", "operator": "MOH"}}, {"type": "node", "id": 1888411221, "lat": 28.0912713, "lon": 30.7643128, "tags": {"amenity": "hospital", "emergency": "no", "healthcare": "hospital", "name": "\u0628\u0646\u0643 \u0627\u0644\u062f\u0645 \u0627\u0644\u0625\u0642\u0644\u064a\u0645\u0649", "name:ar": "\u0628\u0646\u0643 \u0627\u0644\u062f\u0645 \u0627\u0644\u0625\u0642\u0644\u064a\u0645\u0649", "name:en": "Regional Blood Bank"}}, {"type": "node", "id": 1888411228, "lat": 28.0916688, "lon": 30.7645596, "tags": {"amenity": "hospital", "emergency": "no", "healthcare": "hospital", "name": "\u0645\u0639\u0647\u062f \u0627\u0644\u0623\u0648\u0631\u0627\u0645", "name:ar": "\u0645\u0639\u0647\u062f \u0627\u0644\u0623\u0648\u0631\u0627\u0645", "name:en": "Cancer Institute"}}, {"type": "node", "id": 1888411235, "lat": 28.0841913, "lon": 30.7624353, "tags": {"amenity": "hospital", "healthcare": "hospital", "name": "\u0645\u0633\u062a\u0648\u0635\u0641 \u0627\u0644\u062c\u0645\u0639\u064a\u0629 \u0627\u0644\u0634\u0631\u0639\u064a\u0629", "name:ar": "\u0645\u0633\u062a\u0648\u0635\u0641 \u0627\u0644\u062c\u0645\u0639\u064a\u0629 \u0627\u0644\u0634\u0631\u0639\u064a\u0629", "name:en": "Legal Assembly Hospital"}}, {"type": "node", "id": 1888451891, "lat": 28.0965337, "lon": 30.759458, "tags": {"amenity": "hospital", "emergency": "no", "healthcare": "hospital", "name": "\u0645\u0633\u062a\u0634\u0641\u0649 \u0627\u0644\u0645\u0628\u0631\u0629", "name:ar": "\u0645\u0633\u062a\u0634\u0641\u0649 \u0627\u0644\u0645\u0628\u0631\u0629", "name:en": "Al-Mabra Hospital"}}, {"type": "node", "id": 1939482580, "lat": 29.9972489, "lon": 31.2092094, "tags": {"addr:housenumber": "232", "addr:street": "\u0634\u0627\u0631\u0639 \u0635\u0644\u0627\u062d \u0633\u0627\u0644\u0645", "amenity": "hospital", "email": "am2073@gmail.com", "name": "\u0645\u0643\u062a\u0628 \u0634\u0626\u0648\u0646 \u0627\u0644\u0639\u0636\u0648\u064a\u0629 \u0627\u0644\u0646\u0642\u0627\u0628\u0629 \u0627\u0644\u0639\u0627\u0645\u0629 \u0644\u0644\u0628\u0646\u0627\u0621 \u0648\u0627\u0644\u0623\u062e\u0634\u0627\u0628", "name:ar": "\u0645\u0633\u062a\u0634\u0641\u0649 \u0627\u0644\u0645\u0631\u0648\u0629 \u0627\u0644\u062a\u062e\u0635\u0635\u0649", "name:en": "Al-Marwa Specialised Hospital", "opening_hours": "Su-Th 09:00-15:00", "phone": "+201006776555"}}, {"type": "node", "id": 1942660731, "lat": 29.9880191, "lon": 31.2143768, "tags": {"amenity": "hospital", "name": "\u0627\u0644\u062a\u0623\u0645\u064a\u0646 \u0627\u0644\u0635\u062d\u0649", "name:ar": "\u0627\u0644\u062a\u0623\u0645\u064a\u0646 \u0627\u0644\u0635\u062d\u0649", "name:en": "Health Insurance"}}, {"type": "node", "id": 2001022531, "lat": 28.0347708, "lon": 34.4329047, "tags": {"amenity": "hospital", "healthcare": "hospital", "name": "Nabq Dental Clinic"}}, {"type": "node", "id": 2429005805, "lat": 29.3925571, "lon": 34.7926172, "tags": {"amenity": "hospital", "name": "El Wekala Medical Centre"}}, {"type": "node", "id": 2513445265, "lat": 22.2567261, "lon": 39.7898265, "tags": {"amenity": "hospital", "name": "pharmacy / \u0635\u064a\u062f\u0644\u064a\u0629"}}, {"type": "node", "id": 2513449982, "lat": 22.256355, "lon": 39.7909329, "tags": {"amenity": "hospital", "name": "Primary Care Center / \u0645\u0633\u062a\u0648\u0635\u0641 \u0639\u0646\u0627\u064a\u0629 \u0623\u0648\u0644\u064a\u0629"}}, {"type": "node", "id": 2513468928, "lat": 22.3846414, "lon": 39.8227897, "tags": {"amenity": "hospital", "name": "Primary Care Unit / \u0645\u0633\u062a\u0648\u0635\u0641 \u0631\u0639\u0627\u064a\u0629 \u0623\u0648\u0644\u064a\u0629"}}, {"type": "node", "id": 2513474790, "lat": 22.4390289, "lon": 39.8665521, "tags": {"amenity": "hospital", "name": "Primary Care Unit / \u0645\u0633\u062a\u0648\u0635\u0641 \u0627\u0644\u063a\u0631\u064a\u0641"}}, {"type": "node", "id": 2549916507, "lat": 29.9667244, "lon": 30.9337571, "tags": {"amenity": "hospital", "name": "\u062f.\u0645\u062d\u0645\u062f \u0627\u0644\u0628\u0631\u0627\u063a\u0649", "name:ar": "\u062f.\u0645\u062d\u0645\u062f \u0627\u0644\u0628\u0631\u0627\u063a\u0649", "name:en": "Dr.Mohamed El baraghi"}}, {"type": "node", "id": 2550066152, "lat": 29.9730095, "lon": 30.9437865, "tags": {"amenity": "hospital", "emergency": "no", "healthcare": "hospital", "name": "\u0645\u0631\u0643\u0632 \u0627\u0644\u062d\u0635\u0631\u0649 \u0627\u0644\u0635\u062d\u0649", "name:ar": "\u0645\u0631\u0643\u0632 \u0627\u0644\u062d\u0635\u0631\u0649 \u0627\u0644\u0635\u062d\u0649", "name:en": "AL Hosary medical department"}}, {"type": "node", "id": 2706849553, "lat": 21.4099185, "lon": 39.8687185, "tags": {"addr:city": "\u0645\u0643\u0629", "addr:postcode": "24243", "addr:street": "\u0634\u0627\u0631\u0639 \u0627\u0644\u0639\u0632\u064a\u0632\u064a\u0629", "amenity": "hospital", "healthcare": "hospital", "name": "Saudi National Hospital", "name:ar": "\u0627\u0644\u0645\u0633\u062a\u0634\u0641\u0649 \u0627\u0644\u0623\u0647\u0644\u064a \u0627\u0644\u0633\u0639\u0648\u062f\u064a", "name:en": "Saudi National Hospital", "name:tr": "Suudi Ulusal Hastanesi"}}, {"type": "node", "id": 2708673853, "lat": 21.4006061, "lon": 39.7842685, "tags": {"amenity": "hospital", "emergency": "no", "healthcare": "hospital", "name": "\u0645\u0633\u062a\u0648\u0635\u0641 \u0642\u0636\u064a\u0628 \u0627\u0644\u0628\u0627\u0646", "name:ar": "\u0645\u0633\u062a\u0648\u0635\u0641 \u0642\u0636\u064a\u0628 \u0627\u0644\u0628\u0627\u0646"}}, {"type": "node", "id": 2715706846, "lat": 21.423349, "lon": 39.36249, "tags": {"amenity": "hospital", "name": "National Guard Hospital riyadh"}}, {"type": "node", "id": 3250610528, "lat": 24.2853029, "lon": 35.3785817, "tags": {"amenity": "hospital", "contact:phone": "+20 122 190 383", "contact:website": "www.deco-international.com", "healthcare": "hyperbaric_chamber", "name": "Diving clinic"}}, {"type": "node", "id": 3283499836, "lat": 21.5556286, "lon": 39.1271364, "tags": {"amenity": "hospital", "name": "Saudi Airlines Medical Services"}}, {"type": "node", "id": 3283502413, "lat": 21.5538873, "lon": 39.1242282, "tags": {"amenity": "hospital", "name": "Dr. Samir Abbas Hospital"}}, {"type": "node", "id": 3283507122, "lat": 21.6025772, "lon": 39.1201183, "tags": {"amenity": "hospital", "name": "Al Mashfa Hospital"}}, {"type": "node", "id": 3298084039, "lat": 21.627808, "lon": 39.1488723, "tags": {"amenity": "hospital", "name": "Al Amal Hospital", "name:ar": "\u0645\u0633\u062a\u0634\u0641\u064a \u0627\u0644\u0623\u0645\u0644"}}, {"type": "node", "id": 3353710098, "lat": 24.0796435, "lon": 38.0293651, "tags": {"amenity": "hospital", "emergency": "yes"}}, {"type": "node", "id": 3808082022, "lat": 24.4658029, "lon": 39.6101257, "tags": {"amenity": "hospital", "healthcare": "hospital", "name": "Al Safiah Health Centre", "name:ar": "\u0645\u0631\u0643\u0632 \u0635\u062d\u0649 \u0627\u0644\u0635\u0627\u0641\u064a\u0629"}}, {"type": "node", "id": 3966621667, "lat": 29.8599171, "lon": 31.3213395, "tags": {"amenity": "hospital", "name": "\u0645\u0633\u062a\u0634\u0641\u064a \u0627\u0644\u0647\u0644\u0627\u0644 \u0627\u0644\u0623\u062d\u0645\u0631 \u0627\u0644\u0645\u0635\u0631\u064a", "name:ar": "\u0645\u0633\u062a\u0634\u0641\u064a \u0627\u0644\u0647\u0644\u0627\u0644 \u0627\u0644\u0623\u062d\u0645\u0631 \u0627\u0644\u0645\u0635\u0631\u064a"}}, {"type": "node", "id": 3966622155, "lat": 29.3106514, "lon": 30.859477, "tags": {"amenity": "hospital", "healthcare": "hospital", "name": "\u0645\u0633\u062a\u0634\u0641\u064a \u0627\u0644\u062a\u0627\u0645\u064a\u0646 \u0627\u0644\u0635\u062d\u064a \u0628\u0627\u0644\u0641\u064a\u0648\u0645", "name:ar": "\u0645\u0633\u062a\u0634\u0641\u064a \u0627\u0644\u062a\u0627\u0645\u064a\u0646 \u0627\u0644\u0635\u062d\u064a \u0628\u0627\u0644\u0641\u064a\u0648\u0645"}}, {"type": "node", "id": 4030318934, "lat": 26.1181687, "lon": 32.432933, "tags": {"addr:street": "\u0627\u0644\u0635\u0628\u0631\u064a\u0627\u062a", "amenity": "hospital", "name": "\u0627\u0644\u0648\u062d\u062f\u0647 \u0627\u0644\u0635\u062d\u064a\u0629", "name:ar": "\u0627\u0644\u0648\u062d\u062f\u0647 \u0627\u0644\u0635\u062d\u064a\u0629"}}, {"type": "node", "id": 4149935274, "lat": 21.6321066, "lon": 39.2071302, "tags": {"amenity": "hospital", "name": "\u0645\u0631\u0643\u0632\u0635\u062d\u064a \u0627\u0644\u0645\u0631\u0648\u0629"}}, {"type": "node", "id": 4205060297, "lat": 21.5507685, "lon": 39.1949164, "tags": {"addr:street": "Makarunah st. \u0634\u0627\u0631\u0639 \u0627\u0644\u0645\u0643\u0631\u0648\u0646\u0629", "amenity": "hospital", "email": "info@jnhsa.com", "healthcare": "hospital", "opening_hours": "24/7", "phone": "0126710040", "website": "https://www.jnhsa.com/"}}, {"type": "node", "id": 4229667089, "lat": 27.1838228, "lon": 31.1862351, "tags": {"addr:street": "El-Nemes street", "amenity": "hospital", "emergency": "no", "healthcare": "hospital", "name": "Arc Angle Mikhael Hospital"}}, {"type": "node", "id": 4229667090, "lat": 27.1858024, "lon": 31.1866477, "tags": {"amenity": "hospital", "healthcare": "hospital", "name": "El Zerayeen Hospital"}}, {"type": "node", "id": 4229667091, "lat": 27.181769, "lon": 31.1860765, "tags": {"amenity": "hospital", "healthcare": "hospital", "name": "Essam El Shrief El Tkasosy Hospital"}}, {"type": "node", "id": 4229667092, "lat": 27.191093, "lon": 31.1854314, "tags": {"amenity": "hospital", "healthcare": "hospital", "name": "Sant Maria Hospital"}}, {"type": "node", "id": 4229667093, "lat": 27.1887258, "lon": 31.1792153, "tags": {"amenity": "hospital", "healthcare": "hospital", "name": "El Akaad Hospital"}}, {"type": "node", "id": 4229667094, "lat": 27.1885444, "lon": 31.1805005, "tags": {"amenity": "hospital", "healthcare": "hospital", "name": "Dar El Shefaa Hospital"}}, {"type": "node", "id": 4229667095, "lat": 27.1888976, "lon": 31.1812939, "tags": {"amenity": "hospital", "healthcare": "hospital", "name": "El Reda Hospital"}}, {"type": "node", "id": 4229667096, "lat": 27.1888727, "lon": 31.1812136, "tags": {"amenity": "hospital", "healthcare": "hospital", "name": "El Zhraa Hospital"}}, {"type": "node", "id": 4229667098, "lat": 27.1807668, "lon": 31.187412, "tags": {"amenity": "hospital", "healthcare": "hospital", "name": "El Nseem Dr.Trez Mansour Hospital"}}, {"type": "node", "id": 4229667099, "lat": 27.1906049, "lon": 31.1797428, "tags": {"amenity": "hospital", "healthcare": "hospital", "name": "El Hayah Hospital", "name:ar": "\u0645\u0633\u062a\u0634\u0641\u06cc \u0627\u0644\u062d\u064a\u0627\u0629"}}, {"type": "node", "id": 4229667100, "lat": 27.1907612, "lon": 31.1802102, "tags": {"amenity": "hospital", "healthcare": "hospital", "name": "El Safaa Hospital"}}, {"type": "node", "id": 4229667101, "lat": 27.1857479, "lon": 31.1818518, "tags": {"amenity": "hospital", "healthcare": "hospital", "name": "El Aksaa Hospital"}}, {"type": "node", "id": 4229667102, "lat": 27.1968316, "lon": 31.1786987, "tags": {"amenity": "hospital", "name": "El Salama Hospital"}}, {"type": "node", "id": 4229667103, "lat": 27.1933698, "lon": 31.1800197, "tags": {"amenity": "hospital", "healthcare": "hospital", "name": "\u0645\u0633\u062a\u0634\u0641\u0649 \u0627\u0644\u0634\u0631\u0637\u0629", "name:ar": "The Police Hospital"}}, {"type": "node", "id": 4229667104, "lat": 27.1954364, "lon": 31.17658, "tags": {"amenity": "hospital", "healthcare": "hospital", "name": "El Sadr Hospital"}}, {"type": "node", "id": 4229667105, "lat": 27.1953832, "lon": 31.1749665, "tags": {"amenity": "hospital", "healthcare": "hospital", "name": "El Seha El Nafsya Hospital", "name:ar": "\u0645\u0633\u062a\u0634\u0641\u06cc \u0627\u0644\u0635\u062d\u0629 \u0627\u0644\u0646\u0641\u0633\u064a\u0629"}}, {"type": "node", "id": 4229667119, "lat": 27.1931881, "lon": 31.1881692, "tags": {"amenity": "hospital", "healthcare": "hospital", "name": "\u0645\u0633\u062a\u0634\u0641\u0649 \u0627\u0644\u0645\u0628\u0631\u0629", "name:ar": "\u0645\u0633\u062a\u0634\u0641\u0649 \u0627\u0644\u0645\u0628\u0631\u0629", "name:en": "Al Mabara Hospital"}}, {"type": "node", "id": 4229667120, "lat": 27.1848327, "lon": 31.166287, "tags": {"addr:city": "\u0623\u0633\u064a\u0648\u0637", "amenity": "hospital", "healthcare": "hospital", "name": "\u0645\u0633\u062a\u0634\u0641\u06cc \u062c\u0627\u0645\u0639\u0629 \u0623\u0633\u064a\u0648\u0637", "name:ar": "\u0645\u0633\u062a\u0634\u0641\u06cc \u062c\u0627\u0645\u0639\u0629 \u0623\u0633\u064a\u0648\u0637", "name:en": "Asyut University Hospital", "name:es": "Hospital Universitario de Asiut"}}, {"type": "node", "id": 4229667121, "lat": 27.1669352, "lon": 31.1940161, "tags": {"amenity": "hospital", "name": "Nekabet El Moalmen Hospital"}}, {"type": "node", "id": 4229667122, "lat": 27.197229, "lon": 31.1794283, "tags": {"amenity": "hospital", "name": "El Fayrouz Hospital"}}, {"type": "node", "id": 4231062541, "lat": 28.3737652, "lon": 36.5801972, "tags": {"amenity": "hospital", "name": "KKAFH Work"}}, {"type": "node", "id": 4238525990, "lat": 24.0075792, "lon": 38.219241, "tags": {"amenity": "hospital", "name": "Yanbu national hospital", "name:en": "Yanbu national hospital (6,957 patient )"}}, {"type": "node", "id": 4248784931, "lat": 21.5914054, "lon": 39.1537103, "tags": {"amenity": "hospital", "name": "\u0645\u0631\u0643\u0632 \u0635\u062d\u0629 \u0627\u0644\u0633\u0644\u0627\u0645\u0647"}}, {"type": "node", "id": 4277679492, "lat": 21.5862244, "lon": 39.1563231, "tags": {"addr:street": "Mawakib An Nasr", "amenity": "hospital", "name": "\u0645\u0633\u062a\u0648\u0635\u0641"}}, {"type": "node", "id": 4277696289, "lat": 21.5836538, "lon": 39.1542824, "tags": {"amenity": "hospital", "name": "\u0645\u0633\u062a\u0634\u0641\u0649 \u0627\u0644\u0623\u0646\u0635\u0627\u0631", "name:en": "Ansar hospital", "name:fr": "Ansar hospital"}}, {"type": "node", "id": 4316412292, "lat": 21.5842573, "lon": 39.2080678, "tags": {"amenity": "hospital", "healthcare": "hospital", "name": "\u0645\u0633\u062a\u0634\u0641\u0649 \u0627\u0644\u062c\u062f\u0639\u0627\u0646\u064a"}}, {"type": "node", "id": 4316412294, "lat": 21.5429899, "lon": 39.2068981, "tags": {"amenity": "hospital", "healthcare": "hospital", "name": "\u0645\u0633\u062a\u0648\u0635\u0641 \u0634\u0627\u0631 \u0627\u0644\u0637\u0628\u064a"}}, {"type": "node", "id": 4316413890, "lat": 21.6299543, "lon": 39.1875101, "tags": {"amenity": "hospital", "name": "\u0645\u0633\u062a\u0648\u0635\u0641 \u0627\u0644\u0633\u0647\u0644\u064a"}}, {"type": "node", "id": 4316435495, "lat": 21.5587543, "lon": 39.2103131, "tags": {"amenity": "hospital", "healthcare": "hospital", "name": "\u0645\u0633\u062a\u0648\u0635\u0641 \u0627\u0628\u0646 \u0633\u064a\u0646\u0627\u0621 \u0627\u0644\u0637\u0628\u064a"}}, {"type": "node", "id": 4319958593, "lat": 21.5412085, "lon": 39.2094434, "tags": {"amenity": "hospital", "healthcare": "hospital", "name": "Saudi hospittal shara 17eeen", "name:ar": "\u0627\u0644\u0645\u0633\u062a\u0634\u0641\u0649 \u0627\u0644\u0633\u0639\u0648\u062f\u064a"}}, {"type": "node", "id": 4328094091, "lat": 29.8166988, "lon": 31.360749, "tags": {"addr:street": "\u0661\u0665 \u0645\u0627\u064a\u0648 \u0645\u062c\u0627\u0648\u0631\u0629 \u0661\u0662", "amenity": "hospital", "name": "\u0645\u0633\u062a\u0634\u0641\u0649 \u0627\u0644\u062a\u0642\u0648\u0649", "name:ar": "\u0645\u0633\u062a\u0634\u0641\u064a \u0627\u0644\u062a\u0642\u0648\u064a", "name:en": "Altaqwa hospital"}}, {"type": "node", "id": 4340873693, "lat": 21.576128, "lon": 39.179017, "tags": {"amenity": "hospital", "name": "Dr. Erfan Hospital (3,582 patient )", "name:ar": "\u0645\u0633\u062a\u0634\u0641\u0649 \u0639\u0631\u0641\u0627\u0646", "name:en": "Dr. Erfan Hospital"}}, {"type": "node", "id": 4370423789, "lat": 24.4916179, "lon": 39.5955216, "tags": {"amenity": "hospital", "name": "\u0645\u0631\u0643\u0632 \u0635\u062d\u064a \u062d\u064a \u0627\u0644\u0646\u0635\u0631", "name:ar": "\u0645\u0631\u0643\u0632 \u0635\u062d\u064a \u062d\u064a \u0627\u0644\u0646\u0635\u0631"}}, {"type": "node", "id": 4391202489, "lat": 24.4696532, "lon": 39.6626411, "tags": {"amenity": "hospital", "name": "\u0627\u0644\u0648\u0632\u0646 \u0627\u0644\u0645\u062b\u0627\u0644\u064a"}}, {"type": "node", "id": 4406669093, "lat": 21.4490959, "lon": 39.8631924, "tags": {"amenity": "hospital", "name": "Salam Hospital", "name:ar": "\u0645\u0633\u062a\u0634\u0641\u0649 \u0627\u0644\u0633\u0644\u0627\u0645", "name:en": "Salam Hospital"}}, {"type": "node", "id": 4406715691, "lat": 21.4483515, "lon": 39.8647505, "tags": {"amenity": "hospital", "name": "\u0645\u0631\u0643\u0632 \u0635\u062d\u064a \u0627\u0644\u0639\u062f\u0644", "name:ar": "\u0645\u0631\u0643\u0632 \u0635\u062d\u064a \u0627\u0644\u0639\u062f\u0644"}}, {"type": "node", "id": 4424820093, "lat": 29.9566283, "lon": 32.5064034, "tags": {"addr:street": "\u0627\u0644\u0633\u062e\u0646\u0629", "amenity": "hospital", "name": "\u0627\u0644\u0645\u0631\u0643\u0632 \u0627\u0644\u0637\u0628\u064a \u0644\u0644\u0628\u062a\u0631\u0648\u0644", "name:ar": "\u0627\u0644\u0645\u0631\u0643\u0632 \u0627\u0644\u0637\u0628\u064a \u0644\u0644\u0628\u062a\u0631\u0648\u0644"}}, {"type": "node", "id": 4424840089, "lat": 21.3848734, "lon": 39.8605185, "tags": {"amenity": "hospital", "fixme": "name, name:en mismatch.", "name": "\u0645\u0633\u062a\u0634\u0641\u0649 \u0627\u0644\u0646\u0648\u0631", "name:ar": "\u0645\u0633\u062a\u0634\u0641\u0649 \u0627\u0644\u0646\u0648\u0631", "name:en": "al-Noor Hospital", "phone": "+966 125 665 000"}}, {"type": "node", "id": 4487345086, "lat": 26.7555185, "lon": 33.941632, "tags": {"amenity": "hospital"}}, {"type": "node", "id": 4514534944, "lat": 25.5395721, "lon": 34.6165178, "tags": {"amenity": "hospital", "healthcare": "hyperbaric_chamber", "hyperbaric_chamber:phone": "+2 012 219 0383", "hyperbaric_chamber:website": "www.deco-international.com", "name": "Port Ghalib Hospital", "phone": "+20 100 000 4402", "url": "https://www.facebook.com/portghalibhospital", "website": "http://www.portghalibhospital.com/"}}, {"type": "node", "id": 4515942291, "lat": 29.0699244, "lon": 31.0856492, "tags": {"amenity": "hospital", "healthcare": "hospital", "name": "\u0645\u0633\u062a\u0634\u0641\u0649 \u0627\u0644\u062f\u0639\u0648\u0629", "name:ar": "\u0645\u0633\u062a\u0634\u0641\u0649 \u0627\u0644\u062f\u0639\u0648\u0629"}}, {"type": "node", "id": 4515942489, "lat": 29.0636494, "lon": 31.1031644, "tags": {"amenity": "hospital", "healthcare": "hospital", "name": "\u0627\u0644\u0645\u0633\u062a\u0634\u0641\u0649 \u0627\u0644\u0639\u0627\u0645 \u0628\u0628\u0646\u0649 \u0633\u0648\u064a\u0641", "name:ar": "\u0627\u0644\u0645\u0633\u062a\u0634\u0641\u0649 \u0627\u0644\u0639\u0627\u0645 \u0628\u0628\u0646\u0649 \u0633\u0648\u064a\u0641"}}, {"type": "node", "id": 4515942490, "lat": 29.0741499, "lon": 31.1150868, "tags": {"amenity": "hospital", "healthcare": "hospital", "name": "\u0645\u0633\u062a\u0634\u0641\u0649 \u0627\u0644\u062a\u0623\u0645\u064a\u0646 \u0627\u0644\u0635\u062d\u0649 \u0628\u0628\u0646\u0649 \u0633\u0648\u064a\u0641", "name:ar": "\u0645\u0633\u062a\u0634\u0641\u0649 \u0627\u0644\u062a\u0623\u0645\u064a\u0646 \u0627\u0644\u0635\u062d\u0649 \u0628\u0628\u0646\u0649 \u0633\u0648\u064a\u0641"}}, {"type": "node", "id": 4516041489, "lat": 29.9903962, "lon": 31.1500643, "tags": {"amenity": "hospital", "healthcare": "hospital", "name": "\u0645\u0633\u062a\u0634\u0641\u0649 \u0627\u0644\u0647\u0631\u0645", "name:ar": "\u0645\u0633\u062a\u0634\u0641\u0649 \u0627\u0644\u0647\u0631\u0645", "name:en": "Al haram hospital"}}, {"type": "node", "id": 4534583515, "lat": 24.4950915, "lon": 39.5608914, "tags": {"amenity": "hospital", "name": "King Fahd Hospital \u0645\u0633\u062a\u0634\u0641\u0649 \u0627\u0644\u0645\u0644\u0643 \u0641\u0647\u062f", "name:ar": "\u0645\u0633\u062a\u0634\u0641\u0649 \u0627\u0644\u0645\u0644\u0643 \u0641\u0647\u062f"}}, {"type": "node", "id": 4534587534, "lat": 24.4948518, "lon": 39.5615036, "tags": {"amenity": "hospital", "healthcare": "hospital", "name": "Madinah Cardiac Center MCC \u0645\u0631\u0643\u0632 \u0623\u0645\u0631\u0627\u0636 \u0648\u062c\u0631\u0627\u062d\u0629 \u0627\u0644\u0642\u0644\u0628 \u0628\u0627\u0644\u0645\u062f\u064a\u0646\u0629 \u0627\u0644\u0645\u0646\u0648\u0631\u0629", "name:ar": "\u0645\u0631\u0643\u0632 \u0623\u0645\u0631\u0627\u0636 \u0648\u062c\u0631\u0627\u062d\u0629 \u0627\u0644\u0642\u0644\u0628 \u0628\u0627\u0644\u0645\u062f\u064a\u0646\u0629 \u0627\u0644\u0645\u0646\u0648\u0631\u0629"}}, {"type": "node", "id": 4534699077, "lat": 24.4703599, "lon": 39.546963, "tags": {"amenity": "hospital", "name": "Ohud Hospital \u0645\u0633\u062a\u0634\u0641\u0649 \u0623\u062d\u062f", "name:ar": "\u0645\u0633\u062a\u0634\u0641\u0649 \u0623\u062d\u062f", "name:ku": "Nexwe\u015fxaneya Uhud Med\u00eene", "name:tr": "Medine Uhud Hastanesi"}}, {"type": "node", "id": 4534829779, "lat": 21.399227, "lon": 39.8992415, "tags": {"amenity": "hospital", "healthcare": "hospital", "name": "Armed Forces Hospital", "name:en": "Armed Forces Hospital", "name:tr": "Silahl\u0131 Kuvvetler Hastanesi"}}, {"type": "node", "id": 4534849994, "lat": 21.3527385, "lon": 39.9732195, "tags": {"amenity": "hospital", "healthcare": "hospital", "name": "\u0645\u0633\u062a\u0634\u0641\u0649 \u0646\u0645\u0631\u0629", "name:ar": "\u0645\u0633\u062a\u0634\u0641\u0649 \u0646\u0645\u0631\u0629", "name:ku": "Nexwe\u015fxaneya Nam\u00eera", "name:tr": "Namira Hastanesi"}}, {"type": "node", "id": 4538598490, "lat": 21.4005275, "lon": 39.8647952, "tags": {"amenity": "hospital", "healthcare": "hospital", "name": "Hospital Alawi Tunsie", "phone": "+966 125 504 015"}}, {"type": "node", "id": 4538607235, "lat": 21.4038493, "lon": 39.8802291, "tags": {"amenity": "hospital", "name": "Health center Azizia East", "name:ar": "\u0645\u0631\u0643\u0632 \u0635\u062d\u064a \u0627\u0644\u0639\u0632\u064a\u0632\u064a\u0629 \u0627\u0644\u0634\u0631\u0642\u064a\u0629", "name:en": "Health center Azizia East"}}, {"type": "node", "id": 4541619494, "lat": 25.9217049, "lon": 32.7515625, "tags": {"amenity": "hospital", "healthcare": "hospital", "name": "\u0645\u0633\u062a\u0634\u0641\u064a \u0642\u0648\u0635 \u0627\u0644\u0645\u0631\u0643\u0632\u0649", "name:ar": "\u0645\u0633\u062a\u0634\u0641\u064a \u0642\u0648\u0635 \u0627\u0644\u0645\u0631\u0643\u0632\u0649", "name:en": "Qus central hospital"}}, {"type": "node", "id": 4547232393, "lat": 21.5614273, "lon": 39.7746446, "tags": {"addr:postcode": "21955", "addr:street": "Al madinah al munawarah", "amenity": "hospital", "name:en": "Muhammad sales Basharahil hospital (648 patient )"}}, {"type": "node", "id": 4547253789, "lat": 28.3989424, "lon": 36.5760808, "tags": {"addr:postcode": "47311", "addr:street": "\u0637\u0631\u064a\u0642 \u0627\u0644\u0623\u0645\u064a\u0631 \u0641\u0647\u062f \u0628\u0646 \u0633\u0644\u0637\u0627\u0646 \u0628\u0646 \u0639\u0628\u062f \u0627\u0644\u0639\u0632\u064a\u0632", "amenity": "hospital", "name:en": "Prince Fahd bin sultan (952 patient )"}}, {"type": "node", "id": 4562290635, "lat": 24.4899975, "lon": 39.5886165, "tags": {"amenity": "hospital", "name": "\u0645\u062c\u0645\u0639 \u062f.\u0648\u0641\u0627\u0621 \u0637\u0644\u0628\u0647 \u0627\u0644\u0637\u0628\u064a", "name:ar": "\u0645\u062c\u0645\u0639 \u062f.\u0648\u0641\u0627\u0621 \u0637\u0644\u0628\u0647 \u0627\u0644\u0637\u0628\u064a"}}, {"type": "node", "id": 4575983739, "lat": 26.7001425, "lon": 31.6016112, "tags": {"amenity": "hospital", "name": "\u062f. \u0647\u0646\u0627\u0621 \u0634\u0647\u062f\u0649", "name:ar": "\u062f. \u0647\u0646\u0627\u0621 \u0634\u0647\u062f\u0649"}}, {"type": "node", "id": 4575984694, "lat": 26.5461182, "lon": 31.6978573, "tags": {"amenity": "hospital", "name": "\u062f.\u0639\u0628\u062f \u0627\u0644\u0646\u0627\u0635\u0631 \u0628\u062f\u0648\u0649", "name:ar": "\u062f.\u0639\u0628\u062f \u0627\u0644\u0646\u0627\u0635\u0631 \u0628\u062f\u0648\u0649"}}, {"type": "node", "id": 4576043491, "lat": 26.3324161, "lon": 31.8911944, "tags": {"amenity": "hospital", "name": "\u062f.\u0646\u0628\u064a\u0644 \u0635\u0627\u0628\u0631", "name:ar": "\u062f.\u0646\u0628\u064a\u0644 \u0635\u0627\u0628\u0631"}}, {"type": "node", "id": 4576058589, "lat": 26.7007093, "lon": 31.6016394, "tags": {"amenity": "hospital", "name": "\u0645 \u0627\u0644\u0645\u0631\u0627\u063a\u0629 \u0627\u0644\u0639\u0627\u0645", "name:ar": "\u0645 \u0627\u0644\u0645\u0631\u0627\u063a\u0629 \u0627\u0644\u0639\u0627\u0645"}}, {"type": "node", "id": 4582642294, "lat": 26.5555478, "lon": 37.94995, "tags": {"addr:street": "\u0637\u0631\u064a\u0642 \u0627\u0644\u0645\u062f\u064a\u0646\u0629 \u0627\u0644\u0645\u0646\u0648\u0631\u0629", "amenity": "hospital", "name": "\u0645\u0633\u062a\u0634\u0641\u0649 \u0627\u0644\u0623\u0645\u064a\u0631 \u0639\u0628\u062f\u0627\u0644\u0645\u062d\u0633\u0646", "name:ar": "\u0645\u0633\u062a\u0634\u0641\u0649 \u0627\u0644\u0623\u0645\u064a\u0631 \u0639\u0628\u062f\u0627\u0644\u0645\u062d\u0633\u0646"}}, {"type": "node", "id": 4587257690, "lat": 29.9674551, "lon": 31.24174, "tags": {"addr:street": "\u0643\u0648\u0631\u0646\u064a\u0634 \u0627\u0644\u0646\u064a\u0644", "amenity": "hospital", "healthcare": "hospital", "name": "\u0645\u0633\u062a\u0634\u0641\u0649 \u0627\u0644\u0645\u0639\u0627\u062f\u0649 \u0642.\u0645", "name:ar": "\u0645\u0633\u062a\u0634\u0641\u0649 \u0627\u0644\u0645\u0639\u0627\u062f\u0649 \u0642.\u0645", "name:en": "Maadi Hosp. A.F", "opening_hours": "Sa-Th 09:00-21:00"}}, {"type": "node", "id": 4642439738, "lat": 21.499185, "lon": 39.2008958, "tags": {"amenity": "hospital", "name": "\u0645\u0633\u062a\u0634\u0641\u0649 \u062c\u062f\u0629 \u0627\u0644\u0648\u0637\u0646\u064a"}}, {"type": "node", "id": 4646305989, "lat": 21.4681906, "lon": 39.9438084, "tags": {"amenity": "hospital", "name": "\u0645\u062c\u0645\u0639 \u0627\u0644\u0631\u0627\u0626\u062f \u0627\u0644\u0645\u0643\u064a \u0627\u0644\u0645\u062a\u062e\u0635\u0635 \u0641\u064a \u0637\u0628 \u0627\u0644\u0627\u0633\u0646\u0627\u0646", "name:ar": "\u0645\u062c\u0645\u0639 \u0627\u0644\u0631\u0627\u0626\u062f \u0627\u0644\u0645\u0643\u064a \u0627\u0644\u0645\u062a\u062e\u0635\u0635 \u0641\u064a \u0637\u0628 \u0627\u0644\u0627\u0633\u0646\u0627\u0646"}}, {"type": "node", "id": 4693001189, "lat": 29.9907225, "lon": 31.1506313, "tags": {"amenity": "hospital", "name": "\u0645\u0633\u062a\u0634\u0641\u064a \u0627\u0644\u0647\u0631\u0645", "name:ar": "\u0645\u0633\u062a\u0634\u0641\u064a \u0627\u0644\u0647\u0631\u0645", "name:en": "Al Haram Hospital"}}, {"type": "node", "id": 4743134421, "lat": 26.7738527, "lon": 31.4973678, "tags": {"amenity": "hospital", "name": "\u0637\u0647\u0637\u0627 \u0627\u0644\u0639\u0627\u0645", "name:ar": "\u0637\u0647\u0637\u0627 \u0627\u0644\u0639\u0627\u0645"}}, {"type": "node", "id": 4812390121, "lat": 25.2916299, "lon": 32.5583775, "tags": {"amenity": "hospital", "healthcare": "hospital", "name": "\u0645\u0633\u062a \u0625\u0633\u0646\u0627 \u0627\u0644\u0645\u0631\u0643\u0632\u064a", "name:ar": "\u0645\u0633\u062a \u0625\u0633\u0646\u0627 \u0627\u0644\u0645\u0631\u0643\u0632\u064a"}}, {"type": "node", "id": 4838404723, "lat": 25.5025387, "lon": 32.4759886, "tags": {"amenity": "hospital", "name": "\u0648\u062d\u062f\u0629 \u0635\u062d\u0629 \u0627\u0644\u063a\u0631\u064a\u0631\u0629", "name:ar": "\u0648\u062d\u062f\u0629 \u0635\u062d\u0629 \u0627\u0644\u063a\u0631\u064a\u0631\u0629"}}, {"type": "node", "id": 4843927723, "lat": 24.0028068, "lon": 38.200989, "tags": {"addr:street": "AL Jabal", "amenity": "hospital", "email": "gnpyanbu@gmail.com", "internet_access": "wlan", "name": "\u0645\u062c\u0645\u0639 \u0639\u064a\u0627\u062f\u0627\u062a \u063a\u0633\u0627\u0646 \u0646\u062c\u064a\u0628 \u0641\u0631\u0639\u0648\u0646 \u0644\u0644\u0627\u0633\u0646\u0627\u0646", "name:en": "GNP YANBU", "opening_hours": "Sa-We 09:00-21:00; Th 09:00-13:00", "phone": "0143923222", "website": "https://www.gnp.com.sa/"}}, {"type": "node", "id": 4853503310, "lat": 21.4051802, "lon": 39.8884633, "tags": {"amenity": "hospital", "healthcare": "hospital", "name": "Mina Al-Jisr Hospital", "name:en": "Mina Al-Jisr Hospital"}}, {"type": "node", "id": 4853590821, "lat": 21.4545574, "lon": 39.8393304, "tags": {"amenity": "hospital"}}, {"type": "node", "id": 4888205421, "lat": 21.5387892, "lon": 39.1728196, "tags": {"amenity": "hospital", "healthcare": "hospital", "name": "\u0645\u0633\u062a\u0634\u0641\u0649 \u0627\u0644\u0648\u0644\u0627\u062f\u0629 \u0648\u0627\u0644\u0623\u0637\u0641\u0627\u0644", "name:en": "hospital of birth & children"}}, {"type": "node", "id": 4913935120, "lat": 28.6954304, "lon": 30.7747717, "tags": {"amenity": "hospital", "name": "\u0645\u0633\u062a\u0634\u0641\u0649 \u0627\u0644\u0639\u062f\u0648\u0629 \u0627\u0644\u0639\u0627\u0645", "name:ar": "\u0645\u0633\u062a\u0634\u0641\u0649 \u0627\u0644\u0639\u062f\u0648\u0629 \u0627\u0644\u0639\u0627\u0645"}}, {"type": "node", "id": 4915754710, "lat": 25.0551937, "lon": 37.250361, "tags": {"addr:street": "King abdulla", "amenity": "hospital", "name": "Umlujj General Hospital", "opening_hours": "Mo-Su 00:00-12:00"}}, {"type": "node", "id": 4964232123, "lat": 27.6280471, "lon": 38.5422923, "tags": {"amenity": "hospital", "name": "\u0645\u0633\u062a\u0634\u0641\u0649 \u062a\u064a\u0645\u0627\u0621 \u0627\u0644\u0639\u0627\u0645", "name:ar": "\u0645\u0633\u062a\u0634\u0641\u0649 \u062a\u064a\u0645\u0627\u0621 \u0627\u0644\u0639\u0627\u0645"}}, {"type": "node", "id": 5019295122, "lat": 24.4560132, "lon": 39.6421483, "tags": {"amenity": "hospital", "name": "\u0645\u0631\u0643\u0632 \u0627\u0644\u062d\u062c\u0627\u0645\u0629 \u0627\u0644\u062d\u062f\u064a\u062b", "name:ar": "\u0645\u0631\u0643\u0632 \u0627\u0644\u062d\u062c\u0627\u0645\u0629 \u0627\u0644\u062d\u062f\u064a\u062b"}}, {"type": "node", "id": 5030365921, "lat": 21.4299641, "lon": 39.2971069, "tags": {"amenity": "hospital", "name": "\u0645\u0633\u062a\u0634\u0641\u0649 \u0627\u0644\u0638\u0627\u0641\u0631 \u0627\u0644\u0637\u0628\u064a", "name:ar": "\u0645\u0633\u062a\u0634\u0641\u0649 \u0627\u0644\u0638\u0627\u0641\u0631 \u0627\u0644\u0637\u0628\u064a"}}, {"type": "node", "id": 5070401203, "lat": 21.4163884, "lon": 39.8628741, "tags": {"amenity": "hospital", "name": "Al Abeer Medical Center", "name:ar": "\u0645\u0633\u062a\u0648\u0635\u0641 \u0627\u0644\u0639\u0628\u064a\u0631"}}, {"type": "node", "id": 5075704816, "lat": 21.4267071, "lon": 39.8232661, "tags": {"amenity": "hospital", "emergency": "yes", "healthcare": "hospital", "name": "\u0645\u0633\u062a\u0634\u0641\u0649 \u0627\u0644\u062d\u0631\u0645 \u0644\u0644\u0637\u0648\u0627\u0631\u0626", "name:ar": "\u0645\u0633\u062a\u0634\u0641\u0649 \u0627\u0644\u062d\u0631\u0645 \u0644\u0644\u0637\u0648\u0627\u0631\u0626", "name:en": "Al Haram Emergency Hospital", "name:fr": "H\u00f4pital des urgences Al-Haram", "name:ur": "\u0627\u0644\u062d\u0631\u0645 \u0627\u06cc\u0645\u0631\u062c\u0646\u0633\u06cc \u06c1\u0633\u067e\u062a\u0627\u0644"}}, {"type": "node", "id": 5076188152, "lat": 21.4197202, "lon": 39.8263838, "tags": {"amenity": "hospital", "name": "Ajyad Emergency Hospital", "name:ar": "\u0645\u0633\u062a\u0634\u0641\u0649 \u0623\u062c\u064a\u0627\u062f \u0644\u0644\u0637\u0648\u0627\u0631\u0626", "name:en": "Ajyad Emergency Hospital", "phone": "+966 12 573 0070"}}, {"type": "node", "id": 5076826198, "lat": 21.3941412, "lon": 39.8959064, "tags": {"amenity": "hospital", "name": "Security Forces Health Center", "name:ar": "\u0645\u0633\u062a\u0648\u0635\u0641 \u0642\u0648\u0649 \u0627\u0644\u0627\u0645\u0646", "name:en": "Security Forces Health Center"}}, {"type": "node", "id": 5077299107, "lat": 21.4431374, "lon": 39.8355345, "tags": {"amenity": "hospital", "name": "Al Fahd Medical Complex", "name:ar": "\u0645\u062c\u0645\u0639 \u0627\u0644\u0641\u0647\u062f \u0627\u0644\u0637\u0628\u064a", "name:en": "Al Fahd Medical Complex"}}, {"type": "node", "id": 5125180121, "lat": 21.7462562, "lon": 39.1775869, "tags": {"amenity": "hospital", "name": "\u0645\u0633\u062a\u0634\u0641\u0649 \u0627\u0644\u0645\u0644\u0643 \u0641\u064a\u0635\u0644 \u0627\u0644\u062a\u062e\u0635\u0635\u064a"}}, {"type": "node", "id": 5134884137, "lat": 21.4864762, "lon": 39.7892145, "tags": {"amenity": "hospital", "name": "\u0645\u0633\u062a\u0634\u0641\u0649 \u062d\u0631\u0627\u0621", "name:ar": "\u0645\u0633\u062a\u0634\u0641\u0649 \u062d\u0631\u0627\u0621", "name:en": "Hera General Hospital"}}, {"type": "node", "id": 5135834018, "lat": 24.5238407, "lon": 39.6767967, "tags": {"amenity": "hospital", "name": "Mouwasat Hospital", "name:ar": "\u0645\u0633\u062a\u0634\u0641\u0649 \u0627\u0644\u0645\u0648\u0627\u0633\u0627\u0629", "phone": "+966 148 422 211"}}, {"type": "node", "id": 5135842065, "lat": 24.5240541, "lon": 39.6769139, "tags": {"amenity": "hospital", "name": "Magrabi Eye and Ear Center", "name:ar": "\u0645\u0633\u062a\u0634\u0641\u0649 \u0627\u0644\u0645\u063a\u0631\u0628\u064a"}}, {"type": "node", "id": 5140221524, "lat": 29.967548, "lon": 31.264262, "tags": {"addr:street": "77", "amenity": "hospital", "healthcare": "hospital", "name": "\u0645\u0633\u062a\u0634\u0641\u0649 \u0627\u0644\u0631\u064a\u0627\u0646", "name:ar": "\u0645\u0633\u062a\u0634\u0641\u0649 \u0627\u0644\u0631\u064a\u0627\u0646", "name:en": "alRayan Hospital", "opening_hours": "24/7"}}, {"type": "node", "id": 5280869323, "lat": 27.2300378, "lon": 33.8413404, "tags": {"amenity": "hospital", "healthcare": "hospital", "name": "\u0648\u062d\u062f\u0647 \u0627\u0644\u0645\u064a\u0646\u0627\u0621", "name:ar": "\u0648\u062d\u062f\u0647 \u0627\u0644\u0645\u064a\u0646\u0627\u0621"}}, {"type": "node", "id": 5349322521, "lat": 26.2095858, "lon": 37.3615819, "tags": {"amenity": "hospital", "name": "\u0627\u0644\u062e\u0631\u0627\u0631. \u0627\u0644\u0648\u062c\u0647", "name:en": "Alkarar Alwajh"}}, {"type": "node", "id": 5350940121, "lat": 29.9825257, "lon": 31.345959, "tags": {"addr:street": "\u0627\u0644\u0637\u0631\u064a\u0642 \u0627\u0644\u062f\u0627\u0626\u0631\u0649", "amenity": "hospital", "healthcare": "hospital", "name": "\u0645\u0633\u062a\u0634\u0641\u0649 \u0627\u0644\u0628\u0646\u0643 \u0627\u0644\u0627\u0647\u0644\u064a", "name:ar": "\u0645\u0633\u062a\u0634\u0641\u0649 \u0627\u0644\u0628\u0646\u0643 \u0627\u0644\u0627\u0647\u0644\u064a"}}, {"type": "node", "id": 5371990671, "lat": 24.4618573, "lon": 39.5307621, "tags": {"amenity": "hospital", "emergency": "no", "name": "\u0639\u064a\u0627\u062f\u0627\u062a \u0627\u0644\u062f\u0643\u062a\u0648\u0631 \u0645\u062d\u0645\u062f \u0627\u0644\u062d\u0645\u064a\u062f\u064a", "source": "https://www.google.com.sa/maps/place/%D9%85%D8%AC%D9%85%D8%B9+%D8%A7%D9%84%D8%AF%D9%83%D8%AA%D9%88%D8%B1%D9%85%D8%AD%D9%85%D8%AF+%D8%A7%D9%84%D8%AD%D9%85%D9%8A%D8%AF%D9%8A+%D9%84%D8%B7%D8%A8+%D9%88%D8%AA%D9%82%D9%88%D9%8A%D9%85+%D8%A7%D9%84%D8%A3%D8%B3%D9"}}, {"type": "node", "id": 5410423752, "lat": 21.5166617, "lon": 39.2344814, "tags": {"amenity": "hospital", "emergency": "yes", "healthcare": "hospital", "name": "\u0645\u0631\u0643\u0632 \u0627\u0633\u0639\u0627\u0641 \u0627\u0644\u0646\u0633\u064a\u0645"}}, {"type": "node", "id": 5420112979, "lat": 26.3669943, "lon": 31.846848, "tags": {"addr:city": "\u062c\u0631\u062c\u0627", "addr:postcode": "82743", "addr:street": "\u0628\u0646\u062f\u0627\u0631 \u0627\u0644\u0634\u0631\u0642\u064a\u0647", "amenity": "hospital", "emergency": "yes", "healthcare": "hospital", "name": "\u0648\u062d\u062f\u0647 \u0635\u062d\u0647 \u0628\u0646\u062f\u0627\u0631 \u0627\u0644\u0634\u0631\u0642\u064a\u0647", "name:ar": "\u0648\u062d\u062f\u0647 \u0635\u062d\u0647 \u0628\u0646\u062f\u0627\u0631 \u0627\u0644\u0634\u0631\u0642\u064a\u0647"}}, {"type": "node", "id": 5762503853, "lat": 27.2239526, "lon": 33.8263382, "tags": {"amenity": "hospital", "healthcare": "hospital", "internet_access": "wlan", "name:en": "Royal Hospital", "opening_hours": "24/7", "phone": "01211113277", "website": "https://royalhospital-eg.com/"}}, {"type": "node", "id": 5828839701, "lat": 21.4123984, "lon": 39.8618606, "tags": {"amenity": "hospital", "name": "\u0627\u0644\u0628\u0639\u062b\u0629 \u0627\u0644\u0637\u0628\u064a\u0629 \u0627\u0644\u0639\u0631\u0627\u0642\u064a\u0629", "name:en": "Iraqi medical delegation"}}, {"type": "node", "id": 6092176485, "lat": 29.9876238, "lon": 31.2772995, "tags": {"addr:street": "500", "amenity": "hospital", "emergency": "no", "healthcare": "hospital", "name": "\u0645\u0633\u062a\u0634\u0641\u0649 \u062c\u0631\u0627\u062d\u0627\u062a \u0627\u0644\u064a\u0648\u0645 \u0627\u0644\u0648\u0627\u062d\u062f \u0628\u0627\u0644\u0645\u0639\u0627\u062f\u064a \u0627\u0644\u062c\u062f\u064a\u062f\u0629", "name:ar": "\u0645\u0633\u062a\u0634\u0641\u0649 \u062c\u0631\u0627\u062d\u0627\u062a \u0627\u0644\u064a\u0648\u0645 \u0627\u0644\u0648\u0627\u062d\u062f \u0628\u0627\u0644\u0645\u0639\u0627\u062f\u064a \u0627\u0644\u062c\u062f\u064a\u062f\u0629", "name:en": "one day surgries hospital"}}, {"type": "node", "id": 6139791985, "lat": 21.3889212, "lon": 39.8079877, "tags": {"amenity": "hospital", "name": "\u0645\u0631\u0643\u0632 \u0627\u0644\u0645\u0644\u0643 \u0639\u0628\u062f \u0627\u0644\u0644\u0629 \u0644\u063a\u0633\u064a\u0644 \u0627\u0644\u0643\u0644\u064a"}}, {"type": "node", "id": 6166310287, "lat": 21.4182818, "lon": 39.7752803, "tags": {"amenity": "hospital", "name": "\u0645\u0631\u0643\u0632 \u0627\u0644\u0645\u0644\u0643 \u0639\u0628\u062f \u0627\u0644\u0644\u0647 \u0644\u063a\u0633\u064a\u0644 \u0627\u0644\u0643\u0644\u064a \u0627\u0644\u0635\u0646\u0627\u0639\u064a", "name:en": "King Abdullah dialysis Center"}}, {"type": "node", "id": 6315705485, "lat": 24.4964749, "lon": 39.609738, "tags": {"amenity": "hospital", "name": "\u0645\u0631\u0643\u0632 \u0627\u0644\u0645\u0644\u0643 \u0639\u0628\u062f \u0627\u0644\u0644\u0629 \u0644\u063a\u0633\u064a\u0644 \u0627\u0644\u0643\u0644\u064a"}}, {"type": "node", "id": 6371769385, "lat": 28.1011077, "lon": 30.7545085, "tags": {"amenity": "hospital", "healthcare": "hospital", "name": "\u0645\u0633\u062a\u0634\u0641\u064a \u0628\u0627\u0644\u0645\u0646\u064a\u0627", "name:ar": "\u0645\u0633\u062a\u0634\u0641\u064a \u0628\u0627\u0644\u0645\u0646\u064a\u0627", "name:en": "Almenia.hospitalss"}}, {"type": "node", "id": 6411889485, "lat": 25.3024614, "lon": 32.5540586, "tags": {"addr:street": "\u0634\u0627\u0631\u0639 \u0627\u0644\u0645\u0633\u062a\u0634\u0641\u0649", "amenity": "hospital", "healthcare": "hospital", "internet_access": "wlan", "name": "\u0645\u0633\u062a\u0634\u0641\u0649 \u0625\u0633\u0646\u0627", "name:ar": "\u0645\u0633\u062a\u0634\u0641\u0649 \u0625\u0633\u0646\u0627", "name:en": "Esna hospital"}}, {"type": "node", "id": 6595817693, "lat": 29.9734067, "lon": 31.2817941, "tags": {"addr:country": "EG", "addr:district": "\u0627\u0644\u0628\u0633\u0627\u062a\u064a\u0646", "addr:district:en": "Al Basatine", "addr:housenumber": "4", "addr:neighbourhood": "\u062a\u0642\u0633\u064a\u0645 \u0627\u0644\u0644\u0627\u0633\u0644\u0643\u064a", "addr:neighbourhood:en": "Taksim Al Laslky", "addr:postcode": "11742", "addr:province": "\u0627\u0644\u0642\u0627\u0647\u0631\u0629", "addr:province:en": "Cairo", "addr:street": "\u0634\u0627\u0631\u0639 \u0633\u064a\u062f \u0639\u0646\u0628\u0631", "addr:street:en": "Sayed Anbr Street", "addr:subdistrict": "\u0627\u0644\u0645\u0639\u0627\u062f\u0649 \u0627\u0644\u062c\u062f\u064a\u062f\u0647", "addr:subdistrict:en": "El Maadi El Gadida", "addr:unit": "6C", "amenity": "hospital", "healthcare": "hospital", "name": "El Nakhel Hospital"}}, {"type": "node", "id": 6795540585, "lat": 21.3970253, "lon": 39.876904, "tags": {"amenity": "hospital", "name": "Pakistan Hajj Mission Hospital"}}, {"type": "node", "id": 6812101533, "lat": 29.5464706, "lon": 35.0175738, "tags": {"amenity": "hospital", "healthcare": "hospital", "name": "Aqaba Modern Hospital"}}, {"type": "node", "id": 7042778985, "lat": 21.4739712, "lon": 39.2118219, "tags": {"amenity": "hospital", "name": "\u0645\u0633\u062a\u0634\u0641\u0649 \u0645\u063a\u0631\u0628\u064a \u0644\u0644\u0639\u064a\u0648\u0646", "name:en": "Magrabi Eye Hospital", "website": "https://www.magrabi.com.sa/"}}, {"type": "node", "id": 7098485493, "lat": 28.3497832, "lon": 36.5950626, "tags": {"addr:street": "\u0627", "amenity": "hospital", "name": "\u0645\u0633\u062a\u0634\u0641\u0649 \u0627\u0644\u0645\u0644\u0643 \u0633\u0644\u0645\u0627\u0646 \u0627\u0644\u0639\u0633\u0643\u0631\u064a"}}, {"type": "node", "id": 7146563486, "lat": 27.198284, "lon": 33.8267656, "tags": {"amenity": "hospital", "healthcare": "hospital", "name": "El Kawser Private Hospital"}}, {"type": "node", "id": 7288659118, "lat": 26.3470237, "lon": 31.8873904, "tags": {"addr:city": "girga", "addr:housenumber": "Girga", "addr:postcode": "82952", "addr:street": "\u062c\u0631\u062c\u0627", "amenity": "hospital", "email": "family.clinic.girga@gmail.com", "healthcare": "hospital", "healthcare:speciality": "clinic;general", "name": "Family clinic \u0639\u064a\u0627\u062f\u0627\u062a \u0627\u0644\u0627\u0633\u0631\u0629", "name:ar": "Family clinic \u0639\u064a\u0627\u062f\u0627\u062a \u0627\u0644\u0627\u0633\u0631\u0629", "operator": "\u0645\u0631\u0643\u0632 \u0637\u0628\u064a", "operator:type": "business"}}, {"type": "node", "id": 7635900880, "lat": 29.9811655, "lon": 31.315031, "tags": {"amenity": "hospital", "healthcare": "hospital", "name": "Pharmancy"}}, {"type": "node", "id": 7711113897, "lat": 29.2936, "lon": 34.9386, "tags": {"amenity": "hospital", "name": "\u0645\u0633\u062a\u0634\u0641\u0649 \u062d\u0642\u0644 \u0627\u0644\u0639\u0627\u0645"}}, {"type": "node", "id": 7913143102, "lat": 28.3943678, "lon": 36.5435299, "tags": {"addr:city": "Tabuk", "amenity": "hospital", "healthcare": "hospital", "name": "King Khalid Hospital"}}, {"type": "node", "id": 7997291530, "lat": 24.4362079, "lon": 39.6345548, "tags": {"amenity": "hospital", "name": "\u0627\u0644\u0645\u0631\u0643\u0632 \u0627\u0644\u062a\u062e\u0635\u0635\u064a \u0644\u0644\u0639\u064a\u0648\u0646"}}, {"type": "node", "id": 8294020217, "lat": 29.5504564, "lon": 34.9416764, "tags": {"amenity": "hospital"}}, {"type": "node", "id": 8583386218, "lat": 21.4318676, "lon": 39.7921537, "tags": {"addr:city": "\u0645\u0643\u0647", "addr:housenumber": "1", "addr:postcode": "24221", "addr:street": "Ar Ridwa Street", "amenity": "hospital", "description": "\u0645\u062c\u0645\u0639 \u0645\u0628\u0627\u0631\u0643 \u0627\u0644\u0637\u0628\u064a \u0647\u0648\u0627 \u0645\u062c\u0645\u0639 \u0637\u0628\u064a \u062d\u062f\u064a\u062b \u064a\u062e\u062a\u0635 \u0628\u062a\u062c\u0645\u064a\u0644 \u0627\u0644\u0627\u0633\u0646\u0627\u0646 \u0648\u0645\u0639\u0627\u0644\u062c\u062a\u0647\u0627 \u0648\u062a\u0642\u0648\u064a\u0645 \u0627\u0644\u0627\u0633\u0646\u0627\u0646 \u0639\u0644\u064a \u064a\u062f \u0627\u0641\u0636\u0644 \u0627\u0644\u0643\u0648\u0627\u062f\u0631 \u0627\u0644\u0637\u0628\u064a\u0647 \u0645\u0646 \u0627\u062e\u0635\u0627\u0626\u064a\u0646 \u0648 \u0627\u0633\u062a\u0634\u0627\u0631\u064a\u0646 \u0630\u0648 \u062e\u0628\u0631\u0647 \u0648\u0643\u0641\u0627\u0626\u0647", "email": "mobarak_1990@hotmail.com", "healthcare": "hospital", "healthcare:speciality": "dentist", "image": "https://www.google.com/maps/uv?pb=!1s0x15c21b6be89ab065%3A0xfc92a056466aac8e!3m1!7e115!4shttps%3A%2F%2Flh5.googleusercontent.com%2Fp%2FAF1QipPaMHc3aC43j4bIFpMtIb_LRnf8K5vY0CKJebBm%3Dw160-h160-k-no!5z2YXYrNmF2Lkg2YXYqNin2LHZgyDYp9mE2LfYqNmKINin2YTZhdiq2K7Y", "name": "\u0645\u062c\u0645\u0639 \u0645\u0628\u0627\u0631\u0643 \u0627\u0644\u0637\u0628\u064a \u0627\u0644\u0645\u062a\u062e\u0635\u0635 \u0644\u0637\u0628 \u0627\u0644\u0627\u0633\u0646\u0627\u0646", "operator": "\u0639\u064a\u0627\u062f\u0629 \u0627\u0633\u0646\u0627\u0646", "operator:type": "public", "phone": "+966550234360"}}, {"type": "node", "id": 8676620117, "lat": 29.8875138, "lon": 31.0663286, "tags": {"amenity": "hospital"}}, {"type": "node", "id": 9080144789, "lat": 25.5409083, "lon": 34.6167438, "tags": {"amenity": "hospital"}}, {"type": "node", "id": 9385788533, "lat": 27.8609122, "lon": 34.3044024, "tags": {"amenity": "hospital", "healthcare": "hospital", "name": "Sinai Clinic Hospital", "name:en": "Sinai Clinic Hospital"}}, {"type": "node", "id": 9424503870, "lat": 29.8030475, "lon": 39.6878887, "tags": {"amenity": "hospital", "healthcare": "hospital", "healthcare:speciality": "general", "name": "\u0645\u0631\u0643\u0632 \u0635\u062d\u064a \u0627\u0644\u0631\u062f\u064a\u0641\u0629", "phone": "014 623 2736", "website": "https://moh.gov.sa"}}, {"type": "node", "id": 9485346533, "lat": 21.6003398, "lon": 39.2194036, "tags": {"amenity": "hospital", "healthcare": "hospital", "name": "\u0627\u0644\u0647\u0644\u0627\u0644 \u0627\u0644\u0627\u062d\u0645\u0631 \u0627\u0644\u0633\u0639\u0648\u062f\u064a"}}, {"type": "node", "id": 9568706448, "lat": 29.9956129, "lon": 31.1514353, "tags": {"addr:street": "\u0634\u0627\u0631\u0639 \u0627\u0644\u0645\u0644\u0643 \u0641\u064a\u0635\u0644", "amenity": "hospital", "name": "\u0645\u0633\u062a\u0634\u0641\u0649 \u0627\u0644\u062c\u0627\u0628\u0631\u064a"}}, {"type": "node", "id": 9568725004, "lat": 29.9455923, "lon": 31.188481, "tags": {"amenity": "hospital", "name": "\u0645\u0633\u062a\u0634\u0641\u0649 \u0634\u0628\u0631\u0627\u0645\u0646\u062a \u0627\u0644\u0645\u0631\u0643\u0632\u064a"}}, {"type": "node", "id": 9651950237, "lat": 29.9967716, "lon": 31.1545246, "tags": {"amenity": "hospital", "name": "\u0645\u0633\u062a\u0634\u0641\u0649 \u0627\u0644\u062d\u0628\u064a\u0628 \u0627\u0644\u062a\u062e\u0635\u0635\u064a"}}, {"type": "node", "id": 9665437707, "lat": 21.7015278, "lon": 39.10422, "tags": {"amenity": "hospital", "healthcare": "hospital", "name": "\u0645\u062e\u062a\u0628\u0631\u0627\u062a \u062f\u0644\u062a\u0627 \u0627\u0644\u0637\u0628\u064a\u0629"}}, {"type": "node", "id": 9762746673, "lat": 29.9926236, "lon": 31.163256, "tags": {"amenity": "hospital", "name": "\u0645\u0633\u062a\u0634\u0641\u0649 \u0627\u0644\u0631\u062d\u0627\u0628 \u0627\u0644\u062a\u062e\u0635\u0635\u064a"}}, {"type": "node", "id": 9787616082, "lat": 27.9324626, "lon": 30.8216168, "tags": {"amenity": "hospital", "healthcare": "hospital", "name": "\u0645\u0633\u062a\u0634\u0641\u064a \u0627\u0644\u0639\u0631\u0648\u0629 \u0627\u0644\u0648\u062b\u0642\u064a"}}, {"type": "node", "id": 9787616090, "lat": 27.9372015, "lon": 30.8232068, "tags": {"amenity": "hospital", "healthcare": "hospital", "name": "\u0645\u0633\u062a\u0634\u0641\u064a \u0627\u0644\u0641\u0643\u0631\u064a\u0629 \u0627\u0644\u0639\u0627\u0645"}}, {"type": "node", "id": 10161421017, "lat": 21.4505672, "lon": 39.5646724, "tags": {"amenity": "hospital", "name": "\u0627\u0628\u0646 \u0633\u064a\u0646\u0627"}}, {"type": "node", "id": 10570500010, "lat": 28.5138493, "lon": 34.5103373, "tags": {"amenity": "hospital", "name:en": "Mountain View hospital"}}, {"type": "node", "id": 10676089794, "lat": 29.3073584, "lon": 30.8499091, "tags": {"addr:city": "\u0642\u0633\u0645 \u0631\u0627\u0628\u0639", "addr:housenumber": "8", "addr:postcode": "63523", "addr:street": "\u0634\u0627\u0631\u0639 \u0627\u0644\u0648\u0631\u0634\u0629", "amenity": "hospital", "emergency": "yes", "healthcare": "hospital", "healthcare:speciality": "gynaecology", "name": "Dr. Ahmed Zidan Center", "operator": "\u062f. \u0623\u062d\u0645\u062f \u0632\u064a\u062f\u0627\u0646", "operator:type": "private"}}, {"type": "node", "id": 10736723119, "lat": 24.4739474, "lon": 39.6040648, "tags": {"amenity": "hospital", "healthcare": "hospital", "name": "Al Haram Hospital"}}, {"type": "node", "id": 10737990659, "lat": 29.5880547, "lon": 32.7120495, "tags": {"addr:city": "Ras Sudr", "addr:street": "\u0634\u0627\u0631\u0639 \u0627\u0644\u0645\u0633\u062a\u0634\u0641\u0649", "amenity": "hospital", "healthcare": "hospital"}}, {"type": "node", "id": 10759289577, "lat": 24.4215293, "lon": 39.6269263, "tags": {"addr:city": "\u0627\u0644\u0645\u062f\u064a\u0646\u0629 \u0627\u0644\u0645\u0646\u0648\u0631\u0629", "addr:housenumber": "6114", "addr:postcode": "42318", "addr:street": "\u0637\u0631\u064a\u0642 \u0627\u0644\u0645\u0644\u0643 \u0639\u0628\u062f\u0627\u0644\u0644\u0647", "amenity": "hospital", "description": "\u0639\u064a\u0627\u062f\u0627\u062a \u0623\u0633\u0646\u0627\u0646 \u0645\u062a\u062e\u0635\u0635\u0629 \u0644\u0639\u0644\u0627\u062c \u0623\u0633\u0646\u0627\u0646 \u0627\u0644\u0623\u0637\u0641\u0627\u0644 \u0648\u0627\u0644\u0643\u0628\u0627\u0631", "emergency": "no", "healthcare": "hospital", "healthcare:speciality": "dentist", "name": "\u0639\u064a\u0627\u062f\u0627\u062a \u063a\u0648\u062b", "operator": "Ghouth dental clinics", "operator:type": "private", "phone": "+966551088549", "website": "https://linktr.ee/ghouthclinics"}}, {"type": "node", "id": 10784198106, "lat": 29.983629, "lon": 30.9842413, "tags": {"addr:street": "\u0634\u0627\u0631\u0639 \u0639\u0628\u062f \u0627\u0644\u0645\u0646\u0639\u0645 \u0631\u064a\u0627\u0636", "amenity": "hospital", "opening_hours": "24/7"}}, {"type": "node", "id": 10925249053, "lat": 28.3191358, "lon": 30.7071597, "tags": {"amenity": "hospital", "healthcare": "hospital", "name": "\u0627\u0644\u0631\u0627\u0639\u064a \u0627\u0644\u0635\u0627\u0644\u062d"}}, {"type": "node", "id": 11005547787, "lat": 21.509484, "lon": 39.2033708, "tags": {"amenity": "hospital", "email": "fms.clinic1@gmail.com", "healthcare": "hospital", "name": "\u0645\u062c\u0645\u0639 \u0637\u0628 \u0627\u0644\u0639\u0627\u0626\u0644\u0629 \u0627\u0644\u0645\u062a\u062e\u0635\u0635", "name:ar": "\u0645\u062c\u0645\u0639 \u0637\u0628 \u0627\u0644\u0639\u0627\u0626\u0644\u0629 \u0627\u0644\u0645\u062a\u062e\u0635\u0635", "name:en": "Family Medicine Speciality Center", "twitter": "https://twitter.com/FMSC_SA"}}, {"type": "node", "id": 11005615437, "lat": 21.7894377, "lon": 39.2015117, "tags": {"amenity": "hospital", "healthcare": "hospital", "name": "\u0645\u0631\u0643\u0632 \u0637\u0628\u064a\u0628 \u0628\u0644\u0633 \u0627\u0644\u0637\u0628\u064a", "operator": "\u0631\u0639\u0627\u064a\u0647 \u0639\u0627\u062c\u0644\u0647", "operator:type": "private_for_profit"}}, {"type": "node", "id": 11257108018, "lat": 29.9611824, "lon": 31.2631753, "tags": {"amenity": "hospital", "check_date": "2023-10-11", "healthcare": "hospital", "name": "Maadi Maternity Hospital (Hossam Shalaby)", "name:ar": "\u0645\u0633\u062a\u0634\u0641\u0649 \u062d\u0633\u0627\u0645 \u0634\u0644\u0628\u064a \u0644\u0644\u0648\u0644\u0627\u062f\u0629", "operator:type": "private"}}, {"type": "node", "id": 11275483327, "lat": 21.3826364, "lon": 39.8814022, "tags": {"addr:city": "\u0645\u0643\u0629", "addr:street": "King Abdullah Hospital Road", "amenity": "hospital", "healthcare": "hospital", "name": "\u0645\u0633\u062a\u0634\u0641\u0649 \u0627\u0644\u0645\u0644\u06432"}}, {"type": "node", "id": 11275483328, "lat": 21.3829925, "lon": 39.8821049, "tags": {"addr:city": "\u0645\u0643\u0629", "addr:street": "King Abdullah Hospital Road", "amenity": "hospital", "healthcare": "hospital", "name": "\u0645\u0633\u062a\u0634\u0641\u0649 \u0627\u0644\u0645\u0644\u06431"}}, {"type": "node", "id": 11275483329, "lat": 21.3823291, "lon": 39.8807652, "tags": {"addr:city": "\u0645\u0643\u0629", "addr:street": "King Abdullah Hospital Road", "amenity": "hospital", "healthcare": "hospital", "name": "\u0645\u0633\u062a\u0634\u0641\u0649 \u0627\u0644\u0645\u0644\u06433"}}, {"type": "node", "id": 11275483330, "lat": 21.3819354, "lon": 39.8814486, "tags": {"addr:city": "\u0645\u0643\u0629", "addr:country": "AR", "addr:street": "King Abdullah Hospital Road", "amenity": "hospital", "healthcare": "hospital", "name": "\u0645\u0633\u062a\u0634\u0641\u0649 \u0627\u0644\u0645\u0644\u06434"}}, {"type": "way", "id": 28829672, "center": {"lat": 29.968369, "lon": 31.2438901}, "nodes": [316960425, 316960426, 316960427, 6614710034, 8247356025, 8247342683, 8247342684, 316960417, 8247342682, 316960418, 316960420, 316960421, 316960423, 8247342681, 8247342680, 8247342679, 8247342678, 316960425], "tags": {"amenity": "hospital", "healthcare": "hospital", "name": "\u0645\u0633\u062a\u0634\u0641\u0649 \u0627\u0644\u0642\u0648\u0627\u062a \u0627\u0644\u0645\u0633\u0644\u062d\u0629", "name:ar": "\u0645\u0633\u062a\u0634\u0641\u0649 \u0627\u0644\u0642\u0648\u0627\u062a \u0627\u0644\u0645\u0633\u0644\u062d\u0629", "name:en": "Hospital of the Armed Forces"}}, {"type": "way", "id": 29222662, "center": {"lat": 29.8477635, "lon": 31.3427109}, "nodes": [321418046, 321418047, 321418048, 321418049, 321418046], "tags": {"amenity": "hospital", "name": "\u0645\u0633\u062a\u0634\u0641\u0649 \u062d\u0644\u0648\u0627\u0646 \u0627\u0644\u0639\u0627\u0645", "name:ar": "\u0645\u0633\u062a\u0634\u0641\u0649 \u062d\u0644\u0648\u0627\u0646 \u0627\u0644\u0639\u0627\u0645", "name:en": "Helwan General Hospital"}}, {"type": "way", "id": 29222704, "center": {"lat": 29.8362639, "lon": 31.3387308}, "nodes": [321418755, 321418756, 321418757, 321418758, 321418755], "tags": {"amenity": "hospital", "name": "\u0645\u0633\u062a\u0634\u0641\u064a \u062d\u0644\u0648\u0627\u0646 \u0644\u0644\u0635\u062d\u0629 \u0627\u0644\u0646\u0641\u0633\u064a\u0629", "name:ar": "\u0645\u0633\u062a\u0634\u0641\u064a \u062d\u0644\u0648\u0627\u0646 \u0644\u0644\u0635\u062d\u0629 \u0627\u0644\u0646\u0641\u0633\u064a\u0629", "name:en": "Helwan Psychiatric Hospital"}}, {"type": "way", "id": 43157366, "center": {"lat": 24.07534, "lon": 32.8883761}, "nodes": [540654426, 3757911947, 3757911946, 1133093189, 3757911948, 3757911949, 540654427, 3757911950, 3757911951, 540654428, 540654430, 1133093360, 1133092964, 540654431, 3757911940, 3757911941, 540654426], "tags": {"amenity": "hospital", "name": "\u0645\u0633\u062a\u0634\u0641\u064a \u0645\u0628\u0627\u0631\u0643 \u0627\u0644\u0639\u0633\u0643\u0631\u064a", "name:ar": "\u0645\u0633\u062a\u0634\u0641\u064a \u0645\u0628\u0627\u0631\u0643 \u0627\u0644\u0639\u0633\u0643\u0631\u064a", "name:en": "Mubarak Military Hospital"}}, {"type": "way", "id": 43157497, "center": {"lat": 24.0944224, "lon": 32.9083466}, "nodes": [540657756, 540657757, 540657758, 540657762, 540657756], "tags": {"alt_name": "\u0645\u0633\u062a\u0634\u0641\u0649 \u0627\u0645\u0631\u0627\u0636 \u0627\u0644\u0635\u062f\u0631", "amenity": "hospital", "name": "\u0645\u0633\u062a\u0634\u0641\u0649 \u0627\u0645\u0631\u0627\u0636 \u0627\u0644\u0635\u062f\u0631", "name:ar": "\u0645\u0633\u062a\u0634\u0641\u0649 \u0627\u0645\u0631\u0627\u0636 \u0627\u0644\u0635\u062f\u0631", "name:en": "Chest Diseases Hospital"}}, {"type": "way", "id": 51218980, "center": {"lat": 29.8400253, "lon": 31.3234196}, "nodes": [653596106, 653596107, 653596108, 653596109, 653596106], "tags": {"amenity": "hospital"}}, {"type": "way", "id": 65543206, "center": {"lat": 24.4539513, "lon": 39.6151263}, "nodes": [799612623, 799621756, 799608688, 799618964, 799612623], "tags": {"addr:city": "\u0627\u0644\u0645\u062f\u064a\u0646\u0629 \u0627\u0644\u0645\u0646\u0648\u0631\u0629", "amenity": "hospital", "building": "yes", "healthcare": "hospital", "name": "Safa Al-Medina Hospital \u0645\u0633\u062a\u0634\u0641\u06cc \u0635\u0641\u0627 \u0627\u0644\u0645\u062f\u06cc\u0646\u0629", "name:ar": "\u0645\u0633\u062a\u0634\u0641\u06cc \u0635\u0641\u0627 \u0627\u0644\u0645\u062f\u06cc\u0646\u0629"}}, {"type": "way", "id": 67214962, "center": {"lat": 24.4182404, "lon": 39.5300007}, "nodes": [811591440, 811591003, 811591194, 811591136, 811591184, 811591130, 811591311, 811591233, 811590931, 811590895, 811591062, 811591440], "tags": {"amenity": "hospital", "name": "Saudi German Hospital", "name:ar": "\u0645\u0633\u062a\u0634\u0641\u06cc \u0627\u0644\u0633\u0639\u0648\u062f\u06cc \u0627\u0644\u0622\u0644\u0645\u0627\u0646\u06cc", "name:en": "Bait al battarji Saudi German hospital (1,027 patient )", "phone": "+966 55 300 8119"}}, {"type": "way", "id": 88798740, "center": {"lat": 27.2367424, "lon": 33.8333678}, "nodes": [1030481932, 1030481935, 1030481936, 1030481938, 1030481940, 6358204433, 1030481945, 6358204432, 9689827672, 1030481947, 9689827673, 9689827674, 1030481951, 1030481932], "tags": {"amenity": "hospital", "building": "hospital", "healthcare": "hospital", "name": "Cleopatra Hurghada Hospital", "name:en": "Cleopatra Hurghada Hospital"}}, {"type": "way", "id": 92967919, "center": {"lat": 27.8818723, "lon": 34.2983613}, "nodes": [1077726939, 1077726909, 1077726907, 1077726943, 1077726939], "tags": {"amenity": "hospital", "contact:email": "sharmih@yahoo.com", "contact:phone": "+20 69 366 2367", "contact:website": "sharmih.webs.com", "healthcare": "hyperbaric_chamber", "source": "Bing"}}, {"type": "way", "id": 94168667, "center": {"lat": 27.185031, "lon": 31.1665243}, "nodes": [1094559659, 1094557703, 1094558914, 1094559885, 1094556229, 1094557247, 1094560071, 1094559659], "tags": {"amenity": "hospital", "healthcare": "hospital"}}, {"type": "way", "id": 94168695, "center": {"lat": 27.2003714, "lon": 31.1711841}, "nodes": [1094557230, 1094560036, 1094556561, 1094557526, 1094557230], "tags": {"amenity": "hospital"}}, {"type": "way", "id": 94175187, "center": {"lat": 26.5667304, "lon": 31.7081232}, "nodes": [1094631958, 1094631545, 1094631678, 1094631828, 1094631968, 1094631495, 1094632044, 7202303227, 7202303228, 1094631596, 7202303229, 1094632051, 7202303230, 1094631486, 1094631958], "tags": {"amenity": "hospital"}}, {"type": "way", "id": 94184971, "center": {"lat": 29.3161578, "lon": 30.8500159}, "nodes": [1094738681, 1094738169, 1094738546, 1094738097, 1126896085, 1094738500, 9237001949, 1094738681], "tags": {"amenity": "hospital", "healthcare": "hospital", "name": "\u0645\u0633\u062a\u0634\u0641\u0649 \u0627\u0644\u0641\u064a\u0648\u0645 \u0627\u0644\u0639\u0627\u0645", "name:ar": "\u0645\u0633\u062a\u0634\u0641\u0649 \u0627\u0644\u0641\u064a\u0648\u0645 \u0627\u0644\u0639\u0627\u0645", "name:en": "Fayoum General Hospital"}}, {"type": "way", "id": 94234559, "center": {"lat": 25.6115957, "lon": 32.5042173}, "nodes": [1095112611, 1095111320, 1095112201, 1095111479, 1095112611], "tags": {"amenity": "hospital", "healthcare": "hospital"}}, {"type": "way", "id": 94592273, "center": {"lat": 29.9974921, "lon": 30.9676311}, "nodes": [1098582777, 1098582751, 1098582723, 1098582701, 1098582734, 8478812918, 1098582703, 2516761402, 2516767384, 2516767386, 1098582777], "tags": {"amenity": "hospital", "emergency": "yes", "healthcare": "hospital", "name": "\u0645\u0633\u062a\u0634\u0641\u0649 \u062f\u0627\u0631 \u0627\u0644\u0641\u0624\u0627\u062f", "name:ar": "\u0645\u0633\u062a\u0634\u0641\u0649 \u062f\u0627\u0631 \u0627\u0644\u0641\u0624\u0627\u062f", "name:en": "Dar Al-Fourad hospital"}}, {"type": "way", "id": 96922027, "center": {"lat": 29.9682103, "lon": 32.5472285}, "nodes": [1123164824, 1123165465, 1123164850, 1123165002, 1123165290, 1123165614, 1123165427, 1123164720, 1123164979, 1123165240, 1123164824], "tags": {"amenity": "hospital", "healthcare": "hospital"}}, {"type": "way", "id": 97352998, "center": {"lat": 29.0640802, "lon": 31.1033074}, "nodes": [1127619997, 7187086118, 7187086112, 1127620311, 1127619593, 7187086111, 1127619397, 10602923485, 7187086110, 7187086109, 1127619960, 7187086108, 1127619249, 1127619840, 1127619634, 1127620233, 7187086119, 7187086117, 7187086116, 7187086121, 7187086120, 1127619535, 10687295418, 7187086115, 7187086114, 7187086113, 10687295406, 1127619997], "tags": {"amenity": "hospital", "healthcare": "hospital", "name": "\u0627\u0644\u0645\u0633\u062a\u0634\u0641\u0649 \u0627\u0644\u0639\u0627\u0645", "name:ar": "\u0627\u0644\u0645\u0633\u062a\u0634\u0641\u0649 \u0627\u0644\u0639\u0627\u0645"}}, {"type": "way", "id": 98888467, "center": {"lat": 25.442456, "lon": 30.5500786}, "nodes": [1144017017, 1144017178, 1144017061, 1144017155, 1144017277, 1144017372, 1144017454, 1144017043, 1144017152, 1144017264, 1144017309, 1144017386, 1144017017], "tags": {"amenity": "hospital", "emergency": "yes", "name": "Kharga Hospital"}}, {"type": "way", "id": 99872522, "center": {"lat": 27.2368134, "lon": 33.8452814}, "nodes": [1154618680, 1154618603, 1154618738, 1154618411, 1154618680], "tags": {"amenity": "hospital", "emergency": "yes", "healthcare": "hospital", "name": "Naval Hyerbaric and Emergency Medical Center", "name:en": "Naval Hyperbaric & Emergency Medical Center", "source": "Bing"}}, {"type": "way", "id": 100028353, "center": {"lat": 28.0897284, "lon": 30.7650292}, "nodes": [1156471450, 9271486014, 9271486005, 1888239264, 1156471661, 1156471291, 1156471263, 1156471352, 1156471494, 1156471620, 1156471409, 1156471450], "tags": {"amenity": "hospital", "emergency": "yes", "healthcare": "hospital", "name": "Al-Minya University hospital", "name:en": "Al-Minya University hospital"}}, {"type": "way", "id": 131655352, "center": {"lat": 21.3501021, "lon": 39.983319}, "nodes": [1448761182, 1448761146, 1448761158, 1448761151, 1448761210, 1448761156, 1448761133, 1448761130, 1448761161, 1448761169, 1448761173, 1448761132, 1448761124, 1448761144, 1448761202, 1448761182], "tags": {"amenity": "hospital", "name": "Arafat General hospital", "name:en": "Arafat General hospital", "name:tr": "Arafat Devlet Hastanesi"}}, {"type": "way", "id": 132325101, "center": {"lat": 21.3527903, "lon": 39.9836143}, "nodes": [1455822560, 1455822510, 1455822559, 1455822521, 1455822554, 1455822547, 1455822524, 1455822560], "tags": {"amenity": "hospital", "building": "yes", "emergency": "yes", "healthcare": "hospital", "name": "\u0645\u0633\u062a\u0634\u0641\u0649 \u062c\u0628\u0644 \u0627\u0644\u0631\u062d\u0645\u0629", "name:ar": "\u0645\u0633\u062a\u0634\u0641\u0649 \u062c\u0628\u0644 \u0627\u0644\u0631\u062d\u0645\u0629", "name:en": "Jabal Al-Rahmah Hospital", "name:ku": "Nexwe\u015fxaneya Jabl Rahmah", "name:tr": "Jabl Rahmah Hastanesi"}}, {"type": "way", "id": 133219649, "center": {"lat": 21.4112658, "lon": 39.8904818}, "nodes": [1466013035, 1466012883, 1466012881, 1466012967, 1466013003, 1466012952, 1466012941, 1466013104, 1466012976, 1466013149, 1466013140, 1466013129, 1466012913, 1466013006, 1466013133, 1466012911, 1466013035], "tags": {"amenity": "hospital", "building": "yes", "healthcare": "hospital", "name": "Mina Al-Share\u2019a Al-Jadeed Hospital", "name:ar": "\u0645\u0633\u062a\u0634\u0641\u0649 \u0645\u0646\u0649 \u0627\u0644\u0634\u0627\u0631\u0639 \u0627\u0644\u062c\u062f\u064a\u062f"}}, {"type": "way", "id": 136435260, "center": {"lat": 29.9535739, "lon": 31.260737}, "nodes": [1496532390, 7237725471, 1496532388, 7237725470, 7237725469, 1496532384, 7237725468, 1496532383, 7237725467, 1496532392, 1496532386, 1496532391, 7237725472, 1496532390], "tags": {"amenity": "hospital", "emergency": "yes", "healthcare": "hospital", "name": "\u0645\u0628\u0631\u0629 \u0627\u0644\u0645\u0639\u0627\u062f\u064a", "name:ar": "\u0645\u0628\u0631\u0629 \u0627\u0644\u0645\u0639\u0627\u062f\u064a", "name:en": "Al-Maadi Hospital"}}, {"type": "way", "id": 136525017, "center": {"lat": 21.4131803, "lon": 39.9016709}, "nodes": [1497534800, 1497534813, 1497534798, 1497534797, 1497534811, 1497534802, 1497534822, 1497534807, 4535067382, 1497534815, 1497534787, 1497534795, 1497534808, 1497534821, 1497534793, 1497534810, 1497534816, 1497534812, 1497534817, 1497534803, 1497534794, 1497534801, 1497534799, 1497534806, 1497534809, 1497534800], "tags": {"amenity": "hospital", "building": "yes", "healthcare": "hospital", "name": "Mina Al-Wadi Hospital", "name:en": "Mina Al-Wadi Hospital", "name:tr": "Mina Al Wadi Hastanesi", "phone": "+966 56798 5205"}}, {"type": "way", "id": 136696714, "center": {"lat": 21.6108639, "lon": 39.1424764}, "nodes": [1499623360, 1499623353, 1499623356, 1499623358, 1499623360], "tags": {"amenity": "hospital", "emergency": "no", "name": "SABA Clinics"}}, {"type": "way", "id": 157407184, "center": {"lat": 21.5137238, "lon": 39.174666}, "nodes": [1696285771, 1696285780, 4088530954, 1696285736, 1696285710, 1696285727, 1696285713, 1696285720, 1696285734, 1696285745, 1696285759, 1696285771], "tags": {"alt_name": "IMC", "amenity": "hospital", "building": "yes", "email": "imcinfo@imc.med.sa", "healthcare": "hospital", "jpoi_id": "100156", "layer": "1", "name": "\u0627\u0644\u0645\u0631\u0643\u0632 \u0627\u0644\u0637\u0628\u064a \u0627\u0644\u062f\u0648\u0644\u064a", "name:ar": "\u0627\u0644\u0645\u0631\u0643\u0632 \u0627\u0644\u0637\u0628\u064a \u0627\u0644\u062f\u0648\u0644\u064a", "name:en": "International Medical Center", "phone": "+966 12 650 9000"}}, {"type": "way", "id": 160447390, "center": {"lat": 22.2885325, "lon": 39.1179147}, "nodes": [1725034499, 1725034492, 1725034495, 1725034506, 1725034494, 1725034505, 1725034498, 1725034500, 1725034507, 1725034502, 1725034493, 1725034501, 1725034504, 1725034496, 1725034497, 1725034503, 1725034499], "tags": {"amenity": "hospital"}}, {"type": "way", "id": 162226479, "center": {"lat": 21.5434938, "lon": 39.1668928}, "nodes": [1741560514, 1741560513, 1741560511, 1741560512, 1741560508, 1741560505, 4453015539, 1741560514], "tags": {"amenity": "hospital", "emergency": "yes", "healthcare": "hospital", "name": "\u0645\u0633\u062a\u0634\u0641\u064a \u0627\u0644\u0645\u0644\u0643 \u0641\u0647\u062f \u0627\u0644\u0639\u0627\u0645", "name:ar": "\u0645\u0633\u062a\u0634\u0641\u064a \u0627\u0644\u0645\u0644\u0643 \u0641\u0647\u062f \u0627\u0644\u0639\u0627\u0645", "name:en": "King Fahad General Hospital"}}, {"type": "way", "id": 167093924, "center": {"lat": 29.5888566, "lon": 32.7118083}, "nodes": [1784962261, 1784962245, 1784962170, 1784962265, 1784962254, 1784962249, 1784962253, 1784962187, 1784962219, 1784962261], "tags": {"amenity": "hospital", "emergency": "no", "name": "Doctors Room"}}, {"type": "way", "id": 167093931, "center": {"lat": 29.5894924, "lon": 32.7111123}, "nodes": [1784962268, 1784962199, 1994144110, 1784962150, 1784962232, 4139587019, 4139584338, 1784962190, 1784962161, 1784962254, 1784962249, 1784962253, 1784962187, 1784962219, 1784962261, 1784962193, 1784962223, 1784962268], "tags": {"amenity": "hospital"}}, {"type": "way", "id": 167427173, "center": {"lat": 29.9806559, "lon": 31.3144951}, "nodes": [1788243885, 1788243898, 1788243887, 1788243836, 1788243907, 1788243885], "tags": {"amenity": "hospital", "emergency": "no", "name": "Royal"}}, {"type": "way", "id": 169992070, "center": {"lat": 29.9493131, "lon": 30.9125487}, "nodes": [1811411682, 1811411683, 1811387088, 1811387081, 1811411682], "tags": {"addr:city": "\u0645\u062f\u064a\u0646\u0629 6 \u0623\u0643\u062a\u0648\u0628\u0631", "addr:housename": "\u0645\u0633\u062a\u0634\u0641\u0649 6 \u0623\u0643\u062a\u0648\u0628\u0631 \u0627\u0644\u0639\u0627\u0645", "addr:street": "\u0645\u064a\u062f\u0627\u0646 \u0641\u0648\u062f\u0627\u0641\u0648\u0646", "amenity": "hospital", "building": "yes", "emergency": "yes", "name": "\u0645\u0633\u062a\u0634\u0641\u0649 6 \u0623\u0643\u062a\u0648\u0628\u0631 \u0627\u0644\u0639\u0627\u0645", "name:ar": "\u0645\u0633\u062a\u0634\u0641\u0649 6 \u0623\u0643\u062a\u0648\u0628\u0631 \u0627\u0644\u0639\u0627\u0645", "name:en": "6th October general Hospital"}}, {"type": "way", "id": 171485813, "center": {"lat": 27.2426673, "lon": 33.8437312}, "nodes": [1825090074, 3281670271, 3281670270, 1825090107, 1825090010, 10753561925, 10753561927, 1825090067, 1825090074], "tags": {"amenity": "hospital", "healthcare": "hospital", "name": "Salam Hospital"}}, {"type": "way", "id": 171487925, "center": {"lat": 27.260334, "lon": 33.8186494}, "nodes": [1825102639, 8817404674, 8817404675, 5718890372, 8817404676, 1825102635, 1825102634, 1825102645, 5718884983, 5718884984, 1825102647, 1825102642, 1825102639], "tags": {"amenity": "hospital", "healthcare": "hospital", "name": "\u0645\u0633\u062a\u0634\u0641\u064a \u0627\u0644\u063a\u0631\u062f\u0642\u0647 \u0627\u0644\u0639\u0627\u0645", "name:ar": "\u0645\u0633\u062a\u0634\u0641\u064a \u0627\u0644\u063a\u0631\u062f\u0642\u0647 \u0627\u0644\u0639\u0627\u0645", "name:en": "Hurghada General Hospital"}}, {"type": "way", "id": 171488622, "center": {"lat": 27.2612373, "lon": 33.8070453}, "nodes": [1825109450, 1825109448, 1825109449, 6446525925, 6446525926, 1825109446, 1157535495, 1157535464, 1825109452, 1825109456, 6446525923, 1825109450], "tags": {"amenity": "hospital", "healthcare": "hospital", "name": "Military Hospital"}}, {"type": "way", "id": 171492234, "center": {"lat": 27.2202384, "lon": 33.8187261}, "nodes": [1825138381, 1825138385, 1825138352, 1825138348, 1825138381], "tags": {"amenity": "hospital", "healthcare": "hospital"}}, {"type": "way", "id": 171746916, "center": {"lat": 27.1941522, "lon": 33.8294668}, "nodes": [1827290386, 9323237317, 9323237318, 9323237319, 1827290404, 9323229915, 9323229916, 1827290384, 1827290414, 1827290386], "tags": {"amenity": "hospital", "healthcare": "hospital", "name": "The Egyptian Hospital"}}, {"type": "way", "id": 171756639, "center": {"lat": 27.2359152, "lon": 33.8338655}, "nodes": [1827366347, 1827366342, 1827366345, 1827366344, 1827366349, 1827366348, 1827366347], "tags": {"amenity": "hospital", "healthcare": "hospital", "name": "Red Sea Hospital"}}, {"type": "way", "id": 173591810, "center": {"lat": 25.0371043, "lon": 37.2675399}, "nodes": [1843785419, 1843785422, 1843785420, 5318001417, 5318001416, 1843785421, 1843785419], "tags": {"amenity": "hospital", "name": "\u0627\u0644\u062d\u0648\u0631\u0627\u0621", "name:en": "Alhawraa Hospital"}}, {"type": "way", "id": 178408136, "center": {"lat": 24.0828546, "lon": 38.0503023}, "nodes": [1887561316, 1887561311, 1887561309, 1887561310, 1887561316], "tags": {"amenity": "hospital", "name": "\u0645\u0633\u062a\u0634\u0641\u064a \u064a\u0646\u0628\u0639 \u0627\u0644\u0639\u0627\u0645", "name:en": "Yanbo General Hospital"}}, {"type": "way", "id": 178409761, "center": {"lat": 24.0982318, "lon": 38.0289265}, "nodes": [1887574160, 1887574159, 1887574157, 1887574158, 1887574160], "tags": {"addr:city": "\u064a\u0646\u0628\u0639", "addr:city:ar": "\u064a\u0646\u0628\u0639", "amenity": "hospital", "emergency": "yes", "healthcare": "hospital", "language:ar": "main", "name": "\u0645\u0633\u062a\u0634\u0641\u064a \u064a\u0646\u0628\u0639 \u0627\u0644\u0639\u0627\u0645", "name:ar": "\u0645\u0633\u062a\u0634\u0641\u064a \u064a\u0646\u0628\u0639 \u0627\u0644\u0639\u0627\u0645", "name:en": "New Yanbu Hospital"}}, {"type": "way", "id": 178895588, "center": {"lat": 28.1011235, "lon": 30.7544336}, "nodes": [1892479014, 1892479033, 1892479028, 1892479015, 1892479014], "tags": {"amenity": "hospital", "emergency": "yes", "healthcare": "hospital", "name": "\u0645\u0633\u062a\u0634\u0641\u0649 \u0627\u0644\u0645\u0646\u064a\u0627 \u0627\u0644\u0639\u0627\u0645", "name:ar": "\u0645\u0633\u062a\u0634\u0641\u0649 \u0627\u0644\u0645\u0646\u064a\u0627 \u0627\u0644\u0639\u0627\u0645", "name:en": "Al-Minya General Hospital"}}, {"type": "way", "id": 187767598, "center": {"lat": 28.0523902, "lon": 34.4307611}, "nodes": [1984036054, 1984035997, 1984036009, 1984035881, 1984035894, 1984036065, 1984036054], "tags": {"amenity": "hospital", "building": "yes", "healthcare": "hospital", "name": "Raouf Hospital", "name:en": "Raouf Hospital"}}, {"type": "way", "id": 188172618, "center": {"lat": 29.8516568, "lon": 31.3418884}, "nodes": [1987980334, 1987980336, 1987980335, 1987980337, 1987980333, 1987980334], "tags": {"access": "yes", "amenity": "hospital", "name": "\u0645\u0633\u062a\u0634\u0641\u0649 \u062c\u0627\u0645\u0639\u0629 \u062d\u0644\u0648\u0627\u0646", "name:ar": "\u0645\u0633\u062a\u0634\u0641\u0649 \u062c\u0627\u0645\u0639\u0629 \u062d\u0644\u0648\u0627\u0646", "name:en": "Helwan University Hospital"}}, {"type": "way", "id": 188792166, "center": {"lat": 29.5895521, "lon": 32.7109644}, "nodes": [1994144035, 1994144007, 1994144053, 1994144020, 1994144032, 1994144117, 1994144086, 1994144096, 1994144033, 1994144121, 1994144088, 1994144112, 1994144115, 1994143986, 1994144094, 1994144029, 1994144082, 1994144103, 1994144128, 1994144037, 3233882436, 1994144089, 1994144034, 1994144056, 1994144100, 1994144040, 1994143996, 1994144084, 1994144113, 1994144022, 1994143991, 1994144013, 1994144035], "tags": {"amenity": "hospital", "building": "yes", "emergency": "yes", "name": "Ras Sudr Hospital"}}, {"type": "way", "id": 190559035, "center": {"lat": 27.2172342, "lon": 33.8177448}, "nodes": [2012066623, 2012066647, 5635442199, 5635442200, 5635442201, 2012066663, 5635442202, 5635442203, 2012066629, 5635442204, 5635442205, 2012066628, 2012066620, 2012066658, 5635442207, 5635442206, 2012066638, 2012066649, 2012066643, 2012066637, 2012066653, 2012066635, 2012066651, 2012066622, 2012066623], "tags": {"amenity": "hospital", "building": "yes", "name": "Nile Hospital"}}, {"type": "way", "id": 205300370, "center": {"lat": 29.997508, "lon": 35.4860176}, "nodes": [2152786549, 2152786571, 2152786575, 2152786574, 2152786555, 2152786542, 2152786557, 2152786564, 2152786538, 2152786549], "tags": {"amenity": "hospital", "building": "yes"}}, {"type": "way", "id": 207309094, "center": {"lat": 25.7086948, "lon": 32.6454613}, "nodes": [2175041662, 2175041646, 2175041663, 2175041658, 2175041659, 10682639951, 2175041662], "tags": {"amenity": "hospital", "healthcare": "hospital", "name": "\u0645\u0633\u062a\u0634\u0641\u0649 \u0627\u0644\u0627\u0642\u0635\u0631 \u0627\u0644\u0639\u0627\u0645", "name:ar": "\u0645\u0633\u062a\u0634\u0641\u0649 \u0627\u0644\u0627\u0642\u0635\u0631 \u0627\u0644\u0639\u0627\u0645", "name:en": "Luxor General Hospital"}}, {"type": "way", "id": 209874062, "center": {"lat": 21.5577355, "lon": 39.2074353}, "nodes": [2200295318, 2200295314, 2200295316, 2200295313, 2200295318], "tags": {"amenity": "hospital", "emergency": "yes", "healthcare": "hospital", "name": "Al-Walada Hospital"}}, {"type": "way", "id": 223532636, "center": {"lat": 24.093649, "lon": 38.0393768}, "nodes": [2324220528, 2324220531, 2324220533, 2324220535, 2324220528], "tags": {"amenity": "hospital", "building": "yes", "emergency": "yes", "healthcare:speciality": "general", "name": "Sameer Ibrahim Saeedi General Hospital"}}, {"type": "way", "id": 223686085, "center": {"lat": 24.0075801, "lon": 38.2192699}, "nodes": [2325630975, 2325630977, 2325630979, 2325630981, 4892641354, 4892641353, 2325630983, 2325630985, 2325630987, 2325630989, 2325630991, 2325631015, 2325630993, 2325631017, 2325631019, 2325630995, 2325630997, 2325630999, 2325631001, 2325631003, 2325631005, 2325631007, 2325631009, 2325631011, 2325631013, 2325630975], "tags": {"amenity": "hospital", "building": "yes", "emergency": "yes"}}, {"type": "way", "id": 224336991, "center": {"lat": 24.0189582, "lon": 38.1953657}, "nodes": [2331582110, 2331582111, 2331582112, 2331582113, 2331582114, 2331582115, 2331582110], "tags": {"amenity": "hospital", "building": "yes"}}, {"type": "way", "id": 224336994, "center": {"lat": 24.0208583, "lon": 38.1939579}, "nodes": [2331582132, 2331582133, 2331582134, 2331582135, 2331582136, 2331582137, 2331582138, 2331582139, 2331582140, 2331582141, 2331582132], "tags": {"amenity": "hospital", "building": "yes"}}, {"type": "way", "id": 224336995, "center": {"lat": 24.0200807, "lon": 38.1949022}, "nodes": [2331582142, 2331582143, 2331582144, 2331582145, 2331582146, 2331582147, 2331582148, 2331582149, 2331582150, 2331582151, 2331582152, 2331582153, 2331582154, 2331582155, 2331582156, 2331582157, 2331582158, 2331582159, 2331582160, 2331582161, 2331582162, 2331582163, 2331582164, 2331582165, 2331582166, 2331582167, 2331582168, 2331582169, 2331582170, 2331582171, 2331582172, 2331582173, 2331582174, 2331582175, 2331582176, 2331582142], "tags": {"amenity": "hospital", "building": "yes", "emergency": "yes", "name": "\u0645\u0633\u062a\u0634\u0641\u064a \u0627\u0644\u0647\u064a\u0626\u0647 \u0627\u0644\u0645\u0644\u0643\u064a\u0647"}}, {"type": "way", "id": 224336996, "center": {"lat": 24.0179071, "lon": 38.1977255}, "nodes": [2331582177, 2331582178, 2331582179, 2331582180, 2331582181, 2331582182, 2331582183, 2331582184, 2331582185, 2331582186, 2331582187, 2331582188, 2331582190, 2331582192, 2331582194, 2331582196, 2331582177], "tags": {"amenity": "hospital", "building": "yes", "emergency": "yes", "name": "Alansari", "name:ar": "\u0627\u0644\u0623\u0646\u0635\u0627\u0631\u064a"}}, {"type": "way", "id": 226936740, "center": {"lat": 24.0909368, "lon": 38.0647608}, "nodes": [2356774338, 2356774340, 2356774342, 2356774344, 2356774338], "tags": {"amenity": "hospital", "building": "yes", "name": "Red Sea Dispensary"}}, {"type": "way", "id": 226937202, "center": {"lat": 24.0907445, "lon": 38.0673807}, "nodes": [2356777561, 2356777562, 2356777563, 2356777564, 2356777565, 2356777561], "tags": {"amenity": "hospital", "building": "yes", "name": "Safa Yanbu Hospital"}}, {"type": "way", "id": 228366067, "center": {"lat": 22.7738315, "lon": 39.033845}, "nodes": [2370501827, 2370501828, 2370501829, 2370501830, 2370501827], "tags": {"amenity": "hospital", "area": "yes", "healthcare": "hospital", "name": "\u0645\u0633\u062a\u0634\u0641\u0649 \u0631\u0627\u0628\u063a \u0627\u0644\u0639\u0627\u0645", "operator": "\u0648\u0632\u0627\u0631\u0629 \u0627\u0644\u0635\u062d\u0629", "website": "https://www.moh.gov.sa/"}}, {"type": "way", "id": 228750414, "center": {"lat": 24.0880273, "lon": 38.05949}, "nodes": [2374273685, 2374273687, 2374273688, 2374273690, 2374273692, 2374273694, 2374273685], "tags": {"amenity": "hospital", "building": "yes", "name": "Al Amal Polyclinic", "name:en": "Al Amal Polyclinic (1,283 patient )"}}, {"type": "way", "id": 228945456, "center": {"lat": 24.0022829, "lon": 38.2011826}, "nodes": [2375936188, 2375936189, 2375936190, 2375936191, 2375936188], "tags": {"amenity": "hospital", "building": "yes"}}, {"type": "way", "id": 243991636, "center": {"lat": 22.2723916, "lon": 39.8114528}, "nodes": [2513458739, 2513458740, 2513458741, 2513458742, 2513458739], "tags": {"amenity": "hospital", "emergency": "yes", "name": "\u0645\u0633\u062a\u0634\u0641\u0649 \u0627\u0644\u0643\u0627\u0645\u0644 \u0627\u0644\u0639\u0627\u0645", "name:ar": "\u0645\u0633\u062a\u0634\u0641\u0649 \u0627\u0644\u0643\u0627\u0645\u0644 \u0627\u0644\u0639\u0627\u0645", "name:en": "General Hospital"}}, {"type": "way", "id": 244349665, "center": {"lat": 29.9973985, "lon": 30.966095}, "nodes": [7190182985, 10720097514, 10908083322, 7190143364, 1098582703, 7190182985], "tags": {"addr:housename": "\u0645\u0633\u062a\u0634\u0641\u0649 \u062c\u0627\u0645\u0639\u0629 \u0645\u0635\u0631", "amenity": "hospital", "building": "yes", "emergency": "yes", "healthcare": "hospital", "name": "\u0645\u0633\u062a\u0634\u0641\u0649 \u062c\u0627\u0645\u0639\u0629 \u0645\u0635\u0631", "name:ar": "\u0645\u0633\u062a\u0634\u0641\u0649 \u062c\u0627\u0645\u0639\u0629 \u0645\u0635\u0631", "name:en": "MUST hospital"}}, {"type": "way", "id": 247887765, "center": {"lat": 29.9570139, "lon": 30.9187639}, "nodes": [7202599335, 2547425437, 2547425438, 2547425439, 2547425440, 2547425441, 2547425442, 6537442187, 7202599335], "tags": {"amenity": "hospital", "emergency": "yes", "name": "\u0645\u0633\u062a\u0634\u0641\u0649 \u0627\u0644\u0634\u0631\u0637\u0629", "name:ar": "\u0645\u0633\u062a\u0634\u0641\u0649 \u0627\u0644\u0634\u0631\u0637\u0629", "name:en": "Police Hospital"}}, {"type": "way", "id": 247887880, "center": {"lat": 29.9558184, "lon": 30.9178128}, "nodes": [2547426664, 11056698672, 11056698673, 11056698674, 2547426664], "tags": {"amenity": "hospital", "building": "yes", "emergency": "yes", "name": "\u0645\u0631\u0643\u0632 \u0627\u0644\u0642\u0627\u0647\u0631\u0629 \u0627\u0644\u0637\u0628\u0649", "name:ar": "\u0645\u0631\u0643\u0632 \u0627\u0644\u0642\u0627\u0647\u0631\u0629 \u0627\u0644\u0637\u0628\u0649", "name:en": "Cairo Medical Center"}}, {"type": "way", "id": 248141728, "center": {"lat": 29.9661279, "lon": 30.9328926}, "nodes": [1155261102, 2549916503, 2549916504, 2549916506, 1155260069, 1155260255, 1155261102], "tags": {"amenity": "hospital", "building": "yes", "healthcare": "hospital", "name": "\u0645\u0631\u0643\u0632 \u062f.\u0639\u0635\u0627\u0645 \u0628\u0644\u064a\u063a \u0644\u0644\u0642\u0644\u0628 \u0648\u0627\u0644\u0623\u0648\u0639\u064a\u0629", "name:ar": "\u0645\u0631\u0643\u0632 \u062f.\u0639\u0635\u0627\u0645 \u0628\u0644\u064a\u063a \u0644\u0644\u0642\u0644\u0628 \u0648\u0627\u0644\u0623\u0648\u0639\u064a\u0629", "name:en": "Dr.Essam Baligh for Cardiovascular and Ultrasound Center"}}, {"type": "way", "id": 248170353, "center": {"lat": 29.9679843, "lon": 30.9492891}, "nodes": [2550096999, 2550097000, 2550097001, 2550097002, 2550096999], "tags": {"addr:city": "\u0645\u062f\u064a\u0646\u0629 6 \u0623\u0643\u062a\u0648\u0628\u0631", "addr:housename": "\u0645\u0633\u062a\u0634\u0641\u0649 \u0627\u0644\u0648\u0627\u062f\u0649", "addr:street": "\u0623\u0628\u0648 \u0628\u0643\u0631 \u0627\u0644\u0635\u062f\u064a\u0642", "amenity": "hospital", "building": "yes", "emergency": "yes", "healthcare": "hospital", "name": "\u0645\u0633\u062a\u0634\u0641\u0649 \u0627\u0644\u0648\u0627\u062f\u0649", "name:ar": "\u0645\u0633\u062a\u0634\u0641\u0649 \u0627\u0644\u0648\u0627\u062f\u0649", "name:en": "Al Wadi hospital"}}, {"type": "way", "id": 248171292, "center": {"lat": 29.966224, "lon": 30.9511938}, "nodes": [2550101862, 2550101863, 7199256925, 7199256924, 2550101864, 2550101865, 10694744445, 2550101866, 7199256923, 2550101862], "tags": {"addr:city": "\u0645\u062f\u064a\u0646\u0629 6 \u0623\u0643\u062a\u0648\u0628\u0631", "addr:housename": "\u0645\u0633\u062a\u0634\u0641\u0649 \u0627\u0644\u0635\u0641\u0648\u0629", "addr:street": "\u0634\u0627\u0631\u0639 \u0631\u064a\u062a\u0634 \u0628\u0627\u0643", "amenity": "hospital", "emergency": "yes", "healthcare": "hospital", "name": "\u0645\u0633\u062a\u0634\u0641\u0649 \u0627\u0644\u0635\u0641\u0648\u0629", "name:ar": "\u0645\u0633\u062a\u0634\u0641\u0649 \u0627\u0644\u0635\u0641\u0648\u0629", "name:en": "Al Safwa hospital"}}, {"type": "way", "id": 264473072, "center": {"lat": 28.5666652, "lon": 33.9525591}, "nodes": [2701523244, 2701523245, 2701523247, 2701523249, 2701523244], "tags": {"addr:city": "\u0633\u0627\u0646\u062a \u0643\u0627\u062a\u0631\u064a\u0646", "addr:city:ar": "\u0633\u0627\u0646\u062a \u0643\u0627\u062a\u0631\u064a\u0646", "amenity": "hospital", "healthcare": "hospital", "name": "\u0627\u0644\u0645\u0633\u062a\u0634\u0641\u0649", "name:ar": "\u0627\u0644\u0645\u0633\u062a\u0634\u0641\u0649"}}, {"type": "way", "id": 284356791, "center": {"lat": 24.0074665, "lon": 38.1675386}, "nodes": [2880985539, 2880985540, 2880985541, 2880985542, 2880985539], "tags": {"amenity": "hospital", "name": "Albathnah Primary Care Clinic", "name:ar": "\u0645\u0631\u0643\u0632 \u0627\u0644\u0631\u0639\u0627\u064a\u0629 \u0627\u0644\u0635\u062d\u064a\u0629 \u0627\u0644\u0627\u0648\u0644\u064a\u0629 \u0628\u0627\u0644\u0628\u062b\u0646\u0629"}}, {"type": "way", "id": 285483832, "center": {"lat": 21.5588813, "lon": 39.1484736}, "nodes": [2891587897, 2891587898, 2891587899, 2891587900, 2891595901, 2891595902, 2891587897], "tags": {"amenity": "hospital", "emergency": "yes", "healthcare": "hospital", "name": "\u0645\u0633\u062a\u0634\u0641\u0649 \u0627\u0644\u0645\u0644\u0643 \u0641\u064a\u0635\u0644 \u0627\u0644\u062a\u062e\u0635\u0635\u064a \u0648\u0645\u0631\u0643\u0632 \u0627\u0644\u0623\u0628\u062d\u0627\u062b-\u0627\u0644\u0645\u0628\u0646\u0649 \u0627\u0644\u0631\u0626\u064a\u0633\u064a", "name:en": "King Faisal Specialist Hospital & Research Center", "operator": "\u0645\u0633\u062a\u0634\u0641\u0649 \u0627\u0644\u0645\u0644\u0643 \u0641\u064a\u0635\u0644 \u0627\u0644\u062a\u062e\u0635\u0635\u064a \u0648\u0645\u0631\u0643\u0632 \u0627\u0644\u0623\u0628\u062d\u0627\u062b", "operator:type": "government", "website": "https://www.kfshrc.edu.sa/", "wikidata": "Q6856599", "wikipedia": "en:King Faisal Specialist Hospital and Research Centre"}}, {"type": "way", "id": 309088055, "center": {"lat": 29.9824474, "lon": 31.3459353}, "nodes": [3143950949, 3143950950, 3143950951, 3143950952, 3143950949], "tags": {"amenity": "hospital", "healthcare": "hospital", "name": "El Ahly Bank Hospital"}}, {"type": "way", "id": 310568032, "center": {"lat": 24.4771637, "lon": 39.5655596}, "nodes": [3160092600, 3160092601, 3160092602, 3160092603, 3160092604, 3160092605, 3160092606, 3160092607, 3160092608, 3160092609, 3160092610, 3160092611, 3160092612, 3160092613, 3160092614, 3160092615, 3160092616, 3160092617, 3160092600], "tags": {"amenity": "hospital", "building": "hospital", "name": "University Medical Center \u0627\u0644\u0645\u0631\u0643\u0632 \u0627\u0644\u0637\u0628\u064a \u0627\u0644\u062c\u0627\u0645\u0639\u064a", "name:ar": "\u0627\u0644\u0645\u0631\u0643\u0632 \u0627\u0644\u0637\u0628\u064a \u0627\u0644\u062c\u0627\u0645\u0639\u064a", "name:en": "University Medical Center"}}, {"type": "way", "id": 318263026, "center": {"lat": 26.1497065, "lon": 34.2485374}, "nodes": [3246625499, 3246625500, 3246625501, 3246625502, 3246625503, 3246625504, 3246625505, 3246625506, 3246625499], "tags": {"amenity": "hospital", "building": "yes"}}, {"type": "way", "id": 323011851, "center": {"lat": 21.6279592, "lon": 39.1487585}, "nodes": [3298081872, 3298081873, 3298081874, 3298081875, 3298081876, 3298081872], "tags": {"amenity": "hospital", "name": "Al Amal Hospital"}}, {"type": "way", "id": 375399296, "center": {"lat": 21.4155855, "lon": 39.8065275}, "nodes": [3787697911, 3787697912, 3787697913, 3787697914, 3787697911], "tags": {"amenity": "hospital", "fixme": "name, name:ar mismatch.", "name": "Hospital Shifa \u0645\u0633\u062a\u0634\u0641\u0649 \u0627\u0644\u0634\u0641\u0627\u0621 \u0627\u0644\u0637\u0628\u064a", "name:ar": "\u0645\u0633\u062a\u0634\u0641\u0649 \u0627\u0644\u0634\u0641\u0627\u0621 \u0627\u0644\u0637\u0628\u064a"}}, {"type": "way", "id": 379522469, "center": {"lat": 21.3813521, "lon": 39.8810934}, "nodes": [3828293857, 3828293858, 4540471529, 4540471528, 4540471527, 4540471526, 4540471531, 4540471530, 4540471525, 3828293859, 3828293860, 3828293857], "tags": {"amenity": "hospital", "emergency": "yes", "name": "\u0645\u062f\u064a\u0646\u0629 \u0627\u0644\u0645\u0644\u0643 \u0639\u0628\u062f\u0627\u0644\u0644\u0647 \u0627\u0644\u0637\u0628\u064a\u0629", "name:en": "King Abdullah Medical City Hospital", "name:tr": "Kral Abdullah T\u0131p Kent Hastanesi", "operator": "Ministry of Health"}}, {"type": "way", "id": 407175627, "center": {"lat": 21.5074992, "lon": 39.2400425}, "nodes": [4092109484, 4092109483, 4092109452, 4092102842, 4092109484], "tags": {"amenity": "hospital", "healthcare": "hospital", "name": "\u0645\u0631\u0643\u0632 \u0635\u062d\u064a \u0627\u0644\u0633\u064a\u0644\u0645\u0627\u0646\u064a\u0629"}}, {"type": "way", "id": 407175629, "center": {"lat": 21.5085315, "lon": 39.2417325}, "nodes": [4092109452, 4092109678, 4092109671, 4092109467, 4092109468, 4092109469, 4092109470, 4092109471, 4092109672, 4092109674, 4092109472, 4092109473, 4092109474, 4092109475, 4092109476, 4092109477, 4092109478, 4092109479, 4092109480, 4092109481, 4092109482, 4092102851, 4092109484, 4092109483, 4092109452], "tags": {"amenity": "hospital", "healthcare": "hospital", "name": "\u0645\u0633\u062a\u0634\u0641\u0649 \u0634\u0631\u0642 \u062c\u062f\u0629"}}, {"type": "way", "id": 409332378, "center": {"lat": 21.4982314, "lon": 39.2125568}, "nodes": [4112465176, 4112465177, 4112465178, 4112465179, 4112465176], "tags": {"amenity": "hospital", "name": "\u0645\u0633\u062a\u0648\u0635\u0641 \u0628\u0644\u063a\u0635\u0648\u0646"}}, {"type": "way", "id": 436534577, "center": {"lat": 21.5945841, "lon": 39.1435391}, "nodes": [4344243136, 4344243137, 4344243138, 4344243139, 4344243140, 4344243141, 4344243136], "tags": {"alt_name": "Dr. Ghassan N. Pharaon Hospital", "alt_name:en": "GNP", "amenity": "hospital", "building": "hospital", "healthcare": "hospital", "name": "\u0645\u0633\u062a\u0634\u0641\u0649 \u0627\u0644\u0634\u0628\u0643\u0629 \u0627\u0644\u0634\u0627\u0645\u0644\u0629", "name:ar": "\u0645\u0633\u062a\u0634\u0641\u0649 \u0627\u0644\u0634\u0628\u0643\u0629 \u0627\u0644\u0634\u0627\u0645\u0644\u0629", "phone_1": "+966126823200", "phone_2": "+966126906200", "website": "https://gnp.com.sa/"}}, {"type": "way", "id": 457211483, "center": {"lat": 24.454112, "lon": 39.6266659}, "nodes": [4533855979, 4533855980, 4533855981, 4533855982, 4533855979], "tags": {"amenity": "hospital", "building": "yes", "emergency": "yes", "healthcare": "hospital", "name": "\u0645\u0633\u062a\u0634\u0641\u0649 \u0627\u0644\u0632\u0647\u0631\u0627\u0621", "name:ar": "\u0645\u0633\u062a\u0634\u0641\u0649 \u0627\u0644\u0632\u0647\u0631\u0627\u0621", "name:en": "Zehra hospital", "name:tr": "Zehra Hastanesi"}}, {"type": "way", "id": 457319394, "center": {"lat": 21.3887548, "lon": 39.9228567}, "nodes": [4534843944, 4534843945, 4534843946, 4534843947, 4534843944], "tags": {"amenity": "hospital", "fixme": "name, name:ar mismatch.", "name": "Hilal Ahmar \u0627\u0644\u0647\u0644\u0627\u0644 \u0627\u0644\u0627\u062d\u0645\u0631", "name:ar": "\u0627\u0644\u0647\u0644\u0627\u0644 \u0627\u0644\u0627\u062d\u0645\u0631"}}, {"type": "way", "id": 457321838, "center": {"lat": 21.3346232, "lon": 39.9878841}, "nodes": [4534862124, 4534862125, 4534862126, 4534862127, 4534862124], "tags": {"amenity": "hospital", "healthcare": "hospital", "name": "Eastern Arafat Hospital", "name:en": "Eastern Arafat Hospital", "name:tr": "Do\u011fu Arafat Hastanesi"}}, {"type": "way", "id": 457324471, "center": {"lat": 21.3712869, "lon": 39.9379905}, "nodes": [4534886092, 4534886093, 4534886094, 4534886095, 4534886092], "tags": {"amenity": "hospital", "name": "Medical Center", "name:en": "Medical Center"}}, {"type": "way", "id": 457454052, "center": {"lat": 21.4349721, "lon": 39.853642}, "nodes": [4535974929, 4535974930, 4535974931, 4535974932, 4535974933, 4535974934, 4535974935, 4535974936, 4535974937, 4535974938, 4535974939, 4535974940, 4535974941, 4535974942, 4535974929], "tags": {"amenity": "hospital", "building": "yes", "fixme": "name, name:ar mismatch.", "name": "\u0645\u0633\u062a\u0634\u0641\u0649 \u0627\u0644\u0645\u0644\u0643 \u0641\u064a\u0635\u0644", "name:ar": "\u0645\u0633\u062a\u0634\u0641\u0649 \u0627\u0644\u0645\u0644\u0643 \u0641\u064a\u0635\u0644 \u0627\u0644\u062a\u062e\u0635\u0635\u064a", "name:en": "King Faisal Hospital"}}, {"type": "way", "id": 457509225, "center": {"lat": 21.437868, "lon": 39.8049551}, "nodes": [4536530382, 4536530383, 4536530384, 4536530385, 4536530386, 4536530387, 4536530382], "tags": {"amenity": "hospital", "name": "SHIFA AL BARAKA MEDICAL CENTER", "name:en": "SHIFA AL BARAKA MEDICAL CENTER", "phone": "+966 597 837 373"}}, {"type": "way", "id": 457509472, "center": {"lat": 21.4417682, "lon": 39.8072648}, "nodes": [4536543957, 4536543958, 4536543959, 4536543960, 4536543957], "tags": {"amenity": "hospital", "fixme": "name, name:ar mismatch. name, name:ar mismatch.", "name": "Hospital King Abdulaziz \u0645\u0633\u062a\u0634\u0641\u0649 \u0627\u0644\u0645\u0644\u0643 \u0639\u0628\u062f \u0627\u0644\u0639\u0632\u064a\u0632", "name:ar": "\u0645\u0633\u062a\u0634\u0641\u0649 \u0627\u0644\u0645\u0644\u0643 \u0639\u0628\u062f \u0627\u0644\u0639\u0632\u064a\u0632", "name:en": "Hospital King Abdulaziz", "name:fr": "Hospital King Abdulaziz", "name:tr": "Kral Abd\u00fclaziz Hastanesi", "phone": "+966 12 5442400"}}, {"type": "way", "id": 457991013, "center": {"lat": 21.3754837, "lon": 39.8811019}, "nodes": [4540474246, 4540474247, 4540474248, 4540474249, 4540474246], "tags": {"amenity": "hospital", "name": "\u0645\u0633\u062a\u0634\u0641\u0649 \u0627\u0644\u0648\u0644\u0627\u062f\u0629 \u0648 \u0627\u0644\u0623\u0637\u0641\u0627\u0644", "name:ar": "\u0645\u0633\u062a\u0634\u0641\u0649 \u0627\u0644\u0648\u0644\u0627\u062f\u0629 \u0648 \u0627\u0644\u0623\u0637\u0641\u0627\u0644", "name:en": "Maternity and Children Hospital", "name:tr": "Do\u011fum ve \u00c7ocuk Hastanesi"}}, {"type": "way", "id": 457991153, "center": {"lat": 21.3656266, "lon": 39.892523}, "nodes": [4540474779, 4540474780, 4540474781, 5070259396, 5070294536, 5070294538, 4540474782, 4540474779], "tags": {"amenity": "hospital", "name": "\u0645\u0633\u062a\u0634\u0641\u0649 \u0642\u0648\u0649 \u0627\u0644\u0623\u0645\u0646", "name:en": "Security Forces Hospital"}}, {"type": "way", "id": 458588221, "center": {"lat": 24.4415636, "lon": 39.6197891}, "nodes": [4545711174, 4545711175, 4545711176, 4545711177, 4545711178, 4545711179, 4545711174], "tags": {"amenity": "hospital", "name": "Al Dar Hospital", "name:ar": "\u0645\u0633\u062a\u0634\u0641\u0649 \u0627\u0644\u062f\u0627\u0631", "phone": "+966 148 677 777"}}, {"type": "way", "id": 458592017, "center": {"lat": 24.4417298, "lon": 39.6412451}, "nodes": [4545738244, 4545738245, 4545738246, 4545738247, 4545738248, 4545738249, 4545738244], "tags": {"amenity": "hospital", "name": "\u0645\u0633\u062a\u0634\u0641\u0649 \u0627\u0644\u0645\u062f\u064a\u0646\u0629 \u0627\u0644\u062a\u062e\u0635\u0635\u064a", "name:ar": "\u0627\u0644\u0645\u0633\u062a\u0634\u0641\u0649 \u0627\u0644\u062a\u062e\u0635\u0635\u064a"}}, {"type": "way", "id": 458592023, "center": {"lat": 24.445923, "lon": 39.6425561}, "nodes": [4545744505, 4545744506, 4545744507, 4545744508, 4545744505], "tags": {"amenity": "hospital", "name": "\u0645\u0633\u062a\u0634\u0641\u0649 \u0627\u0644\u0645\u062f\u064a\u0646\u0629 \u0627\u0644\u0648\u0637\u0646\u064a"}}, {"type": "way", "id": 458592099, "center": {"lat": 24.4503311, "lon": 39.6302648}, "nodes": [4545745023, 4545745024, 4545745025, 4545745026, 4545745023], "tags": {"amenity": "hospital", "name": "Medical Rehabilitation Hospital"}}, {"type": "way", "id": 458914321, "center": {"lat": 24.41361, "lon": 39.5334785}, "nodes": [4548419584, 4548419585, 4548419586, 4548419587, 4548419584], "tags": {"amenity": "hospital", "name": "Al Miqat Hospital"}}, {"type": "way", "id": 458917828, "center": {"lat": 24.5330462, "lon": 39.637094}, "nodes": [4548437657, 4548437658, 5609785437, 5609785436, 5609785435, 5609785434, 5609785433, 4548437659, 5609785432, 4548437660, 7312353708, 7312353709, 7312353710, 7312353707, 5609785430, 7312353727, 5609785431, 4548437657], "tags": {"amenity": "hospital", "name": "Hospital Al Amir Mohammad Bin Abdulaziz", "name:ar": "\u0645\u0633\u062a\u0634\u0641\u0649 \u0627\u0644\u0623\u0645\u064a\u0631 \u0645\u062d\u0645\u062f \u0628\u0646 \u0639\u0628\u062f\u0627\u0644\u0639\u0632\u064a\u0632"}}, {"type": "way", "id": 460421854, "center": {"lat": 24.4541104, "lon": 39.6124975}, "nodes": [4560919629, 4560919630, 4560919631, 4560919632, 4560919629], "tags": {"amenity": "hospital", "building": "yes", "healthcare": "hospital", "name": "Hospital Al Rahmah \u0645\u0633\u062a\u0634\u0641\u0649 \u0627\u0644\u0631\u062d\u0645\u0629", "name:ar": "\u0645\u0633\u062a\u0634\u0641\u0649 \u0627\u0644\u0631\u062d\u0645\u0629"}}, {"type": "way", "id": 461205063, "center": {"lat": 21.4615567, "lon": 39.850066}, "nodes": [4567422589, 4567422590, 4567422591, 4567422592, 4567422589], "tags": {"amenity": "hospital", "building": "yes", "name": "Al Hajj Street Health Center \u0645\u0631\u0643\u0632 \u0635\u062d\u064a \u0634\u0627\u0631\u0639 \u0627\u0644\u062d\u062c", "name:ar": "Al Hajj Street Health Center \u0645\u0631\u0643\u0632 \u0635\u062d\u064a \u0634\u0627\u0631\u0639 \u0627\u0644\u062d\u062c"}}, {"type": "way", "id": 476930391, "center": {"lat": 25.6871551, "lon": 32.6394684}, "nodes": [4703503840, 4703503841, 4703503842, 4703503843, 4703503844, 4703503845, 4703503846, 4703503847, 4703503840], "tags": {"amenity": "hospital", "name": "Luxor International Hospital"}}, {"type": "way", "id": 476938609, "center": {"lat": 25.6887163, "lon": 32.633498}, "nodes": [4703594157, 4703594158, 4703594159, 4703594160, 4703594157], "tags": {"amenity": "hospital", "name": "\u0645\u0631\u0643\u0632 \u0627\u0644\u0627\u0642\u0635\u0631 \u0627\u0644\u0637\u0628\u0649", "name:ar": "\u0645\u0631\u0643\u0632 \u0627\u0644\u0627\u0642\u0635\u0631 \u0627\u0644\u0637\u0628\u0649", "name:en": "Luxor Medical Center"}}, {"type": "way", "id": 488326333, "center": {"lat": 26.2581924, "lon": 36.441106}, "nodes": [4806394940, 4806394941, 4806394942, 4806394943, 4806394940], "tags": {"amenity": "hospital", "name": "Alwajh General Hospital", "operator": "MOH"}}, {"type": "way", "id": 520141095, "center": {"lat": 21.4136485, "lon": 39.8801096}, "nodes": [5070373062, 5070373063, 5070373064, 5070373065, 5070373062], "tags": {"amenity": "hospital", "building": "yes", "healthcare": "hospital", "name": "Mina Emergency Hospital", "name:ar": "\u0645\u0633\u062a\u0634\u0641\u0649 \u0627\u0644\u0637\u0648\u0627\u0631\u0626 \u0628\u0645\u0646\u0649", "name:en": "Mina Emergency Hospital"}}, {"type": "way", "id": 536816576, "center": {"lat": 29.293847, "lon": 34.9383069}, "nodes": [5199452501, 7924451115, 7924451114, 7924451113, 7924451112, 5199452502, 5199452503, 5199452504, 5199452505, 7924451106, 7924451105, 7924451104, 7924451103, 5199452506, 5199452507, 7924451102, 7924451101, 6944017833, 5199452497, 5199452498, 5199452499, 5199452500, 5199452501], "tags": {"amenity": "hospital", "barrier": "wall", "wall": "brick"}}, {"type": "way", "id": 573234322, "center": {"lat": 28.3738977, "lon": 36.5785237}, "nodes": [5506063971, 5506063972, 5506063973, 5506063967, 5506063974, 5506063975, 5506063976, 5506063977, 5506063978, 5506063979, 5506063980, 5506063981, 5506064017, 5506063982, 5506063971], "tags": {"amenity": "hospital", "barrier": "wall", "healthcare": "hospital", "name": "King Khalid Armed Forces Hospital", "short_name": "KKAFH"}}, {"type": "way", "id": 573396161, "center": {"lat": 28.3950758, "lon": 36.5433312}, "nodes": [5507216624, 5507216625, 5507216626, 7913143112, 7913143117, 5507216627, 5507216628, 5507217982, 7913143145, 5507216629, 5507216630, 5507217980, 5507217979, 5507216624], "tags": {"amenity": "hospital", "barrier": "wall", "healthcare": "hospital"}}, {"type": "way", "id": 573711970, "center": {"lat": 28.4458899, "lon": 36.5128678}, "nodes": [5509238111, 7916455275, 7916455272, 5509238112, 7916455278, 5509238113, 7916455187, 7916455190, 5509238114, 5509238115, 5509238116, 7916455261, 5509238111], "tags": {"amenity": "hospital", "barrier": "wall", "healthcare": "hospital"}}, {"type": "way", "id": 573711972, "center": {"lat": 28.450316, "lon": 36.5095343}, "nodes": [5509238221, 7916455100, 7916455097, 5509238222, 5509238223, 5509238224, 5509238221], "tags": {"amenity": "hospital", "barrier": "wall", "healthcare": "hospital"}}, {"type": "way", "id": 573711977, "center": {"lat": 28.4483024, "lon": 36.5107842}, "nodes": [5509238238, 5509238239, 5509238240, 5509238241, 5509238238], "tags": {"amenity": "hospital", "barrier": "wall", "healthcare": "hospital"}}, {"type": "way", "id": 589738245, "center": {"lat": 21.3668253, "lon": 39.7732496}, "nodes": [4683115288, 4683115287, 5631617594, 4683115390, 4683115288], "tags": {"amenity": "hospital", "healthcare": "hospital", "name": "\u0645\u0631\u0643\u0632 \u0635\u062d\u064a \u0627\u0644\u0634\u0627\u0641\u0639\u064a"}}, {"type": "way", "id": 670889758, "center": {"lat": 21.4224214, "lon": 39.82311}, "nodes": [6282539218, 6282539219, 6282539220, 6282539221, 6282539218], "tags": {"amenity": "hospital", "building": "yes", "healthcare": "hospital", "name": "\u0627\u0644\u0647\u0644\u0627\u0644 \u0627\u0644\u0627\u062d\u0645\u0631", "name:ar": "\u0627\u0644\u0647\u0644\u0627\u0644 \u0627\u0644\u0627\u062d\u0645\u0631", "name:en": "Red Crescent", "wheelchair": "yes"}}, {"type": "way", "id": 676402012, "center": {"lat": 21.4089341, "lon": 39.8639854}, "nodes": [6334268235, 6334268236, 6334268237, 6334268239, 6334268240, 6334268241, 6334268242, 6334268238, 6334268235], "tags": {"amenity": "hospital", "building": "yes", "healthcare": "hospital", "name": "University Medical Center", "name:ar": "\u0627\u0644\u0645\u0631\u0643\u0632 \u0627\u0644\u0637\u0628\u064a \u0627\u0644\u062c\u0627\u0645\u0639\u064a"}}, {"type": "way", "id": 701393431, "center": {"lat": 21.5972446, "lon": 39.1336278}, "nodes": [560598881, 6587217949, 6587217950, 560598885, 560598927, 560598893, 10241578733, 560598877, 560598880, 560598881], "tags": {"addr:city": "jeddah", "addr:street": "\u0634\u0627\u0631\u0639 \u0627\u0644\u0628\u062a\u0631\u062c\u064a", "amenity": "hospital", "emergency": "yes", "healthcare": "hospital", "name": "Saudi German Hospital", "name:ar": "\u0645\u0633\u062a\u0634\u0641\u0649 \u0627\u0644\u0633\u0639\u0648\u062f\u064a \u0627\u0644\u0627\u0644\u0645\u0627\u0646\u064a", "phone": "920007997", "website": "https://www.sghgroup.com.sa"}}, {"type": "way", "id": 718113483, "center": {"lat": 21.4058992, "lon": 39.8920598}, "nodes": [6743867321, 6743867322, 6743867323, 6743867324, 6743867325, 6743867326, 6743867327, 6743867328, 6743867321], "tags": {"amenity": "hospital", "building": "yes", "healthcare": "hospital", "name": "National Guard Hospital", "name:ar": "\u0645\u0633\u062a\u0634\u0641\u0649 \u0627\u0644\u062d\u0631\u0633 \u0627\u0644\u0648\u0637\u0646\u064a \u0627\u0644\u0645\u064a\u062f\u0627\u0646\u064a"}}, {"type": "way", "id": 757082135, "center": {"lat": 24.4951676, "lon": 39.6069356}, "nodes": [7070531679, 7070531680, 7070531681, 7070531682, 7070531683, 7070531684, 7070564985, 7070564986, 7070564987, 7070564988, 7070564989, 7070564990, 7070564991, 7070564992, 7070564993, 7070564994, 7070564995, 7070564996, 7070564997, 7070564998, 7070564999, 7070565000, 7070565001, 7070565002, 7070565003, 7070565004, 7070565005, 7070565006, 7070565007, 7070565008, 7070582646, 7070582645, 7070582647, 7070582648, 7070582649, 7070582650, 7070582651, 7070582653, 7070582654, 7070582652, 7070582655, 7070582663, 7070582662, 7070582656, 7070582657, 7070582658, 7070582659, 7070582660, 7070582661, 7070565009, 7070565010, 7070565011, 7070565012, 7070565013, 7070565014, 7070565037, 7070565015, 7070565016, 7070565017, 7070565018, 7070565019, 7070565020, 7070565021, 7070565022, 7070565023, 7070565024, 7070565025, 7070565026, 7070565027, 7070565028, 7070565029, 7070565030, 7070565031, 7070565032, 7070565033, 7070565034, 7070565035, 7070565036, 7070582644, 7070582643, 7070582642, 7070582641, 7070582640, 7070582637, 7070582638, 7070582639, 7070582636, 7070582634, 7070582633, 7070582635, 7070531679], "tags": {"amenity": "hospital", "building": "yes", "healthcare": "hospital", "name": "Dr Hamid Suliman Al-Ahmadi Hospital", "name:ar": "\u0645\u0633\u062a\u0634\u0641\u0649 \u0627\u0644\u062f\u0643\u062a\u0648\u0631 \u062d\u0627\u0645\u062f \u0633\u0644\u064a\u0645\u0627\u0646 \u0627\u0644\u0623\u062d\u0645\u062f\u064a", "name:tr": "Dr. Hamid S\u00fcleyman Al-Ahmadi Hastanesi"}}, {"type": "way", "id": 769964776, "center": {"lat": 29.9848384, "lon": 31.2305978}, "nodes": [7187962795, 7187962792, 7187962793, 7187962794, 7187962795], "tags": {"amenity": "hospital", "name": "\u0645\u0633\u062a\u0634\u0641\u0649 \u0627\u0644\u0633\u0644\u0627\u0645 \u0627\u0644\u062f\u0648\u0644\u0649", "name:ar": "\u0645\u0633\u062a\u0634\u0641\u0649 \u0627\u0644\u0633\u0644\u0627\u0645 \u0627\u0644\u062f\u0648\u0644\u0649", "name:en": "As-Salam International Hospital"}}, {"type": "way", "id": 769964777, "center": {"lat": 29.9826526, "lon": 31.2311469}, "nodes": [7187962804, 7187962803, 7187962802, 7187962801, 7187962800, 7187962799, 7187962798, 7187962797, 7187962796, 7187962804], "tags": {"alt_name": "\u0645\u0633\u062a\u0634\u0641\u064a\u0627\u062a \u0643\u0644\u064a\u0648\u0628\u0627\u062a\u0631\u0627", "alt_name:en": "Cleopatra Hospitals", "amenity": "hospital", "name": "\u0645\u0633\u062a\u0634\u0641\u0649 \u0627\u0644\u0646\u064a\u0644 \u0628\u062f\u0631\u0627\u0648\u0649", "name:ar": "\u0645\u0633\u062a\u0634\u0641\u0649 \u0627\u0644\u0646\u064a\u0644 \u0628\u062f\u0631\u0627\u0648\u0649", "name:en": "Nile Badrawi Hospital"}}, {"type": "way", "id": 770229565, "center": {"lat": 27.1818948, "lon": 31.1841718}, "nodes": [7189958343, 7189958340, 7189958341, 7189958342, 7189958343], "tags": {"amenity": "hospital", "healthcare": "hospital", "name": "\u0645\u0633\u062a\u0634\u0641\u0649 \u0627\u0644\u0633\u0644\u0627\u0645", "name:ar": "\u0645\u0633\u062a\u0634\u0641\u0649 \u0627\u0644\u0633\u0644\u0627\u0645", "name:en": "El Salam Hospital"}}, {"type": "way", "id": 772341435, "center": {"lat": 29.9727441, "lon": 31.0389679}, "nodes": [7210793570, 7210793569, 7210793568, 7210793567, 7210793566, 7210793565, 7210793564, 7210793563, 7210793562, 7210793561, 7210793560, 7210793559, 7210793558, 7210793557, 7210793556, 7210793555, 7210793554, 7210793553, 7210793552, 7210793551, 7210793550, 7210793549, 7210793548, 7210793547, 7210793546, 7210793545, 7210793544, 7210793543, 7210793542, 7210793541, 7210793540, 7210793539, 7210793538, 7210793537, 7210793536, 7210793535, 7210793570], "tags": {"amenity": "hospital", "name": "\u0645\u0633\u062a\u0634\u0641\u0649 \u062f\u0631\u064a\u0645", "name:ar": "\u0645\u0633\u062a\u0634\u0641\u0649 \u062f\u0631\u064a\u0645", "name:en": "Dream Hospital"}}, {"type": "way", "id": 772374854, "center": {"lat": 29.0717398, "lon": 31.0976735}, "nodes": [7211097680, 7211097679, 7211097678, 7211097677, 7211097680], "tags": {"amenity": "hospital", "healthcare": "hospital", "name": "\u0645\u0633\u062a\u0634\u0641\u0649 \u0627\u0644\u0632\u0647\u0631\u0627\u0621", "name:ar": "\u0645\u0633\u062a\u0634\u0641\u0649 \u0627\u0644\u0632\u0647\u0631\u0627\u0621"}}, {"type": "way", "id": 774515756, "center": {"lat": 29.8525227, "lon": 31.3392255}, "nodes": [7226529597, 7226529595, 7226529594, 7226529593, 7226529592, 7226529591, 7226529590, 7226479782, 7226479781, 7226479780, 7226479778, 7226479777, 7226479776, 7226479775, 7226479772, 7226529589, 7226529586, 7226529597], "tags": {"amenity": "hospital", "emergency": "yes", "healthcare": "hospital", "name": "\u0627\u0644\u0627\u0646\u062a\u0627\u062c \u0627\u0644\u062d\u0631\u0628\u064a", "name:ar": "\u0627\u0644\u0627\u0646\u062a\u0627\u062c \u0627\u0644\u062d\u0631\u0628\u064a", "name:en": "Al-Entag Al-Harby", "wheelchair": "yes"}}, {"type": "way", "id": 775858333, "center": {"lat": 29.0801883, "lon": 31.1053607}, "nodes": [7237999661, 7237999660, 7237999659, 7237999658, 7237999655, 7237999657, 7237999656, 7237999661], "tags": {"amenity": "hospital", "healthcare": "hospital", "name": "\u0645\u0633\u062a\u0634\u0641\u0649 \u0627\u0644\u062c\u0627\u0645\u0639\u0629", "name:ar": "\u0645\u0633\u062a\u0634\u0641\u0649 \u0627\u0644\u062c\u0627\u0645\u0639\u0629"}}, {"type": "way", "id": 776123270, "center": {"lat": 26.1590896, "lon": 32.7072503}, "nodes": [7241401524, 7241401523, 7241401522, 7241401521, 7241401520, 7241401519, 7241401518, 7241401517, 7241401516, 7241401515, 7241401514, 7249081997, 7241401513, 7241401512, 7241401501, 7241401500, 7241401499, 7241401524], "tags": {"addr:street": "\u0634\u0627\u0631\u0639 \u0643\u0648\u0628\u0631\u064a \u062f\u0646\u062f\u0631\u0629", "amenity": "hospital", "name": "\u0645\u0633\u062a\u0634\u0641\u064a \u0642\u0646\u0627 \u0627\u0644\u0639\u0627\u0645", "name:ar": "\u0645\u0633\u062a\u0634\u0641\u064a \u0642\u0646\u0627 \u0627\u0644\u0639\u0627\u0645", "name:en": "Qena General Hospital"}}, {"type": "way", "id": 776911807, "center": {"lat": 29.9854507, "lon": 31.230857}, "nodes": [4563408806, 7249234332, 7249234331, 7249234330, 7249234329, 7249234328, 7249234327, 7249234326, 7249234325, 7249234324, 7249234323, 7249234322, 7249234321, 7249234320, 7249234319, 7249234318, 4563408806], "tags": {"amenity": "hospital", "building": "yes", "name": "\u0645\u0633\u062a\u0634\u0641\u0649 \u0627\u0644\u0633\u0644\u0627\u0645", "name:ar": "\u0645\u0633\u062a\u0634\u0641\u0649 \u0627\u0644\u0633\u0644\u0627\u0645", "name:en": "Salam Hospital"}}, {"type": "way", "id": 778077022, "center": {"lat": 25.0553001, "lon": 37.2499095}, "nodes": [7261746028, 7261746029, 7261746030, 7261746031, 7261746028], "tags": {"amenity": "hospital", "healthcare": "hospital"}}, {"type": "way", "id": 822946023, "center": {"lat": 28.479415, "lon": 30.7276149}, "nodes": [7683546796, 7683546797, 7683546798, 7683546799, 7683546796], "tags": {"amenity": "hospital", "healthcare": "hospital"}}, {"type": "way", "id": 848456085, "center": {"lat": 28.387667, "lon": 36.5774241}, "nodes": [7917114076, 7917114077, 7917114078, 7917114079, 7917114076], "tags": {"amenity": "hospital", "healthcare": "hospital"}}, {"type": "way", "id": 852641536, "center": {"lat": 25.0620676, "lon": 38.1079905}, "nodes": [7953801466, 7953801467, 7953801468, 7953801469, 7953801466], "tags": {"amenity": "hospital", "healthcare": "hospital"}}, {"type": "way", "id": 852700170, "center": {"lat": 25.0379466, "lon": 38.0993363}, "nodes": [7954390665, 7954390666, 7954390667, 7954390668, 7954390665], "tags": {"amenity": "hospital", "barrier": "wall", "healthcare": "hospital"}}, {"type": "way", "id": 852984624, "center": {"lat": 26.5553721, "lon": 37.9488202}, "nodes": [7956005323, 7956005324, 7956005325, 7956005326, 7956005323], "tags": {"amenity": "hospital", "healthcare": "hospital"}}, {"type": "way", "id": 900302929, "center": {"lat": 29.8550083, "lon": 31.3390844}, "nodes": [6694790719, 8363765053, 8363765054, 8363765055, 8363765056, 8363765057, 8363765058, 8363765059, 8363765060, 8363765061, 8363765062, 8363765063, 8363765064, 8363765065, 8363765066, 8363765067, 8363765068, 8363765069, 8363765070, 8363765071, 8363765072, 8363765073, 8363765074, 8363765075, 8363765076, 8363765077, 8366969095, 8366969108, 8366969098, 8366969109, 8366969097, 8363765078, 8363765079, 8363765080, 6694790719], "tags": {"addr:housenumber": "32", "addr:street": "\u0634\u0627\u0631\u0639 \u0627\u0644\u0645\u0631\u0635\u062f", "amenity": "hospital", "emergency": "yes", "healthcare": "hospital", "healthcare:speciality": "psychiatry", "name": "The Behman Hospital", "name:ar": "\u0645\u0633\u062a\u0634\u0641\u0649 \u0628\u0647\u0645\u0627\u0646", "phone": "+20228166610", "website": "https://behman.com/"}}, {"type": "way", "id": 938864729, "center": {"lat": 26.9895615, "lon": 31.412349}, "nodes": [8697633432, 8697639630, 8697633433, 8697633434, 8697633435, 8697633436, 8697633437, 8697633438, 8697633439, 8697633440, 8697633441, 8697633442, 8697633443, 8697633444, 8697633445, 8697633446, 8697633447, 8697633448, 8697633449, 8697633450, 8697633451, 8697633452, 8697633453, 8697633454, 8697633455, 8697633456, 8697633457, 8697633432], "tags": {"amenity": "hospital", "emergency": "yes", "healthcare": "hospital", "healthcare:speciality": "general", "name": "\u0627\u0644\u0628\u062f\u0627\u0631\u0649 \u0627\u0644\u0645\u0631\u0643\u0632\u0649", "name:ar": "\u0627\u0644\u0628\u062f\u0627\u0631\u0649 \u0627\u0644\u0645\u0631\u0643\u0632\u0649", "name:en": "Al Badari Central", "operator": "Ministry of Health", "operator:type": "government"}}, {"type": "way", "id": 952587292, "center": {"lat": 27.053273, "lon": 31.3152757}, "nodes": [8816790207, 8816790206, 8816790205, 8816790204, 8816790207], "tags": {"amenity": "hospital", "name": "\u0645\u0633\u062a\u0634\u0641\u064a \u0623\u0628\u0648 \u062a\u064a\u062c \u0627\u0644\u0645\u0631\u0643\u0632\u064a", "name:ar": "\u0645\u0633\u062a\u0634\u0641\u064a \u0623\u0628\u0648 \u062a\u064a\u062c \u0627\u0644\u0645\u0631\u0643\u0632\u064a", "name:en": "Abo Teeg Central Hospital"}}, {"type": "way", "id": 952589452, "center": {"lat": 26.1257509, "lon": 32.1015157}, "nodes": [8816841433, 8816841432, 8816841431, 9220552410, 9220552407, 8816841430, 8816841433], "tags": {"amenity": "hospital", "name": "\u0645\u0633\u062a\u0634\u0641\u064a \u0623\u0628\u0648 \u062a\u0634\u062a \u0627\u0644\u0645\u0631\u0643\u0632\u064a", "name:ar": "\u0645\u0633\u062a\u0634\u0641\u064a \u0623\u0628\u0648 \u062a\u0634\u062a \u0627\u0644\u0645\u0631\u0643\u0632\u064a", "name:en": "Abo Tesht Central Hospital"}}, {"type": "way", "id": 952622771, "center": {"lat": 29.5834298, "lon": 31.284199}, "nodes": [8817216782, 8817216781, 8817216780, 8817216779, 8817216782], "tags": {"amenity": "hospital", "name": "\u0645\u0633\u062a\u0634\u0641\u064a \u0627\u0644\u0635\u0641 \u0627\u0644\u0645\u0631\u0643\u0632\u064a", "name:ar": "\u0645\u0633\u062a\u0634\u0641\u064a \u0627\u0644\u0635\u0641 \u0627\u0644\u0645\u0631\u0643\u0632\u064a", "name:en": "Al Saff Central Hospital"}}, {"type": "way", "id": 960013026, "center": {"lat": 29.5542097, "lon": 34.9405348}, "nodes": [8879510911, 8879510910, 8879510909, 8879510908, 8879510907, 8879510906, 8879510905, 8879510904, 8879510815, 8879510814, 8879510846, 8882245824, 8879510823, 8879510822, 8879510921, 8879510920, 8879510919, 8882245833, 8879510918, 8879510917, 8879510916, 8879510915, 8879510914, 8879510913, 8879510912, 8879510911], "tags": {"amenity": "hospital", "emergency": "yes", "healthcare": "hospital", "healthcare:speciality": "general", "name": "\u05d1\u05d9\u05ea \u05d4\u05d7\u05d5\u05dc\u05d9\u05dd \u05d9\u05d5\u05e1\u05e4\u05d8\u05dc", "name:en": "Yoseftal hospital", "name:he": "\u05d1\u05d9\u05ea \u05d4\u05d7\u05d5\u05dc\u05d9\u05dd \u05d9\u05d5\u05e1\u05e4\u05d8\u05dc", "operator": "Clalit", "wikidata": "Q2919450", "wikipedia": "he:\u05d4\u05de\u05e8\u05db\u05d6 \u05d4\u05e8\u05e4\u05d5\u05d0\u05d9 \u05d9\u05d5\u05e1\u05e4\u05d8\u05dc"}}, {"type": "way", "id": 992288491, "center": {"lat": 24.4940912, "lon": 39.5587903}, "nodes": [9168099786, 9168099787, 9168099788, 9168099789, 9168099790, 9168099791, 9168099792, 9168099793, 9168099794, 9168099795, 9168099796, 9168099797, 9168099798, 9168099799, 9168099800, 9168099801, 9168099802, 9168099803, 9168099804, 9168099805, 9168099806, 9168099807, 9168099808, 9168099809, 9168099810, 9168099811, 9168099812, 9168099813, 9168099814, 9168099815, 9168099816, 9168102617, 9168102618, 9168102619, 9168102620, 9168102621, 9168102622, 9168102623, 9168102624, 9168102625, 9168102626, 9168102627, 9168102628, 9168102629, 9168102630, 9168102631, 9168102632, 9168102633, 9168102634, 9168102635, 9168102636, 9168102637, 9168099786], "tags": {"amenity": "hospital", "healthcare": "hospital", "name": "\u0645\u0633\u062a\u0634\u0641\u0649 \u0627\u0644\u0645\u0644\u0643 \u0641\u0647\u062f", "wikidata": "Q56376995", "wikipedia": "ar:\u0645\u0633\u062a\u0634\u0641\u0649 \u0627\u0644\u0645\u0644\u0643 \u0641\u0647\u062f \u0628\u0627\u0644\u0645\u062f\u064a\u0646\u0629 \u0627\u0644\u0645\u0646\u0648\u0631\u0629"}}, {"type": "way", "id": 998283949, "center": {"lat": 25.7616487, "lon": 32.7878422}, "nodes": [9217395857, 9217395858, 9217395859, 9217395860, 9217395857], "tags": {"amenity": "hospital", "healthcare": "rehabilitation", "name": "rehabilitation center"}}, {"type": "way", "id": 1005507334, "center": {"lat": 28.1115876, "lon": 30.7481139}, "nodes": [1891662179, 9277145395, 9277145396, 9277145397, 1891662179], "tags": {"amenity": "hospital", "emergency": "yes", "healthcare": "hospital", "name": "\u0645\u0633\u062a\u0634\u0641\u0649 \u0627\u0644\u062a\u0623\u0645\u064a\u0646 \u0627\u0644\u0635\u062d\u0649", "name:ar": "\u0645\u0633\u062a\u0634\u0641\u0649 \u0627\u0644\u062a\u0623\u0645\u064a\u0646 \u0627\u0644\u0635\u062d\u0649", "name:en": "Health Insurance Hospital"}}, {"type": "way", "id": 1005528418, "center": {"lat": 28.0841028, "lon": 30.7622749}, "nodes": [9277353743, 9277353744, 9277353745, 9277353746, 9277353743], "tags": {"amenity": "hospital", "healthcare": "hospital"}}, {"type": "way", "id": 1039006171, "center": {"lat": 29.9317511, "lon": 31.6144708}, "nodes": [9568046807, 9568046806, 9568046805, 9568046804, 9568046803, 9568046802, 9568046815, 9568046814, 9568046813, 9568046812, 9568046811, 9568046810, 9568046809, 9568046808, 9568046807], "tags": {"amenity": "hospital", "name": "\u0645\u0633\u062a\u0634\u0641\u0649 \u0627\u0644\u064a\u0627\u0633\u0645\u064a\u0646 \u0627\u0644\u0639\u0633\u0643\u0631\u064a", "name:en": "Al Yasmeen Military Hospital"}}, {"type": "way", "id": 1057701989, "center": {"lat": 24.9803561, "lon": 32.8814177}, "nodes": [9718778622, 9718778623, 9718778624, 9718778625, 9718778626, 9718778622], "tags": {"amenity": "hospital", "healthcare": "hospital", "name": "\u0645\u0633\u062a\u0634\u0641\u0649 \u062d\u0648\u0631\u0633 \u0627\u0644\u0639\u0627\u0645", "name:en": "Edfu General Hospital"}}, {"type": "way", "id": 1057797224, "center": {"lat": 29.9692548, "lon": 32.5176026}, "nodes": [9719712687, 9719712707, 9719712708, 9719712695, 9719712699, 9719712716, 9719712693, 9719712715, 9719712700, 9719712696, 9719712713, 9719712712, 9719712688, 9719712703, 9719712692, 9719712702, 9719712689, 9719712711, 9719712714, 9719712697, 9719712704, 9719712718, 9719712694, 9719712717, 9719712701, 9719712698, 9719712710, 9719712709, 9719712690, 9719712706, 9719712691, 9719712705, 9719712687], "tags": {"addr:city": "\u0634\u0628\u0627\u0628 \u0627\u0643\u062a\u0648\u0628\u0631", "amenity": "hospital", "building:levels": "3", "emergency": "no", "healthcare": "hospital", "height": "12", "name": "\u0645\u0633\u062a\u0634\u0641\u0649 \u0627\u0644\u062a\u0623\u0645\u064a\u0646 \u0627\u0644\u0635\u062d\u0649 \u0627\u0644\u0634\u0627\u0645\u0644"}}, {"type": "way", "id": 1079728705, "center": {"lat": 21.4433159, "lon": 39.2065806}, "nodes": [9897144676, 9897144677, 9897144678, 9897144679, 9897144680, 9897144681, 9897144682, 9897144683, 9897144684, 9897144685, 9897144686, 9897144687, 9897144688, 9897144689, 9897144690, 9897144691, 9897144692, 9897144693, 9897144676], "tags": {"amenity": "hospital", "healthcare": "hospital", "name": "\u0645\u0633\u062a\u0634\u0641\u0649 \u0627\u0644\u0645\u0644\u0643 \u0639\u0628\u062f\u0627\u0644\u0639\u0632\u064a\u0632", "name:en": "King Abdulaziz Hospital"}}, {"type": "way", "id": 1086093256, "center": {"lat": 21.4951441, "lon": 39.7939244}, "nodes": [9951632758, 9951632759, 9951632760, 9951632761, 9951632762, 9951632763, 9951632764, 9951632765, 9951632758], "tags": {"addr:housenumber": "6765", "addr:street": "Al Madinah Al Munawarah Road", "amenity": "hospital", "contact:facebook": "https://www.facebook.com/mmc.med.sa", "contact:instagram": "https://www.instagram.com/mmc_med_sa/", "healthcare": "hospital", "name": "Makkah Medical Center", "name:ar": "\u0645\u0631\u0643\u0632 \u0645\u0643\u0629 \u0627\u0644\u0637\u0628\u064a", "name:en": "Makkah Medical Center", "phone": "+966 12 5222222", "website": "https://mmc.med.sa"}}, {"type": "way", "id": 1102478857, "center": {"lat": 29.971538, "lon": 30.9466464}, "nodes": [10088253357, 10088253358, 10088253359, 10088253360, 10088253357], "tags": {"amenity": "hospital", "healthcare": "hospital"}}, {"type": "way", "id": 1102940203, "center": {"lat": 21.5422714, "lon": 39.1261968}, "nodes": [10092662053, 10092662054, 10092662055, 10092662056, 10092662057, 10092662058, 10092662059, 10092662060, 10092662066, 10092662067, 10092662061, 10092662062, 10092662068, 10092662069, 10092662063, 10092662070, 10094879049, 10094879048, 10094879047, 10094879046, 10092662064, 10094879045, 10094879044, 10094879043, 10094879042, 10094879041, 10094879040, 10094879039, 10094879038, 10094879037, 10094879036, 10094879035, 10094879032, 10094879034, 10094879033, 10094879031, 10092662065, 10092662071, 10092662072, 10092662053], "tags": {"amenity": "hospital", "healthcare": "hospital", "name": "\u0645\u0633\u062a\u0634\u0641\u0649 \u0627\u0644\u0645\u0644\u0643 \u0641\u0647\u062f \u0644\u0644\u0642\u0648\u0627\u062a \u0627\u0644\u0645\u0633\u0644\u062d\u0629", "name:en": "King Fahad Armed Forces Hospital", "website": "https://kfafh.med.sa/", "wikidata": "Q20424834", "wikipedia": "ar:\u0645\u0633\u062a\u0634\u0641\u0649 \u0627\u0644\u0645\u0644\u0643 \u0641\u0647\u062f \u0644\u0644\u0642\u0648\u0627\u062a \u0627\u0644\u0645\u0633\u0644\u062d\u0629"}}, {"type": "way", "id": 1122881706, "center": {"lat": 24.473975, "lon": 39.6041455}, "nodes": [10269398295, 10269398296, 10269398297, 10269398298, 10269398299, 10269398300, 10269398301, 10269398302, 10269398303, 10269398304, 10269398305, 10269398306, 10269398307, 10269398295], "tags": {"amenity": "hospital", "healthcare": "hospital"}}, {"type": "way", "id": 1138298089, "center": {"lat": 21.5797877, "lon": 39.2143818}, "nodes": [4110205284, 4110205283, 4110205286, 4110205285, 4110205284], "tags": {"amenity": "hospital", "healthcare": "hospital", "name": "\u0645\u0633\u062a\u0634\u0641\u0649 \u0627\u0644\u0639\u064a\u0648\u0646 \u0628\u062c\u062f\u0629", "operator": "Ministry of Health", "operator:type": "public"}}, {"type": "way", "id": 1159257400, "center": {"lat": 21.4469252, "lon": 39.2080722}, "nodes": [10780582627, 10780582628, 10780582629, 9897144672, 10780582627], "tags": {"amenity": "hospital", "healthcare": "hospital", "name": "\u0645\u0633\u062a\u0634\u0641\u0649 \u0643\u0644\u064a\u0629 \u0627\u0628\u0646 \u0633\u064a\u0646\u0627"}}, {"type": "way", "id": 1159257401, "center": {"lat": 21.4469849, "lon": 39.2009509}, "nodes": [10780582630, 10780582631, 10780582632, 10780582633, 10780582634, 10780582635, 10780582636, 10780582637, 10780582638, 10780582630], "tags": {"amenity": "hospital", "healthcare": "hospital", "name": "\u0645\u062c\u0645\u0639 \u0639\u064a\u0627\u062f\u0627\u062a \u063a\u0644\u064a\u0644 \u0627\u0644\u062c\u062f\u064a\u062f", "name:ar": "\u0645\u062c\u0645\u0639 \u0639\u064a\u0627\u062f\u0627\u062a \u063a\u0644\u064a\u0644 \u0627\u0644\u062c\u062f\u064a\u062f"}}, {"type": "way", "id": 1159257402, "center": {"lat": 21.4478147, "lon": 39.2018677}, "nodes": [10780582639, 10780582640, 10780582641, 10780582642, 10780582639], "tags": {"amenity": "hospital", "healthcare": "hospital", "name": "\u0645\u0633\u062a\u0634\u0641\u0649 \u0627\u0644\u062c\u062f\u0639\u0627\u0646\u064a \u0627\u0644\u062c\u062f\u064a\u062f", "name:ar": "\u0645\u0633\u062a\u0634\u0641\u0649 \u0627\u0644\u062c\u062f\u0639\u0627\u0646\u064a \u0627\u0644\u062c\u062f\u064a\u062f"}}, {"type": "way", "id": 1159257403, "center": {"lat": 21.4496554, "lon": 39.3177899}, "nodes": [10780582643, 10780582644, 10780582645, 10780582646, 10780582643], "tags": {"amenity": "hospital", "emergency": "yes", "healthcare": "hospital", "name": "\u0645\u062c\u0645\u0639 \u0635\u062d\u0629 \u0627\u0644\u062e\u0644\u0648\u062f \u0627\u0644\u0637\u0628\u064a\u0629", "name:ar": "\u0645\u062c\u0645\u0639 \u0635\u062d\u0629 \u0627\u0644\u062e\u0644\u0648\u062f \u0627\u0644\u0637\u0628\u064a\u0629", "name:en": "Khulood Health Medical Center", "website": "https://smpmedicalgroup.com"}}, {"type": "way", "id": 1159257404, "center": {"lat": 21.4498451, "lon": 39.3185474}, "nodes": [10780582647, 10780582648, 10780582649, 10780582650, 10780582647], "tags": {"amenity": "hospital", "healthcare": "hospital", "name": "\u0645\u062c\u0645\u0639 \u0627\u0644\u064a\u0627\u0633\u0645\u064a\u0646 \u0627\u0644\u0637\u0628\u064a \u0627\u0644\u0639\u0627\u0645", "name:ar": "\u0645\u062c\u0645\u0639 \u0627\u0644\u064a\u0627\u0633\u0645\u064a\u0646 \u0627\u0644\u0637\u0628\u064a \u0627\u0644\u0639\u0627\u0645", "name:en": "Al Yasmin Medical Center", "website": "https://smpmedicalgroup.com"}}, {"type": "way", "id": 1159257406, "center": {"lat": 21.5035752, "lon": 39.1874595}, "nodes": [10780582669, 10780582670, 10780582671, 10780582672, 10780582669], "tags": {"amenity": "hospital", "healthcare": "hospital", "name": "\u0645\u0633\u062a\u0634\u0641\u0649 \u0627\u0644\u0639\u0628\u064a\u0631", "name:en": "Al Abeer Hospital"}}, {"type": "way", "id": 1159257407, "center": {"lat": 21.5179399, "lon": 39.2047099}, "nodes": [10780582673, 10780582674, 10780582675, 10780582676, 10780582673], "tags": {"amenity": "hospital", "healthcare": "hospital", "name": "\u0645\u0631\u0643\u0632 \u0627\u0644\u0631\u0627\u0642\u0648\u0646 \u0627\u0644\u0637\u0628\u064a", "name:ar": "\u0645\u0631\u0643\u0632 \u0627\u0644\u0631\u0627\u0642\u0648\u0646 \u0627\u0644\u0645\u0645\u064a\u0632 \u0627\u0644\u0637\u0628\u064a", "name:en": "Al Raqoun Medical Center"}}, {"type": "way", "id": 1159257408, "center": {"lat": 21.508566, "lon": 39.1796716}, "nodes": [10780582677, 10780582678, 10780582679, 10780582680, 10780582677], "tags": {"amenity": "hospital", "email": "abuzindah_hospital@yahoo.com", "healthcare": "hospital", "name": "\u0645\u0633\u062a\u0634\u0641\u0649 \u0623\u0628\u0648 \u0632\u0646\u0627\u062f\u0629", "name:ar": "\u0645\u0633\u062a\u0634\u0641\u0649 \u0623\u0628\u0648 \u0632\u0646\u0627\u062f\u0629", "name:en": "Abuzinadah Hospital", "phone": "+966126510652"}}, {"type": "way", "id": 1159296888, "center": {"lat": 21.5055859, "lon": 39.1663891}, "nodes": [10780899583, 10780899584, 10780899585, 10780899586, 10780899583], "tags": {"alt_name:en": "UDH", "amenity": "hospital", "healthcare": "hospital", "name": "\u0645\u0633\u062a\u0634\u0641\u0649 \u0627\u0644\u0623\u0637\u0628\u0627\u0621 \u0627\u0644\u0645\u062a\u062d\u062f\u0648\u0646", "name:ar": "\u0645\u0633\u062a\u0634\u0641\u0649 \u0627\u0644\u0623\u0637\u0628\u0627\u0621 \u0627\u0644\u0645\u062a\u062d\u062f\u0648\u0646", "name:en": "United Doctors Hospital", "website": "https://udh.sa"}}, {"type": "way", "id": 1159296889, "center": {"lat": 21.5426323, "lon": 39.1650715}, "nodes": [10780899588, 10780899589, 10780899590, 10780899591, 10780899588], "tags": {"amenity": "hospital", "healthcare": "hospital", "name": "\u0645\u0631\u0643\u0632 \u0627\u0644\u0645\u0633\u0627\u0639\u062f\u064a\u0629 \u0627\u0644\u062a\u062e\u0635\u0635\u064a"}}, {"type": "way", "id": 1159296891, "center": {"lat": 21.557333, "lon": 39.1761901}, "nodes": [10780899599, 10780899600, 10780899601, 10780899602, 10780899599], "tags": {"amenity": "hospital", "healthcare": "hospital", "name": "\u0645\u0633\u062a\u0634\u0641\u0649 \u0628\u0642\u0634\u0627\u0646", "name:ar": "\u0645\u0633\u062a\u0634\u0641\u0649 \u0628\u0642\u0634\u0627\u0646", "name:en": "Bugshan Hospital", "website": "https://bugshan.med.sa"}}, {"type": "way", "id": 1159296893, "center": {"lat": 21.6049383, "lon": 39.1697507}, "nodes": [10780932212, 10780932213, 10780932214, 10780932215, 10780932216, 10780932217, 10780932212], "tags": {"amenity": "hospital", "healthcare": "hospital", "name": "\u0645\u062c\u0645\u0639 \u0627\u0644\u0639\u0628\u064a\u0631 \u0627\u0644\u0637\u0628\u064a", "name:ar": "\u0645\u062c\u0645\u0639 \u0627\u0644\u0639\u0628\u064a\u0631 \u0627\u0644\u0637\u0628\u064a", "name:en": "Abeer Medical Center", "website": "https://www.abeergroup.com/ksa"}}, {"type": "way", "id": 1159298188, "center": {"lat": 21.669432, "lon": 39.121836}, "nodes": [10780932247, 10780932248, 10780932249, 10780932250, 10780932251, 10780932252, 10780932253, 10780932254, 10780932247], "tags": {"amenity": "hospital", "healthcare": "hospital", "name": "\u0645\u0631\u0643\u0632 \u0627\u0644\u062f\u0643\u062a\u0648\u0631 \u0633\u0644\u064a\u0645\u0627\u0646 \u0641\u0642\u064a\u0647 \u0627\u0644\u0637\u0628\u064a", "name:ar": "\u0645\u0631\u0643\u0632 \u0627\u0644\u062f\u0643\u062a\u0648\u0631 \u0633\u0644\u064a\u0645\u0627\u0646 \u0641\u0642\u064a\u0647 \u0627\u0644\u0637\u0628\u064a", "name:en": "Dr Soliman Fakeeh Medical Center"}}, {"type": "way", "id": 1176542035, "center": {"lat": 28.1162042, "lon": 30.7743867}, "nodes": [10931280002, 10931279999, 10931280000, 10931280001, 10931280002], "tags": {"amenity": "hospital", "building": "yes", "name": "\u0627\u0644\u0648\u062d\u062f\u0629 \u0627\u0644\u0635\u062d\u064a\u0629 \u0628\u0627\u0644\u0634\u0631\u0641\u0627"}}, {"type": "way", "id": 1176542041, "center": {"lat": 28.1165811, "lon": 30.7691081}, "nodes": [10931302739, 10931302738, 10931302737, 10931302736, 10931302739], "tags": {"amenity": "hospital", "building": "yes", "name": "\u062f\u0627\u0631 \u0627\u0628\u0648 \u0627\u0644\u0633\u0639\u0648\u062f \u0627\u0644\u0637\u0628\u0649 \u0628\u0627\u0644\u0634\u0631\u0641\u0627"}}, {"type": "way", "id": 1176566775, "center": {"lat": 28.1604683, "lon": 30.7607145}, "nodes": [10931433250, 10931433251, 10931433252, 10931433253, 10931433250], "tags": {"amenity": "hospital", "healthcare": "hospital", "healthcare:speciality": "\u0643\u0644_\u0627\u0644\u062a\u062e\u0635\u0635\u0627\u062a", "name": "\u0627\u0644\u0648\u062d\u062f\u0647 \u0627\u0644\u0635\u062d\u064a\u0647 \u0644\u0642\u0631\u064a\u0629 \u0627\u0644\u062d\u0648\u0627\u0631\u062a\u0647", "operator": "24 \u0633\u0627\u0639\u0647", "operator:type": "government"}}, {"type": "way", "id": 1176572868, "center": {"lat": 28.1598713, "lon": 30.7606936}, "nodes": [10931479135, 10931479136, 10931479137, 10931479138, 10931479135], "tags": {"amenity": "hospital", "healthcare": "hospital", "name": "\u0645\u062f\u0631\u0633\u0629 \u0627\u0644\u0627\u0632\u0647\u0631 \u0627\u0644\u0634\u0631\u064a\u0641"}}, {"type": "way", "id": 1176633894, "center": {"lat": 28.1259114, "lon": 30.7466152}, "nodes": [10931963813, 10931963812, 10931963811, 10931963810, 10931963809, 10931963808, 10931963813], "tags": {"amenity": "hospital", "name": "AL DOODIA HEALTH OFFICE", "operator": "EMERGENCIES"}}, {"type": "way", "id": 1176845313, "center": {"lat": 27.269579, "lon": 31.2682896}, "nodes": [10933416672, 10933416671, 10933416670, 10933006142, 10933416672], "tags": {"amenity": "hospital", "name": "University Dental Hospital", "operator": "Sphinx University"}}, {"type": "way", "id": 1184809468, "center": {"lat": 21.5711187, "lon": 39.1228124}, "nodes": [11005590318, 11005590319, 11005590320, 11005590321, 11005590318], "tags": {"amenity": "hospital", "facebook": "https://www.facebook.com/SkyClinicSa", "healthcare": "hospital", "name": "\u0639\u064a\u0627\u062f\u0627\u062a \u0633\u0643\u0627\u064a \u0627\u0644\u062a\u062e\u0635\u0635\u064a\u0629", "name:ar": "\u0639\u064a\u0627\u062f\u0627\u062a \u0633\u0643\u0627\u064a \u0627\u0644\u062a\u062e\u0635\u0635\u064a\u0629", "twitter": "https://twitter.com/skyclinicsa", "website": "https://www.skyclinic.net/"}}, {"type": "way", "id": 1195196003, "center": {"lat": 21.5369506, "lon": 39.2243966}, "nodes": [11093070712, 11093070711, 11093071089, 11093070710, 11093070712], "tags": {"amenity": "hospital", "healthcare": "hospital", "name": "\u0627\u0644\u0634\u0624\u0648\u0646 \u0627\u0644\u0635\u062d\u064a\u0629 \u0628\u0648\u0632\u0627\u0631\u0629 \u0627\u0644\u062d\u0631\u0633 \u0627\u0644\u0648\u0637\u0646\u064a", "operator": "MNGHA", "short_name": "MNGHA", "website": "https://www.ngha.med.sa"}}, {"type": "relation", "id": 12148487, "center": {"lat": 27.8685889, "lon": 34.299712}, "members": [{"type": "way", "ref": 769993176, "role": "outer"}, {"type": "way", "ref": 893152076, "role": "outer"}], "tags": {"amenity": "hospital", "healthcare": "hospital", "name": "\u0645\u0633\u062a\u0634\u0641\u0649 \u062c\u0646\u0648\u0628 \u0633\u064a\u0646\u0627\u0621", "name:ar": "\u0645\u0633\u062a\u0634\u0641\u0649 \u062c\u0646\u0648\u0628 \u0633\u064a\u0646\u0627\u0621", "name:en": "South Sinai Hospital", "type": "multipolygon"}}]}