{"version": 0.6, "generator": "Overpass API 0.7.61.5 4133829e", "osm3s": {"timestamp_osm_base": "2023-10-31T20:53:36Z", "copyright": "The data included in this document is from www.openstreetmap.org. The data is made available under ODbL."}, "elements": [{"type": "node", "id": 502928125, "lat": 20.145275, "lon": -75.1917395, "tags": {"amenity": "hospital", "healthcare": "hospital", "name": "Policlinico San Justo"}}, {"type": "node", "id": 605004980, "lat": 20.0043523, "lon": -75.7706156, "tags": {"addr:postcode": "90100", "addr:street": "(Micro 3)", "amenity": "hospital", "healthcare": "hospital", "name": "Policl\u00ednico \"Josu\u00e9 Pa\u00eds Garc\u00eda\""}}, {"type": "node", "id": 611650056, "lat": 20.0329819, "lon": -75.8172115, "tags": {"amenity": "hospital", "healthcare": "hospital", "healthcare:speciality": "cardiology", "name": "Cardiocentro"}}, {"type": "node", "id": 611650428, "lat": 20.0368499, "lon": -75.8165106, "tags": {"amenity": "hospital", "healthcare": "hospital", "name": "Policl\u00ednico Especialidades Pedi\u00e1trico Norte"}}, {"type": "node", "id": 611650760, "lat": 20.0230509, "lon": -75.8073202, "tags": {"alt_name": "antiguo Centro Gellego", "amenity": "hospital", "healthcare": "hospital", "name": "Hospital Gineco-Obst\u00e9trico Este"}}, {"type": "node", "id": 629531979, "lat": 20.0190145, "lon": -72.7246896, "tags": {"addr:country": "HT", "amenity": "hospital", "health_facility:bed": "yes", "health_facility:type": "health_center", "name": "HOPITAL NOTRE DAME DES PALMISTES", "operator": "MSPP / SOI-MEME", "paho:commune": "LA TORTUE", "paho:commune_id": "12", "paho:department": "NORD OUEST", "paho:district_id": "7", "paho:id": "9120491", "paho:region_id": "9", "paho:type": "PUB", "pcode": "91201", "source:health_facility": "ME/MSPP2010; 2005 MSPP database with geocodes"}}, {"type": "node", "id": 629531984, "lat": 20.0334703, "lon": -72.8082776, "tags": {"addr:country": "HT", "amenity": "hospital", "health_facility:type": "dispensary", "name": "DISPENSAIRE DE MONTRY", "operator": "MSPP / EGLISE EPISCOPALE", "paho:commune": "LA TORTUE", "paho:commune_id": "12", "paho:department": "NORD OUEST", "paho:district_id": "7", "paho:id": "9120494", "paho:region_id": "9", "paho:type": "MIX", "pcode": "91205", "source:health_facility": "ME/MSPP2010; 2005 MSPP database with geocodes"}}, {"type": "node", "id": 629531995, "lat": 20.0381846, "lon": -72.8642075, "tags": {"addr:country": "HT", "amenity": "hospital", "health_facility:type": "dispensary", "name": "DISPENSAIRE LA VALLEE", "paho:commune": "LA TORTUE", "paho:commune_id": "12", "paho:department": "NORD OUEST", "paho:district_id": "7", "paho:id": "9120495", "paho:region_id": "9", "paho:type": "MIX", "pcode": "91203", "source:health_facility": "ME/MSPP2010; 2005 MSPP database with geocodes"}}, {"type": "node", "id": 629532004, "lat": 20.0365291, "lon": -72.7911978, "tags": {"addr:country": "HT", "amenity": "hospital", "health_facility:bed": "no", "health_facility:type": "health_center", "name": "DISPENSAIRE DE MARE ROUGE", "operator": "MSPP", "paho:commune": "LA TORTUE", "paho:commune_id": "12", "paho:department": "NORD OUEST", "paho:district_id": "7", "paho:id": "9120492", "paho:region_id": "9", "paho:type": "MIX", "pcode": "91204", "source:health_facility": "ME/MSPP2010; 2005 MSPP database with geocodes"}}, {"type": "node", "id": 629532015, "lat": 20.0105146, "lon": -72.6635489, "tags": {"addr:country": "HT", "amenity": "hospital", "health_facility:type": "dispensary", "name": "DISPENSAIRE AUX PLAINES", "paho:commune": "LA TORTUE", "paho:commune_id": "12", "paho:department": "NORD OUEST", "paho:district_id": "7", "paho:id": "9120493", "paho:region_id": "9", "paho:type": "MIX", "pcode": "91202", "source:health_facility": "ME/MSPP2010; 2005 MSPP database with geocodes"}}, {"type": "node", "id": 631304836, "lat": 20.013658, "lon": -75.8224272, "tags": {"amenity": "hospital", "healthcare": "hospital", "name": "Policl\u00ednico Chicharrones"}}, {"type": "node", "id": 631504478, "lat": 20.0447018, "lon": -72.7886358, "tags": {"addr:country": "HT", "amenity": "hospital", "health_facility:bed": "no", "health_facility:type": "health_center", "name": "Marie Curie", "name:etymology:wikidata": "Q7186", "paho:commune": "La Tortue", "paho:commune_id": "12", "paho:department": "NORD OUEST", "paho:district_id": "7", "paho:id": "9125006", "paho:region_id": "9", "paho:type": "PRI", "pcode": "91206", "source:health_facility": "ME/MSPP2010; 2009_MSPP_database"}}, {"type": "node", "id": 1881895579, "lat": 26.5164801, "lon": -78.6871375, "tags": {"addr:city": "Freeport", "amenity": "hospital", "healthcare": "hospital", "name": "Sunrise Medical Centre"}}, {"type": "node", "id": 2052956863, "lat": 21.1182925, "lon": -76.1325767, "tags": {"amenity": "hospital", "healthcare": "hospital", "name": "Policl\u00ednico Gibara"}}, {"type": "node", "id": 2134538070, "lat": 20.7558162, "lon": -75.6490607, "tags": {"amenity": "hospital", "name": "Policl\u00ednico"}}, {"type": "node", "id": 2168157619, "lat": 20.1395578, "lon": -75.2053726, "tags": {"amenity": "hospital", "healthcare": "hospital", "name": "Policl\u00ednico Integral Omar Ranedo"}}, {"type": "node", "id": 2278010371, "lat": 21.3898388, "lon": -77.915182, "tags": {"amenity": "hospital", "healthcare": "hospital", "name": "Policlinico Integral Rodolfo Ramirez Esquival", "wheelchair": "yes"}}, {"type": "node", "id": 2396965188, "lat": 21.7791978, "lon": -72.2367131, "tags": {"amenity": "hospital", "emergency": "yes", "healthcare": "hospital", "name": "Menzies Medical Practice"}}, {"type": "node", "id": 2422312127, "lat": 21.7926186, "lon": -72.1770262, "tags": {"amenity": "hospital", "emergency": "yes", "name": "Grace Bay Medical Center"}}, {"type": "node", "id": 3116029196, "lat": 20.965513, "lon": -75.7382461, "tags": {"amenity": "hospital", "name": "Hospital Cl\u00ednico Quir\u00fargico"}}, {"type": "node", "id": 3409857719, "lat": 20.2165984, "lon": -76.0004851, "tags": {"amenity": "hospital", "healthcare": "hospital", "name": "Unidad Principal de Urgencia"}}, {"type": "node", "id": 3410442063, "lat": 20.2125526, "lon": -75.9943916, "tags": {"addr:city": "Palma Soriano", "addr:street": "Calle Cespedes", "amenity": "hospital", "healthcare": "hospital", "name": "Policlinico Norte \"Oscar Alberto Ortega\"", "operator": "Ministerio de Salud P\u00fablica", "operator:short": "MINSAP", "operator:wikidata": "Q6017421"}}, {"type": "node", "id": 3701521242, "lat": 21.8271488, "lon": -79.5677204, "tags": {"amenity": "hospital", "name": "Policl\u00ednico"}}, {"type": "node", "id": 3762089388, "lat": 21.3615854, "lon": -77.8926285, "tags": {"addr:street": "6ta", "amenity": "hospital", "healthcare": "hospital", "healthcare:speciality": "general", "name": "Policl\u00ednico Universitario Julio Antonio Mella", "operator": "Ministerio de Salud P\u00fablica", "operator:short": "MINSAP", "operator:type": "public", "operator:wikidata": "Q6017421"}}, {"type": "node", "id": 4001263312, "lat": 20.3864992, "lon": -76.6526905, "tags": {"addr:city": "Bayamo", "addr:street": "Avenida Francisco Vicente Aguilera", "amenity": "hospital", "healthcare": "hospital", "name": "Hospital infantil"}}, {"type": "node", "id": 4172288645, "lat": 20.154461, "lon": -75.184164, "tags": {"amenity": "hospital", "healthcare": "hospital", "name": "Hospital Militar"}}, {"type": "node", "id": 4209005226, "lat": 20.2587918, "lon": -76.5415973, "tags": {"amenity": "hospital", "emergency": "no", "name": "Hospital Guisa"}}, {"type": "node", "id": 4272469028, "lat": 20.3536006, "lon": -74.5106658, "tags": {"amenity": "hospital", "name": "Policl\u00ednico Ferm\u00edn Vald\u00e9s Dom\u00ednguez"}}, {"type": "node", "id": 4328318061, "lat": 20.2952191, "lon": -76.2551142, "tags": {"amenity": "hospital"}}, {"type": "node", "id": 4341065624, "lat": 20.9230958, "lon": -76.8672453, "tags": {"amenity": "hospital", "healthcare": "centre", "name": "Policl\u00ednico"}}, {"type": "node", "id": 4444969244, "lat": 20.5088458, "lon": -74.6425773, "tags": {"amenity": "hospital", "name": "Policl\u00ednico"}}, {"type": "node", "id": 4448595794, "lat": 20.8870264, "lon": -76.2319626, "tags": {"addr:street": "10", "amenity": "hospital", "healthcare": "clinic", "name": "Policl\u00ednico Pedro D\u00edaz Coello", "opening_hours": "24/7"}}, {"type": "node", "id": 4504381533, "lat": 22.5172028, "lon": -79.4728527, "tags": {"addr:city": "Caibari\u00e9n", "amenity": "hospital", "name": "Policlinico"}}, {"type": "node", "id": 4541430494, "lat": 20.9840854, "lon": -77.4219288, "tags": {"addr:street": "ave C\u00e1ndido Gonz\u00e1lez", "amenity": "hospital", "name": "C\u00e1ndido Gonz\u00e1lez Horta", "opening_hours": "24/7", "phone": "31625570"}}, {"type": "node", "id": 4547334990, "lat": 20.334452, "lon": -77.0738843, "tags": {"amenity": "hospital", "healthcare": "hospital", "name": "Policlinico # 4 Luis Enrique de La Paz", "name:es": "Policlinico # 4 Luis Enrique de La Paz"}}, {"type": "node", "id": 4585997390, "lat": 21.7385229, "lon": -78.546346, "tags": {"amenity": "hospital", "healthcare": "hospital", "name": "Hospital Mario Paez", "operator": "Ministerio de Salud P\u00fablica", "operator:short": "MINSAP", "operator:type": "public", "operator:wikidata": "Q6017421"}}, {"type": "node", "id": 4689047889, "lat": 21.3820452, "lon": -77.9304454, "tags": {"amenity": "hospital", "healthcare": "hospital", "name": "Centro Oftalmol\u00f3gico", "name:es": "Centro Oftalmol\u00f3gico", "phone": "+5332231022"}}, {"type": "node", "id": 4780233289, "lat": 21.6940008, "lon": -78.6351292, "tags": {"amenity": "hospital"}}, {"type": "node", "id": 4806162583, "lat": 20.1551545, "lon": -76.9579364, "tags": {"amenity": "hospital", "emergency": "ambulance_station", "name": "Policlinico Bartolome Maso", "operator": "Salud Publica"}}, {"type": "node", "id": 4833273299, "lat": 20.7502572, "lon": -76.4959959, "tags": {"amenity": "hospital", "name": "Policl\u00ednico"}}, {"type": "node", "id": 4845962023, "lat": 20.8844091, "lon": -76.2752823, "tags": {"addr:street": "Patria", "amenity": "hospital", "healthcare": "yes", "name": "Policl\u00ednica Mario Gutierrez", "website": "https://www.sld.cu/"}}, {"type": "node", "id": 4930760644, "lat": 20.3637087, "lon": -76.4320863, "tags": {"amenity": "hospital", "name": "Policl\u00ednico Edor de los Reyes"}}, {"type": "node", "id": 4962293121, "lat": 20.5970045, "lon": -76.1363449, "tags": {"amenity": "hospital", "name": "Hospital General Rafael Faustino Borrero Ar\u00e9valo", "name:es": "Hospital General Rafael Faustino Borrero Ar\u00e9valo"}}, {"type": "node", "id": 4987001368, "lat": 20.9598245, "lon": -75.7148316, "tags": {"amenity": "hospital", "name": "Policl\u00ednico Cesar Fornet"}}, {"type": "node", "id": 5027355021, "lat": 20.8769155, "lon": -76.319442, "tags": {"amenity": "hospital", "name": "Hospital Psiqui\u00e1trico de Holgu\u00edn", "name:es": "Hospital Psiqui\u00e1trico de Holgu\u00edn"}}, {"type": "node", "id": 5171953022, "lat": 20.702986, "lon": -75.5515183, "tags": {"amenity": "hospital", "name": "Hospital Ernesto Guevara"}}, {"type": "node", "id": 5220770533, "lat": 20.6631488, "lon": -75.5380312, "tags": {"amenity": "hospital", "name": "Policlinico de Levisa"}}, {"type": "node", "id": 5305041922, "lat": 20.8929914, "lon": -76.256325, "tags": {"addr:street": "Progreso", "amenity": "hospital", "description": "Atenci\u00f3n: 24/7", "healthcare": "hospital", "name": "Policl\u00ednica \"Ren\u00e9 \u00c1vila\"", "website": "https://www.sld.cu/"}}, {"type": "node", "id": 5305671922, "lat": 21.0721863, "lon": -77.7440725, "tags": {"amenity": "hospital", "name": "Policlinico Docente Comunitario Rosa Castellanos", "opening_hours": "24/7", "phone": "+5332864196", "website": "http://dirinstituciones.sld.cu"}}, {"type": "node", "id": 5313954030, "lat": 21.1756676, "lon": -76.5577659, "tags": {"addr:postcode": "77210", "addr:street": "Calle 7", "amenity": "hospital", "name": "policlinico Delicias", "opening_hours": "24/7", "phone": "31565612"}}, {"type": "node", "id": 5314765324, "lat": 21.1941922, "lon": -76.5980564, "tags": {"addr:housenumber": "116", "addr:postcode": "77210", "addr:street": "Avenida General Maximo Gomez", "amenity": "hospital", "name": "Hospital Pediatrico", "opening_hours": "24/7", "phone": "31512012"}}, {"type": "node", "id": 5318387230, "lat": 22.3101418, "lon": -79.655061, "tags": {"addr:street": "2da del Oeste", "amenity": "hospital", "name": "Policl\u00ednico Sur", "name:en": "South Clinic", "opening_hours": "24/7"}}, {"type": "node", "id": 5318412626, "lat": 22.3145949, "lon": -79.6467741, "tags": {"addr:street": "5ta del Este", "amenity": "hospital", "name": "Policl\u00ednico Norte", "name:en": "North Clinic", "opening_hours": "24/7"}}, {"type": "node", "id": 5342937878, "lat": 20.1509625, "lon": -75.2045912, "tags": {"amenity": "hospital", "healthcare": "hospital", "name": "Policlinco Norte", "operator": "Salud"}}, {"type": "node", "id": 5372932222, "lat": 21.1965504, "lon": -76.6044514, "tags": {"addr:postcode": "77210", "addr:street": "Bartolome Mas\u00f3", "amenity": "hospital", "name": "Policlinica Romarico Oro", "opening_hours": "24/7", "phone": "31512454"}}, {"type": "node", "id": 5387062321, "lat": 20.179505, "lon": -75.4183573, "tags": {"amenity": "hospital", "name": "Policl\u00ednico Manuel Regojo", "opening_hours": "24/7", "phone": "+5321297102"}}, {"type": "node", "id": 5408879222, "lat": 21.1628027, "lon": -76.4771297, "tags": {"amenity": "hospital", "name": "Hospital Jes\u00fas Men\u00e9ndez"}}, {"type": "node", "id": 5431975621, "lat": 21.0262461, "lon": -75.9951757, "tags": {"addr:street": "15", "amenity": "hospital", "healthcare": "hospital", "name": "Policl\u00ednico Mario Mu\u00f1oz Monroy", "name:en": "Clinic Mario Mu\u00f1oz Monroy", "opening_hours": "24/7"}}, {"type": "node", "id": 5449524132, "lat": 20.1585844, "lon": -75.2085687, "tags": {"amenity": "hospital", "healthcare": "hospital", "name": "policl\u00ednico 4 de agosto"}}, {"type": "node", "id": 5518438157, "lat": 21.5442437, "lon": -77.4719097, "tags": {"addr:housenumber": "58", "addr:street": "Principal", "amenity": "hospital", "name": "Policlinico", "name:es": "Policl\u00ednico", "phone": "+5332698149"}}, {"type": "node", "id": 5518513962, "lat": 21.3818676, "lon": -77.932533, "tags": {"addr:street": "4ta", "amenity": "hospital", "name": "Centro de Nefrolog\u00eda", "opening_hours": "24/7"}}, {"type": "node", "id": 5518516323, "lat": 21.5356435, "lon": -77.2741976, "tags": {"amenity": "hospital", "name": "Hogar Materno", "name:en": "Hogar Materno Nuevitas"}}, {"type": "node", "id": 5580954245, "lat": 20.0360295, "lon": -75.8154063, "tags": {"amenity": "hospital", "healthcare": "hospital", "name": "Cuerpo de Guardia"}}, {"type": "node", "id": 5589356624, "lat": 20.3672432, "lon": -76.4259589, "tags": {"amenity": "hospital", "name": "Hospital M\u00e1rtires de Jiguan\u00ed"}}, {"type": "node", "id": 5603332945, "lat": 21.9450268, "lon": -78.4354744, "tags": {"amenity": "hospital", "name": "Hospital"}}, {"type": "node", "id": 5607316182, "lat": 20.1877257, "lon": -75.7864185, "tags": {"amenity": "hospital", "healthcare": "clinic", "name": "Policlinico Luis carrion"}}, {"type": "node", "id": 5616242026, "lat": 22.4913086, "lon": -79.5412639, "tags": {"amenity": "hospital", "name": "Policlinico de Remedios", "name:es": "Policlinico de Remedios"}}, {"type": "node", "id": 5624505062, "lat": 20.0172179, "lon": -75.8072985, "tags": {"amenity": "hospital", "healthcare": "hospital", "name": "Policl\u00ednico \"30 de Noviembre\""}}, {"type": "node", "id": 5624670122, "lat": 20.0573121, "lon": -75.7720245, "tags": {"amenity": "hospital", "name": "Policlinico Mario Mu\u00f1oz"}}, {"type": "node", "id": 5683207625, "lat": 20.8643809, "lon": -76.6381266, "tags": {"amenity": "hospital", "healthcare": "hospital", "name": "Hospital Nicodemus Regalado Le\u00f3n"}}, {"type": "node", "id": 5683207631, "lat": 20.8842826, "lon": -76.2241327, "tags": {"amenity": "hospital", "healthcare": "hospital", "name": "Hospital Militar General"}}, {"type": "node", "id": 5708969526, "lat": 20.2124079, "lon": -77.0456409, "tags": {"amenity": "hospital", "name": "Policl\u00ednico Docente Hermanos Labrada"}}, {"type": "node", "id": 5723767865, "lat": 20.0271727, "lon": -75.8210915, "tags": {"amenity": "hospital", "healthcare": "hospital", "name": "Hospital Oncol\u00f3gico \"Conrado Ben\u00edtez\""}}, {"type": "node", "id": 5739891163, "lat": 20.0327044, "lon": -75.799373, "tags": {"amenity": "hospital", "healthcare": "hospital", "name": "Banco de sangre \"Renato Guitart\""}}, {"type": "node", "id": 5770404603, "lat": 20.0227269, "lon": -75.8254421, "tags": {"amenity": "hospital", "healthcare": "hospital", "name": "Policl\u00ednico \"Carlos J. Finlay\""}}, {"type": "node", "id": 5807558963, "lat": 21.208801, "lon": -76.2434835, "tags": {"amenity": "hospital", "healthcare": "hospital", "name": "Puesto M\u00e9dico"}}, {"type": "node", "id": 5893727286, "lat": 20.3641726, "lon": -74.9717339, "tags": {"amenity": "hospital", "name": "Policl\u00ednica \"Fausto Favier\"", "name:es": "Policl\u00ednica \"Fausto Favier\""}}, {"type": "node", "id": 6024980567, "lat": 20.0270912, "lon": -75.8252891, "tags": {"amenity": "hospital", "healthcare": "hospital", "name": "Policl\u00ednico Principal (Carlos J. Finlay Barres )"}}, {"type": "node", "id": 6031860508, "lat": 20.888057, "lon": -76.2480085, "tags": {"amenity": "hospital", "description": "Entrada del servicio de EMERGENCIAS M\u00c9DICAS del Hospital Pedi\u00e1trico Universitario de Holgu\u00edn. (24/7)", "emergency": "yes", "healthcare": "hospital", "healthcare:speciality": "paediatrics", "name": "EMERGENCIAS Pedi\u00e1tricas", "operator": "Ministerio de Salud P\u00fablica", "operator:short": "MINSAP", "operator:type": "public", "operator:wikidata": "Q6017421", "website": "https://www.hpuh.hlg.sld.cu"}}, {"type": "node", "id": 6135943485, "lat": 21.3862372, "lon": -77.9357133, "tags": {"amenity": "hospital", "name": "Hospital Oncol\u00f3gico Mar\u00eda Curie"}}, {"type": "node", "id": 6168998387, "lat": 20.8280593, "lon": -75.7360386, "tags": {"amenity": "hospital", "name": "Hospital"}}, {"type": "node", "id": 6173576485, "lat": 21.9364507, "lon": -79.6457858, "tags": {"amenity": "hospital", "name": "Hospital Gavilanes", "opening_hours": "24/7"}}, {"type": "node", "id": 6179602235, "lat": 21.4718121, "lon": -78.439152, "tags": {"addr:street": "Principal", "amenity": "hospital", "healthcare": "hospital", "name": "Policl\u00ednico Jose Antonio Echeverr\u00eda", "opening_hours": "24/7", "phone": "+5332508112"}}, {"type": "node", "id": 6297587402, "lat": 21.4279371, "lon": -77.3264224, "tags": {"addr:housenumber": "9", "addr:street": "Ignacio Agramonte", "amenity": "hospital", "healthcare": "hospital", "name": "Policl\u00ednico", "phone": "+5332848104"}}, {"type": "node", "id": 6297591243, "lat": 21.3716298, "lon": -77.1420934, "tags": {"addr:housenumber": "84", "addr:postcode": "74290", "addr:street": "Calle Cuba", "amenity": "hospital", "name": "Policl\u00ednico \"X Aniversario\"", "name:en": "Clinic \"X Aniversario\"", "phone": "+5332849168"}}, {"type": "node", "id": 6341218089, "lat": 20.0374085, "lon": -75.8467743, "tags": {"amenity": "hospital", "name": "Policlinico Frank Pa\u00eds Garc\u00eda"}}, {"type": "node", "id": 6390592886, "lat": 20.8141622, "lon": -78.0155192, "tags": {"amenity": "hospital"}}, {"type": "node", "id": 6424207845, "lat": 20.1705901, "lon": -75.7095235, "tags": {"amenity": "hospital", "healthcare": "hospital", "name": "Policlinico Porfirio Valiente Bravo"}}, {"type": "node", "id": 6504376454, "lat": 21.0870528, "lon": -75.7781553, "tags": {"amenity": "hospital", "healthcare": "hospital", "healthcare:speciality": "general", "name": "Policl\u00ednico Jos\u00e9 Manuel Ricardo", "operator": "Ministerio de Salud P\u00fablica (MINSAP)", "operator:type": "public"}}, {"type": "node", "id": 6680084785, "lat": 21.3816607, "lon": -77.9318918, "tags": {"addr:street": "4ta", "amenity": "hospital", "name": "Cardiocentro", "opening_hours": "24/7"}}, {"type": "node", "id": 6762157186, "lat": 21.2414699, "lon": -77.825545, "tags": {"amenity": "hospital", "name": "Policlinico \"Henry Reeves\""}}, {"type": "node", "id": 6804438685, "lat": 26.866165, "lon": -77.5048186, "tags": {"amenity": "hospital", "name": "Coopers Town Community Clinic"}}, {"type": "node", "id": 7014092589, "lat": 20.1544168, "lon": -74.2594644, "tags": {"amenity": "hospital", "name": "Patricio Sierra Alta"}}, {"type": "node", "id": 7092263999, "lat": 20.3651458, "lon": -75.9114987, "tags": {"amenity": "hospital"}}, {"type": "node", "id": 7092267313, "lat": 20.2151948, "lon": -75.2295323, "tags": {"amenity": "hospital"}}, {"type": "node", "id": 7149389907, "lat": 20.8884717, "lon": -76.2690242, "tags": {"amenity": "hospital", "healthcare": "hospital", "name": "Centro Onc\u00f3logo Territorial"}}, {"type": "node", "id": 7149393218, "lat": 20.9667394, "lon": -75.7235864, "tags": {"amenity": "hospital", "name": "Hospital Materno Infantil Dr. Luis Mario Cruz Cruz", "phone": "+(53)24803278"}}, {"type": "node", "id": 7180014585, "lat": 20.1512052, "lon": -75.7259068, "tags": {"addr:street": "Jagua", "amenity": "hospital", "healthcare": "hospital", "name": "Gustavo Machin", "name:es": "Hospital Psiqui\u00e1trico Gustavo Machin"}}, {"type": "node", "id": 7243696264, "lat": 21.824617, "lon": -77.9557819, "tags": {"amenity": "hospital", "name": "Hospital"}}, {"type": "node", "id": 7272391186, "lat": 20.6426813, "lon": -75.932923, "tags": {"addr:street": "Carretera Mayar\u00ed", "amenity": "hospital"}}, {"type": "node", "id": 7383787901, "lat": 22.0784052, "lon": -79.5062859, "tags": {"amenity": "hospital", "name": "Hospital Municipal Cl\u00ednico Quir\u00fargico"}}, {"type": "node", "id": 7424578988, "lat": 22.0821631, "lon": -79.5039651, "tags": {"amenity": "hospital", "healthcare": "hospital", "name": "Policl\u00ednico No.1 de Cabaigu\u00e1n \"Parque Marti\""}}, {"type": "node", "id": 7722897378, "lat": 20.2828222, "lon": -74.2629734, "tags": {"amenity": "hospital", "name": "Policl\u00ednico Sabana"}}, {"type": "node", "id": 7797650118, "lat": 20.8924999, "lon": -77.9220401, "tags": {"amenity": "hospital", "healthcare": "hospital", "name": "Centro de Rehabilitaci\u00f3n"}}, {"type": "node", "id": 7797650120, "lat": 20.8921981, "lon": -77.9215853, "tags": {"amenity": "hospital", "healthcare": "hospital", "healthcare:speciality": "general"}}, {"type": "node", "id": 7928325743, "lat": 21.0869808, "lon": -75.7197414, "tags": {"amenity": "hospital", "healthcare": "hospital", "name": "Consultorio M\u00e9dico"}}, {"type": "node", "id": 7993557485, "lat": 20.7158901, "lon": -77.9976425, "tags": {"amenity": "hospital", "name": "Policl\u00ednico"}}, {"type": "node", "id": 8004581887, "lat": 20.0547998, "lon": -75.7660453, "tags": {"amenity": "hospital", "healthcare": "hospital", "name": "Hospital Psiqui\u00e1trico"}}, {"type": "node", "id": 8127550616, "lat": 20.1518155, "lon": -76.2529513, "tags": {"amenity": "hospital", "healthcare": "hospital", "name": "Hospital Cruce de los Ba\u00f1os"}}, {"type": "node", "id": 8830579129, "lat": 21.2390244, "lon": -77.5232984, "tags": {"amenity": "hospital", "name": "Policlinico \"Manuel de Varona\""}}, {"type": "node", "id": 8850975705, "lat": 21.2597575, "lon": -78.1515111, "tags": {"amenity": "hospital", "name": "Policlinico \"Mario Mu\u00f1oz Monroe\""}}, {"type": "node", "id": 9092080537, "lat": 20.1879759, "lon": -75.4887959, "tags": {"amenity": "hospital", "name": "Policl\u00ednico Reynaldo Chiang"}}, {"type": "node", "id": 9384420012, "lat": 22.2130632, "lon": -79.7539803, "tags": {"amenity": "hospital"}}, {"type": "node", "id": 9683142449, "lat": 20.3209746, "lon": -74.8657774, "tags": {"amenity": "hospital", "name": "Policl\u00ednico Bernardo"}}, {"type": "node", "id": 9890349924, "lat": 25.0762488, "lon": -77.4269677, "tags": {"addr:street": "Sandyport Drive", "amenity": "hospital", "healthcare": "hospital", "healthcare:speciality": "paediatrics;gynaecology", "name": "Sandyport Medical Centre", "operator": "Leon Dupuch", "operator:type": "private"}}, {"type": "node", "id": 10159341517, "lat": 21.9303315, "lon": -79.4359228, "tags": {"addr:street": "Avenida de los M\u00e1rtires", "amenity": "hospital", "healthcare": "hospital", "name": "Direcci\u00f3n Provincial de Salud Sancti Sp\u00edritus", "opening_hours": "24/7"}}, {"type": "node", "id": 10224082419, "lat": 22.6278803, "lon": -79.9331245, "tags": {"amenity": "hospital", "healthcare": "hospital", "name": "Policlinico de Mata"}}, {"type": "node", "id": 10315010298, "lat": 20.9652818, "lon": -75.7218879, "tags": {"amenity": "hospital", "name": "Policl\u00ednico Dar\u00edo Calzadilla"}}, {"type": "node", "id": 10538418410, "lat": 21.9199377, "lon": -79.4450883, "tags": {"amenity": "hospital", "healthcare": "hospital", "name": "Doctora dany"}}, {"type": "node", "id": 10774471905, "lat": 21.9676181, "lon": -79.4294759, "tags": {"amenity": "hospital", "healthcare": "hospital", "name": "hospital de el SIDA"}}, {"type": "node", "id": 10832244305, "lat": 20.4154651, "lon": -75.5302425, "tags": {"addr:street": "Ave. Jes\u00fas Men\u00e9ndez", "amenity": "hospital", "name": "Hospital"}}, {"type": "node", "id": 10968676475, "lat": 20.6630313, "lon": -74.9504773, "tags": {"amenity": "hospital", "healthcare": "hospital", "name": "Consultorio M\u00e9dico", "name:es": "Consultorio M\u00e9dico"}}, {"type": "node", "id": 11117918983, "lat": 20.1751382, "lon": -75.7059157, "tags": {"amenity": "hospital", "description": "centro medico", "name": "Sala de Reabilitacion"}}, {"type": "node", "id": 11165144239, "lat": 20.2184451, "lon": -74.8036731, "tags": {"addr:street": "Carretera Puriales-Guaiban\u00f3-San Antonio del Sur", "amenity": "hospital", "name": "Policl\u00ednico F\u00e9lix Pena D\u00edaz"}}, {"type": "way", "id": 39075830, "center": {"lat": 20.0241149, "lon": -75.8217341}, "nodes": [466519409, 5650120738, 466519410, 466519411, 466519412, 466519415, 466519420, 466519425, 466519426, 5550180714, 5550180715, 5550180716, 5550180717, 5550180718, 5550180719, 5550180720, 5550180713, 466519409], "tags": {"amenity": "hospital", "building": "yes", "description": "Antigua Cl\u00ednica de los \u00c1ngeles", "healthcare": "hospital", "name": "Gineco-Obst\u00e9trico \"Mariana Grajales\""}}, {"type": "way", "id": 89096084, "center": {"lat": 20.9507455, "lon": -76.9367826}, "nodes": [1033682185, 6976109101, 1033682196, 5567807213, 1033682112, 1033682212, 6976109102, 1033682185], "tags": {"addr:housenumber": "1", "addr:street": "Avenida 2 de Diciembre", "amenity": "hospital", "emergency": "yes", "healthcare": "hospital", "internet_access": "wlan", "name": "Hospital Provincial Ernesto Che Guevara", "opening_hours": "24/7", "phone": "31345012"}}, {"type": "way", "id": 89971358, "center": {"lat": 20.0341225, "lon": -75.7978338}, "nodes": [1042886798, 1042886788, 1042886769, 1042886790, 1042886781, 1042886797, 1042886802, 1042886777, 1042886794, 1042886780, 1042886771, 1042886792, 1042886795, 1042886798], "tags": {"amenity": "hospital", "area": "yes", "healthcare": "hospital", "name": "Hospital General \"Dr. Juan Bruno Zayas Alfonso\""}}, {"type": "way", "id": 127691880, "center": {"lat": 21.9501442, "lon": -79.1652186}, "nodes": [1412710268, 1412710269, 1412710266, 4301751785, 1412710267, 1412710268], "tags": {"amenity": "hospital", "emergency": "yes", "healthcare": "hospital", "name": "Hospital M\u00e1rtires de Jatibonico", "operator": "Ministerio de Salud P\u00fablica", "operator:short": "MINSAP", "operator:type": "public", "operator:wikidata": "Q6017421"}}, {"type": "way", "id": 130805193, "center": {"lat": 20.6556107, "lon": -75.6824742}, "nodes": [1439787508, 1439787510, 1439787509, 1439787511, 1439787508], "tags": {"addr:postcode": "83000", "addr:street": "Ave Maceo", "amenity": "hospital", "name": "Centro de Salud"}}, {"type": "way", "id": 130805633, "center": {"lat": 20.6557608, "lon": -75.6872501}, "nodes": [1439798014, 1439798010, 1439798017, 1439798016, 1439798014], "tags": {"amenity": "hospital", "emergency": "yes", "name": "Hospital General Universitario"}}, {"type": "way", "id": 140163755, "center": {"lat": 21.9341876, "lon": -79.4339658}, "nodes": [1535612614, 3815550379, 1535612076, 1593755005, 1593752714, 1593753695, 1593752254, 1593753468, 1535612800, 1593754488, 1535612431, 1535612614], "tags": {"amenity": "hospital", "building": "yes", "building:levels": "2", "healthcare": "hospital", "name": "Policl\u00ednico Centro"}}, {"type": "way", "id": 140297141, "center": {"lat": 21.9203386, "lon": -79.4489455}, "nodes": [1537200170, 1537201737, 1537202348, 1537200974, 1537200702, 1537201438, 1537200030, 1537202220, 1537199415, 1537201199, 1537199858, 1537199955, 2242254923, 5457996022, 5457996021, 1537200170], "tags": {"amenity": "hospital", "building": "public", "building:levels": "3", "contact:email": "root@pediat.ssp.sld.cu", "contact:phone": "(5341) 326010", "healthcare": "hospital", "name": "Pedi\u00e1trico Provincial"}}, {"type": "way", "id": 161141042, "center": {"lat": 20.1575145, "lon": -75.2175898}, "nodes": [1731408404, 1731408450, 1731408454, 3939421636, 1731408441, 1731408422, 1731408425, 1731408404], "tags": {"amenity": "hospital", "healthcare": "hospital", "name": "Hospital General Docente Dr. Agostino Neto"}}, {"type": "way", "id": 161939864, "center": {"lat": 20.3659999, "lon": -76.6412171}, "nodes": [1738910436, 1738910435, 1738910434, 1738910433, 1738910436], "tags": {"amenity": "hospital", "building": "yes", "healthcare": "hospital", "name": "Policlinico 13 de Marzo"}}, {"type": "way", "id": 161943001, "center": {"lat": 20.3779478, "lon": -76.6489686}, "nodes": [1738953329, 1738953322, 1741963815, 1738953325, 1738953329], "tags": {"amenity": "hospital", "building": "yes", "healthcare": "hospital", "name": "Policlinico Bayamo"}}, {"type": "way", "id": 162365760, "center": {"lat": 20.3861267, "lon": -76.6453926}, "nodes": [1742740799, 1742740798, 1742740796, 1742740795, 1742740797, 1742740799], "tags": {"amenity": "hospital", "healthcare": "hospital", "name": "Policlinico Ren\u00e9 Vallejo"}}, {"type": "way", "id": 162367139, "center": {"lat": 20.3653401, "lon": -76.6315527}, "nodes": [1742770212, 3662346808, 1742770196, 1742770194, 3662346809, 1742770210, 1742770212], "tags": {"addr:city": "Bayamo", "addr:street": "7ma", "amenity": "hospital", "healthcare": "hospital", "name": "Policlinico Tipo III"}}, {"type": "way", "id": 162782749, "center": {"lat": 20.38629, "lon": -76.6530334}, "nodes": [1746046920, 1746046919, 1746046932, 9695512682, 1746046933, 6582680210, 1746046922, 1746046921, 1746046920], "tags": {"amenity": "hospital", "healthcare": "hospital", "name": "Hospital Infantil General Milan\u00e9s"}}, {"type": "way", "id": 196801954, "center": {"lat": 21.5208101, "lon": -78.218375}, "nodes": [2070970538, 2271899166, 2070970540, 2332271000, 2070970544, 2070970541, 2070970545, 2070970535, 2070970537, 2082840702, 2082840710, 2070970542, 3062220057, 2070970539, 6122181560, 2070970543, 2070970538], "tags": {"addr:city": "Florida", "addr:housenumber": "4000", "addr:street": "Carretera Central", "amenity": "hospital", "emergency": "yes", "name": "Hospital Municipal Manuel Piti Fajardo", "phone": "+533253472"}}, {"type": "way", "id": 198624794, "center": {"lat": 26.5373844, "lon": -76.9570156}, "nodes": [2087346986, 2087346976, 2087346944, 2087346948, 2087346958, 2087346964, 2087346986], "tags": {"amenity": "hospital", "building": "yes", "name": "Hope Town Clinic"}}, {"type": "way", "id": 199691646, "center": {"lat": 20.8459654, "lon": -75.9525617}, "nodes": [2096755089, 2096755082, 7710762588, 2096755085, 2096755091, 2096755089], "tags": {"amenity": "hospital", "name": "Hospital Julio Antonio Mella"}}, {"type": "way", "id": 200021336, "center": {"lat": 20.9458923, "lon": -76.9397948}, "nodes": [1034634314, 1034634076, 8020563520, 8020563519, 8020563518, 1034634169, 1034634245, 1034634376, 1034634284, 1034634243, 1034634314], "tags": {"addr:city": "Las Tunas", "addr:street": "Carretera Central", "amenity": "hospital", "healthcare": "hospital", "name": "Hospital Pedi\u00e1trico Provincial M\u00e1rtires de Las Tunas", "phone": "31345914", "source": "https://www.ecured.cu/Hospital_Pediatrico_Provincial_M\u00e1rtires_de_Las_Tunas"}}, {"type": "way", "id": 200480762, "center": {"lat": 26.5325908, "lon": -78.6925488}, "nodes": [2104631959, 2104631953, 5810030999, 5810031000, 5810031001, 2104631954, 2104631958, 2104631957, 5810031002, 5810031003, 5810031004, 5810031005, 5810031006, 5810031007, 2104631987, 5810031015, 5810031014, 5810031013, 5810031012, 5810031011, 5810031010, 5810031009, 5810031008, 5810031018, 2104631988, 5810031017, 5810031016, 2104631981, 2104631990, 2104631992, 2104631983, 2104631985, 5810031020, 5810031019, 2104631993, 5810031024, 5810031023, 5810031022, 5810031021, 2154710532, 2154710500, 2104631999, 2104632000, 2104631997, 2104631995, 7080907662, 7080907661, 2104631955, 2104631956, 2104631973, 2104631971, 2104631969, 2104631968, 2104631961, 2104631963, 2104631966, 2104631964, 2104631960, 5810030998, 2104631959], "tags": {"amenity": "hospital", "building": "hospital", "emergency": "yes", "healthcare": "hospital", "name": "Rand Memorial Hospital", "operator": "Public Hospitals Authority", "website": "http://www.gbhs.phabahamas.org/about/institutional-members/rand-memorial-hospital/"}}, {"type": "way", "id": 205362624, "center": {"lat": 21.4046449, "lon": -77.8883067}, "nodes": [2153351259, 2153351255, 2153351254, 2153351243, 2153351241, 2153351236, 2153351237, 4844730511, 4844730508, 4844730509, 4844730510, 2153351250, 2153351248, 2153351257, 2153351256, 2153351260, 2153351261, 3951175320, 3951175317, 2153351259], "tags": {"amenity": "hospital", "name": "Hospital Provincial Docente Clinico Quir\u00fargico Amalia Simoni", "name:en": "Hospital Provincial Clinico Quir\u00fargico Amalia Simoni", "name:es": "Hospital Docente Clinico Quir\u00fargico Amalia Simoni"}}, {"type": "way", "id": 222885700, "center": {"lat": 20.9670389, "lon": -76.9359724}, "nodes": [2318300122, 4006307772, 4006307776, 4006307778, 4006307775, 2318300159, 2318300103, 4006307762, 4006307764, 2318300098, 2318300124, 2318300140, 2318300122], "tags": {"amenity": "hospital", "building": "yes", "building:levels": "1", "emergency": "yes", "healthcare": "doctor", "internet_access": "wlan", "name": "Policlinico Gustavo Aldereguia"}}, {"type": "way", "id": 222895203, "center": {"lat": 20.9682577, "lon": -76.9448858}, "nodes": [2318389888, 2318389889, 2318389884, 2318389875, 2318389888], "tags": {"amenity": "hospital", "emergency": "no", "healthcare": "hospital", "name": "Guillermo Tejas"}}, {"type": "way", "id": 228008136, "center": {"lat": 21.797966, "lon": -79.9799785}, "nodes": [589082485, 589082482, 1240234155, 2366335242, 2366335243, 4216668606, 2366335244, 2366335245, 2366335246, 589082485], "tags": {"amenity": "hospital", "emergency": "yes", "healthcare": "hospital", "name": "Hospital General de Trinidad", "operator": "Ministerio de Salud P\u00fablica", "operator:short": "MINSAP", "operator:type": "public", "operator:wikidata": "Q6017421", "phone": "+5341994012"}}, {"type": "way", "id": 230890524, "center": {"lat": 20.3309242, "lon": -77.1278762}, "nodes": [2393230383, 2393230392, 2393230384, 3762097368, 2393230385, 2393230386, 2393230387, 2393230388, 2393230389, 2393230383], "tags": {"addr:city": "Manzanillo", "addr:postcode": "87510", "addr:street": "Avenida Camilo Cienfuegos", "amenity": "hospital", "healthcare": "hospital", "is_in:province": "Granma", "name": "Hospital Provincial Cl\u00ednico Quir\u00fargico  Celia S\u00e1nchez Manduley", "name:en": "Hospital Provincial Cl\u00ednico Quir\u00fargico Celia S\u00e1nchez Manduley", "opening_hours": "24/7", "phone": "+53 23 574011"}}, {"type": "way", "id": 233344276, "center": {"lat": 21.8416432, "lon": -78.7530077}, "nodes": [2417406955, 2417406885, 2417406964, 2417406849, 2417406928, 2417406905, 2417406955], "tags": {"amenity": "hospital", "emergency": "yes", "healthcare": "hospital", "name": "Hospital Provincial \"Antonio Luaces Iraola\""}}, {"type": "way", "id": 235539097, "center": {"lat": 20.961509, "lon": -76.9645866}, "nodes": [2435804687, 2435804679, 2435804684, 2435804675, 2435804687], "tags": {"amenity": "hospital", "building": "yes", "emergency": "no", "healthcare": "doctor", "name": "Policlinico Aquiles Espinosa"}}, {"type": "way", "id": 240030850, "center": {"lat": 21.3915145, "lon": -77.9439105}, "nodes": [2477991250, 2477991251, 2477991252, 2477991253, 2477991254, 2477991255, 2477991256, 2477991257, 2477991258, 2477991259, 2477991260, 2477991261, 2477991262, 2477991263, 2477991250], "tags": {"amenity": "hospital", "building": "yes", "name": "Policl\u00ednico Oeste  \"Tula\""}}, {"type": "way", "id": 253710881, "center": {"lat": 21.5199187, "lon": -78.2195551}, "nodes": [2596008937, 2596008938, 2596008939, 2596008940, 2596008937], "tags": {"amenity": "hospital", "healthcare": "hospital", "name": "Policl\u00ednico Sur Florida", "phone": "+53 32 516513"}}, {"type": "way", "id": 273871484, "center": {"lat": 21.8392732, "lon": -78.7311787}, "nodes": [2786773360, 2786773361, 2786773362, 2786773363, 2786773360], "tags": {"amenity": "hospital", "emergency": "no", "healthcare": "hospital", "healthcare:speciality": "psychiatry", "name": "Hospital Psiqui\u00e1trico", "operator": "Ministerio de Salud P\u00fablica", "operator:short": "MINSAP", "operator:type": "public", "operator:wikidata": "Q6017421"}}, {"type": "way", "id": 278093958, "center": {"lat": 21.3693814, "lon": -77.9126424}, "nodes": [2825245875, 2825245876, 2825245877, 4060809678, 2825245878, 2825245879, 2825245880, 2825245881, 9817938241, 2825245882, 2825245883, 2825245875], "tags": {"addr:city": "Camag\u00fcey", "addr:housenumber": "2", "addr:street": "Dolores Betancourt", "amenity": "hospital", "healthcare": "hospital", "name": "Hospital Provincial  Pedi\u00e1trico Provincial Docente Dr. Eduardo Agramonte Pi\u00f1a", "name:es": "Hospital Provincial Pedi\u00e1trico Provincial Docente Dr. Eduardo Agramonte Pi\u00f1a", "phone": "+53 32 282014"}}, {"type": "way", "id": 291710310, "center": {"lat": 22.6531793, "lon": -79.0519905}, "nodes": [2951855669, 2951855670, 2951855671, 2951855672, 2951855669], "tags": {"amenity": "hospital", "emergency": "yes", "name": "Cl\u00ednica Internacional Cayo Santa Mar\u00eda"}}, {"type": "way", "id": 301890394, "center": {"lat": 25.0742762, "lon": -77.3362833}, "nodes": [3060557787, 3060557788, 3060557789, 10178519284, 3060557790, 3060557791, 3762294446, 10178149051, 3060557787], "tags": {"addr:street": "Shirley Street", "amenity": "hospital", "name": "Princess Margaret Hospital (PMH)", "source": "KG Ground Survey 2016"}}, {"type": "way", "id": 301893671, "center": {"lat": 25.0316574, "lon": -77.2912561}, "nodes": [3060592312, 3060592313, 3060592314, 3060592315, 3060592316, 3060592317, 3060592318, 3060592319, 3060592320, 3060592321, 3060592322, 3060592323, 3060592324, 3060592325, 3060592326, 3060592327, 3060592312], "tags": {"amenity": "hospital", "healthcare": "hospital", "name": "Sandilands Rehabilitation Centre (SRC)", "website": "www.phabahamas.org"}}, {"type": "way", "id": 307024182, "center": {"lat": 21.9361501, "lon": -79.4394347}, "nodes": [3120649713, 3120649714, 6088134794, 6088134793, 3903781569, 3496443993, 3120649715, 3120649716, 3120649717, 3120649721, 3120649722, 3120649718, 3120649719, 3120649720, 3120649713], "tags": {"addr:city": "Sancti Sp\u00edritus", "addr:housenumber": "128", "addr:postcode": "60100", "addr:street": "Bartolom\u00e9 Mas\u00f3", "amenity": "hospital", "emergency": "yes", "healthcare": "hospital", "name": "Hospital General Provincial \u201cCamilo Cienfuegos\u201d", "operator": "MINSAP", "operator:type": "public", "phone": "(+53) 41 338001"}}, {"type": "way", "id": 309476305, "center": {"lat": 21.5377341, "lon": -78.2196333}, "nodes": [3148109747, 3408140020, 3148109748, 3148109749, 3148109750, 3408140015, 3148109747], "tags": {"addr:city": "Florida", "addr:street": "Carretera Esmeralda KM 2", "amenity": "hospital", "name": "Hospital Pedi\u00e1trico Docente de Florida Leopoldo Rey Sampayo", "operator": "MINSAP", "phone": "533254508"}}, {"type": "way", "id": 318036372, "center": {"lat": 21.3769549, "lon": -77.9050721}, "nodes": [3243983340, 10716452833, 703962169, 703962159, 703962106, 3243983344, 6967770300, 3243983345, 3243983340], "tags": {"addr:city": "Camag\u00fcey", "addr:housenumber": "102", "addr:street": "Cornelio Porro", "amenity": "hospital", "healthcare": "hospital", "name": "Hospital Militar Dr. Octavio de la Concepci\u00f3n y la Pedraja"}}, {"type": "way", "id": 318036373, "center": {"lat": 21.3779548, "lon": -77.9060226}, "nodes": [10977980327, 10698393267, 3243983347, 4084467604, 4084467603, 10977980324, 10977980326, 10977980325, 10977980327], "tags": {"addr:city": "Camag\u00fcey", "addr:housenumber": "59", "addr:street": "Cornelio Porro", "amenity": "hospital", "healthcare": "hospital", "name": "Policl\u00ednico Principal de Urgencias Ignacio Agramonte", "phone": "+53 32 294735"}}, {"type": "way", "id": 321563294, "center": {"lat": 20.8335175, "lon": -77.5783194}, "nodes": [3283232498, 3283232499, 3283232500, 3283232501, 3283232498], "tags": {"amenity": "hospital", "emergency": "yes", "name": "Hospital General Docente Luis Aldana Palomino"}}, {"type": "way", "id": 325828538, "center": {"lat": 20.3428191, "lon": -77.1070424}, "nodes": [3324418780, 3324418781, 3324418782, 3324418783, 3324418784, 3759206164, 3324418785, 3759206165, 3759206166, 3324418786, 3324418787, 3324418788, 2488905892, 2488905893, 2488905894, 3324418780], "tags": {"amenity": "hospital", "name": "Hospital Infantil Hermanos Cordov\u00e9"}}, {"type": "way", "id": 326407558, "center": {"lat": 22.3919552, "lon": -79.9502695}, "nodes": [2236143413, 9467350084, 2236143414, 3330458427, 3330458425, 3330458403, 11151711990, 11151711991, 3330458393, 10262745123, 4525177514, 3330452081, 10262745126, 10262745127, 10262745128, 10262745129, 10262745130, 10262745131, 10262745132, 3330458400, 10262745124, 10262745125, 2236143413], "tags": {"addr:city": "Santa Clara", "addr:postcode": "50100", "addr:street": "Carretera a la Pollera", "amenity": "hospital", "barrier": "wall", "healthcare": "hospital", "healthcare:speciality": "general", "name": "Hospital Arnaldo Milian Castro", "opening_hours": "24/7", "operator": "Ministerio de Salud P\u00fablica", "operator:short": "MINSAP", "operator:type": "public", "operator:wikidata": "Q6017421", "phone": "+5342270101"}}, {"type": "way", "id": 330146757, "center": {"lat": 20.0470304, "lon": -77.5754268}, "nodes": [3371047463, 3371047464, 3371047465, 3371047466, 3371047467, 3371047463], "tags": {"amenity": "hospital", "emergency": "no", "name": "Policlinico Ernesto Guevara"}}, {"type": "way", "id": 330964580, "center": {"lat": 21.6680837, "lon": -77.6849306}, "nodes": [3380054218, 11128875674, 11128880520, 3380054219, 3380054220, 3380054221, 3380054218], "tags": {"amenity": "hospital", "name": "Policl\u00ednico 13 de Marzo", "phone": "+5332615106"}}, {"type": "way", "id": 333205932, "center": {"lat": 22.5218634, "lon": -79.4564307}, "nodes": [3403193927, 3403193928, 3403193929, 3403193930, 3403193927], "tags": {"addr:city": "Caibari\u00e9n", "amenity": "hospital", "emergency": "yes", "healthcare": "hospital", "name": "Hospital General Docente Municipal de Caibari\u00e9n"}}, {"type": "way", "id": 337266648, "center": {"lat": 21.3977839, "lon": -77.8998209}, "nodes": [3443772557, 3443772558, 3443772559, 3443772560, 3443772561, 3443772562, 3443772563, 3443772564, 3443772565, 3443772566, 3443772557], "tags": {"amenity": "hospital", "healthcare": "hospital", "name": "Policl\u00ednico Docente \"Carlos Juan Finlay\""}}, {"type": "way", "id": 338025571, "center": {"lat": 20.0425825, "lon": -77.5858396}, "nodes": [3450890359, 3450890356, 3450890362, 3450890361, 3450890360, 3450890357, 3450890353, 3450890363, 3450890354, 3450890352, 3450890355, 3450890358, 3450890359], "tags": {"addr:city": "Niquero", "addr:housenumber": "2", "addr:postcode": "87800", "addr:street": "Calle Granma", "alt_name": "Hospital Gelacio Cala\u00f1a Lahera de Niquero", "amenity": "hospital", "emergency": "yes", "name": "Hospital Gelacio Cala\u00f1a", "phone": "+53 23 59 2626"}}, {"type": "way", "id": 338683772, "center": {"lat": 21.3404993, "lon": -77.8665005}, "nodes": [3458055067, 3458055068, 3458055072, 8868481874, 3458055073, 3458055074, 3458055075, 3458055076, 3458055077, 3458055078, 3458055079, 3458055080, 3458055081, 3458055067], "tags": {"addr:street": "Carretera Central", "amenity": "hospital", "healthcare": "hospital", "healthcare:speciality": "psychiatry", "name": "Hospital Provincial Psiqui\u00e1trico Comandante Ren\u00e9 Vallejo Ortiz"}}, {"type": "way", "id": 338686982, "center": {"lat": 21.3888543, "lon": -77.9393594}, "nodes": [3458102936, 3458102937, 3458102938, 3458102939, 3458102940, 3458102941, 3458102963, 3458102965, 3458102962, 3458102966, 3458102973, 3458102978, 3458102983, 3458102936], "tags": {"addr:city": "Camag\u00fcey", "addr:housenumber": "KM 4", "addr:street": "Carretera Central", "amenity": "hospital", "name": "Hospital Provincial Maternidad Ana Betancourt", "phone": "032297511; 032298045"}}, {"type": "way", "id": 338686998, "center": {"lat": 21.3862409, "lon": -77.9357123}, "nodes": [3458103037, 3458103031, 3458103036, 3458103038, 3458103039, 6568999583, 3458103040, 3458103041, 3458103037], "tags": {"addr:city": "Camag\u00fcey", "addr:postcode": "70700", "addr:street": "Carretera Central", "amenity": "hospital", "name": "Hospital Provincial Docente Oncol\u00f3gico Mar\u00eda Curie", "name:etymology:wikidata": "Q7186", "phone": "+53 32 283905"}}, {"type": "way", "id": 341900765, "center": {"lat": 20.5966049, "lon": -76.1334037}, "nodes": [3489648778, 3528829256, 3528829265, 3528829267, 3528829261, 3489648782, 3489649502, 3528829399, 3528829287, 3528829285, 3528829397, 3489649500, 3489648778], "tags": {"amenity": "hospital", "healthcare": "hospital", "healthcare:speciality": "psychiatry;dentistry;general;cardiology;radiology", "name": "Policl\u00ednico Docente Manuel Fajardo Rivero"}}, {"type": "way", "id": 343601720, "center": {"lat": 22.3939965, "lon": -79.9621796}, "nodes": [3504281380, 3504281381, 10860249328, 10860249327, 3504281382, 3504281383, 3504281380], "tags": {"amenity": "hospital", "healthcare": "hospital", "healthcare:speciality": "cardiology", "name": "Cardiocentro Ernesto Che Guevara", "opening_hours": "24/7", "operator": "Ministerio de Salud P\u00fablica", "operator:short": "MINSAP", "operator:type": "public", "operator:wikidata": "Q6017421"}}, {"type": "way", "id": 344163868, "center": {"lat": 22.3919284, "lon": -79.9542052}, "nodes": [3509229214, 3509229220, 3509229219, 3509229206, 3509229214], "tags": {"addr:city": "Santa Clara", "addr:postcode": "50100", "addr:street": "Avenida 26 de Julio", "amenity": "hospital", "emergency": "yes", "healthcare": "hospital", "healthcare:speciality": "paediatrics", "name": "Hospital Pedi\u00e1trico Jos\u00e9 Luis Miranda Garc\u00eda", "name:en": "Paediatric Hospital Jos\u00e9 Luis Miranda", "opening_hours": "24/7", "operator": "Ministerio de Salud P\u00fablica", "operator:short": "MINSAP", "operator:type": "public", "operator:wikidata": "Q6017421", "phone": "+53 42 270604"}}, {"type": "way", "id": 348805948, "center": {"lat": 20.1637129, "lon": -75.7053544}, "nodes": [3548809912, 3672257811, 3672257812, 3548809913, 3672257815, 3672257814, 3672257813, 3548809914, 3672257818, 3672257817, 3548809915, 3672257816, 3672257819, 3548809916, 3548809912], "tags": {"amenity": "hospital", "name": "Hospital Roberto Infantes Pascual"}}, {"type": "way", "id": 349336220, "center": {"lat": 21.1873219, "lon": -76.5870117}, "nodes": [3552414224, 3552414225, 3552414226, 3552414227, 3552414228, 3552414229, 3552414224], "tags": {"addr:housenumber": "Km 1 1/2", "addr:postcode": "77210", "addr:street": "Carretera a Delicias", "amenity": "hospital", "emergency": "yes", "healthcare": "hospital", "name": "Hospital General Guillermo Dom\u00ednguez", "opening_hours": "24/7", "operator": "MINSAP", "operator:type": "public", "phone": "31 512011"}}, {"type": "way", "id": 352924425, "center": {"lat": 21.3814234, "lon": -77.9313376}, "nodes": [3587121314, 3587121315, 3587121316, 3587121317, 7799647276, 3587121318, 3587121319, 3587121320, 3587121321, 3587121322, 3761073069, 3587121314], "tags": {"addr:city": "Camag\u00fcey", "amenity": "hospital", "emergency": "yes", "healthcare": "hospital", "healthcare:speciality": "allergology;plastic_surgery;dermatology;neurology;orthopaedics;otolaryngology;podiatry;radiology;urology", "name": "Hospital Provincial M\u00e9dico Quir\u00fargico Manuel Ascunce Domenech", "operator": "Ministerio de Salud P\u00fablica", "operator:short": "MINSAP", "operator:type": "public", "operator:wikidata": "Q6017421", "phone": "53 32 282012"}}, {"type": "way", "id": 356118103, "center": {"lat": 20.1708191, "lon": -75.6400727}, "nodes": [3616193460, 3616193461, 3616193462, 3616193463, 11129175697, 11129175698, 3616193460], "tags": {"amenity": "hospital", "healthcare": "hospital", "name": "Policlinico Carlos J Finlay"}}, {"type": "way", "id": 365249950, "center": {"lat": 20.416944, "lon": -75.5296014}, "nodes": [3692861972, 3692861973, 3692861974, 3692861975, 3692861976, 3692861977, 3692861972], "tags": {"amenity": "hospital"}}, {"type": "way", "id": 367158439, "center": {"lat": 20.3437403, "lon": -76.7881051}, "nodes": [3711095798, 3711095799, 3711095800, 3711095801, 3711095798], "tags": {"amenity": "hospital", "name": "Policlinico"}}, {"type": "way", "id": 367362053, "center": {"lat": 25.0749905, "lon": -77.3330215}, "nodes": [3712939656, 3712939657, 3712939658, 3712939659, 3712939660, 3712939661, 3712939662, 3712939663, 3712939656], "tags": {"addr:housenumber": "1", "addr:street": "Shirley Street", "amenity": "hospital", "building": "yes", "name": "Doctors Hospital", "roof:shape": "flat", "source": "KG Ground Survey 2016"}}, {"type": "way", "id": 368059287, "center": {"lat": 22.0003853, "lon": -79.2722973}, "nodes": [3719197307, 3719197308, 3719197309, 3719197310, 3719197311, 3719197312, 8869067858, 3719197307], "tags": {"amenity": "hospital", "healthcare": "hospital", "name": "Hospital General Docente Jorge Ruiz Ramirez", "operator": "Ministerio de Salud P\u00fablica", "operator:short": "MINSAP", "operator:type": "public", "operator:wikidata": "Q6017421"}}, {"type": "way", "id": 368187738, "center": {"lat": 20.334534, "lon": -77.1243362}, "nodes": [3720446253, 4094431187, 3720446254, 3720446255, 4094431184, 3720446256, 4094431185, 3720446253], "tags": {"amenity": "hospital", "healthcare": "hospital", "name": "Policl\u00ednico Docente \u00c1ngel Ort\u00edz V\u00e1zquez", "phone": "+53 23 577543"}}, {"type": "way", "id": 370132354, "center": {"lat": 25.0634839, "lon": -77.4509941}, "nodes": [3738554810, 3738554811, 3738554812, 3738554813, 3738554810], "tags": {"amenity": "hospital", "name": "Bahamas Medical Center", "operator": "Doctors Hospital Health System", "website": "https://bahamasmedicalcenter.com/"}}, {"type": "way", "id": 371451043, "center": {"lat": 20.8701842, "lon": -76.2371229}, "nodes": [3750113491, 3750113492, 3750113493, 3750113494, 3750113495, 3750113496, 3750113497, 3750113491], "tags": {"addr:postcode": "80100", "addr:street": "Carretera del Valle de Mayabe", "amenity": "hospital", "email": "erick@infomed.sld.cu", "healthcare": "hospital", "internet_access": "wlan", "name": "Hopital Provincial Docente Cl\u00ednico Qu\u00edr\u00fargico \"Luc\u00eda I\u00f1iguez Land\u00edn\"", "opening_hours": "24/7", "phone": "+5324481517", "short_name": "HCQHO", "website": "http://www.hcqho.sld.cu/"}}, {"type": "way", "id": 371543214, "center": {"lat": 20.207661, "lon": -77.3621306}, "nodes": [3751080640, 3751080641, 4768632348, 3751080642, 3751080643, 3751080640], "tags": {"amenity": "hospital", "name": "Policl\u00ednico"}}, {"type": "way", "id": 371642287, "center": {"lat": 20.3396496, "lon": -77.1259973}, "nodes": [3752038654, 3752038667, 3752038655, 3752038665, 3752038668, 3752038673, 3752038656, 3752038689, 3752038657, 3752038654], "tags": {"addr:city": "Manzanillo", "addr:housenumber": "147", "addr:street": "Calle Mart\u00ed", "amenity": "hospital", "healthcare": "hospital", "name": "Hospital Materno Fe del Valle", "opening_hours": "24/7", "phone": "+53 23 577543"}}, {"type": "way", "id": 371783700, "center": {"lat": 20.0889229, "lon": -77.1493013}, "nodes": [3753306351, 3753306352, 3753306353, 3753306354, 3753306356, 3753306357, 3753306355, 3753306351], "tags": {"amenity": "hospital"}}, {"type": "way", "id": 372269329, "center": {"lat": 20.1090779, "lon": -76.9968186}, "nodes": [3758226719, 3758226720, 3758226721, 3758226722, 3758226719], "tags": {"amenity": "hospital", "healthcare": "hospital", "name": "Hospital General Capit\u00e1n Mariano P\u00e9rez Bali"}}, {"type": "way", "id": 372285500, "center": {"lat": 20.5788246, "lon": -75.2419767}, "nodes": [3758344555, 3758344556, 3758344557, 3758344558, 3758344559, 3758344555], "tags": {"amenity": "hospital", "name": "Hospital Sagua De Tanamo"}}, {"type": "way", "id": 372285507, "center": {"lat": 20.5804116, "lon": -75.2409163}, "nodes": [3758344578, 3758344579, 3758344580, 3758344581, 3758344578], "tags": {"amenity": "hospital", "name": "Policl\u00ednico"}}, {"type": "way", "id": 372286013, "center": {"lat": 20.661204, "lon": -74.9507984}, "nodes": [3758348289, 3758348290, 3758348291, 3758348292, 3758348293, 3758348289], "tags": {"addr:city": "Moa", "addr:postcode": "83320", "addr:street": "Ave. Mayor General Calixto Garc\u00eda I.", "amenity": "hospital", "emergency": "yes", "healthcare": "hospital", "name": "Hospital General Guillermo Luis Hern\u00e1ndez Fern\u00e1ndez Vaquero"}}, {"type": "way", "id": 372419790, "center": {"lat": 20.1356438, "lon": -75.2187485}, "nodes": [3759792412, 3759792413, 3759792414, 3759792415, 3759792416, 3759792412], "tags": {"amenity": "hospital", "healthcare": "hospital", "name": "Hospital Pediatrico Pedro A. Perez"}}, {"type": "way", "id": 375322280, "center": {"lat": 20.2557928, "lon": -76.5360698}, "nodes": [3786935461, 3786935462, 3786935463, 3786935464, 3786935461], "tags": {"amenity": "hospital", "name": "Policl\u00ednico Guillermo Gonz\u00e1lez Polanco"}}, {"type": "way", "id": 375589559, "center": {"lat": 22.5148916, "lon": -79.7053042}, "nodes": [3789467963, 3789467992, 3789467964, 3789467965, 3789467966, 3789467963], "tags": {"addr:city": "Vueltas", "addr:street": "Maceo", "amenity": "hospital", "healthcare": "hospital", "name": "Hospital Docente Comandante Manuel Piti Fajardo"}}, {"type": "way", "id": 375653848, "center": {"lat": 20.1951343, "lon": -75.1461291}, "nodes": [3790019564, 3790019565, 3790019566, 3790019567, 3790019568, 3790019569, 3790019564], "tags": {"amenity": "hospital", "healthcare": "hospital"}}, {"type": "way", "id": 376448040, "center": {"lat": 21.4000933, "lon": -77.9173367}, "nodes": [3798688510, 3798688511, 3798688512, 3798688517, 3798688514, 3798688513, 10700854560, 10700854559, 3798688510], "tags": {"amenity": "hospital", "healthcare": "hospital", "name": "Policl\u00ednico Norte \"Joaqu\u00edn de Aguero\""}}, {"type": "way", "id": 376763102, "center": {"lat": 22.2361174, "lon": -79.9987477}, "nodes": [3801502053, 3801502054, 3801502055, 3801502056, 3801502053], "tags": {"amenity": "hospital", "name": "Policl\u00ednico"}}, {"type": "way", "id": 376763112, "center": {"lat": 22.140456, "lon": -79.9704924}, "nodes": [3801502084, 3801502085, 3801502086, 3801502087, 3801502088, 3801502084], "tags": {"amenity": "hospital", "name": "Hospital"}}, {"type": "way", "id": 377723935, "center": {"lat": 22.1112908, "lon": -78.6226363}, "nodes": [3811124240, 3811124241, 3811124239, 3938045573, 3938045567, 3811124237, 5091700538, 3811124236, 3811124235, 3811124238, 3811124240], "tags": {"amenity": "hospital", "healthcare": "hospital", "name": "Hospital Provincial Roberto Rodr\u00edguez", "operator": "Ministerio de Salud P\u00fablica", "operator:short": "MINSAP", "operator:type": "public", "operator:wikidata": "Q6017421"}}, {"type": "way", "id": 380090618, "center": {"lat": 21.8487612, "lon": -78.7360543}, "nodes": [3834363594, 3834363595, 8481511242, 8481528919, 8481528918, 8481511241, 3834363596, 3834363597, 3834363594], "tags": {"addr:housename": "Edificios Multi Familiar El Pedriatico", "amenity": "hospital", "building": "hospital", "building:levels": "8", "healthcare": "hospital", "healthcare:speciality": "paediatrics", "name": "Hospital Pedi\u00e1trico", "operator": "Ministerio de Salud P\u00fablica", "operator:short": "MINSAP", "operator:type": "public", "operator:wikidata": "Q6017421"}}, {"type": "way", "id": 381814974, "center": {"lat": 20.0348162, "lon": -75.8174082}, "nodes": [3849815371, 3849814494, 3849815373, 3849815385, 3849815371], "tags": {"amenity": "hospital", "healthcare": "hospital", "name": "Hospital Ginecoobst\u00e9trico \"Tamara Bunke\""}}, {"type": "way", "id": 381815009, "center": {"lat": 20.036463, "lon": -75.8160439}, "nodes": [3849816106, 3849815390, 3849813204, 3849814104, 3849816106], "tags": {"amenity": "hospital", "healthcare": "hospital", "name": "Hospital Ped\u00e1trico Norte \"Juan de la Cruz Mart\u00ednez\""}}, {"type": "way", "id": 381815010, "center": {"lat": 20.033325, "lon": -75.8179421}, "nodes": [3849815370, 3849812381, 3849811608, 3849813159, 3849815370], "tags": {"addr:housenumber": "4", "addr:street": "4ta", "amenity": "hospital", "healthcare": "hospital", "name": "Hospital Provincial Saturnino Lora", "opening_hours": "24/7", "phone": "+5322644182"}}, {"type": "way", "id": 386053334, "center": {"lat": 20.131047, "lon": -75.2133413}, "nodes": [3893946477, 3893946478, 3893946479, 3893946480, 3893946481, 3893946477], "tags": {"addr:city": "Guantanamo", "addr:street": "10 sur", "amenity": "hospital", "name": "Policilnico Sur"}}, {"type": "way", "id": 386056381, "center": {"lat": 20.1348213, "lon": -75.2123435}, "nodes": [3893984399, 3893984400, 3893984401, 461746322, 3893984402, 3893984399], "tags": {"amenity": "hospital", "healthcare": "hospital", "name": "Hogar Materno Provincial"}}, {"type": "way", "id": 386056444, "center": {"lat": 20.1315935, "lon": -75.21248}, "nodes": [3893985194, 3893985195, 3893985196, 3893985197, 3893985198, 3893985194], "tags": {"amenity": "hospital", "name": "Clinica Estomatologia Lidia Doce"}}, {"type": "way", "id": 390924203, "center": {"lat": 20.8878891, "lon": -76.2697228}, "nodes": [3940793085, 3940792955, 3940793157, 3940793158, 3940793159, 3940792956, 3940792701, 3940792698, 3940787784, 3940792928, 3940793063, 3943649358, 3940792702, 3940793083, 3940793085], "tags": {"amenity": "hospital", "healthcare": "hospital", "healthcare:speciality": "nephrology;cardiology;physiatry;anaesthetics;general;surgery", "name": "Hospital Universitario Vladimir Ilich Lenin", "operator": "Ministerio de Salud P\u00fablica", "operator:short": "MINSAP", "operator:type": "public", "operator:wikidata": "Q6017421"}}, {"type": "way", "id": 391178727, "center": {"lat": 20.8878003, "lon": -76.2488899}, "nodes": [3943648507, 4444787974, 4444787975, 3943648905, 3943648732, 3943648904, 3943648913, 3943647751, 3943649117, 9795905151, 9795905152, 3943649369, 3943648727, 3943648883, 3943648862, 3943648507], "tags": {"amenity": "hospital", "healthcare": "hospital", "name": "Hospital Provincial Pedi\u00e1trico Octavio de la Concepci\u00f3n y la Pedraja"}}, {"type": "way", "id": 396497713, "center": {"lat": 20.056942, "lon": -74.8105156}, "nodes": [3993103779, 3993103780, 3993103781, 3993103782, 3993103779], "tags": {"amenity": "hospital", "building": "yes", "name": "Policl\u00ednico"}}, {"type": "way", "id": 396500735, "center": {"lat": 20.1292355, "lon": -75.2201332}, "nodes": [3993123200, 4617647313, 3993123201, 3993123202, 3993123203, 3993123200], "tags": {"amenity": "hospital", "name": "Hospital psiqui\u00e1trico"}}, {"type": "way", "id": 396500736, "center": {"lat": 20.1284796, "lon": -75.2220861}, "nodes": [3993123204, 3993123205, 3993123206, 3993123207, 3993123204], "tags": {"amenity": "hospital", "healthcare": "hospital", "name": "Policlinico Especialidades"}}, {"type": "way", "id": 403578312, "center": {"lat": 20.8934496, "lon": -77.9209474}, "nodes": [4059324559, 4059324560, 4059324561, 4059324562, 4059324559], "tags": {"amenity": "hospital", "building": "yes", "healthcare": "hospital", "name": "Policl\u00ednico"}}, {"type": "way", "id": 407550302, "center": {"lat": 20.3381513, "lon": -77.1427364}, "nodes": [4096013788, 4096013889, 4096013890, 4096013891, 4096013788], "tags": {"addr:city": "Manzanillo", "addr:postcode": "87510", "addr:street": "Calle Pesquera", "amenity": "hospital", "emergency": "yes", "name": "Policl\u00ednico Docente Ren\u00e9 Vallejo Ortiz", "phone": "+5323575380"}}, {"type": "way", "id": 408330441, "center": {"lat": 21.7419133, "lon": -79.4639097}, "nodes": [4102833134, 4102833136, 4102833137, 6023202674, 4102833138, 4102833134], "tags": {"amenity": "hospital", "building": "hospital", "emergency": "yes", "healthcare": "hospital", "name": "Hospital Guasimal", "operator": "Ministerio de Salud P\u00fablica", "operator:short": "MINSAP", "operator:type": "publicm", "operator:wikidata": "Q6017421"}}, {"type": "way", "id": 410152908, "center": {"lat": 21.4800867, "lon": -71.144032}, "nodes": [4120180758, 4120180726, 4120180747, 4120180771, 4120180718, 4120180740, 4120180763, 4121887025, 4121886994, 4121885165, 4120181789, 4120180758], "tags": {"addr:street": "Hospital Road", "amenity": "hospital", "healthcare": "hospital", "name": "Cockburn Town Medical Centre", "phone": "941 2900", "source": "KG Ground Survey 2016"}}, {"type": "way", "id": 410347618, "center": {"lat": 26.5339187, "lon": -77.0702371}, "nodes": [4121763589, 4121763590, 4121763591, 4121763592, 4121763593, 4121763594, 4121763595, 4121763596, 4121763597, 6786532296, 4121763598, 4121763599, 6786532295, 4121763600, 4121763601, 4121763602, 4121763603, 4121763604, 4121763605, 4121763606, 4121763607, 4121763608, 4121763609, 4121763610, 4121763611, 4121763612, 4121763613, 4121763614, 4121763615, 4121763616, 4121763617, 4121763618, 4121763619, 4121763620, 4121763621, 4121763622, 4121763623, 4121763624, 4121763625, 4121763626, 4121763627, 4121763628, 4121763629, 4121763630, 4121763631, 4121763632, 4121763633, 4121763634, 4121763589], "tags": {"amenity": "hospital", "building": "yes", "healthcare": "hospital", "name": "Abaco Community Health Center", "source": "KG Ground Survey 2016"}}, {"type": "way", "id": 418020909, "center": {"lat": 20.0145821, "lon": -75.8269286}, "nodes": [4184882611, 4184882612, 4184882613, 4184882614, 4184882615, 5578363291, 5578363292, 4184882616, 4184882617, 4184882618, 4184882619, 5550729583, 5550729582, 5550729584, 4184882611], "tags": {"amenity": "hospital", "healthcare": "hospital", "healthcare:speciality": "paediatrics", "name": "Pedi\u00e1trico Sur", "operator": "Ministerio de Salud P\u00fablica", "operator:short": "MINSAP", "operator:wikidata": "Q6017421"}}, {"type": "way", "id": 432141130, "center": {"lat": 22.4109539, "lon": -79.9739614}, "nodes": [4313045893, 10881686867, 9451789347, 3512946174, 4313045894, 4313045895, 4313045896, 4313045897, 4313045898, 4313045899, 4528998033, 2235538092, 3605860451, 4313045900, 4313045901, 4313045905, 4313045893], "tags": {"addr:postcode": "50100", "addr:street": "Avenida Abel Santa Maria", "amenity": "hospital", "healthcare": "hospital", "healthcare:speciality": "general", "name": "Hospital Militar", "opening_hours": "24/7", "phone": "+5342206061", "website": "https://conocecuba.com/pitifajardo"}}, {"type": "way", "id": 432511427, "center": {"lat": 20.0155996, "lon": -75.8394262}, "nodes": [611663979, 4315234843, 4315234833, 6622597645, 4315234840, 5534759717, 4315234943, 4315234230, 4315234236, 4315234951, 5534759718, 4315234953, 4315234954, 5534759719, 4315234226, 5534793839, 4315234934, 611663979], "tags": {"amenity": "hospital", "healthcare": "hospital", "name": "Hospital Naval \"Castillo Duany\""}}, {"type": "way", "id": 432512639, "center": {"lat": 20.027395, "lon": -75.8215833}, "nodes": [4315244832, 4315245176, 4315245173, 6142681102, 6142681103, 6142681104, 4315244826, 4315245170, 7661233403, 7661233402, 4315244839, 4315244842, 4315244837, 4315244832], "tags": {"amenity": "hospital", "healthcare": "hospital"}}, {"type": "way", "id": 434688810, "center": {"lat": 21.535433, "lon": -77.2743555}, "nodes": [7612296159, 7213052311, 7213052228, 7616384299, 7213052345, 7213052456, 7616385558, 1602315748, 1602315694, 1602315734, 9505173455, 7283083350, 7612296159], "tags": {"addr:street": "Carretera de Camag\u00fcey a Nuevitas", "amenity": "hospital", "cash_withdrawal:type": "checkout", "emergency": "yes", "healthcare": "hospital", "healthcare:speciality": "gynaecology;paediatrics;urology;general;dermatology;orthopaedics;psychiatry;podiatry;otolaryngology;ophthalmology", "name": "Hospital Provincial General Docente \"Mart\u00edn Chang Puga\"", "opening_hours": "24/7", "operator": "Ministerio de Salud P\u00fablica", "operator:short": "MINSAP", "operator:type": "public", "operator:wikidata": "Q6017421", "phone": "+53 32 413014", "website": "https://conocecuba.com/martin-chang"}}, {"type": "way", "id": 434800318, "center": {"lat": 20.2172494, "lon": -76.0008326}, "nodes": [4327187872, 4327188206, 4327188198, 4327187860, 4327187868, 4327187872], "tags": {"amenity": "hospital", "healthcare": "hospital", "name": "Hospital Pedi\u00e1trico \"Juan B. Vi\u00f1as\"", "operator": "MINSAP"}}, {"type": "way", "id": 436479119, "center": {"lat": 22.6183104, "lon": -79.8657937}, "nodes": [4343686687, 4272942182, 4343687591, 4343687592, 4343687593, 4343687597, 4343687595, 4343687600, 4343686687], "tags": {"amenity": "hospital", "name": "Policl\u00ednico Abel Santamar\u00eda"}}, {"type": "way", "id": 436485859, "center": {"lat": 20.9656538, "lon": -75.7380536}, "nodes": [4343756418, 4343756490, 4343756267, 4343756395, 4343756420, 4343756418], "tags": {"amenity": "hospital"}}, {"type": "way", "id": 452565845, "center": {"lat": 20.0226989, "lon": -75.8071777}, "nodes": [4493445532, 4493445566, 5604805573, 4493445721, 4493445165, 4493445532], "tags": {"amenity": "hospital", "healthcare": "hospital"}}, {"type": "way", "id": 458003571, "center": {"lat": 20.5649808, "lon": -75.9448855}, "nodes": [4540571162, 4540571163, 4540571164, 4540571165, 4540571166, 4540571167, 4540571162], "tags": {"amenity": "hospital"}}, {"type": "way", "id": 460653222, "center": {"lat": 20.2948985, "lon": -76.2555015}, "nodes": [4561109756, 4561104958, 4561104994, 6056182986, 6056182985, 6056182884, 4561104953, 4561109757, 4561109756], "tags": {"addr:city": "Contramaestre", "addr:postcode": "92100", "addr:street": "Carretera Central", "amenity": "hospital", "name": "Hospital General Orlando Pantoja Tamayo de Contramaestre", "phone": "589592", "short_name": "HGOP"}}, {"type": "way", "id": 461557343, "center": {"lat": 20.3356285, "lon": -74.4875909}, "nodes": [4570289351, 4570289352, 4570289733, 4570289730, 4570273806, 4570273804, 4570273814, 4570273816, 4570273821, 4570289351], "tags": {"addr:postcode": "97310", "addr:street": "Boh\u00f3rque", "amenity": "hospital", "healthcare": "hospital", "name": "Hospital Municipal", "name:es": "Hospital Municipal Baracoa.", "opening_hours": "24/7", "phone": "21647100"}}, {"type": "way", "id": 473911692, "center": {"lat": 22.3632945, "lon": -79.568684}, "nodes": [4679431110, 4679431111, 4679431112, 4679431113, 4679431114, 4679431115, 4679431110], "tags": {"amenity": "hospital"}}, {"type": "way", "id": 476010570, "center": {"lat": 20.116648, "lon": -75.3262005}, "nodes": [4696773027, 4696773028, 4696773029, 4696773030, 4696773027], "tags": {"addr:city": "Niceto P\u00e9rez", "amenity": "hospital", "name": "Policlinico"}}, {"type": "way", "id": 476409340, "center": {"lat": 21.7416337, "lon": -78.7964386}, "nodes": [4700027694, 4700027695, 4700027696, 4700027697, 4700027698, 4700027699, 4700027694], "tags": {"addr:city": "Venezuela", "amenity": "hospital", "healthcare": "hospital", "name": "Policl\u00ednico Juan Olimpio Valc\u00e1rcel"}}, {"type": "way", "id": 489956046, "center": {"lat": 20.1395122, "lon": -77.4261563}, "nodes": [4821523614, 4821523615, 4821523616, 4821523617, 4821523614], "tags": {"addr:city": "Media Luna", "amenity": "hospital", "name": "Policlinico", "operator": "MINSAP"}}, {"type": "way", "id": 499187540, "center": {"lat": 21.0569007, "lon": -77.3556215}, "nodes": [4904962225, 4904962226, 1332799800, 7575112943, 7575113427, 7575113240, 7575112864, 259841088, 5462653480, 4904962225], "tags": {"addr:street": "Carretera Central", "amenity": "hospital", "name": "Hospital Armando Cardoso", "opening_hours": "24/7", "phone": "+5332812303", "website": "https://conocecuba.com/armandocardoso"}}, {"type": "way", "id": 517069370, "center": {"lat": 21.1194704, "lon": -76.1373602}, "nodes": [5046643834, 5046643835, 5046643840, 5046643836, 5046643837, 5046643838, 5046643839, 5046643834], "tags": {"amenity": "hospital", "healthcare": "hospital", "name": "Hospital Psiqui\u00e1trico"}}, {"type": "way", "id": 517733038, "center": {"lat": 20.1804875, "lon": -76.7541231}, "nodes": [5051790898, 10075794374, 5051790899, 5051790900, 5051790901, 10075794375, 10075794376, 5051790898], "tags": {"amenity": "hospital", "healthcare": "hospital", "name": "Hospital Antonio Prieto"}}, {"type": "way", "id": 522228500, "center": {"lat": 21.4907029, "lon": -71.5295129}, "nodes": [5086858254, 5086858255, 5086858256, 5086858257, 5086858258, 5086858259, 5086858260, 5086858261, 5086858262, 5086858263, 5086858264, 5086858265, 5086858254], "tags": {"amenity": "hospital", "healthcare": "hospital", "name": "South Caicos Clinic"}}, {"type": "way", "id": 522578443, "center": {"lat": 25.0604331, "lon": -77.335506}, "nodes": [5089473350, 5089473351, 5089473352, 5089473353, 5089473354, 5089473355, 5089473356, 5089473357, 5089473350], "tags": {"amenity": "hospital"}}, {"type": "way", "id": 522671343, "center": {"lat": 25.0630506, "lon": -77.3463651}, "nodes": [5090202158, 5090202159, 5090202160, 5090202161, 5090202162, 5090202163, 5090202164, 5090202165, 5090202166, 5090202167, 5090202168, 5090202169, 5090202158], "tags": {"amenity": "hospital", "building": "yes", "name": "Fleming St Clinic"}}, {"type": "way", "id": 522699044, "center": {"lat": 21.1140539, "lon": -76.1293061}, "nodes": [5090418939, 5090418940, 5090418941, 5090418942, 5090418943, 5090418944, 5090418939], "tags": {"addr:city": "Gibara", "addr:full": "Calixto Garc\u00eda No. 86 entre Mariana Grajales y Jes\u00fas del Sol. CP. 82100", "addr:housenumber": "86", "addr:postcode": "82100", "addr:street": "Calixto Garc\u00eda", "amenity": "hospital", "emergency": "yes", "healthcare": "hospital", "name": "Hospital General Municipal Gustavo Alderegu\u00eda", "phone": "+53 24 84 4524"}}, {"type": "way", "id": 523801348, "center": {"lat": 20.3323952, "lon": -76.4855697}, "nodes": [5098534998, 5098535169, 5098535132, 5098535219, 5098535134, 5098535246, 5098535154, 5098535284, 5098535151, 5098535150, 5098535157, 5098535526, 5098535149, 5098534998], "tags": {"amenity": "hospital", "building": "yes", "healthcare": "hospital", "name": "Policl\u00ednico Santa Rita", "name:ru": "Policl\u00ednica Santa Rita"}}, {"type": "way", "id": 529910286, "center": {"lat": 20.21848, "lon": -74.8032984}, "nodes": [5146908716, 5146908717, 5146908718, 5146908719, 5146908720, 5146908921, 5146908716], "tags": {"amenity": "hospital", "name": "Policl\u00ednico F\u00e9lix Pe\u00f1a D\u00edaz"}}, {"type": "way", "id": 534107342, "center": {"lat": 20.6713777, "lon": -76.8852481}, "nodes": [5180546224, 5180546293, 5180546230, 5180546294, 5180546224], "tags": {"amenity": "hospital", "name": "Policl\u00ednico"}}, {"type": "way", "id": 540275582, "center": {"lat": 20.3590929, "lon": -76.6241356}, "nodes": [5227154417, 5227154418, 5227154419, 5227154420, 5227154417], "tags": {"amenity": "hospital", "healthcare": "hospital", "name": "Hospital Pedri\u00e1tico"}}, {"type": "way", "id": 540275583, "center": {"lat": 20.3586553, "lon": -76.6235762}, "nodes": [5227155521, 5227155522, 5227155523, 5227155524, 5227155525, 5227155526, 5227155527, 5227155528, 5227155529, 5227155530, 5227155531, 6582872413, 5227155533, 5553157041, 6582872412, 5227155521], "tags": {"amenity": "hospital", "building": "hospital", "building:levels": "4", "healthcare": "hospital", "name": "Hospital Pedri\u00e1tico"}}, {"type": "way", "id": 540359912, "center": {"lat": 20.6638128, "lon": -74.9439211}, "nodes": [5227713310, 5227713311, 5227713312, 5227713313, 5227713310], "tags": {"amenity": "hospital", "healthcare": "hospital", "name": "Policl\u00ednico Las Coloradas"}}, {"type": "way", "id": 548483780, "center": {"lat": 20.2649447, "lon": -76.4287477}, "nodes": [5298709343, 5298709340, 5298709341, 5298709342, 5298709343], "tags": {"addr:city": "Minas Harlen", "addr:postcode": "87300", "amenity": "hospital", "healthcare": "hospital", "name": "Policlinico"}}, {"type": "way", "id": 557157930, "center": {"lat": 20.7029597, "lon": -75.5518914}, "nodes": [5373764002, 5373764015, 5373764016, 5373764012, 5373764221, 5373764001, 5373764225, 5373764247, 5373764224, 5373764002], "tags": {"amenity": "hospital"}}, {"type": "way", "id": 562145121, "center": {"lat": 22.3832445, "lon": -78.7790418}, "nodes": [5419641101, 5419641102, 5419641103, 5419641104, 5419641105, 5419641106, 5419641107, 5419641108, 5419641109, 5419641110, 5419641111, 5419641112, 5419641113, 5419641114, 5419641115, 5419641116, 5419641101], "tags": {"amenity": "hospital", "healthcare": "hospital", "name": "M\u00e1ximo G\u00f3mez"}}, {"type": "way", "id": 563148443, "center": {"lat": 20.1209118, "lon": -76.9867211}, "nodes": [5427756526, 5427756540, 5427756539, 5427756541, 5427756525, 5427756524, 5427756542, 5427756543, 5427756528, 5427756545, 5427756544, 5427756527, 5427756538, 5427756537, 5427756526], "tags": {"amenity": "hospital", "building": "yes"}}, {"type": "way", "id": 563148444, "center": {"lat": 20.1215871, "lon": -76.9867214}, "nodes": [5427756521, 5427756533, 5427756536, 5427756535, 5427756534, 5427756522, 5427756529, 5427756530, 5427756523, 5427756420, 5427756531, 5427756532, 5427756521], "tags": {"amenity": "hospital", "building": "yes"}}, {"type": "way", "id": 563442426, "center": {"lat": 20.0623862, "lon": -75.9454568}, "nodes": [5429719416, 5429719415, 5429719414, 5429719413, 5429719412, 5429719411, 5429719410, 5429719409, 5429719408, 5429719416], "tags": {"amenity": "hospital"}}, {"type": "way", "id": 564464105, "center": {"lat": 20.6489785, "lon": -74.915464}, "nodes": [5438561577, 5438561578, 5438561579, 5438561580, 5438561577], "tags": {"amenity": "hospital", "healthcare": "hospital", "healthcare:speciality": "general", "name": "Consultorio M\u00e9dico #18", "operator": "MINSAP"}}, {"type": "way", "id": 564849358, "center": {"lat": 20.9023603, "lon": -76.2580862}, "nodes": [5441382836, 5441382835, 5441382834, 5441382833, 5441382836], "tags": {"amenity": "hospital", "building": "yes", "name": "Policl\u00ednico Alcides Pino"}}, {"type": "way", "id": 565471039, "center": {"lat": 20.5579102, "lon": -76.9048272}, "nodes": [5445847174, 5445847173, 5445847172, 5445847171, 5445847174], "tags": {"amenity": "hospital", "building": "yes", "healthcare": "hospital"}}, {"type": "way", "id": 578197128, "center": {"lat": 21.1376701, "lon": -76.7330033}, "nodes": [5540912034, 5540912033, 5540912032, 5540912031, 5540912034], "tags": {"amenity": "hospital", "building": "yes", "name": "Policl\u00ednico"}}, {"type": "way", "id": 579404130, "center": {"lat": 22.4919908, "lon": -79.5528099}, "nodes": [5549090868, 5549090867, 5549090866, 5549090865, 5549090868], "tags": {"amenity": "hospital", "healthcare": "hospital", "name": "Hospital 26 de Diciembre"}}, {"type": "way", "id": 583362353, "center": {"lat": 20.6424857, "lon": -75.9329537}, "nodes": [5577258344, 5577258341, 5577258342, 5577258343, 5577258344], "tags": {"amenity": "hospital", "building": "yes"}}, {"type": "way", "id": 583373976, "center": {"lat": 20.7493087, "lon": -76.029185}, "nodes": [5577395227, 5577393459, 5577393458, 5577393457, 5577395227], "tags": {"amenity": "hospital", "building": "yes"}}, {"type": "way", "id": 592508338, "center": {"lat": 21.9932994, "lon": -79.3700329}, "nodes": [5654992692, 5654992693, 5654992694, 5654992695, 5654992696, 5654992697, 5654992698, 5654992699, 5654992700, 5654992701, 5654992702, 5654992692], "tags": {"amenity": "hospital", "healthcare": "hospital", "name": "Policl\u00ednico Faustino P\u00e9rez"}}, {"type": "way", "id": 607383593, "center": {"lat": 20.0388696, "lon": -75.8347335}, "nodes": [5756269198, 5756269199, 5756269200, 5756269201, 5756269202, 5756269198], "tags": {"amenity": "hospital", "healthcare": "hospital", "name": "Polici\u00ednico Centro Urbano \"Jos\u00e9 Mart\u00ed\""}}, {"type": "way", "id": 617276368, "center": {"lat": 22.1062232, "lon": -79.7253118}, "nodes": [5835252759, 5835252756, 6040351323, 5835252757, 5835252758, 5835252759], "tags": {"amenity": "hospital", "healthcare": "hospital", "name": "Hospital General Ricardo Santana", "operator": "Ministerio de Salud P\u00fablica", "operator:short": "MINSAP", "operator:type": "public", "operator:wikidata": "Q6017421"}}, {"type": "way", "id": 617488377, "center": {"lat": 20.1931258, "lon": -75.8514545}, "nodes": [5837092835, 5837092834, 5837092833, 5837092832, 5837092835], "tags": {"amenity": "hospital", "healthcare": "hospital", "name": "Alberto Fern\u00e1ndez Mont\u00e9s de Oca"}}, {"type": "way", "id": 618091018, "center": {"lat": 21.1869174, "lon": -76.580099}, "nodes": [5842472110, 5842472111, 5842472112, 5842472113, 5842472110], "tags": {"addr:street": "Carretera a Delicia", "amenity": "hospital", "healthcare": "hospital", "healthcare:speciality": "psychiatry", "name": "Hospital Psiqui\u00e1trico", "opening_hours": "24/7", "phone": "31515423"}}, {"type": "way", "id": 635173028, "center": {"lat": 20.9485138, "lon": -76.939215}, "nodes": [5992344647, 5992344648, 5992344649, 5992344650, 5992344647], "tags": {"addr:city": "Las Tunas", "addr:street": "Avenida Carlos J. Finlay", "amenity": "hospital", "healthcare": "hospital", "healthcare:speciality": "psychiatry", "name": "Hospital Psiquiatrico Clodomira Acosta"}}, {"type": "way", "id": 636996967, "center": {"lat": 20.88382, "lon": -76.2243665}, "nodes": [6006071244, 6006071243, 6006071242, 6006071241, 6006071240, 6006071239, 3938709573, 6006071238, 6006071237, 6006071236, 6006071235, 6006071234, 6006071244], "tags": {"amenity": "hospital", "healthcare": "hospital"}}, {"type": "way", "id": 641220873, "center": {"lat": 20.9153084, "lon": -77.2816488}, "nodes": [6039243567, 6039243566, 6039243565, 6039243564, 6039243563, 6039243562, 6039243567], "tags": {"addr:city": "Jobabo", "amenity": "hospital", "healthcare": "hospital", "name": "14 de julio"}}, {"type": "way", "id": 641734769, "center": {"lat": 20.7367103, "lon": -76.3206711}, "nodes": [6042993047, 6042993046, 6042993045, 6042993044, 6042993047], "tags": {"amenity": "hospital", "building": "yes", "name": "Policlinico"}}, {"type": "way", "id": 641855240, "center": {"lat": 20.6671965, "lon": -75.2587011}, "nodes": [6043871887, 6043871888, 6043871889, 6043871890, 6043871887], "tags": {"amenity": "hospital", "building": "yes", "building:levels": "2", "healthcare": "hospital", "name": "Policlinico"}}, {"type": "way", "id": 642736108, "center": {"lat": 22.3279231, "lon": -78.9960485}, "nodes": [6050046713, 6050046712, 6050046711, 6050046710, 6050046713], "tags": {"amenity": "hospital", "building": "yes", "healthcare": "hospital", "operator": "Ministerio de Salud P\u00fablica", "operator:type": "public"}}, {"type": "way", "id": 657641014, "center": {"lat": 21.9304231, "lon": -79.4354965}, "nodes": [10159341617, 6159099191, 6159099192, 6159099193, 10159341617], "tags": {"addr:street": "Avenida de los M\u00e1rtires", "amenity": "hospital", "building": "yes", "healthcare": "hospital", "name": "Empresa Provincial de Farmacias y \u00d3pticas Sancti Sp\u00edritus"}}, {"type": "way", "id": 683470204, "center": {"lat": 22.3966288, "lon": -79.9621473}, "nodes": [2631870181, 6538399121, 10607041758, 6538436450, 6538436451, 6538436454, 6538436455, 6538399110, 6538399111, 2631870183, 10612715291, 2631870184, 6538399114, 6538399115, 6538399118, 6538399119, 2631870181], "tags": {"addr:postcode": "50100", "addr:street": "Comandante Gonzalez Coro (Paseo de la Paz)", "amenity": "hospital", "healthcare": "hospital", "healthcare:speciality": "general;oncology", "name": "Oncol\u00f3gico Celestino Hern\u00e1ndez Robau", "opening_hours": "24/7", "operator": "Ministerio de Salud P\u00fablica", "operator:short": "MINSAP", "operator:type": "public", "operator:wikidata": "Q6017421", "phone": "+5342279419", "website": "https://conocecuba.com/celestino-he'd"}}, {"type": "way", "id": 696048188, "center": {"lat": 22.3912223, "lon": -79.9522426}, "nodes": [6536111140, 6536111139, 6536111137, 6536111136, 6536111140], "tags": {"addr:housenumber": "78 Int", "addr:postcode": "50100", "addr:street": "7ma", "amenity": "hospital", "healthcare": "hospital", "healthcare:speciality": "psychiatry", "name": "Hospital Psiqui\u00e1trico Provincial (\u00c1rea 9)", "operator": "MINSAP", "operator:type": "public"}}, {"type": "way", "id": 696263529, "center": {"lat": 22.3965902, "lon": -79.9621821}, "nodes": [6538399121, 10860249315, 10860249311, 6538399120, 10860249310, 10860249309, 6538399119, 6538399118, 6538399117, 6538399116, 6538399115, 6538399114, 6538399113, 6538399112, 10612715292, 6538399111, 6538399110, 6538399109, 6538436456, 6538436455, 6538436454, 6538436453, 6538436452, 6538436451, 6538436450, 10607041758, 6538399121], "tags": {"addr:city": "Santa Clara", "addr:street": "Cuba", "amenity": "hospital", "building": "hospital", "building:levels": "2", "emergency": "yes", "healthcare": "hospital", "healthcare:speciality": "oncology;radiotherapy;nuclear", "name": "Hospital Oncologico \"Dr Celestino Hernandez Robau\"", "opening_hours": "24/7", "operator": "Ministerio de Salud P\u00fablica", "operator:short": "MINSAP", "operator:type": "public", "operator:wikidata": "Q6017421"}}, {"type": "way", "id": 700961588, "center": {"lat": 20.3619875, "lon": -76.6370228}, "nodes": [6582880699, 6582869938, 6582869933, 6582880698, 6582880697, 6582880696, 6582880695, 6582880694, 6582869939, 6582880699], "tags": {"addr:street": "Carretera Central", "amenity": "hospital", "healthcare": "hospital", "name": "Hospital Provincial Carlos Manuel de C\u00e9spedes"}}, {"type": "way", "id": 705644125, "center": {"lat": 20.3299785, "lon": -77.1261615}, "nodes": [6630325687, 6630325688, 6630325689, 6630325690, 6630325691, 6630325687], "tags": {"addr:city": "Manzanillo", "addr:street": "Carretera a Campechuela", "amenity": "hospital", "healthcare": "hospital", "name": "Hospital Psiqui\u00e1trico Manuel Fajardo"}}, {"type": "way", "id": 722027288, "center": {"lat": 26.5340083, "lon": -77.069773}, "nodes": [6772951870, 6772951869, 6772951868, 6772951867, 6772945443, 6772951866, 6772951865, 6772951864, 6772951863, 6772951862, 6772945444, 6772951861, 6772951860, 6772951859, 6772951858, 6772951857, 6772951856, 6772951855, 6772951854, 6772951870], "tags": {"amenity": "hospital", "healthcare": "hospital"}}, {"type": "way", "id": 741436353, "center": {"lat": 20.877469, "lon": -76.3191279}, "nodes": [4569775743, 6941039272, 6941039271, 4569775368, 4569775743], "tags": {"amenity": "hospital"}}, {"type": "way", "id": 748843514, "center": {"lat": 21.0081809, "lon": -75.7110601}, "nodes": [7003093803, 7003093811, 7003093804, 7003093805, 7003093806, 7003093807, 7003093808, 7003093809, 7003093810, 7003093803], "tags": {"amenity": "hospital", "healthcare": "hospital", "name": "Policl\u00ednico Los \u00c1ngeles", "operator": "Ministerio de Salud P\u00fablica", "operator:short": "MINSAP", "operator:wikidata": "Q6017421"}}, {"type": "way", "id": 775562662, "center": {"lat": 21.3717066, "lon": -77.142061}, "nodes": [7235223940, 7235224364, 7235224704, 9975352325, 9975352941, 7235223699, 9975352505, 9975351804, 9975351712, 9975351860, 7235224718, 9975353193, 7235223940], "tags": {"amenity": "hospital", "healthcare": "hospital"}}, {"type": "way", "id": 775809494, "center": {"lat": 21.1190157, "lon": -75.7715947}, "nodes": [7237526483, 7237526484, 7237531385, 7237531386, 7237526483], "tags": {"amenity": "hospital", "healthcare": "hospital", "name": "Consultorio"}}, {"type": "way", "id": 784068409, "center": {"lat": 21.5488456, "lon": -77.2705961}, "nodes": [1252664591, 1252664984, 1314075752, 7215391690, 6394314354, 1252664309, 1252664591], "tags": {"amenity": "hospital", "healthcare": "hospital", "name": "Hospital Geri\u00e1trico"}}, {"type": "way", "id": 784068411, "center": {"lat": 21.5470171, "lon": -77.2651638}, "nodes": [7208693295, 7208690363, 7323972456, 7358927405, 1252664405, 7358928105, 7358927859, 7323972449, 7283084878, 7208693295], "tags": {"amenity": "hospital", "healthcare": "hospital", "name": "Hospital Psiqui\u00e1trico"}}, {"type": "way", "id": 787813443, "center": {"lat": 22.0663569, "lon": -79.4800383}, "nodes": [8439052511, 7365352067, 7365352066, 7365352065, 7365352064, 8439052511], "tags": {"amenity": "hospital", "healthcare": "hospital", "healthcare:speciality": "psychiatry", "name": "Hospital Psiqui\u00e1trico de Sancti Sp\u00edritus", "operator": "Ministerio de Salud P\u00fablica", "operator:short": "MINSAP", "operator:type": "public", "operator:wikidata": "Q6017421"}}, {"type": "way", "id": 791169057, "center": {"lat": 21.4059146, "lon": -77.8895218}, "nodes": [2153351259, 7396274718, 7396274717, 2153351261, 2153351259], "tags": {"amenity": "hospital"}}, {"type": "way", "id": 799129279, "center": {"lat": 21.4872441, "lon": -77.6116889}, "nodes": [1252910430, 1252911804, 1252911963, 1252910979, 1252910430], "tags": {"amenity": "hospital", "healthcare": "hospital", "name": "Policlinico de Minas"}}, {"type": "way", "id": 799524454, "center": {"lat": 20.2996078, "lon": -76.2424877}, "nodes": [7477355573, 7477355570, 7477355571, 7477355572, 7477355573], "tags": {"amenity": "hospital", "building": "yes", "name": "Policl\u00ednico Am\u00e9rica I M\u00f3dulo Docente"}}, {"type": "way", "id": 809254848, "center": {"lat": 21.5338223, "lon": -78.2224404}, "nodes": [4010463905, 1332847398, 7566779677, 7566824873, 7566824804, 4010463905], "tags": {"amenity": "hospital", "healthcare": "hospital", "name": "Policl\u00ednico Norte"}}, {"type": "way", "id": 809254867, "center": {"lat": 21.5284898, "lon": -78.2264788}, "nodes": [7566824831, 7566824814, 7566824794, 1332847061, 7566824831], "tags": {"addr:city": "Florida", "addr:street": "Calle Egusquiza", "amenity": "hospital", "emergency": "yes", "healthcare": "hospital", "healthcare:speciality": "emergency", "name": "Urgencias"}}, {"type": "way", "id": 810223189, "center": {"lat": 21.5759423, "lon": -78.2833284}, "nodes": [1333331312, 7575113057, 7575113441, 7575112883, 1333331312], "tags": {"amenity": "hospital", "healthcare": "hospital", "name": "Policlinico Teniente Tomas Rojas", "phone": "+53 32 569194"}}, {"type": "way", "id": 810223324, "center": {"lat": 21.8531891, "lon": -78.1179202}, "nodes": [7575113273, 7575112727, 7575112911, 7575112780, 7575113302, 7575113394, 7575113162, 7575112842, 7575112708, 7575113273], "tags": {"amenity": "hospital", "healthcare": "hospital", "name": "Policl\u00ednico Esmeralda"}}, {"type": "way", "id": 810352519, "center": {"lat": 20.720359, "lon": -77.9958932}, "nodes": [7576386385, 9779534752, 9779534751, 9779534750, 9779534749, 2285268416, 2285268414, 1331230766, 7576386385], "tags": {"amenity": "hospital", "healthcare": "hospital", "name": "Hospital Enrique Santiesteban Baez"}}, {"type": "way", "id": 810352569, "center": {"lat": 21.0546215, "lon": -77.3497468}, "nodes": [5462650872, 7576386173, 10718044999, 7576385950, 5462649235, 5462650874, 7576386187, 5462650873, 5462650872], "tags": {"amenity": "hospital", "healthcare": "hospital", "name": "Policlinico Victoria de Gir\u00f3n"}}, {"type": "way", "id": 810352583, "center": {"lat": 21.2413203, "lon": -77.8255652}, "nodes": [3970766422, 7576385948, 3970766873, 4566210263, 3970767150, 4566210262, 4566210258, 6585222410, 7576385994, 1356617568, 7576386015, 1356617570, 3970766422], "tags": {"amenity": "hospital", "healthcare": "hospital", "name": "Policlinico Jimaguay\u00fa"}}, {"type": "way", "id": 839077791, "center": {"lat": 20.7840749, "lon": -76.6354478}, "nodes": [7830086949, 7862345175, 7862345174, 7862345173, 4055441880, 4055441877, 7862345176, 7847068900, 7862365819, 7830086951, 7830086952, 7830086949], "tags": {"amenity": "hospital", "healthcare": "hospital", "name": "Policlinico Lidia Esther Doce S\u00e1nchez"}}, {"type": "way", "id": 844676355, "center": {"lat": 22.6449072, "lon": -79.8972605}, "nodes": [7880186666, 7880239632, 7880239633, 7880230349, 7880239631, 7880186667, 7880230350, 7880230351, 7880186666], "tags": {"amenity": "hospital", "building": "yes"}}, {"type": "way", "id": 858683081, "center": {"lat": 20.0546127, "lon": -75.7657229}, "nodes": [8004536374, 8004536375, 8004536376, 8004536377, 8004536378, 8004536379, 8004536380, 8004536381, 8004536382, 8004536383, 8004536384, 8228854967, 8004581886, 8004536374], "tags": {"amenity": "hospital", "healthcare": "hospital"}}, {"type": "way", "id": 882400580, "center": {"lat": 20.1506354, "lon": -75.7257642}, "nodes": [8206026676, 8206026677, 8206026678, 8206026679, 2842252725, 2842252727, 9468721990, 8206026660, 8206026663, 2842252731, 8206026676], "tags": {"amenity": "hospital", "healthcare": "hospital"}}, {"type": "way", "id": 925372355, "center": {"lat": 21.7790966, "lon": -72.2507322}, "nodes": [8588172498, 8588172499, 8588172500, 8588172501, 8588172502, 8588172503, 8588172504, 2540100634, 2540100631, 2540100632, 8588172505, 8588172498], "tags": {"amenity": "hospital", "healthcare": "hospital"}}, {"type": "way", "id": 953083346, "center": {"lat": 21.3671223, "lon": -77.8994543}, "nodes": [10023476136, 8821660651, 10023476134, 10023476135, 10023476136], "tags": {"amenity": "hospital", "healthcare": "hospital", "name": "Policlinico Este"}}, {"type": "way", "id": 965084498, "center": {"lat": 21.3613877, "lon": -77.8925143}, "nodes": [3951043373, 7127265772, 705501349, 705467145, 705467146, 5630758455, 5630758454, 5630758466, 5630758465, 8927712532, 705501388, 10108692631, 8612762767, 10115218851, 3951043373], "tags": {"amenity": "hospital", "healthcare": "hospital"}}, {"type": "way", "id": 967554812, "center": {"lat": 21.391517, "lon": -77.9437396}, "nodes": [7797752396, 7797752395, 3149571717, 8951280582, 3149571722, 3149571723, 3149581037, 9811141281, 690990109, 3458102919, 724411497, 5597125018, 7797752396], "tags": {"amenity": "hospital", "healthcare": "hospital"}}, {"type": "way", "id": 1014656085, "center": {"lat": 22.7084661, "lon": -79.6873543}, "nodes": [9361135438, 9361128707, 9361128708, 9361128709, 9361135438], "tags": {"amenity": "hospital", "building": "yes"}}, {"type": "way", "id": 1017431102, "center": {"lat": 22.3557283, "lon": -79.7652105}, "nodes": [9384430183, 9384430182, 9384430181, 9384430180, 9384430183], "tags": {"amenity": "hospital", "building": "yes", "healthcare": "hospital"}}, {"type": "way", "id": 1026531660, "center": {"lat": 21.8745509, "lon": -79.8432194}, "nodes": [9464493411, 9464493410, 9464513483, 9464513482, 9464493411], "tags": {"amenity": "hospital"}}, {"type": "way", "id": 1036998425, "center": {"lat": 21.843249, "lon": -78.1189734}, "nodes": [9553123509, 9553123475, 9553123476, 9553123477, 9553123478, 9553123479, 9553123489, 9553123490, 9553123491, 9553123492, 9553123493, 9553123494, 9553123495, 9553123504, 9553123505, 9553123506, 9553123507, 9553123508, 9553123509], "tags": {"amenity": "hospital", "healthcare": "hospital", "name": "Policl\u00ednico Municipal Esmeralda"}}, {"type": "way", "id": 1038137018, "center": {"lat": 22.3955302, "lon": -79.96154}, "nodes": [6538436449, 9561630873, 9561698036, 9561692998, 9561692997, 9561693000, 9561693003, 9561692999, 9561693002, 9561693001, 10607041759, 9561630876, 9561630871, 9561693006, 9561630875, 9561630874, 9561698037, 9561693004, 9561698035, 9561693005, 9561630872, 6538436449], "tags": {"addr:city": "Santa Clara", "addr:housenumber": "610", "addr:postcode": "50100", "addr:street": "Cuba", "amenity": "hospital", "building": "hospital", "building:levels": "3", "emergency": "yes", "healthcare": "hospital", "healthcare:speciality": "general;cardiology", "name": "Cardiocentro Ernesto Che Guevara", "opening_hours": "24/7", "operator": "Ministerio de Salud P\u00fablica", "operator:short": "MINSAP", "operator:type": "public", "operator:wikidata": "Q6017421", "operator:wikipedia": "es:Ministerio de Salud P\u00fablica (Cuba)", "phone": "+53 42 279001", "website": "https://conocecuba.com/cardiocentro-vc"}}, {"type": "way", "id": 1056255771, "center": {"lat": 26.5340861, "lon": -77.0697153}, "nodes": [9705503243, 1329321400, 6772951864, 9705503244, 9705503243], "tags": {"amenity": "hospital", "healthcare": "hospital", "name": "Marsh Harbour Clinic"}}, {"type": "way", "id": 1064178423, "center": {"lat": 20.966983, "lon": -75.723785}, "nodes": [9773734910, 9773734909, 9773734908, 9773734907, 9773734906, 9773734905, 9773734904, 9773734903, 9773734910], "tags": {"amenity": "hospital", "name": "Hospital Materno Infantil Dr. Luis Mario Cruz Cruz"}}, {"type": "way", "id": 1083684484, "center": {"lat": 20.2259466, "lon": -76.0020663}, "nodes": [9930922067, 9930922075, 9930922072, 9930922073, 9930922077, 9930922078, 9930922063, 9930922066, 9930922081, 9930922062, 9930922076, 9930922061, 9930922080, 9930922067], "tags": {"amenity": "hospital", "healthcare": "hospital", "name": "Hospital \"Materno\"", "operator": "MINSAP"}}, {"type": "way", "id": 1083687753, "center": {"lat": 20.2022269, "lon": -75.9852801}, "nodes": [9930946887, 9930946882, 9930946886, 9930946884, 9930946887], "tags": {"amenity": "hospital", "healthcare": "clinic", "name": "Policl\u00ednico \"Victoria de Gir\u00f3n\"", "operator": "Ministerio de Salud P\u00fablica", "operator:short": "MINSAP", "operator:wikidata": "Q5970641"}}, {"type": "way", "id": 1090829664, "center": {"lat": 21.3132892, "lon": -76.9285433}, "nodes": [9991325840, 9991325839, 9991325838, 9991325837, 9991325840], "tags": {"amenity": "hospital"}}, {"type": "way", "id": 1110114885, "center": {"lat": 21.3910506, "lon": -77.9389104}, "nodes": [10155500789, 10155500790, 915199554, 7243738845, 701817965, 10155500789], "tags": {"amenity": "hospital", "healthcare": "hospital", "name": "Hospital Ginecol\u00f3gico \"El Centenario\""}}, {"type": "way", "id": 1150051639, "center": {"lat": 22.0181993, "lon": -79.9903476}, "nodes": [7159435646, 10698496874, 10698496875, 10698496876, 10698496877, 10698496878, 10698496879, 7159435652, 7159435655, 7159435645, 7159435646], "tags": {"addr:city": "Jibacoa", "addr:street": "Carretera Manicaragua - Topes", "amenity": "hospital", "healthcare": "hospital", "name": "Hospital Rural Jibacoa"}}, {"type": "way", "id": 1158044490, "center": {"lat": 21.5489688, "lon": -77.2676493}, "nodes": [10769747474, 10769747422, 10769747493, 10769688195, 10769747443, 10769747412, 10769747514, 10769747411, 10769747442, 10769747415, 10769688189, 10769747458, 10769747456, 10769747509, 7208691376, 7243738572, 7345011213, 10769781219, 7208689643, 7208689481, 7514686090, 7208693947, 7208687343, 1252664061, 10769781211, 7208688560, 1252664519, 7546445224, 7208687179, 7546445210, 7358927980, 7345011298, 10769747474], "tags": {"amenity": "hospital", "healthcare": "hospital", "name": "\u00c1rea De Salud"}}, {"type": "way", "id": 1188648387, "center": {"lat": 21.3792364, "lon": -77.9159926}, "nodes": [456205198, 456488488, 456323128, 456323105, 456205196, 456205198], "tags": {"amenity": "hospital", "healthcare": "hospital", "name": "Policl\u00ednico Centro"}}, {"type": "way", "id": 1188648388, "center": {"lat": 21.3899141, "lon": -77.915205}, "nodes": [10069666011, 3266578175, 3266578185, 693441696, 11037329564, 10069666011], "tags": {"amenity": "hospital", "healthcare": "hospital", "name": "Policl\u00ednico Pirre"}}, {"type": "way", "id": 1188648389, "center": {"lat": 21.3834753, "lon": -77.9355997}, "nodes": [2132139050, 11037329566, 3762102986, 11037329563, 724410022, 724409929, 11037329565, 1356661256, 825440973, 2132139050], "tags": {"amenity": "hospital", "healthcare": "hospital", "name": "Policl\u00ednico Previsora"}}, {"type": "way", "id": 1192225615, "center": {"lat": 20.3297104, "lon": -75.366042}, "nodes": [11068010473, 11068010472, 11068010471, 11068010470, 11068078405, 11068029604, 11068010473], "tags": {"amenity": "hospital"}}, {"type": "way", "id": 1199335128, "center": {"lat": 22.0768883, "lon": -79.4913472}, "nodes": [7450255785, 11124228024, 11124228037, 11124228036, 11124228025, 11124228026, 11124228027, 11124228028, 11124228029, 11124228030, 11124228031, 4755492348, 4755492346, 11124228032, 11124228033, 11124228034, 11124228035, 7450255785], "tags": {"addr:street": "Carretera Central (Leonor P\u00e9rez)", "amenity": "hospital", "healthcare": "hospital", "healthcare:speciality": "maternity", "name": "Hospital Docente Universitario \"Dr. Wilfredo Zayas Mendoza\". Materno Infantil.", "opening_hours": "24/7", "operator": "Ministerio de Salud P\u00fablica", "operator:short": "MINSAP", "operator:type": "public", "operator:wikidata": "Q6017421"}}, {"type": "way", "id": 1201216938, "center": {"lat": 22.2388974, "lon": -79.0721321}, "nodes": [6050074133, 11137338946, 11137338947, 11137338948, 6050074133], "tags": {"amenity": "hospital", "healthcare": "hospital", "operator": "Ministerio de Salud P\u00fablica", "operator:short": "MINSAP", "operator:wikidata": "Q6017421"}}, {"type": "way", "id": 1201907551, "center": {"lat": 21.3834431, "lon": -77.9354658}, "nodes": [11142652425, 11142652424, 11142652423, 11142652422, 11142652421, 11142652420, 11142652425], "tags": {"amenity": "hospital", "name": "Policl\u00ednico Previsora"}}, {"type": "relation", "id": 1900163, "center": {"lat": 21.9187189, "lon": -79.4430901}, "members": [{"type": "way", "ref": 140297160, "role": "outer"}, {"type": "way", "ref": 140297174, "role": "inner"}], "tags": {"amenity": "hospital", "building": "public", "healthcare": "hospital", "name": "Policl\u00ednico Sur", "type": "multipolygon"}}, {"type": "relation", "id": 4186540, "center": {"lat": 21.3792397, "lon": -77.9160063}, "members": [{"type": "way", "ref": 240326908, "role": "outer"}, {"type": "way", "ref": 312353806, "role": "inner"}], "tags": {"amenity": "hospital", "building": "yes", "building:colour": "aqua", "building:levels": "2", "healthcare": "hospital", "name": "Policl\u00ednico Jos\u00e9 Mart\u00ed \"Centro\"", "type": "multipolygon"}}, {"type": "relation", "id": 5299309, "center": {"lat": 20.3398474, "lon": -74.4893608}, "members": [{"type": "way", "ref": 354862506, "role": "inner"}, {"type": "way", "ref": 354862505, "role": "outer"}], "tags": {"addr:postcode": "97310", "addr:street": "Jos\u00e9 Marti", "amenity": "hospital", "building": "hospital", "building:levels": "2", "healthcare": "hospital", "name": "Policlinico La Pasada", "roof:shape": "flat", "type": "multipolygon"}}, {"type": "relation", "id": 7002423, "center": {"lat": 21.7787217, "lon": -72.250849}, "members": [{"type": "way", "ref": 476315733, "role": "inner"}, {"type": "way", "ref": 476315734, "role": "inner"}, {"type": "way", "ref": 247070702, "role": "outer"}], "tags": {"addr:street": "Hospital Road", "amenity": "hospital", "building": "hospital", "emergency": "yes", "healthcare": "hospital", "name": "Inter Health Canada", "operator": "Inter Health", "type": "multipolygon"}}, {"type": "relation", "id": 7178222, "center": {"lat": 21.7727766, "lon": -79.2708063}, "members": [{"type": "way", "ref": 488788404, "role": "inner"}, {"type": "way", "ref": 435973303, "role": "outer"}], "tags": {"amenity": "hospital", "building": "yes", "name": "Policl\u00ednico", "type": "multipolygon"}}, {"type": "relation", "id": 7198196, "center": {"lat": 20.1476139, "lon": -77.4343156}, "members": [{"type": "way", "ref": 489962035, "role": "outer"}, {"type": "way", "ref": 489953390, "role": "outer"}], "tags": {"addr:city": "Media Luna", "amenity": "hospital", "name": "Hospital \"Raul Podio Saborit\"", "operator": "MISAP", "type": "multipolygon"}}, {"type": "relation", "id": 8868032, "center": {"lat": 20.0625161, "lon": -75.9458242}, "members": [{"type": "way", "ref": 183042674, "role": "outer"}, {"type": "way", "ref": 639485383, "role": "inner"}, {"type": "way", "ref": 639485386, "role": "inner"}], "tags": {"amenity": "hospital", "building": "yes", "name": "Hospital Ambrosio Grillo Portuondo", "type": "multipolygon"}}, {"type": "relation", "id": 13654526, "center": {"lat": 22.3320474, "lon": -79.2265468}, "members": [{"type": "way", "ref": 1019780011, "role": "inner"}, {"type": "way", "ref": 653650284, "role": "outer"}], "tags": {"amenity": "hospital", "building": "hospital", "healthcare": "hospital", "name": "Hospital Municipal \"Joaqu\u00edn Paneca Consuegra\"", "operator": "MINSAP", "operator:type": "public", "type": "multipolygon"}}]}