{"version": 0.6, "generator": "Overpass API 0.7.61.5 4133829e", "osm3s": {"timestamp_osm_base": "2023-10-31T20:54:41Z", "copyright": "The data included in this document is from www.openstreetmap.org. The data is made available under ODbL."}, "elements": [{"type": "node", "id": 2482469616, "lat": 29.9666987, "lon": 9.4245033, "tags": {"addr:city": "\u0627\u0644\u062f\u0628\u062f\u0627\u0628", "amenity": "hospital", "healthcare": "hospital", "name": "\u0627\u0644\u0645\u0624\u0633\u0633\u0629 \u0627\u0644\u0639\u0645\u0648\u0645\u064a\u0629 \u0644\u0644\u0635\u062d\u0629 \u0627\u0644\u062c\u0648\u0627\u0631\u064a\u0629 \u062f\u0628\u062f\u0627\u0628", "name:ar": "\u0627\u0644\u0645\u0624\u0633\u0633\u0629 \u0627\u0644\u0639\u0645\u0648\u0645\u064a\u0629 \u0644\u0644\u0635\u062d\u0629 \u0627\u0644\u062c\u0648\u0627\u0631\u064a\u0629 \u062f\u0628\u062f\u0627\u0628", "name:fr": "EPSP DEB DEB"}}, {"type": "node", "id": 2829858046, "lat": 22.7982734, "lon": 5.5278633, "tags": {"amenity": "hospital", "healthcare": "hospital", "name": "\u0645\u0633\u062a\u0634\u0641\u0649", "name:ar": "\u0645\u0633\u062a\u0634\u0641\u0649", "name:fr": "H\u00f4pital"}}, {"type": "node", "id": 3195277059, "lat": 26.515757, "lon": 8.4895468, "tags": {"addr:city": "\u0625\u0644\u064a\u0632\u064a", "addr:city:ar": "\u0625\u0644\u064a\u0632\u064a", "amenity": "hospital", "healthcare": "hospital", "language:ar": "main", "name": "\u0645\u0633\u062a\u0634\u0641\u0649 120 \u0633\u0631\u064a\u0631", "name:ar": "\u0645\u0633\u062a\u0634\u0641\u0649 120 \u0633\u0631\u064a\u0631", "name:fr": "HOPITAL 120 LITS"}}, {"type": "node", "id": 3254117468, "lat": 24.5535738, "lon": 9.4841712, "tags": {"addr:city": "\u062c\u0627\u0646\u062a", "amenity": "hospital", "healthcare": "hospital", "name": "\u0627\u0644\u0645\u0633\u062a\u0634\u0641\u0649 \u0627\u0644\u0645\u062d\u0644\u064a", "name:ar": "\u0627\u0644\u0645\u0633\u062a\u0634\u0641\u0649 \u0627\u0644\u0645\u062d\u0644\u064a", "name:fr": "L'h\u00f4pital local"}}, {"type": "node", "id": 3329495501, "lat": 29.7074983, "lon": 0.7202999, "tags": {"amenity": "hospital", "healthcare": "hospital", "name": "\u0627\u0644\u0645\u0624\u0633\u0633\u0629 \u0627\u0644\u0639\u0645\u0648\u0645\u064a\u0629 \u0644\u0644\u0635\u062d\u0629 \u0627\u0644\u062c\u0648\u0627\u0631\u064a\u0629 \u062a\u064a\u0646\u0631\u0643\u0648\u0643", "name:ar": "\u0627\u0644\u0645\u0624\u0633\u0633\u0629 \u0627\u0644\u0639\u0645\u0648\u0645\u064a\u0629 \u0644\u0644\u0635\u062d\u0629 \u0627\u0644\u062c\u0648\u0627\u0631\u064a\u0629 \u062a\u064a\u0646\u0631\u0643\u0648\u0643", "name:fr": "EPSP Tinerkouk"}}, {"type": "node", "id": 4202804189, "lat": 23.6908931, "lon": 5.1498455, "tags": {"amenity": "hospital", "name": "Epsp"}}, {"type": "node", "id": 4294149589, "lat": 27.1071156, "lon": 1.9098409, "tags": {"addr:street": "\u0648\u0633\u0637 \u0627\u0644\u0645\u062f\u064a\u0646\u0629 \u0627\u0646 \u063a\u0627\u0631", "amenity": "hospital", "name": "\u0645\u0633\u062a\u0634\u0641\u0649 \u0639\u064a\u0646 \u063a\u0627\u0631", "name:ar": "\u0627\u0644\u0639\u064a\u0627\u062f\u0629 \u0627\u0644\u0645\u062a\u0639\u062f\u062f\u0629 \u0627\u0644\u062e\u062f\u0645\u0627\u062a \u0627\u0646 \u063a\u0627\u0631", "name:fr": "H\u00f4pital In Ghar", "opening_hours": "24/7"}}, {"type": "node", "id": 4326895847, "lat": 21.3310251, "lon": 0.9607002, "tags": {"addr:city": "\u0628\u0631\u062c \u0628\u0627\u062c\u064a \u0645\u062e\u062a\u0627\u0631", "addr:street": "\u0637\u0631\u064a\u0642 \u0627\u0644\u0633\u0627\u0648\u0631\u0629", "amenity": "hospital", "healthcare": "hospital", "name": "\u0627\u0644\u0645\u0624\u0633\u0633\u0629 \u0627\u0644\u0639\u0645\u0648\u0645\u064a\u0629 \u0644\u0644\u0635\u062d\u0629 \u0627\u0644\u062c\u0648\u0627\u0631\u064a\u0629", "name:ar": "\u0627\u0644\u0645\u0624\u0633\u0633\u0629 \u0627\u0644\u0639\u0645\u0648\u0645\u064a\u0629 \u0644\u0644\u0635\u062d\u0629 \u0627\u0644\u062c\u0648\u0627\u0631\u064a\u0629", "name:fr": "EPSP BBM", "opening_hours": "24/7"}}, {"type": "node", "id": 4514207089, "lat": 28.039151, "lon": 9.5738023, "tags": {"addr:street": "Sonatrach ASL In Amenas", "amenity": "hospital", "healthcare": "hospital", "name": "C.R.M.T ASL", "operator:type": "public"}}, {"type": "node", "id": 4883706021, "lat": 29.256022, "lon": 0.2340537, "tags": {"addr:city": "\u062a\u064a\u0645\u064a\u0645\u0648\u0646", "amenity": "hospital", "healthcare": "hospital"}}, {"type": "node", "id": 5689543821, "lat": 26.7216236, "lon": 0.1696677, "tags": {"addr:city": "\u0631\u0642\u0627\u0646", "amenity": "hospital", "healthcare": "hospital", "name": "\u0627\u0644\u0645\u0624\u0633\u0633\u0629 \u0627\u0644\u0639\u0645\u0648\u0645\u064a\u0629 \u0627\u0644\u0627\u0633\u062a\u0634\u0641\u0627\u0626\u064a\u0629 \u0628\u0631\u0642\u0627\u0646", "name:ar": "\u0627\u0644\u0645\u0624\u0633\u0633\u0629 \u0627\u0644\u0639\u0645\u0648\u0645\u064a\u0629 \u0627\u0644\u0627\u0633\u062a\u0634\u0641\u0627\u0626\u064a\u0629 \u0628\u0631\u0642\u0627\u0646", "name:en": "E.P.H.R", "name:fr": "EPH"}}, {"type": "node", "id": 6737692086, "lat": 21.3307062, "lon": 0.9491468, "tags": {"addr:city": "\u0628\u0631\u062c \u0628\u0627\u062c\u064a \u0645\u062e\u062a\u0627\u0631", "amenity": "hospital", "healthcare": "hospital", "name": "\u0639\u064a\u0627\u062f\u0629 \u0627\u0644\u062d\u0643\u064a\u0645 \u0641\u0631\u0627\u062c\u064a", "name:ar": "\u0639\u064a\u0627\u062f\u0629 \u0627\u0644\u062d\u0643\u064a\u0645 \u0641\u0631\u0627\u062c\u064a"}}, {"type": "node", "id": 8390829217, "lat": 21.3266163, "lon": 0.9659421, "tags": {"amenity": "hospital", "name": "\u0645\u0633\u062a\u0634\u0641\u0649 \u0645\u062e\u062a\u0644\u0637", "name:fr": "h\u00f4pital Tati argali"}}, {"type": "way", "id": 278657117, "center": {"lat": 22.774889, "lon": 5.5296005}, "nodes": [2829858023, 2829858024, 2829858025, 2829858027, 2829858026, 2829858023], "tags": {"addr:city": "\u062a\u0645\u0646\u0631\u0627\u0633\u062a", "addr:city:ar": "\u062a\u0645\u0646\u0631\u0627\u0633\u062a", "addr:postcode": "11000", "amenity": "hospital", "emergency": "yes", "healthcare": "hospital", "language:ar": "main", "name": "\u0645\u0631\u0643\u0632 \u0627\u0644\u0625\u0633\u062a\u0634\u0641\u0627\u0626\u064a \u0627\u0644\u062c\u0627\u0645\u0639\u064a \u0645\u0635\u0637\u0641\u0649 \u0628\u063a\u062f\u0627\u062f\u064a \u062a\u0645\u0646\u0631\u0627\u0633\u062a", "name:ar": "\u0645\u0631\u0643\u0632 \u0627\u0644\u0625\u0633\u062a\u0634\u0641\u0627\u0626\u064a \u0627\u0644\u062c\u0627\u0645\u0639\u064a \u0645\u0635\u0637\u0641\u0649 \u0628\u063a\u062f\u0627\u062f\u064a \u062a\u0645\u0646\u0631\u0627\u0633\u062a", "name:fr": "Centre Hospitalo Universitaire Mustapha", "short_name": "CHU Mustapha"}}, {"type": "way", "id": 313561496, "center": {"lat": 26.4977882, "lon": 8.4734656}, "nodes": [3195597283, 3195597289, 3195597292, 3195597280, 3195597277, 3195597287, 3195597283], "tags": {"amenity": "hospital", "emergency": "yes", "healthcare": "hospital", "name": "Hopital Wantimidhi"}}, {"type": "way", "id": 320728587, "center": {"lat": 29.2560185, "lon": 0.2340467}, "nodes": [3273649489, 3273649490, 3273649491, 3273649492, 3273649493, 3273649494, 3273649495, 3273649496, 3273649497, 3273649498, 3273649489], "tags": {"addr:city": "\u062a\u064a\u0645\u064a\u0645\u0648\u0646", "amenity": "hospital", "healthcare": "hospital", "name": "\u0645\u0633\u062a\u0634\u0641\u0649", "name:ar": "\u0645\u0633\u062a\u0634\u0641\u0649", "name:fr": "H\u00f4pital", "name:nl": "Ziekenhuis"}}, {"type": "way", "id": 321318512, "center": {"lat": 21.3293751, "lon": 0.9541464}, "nodes": [3280598348, 3280598349, 3280598350, 3280598351, 3280598352, 3280598353, 3280598348], "tags": {"addr:city": "\u0628\u0631\u062c \u0628\u0627\u062c\u064a \u0645\u062e\u062a\u0627\u0631", "amenity": "hospital", "healthcare": "hospital", "name": "\u0639\u064a\u0627\u062f\u0629 \u0645\u062a\u0639\u062f\u062f\u0629 \u0627\u0644\u062e\u062f\u0645\u0627\u062a", "name:ar": "\u0639\u064a\u0627\u062f\u0629 \u0645\u062a\u0639\u062f\u062f\u0629 \u0627\u0644\u062e\u062f\u0645\u0627\u062a", "opening_hours": "24/7"}}, {"type": "way", "id": 355334829, "center": {"lat": 24.4775742, "lon": 9.5093492}, "nodes": [3609488238, 3609488239, 3609488241, 3609488242, 3609488243, 3609488238], "tags": {"addr:city": "\u062c\u0627\u0646\u062a", "amenity": "hospital", "name": "\u0627\u0644\u0645\u0633\u062a\u0634\u0641\u0649 \u062c\u0627\u0646\u062a \u0627\u0644\u0639\u0627\u0645", "name:ar": "\u0627\u0644\u0645\u0633\u062a\u0634\u0641\u0649 \u062c\u0627\u0646\u062a \u0627\u0644\u0639\u0627\u0645", "name:en": "EPH Djanet", "name:fr": "EPH Djanet"}}, {"type": "way", "id": 385487096, "center": {"lat": 27.195527, "lon": 2.4874796}, "nodes": [3888337945, 3888337943, 3888337936, 3888337937, 3888337946, 3888337945], "tags": {"amenity": "hospital"}}, {"type": "way", "id": 546631427, "center": {"lat": 29.2616078, "lon": 0.2274755}, "nodes": [5282372319, 5282372318, 5282372317, 5282372316, 5282372319], "tags": {"addr:city": "\ufe97\ufef4\ufee4\ufef4\ufee4\ufeee\u0646", "amenity": "hospital", "healthcare": "hospital"}}, {"type": "way", "id": 562426300, "center": {"lat": 22.798148, "lon": 5.5276372}, "nodes": [5422070203, 5422070202, 5422070201, 5422070200, 5422070199, 5422070198, 5422070197, 5422070196, 5422070195, 5422070194, 5422070193, 5422070192, 5422070191, 5422070190, 5422070189, 5422070188, 5422070187, 5422070186, 5422070185, 5422070184, 5422070183, 5422070182, 5422070181, 5422070180, 5422070179, 5422070178, 5422070177, 5422070176, 5422070203], "tags": {"amenity": "hospital", "building": "yes", "healthcare": "hospital", "name": "\u0645\u0633\u062a\u0634\u0641\u0649", "name:ar": "\u0645\u0633\u062a\u0634\u0641\u0649", "name:fr": "H\u00f4pital"}}, {"type": "way", "id": 782769557, "center": {"lat": 29.9667167, "lon": 9.4244695}, "nodes": [7309982564, 7309982565, 7309982566, 7309982567, 7309982568, 7309982569, 7309982579, 7309982570, 7309982571, 7309982572, 7309982573, 7309982574, 7309982575, 7309982576, 7309982577, 7309982578, 7309982564], "tags": {"amenity": "hospital", "healthcare": "hospital"}}, {"type": "way", "id": 782780778, "center": {"lat": 24.5535126, "lon": 9.4840551}, "nodes": [7310055493, 7310055494, 7310055495, 7310055496, 7310055497, 7310055498, 7310055499, 7310055500, 7310055501, 7310055493], "tags": {"amenity": "hospital", "healthcare": "hospital"}}, {"type": "way", "id": 782782263, "center": {"lat": 29.7082616, "lon": 0.7208537}, "nodes": [3331069873, 7310091589, 7310091590, 7310091591, 7310091592, 7310091593, 7310091594, 7310091595, 7310091596, 7310091597, 7310091598, 7310091599, 7310091605, 7310091606, 7310091607, 7310091600, 7310091601, 7310091602, 7310091603, 7310091604, 3331069873], "tags": {"amenity": "hospital", "healthcare": "hospital", "name": "\u0645\u0635\u0644\u062d\u0629 \u0627\u0644\u0627\u0645\u0648\u0645\u0629 \u0627\u0644\u0631\u064a\u0641\u064a\u0629", "name:ar": "\u0645\u0635\u0644\u062d\u0629 \u0627\u0644\u0627\u0645\u0648\u0645\u0629 \u0627\u0644\u0631\u064a\u0641\u064a\u0629", "name:fr": "Service maternit\u00e9 rurale"}}, {"type": "way", "id": 783019304, "center": {"lat": 27.1071186, "lon": 1.9098396}, "nodes": [7312170626, 7312170627, 7312170628, 7312170629, 7312170626], "tags": {"amenity": "hospital", "healthcare": "hospital", "name": "\u0645\u0633\u062a\u0634\u0641\u0649 \u0639\u064a\u0646 \u063a\u0627\u0631", "name:ar": "\u0645\u0633\u062a\u0634\u0641\u0649 \u0639\u064a\u0646 \u063a\u0627\u0631", "name:fr": "H\u00f4pital In Ghar"}}, {"type": "way", "id": 783037177, "center": {"lat": 21.3311213, "lon": 0.9607444}, "nodes": [7312325096, 7312325097, 7312325098, 7312325099, 7312325100, 7312325101, 7312325096], "tags": {"amenity": "hospital", "healthcare": "hospital", "name": "\u0627\u0644\u0645\u0624\u0633\u0633\u0629 \u0627\u0644\u0639\u0645\u0648\u0645\u064a\u0629 \u0644\u0644\u0635\u062d\u0629 \u0627\u0644\u062c\u0648\u0627\u0631\u064a\u0629", "name:ar": "\u0627\u0644\u0645\u0624\u0633\u0633\u0629 \u0627\u0644\u0639\u0645\u0648\u0645\u064a\u0629 \u0644\u0644\u0635\u062d\u0629 \u0627\u0644\u062c\u0648\u0627\u0631\u064a\u0629"}}, {"type": "way", "id": 783056585, "center": {"lat": 28.0393734, "lon": 9.5739302}, "nodes": [7312529319, 7312529320, 7312529321, 7312529322, 7312529319], "tags": {"amenity": "hospital", "healthcare": "hospital", "name": "C.R.M.T ASL"}}, {"type": "way", "id": 783059461, "center": {"lat": 27.1831613, "lon": 2.4912282}, "nodes": [4526634490, 7312530765, 7312530766, 7312530767, 4526634490], "tags": {"addr:street": "\u0639\u064a\u0646 \u0635\u0627\u0644\u062d", "amenity": "hospital", "healthcare": "hospital", "name": "\u0627\u0644\u0645\u0631\u0643\u0632 \u0627\u0644\u0637\u0628\u064a \u0627\u0644\u0628\u064a\u062f\u0627\u063a\u0648\u062c\u064a \u0644\u0644\u0623\u0637\u0641\u0627\u0644 \u0627\u0644\u0645\u0639\u0627\u0642\u064a\u0646 \u0630\u0647\u0646\u064a\u0627", "name:ar": "\u0627\u0644\u0645\u0631\u0643\u0632 \u0627\u0644\u0637\u0628\u064a \u0627\u0644\u0628\u064a\u062f\u0627\u063a\u0648\u062c\u064a \u0644\u0644\u0623\u0637\u0641\u0627\u0644 \u0627\u0644\u0645\u0639\u0627\u0642\u064a\u0646 \u0630\u0647\u0646\u064a\u0627", "name:fr": "Centre M\u00e9dico-P\u00e9dagogique pour Enfants Handicap\u00e9s Mentaux"}}, {"type": "way", "id": 783081628, "center": {"lat": 27.1851202, "lon": 2.4903237}, "nodes": [7312799082, 7312799083, 7312799084, 7312799185, 7312799082], "tags": {"addr:street": "\u0627\u0644\u0634\u0631\u064a\u0637", "amenity": "hospital", "healthcare": "hospital", "name": "\u0627\u0644\u0639\u064a\u0627\u062f\u0629 \u0627\u0644\u0645\u062a\u0639\u062f\u062f\u0629 \u0627\u0644\u062e\u062f\u0645\u0627\u062a \u0627\u0644\u062c\u062f\u064a\u062f\u0629 \u0639\u064a\u0646 \u0635\u0627\u0644\u062d", "name:ar": "\u0627\u0644\u0639\u064a\u0627\u062f\u0629 \u0627\u0644\u0645\u062a\u0639\u062f\u062f\u0629 \u0627\u0644\u062e\u062f\u0645\u0627\u062a \u0627\u0644\u062c\u062f\u064a\u062f\u0629 \u0639\u064a\u0646 \u0635\u0627\u0644\u062d", "name:fr": "Polyclinique In Salah"}}, {"type": "way", "id": 783876753, "center": {"lat": 26.7215337, "lon": 0.170011}, "nodes": [7321815149, 7321815150, 7321815151, 7321815152, 7321815149], "tags": {"amenity": "hospital", "healthcare": "hospital", "name": "\u0627\u0644\u0645\u0624\u0633\u0633\u0629 \u0627\u0644\u0639\u0645\u0648\u0645\u064a\u0629 \u0627\u0644\u0627\u0633\u062a\u0634\u0641\u0627\u0626\u064a\u0629 \u0628\u0631\u0642\u0627\u0646", "name:ar": "\u0627\u0644\u0645\u0624\u0633\u0633\u0629 \u0627\u0644\u0639\u0645\u0648\u0645\u064a\u0629 \u0627\u0644\u0627\u0633\u062a\u0634\u0641\u0627\u0626\u064a\u0629 \u0628\u0631\u0642\u0627\u0646", "name:fr": "EPH"}}, {"type": "way", "id": 783902178, "center": {"lat": 21.3305526, "lon": 0.9491481}, "nodes": [7322119711, 7322119712, 7322119713, 7322119714, 7322119715, 7322119711], "tags": {"amenity": "hospital", "healthcare": "hospital", "name": "\u0639\u064a\u0627\u062f\u0629 \u0627\u0644\u062d\u0643\u064a\u0645 \u0641\u0631\u0627\u062c\u064a", "name:ar": "\u0639\u064a\u0627\u062f\u0629 \u0627\u0644\u062d\u0643\u064a\u0645 \u0641\u0631\u0627\u062c\u064a"}}, {"type": "relation", "id": 6419100, "center": {"lat": 26.9733904, "lon": 1.0883602}, "members": [{"type": "way", "ref": 385561661, "role": "outer"}, {"type": "way", "ref": 298948326, "role": "inner"}, {"type": "way", "ref": 298948332, "role": "inner"}, {"type": "way", "ref": 298948346, "role": "inner"}, {"type": "way", "ref": 298948330, "role": "inner"}, {"type": "way", "ref": 296859838, "role": "inner"}, {"type": "way", "ref": 298948325, "role": "inner"}], "tags": {"addr:city": "Aoulef", "addr:postcode": "01003", "amenity": "hospital", "emergency": "yes", "name": "H\u00f4pital d'Aoulef", "name:ar": "\u0627\u0644\u0645\u0624\u0633\u0633\u0629 \u0627\u0644\u0627\u0633\u062a\u0634\u0641\u0627\u0626\u064a\u0629 \u0627\u0644\u062c\u0631\u0627\u062d\u064a\u0629 \u0628\u0627\u0648\u0644\u0641", "type": "multipolygon"}}, {"type": "relation", "id": 6419313, "center": {"lat": 26.9710287, "lon": 1.0799646}, "members": [{"type": "way", "ref": 296793916, "role": "outer"}, {"type": "way", "ref": 299656101, "role": "inner"}, {"type": "way", "ref": 299656099, "role": "inner"}, {"type": "way", "ref": 298862863, "role": "inner"}, {"type": "way", "ref": 298862908, "role": "inner"}, {"type": "way", "ref": 299746588, "role": "inner"}, {"type": "way", "ref": 299746586, "role": "inner"}], "tags": {"addr:city": "Aoulef", "addr:country": "DZ", "addr:postcode": "01003", "addr:state": "ADRAR", "addr:street": "Rue Place du March\u00e9", "amenity": "hospital", "emergency": "yes", "name": "Polyclinique d'Aoulef", "name:ar": "\u0627\u0644\u0645\u0624\u0633\u0633\u0629 \u0627\u0644\u0627\u0633\u062a\u0634\u0641\u0627\u0626\u064a\u0629 \u0627\u0644\u062c\u0648\u0627\u0631\u064a\u0629 \u0627\u0648\u0644\u0641", "opening_hours": "Su-Th 08:00-16:00", "type": "multipolygon"}}]}