{"version": 0.6, "generator": "Overpass API 0.7.61.5 4133829e", "osm3s": {"timestamp_osm_base": "2023-10-31T20:53:36Z", "copyright": "The data included in this document is from www.openstreetmap.org. The data is made available under ODbL."}, "elements": [{"type": "node", "id": 367803627, "lat": 21.3213889, "lon": -157.856111, "tags": {"addr:city": "Honolulu", "addr:housenumber": "347", "addr:postcode": "96817", "addr:state": "HI", "addr:street": "North Kuakini Street", "amenity": "hospital", "beds": "212", "emergency": "yes", "gnis:feature_id": "2097147", "healthcare": "hospital", "name": "Kuakini Medical Center", "phone": "+1 808 536 2236", "website": "https://www.kuakini.org/", "wikidata": "Q6440969", "wikipedia": "en:Kuakini Medical Center"}}, {"type": "node", "id": 523557702, "lat": 21.3633504, "lon": -157.899779, "tags": {"addr:city": "Honolulu", "addr:housenumber": "3288", "addr:postcode": "96819", "addr:street": "Moanalua Road", "amenity": "hospital", "beds": "285", "emergency": "yes", "healthcare": "hospital", "name": "Kaiser Permanente Moanalua Medical Center", "opening_hours": "24/7", "operator": "Kaiser Permanente", "operator:short": "KP", "operator:wikidata": "Q1721601", "phone": "+1 808 432 2000", "website": "https://healthy.kaiserpermanente.org/hawaii/facilities/kaiser-permanente-moanalua-medical-center-100434"}}, {"type": "node", "id": 7065042271, "lat": 20.7635619, "lon": -155.9944583, "tags": {"amenity": "hospital", "emergency": "yes", "healthcare": "hospital", "name": "Hana Health"}}, {"type": "node", "id": 7732511104, "lat": 20.0197647, "lon": -155.6664888, "tags": {"amenity": "hospital", "healthcare": "hospital", "name": "North Hawa\u02bbi Community Hospital"}}, {"type": "node", "id": 10874453451, "lat": 21.3739369, "lon": -158.0340265, "tags": {"addr:city": "Ewa Beach", "addr:housenumber": "91-2301", "addr:postcode": "96706", "addr:state": "HI", "addr:street": "Fort Weaver Road", "amenity": "hospital", "beds": "88", "healthcare": "hospital", "healthcare:speciality": "psychiatry", "name": "Kahi Mohala", "phone": "+1 808 671 8511", "website": "https://www.sutterhealth.org/kahi"}}, {"type": "node", "id": 10874455492, "lat": 21.360034, "lon": -157.8898948, "tags": {"amenity": "hospital", "beds": "450", "healthcare": "hospital", "name": "Tripler Army Medical Center", "phone": "+1 808 433 6661", "website": "https://tripler.tricare.mil", "wikidata": "Q7843582", "wikipedia": "en:Tripler Army Medical Center"}}, {"type": "node", "id": 10874549122, "lat": 21.3192067, "lon": -158.0713256, "tags": {"addr:city": "Kapolei", "addr:housenumber": "91-1010", "addr:postcode": "96707-2102", "addr:state": "HI", "addr:street": "Shangrila Street", "amenity": "hospital", "healthcare": "hospital", "name": "Warrior Ohana Medical Home", "phone": "+1 808 433 5420", "website": "https://tripler.tricare.mil/Clinics/Warrior-Ohana-Medical-Home"}}, {"type": "way", "id": 206126628, "center": {"lat": 20.0223665, "lon": -155.6644342}, "nodes": [2161273961, 2161273956, 2161273959, 2161273957, 2161273958, 1566701058, 2161273960, 2161273962, 2161273963, 2161273969, 2161273968, 2161273967, 2161273966, 2161273965, 2161273964, 2161273961], "tags": {"addr:city": "Kamuela", "addr:housenumber": "67-1125", "addr:postcode": "96743", "addr:street": "Mamalahoa Highway", "amenity": "hospital", "beds": "35", "emergency": "yes", "healthcare": "hospital", "name": "North Hawaii Community Hospital", "phone": "+1 808 885 4444", "website": "http://www.nhch.com/"}}, {"type": "way", "id": 262374015, "center": {"lat": 21.9607047, "lon": -159.6709879}, "nodes": [2680396533, 7888828490, 7888828485, 2680396563, 2680396585, 2680396623, 2680396587, 2680396606, 2680396688, 2680396612, 2680396582, 2680396533], "tags": {"addr:city": "Waimea", "addr:housenumber": "4643", "addr:postcode": "96796", "addr:street": "Waimea Canyon Drive", "amenity": "hospital", "emergency": "yes", "healthcare": "hospital", "name": "Kauai Veterans Memorial Hospital", "phone": "+1 808 338 9431", "website": "https://kvmh.hhsc.org/"}}, {"type": "way", "id": 307664235, "center": {"lat": 21.2999034, "lon": -157.8334464}, "nodes": [3128677133, 3128677134, 8236240059, 8236240060, 3128677135, 3128677136, 3128677137, 3128677138, 3128677133], "tags": {"addr:city": "Honolulu", "addr:housenumber": "1319", "addr:postcode": "96826", "addr:street": "Punahou Street", "amenity": "hospital", "emergency": "yes", "healthcare": "hospital", "healthcare:speciality": "general", "name": "Kapi'olani Medical Center for Women and Children", "operator:type": "private", "phone": "+1 808 983 6000", "website": "https://www.hawaiipacifichealth.org/kapiolani/", "wikidata": "Q6366688", "wikipedia": "en:Kapiolani Medical Center for Women and Children"}}, {"type": "way", "id": 449560998, "center": {"lat": 21.9858439, "lon": -159.3642742}, "nodes": [4465092684, 4465092680, 4465092681, 4465092683, 4465092682, 4465092679, 4465092677, 4465092678, 4465092685, 4465092686, 4465092688, 4465092687, 4465095290, 4465095291, 4465095289, 4465092684], "tags": {"addr:city": "Lihue", "addr:housenumber": "3-3420", "addr:postcode": "96766", "addr:street": "Kuhio Highway", "amenity": "hospital", "beds": "72", "emergency": "yes", "name": "Wilcox Medical Center", "phone": "+1 808 245 1100", "website": "https://www.hawaiipacifichealth.org/wilcox/", "wikidata": "Q8000323"}}, {"type": "way", "id": 449562751, "center": {"lat": 22.0876918, "lon": -159.3125901}, "nodes": [4465118381, 4465118386, 4465118385, 4465118384, 4465118383, 4465118382, 4465118376, 4465118377, 4465118378, 4465118379, 4465118380, 4465118381], "tags": {"addr:city": "Kapaa", "addr:housenumber": "4800", "addr:postcode": "96746", "addr:street": "Kawaihau Road", "amenity": "hospital", "emergency": "yes", "healthcare": "hospital", "name": "Samuel Mahelona Medical Center", "phone": "+1 808 822 4961", "website": "https://smmh.hhsc.org/"}}, {"type": "way", "id": 449565338, "center": {"lat": 20.8262749, "lon": -156.9173012}, "nodes": [4465147707, 4465147708, 4465147710, 4465147711, 4465147712, 4465147709, 4465147707], "tags": {"addr:city": "Lanai City", "addr:housenumber": "628", "addr:postcode": "96763", "addr:street": "7th Street", "amenity": "hospital", "beds": "4", "emergency": "yes", "healthcare": "hospital", "name": "Lanai Community Hospital", "opening_hours": "24/7", "phone": "+1 808 565 8450", "website": "https://www.mauihealthsystem.org/lanai-hospital/"}}, {"type": "way", "id": 449579146, "center": {"lat": 20.0761791, "lon": -155.4698831}, "nodes": [4465295437, 4465295434, 4465295435, 4465295436, 4465295440, 4465295441, 4465295439, 4465295438, 4465295437], "tags": {"addr:city": "Honokaa", "addr:housenumber": "45-547", "addr:postcode": "96727", "addr:street": "Plumeria Street", "amenity": "hospital", "beds": "77", "emergency": "yes", "healthcare": "hospital", "name": "Hale Ho\u2019ola Hamakua", "phone": "+1 808 932 4100", "website": "https://www.halehoolahamakua.org/"}}, {"type": "way", "id": 449583188, "center": {"lat": 21.3803441, "lon": -157.757518}, "nodes": [4465339960, 4465339959, 4465339958, 523887924, 4465339951, 4465339946, 4465339945, 4465339943, 4465339944, 4465339948, 4465339952, 4465339953, 4465339954, 4465339955, 4465339956, 4465339957, 4465339962, 4465339961, 4465339960], "tags": {"addr:city": "Kailua", "addr:housenumber": "640", "addr:postcode": "96734", "addr:street": "Ulukahiki Street", "amenity": "hospital", "beds": "160", "emergency": "yes", "healthcare": "hospital", "name": "Castle Medical Center", "opening_hours": "24/7", "operator": "Adventist Health", "operator:wikidata": "Q4686452", "phone": "+1 808 263 5500", "website": "https://www.adventisthealth.org/castle/", "wikidata": "Q5050184"}}, {"type": "way", "id": 449584105, "center": {"lat": 21.4987797, "lon": -158.0263081}, "nodes": [4465348970, 4465348971, 4230655291, 4465348972, 4465348970], "tags": {"addr:city": "Wahiawa", "addr:housenumber": "128", "addr:postcode": "96786", "addr:street": "Lehua Street", "amenity": "hospital", "beds": "53", "emergency": "yes", "healthcare": "hospital", "name": "Wahiawa General Hospital", "opening_hours": "24/7", "phone": "+1 808 621 8411", "website": "https://www.wahiawageneral.org/"}}, {"type": "way", "id": 449586843, "center": {"lat": 21.3720926, "lon": -158.0274226}, "nodes": [1522591668, 4465371102, 4465371103, 4465371104, 4465371105, 4465371106, 4465371107, 4465371108, 8424480806, 1741242637, 1741242643, 1741242477, 1741242670, 1741242537, 1741242645, 110616784, 1522591668], "tags": {"addr:city": "Ewa Beach", "addr:housenumber": "91-2141", "addr:postcode": "96706", "addr:street": "Fort Weaver Road", "amenity": "hospital", "emergency": "yes", "healthcare": "hospital", "name": "The Queen's Medical Center - West Oahu", "phone": "+1 808 691 3000", "website": "http://www.queenswestoahu.org/"}}, {"type": "way", "id": 587356908, "center": {"lat": 20.8847433, "lon": -156.4895315}, "nodes": [4699459763, 5610582539, 5610582538, 5610582537, 5610582536, 5610582535, 5610582534, 5610582533, 5610582532, 5610582531, 5610582530, 5610582529, 5610582528, 5610582527, 4699459768, 4699459767, 4699459766, 4699459765, 4699459764, 4699459763], "tags": {"addr:city": "Wailuku", "addr:housenumber": "221", "addr:postcode": "96793", "addr:street": "Mahalani Street", "amenity": "hospital", "beds": "214", "emergency": "yes", "healthcare": "hospital", "name": "Maui Memorial Medical Center", "opening_hours": "24/7", "operator": "Maui Health System", "phone": "+1 808 244 9056", "website": "https://www.mauihealthsystem.org/maui-memorial/"}}, {"type": "way", "id": 587357900, "center": {"lat": 21.0940319, "lon": -157.0174746}, "nodes": [5610595064, 5610595063, 5610595062, 5610595061, 5610595064], "tags": {"addr:city": "Kaunakakai", "addr:housenumber": "280", "addr:postcode": "96748", "addr:street": "Home Olu Place", "amenity": "hospital", "beds": "15", "emergency": "yes", "healthcare": "hospital", "name": "Molokai General Hospital", "opening_hours": "24/7", "phone": "+1 808 553 5331", "website": "http://www.molokaigeneralhospital.org/"}}, {"type": "way", "id": 587358297, "center": {"lat": 21.6765572, "lon": -157.9540195}, "nodes": [5610601222, 5610601221, 5610600920, 5610600919, 5610600918, 5610600917, 5610600916, 5610600915, 5610600914, 5610600913, 5610600912, 5610600911, 5610601222], "tags": {"addr:city": "Kahuku", "addr:housenumber": "56-1171", "addr:postcode": "96731", "addr:street": "Pualalea Street", "amenity": "hospital", "beds": "15", "emergency": "yes", "healthcare": "hospital", "name": "Kahuku Medical Center", "opening_hours": "24/7", "phone": "+1 808 293 9221", "short_name": "KMC", "website": "https://www.kmc-hi.org/"}}, {"type": "way", "id": 587359122, "center": {"lat": 20.7012007, "lon": -156.3571093}, "nodes": [5610610405, 5610610404, 5610610403, 5610610402, 5610610401, 5610610400, 5610610399, 5610610398, 5610610397, 5610610396, 5610610395, 5610610394, 5610610393, 5610610392, 5610610391, 5610610390, 5610610389, 5610610388, 5610610387, 5610610386, 5610610385, 5610610405], "tags": {"addr:city": "Kula", "addr:housenumber": "100", "addr:postcode": "96790", "addr:street": "Keokea Place", "amenity": "hospital", "beds": "9", "emergency": "yes", "healthcare": "hospital", "name": "Kula Hospital", "opening_hours": "24/7", "operator": "Maui Health System", "phone": "+1 808 878 1221", "website": "https://www.mauihealthsystem.org/kula-hospital/"}}, {"type": "way", "id": 617521034, "center": {"lat": 21.4058415, "lon": -157.8138953}, "nodes": [5805693720, 5805693731, 8636733454, 8636733455, 8636733456, 8636733457, 8636733458, 8636733459, 8636733460, 8636733461, 8636733462, 8636733463, 8636733464, 9957770332, 5805693722, 5805693723, 5837349780, 5837349782, 5837349783, 5837349784, 5837349885, 5837349886, 5837349887, 5837349888, 5837349889, 5837349890, 5837349891, 5837349892, 5837349893, 5837349894, 5837349895, 5805693720], "tags": {"amenity": "hospital", "healthcare": "hospital", "name": "Hawaii State Hospital", "name:it": "Hawaii State"}}, {"type": "way", "id": 807672713, "center": {"lat": 21.3027479, "lon": -157.8507522}, "nodes": [1555106171, 1555106167, 1555106169, 1555106174, 11027731277, 11027731275, 1555106172, 1555106180, 1555106179, 1555106162, 1555106171], "tags": {"addr:city": "Honolulu", "addr:housenumber": "888", "addr:postcode": "96813", "addr:state": "HI", "addr:street": "South King Street", "amenity": "hospital", "building": "hospital", "building:levels": "6", "emergency": "yes", "healthcare": "hospital", "name": "Straub Clinic and Hospital", "opening_hours": "24/7", "phone": "+1 808 522 4000", "website": "https://www.hawaiipacifichealth.org/straub/", "wikidata": "Q7622305"}}, {"type": "way", "id": 822370968, "center": {"lat": 21.3005968, "lon": -157.8351826}, "nodes": [7678633995, 7678633991, 7678633993, 7678635807, 7678606882, 7678633985, 7678633989, 7678633995], "tags": {"addr:city": "Honolulu", "addr:housenumber": "1310", "addr:postcode": "96826", "addr:state": "HI", "addr:street": "Punahou Street", "amenity": "hospital", "beds": "24", "healthcare": "hospital", "healthcare:speciality": "paediatrics", "name": "Shriners Hospitals For Children", "operator": "Shriners Hospitals for Children", "operator:type": "private", "operator:wikidata": "Q7504109", "phone": "+1 808 941 4466", "website": "http://www.shrinershospitalsforchildren.org/Locations/honolulu", "wikidata": "Q30282039"}}, {"type": "way", "id": 833416894, "center": {"lat": 21.321535, "lon": -157.8545225}, "nodes": [7779993684, 7780000190, 7780000189, 7780000188, 7780000187, 7780000186, 7780000194, 7780000193, 7780000192, 7779993675, 7780000217, 7780000216, 7779993679, 4776609382, 7779993683, 110570452, 110685694, 7780000210, 4730083304, 7779993684], "tags": {"addr:city": "Honolulu", "addr:housenumber": "226", "addr:postcode": "96817", "addr:state": "HI", "addr:street": "North Kuakini Street", "amenity": "hospital", "fax": "+1 808 535 2018", "healthcare": "hospital", "name": "Rehab Hospital of the Pacific", "phone": "+1 808 531 3511", "website": "https://www.rehabhospital.org/"}}, {"type": "way", "id": 841073501, "center": {"lat": 21.3834899, "lon": -157.9385132}, "nodes": [7847758364, 7847758373, 7847758381, 7847775488, 7847775497, 7847758328, 7847758335, 7847775491, 9974140483, 7847775500, 7847758346, 7847758331, 7847758355, 7847758347, 7847758364], "tags": {"addr:city": "Aiea", "addr:housenumber": "98-1079", "addr:postcode": "96701", "addr:street": "Moanalua Road", "amenity": "hospital", "beds": "118", "emergency": "yes", "healthcare": "hospital", "name": "Pali Momi Medical Center", "opening_hours": "24/7", "operator": "Hawaii Pacific Health", "phone": "+1 808 486 6000", "website": "https://www.hawaiipacifichealth.org/pali-momi/", "wikidata": "Q6366683", "wikipedia": "en:Pali Momi Medical Center"}}, {"type": "way", "id": 844712248, "center": {"lat": 21.3390196, "lon": -158.0759068}, "nodes": [7463945133, 7880597719, 7880597720, 7880597761, 7880597721, 7880597759, 7880597762, 7880597722, 7880597763, 7880597764, 7880597723, 7880597744, 1739535778, 1739535844, 7463945133], "tags": {"amenity": "hospital", "emergency": "no", "healthcare": "hospital", "name": "Kapolei Health Center"}}, {"type": "way", "id": 983246204, "center": {"lat": 20.232076, "lon": -155.7968013}, "nodes": [9091396801, 9091396802, 9091396803, 9091396804, 9091396805, 9091396806, 9091396807, 9091396808, 9091396809, 9091396810, 9091396811, 9091396812, 2090606012, 9091396801], "tags": {"addr:city": "Kapaau", "addr:housenumber": "54-383", "addr:postcode": "96755", "addr:street": "Hospital Road", "amenity": "hospital", "beds": "28", "emergency": "yes", "healthcare": "hospital", "name": "Kohala Hospital", "phone": "+1 808 889 6211", "website": "https://kohala.hhsc.org/"}}, {"type": "way", "id": 1096396301, "center": {"lat": 21.3501796, "lon": -158.0296263}, "nodes": [10040393481, 10040393398, 8890591681, 8890591680, 10040393470, 10040393471, 10040393472, 10040393473, 10040393474, 10040393475, 10040393476, 10040393477, 10040393478, 10040393479, 10040393480, 10040393481], "tags": {"addr:city": "Ewa Beach", "addr:housenumber": "91-1360", "addr:postcode": "96706", "addr:state": "HI", "addr:street": "Karayan Street", "amenity": "hospital", "contact:email": "km@hawaiinursinghomes.com", "contact:phone": "+1-808-681-1200", "contact:website": "http://kulanamalama.com/", "description": "At Kulana Malama, children with complex medical conditions are surrounded with a caring, professional team of \u201cuncles and aunties\u201d to help each child flourish.", "name:en": "Kulana Malama", "name:haw": "K\u016blana M\u0101lama"}}, {"type": "relation", "id": 11359572, "center": {"lat": 21.3081363, "lon": -157.8537146}, "members": [{"type": "way", "ref": 831107351, "role": "outer"}, {"type": "way", "ref": 831399767, "role": "inner"}], "tags": {"addr:city": "Honolulu", "addr:housenumber": "1301", "addr:postcode": "96813", "addr:street": "Punchbowl Street", "amenity": "hospital", "beds": "533", "building": "hospital", "emergency": "yes", "healthcare": "hospital", "name": "The Queen's Medical Center", "phone": "+1 808 691 1000", "type": "multipolygon", "website": "http://queensmedicalcenter.org/", "wikidata": "Q7758968", "wikipedia": "en:The Queen's Medical Center"}}]}