{"version": 0.6, "generator": "Overpass API 0.7.61.5 4133829e", "osm3s": {"timestamp_osm_base": "2023-10-31T20:54:41Z", "copyright": "The data included in this document is from www.openstreetmap.org. The data is made available under ODbL."}, "elements": [{"type": "node", "id": 2804643290, "lat": 26.5512577, "lon": 13.1086242, "tags": {"amenity": "hospital", "name": "\u0639\u064a\u0627\u062f\u0647 \u0627\u0633\u0646\u0627\u0646", "name:ar": "\u0639\u064a\u0627\u062f\u0647 \u0627\u0633\u0646\u0627\u0646", "name:en": "Dentist Clinic"}}, {"type": "node", "id": 2809619146, "lat": 26.5262175, "lon": 13.0108149, "tags": {"addr:city": "\u0627\u0644\u063a\u0631\u064a\u0641\u0629", "addr:city:ar": "\u0627\u0644\u063a\u0631\u064a\u0641\u0629", "amenity": "hospital", "healthcare": "hospital", "name": "\u062c\u0645\u0639\u064a\u0629 \u0627\u0644\u0647\u0644\u0627\u0644 \u0627\u0644\u0627\u062d\u0645\u0631 \u0627\u0644\u063a\u0631\u064a\u0641\u0629", "name:ar": "\u0627\u0644\u0647\u0644\u0627\u0644 \u0627\u0644\u0623\u062d\u0645\u0631 \u0627\u0644\u063a\u0631\u064a\u0641\u0629", "name:en": "Libyan Red Crescent Society Grefa"}}, {"type": "node", "id": 4071258282, "lat": 27.0376389, "lon": 14.4282473, "tags": {"addr:city": "\u0633\u0628\u0647\u0627", "addr:city:ar": "\u0633\u0628\u0647\u0627", "amenity": "hospital", "healthcare": "hospital", "language:ar": "main", "name": "\u0639\u064a\u0627\u062f\u0629 \u0627\u0644\u0634\u0641\u0627\u0621", "name:ar": "\u0639\u064a\u0627\u062f\u0629 \u0627\u0644\u0634\u0641\u0627\u0621", "name:en": "Al Shifa Clinic"}}, {"type": "node", "id": 4428111196, "lat": 29.7400828, "lon": 15.2161685, "tags": {"addr:street": "\u0637\u0631\u064a\u0642 \u0645\u0634\u0631\u0648\u0639 \u0627\u0644\u0646\u062e\u064a\u0644", "amenity": "hospital", "healthcare": "hospital", "name": "\u0645\u0633\u062a\u0634\u0641\u0649 \u0646\u064a\u0646\u0629 \u0627\u0644\u0643\u0628\u0631\u064a\u062a\u064a", "name:ar": "\u0645\u0633\u062a\u0634\u0641\u0649 \u0646\u064a\u0646\u0629 \u0627\u0644\u0643\u0628\u0631\u064a\u062a\u064a", "name:en": "Nina"}}, {"type": "node", "id": 4454029992, "lat": 28.5500987, "lon": 17.5322815, "tags": {"addr:city": "\u0632\u0644\u0629", "amenity": "hospital", "healthcare": "hospital", "name": "\u0645\u0633\u062a\u0634\u0641\u0649 \u0632\u0644\u0629", "name:ar": "\u0645\u0633\u062a\u0634\u0641\u0649 \u0632\u0644\u0629", "name:en": "Zalla Hospital"}}, {"type": "node", "id": 4794304922, "lat": 29.2245995, "lon": 19.2031557, "tags": {"addr:street": "\u0627\u0644\u0639\u0642\u064a\u0644\u0647-\u0645\u0631\u0627\u062f\u0647", "amenity": "hospital", "name": "\u0639\u064a\u0627\u062f\u0629 \u0645\u0631\u0627\u062f\u0629", "name:ar": "\u0639\u064a\u0627\u062f\u0629 \u0645\u0631\u0627\u062f\u0629", "name:en": "Clinic", "opening_hours": "Sa-Th 09:00-18:00"}}, {"type": "node", "id": 4927767722, "lat": 29.9847316, "lon": 14.2680803, "tags": {"amenity": "hospital", "name": "\u0627\u0644\u0631\u0639\u0627\u064a\u0629 \u0627\u0644\u0635\u062d\u064a\u0629", "name:ar": "\u0627\u062f\u0627\u0631\u0629 \u0627\u0644\u062e\u062f\u0645\u0627\u062a \u0627\u0644\u0635\u062d\u064a\u0629 \u0627\u0644\u0634\u0648\u064a\u0631\u0641", "name:en": "Healthcare", "opening_hours": "Mo-Su 09:00-14:00"}}, {"type": "node", "id": 6452249687, "lat": 24.9593474, "lon": 10.1841763, "tags": {"addr:city": "\u063a\u0627\u062a", "addr:city:ar": "\u063a\u0627\u062a", "amenity": "hospital", "healthcare": "hospital", "name": "\u0645\u0633\u062a\u0634\u0641\u064a \u063a\u0627\u062a \u0627\u0644\u0639\u0627\u0645", "name:ar": "\u0645\u0633\u062a\u0634\u0641\u064a \u063a\u0627\u062a \u0627\u0644\u0639\u0627\u0645", "name:en": "GATT General Hospital", "name:fr": "H\u00f4pital G\u00e9n\u00e9ral de Ghat"}}, {"type": "node", "id": 6762910185, "lat": 27.0499671, "lon": 14.4286258, "tags": {"amenity": "hospital", "name": "\u0639\u064a\u0627\u062f\u0629 \u0627\u0644\u0645\u062c\u062f", "name:ar": "\u0639\u064a\u0627\u062f\u0629 \u0627\u0644\u0645\u062c\u062f", "name:en": "Glory Clinic"}}, {"type": "node", "id": 7362771285, "lat": 25.9209237, "lon": 14.4510536, "tags": {"addr:street": "\u0627\u0644\u0632\u064a\u062a\u0648\u0646-\u0627\u0644\u062c\u0628\u0627\u0631-\u0645\u0639\u0641\u0646-\u0628\u0646\u062f\u0644\u064a\u0641", "amenity": "hospital", "name": "\u0645\u0631\u0643\u0632 \u0644\u0643\u0644 \u062f\u0627\u0621 \u062f\u0648\u0627\u0621 \u0627\u0644\u062a\u062e\u0635\u0635\u064a", "name:ar": "\u0645\u0631\u0643\u0632 \u0644\u0643\u0644 \u062f\u0627\u0621 \u062f\u0648\u0627\u0621 \u0627\u0644\u062a\u062e\u0635\u0635\u064a", "name:en": "Health Special Center"}}, {"type": "node", "id": 7366048585, "lat": 26.5200966, "lon": 13.0056965, "tags": {"addr:city": "\u0627\u0644\u063a\u0631\u064a\u0641\u0629", "addr:city:ar": "\u0627\u0644\u063a\u0631\u064a\u0641\u0629", "addr:street": "\u0637\u0631\u064a\u0642 \u0632\u0631\u0627\u0639\u064a \u0644\u063a\u0631\u064a\u0641\u0647 -\u0627\u0644\u062d\u0637\u064a\u0647", "amenity": "hospital", "healthcare": "hospital", "name": "\u0639\u064a\u0627\u062f\u0629 \u0627\u0644\u0645\u0648\u062f\u0629", "name:ar": "\u0639\u064a\u0627\u062f\u0629 \u0627\u0644\u0645\u0648\u062f\u0629", "name:en": "Al Mowadda Clinic"}}, {"type": "node", "id": 8227325117, "lat": 21.3537434, "lon": 16.9994149, "tags": {"amenity": "hospital", "name": "Garnison militaire"}}, {"type": "way", "id": 197719993, "center": {"lat": 21.3606997, "lon": 17.0017121}, "nodes": [2079280570, 8044964937, 8044964935, 2079280518, 8044964933, 2079280563, 2079280615, 2079280570], "tags": {"addr:city": "\u0628\u0631\u062f\u0627\u064a", "addr:city:ar": "\u0628\u0631\u062f\u0627\u064a", "amenity": "hospital", "barrier": "wall", "diet:halal": "yes", "emergency": "yes", "healthcare": "hospital", "language:ar": "main", "name": "\u0627\u0644\u0645\u0633\u062a\u0634\u0641\u0649 \u0627\u0644\u0645\u0631\u0643\u0632\u064a", "name:ar": "\u0627\u0644\u0645\u0633\u062a\u0634\u0641\u0649 \u0627\u0644\u0645\u0631\u0643\u0632\u064a"}}, {"type": "way", "id": 257182771, "center": {"lat": 27.2774852, "lon": 14.883241}, "nodes": [2627786905, 2627786887, 2627786889, 2627786896, 2627786900, 2627786891, 2627786892, 2627786909, 2627786911, 2627786883, 2627786881, 2627786903, 2627786905], "tags": {"amenity": "hospital", "healthcare": "hospital", "healthcare:speciality": "general", "name": "Samnu Hospital"}}, {"type": "way", "id": 275491984, "center": {"lat": 26.5511958, "lon": 13.211692}, "nodes": [2801250827, 2801250828, 2801250829, 2801250830, 2801250827], "tags": {"amenity": "hospital", "name": "\u0645\u0631\u0643\u0632 \u0635\u062d\u064a \u0642\u0631\u0627\u0642\u0631\u0647", "name:ar": "\u0645\u0631\u0643\u0632 \u0635\u062d\u064a \u0642\u0631\u0627\u0642\u0631\u0647"}}, {"type": "way", "id": 275733655, "center": {"lat": 26.5633284, "lon": 13.1494908}, "nodes": [2804041807, 2804041808, 2804041809, 2804041810, 2804041807], "tags": {"amenity": "hospital", "name": "\u0645\u0633\u062a\u0648\u0635\u0641 \u062a\u0648\u064a\u0648\u0629", "name:ar": "\u0645\u0633\u062a\u0648\u0635\u0641 \u062a\u0648\u064a\u0648\u0629", "name:en": "Tuwiwa Hospital"}}, {"type": "way", "id": 275777382, "center": {"lat": 26.5556778, "lon": 13.1166822}, "nodes": [2804514494, 2804514495, 2804514496, 2804514497, 2804514494], "tags": {"amenity": "hospital", "name": "\u0645\u0631\u0643\u0632 \u0635\u062d\u064a \u0627\u0628\u0631\u064a\u0643", "name:ar": "\u0645\u0631\u0643\u0632 \u0635\u062d\u064a \u0627\u0628\u0631\u064a\u0643", "name:en": "Abreak HealthyCare"}}, {"type": "way", "id": 275804306, "center": {"lat": 26.5628288, "lon": 13.1274144}, "nodes": [2804737687, 2804737688, 2804737689, 2804737690, 2804737687], "tags": {"amenity": "hospital", "name": "\u0645\u0633\u062a\u0648\u0635\u0641 \u0627\u0644\u0641\u062e\u0641\u0627\u062e\u0647", "name:ar": "\u0645\u0633\u062a\u0648\u0635\u0641 \u0627\u0644\u0641\u062e\u0641\u0627\u062e\u0647"}}, {"type": "way", "id": 275880831, "center": {"lat": 26.0960977, "lon": 13.5645385}, "nodes": [2805432962, 2805432963, 2805432964, 2805432965, 2805432962], "tags": {"amenity": "hospital", "name": "\u0645\u0633\u062a\u0648\u0635\u0641 \u0627\u0642\u0627\u0631 \u0627\u0644\u062c\u062f\u064a\u062f", "name:ar": "\u0645\u0633\u062a\u0648\u0635\u0641 \u0627\u0642\u0627\u0631 \u0627\u0644\u062c\u062f\u064a\u062f", "name:en": "Aghar Hospital"}}, {"type": "way", "id": 276035849, "center": {"lat": 26.0873876, "lon": 13.5146399}, "nodes": [2806802401, 2806802402, 2806802403, 2806802404, 2806802401], "tags": {"amenity": "hospital", "name": "\u0627\u0644\u0645\u0631\u0643\u0632 \u0627\u0644\u0635\u062d\u064a \u062a\u0633\u0627\u0648\u0647", "name:ar": "\u0627\u0644\u0645\u0631\u0643\u0632 \u0627\u0644\u0635\u062d\u064a \u062a\u0633\u0627\u0648\u0647", "name:en": "Health Center"}}, {"type": "way", "id": 276124558, "center": {"lat": 26.0980001, "lon": 13.6854219}, "nodes": [2807464007, 2807464008, 2807464009, 2807464010, 2807464007], "tags": {"amenity": "hospital", "name": "\u0645\u0633\u062a\u0648\u0635\u0641 \u0627\u0633\u0628\u064a\u0637\u0627\u062a", "name:ar": "\u0645\u0633\u062a\u0648\u0635\u0641 \u0627\u0633\u0628\u064a\u0637\u0627\u062a", "name:en": "Asspitat Clinic"}}, {"type": "way", "id": 276162388, "center": {"lat": 26.5381924, "lon": 13.1006923}, "nodes": [2807860523, 2807860524, 2807860525, 2807860526, 2807860523], "tags": {"addr:street": "\u0633\u0628\u0647\u0627-\u0627\u0648\u0628\u0627\u0631\u064a", "amenity": "hospital", "name": "\u0645\u0635\u062a\u0648\u0635\u0641 \u062a\u0648\u0634", "name:ar": "\u0645\u0633\u062a\u0648\u0635\u0641 \u062a\u0648\u0634", "name:en": "Towsh Hospital"}}, {"type": "way", "id": 276163020, "center": {"lat": 26.5290672, "lon": 13.0702239}, "nodes": [2807871642, 2807871643, 2807871644, 2807871645, 2807871642], "tags": {"addr:street": "\u0637\u0631\u064a\u0642 \u062c\u0631\u0645\u0647 \u0628\u0631\u062c\u0648\u062c", "amenity": "hospital", "name": "\u0645\u0631\u0643\u0632 \u062c\u0631\u0645\u0647 \u0627\u0644\u0635\u062d\u064a", "name:ar": "\u0645\u0631\u0643\u0632 \u062c\u0631\u0645\u0647 \u0627\u0644\u0635\u062d\u064a", "name:en": "Jirmah Clinic"}}, {"type": "way", "id": 276293796, "center": {"lat": 26.5260932, "lon": 13.0159402}, "nodes": [2809128699, 2809128700, 2809133701, 2809133702, 2809128699], "tags": {"addr:city": "\u0627\u0644\u063a\u0631\u064a\u0641\u0629", "addr:city:ar": "\u0627\u0644\u063a\u0631\u064a\u0641\u0629", "alt_name": "\u0639\u064a\u0627\u062f\u0647 \u0627\u0644\u0631\u0627\u0632\u064a \u0646\u0633\u0627\u0621 \u0627\u0637\u0641\u0627\u0644 \u0645\u062e\u062a\u0628\u0631", "alt_name:ar": "\u0639\u064a\u0627\u062f\u0647 \u0627\u0644\u0631\u0627\u0632\u064a \u0646\u0633\u0627\u0621 \u0627\u0637\u0641\u0627\u0644 \u0645\u062e\u062a\u0628\u0631", "amenity": "hospital", "female": "designated", "healthcare": "hospital", "name": "\u0639\u064a\u0627\u062f\u0629 \u0627\u0644\u0631\u0627\u0632\u064a \u0646\u0633\u0627\u0621 \u0623\u0637\u0641\u0627\u0644 \u0645\u062e\u062a\u0628\u0631", "name:ar": "\u0639\u064a\u0627\u062f\u0629 \u0627\u0644\u0631\u0627\u0632\u064a \u0646\u0633\u0627\u0621 \u0623\u0637\u0641\u0627\u0644 \u0645\u062e\u062a\u0628\u0631", "name:en": "Women Clinic"}}, {"type": "way", "id": 276404689, "center": {"lat": 26.5249489, "lon": 13.0072286}, "nodes": [2810005888, 2810005889, 2810005890, 2810005891, 2810005888], "tags": {"addr:city": "\u0627\u0644\u063a\u0631\u064a\u0641\u0629", "addr:city:ar": "\u0627\u0644\u063a\u0631\u064a\u0641\u0629", "alt_name": "\u0645\u0633\u062a\u0634\u0641\u064a \u0627\u0644\u063a\u0631\u064a\u0641\u0647", "alt_name:ar": "\u0645\u0633\u062a\u0634\u0641\u064a \u0627\u0644\u063a\u0631\u064a\u0641\u0647", "amenity": "hospital", "healthcare": "hospital", "name": "\u0645\u0633\u062a\u0634\u0641\u064a \u0627\u0644\u063a\u0631\u064a\u0641\u0629", "name:ar": "\u0645\u0633\u062a\u0634\u0641\u064a \u0627\u0644\u063a\u0631\u064a\u0641\u0629", "name:en": "Al Ghurayfah Hospital"}}, {"type": "way", "id": 276410942, "center": {"lat": 26.5205146, "lon": 13.0143629}, "nodes": [2810050074, 2810050075, 2810050076, 2810050077, 2810050078, 2810050079, 2810050074], "tags": {"addr:city": "\u0627\u0644\u063a\u0631\u064a\u0641\u0629", "addr:city:ar": "\u0627\u0644\u063a\u0631\u064a\u0641\u0629", "amenity": "hospital", "healthcare": "hospital", "name": "\u0645\u0633\u062a\u0648\u0635\u0641 \u0627\u0644\u063a\u0631\u064a\u0641\u0629", "name:ar": "\u0645\u0635\u062a\u0648\u0635\u0641 \u0627\u0644\u063a\u0631\u064a\u0641\u0629", "name:en": "HealthyCare"}}, {"type": "way", "id": 276414607, "center": {"lat": 26.5267161, "lon": 13.0151084}, "nodes": [2810069090, 2810069091, 2810069092, 2810069093, 2810069090], "tags": {"addr:city": "\u0627\u0644\u063a\u0631\u064a\u0641\u0629", "addr:city:ar": "\u0627\u0644\u063a\u0631\u064a\u0641\u0629", "amenity": "hospital", "healthcare": "hospital", "name": "\u0639\u064a\u0627\u062f\u0629 \u0639\u064a\u0646 \u0634\u0645\u0633 \u0646\u0633\u0627\u0621 \u0623\u0633\u0646\u0627\u0646 \u0645\u062e\u062a\u0628\u0631", "name:ar": "\u0639\u064a\u0627\u062f\u0629 \u0639\u064a\u0646 \u0634\u0645\u0633 \u0646\u0633\u0627\u0621 \u0623\u0633\u0646\u0627\u0646 \u0645\u062e\u062a\u0628\u0631", "name:en": "Ain Shams Clinic"}}, {"type": "way", "id": 278359896, "center": {"lat": 27.539938, "lon": 14.3000888}, "nodes": [2827373600, 2827384701, 2827384702, 2827384703, 2827373600], "tags": {"amenity": "hospital", "name": "\u0645\u0633\u062a\u0634\u0641\u064a \u0628\u0631\u0627\u0643 \u0627\u0644\u0639\u0627\u0645", "name:ar": "\u0645\u0633\u062a\u0634\u0641\u064a \u0628\u0631\u0627\u0643 \u0627\u0644\u0639\u0627\u0645", "name:en": "Barak General hospital"}}, {"type": "way", "id": 288563338, "center": {"lat": 26.5958855, "lon": 12.7788028}, "nodes": [2921161442, 2921161443, 2921161444, 2921161445, 2921161446, 2921161447, 2921161448, 2921161449, 2921161450, 2921161451, 2921161442], "tags": {"amenity": "hospital", "name": "\u0645\u0633\u062a\u0634\u0641\u064a \u0627\u0648\u0628\u0627\u0631\u064a \u0627\u0644\u0642\u062f\u064a\u0645", "name:ar": "\u0645\u0633\u062a\u0634\u0641\u064a \u0627\u0648\u0628\u0627\u0631\u064a \u0627\u0644\u0642\u062f\u064a\u0645", "name:en": "Ubari Hospital Old"}}, {"type": "way", "id": 288568321, "center": {"lat": 26.5929102, "lon": 12.7633091}, "nodes": [2921184864, 2921184865, 2921184866, 2921184867, 2921184864], "tags": {"addr:city": "\u0623\u0648\u0628\u0627\u0631\u064a", "amenity": "hospital", "healthcare": "hospital", "name": "\u0645\u0633\u062a\u0634\u0641\u064a \u0623\u0648\u0628\u0627\u0631\u064a \u0627\u0644\u0639\u0627\u0645", "name:ar": "\u0645\u0633\u062a\u0634\u0641\u064a \u0623\u0648\u0628\u0627\u0631\u064a \u0627\u0644\u0639\u0627\u0645", "name:en": "Ubari General Hospital"}}, {"type": "way", "id": 288587361, "center": {"lat": 26.5904479, "lon": 12.8201922}, "nodes": [2921377678, 2921377679, 2921377680, 2921377681, 2921377678], "tags": {"amenity": "hospital", "name": "\u0645\u0633\u062a\u0648\u0635\u0641 \u0627\u0644\u062f\u064a\u0633\u0629 \u0648\u0645\u062e\u062a\u0628\u0631 \u0645\u0631\u062c\u0639\u064a", "name:ar": "\u0645\u0633\u062a\u0648\u0635\u0641 \u0627\u0644\u062f\u064a\u0633\u0629 \u0648\u0645\u062e\u062a\u0628\u0631 \u0645\u0631\u062c\u0639\u064a", "name:en": "Disah Clinic &Lap"}}, {"type": "way", "id": 328636130, "center": {"lat": 24.8852914, "lon": 14.5265988}, "nodes": [3354504502, 3354504503, 3354504504, 3354504505, 3354504502], "tags": {"addr:city": "\u0627\u0644\u0642\u0637\u0631\u0648\u0646", "amenity": "hospital", "healthcare": "hospital", "name": "\u0645\u0633\u062a\u0634\u0641\u064a \u0627\u0644\u0642\u0637\u0631\u0648\u0646", "name:ar": "\u0645\u0633\u062a\u0634\u0641\u064a \u0627\u0644\u0642\u0637\u0631\u0648\u0646", "name:en": "Qatrun Hospital", "name:fr": "H\u00f4pital de Gatrone"}}, {"type": "way", "id": 328930660, "center": {"lat": 26.6778384, "lon": 13.7565854}, "nodes": [3357511903, 3357511904, 3357511905, 3357511906, 3357511903], "tags": {"amenity": "hospital", "name": "\u0645\u0633\u062a\u0648\u0635\u0641 \u0627\u0644\u0642\u0644\u0639\u0647", "name:ar": "\u0645\u0633\u062a\u0648\u0635\u0641 \u0627\u0644\u0642\u0644\u0639\u0647"}}, {"type": "way", "id": 328932699, "center": {"lat": 26.6451778, "lon": 13.6563626}, "nodes": [3357532903, 3357532904, 3357532905, 3357532906, 3357532907, 3357532903], "tags": {"amenity": "hospital", "name": "\u0645\u0633\u062a\u0634\u0641\u064a \u0628\u0646\u062a \u0628\u064a\u0647", "name:ar": "\u0645\u0633\u062a\u0634\u0641\u064a \u0628\u0646\u062a \u0628\u064a\u0647", "name:en": "Bent Bey Hospital"}}, {"type": "way", "id": 328993932, "center": {"lat": 26.6257733, "lon": 13.6230868}, "nodes": [3358128529, 3358128530, 3358128531, 3358128532, 3358128529], "tags": {"amenity": "hospital", "diet:halal": "yes", "healthcare": "hospital", "language:ar": "main", "name": "\u0645\u0633\u062a\u0648\u0635\u0641 \u0627\u0644\u062a\u0646\u0627\u062d\u0645\u0629", "name:ar": "\u0645\u0633\u062a\u0648\u0635\u0641 \u0627\u0644\u062a\u0646\u0627\u062d\u0645\u0629"}}, {"type": "way", "id": 328993933, "center": {"lat": 26.6023731, "lon": 13.5653553}, "nodes": [3358128533, 3358128534, 3358128535, 3358128536, 3358128533], "tags": {"amenity": "hospital", "diet:halal": "yes", "healthcare": "hospital", "language:ar": "main"}}, {"type": "way", "id": 330836993, "center": {"lat": 27.0250681, "lon": 14.4399388}, "nodes": [3378420983, 3378420984, 3378420985, 3378420986, 3378420987, 3378420990, 3378420991, 3378420988, 3378420989, 3378420992, 3378421493, 3378421494, 3378421495, 3378421496, 3378421497, 3378421498, 3378421499, 3378420983], "tags": {"addr:street": "\u0637\u0631\u064a\u0642 \u0627\u0644\u062f\u0627\u0626\u0631\u064a \u0627\u0644\u062b\u0627\u0646\u064a", "amenity": "hospital", "healthcare": "hospital", "healthcare:speciality": "general", "name": "\u0645\u0631\u0643\u0632 \u0633\u0628\u0647\u0627 \u0627\u0644\u0637\u0628\u064a", "name:ar": "\u0645\u0631\u0643\u0632 \u0633\u0628\u0647\u0627 \u0627\u0644\u0637\u0628\u064a", "name:en": "SABHA Medical Center", "name:it": "Centro Sabha di Medicare", "opening_hours": "24/7"}}, {"type": "way", "id": 331119912, "center": {"lat": 27.0420318, "lon": 14.4257576}, "nodes": [3381783473, 3381783474, 3381783475, 3381783476, 3381783473], "tags": {"amenity": "hospital", "name": "\u0645\u0633\u062a\u0634\u0641\u064a \u0627\u0644\u0627\u0645\u0631\u0627\u0636 \u0627\u0644\u0633\u0627\u0631\u064a\u0629 \u0627\u0644\u063a\u062f\u062f \u0627\u0644\u0635\u0645\u0627\u0621", "name:ar": "\u0645\u0633\u062a\u0634\u0641\u064a \u0627\u0644\u0627\u0645\u0631\u0627\u0636 \u0627\u0644\u0633\u0627\u0631\u064a\u0629 \u0627\u0644\u063a\u062f\u062f \u0627\u0644\u0635\u0645\u0627\u0621", "name:en": "Hospital. Symptoms of the current"}}, {"type": "way", "id": 331119915, "center": {"lat": 27.0384245, "lon": 14.4337082}, "nodes": [3381783489, 8250141876, 3381783490, 3381783491, 3381783492, 3381784093, 3381784094, 3381784095, 3381784096, 3381783489], "tags": {"addr:street": "\u0634\u0627\u0631\u0639 \u062c\u0645\u0627\u0644 \u0639\u0628\u062f \u0627\u0644\u0646\u0627\u0635\u0631", "amenity": "hospital", "name:ar": "\u0645\u0635\u062d\u0629 \u0641\u0632\u0627\u0646 \u0627\u0644\u0627\u064a\u0648\u0627\u0626\u064a\u0629", "name:en": "Sanatorium Fezzan lodging"}}, {"type": "way", "id": 331330813, "center": {"lat": 27.0279861, "lon": 14.4463783}, "nodes": [3383932568, 3383932569, 3383932570, 3383932571, 3383932572, 3383932568], "tags": {"amenity": "hospital", "building": "yes", "healthcare": "hospital", "name": "\u0645\u0633\u062a\u0648\u0635\u0641 \u0627\u0644\u062b\u0627\u0646\u0648\u064a\u0629", "name:ar": "\u0645\u0633\u062a\u0648\u0635\u0641 \u0627\u0644\u062b\u0627\u0646\u0648\u064a\u0629", "name:en": "Air Secondary Hospital", "operator": "Secondary district hospital"}}, {"type": "way", "id": 331357295, "center": {"lat": 27.0266216, "lon": 14.4317319}, "nodes": [3384168938, 3384168939, 3384168940, 3384168941, 3384168938], "tags": {"addr:street": "\u0637\u0631\u064a\u0642 \u0627\u0644\u062f\u0627\u0626\u0631\u064a \u0627\u0644\u062b\u0627\u0646\u064a", "amenity": "hospital", "healthcare": "hospital", "name": "\u0639\u064a\u0627\u062f\u0629 \u0627\u0644\u0633\u0643\u0631", "name:ar": "\u0627\u0644\u0645\u0631\u0643\u0632 \u0627\u0644\u0635\u062d\u064a \u0627\u0644\u0642\u0631\u0636\u0629", "name:en": "Diabetes clinic"}}, {"type": "way", "id": 331503812, "center": {"lat": 29.1635965, "lon": 16.1481129}, "nodes": [3385792450, 3385792451, 3385792452, 3385792453, 3385792450], "tags": {"addr:street": "waddan- zillah \u0648\u062f\u0627\u0646-\u0632\u0644\u0647", "amenity": "hospital", "name": "\u0645\u0633\u062a\u0634\u0641\u064a \u0648\u062f\u0651\u0627\u0646 \u0627\u0644\u0639\u0627\u0645", "name:ar": "\u0645\u0633\u062a\u0634\u0641\u064a \u0648\u062f\u0651\u0627\u0646 \u0627\u0644\u0639\u0627\u0645", "name:en": "WADDAN General Hospital"}}, {"type": "way", "id": 378763043, "center": {"lat": 27.2088445, "lon": 14.6277152}, "nodes": [3821597776, 3821597777, 3821597778, 3821597779, 3821597776], "tags": {"amenity": "hospital", "healthcare": "hospital", "healthcare:speciality": "general", "name": "\u0645\u0633\u062a\u0648\u0635\u0641 \u062a\u0645\u0646\u0647\u0646\u062a", "name:ar": "\u0645\u0633\u062a\u0648\u0635\u0641 \u062a\u0645\u0646\u0647\u0646\u062a", "name:en": "Temenhint Clinic", "operator:type": "public"}}, {"type": "way", "id": 407699771, "center": {"lat": 29.1228689, "lon": 15.9396209}, "nodes": [4097241505, 4097241506, 4097241507, 4097241508, 4097241505], "tags": {"addr:city": "\u0647\u0648\u0646", "amenity": "hospital", "healthcare": "hospital", "name": "\u0645\u0633\u062a\u0634\u0641\u0649 \u0627\u0644\u062a\u0623\u0645\u064a\u0646", "name:ar": "\u0645\u0633\u062a\u0634\u0641\u0649 \u0627\u0644\u062a\u0623\u0645\u064a\u0646", "name:en": "Insurance Hospital", "name:es": "Hospital de Seguros"}}, {"type": "way", "id": 527684990, "center": {"lat": 24.9593767, "lon": 10.1841868}, "nodes": [5129673501, 5129673502, 5129673503, 7808311321, 5129673504, 7808311318, 5129673505, 5129673501], "tags": {"amenity": "hospital", "healthcare": "hospital"}}, {"type": "way", "id": 568467529, "center": {"lat": 28.5500941, "lon": 17.5323225}, "nodes": [5468964796, 5468964797, 5468964798, 5468964799, 5468964796], "tags": {"addr:city": "\u0632\u0644\u0629", "amenity": "hospital", "healthcare": "hospital", "name": "\u0645\u0633\u062a\u0634\u0641\u064a \u0632\u0644\u0629", "name:ar": "\u0645\u0633\u062a\u0634\u0641\u064a \u0632\u0644\u0629", "name:en": "Zalla Hospital"}}, {"type": "way", "id": 772967166, "center": {"lat": 27.484985, "lon": 13.3233149}, "nodes": [7217003647, 7217003648, 7217003649, 7217003650, 7217003647], "tags": {"addr:city": "\u0648\u0646\u0632\u0631\u064a\u0643", "addr:street": "\u0627\u0628\u0631\u0627\u0643 -\u0627\u062f\u0631\u064a", "amenity": "hospital", "emergency": "yes", "healthcare": "hospital", "healthcare:speciality": "general", "name": "\u0645\u0633\u062a\u0634\u0641\u0649 \u0648\u0646\u0632\u0631\u064a\u0643 \u0627\u0644\u0642\u0631\u0648\u064a", "name:ar": "\u0645\u0633\u062a\u0634\u0641\u0649 \u0648\u0646\u0632\u0631\u064a\u0643 \u0627\u0644\u0642\u0631\u0648\u064a", "name:en": "Wonzeric Hospital", "operator": "\u0648\u0632\u0627\u0631\u0629 \u0627\u0644\u0635\u062d\u0629 \u0627\u0644\u0644\u064a\u0628\u064a\u0629", "operator:type": "public"}}, {"type": "way", "id": 782825097, "center": {"lat": 29.0386542, "lon": 15.6674944}, "nodes": [7310464257, 7310464264, 7310464268, 7310464247, 7310464257], "tags": {"amenity": "hospital", "healthcare": "hospital"}}, {"type": "way", "id": 789952076, "center": {"lat": 27.0449651, "lon": 14.4260398}, "nodes": [4427106391, 7385653391, 7385653392, 7385653393, 7385653394, 7385653395, 7385653396, 7385653397, 4427106391], "tags": {"amenity": "hospital", "healthcare": "hospital"}}, {"type": "way", "id": 790281631, "center": {"lat": 29.981219, "lon": 14.259652}, "nodes": [4452969389, 7388226219, 7388226220, 7388226221, 4452969389], "tags": {"addr:street": "\u0637\u0631\u064a\u0642 \u0645\u0632\u062f\u0629-\u0628\u0631\u0627\u0643", "amenity": "hospital", "healthcare": "hospital", "name": "\u0645\u062c\u0645\u0639 \u0627\u0644\u0634\u0648\u064a\u0631\u0641 \u0627\u0644\u0635\u062d\u064a", "name:ar": "\u0645\u0633\u062a\u0634\u0641\u064a \u0627\u0644\u0634\u0648\u064a\u0631\u0641", "name:en": "Shuirif  General Hospital", "opening_hours": "24/7"}}, {"type": "way", "id": 790401760, "center": {"lat": 25.9166467, "lon": 13.9248133}, "nodes": [4515136297, 7389467678, 7389467679, 7389467680, 4515136297], "tags": {"addr:city": "\u0645\u0631\u0632\u0642", "amenity": "hospital", "healthcare": "hospital", "name": "\u0645\u0633\u062a\u0634\u0641\u0649 \u0627\u0644\u062f\u0631\u0646", "name:ar": "\u0645\u0633\u062a\u0634\u0641\u0649 \u0627\u0644\u062f\u0631\u0646", "name:en": "Tuberculosis Hospital"}}, {"type": "way", "id": 790401869, "center": {"lat": 27.0407284, "lon": 14.4337981}, "nodes": [4515195989, 7389493504, 7389493505, 7389493506, 4515195989], "tags": {"amenity": "hospital", "healthcare": "hospital", "name": "\u0645\u0633\u062a\u0648\u0635\u0641 \u0627\u0644\u0635\u062d\u0629 \u0627\u0644\u0645\u062f\u0631\u0633\u064a\u0629", "name:ar": "\u0645\u0633\u062a\u0648\u0635\u0641 \u0627\u0644\u0635\u062d\u0629 \u0627\u0644\u0645\u062f\u0631\u0633\u064a\u0629", "name:en": "HealthSchool"}}, {"type": "way", "id": 791674400, "center": {"lat": 26.5581822, "lon": 13.2476072}, "nodes": [3298362116, 7401089632, 7401089633, 7401089634, 3298362116], "tags": {"amenity": "hospital", "healthcare": "hospital", "name": "\u0645\u0631\u0643\u0632 \u062a\u0643\u0631\u0643\u064a\u0628\u0629 \u0627\u0644\u0637\u0628\u064a;\u0645\u0631\u0643\u0632 \u062a\u0643\u0631\u0643\u064a\u0628\u0629 \u0627\u0644\u0635\u062d\u064a", "name:ar": "\u0645\u0631\u0643\u0632 \u062a\u0643\u0631\u0643\u064a\u0628\u0629 \u0627\u0644\u0637\u0628\u064a;\u0645\u0631\u0643\u0632 \u062a\u0643\u0631\u0643\u064a\u0628\u0629 \u0627\u0644\u0635\u062d\u064a", "name:en": "Takreba Medical Center", "website": "https://www.facebook.com/pages/%D8%A7%D9%84%D9%85%D8%B1%D9%83%D8%B2-%D8%A7%D9%84%D8%B5%D8%AD%D9%8A-%D8%AA%D9%83%D8%B1%D9%83%D9%8A%D8%A8%D8%A9-TMC/1516537855228466"}}, {"type": "way", "id": 791711111, "center": {"lat": 27.0415584, "lon": 14.4336622}, "nodes": [4706974291, 7401426630, 7401426631, 7401426632, 4706974291], "tags": {"addr:street": "\u0637\u0631\u064a\u0642 \u0627\u0644\u062f\u0627\u0626\u0631\u064a \u0627\u0644\u062b\u0627\u0646\u064a", "amenity": "hospital", "healthcare": "hospital", "name": "\u0645\u0635\u062d\u0629 \u0627\u0644\u0645\u0647\u062f\u064a\u0629 \u0627\u0644\u0627\u064a\u0648\u0627\u0621\u064a\u0629", "name:ar": "\u0645\u0635\u062d\u0629 \u0627\u0644\u0645\u0647\u062f\u064a\u0629 \u0627\u0644\u0627\u0626\u0648\u0627\u0626\u064a\u0629", "name:en": "AL MAHDIA Clinic"}}, {"type": "way", "id": 791712199, "center": {"lat": 27.0206939, "lon": 14.4553625}, "nodes": [4708564089, 7401455579, 7401455580, 7401455581, 7401455582, 7401455583, 7401455584, 7401457585, 7401457586, 7401457587, 4708564089], "tags": {"addr:street": "\u0637\u0631\u064a\u0642 \u0627\u0644\u0645\u0637\u0627\u0631", "amenity": "hospital", "healthcare": "hospital", "name": "\u0645\u0635\u062d\u0629 \u0627\u0644\u0627\u0645\u0644 \u0627\u0644\u0627\u064a\u0648\u0627\u0621\u064a\u0629", "name:ar": "\u0645\u0635\u062d\u0629 \u0627\u0644\u0627\u0645\u0644 \u0627\u0644\u0627\u064a\u0648\u0627\u0626\u064a\u0629", "name:en": "AL AMAL Clinic"}}, {"type": "way", "id": 791723554, "center": {"lat": 29.2260463, "lon": 19.203601}, "nodes": [4795127621, 7401538036, 7401538037, 7401538038, 4795127621], "tags": {"amenity": "hospital", "healthcare": "hospital", "name": "\u0639\u064a\u0627\u062f\u0629 \u0645\u0631\u0627\u062f\u0629", "name:ar": "\u0639\u064a\u0627\u062f\u0629 \u0645\u0631\u0627\u062f\u0629", "name:en": "Maradah Clinic"}}, {"type": "way", "id": 792052314, "center": {"lat": 24.9509409, "lon": 10.0819569}, "nodes": [6370238698, 7404714494, 7404714495, 7404714496, 6370238698], "tags": {"addr:city": "\u0627\u0644\u0641\u064a\u0648\u062a", "amenity": "hospital", "healthcare": "hospital", "name": "\u0627\u0644\u0645\u0631\u0643\u0632 \u0627\u0644\u0635\u062d\u064a - \u0627\u0644\u0641\u064a\u0648\u062a", "name:ar": "\u0627\u0644\u0645\u0631\u0643\u0632 \u0627\u0644\u0635\u062d\u064a - \u0627\u0644\u0641\u064a\u0648\u062a", "name:en": "Health Center - El-Fayout", "name:fr": "Centre de Sant\u00e9r - El-Fayout"}}, {"type": "way", "id": 792057808, "center": {"lat": 24.9623002, "lon": 10.1765465}, "nodes": [6452297485, 7404735903, 7404735904, 7404735905, 7404735906, 7404735907, 7404735908, 7404735909, 7404735910, 7404735911, 7404735912, 7404735913, 7404735914, 7404735915, 7404735916, 7404735917, 7404735918, 7404735919, 7404735920, 7404735921, 7404735922, 7404735923, 6452297485], "tags": {"addr:city": "\u063a\u0627\u062a", "addr:city:ar": "\u063a\u0627\u062a", "amenity": "hospital", "healthcare": "hospital", "name": "\u0627\u0644\u0645\u0631\u0643\u0632 \u0627\u0644\u0635\u062d\u064a \u063a\u0627\u062a", "name:ar": "\u0627\u0644\u0645\u0631\u0643\u0632 \u0627\u0644\u0635\u062d\u064a \u063a\u0627\u062a", "name:en": "GATT Clinic", "name:fr": "Centre de Sant\u00e9 Ghat"}}, {"type": "way", "id": 792058164, "center": {"lat": 25.9338266, "lon": 14.4286272}, "nodes": [6459958087, 7404768673, 7806872567, 7404768674, 7404768675, 6459958087], "tags": {"addr:city": "\u062a\u0631\u0627\u063a\u0646", "amenity": "hospital", "emergency": "yes", "healthcare": "hospital", "healthcare:speciality": "general", "name": "\u0645\u0633\u062a\u0634\u0641\u064a \u062a\u0631\u0627\u063a\u0646", "name:ar": "\u0645\u0633\u062a\u0634\u0641\u064a \u062a\u0631\u0627\u063a\u0646", "name:en": "TRAGIN Hospital"}}, {"type": "way", "id": 792058808, "center": {"lat": 25.7799922, "lon": 10.5611385}, "nodes": [6459992787, 7404774897, 7404774898, 7404774899, 6459992787], "tags": {"amenity": "hospital", "healthcare": "hospital", "name": "\u0627\u0644\u0645\u0631\u0643\u0632 \u0627\u0644\u0635\u062d\u064a \u0627\u0644\u0639\u0648\u064a\u0646\u0627\u062a", "name:ar": "\u0627\u0644\u0645\u0631\u0643\u0632 \u0627\u0644\u0635\u062d\u064a \u0627\u0644\u0639\u0648\u064a\u0646\u0627\u062a", "name:en": "Al-Owainat Health Center"}}, {"type": "way", "id": 792109223, "center": {"lat": 26.1599301, "lon": 15.1294664}, "nodes": [6915141286, 8320990814, 7405299028, 7405299029, 7405299030, 6915141286], "tags": {"addr:city": "\u0632\u0648\u064a\u0644\u0629", "amenity": "hospital", "healthcare": "hospital", "name": "\u0645\u0633\u062a\u0634\u0641\u064a \u0632\u0648\u064a\u0644\u0629", "name:ar": "\u0645\u0633\u062a\u0634\u0641\u064a \u0632\u0648\u064a\u0644\u0629", "name:en": "Zawelah Hospital"}}, {"type": "way", "id": 792109790, "center": {"lat": 26.3941421, "lon": 15.7853244}, "nodes": [6915154485, 7405301221, 7405301222, 7405301223, 6915154485], "tags": {"addr:city": "\u062a\u0645\u0633\u0629", "amenity": "hospital", "healthcare": "hospital", "name": "\u0645\u0633\u062a\u0634\u0641\u064a \u062a\u0645\u0633\u0629", "name:ar": "\u0645\u0633\u062a\u0634\u0641\u064a \u062a\u0645\u0633\u0629", "name:en": "Temassah Hospital"}}, {"type": "way", "id": 792110469, "center": {"lat": 26.1295363, "lon": 14.7360031}, "nodes": [6915185886, 7405280513, 7405280514, 7405280515, 6915185886], "tags": {"addr:city": "\u0623\u0645 \u0627\u0644\u0623\u0631\u0627\u0646\u0628", "amenity": "hospital", "healthcare": "hospital", "name": "\u0645\u0633\u062a\u0634\u0641\u064a \u0623\u0645 \u0627\u0644\u0623\u0631\u0627\u0646\u0628", "name:ar": "\u0645\u0633\u062a\u0634\u0641\u064a \u0623\u0645 \u0627\u0644\u0623\u0631\u0627\u0646\u0628", "name:en": "Umm Aranib Hospital"}}, {"type": "way", "id": 813483680, "center": {"lat": 24.8964281, "lon": 10.1830189}, "nodes": [7598756462, 7598756463, 7598756464, 7598756465, 7598756462], "tags": {"addr:city": "\u0627\u0644\u0628\u0631\u0643\u062a", "addr:city:ar": "\u0627\u0644\u0628\u0631\u0643\u062a", "amenity": "hospital", "healthcare": "hospital", "language:ar": "main"}}, {"type": "way", "id": 813499596, "center": {"lat": 25.9142177, "lon": 13.925896}, "nodes": [7598897120, 7598897121, 7598897122, 7598897123, 7598897120], "tags": {"amenity": "hospital", "healthcare": "hospital", "name": "\u0645\u0633\u062a\u0634\u0641\u064a \u0645\u0631\u0632\u0642 \u0627\u0644\u0639\u0627\u0645", "name:ar": "\u0645\u0633\u062a\u0634\u0641\u064a \u0645\u0631\u0632\u0642 \u0627\u0644\u0639\u0627\u0645", "name:en": "Murzuq General Hospital"}}, {"type": "way", "id": 813629485, "center": {"lat": 27.369545, "lon": 14.9077246}, "nodes": [7600100585, 7600100586, 7600100587, 7600100588, 7600100585], "tags": {"amenity": "hospital", "healthcare": "hospital"}}, {"type": "way", "id": 813662092, "center": {"lat": 29.0729226, "lon": 15.7808226}, "nodes": [7600370918, 7600370919, 7600370920, 7600370921, 7600370918], "tags": {"amenity": "hospital", "healthcare": "hospital"}}, {"type": "way", "id": 813662095, "center": {"lat": 29.1321135, "lon": 15.9462265}, "nodes": [7600370949, 7600370950, 7600370951, 7600370952, 7600370949], "tags": {"amenity": "hospital", "healthcare": "hospital", "name": "\u0645\u0633\u062a\u0634\u0641\u064a \u0627\u0644\u0639\u0627\u0641\u064a\u0629", "name:ar": "\u0645\u0633\u062a\u0634\u0641\u064a \u0627\u0644\u0639\u0627\u0641\u064a\u0629", "name:en": "Al Afiya Hospital"}}, {"type": "way", "id": 817793426, "center": {"lat": 27.4415024, "lon": 13.0484835}, "nodes": [7637465323, 7637465338, 7637465317, 7637465298, 7637465323], "tags": {"amenity": "hospital", "healthcare": "hospital", "name": "\u0645\u0633\u062a\u0634\u0641\u064a \u0625\u062f\u0631\u064a", "name:ar": "\u0645\u0633\u062a\u0634\u0641\u064a \u0625\u062f\u0631\u064a", "name:en": "Edri Hospital", "operator:type": "government"}}, {"type": "way", "id": 817793428, "center": {"lat": 27.4898869, "lon": 13.0280598}, "nodes": [7637465341, 7637465302, 7637465333, 7637465312, 7637465341], "tags": {"amenity": "hospital", "healthcare": "hospital", "name": "\u0645\u0633\u062a\u0634\u0641\u064a \u0627\u0644\u0645\u0646\u0635\u0648\u0631\u0629", "name:ar": "\u0645\u0633\u062a\u0634\u0641\u064a \u0627\u0644\u0645\u0646\u0635\u0648\u0631\u0629", "name:en": "Al Mansoura Hospital"}}, {"type": "way", "id": 817793431, "center": {"lat": 27.4877651, "lon": 13.1247086}, "nodes": [7637465345, 7637465306, 7637465337, 7637465316, 7637465345], "tags": {"amenity": "hospital", "healthcare": "hospital", "name": "\u0645\u0633\u062a\u0634\u0641\u064a \u062a\u0645\u0633\u0627\u0646", "name:ar": "\u0645\u0633\u062a\u0634\u0641\u064a \u062a\u0645\u0633\u0627\u0646", "name:en": "Timsan Hospital"}}, {"type": "way", "id": 820291601, "center": {"lat": 27.5505464, "lon": 13.6284036}, "nodes": [7659492303, 7659492297, 7659492295, 7659492292, 7659492303], "tags": {"amenity": "hospital", "healthcare": "hospital"}}, {"type": "way", "id": 820291602, "center": {"lat": 27.5508239, "lon": 13.6311703}, "nodes": [7659492311, 7659492307, 7659492304, 7659492301, 7659492298, 7659492311], "tags": {"amenity": "hospital", "healthcare": "hospital", "name": "\u0645\u0633\u062a\u0634\u0641\u064a \u0628\u0631\u0642\u0646", "name:ar": "\u0645\u0633\u062a\u0634\u0641\u064a \u0628\u0631\u0642\u0646", "name:en": "Burgan Hospital"}}, {"type": "way", "id": 820332349, "center": {"lat": 27.4896091, "lon": 14.0242995}, "nodes": [7659935845, 7659935813, 7659935839, 7659935861, 7659935845], "tags": {"amenity": "hospital", "healthcare": "hospital", "name": "\u0645\u0633\u062a\u0634\u0641\u064a \u0645\u062d\u0631\u0648\u0642\u0629", "name:ar": "\u0645\u0633\u062a\u0634\u0641\u064a \u0645\u062d\u0631\u0648\u0642\u0629", "name:en": "Mahrouqa Hospital"}}, {"type": "way", "id": 827060189, "center": {"lat": 27.5413539, "lon": 14.2821713}, "nodes": [7721456166, 7721456167, 7721456168, 7721456169, 7721456170, 7721456166], "tags": {"amenity": "hospital", "healthcare": "hospital"}}, {"type": "way", "id": 827065021, "center": {"lat": 27.5375374, "lon": 14.2572644}, "nodes": [7721536512, 7721536513, 7721536514, 7721536515, 7721536512], "tags": {"amenity": "hospital", "healthcare": "hospital", "name": "\u0645\u0633\u062a\u0634\u0641\u064a \u0627\u0644\u0639\u0627\u0641\u064a\u0629", "name:ar": "\u0645\u0633\u062a\u0634\u0641\u064a \u0627\u0644\u0639\u0627\u0641\u064a\u0629", "name:en": "Afiya Hospital"}}, {"type": "way", "id": 829646542, "center": {"lat": 27.5856286, "lon": 14.3530474}, "nodes": [7743571380, 7743571364, 7743571373, 7743571350, 7743571358, 7743571367, 7743571380], "tags": {"amenity": "hospital", "healthcare": "hospital", "healthcare:speciality": "general", "name": "\u0645\u0633\u062a\u0634\u0641\u064a \u0642\u064a\u0631\u0629", "name:ar": "\u0645\u0633\u062a\u0634\u0641\u064a \u0642\u064a\u0631\u0629", "name:en": "Ghira Hospital", "operator:type": "public"}}, {"type": "way", "id": 833500958, "center": {"lat": 29.7406876, "lon": 15.2166198}, "nodes": [7780828621, 7780828622, 7780828623, 7780828624, 7780828621], "tags": {"amenity": "hospital", "healthcare": "hospital"}}, {"type": "way", "id": 833500959, "center": {"lat": 29.7400496, "lon": 15.2161399}, "nodes": [7780828625, 7780828626, 7780828627, 7780828628, 7780828625], "tags": {"amenity": "hospital", "healthcare": "hospital"}}, {"type": "way", "id": 836079796, "center": {"lat": 25.838442, "lon": 15.007251}, "nodes": [7803705573, 7803705574, 7803705571, 7803705568, 7803705572, 7803705569, 7803705573], "tags": {"amenity": "hospital", "healthcare": "hospital"}}, {"type": "way", "id": 836083385, "center": {"lat": 24.3300558, "lon": 14.2667645}, "nodes": [7803752125, 7803752123, 7803752126, 7803752129, 7803752125], "tags": {"amenity": "hospital", "healthcare": "hospital", "healthcare:speciality": "general", "name": "\u0645\u0633\u062a\u0634\u0641\u064a \u062a\u062c\u0631\u0647\u064a", "name:ar": "\u0645\u0633\u062a\u0634\u0641\u064a \u062a\u062c\u0631\u0647\u064a", "name:en": "Tjarhi Hospital", "operator:type": "public"}}, {"type": "way", "id": 838372757, "center": {"lat": 29.2245126, "lon": 19.2030737}, "nodes": [7824437613, 7824437623, 7824437603, 7824437634, 7824437610, 7824437632, 7824437613], "tags": {"amenity": "hospital", "healthcare": "hospital"}}, {"type": "way", "id": 841061573, "center": {"lat": 29.1696051, "lon": 16.1559589}, "nodes": [7847683108, 7847683100, 7847683107, 7847683094, 7847683108], "tags": {"amenity": "hospital", "healthcare": "hospital", "name": "\u0645\u0633\u062a\u0648\u0635\u0641 \u0627\u0644\u0635\u0648\u0627\u0646", "name:ar": "\u0645\u0633\u062a\u0648\u0635\u0641 \u0627\u0644\u0635\u0648\u0627\u0646", "name:en": "Assawan Hospital"}}, {"type": "way", "id": 841080638, "center": {"lat": 29.1628729, "lon": 16.1340125}, "nodes": [7847836957, 7847836954, 7847836956, 7847836959, 7847836953, 7847836955, 7847836958, 7847836952, 7847836957], "tags": {"amenity": "hospital", "healthcare": "hospital"}}, {"type": "way", "id": 845096041, "center": {"lat": 24.8880916, "lon": 10.1834006}, "nodes": [7884326258, 7884326249, 7884326244, 7884326280, 7884326258], "tags": {"addr:city": "\u0627\u0644\u0628\u0631\u0643\u062a", "addr:city:ar": "\u0627\u0644\u0628\u0631\u0643\u062a", "amenity": "hospital", "healthcare": "hospital", "language:ar": "main"}}, {"type": "way", "id": 845096042, "center": {"lat": 24.9639917, "lon": 10.178501}, "nodes": [7884326255, 7884326246, 7884326241, 7884326273, 7884326268, 7884326259, 7884326253, 7884326274, 7884326269, 7884326240, 7884326255], "tags": {"amenity": "hospital", "healthcare": "hospital"}}, {"type": "way", "id": 914378928, "center": {"lat": 24.9498497, "lon": 10.1608806}, "nodes": [8494073130, 8494037501, 8494037509, 8494037516, 8494073130], "tags": {"amenity": "hospital", "healthcare": "hospital"}}, {"type": "way", "id": 914378993, "center": {"lat": 24.9602809, "lon": 10.1574875}, "nodes": [8494036507, 8494036508, 8494036509, 8494036506, 8494036507], "tags": {"amenity": "hospital", "healthcare": "hospital"}}, {"type": "way", "id": 914414916, "center": {"lat": 25.4157926, "lon": 10.356369}, "nodes": [8494333690, 8494333698, 8494333685, 8494333672, 8494333690], "tags": {"amenity": "hospital", "healthcare": "hospital", "healthcare:speciality": "Gerenal", "name": "\u0627\u0644\u0645\u0631\u0643\u0632 \u0627\u0644\u0635\u062d\u064a \u062a\u0647\u0627\u0644\u0629", "name:en": "TAHAL HealtyCare", "operator:type": "government"}}, {"type": "way", "id": 914745970, "center": {"lat": 25.9239291, "lon": 13.9164364}, "nodes": [8497279956, 8497279968, 8497279975, 8497279960, 8497279956], "tags": {"amenity": "hospital", "healthcare": "hospital", "healthcare:speciality": "psychiatry", "name": "\u0645\u0633\u062a\u0634\u0641\u064a \u0627\u0644\u0639\u0644\u0627\u062c \u0627\u0644\u0637\u0628\u064a\u0639\u064a -\u0645\u0631\u0632\u0642", "name:en": "Physiotherapy Hospital - Murzuq", "operator:type": "public"}}, {"type": "way", "id": 929703287, "center": {"lat": 27.4929695, "lon": 13.9737001}, "nodes": [8621885639, 8621885636, 8621885637, 8621885638, 8621885639], "tags": {"amenity": "hospital", "healthcare": "hospital", "name": "\u0645\u0633\u062a\u0648\u0635\u0641 \u0627\u0644\u0642\u0631\u0636\u0629", "name:en": "Gorda Hospital"}}, {"type": "way", "id": 929710118, "center": {"lat": 27.5379475, "lon": 14.1634632}, "nodes": [8621930366, 8621930384, 8621930365, 8621930373, 8621930366], "tags": {"amenity": "hospital", "healthcare": "hospital"}}, {"type": "way", "id": 929950983, "center": {"lat": 27.5727519, "lon": 13.6205932}, "nodes": [8623810113, 8623810109, 8623810112, 8623810107, 8623810113], "tags": {"amenity": "hospital", "healthcare": "hospital", "name": "\u0645\u0633\u062a\u0648\u0635\u0641 \u0627\u0628\u0648\u0642\u062f\u0642\u0648\u062f", "name:en": "BOGADGOD Hospital"}}, {"type": "way", "id": 929955021, "center": {"lat": 27.5588898, "lon": 13.5481382}, "nodes": [8623815036, 8623815030, 8623815035, 8623815040, 8623815036], "tags": {"amenity": "hospital", "healthcare": "hospital", "name": "\u0645\u0633\u062a\u0648\u0635\u0641 \u0627\u0644\u0632\u0647\u0631\u0627\u0621", "name:en": "AZzahraa Hospital"}}, {"type": "way", "id": 972604179, "center": {"lat": 27.4998905, "lon": 13.9471847}, "nodes": [9001695493, 9001695489, 9001695486, 9001695484, 9001695493], "tags": {"amenity": "hospital", "healthcare": "hospital"}}, {"type": "way", "id": 972604180, "center": {"lat": 27.5752379, "lon": 14.1945152}, "nodes": [9001695483, 9001695479, 9001695498, 9001695496, 9001695483], "tags": {"amenity": "hospital", "healthcare": "hospital"}}, {"type": "way", "id": 972702213, "center": {"lat": 26.7631498, "lon": 13.998948}, "nodes": [9002549957, 9002549954, 9002549952, 9002549961, 9002549957], "tags": {"amenity": "hospital", "healthcare": "hospital"}}, {"type": "way", "id": 1015706185, "center": {"lat": 24.8965406, "lon": 10.1841326}, "nodes": [9368821638, 9368821646, 9368821666, 9368821671, 9368821638], "tags": {"amenity": "hospital", "healthcare": "hospital", "healthcare:speciality": "general"}}, {"type": "way", "id": 1016679067, "center": {"lat": 27.8136174, "lon": 16.3885947}, "nodes": [9377340041, 9377340042, 9377340043, 9377340044, 9377340041], "tags": {"amenity": "hospital", "healthcare": "hospital"}}]}