{"version": 0.6, "generator": "Overpass API 0.7.61.5 4133829e", "osm3s": {"timestamp_osm_base": "2023-10-31T20:54:41Z", "copyright": "The data included in this document is from www.openstreetmap.org. The data is made available under ODbL."}, "elements": [{"type": "node", "id": 313344849, "lat": 28.0979772, "lon": -16.6821766, "tags": {"amenity": "hospital", "name": "Centro de Salud Arona"}}, {"type": "node", "id": 315506004, "lat": 28.269544, "lon": -16.8070971, "tags": {"amenity": "hospital", "name": "Consultorio Arguayo"}}, {"type": "node", "id": 319563720, "lat": 28.1648958, "lon": -17.1979445, "tags": {"amenity": "hospital"}}, {"type": "node", "id": 347621208, "lat": 28.1034083, "lon": -15.4228473, "tags": {"amenity": "hospital", "healthcare": "hospital", "healthcare:speciality": "militar", "name": "Hospital Juan Carlos I", "old_name": "Hospital Militar", "operator": "Ministerio de Defensa", "operator:type": "government"}}, {"type": "node", "id": 392288796, "lat": 28.7708734, "lon": -17.9792926, "tags": {"amenity": "hospital", "name": "Centro de Salud Puntagorda"}}, {"type": "node", "id": 435361082, "lat": 28.1433317, "lon": -15.4323758, "tags": {"amenity": "hospital", "name": "Clinica de San Jos\u00e9"}}, {"type": "node", "id": 582735935, "lat": 28.1789636, "lon": -17.265757, "tags": {"addr:country": "ES", "addr:housenumber": "2", "amenity": "hospital", "name": "Centro Salud"}}, {"type": "node", "id": 599980711, "lat": 28.1649468, "lon": -14.2227286, "tags": {"amenity": "hospital"}}, {"type": "node", "id": 631608473, "lat": 28.9745045, "lon": -13.5661249, "tags": {"amenity": "hospital", "name": "Hospital General de Lanzarote", "wikidata": "Q30269937"}}, {"type": "node", "id": 903036796, "lat": 28.065859, "lon": -16.7286961, "tags": {"amenity": "hospital", "name": "Asepeyo"}}, {"type": "node", "id": 1229548446, "lat": 28.4150315, "lon": -16.5488231, "tags": {"amenity": "hospital", "emergency": "no", "name": "HOSPITEN Tamaragua"}}, {"type": "node", "id": 1257830021, "lat": 27.9941902, "lon": -15.3970858, "tags": {"amenity": "hospital", "healthcare": "hospital", "name": "Centro de Salud El Calero"}}, {"type": "node", "id": 1268312554, "lat": 27.9124701, "lon": -15.4004935, "tags": {"amenity": "hospital", "healthcare": "hospital", "name": "Consultorio de Carrizal", "wheelchair": "yes"}}, {"type": "node", "id": 1572872289, "lat": 29.0930144, "lon": -13.47046, "tags": {"addr:housename": "Consultorio Local de Mala", "amenity": "hospital", "emergency": "no", "name": "Consultorio Local de Mala"}}, {"type": "node", "id": 1617727984, "lat": 28.9301176, "lon": -13.6589737, "tags": {"amenity": "hospital"}}, {"type": "node", "id": 1629854439, "lat": 28.4990311, "lon": -13.8629375, "tags": {"amenity": "hospital", "name": "Cruz Roja Espa\u00f1ola"}}, {"type": "node", "id": 1663985842, "lat": 28.0488966, "lon": -14.3449011, "tags": {"amenity": "hospital", "healthcare": "hospital", "name": "Cem"}}, {"type": "node", "id": 1732758345, "lat": 29.0004792, "lon": -13.6113511, "tags": {"amenity": "hospital", "emergency": "yes", "name": "Centro de Salud de San Bartolom\u00e9"}}, {"type": "node", "id": 1780457607, "lat": 28.2952715, "lon": -16.5651505, "tags": {"addr:street": "Carretera del Teide", "amenity": "hospital", "emergency": "no", "name": "BASE DEL SUC (112)", "name:en": "emergency station SUC 112", "opening_hours": "Mo-Su 10:00-18:00"}}, {"type": "node", "id": 1875415424, "lat": 28.1158068, "lon": -15.4347932, "tags": {"amenity": "hospital", "emergency": "yes", "name": "Centro de Salud de Schamann"}}, {"type": "node", "id": 1909945901, "lat": 28.0087606, "lon": -15.3958721, "tags": {"amenity": "hospital", "healthcare": "hospital", "name": "Centro de Salud de Las Remudas"}}, {"type": "node", "id": 1922774366, "lat": 28.4819061, "lon": -16.2405176, "tags": {"amenity": "hospital", "emergency": "yes", "name": "Centro de Salud. Casa del Mar"}}, {"type": "node", "id": 2133755235, "lat": 28.1371104, "lon": -15.4300417, "tags": {"amenity": "hospital", "emergency": "yes", "name": "Hospital Perpetuo Socorro"}}, {"type": "node", "id": 2177637215, "lat": 28.3848128, "lon": -16.6847071, "tags": {"amenity": "hospital", "healthcare": "hospital", "name": "Hospital Norte"}}, {"type": "node", "id": 2406178800, "lat": 28.5109593, "lon": -16.1811398, "tags": {"amenity": "hospital", "emergency": "yes", "name": "Cruz Roja. Playa", "wheelchair": "yes"}}, {"type": "node", "id": 2441317544, "lat": 28.3860642, "lon": -16.53276, "tags": {"addr:city": "La Orotava", "addr:housenumber": "2", "addr:postcode": "38312", "addr:street": "Calle de las Magnolias", "amenity": "hospital", "emergency": "yes", "healthcare": "hospital", "name": "Cl\u00ednica Vida", "phone": "+34 922 330 550", "website": "https://www.clinicasvida.es/index.php/services/columns-3/item/17-la-orotava", "wheelchair": "yes", "wikidata": "Q87762428"}}, {"type": "node", "id": 2450396147, "lat": 27.9919544, "lon": -15.4978896, "tags": {"amenity": "hospital", "emergency": "yes", "healthcare": "hospital", "name": "Centro de Salud Valsequillo"}}, {"type": "node", "id": 2511867048, "lat": 28.0295914, "lon": -17.1979616, "tags": {"amenity": "hospital", "emergency": "yes", "healthcare": "hospital", "name": "Centro de Salud Playa de Santiago"}}, {"type": "node", "id": 2632229462, "lat": 28.3739772, "lon": -16.8509603, "tags": {"amenity": "hospital", "name": "Centro m\u00e9dico Isla Baja"}}, {"type": "node", "id": 2678521622, "lat": 28.1380748, "lon": -15.4300826, "tags": {"amenity": "hospital", "designation": "Centro Ambulatorio de Especialidades", "name": "Centro Ambulatorio de Especialidades del Instituto Social de la Marina Casa del Mar"}}, {"type": "node", "id": 2678532650, "lat": 28.0999896, "lon": -15.4487572, "tags": {"amenity": "hospital", "emergency": "no", "healthcare": "hospital", "name": "Centro de Salud de Cuevas Torres", "name:en": "Cuevas Torres Health Centre", "name:es": "Centro de Salud de Cuevas Torres"}}, {"type": "node", "id": 2678542693, "lat": 28.0962607, "lon": -15.426055, "tags": {"amenity": "hospital", "emergency": "no", "healthcare": "hospital", "name": "Centro de Salud de San Roque"}}, {"type": "node", "id": 2678542898, "lat": 28.0766207, "lon": -15.4196802, "tags": {"amenity": "hospital", "emergency": "no", "name": "Centro de Salud del Cono Sur"}}, {"type": "node", "id": 2678544466, "lat": 28.0416223, "lon": -15.4281954, "tags": {"amenity": "hospital", "emergency": "no", "name": "Consultorio Local de Marzag\u00e1n"}}, {"type": "node", "id": 2678548439, "lat": 28.0606966, "lon": -15.4604302, "tags": {"amenity": "hospital", "emergency": "no", "healthcare": "hospital", "name": "Consultorio Local de Tafira"}}, {"type": "node", "id": 2678550005, "lat": 28.0758295, "lon": -15.4749034, "tags": {"amenity": "hospital", "emergency": "no", "name": "Consultorio Local de San Lorenzo"}}, {"type": "node", "id": 2678557860, "lat": 28.0991662, "lon": -15.4754774, "tags": {"amenity": "hospital", "emergency": "yes", "healthcare": "hospital", "name": "Centro de Salud de Tamaraceite", "name:en": "Tamaraceite Health Centre", "name:es": "Centro de Salud de Tamaraceite"}}, {"type": "node", "id": 2685623999, "lat": 27.9177014, "lon": -15.4267653, "tags": {"addr:city": "Ingenio", "addr:housename": "Centro de Salud de Ingenio", "addr:postcode": "35250", "addr:street": "Calle Miguel Hern\u00e1ndez", "amenity": "hospital", "emergency": "yes", "name": "Centro de Salud de Ingenio"}}, {"type": "node", "id": 2808446401, "lat": 28.7369996, "lon": -13.8695691, "tags": {"amenity": "hospital", "healthcare": "hospital", "name": "Cruz Roja", "operator": "Cruz Roja", "operator:wikidata": "Q7178"}}, {"type": "node", "id": 3101522320, "lat": 28.0775195, "lon": -15.418703, "tags": {"addr:city": "Las Palmas de Gran Canaria", "addr:housenumber": "2", "addr:postcode": "35016", "addr:street": "Avenida de Amurga", "amenity": "hospital", "name": "Centro Atenci\u00f3n Especializada Minusv\u00e1lidos Ps\u00edquicos profundos Reina Sof\u00eda"}}, {"type": "node", "id": 3101630174, "lat": 28.0801055, "lon": -15.4260114, "tags": {"addr:postcode": "35016", "amenity": "hospital", "name": "Ciudad de San Juan de Dios"}}, {"type": "node", "id": 3113011174, "lat": 28.0680615, "lon": -16.7065845, "tags": {"amenity": "hospital", "name": "El Moj\u00f3n"}}, {"type": "node", "id": 3910186827, "lat": 27.760782, "lon": -15.568962, "tags": {"amenity": "hospital"}}, {"type": "node", "id": 3910186830, "lat": 27.7607531, "lon": -15.5697816, "tags": {"amenity": "hospital"}}, {"type": "node", "id": 3910207884, "lat": 27.762251, "lon": -15.565943, "tags": {"amenity": "hospital"}}, {"type": "node", "id": 4589020481, "lat": 28.1031603, "lon": -15.7009381, "tags": {"addr:street": "Calle M\u00e9dico Agust\u00edn del \u00c1lamo", "amenity": "hospital", "emergency": "yes", "name": "Centro de Salud de Agaete", "nohousenumber": "yes", "operator": "Servicio Canario de Salud"}}, {"type": "node", "id": 4680717291, "lat": 28.506814, "lon": -13.8664341, "tags": {"amenity": "hospital"}}, {"type": "node", "id": 4715876189, "lat": 20.5219036, "lon": -13.0518077, "tags": {"addr:city": "\u0623\u0637\u0627\u0631", "addr:postcode": "030317", "amenity": "hospital", "name": "\u0645\u0633\u062a\u0634\u0641\u0649 \u0623\u0637\u0627\u0631 \u0623\u062f\u0631\u0627\u0631", "name:ar": "\u0645\u0633\u062a\u0634\u0641\u0649 \u0623\u0637\u0627\u0631 \u0623\u062f\u0631\u0627\u0631", "name:fr": "H\u00f4pital Atar Adrar"}}, {"type": "node", "id": 4838413145, "lat": 26.1591708, "lon": -10.5572297, "tags": {"addr:city": "\u062a\u0641\u0627\u0631\u064a\u062a\u064a", "alt_name": "\u0645\u0633\u062a\u0634\u0641\u0649 \u0646\u0628\u0631\u0627\u0629;\u0645\u0633\u062a\u0634\u0641\u0649 \u0646\u0627\u0641\u0627\u0631\u0627", "alt_name:ar": "\u0645\u0633\u062a\u0634\u0641\u0649 \u0646\u0628\u0631\u0627\u0629;\u0645\u0633\u062a\u0634\u0641\u0649 \u0646\u0627\u0641\u0627\u0631\u0627", "amenity": "hospital", "healthcare": "hospital", "name": "Hospital Navarra \u0645\u0633\u062a\u0634\u0641\u0649 \u0646\u0628\u0631\u0629", "name:ar": "\u0645\u0633\u062a\u0634\u0641\u0649 \u0646\u0628\u0631\u0629", "name:es": "Hospital Navarra", "name:fr": "H\u00f4pital Navarre"}}, {"type": "node", "id": 5204750832, "lat": 28.1339714, "lon": -15.431818, "tags": {"amenity": "hospital", "name": "Hospitales San Roque Consultas Externas"}}, {"type": "node", "id": 5375587334, "lat": 27.7903972, "lon": -15.7082012, "tags": {"amenity": "hospital", "healthcare": "hospital"}}, {"type": "node", "id": 6359137876, "lat": 28.7390985, "lon": -13.8714088, "tags": {"amenity": "hospital", "healthcare": "hospital", "name": "Centro Salud Corralejo"}}, {"type": "node", "id": 7726439384, "lat": 28.1492455, "lon": -15.4258486, "tags": {"amenity": "hospital", "name": "Mutua Universal Las Palmas"}}, {"type": "node", "id": 7768191786, "lat": 28.4899261, "lon": -13.8705498, "tags": {"addr:city": "Puerto del Rosario", "addr:housenumber": "6", "addr:postcode": "35600", "addr:street": "Urb. las Granadas P18", "amenity": "hospital", "emergency": "yes"}}, {"type": "node", "id": 8213844827, "lat": 28.4262886, "lon": -11.110177, "tags": {"amenity": "hospital", "name": "\u0645\u0633\u062a\u0648\u0635\u0641 \u062d\u064a \u0639\u064a\u0646 \u0627\u0644\u0631\u062d\u0645\u0629", "name:fr": "H\u00f4p. Ain Rahma"}}, {"type": "node", "id": 8213844828, "lat": 28.4441326, "lon": -11.1111787, "tags": {"amenity": "hospital", "name": "\u0645\u0633\u062a\u0634\u0641\u0649 \u0627\u0644\u062d\u0633\u0646 \u0627\u0644\u062b\u0627\u0646\u064a", "name:fr": "H\u00f4pital Hassan II"}}, {"type": "node", "id": 8772274193, "lat": 28.4622088, "lon": -16.2501103, "tags": {"addr:city": "Santa Cruz de Tenerife", "addr:housenumber": "16", "addr:postcode": "38003", "addr:street": "Calle de Bravo Murillo", "amenity": "hospital", "healthcare": "hospital", "healthcare:speciality": "oftalmolog\u00eda", "name": "Instituto oftalmologico Amig\u00f3"}}, {"type": "node", "id": 9010737637, "lat": 27.9940851, "lon": -15.3976193, "tags": {"amenity": "hospital", "healthcare": "hospital", "name": "C.A.E. Telde"}}, {"type": "node", "id": 9945131046, "lat": 28.6726877, "lon": -17.7903818, "tags": {"addr:city": "Bre\u00f1a Alta", "addr:housenumber": "28", "addr:postcode": "38713", "addr:street": "Carretera de la Cumbre", "amenity": "hospital", "emergency": "yes", "healthcare": "hospital", "name": "Hospital Universitario de La Palma"}}, {"type": "node", "id": 10137709617, "lat": 27.9421014, "lon": -12.9231516, "tags": {"amenity": "hospital", "name": "TARFAYA"}}, {"type": "node", "id": 11102887488, "lat": 28.920985, "lon": -13.6710216, "tags": {"addr:city": "Puerto del Carmen", "addr:housenumber": "11", "addr:postcode": "35518", "addr:street": "Calle Roque Nublo", "amenity": "hospital", "email": "centroespecialidades@gmail.com", "healthcare": "dentist", "healthcare:speciality": "dentist;paediatrics", "name": "Dentista - Pediatra", "note": "Cl\u00ednica Dental y Pedi\u00e1trica en Puerto del Carmen.\n\nDental and Pediatric Clinic in Puerto del Carmen.", "opening_hours": "Mo-Su 09:00-20:00", "operator": "Centro de Especialidades M\u00e9dicas", "operator:type": "private", "payment:cash": "yes", "payment:credit_cards": "yes", "payment:mastercard": "yes", "payment:visa": "yes", "phone": "+34928514213", "wheelchair": "no"}}, {"type": "way", "id": 40016098, "center": {"lat": 28.963494, "lon": -13.5433419}, "nodes": [1165527324, 481021163, 3663234600, 3663234601, 3663234603, 344582252, 481021169, 3663234615, 3663234624, 481021172, 1165526913, 3663243845, 3663243843, 1165527324], "tags": {"amenity": "hospital", "healthcare": "hospital", "name": "Hospital Insular de Lanzarote", "phone": "+34 928 81 0000", "wikidata": "Q87762365"}}, {"type": "way", "id": 49085361, "center": {"lat": 28.0583581, "lon": -16.7251325}, "nodes": [622724635, 622724636, 622724645, 622724639, 622724648, 622724649, 622724640, 622724638, 622724641, 622724635], "tags": {"amenity": "hospital", "building": "yes", "healthcare": "hospital", "name": "Hospiten Sur", "wheelchair": "yes", "wikidata": "Q87762425"}}, {"type": "way", "id": 57014805, "center": {"lat": 28.6861431, "lon": -17.7639288}, "nodes": [711609379, 711609382, 711609392, 711609395, 711609379], "tags": {"amenity": "hospital", "emergency": "no", "healthcare": "hospital", "name": "Hospital Nuestra Sra. de Los Dolores"}}, {"type": "way", "id": 77557430, "center": {"lat": 28.4547855, "lon": -16.2839048}, "nodes": [912750050, 912750052, 912750055, 912750057, 912750059, 912750062, 912750064, 2562547917, 912750066, 912750067, 912750069, 912750071, 912750072, 912750050], "tags": {"amenity": "hospital", "building": "yes", "name": "Centro de Salud Ofra Delicias-Miramar"}}, {"type": "way", "id": 77757850, "center": {"lat": 28.4704217, "lon": -16.2535981}, "nodes": [914464808, 914464811, 914464816, 914464821, 914464808], "tags": {"amenity": "hospital", "building": "yes", "name": "Cl\u00ednica Parque", "wikidata": "Q87762424"}}, {"type": "way", "id": 124052092, "center": {"lat": 28.9745435, "lon": -13.5661202}, "nodes": [1381648744, 1587733020, 1587733028, 1587733031, 1381648788, 1587733026, 1587733022, 1587733024, 1381648680, 1587732896, 1587732849, 1587732857, 1587732910, 1381648689, 1381648744], "tags": {"amenity": "hospital", "name": "Hospital General Jose Molina Orosa"}}, {"type": "way", "id": 127310368, "center": {"lat": 28.4751112, "lon": -16.2518211}, "nodes": [1409557379, 1409557377, 1409557389, 1409557375, 1409557372, 1409557373, 1409557331, 1409557330, 1409557332, 1409557329, 1409557257, 1409557259, 1409557286, 1409557379], "tags": {"amenity": "hospital", "building": "hospital", "name": "Hospiten Rambla", "source": "GRAFCAN OrtoExpress Urbana 2009"}}, {"type": "way", "id": 129927980, "center": {"lat": 28.4711788, "lon": -16.2669738}, "nodes": [1432645508, 5474055156, 1432645554, 1432645548, 1432645556, 1432645559, 1432645568, 1432645571, 1432645591, 1432645598, 1432645582, 1432645586, 1432645589, 1432645595, 1432645587, 1432645578, 1432645601, 1432645605, 1432645608, 1432645606, 1432645616, 1432645602, 1432645603, 1432645599, 1432645592, 1432645584, 1432645577, 1432645576, 1432645573, 1432645575, 1432645562, 1432645557, 1432645560, 1432645543, 1432645518, 1432645547, 5474055157, 1432645545, 5474055158, 1432645517, 1432645508], "tags": {"addr:city": "Santa Cruz de Tenerife", "addr:housenumber": "1", "addr:postcode": "38006", "addr:street": "Calle Poeta Rodr\u00edguez Herrera", "alt_name": "Hospital USP La Colina", "amenity": "hospital", "building": "yes", "email": "info.tenerife@quiron.es", "emergency": "yes", "healthcare": "hospital", "name": "Hospital Quir\u00f3nsalud Tenerife", "phone": "+34-922270700", "source": "GRAFCAN OrtoExpress Urbana 2009", "website": "https://www.quironsalud.es/hospital-tenerife"}}, {"type": "way", "id": 129927981, "center": {"lat": 28.4700473, "lon": -16.2679825}, "nodes": [1432645260, 1432645243, 1432645251, 1432645318, 1432645396, 1432645425, 1432645437, 1432645487, 1432645493, 1432645499, 1432645507, 1432645513, 1432645515, 1432645514, 1432645509, 1432645506, 1432645503, 1432645498, 1432645500, 1432645501, 1432645497, 1432645491, 1432645484, 1432645409, 1432645417, 1432645367, 1432645354, 1432645355, 1432645342, 1432645328, 1432645313, 1432645292, 1432645283, 1432645264, 1432645260], "tags": {"amenity": "hospital", "healthcare": "hospital", "name": "Hospital Febles Campos", "source": "GRAFCAN OrtoExpress Urbana 2009", "wikidata": "Q87762416"}}, {"type": "way", "id": 132610881, "center": {"lat": 27.8143292, "lon": -17.9156101}, "nodes": [1458512308, 3251160623, 1458512306, 3251160624, 3251160625, 3251160626, 1458512307, 3251160431, 3251160439, 1458512312, 3251160443, 1458512309, 3251160635, 3251160429, 1458512310, 3251160441, 1458512311, 3251160451, 3251160455, 3251160668, 1458512315, 3251160678, 3251160553, 3251160554, 3251160556, 3251160558, 3251160559, 1458512316, 3251160764, 672801599, 672801621, 672801622, 1458512326, 1458512329, 1458512323, 1458512321, 1458512319, 1539994466, 3251160453, 3251160450, 1458512314, 3251160430, 1458512308], "tags": {"addr:city": "Valverde", "addr:country": "ES", "addr:housenumber": "1", "addr:postcode": "38900", "addr:street": "Calle Los Barriales", "amenity": "hospital", "emergency": "yes", "landuse": "healthcare", "medical_system:western": "yes", "name": "Hospital Insular Nuestra Se\u00f1ora de los Reyes", "phone": "+34-922-553500", "wheelchair": "yes"}}, {"type": "way", "id": 137006238, "center": {"lat": 20.9565566, "lon": -17.0331366}, "nodes": [1502980739, 9517965811, 1502980738, 1502980747, 9442072820, 1502980744, 1502980739], "tags": {"addr:city": "\u0646\u0648\u0627\u0630\u064a\u0628\u0648", "addr:city:ar": "\u0646\u0648\u0627\u0630\u064a\u0628\u0648", "amenity": "hospital", "barrier": "wall", "healthcare": "hospital", "name": "\u0645\u0633\u062a\u0634\u0641\u0649 \u0646\u0648\u0627\u0630\u064a\u0628\u0648 \u0627\u0644\u0625\u0642\u0644\u064a\u0645\u064a", "name:ar": "\u0645\u0633\u062a\u0634\u0641\u0649 \u0646\u0648\u0627\u0630\u064a\u0628\u0648 \u0627\u0644\u0625\u0642\u0644\u064a\u0645\u064a", "name:es": "Hospital Regional de Nuadib\u00fa", "name:fr": "H\u00f4pital R\u00e9gional de Nouadhibou"}}, {"type": "way", "id": 147382344, "center": {"lat": 28.4727666, "lon": -16.3004017}, "nodes": [1606009293, 1606009297, 1606009273, 1606009295, 1606009293], "tags": {"amenity": "hospital", "internet_access": "wlan", "name": "CS Finca Espa\u00f1a"}}, {"type": "way", "id": 154149705, "center": {"lat": 28.4602082, "lon": -16.2681386}, "nodes": [1667336360, 1667336353, 1667336361, 1667336362, 1667336360], "tags": {"amenity": "hospital", "building": "public", "name": "Centro de Salud Los Gladiolos"}}, {"type": "way", "id": 157911477, "center": {"lat": 29.0018836, "lon": -13.4877476}, "nodes": [1666220679, 2141173630, 1666220135, 1666220144, 1666220662, 1666220735, 1666220702, 1666220355, 1701444667, 1701417005, 1666220517, 1701444671, 1666220594, 1666220582, 1666220679], "tags": {"amenity": "hospital", "building": "yes", "emergency": "no"}}, {"type": "way", "id": 170336089, "center": {"lat": 28.1181689, "lon": -16.7271429}, "nodes": [1814914471, 1814914474, 1814914473, 1814914472, 1814914471], "tags": {"amenity": "hospital", "building": "yes", "emergency": "yes", "name": "Centro de Salud Adeje"}}, {"type": "way", "id": 180380118, "center": {"lat": 27.8592735, "lon": -15.3937035}, "nodes": [1908303840, 1908303844, 6308274174, 1908303841, 3022589038, 1908303849, 1908303852, 8458365064, 8458365065, 8458365066, 6308274173, 8458365067, 6308274172, 1908303840], "tags": {"amenity": "hospital", "building": "yes", "emergency": "yes", "name": "Centro de salud Playa de Arinaga", "note": "No est\u00e1 operativo tardes ni fin de semana"}}, {"type": "way", "id": 190571389, "center": {"lat": 27.7727365, "lon": -15.5421754}, "nodes": [2012165295, 2012165289, 9588108001, 3837277145, 4688848184, 2012165292, 2012165293, 2012165294, 2012165296, 2012165297, 3837277265, 3837277262, 4688850151, 2012165295], "tags": {"addr:city": "San Agustin", "addr:country": "ES", "addr:housenumber": "1", "addr:postcode": "35100", "addr:street": "Calle Buganvilla", "amenity": "hospital", "building": "hospital", "building:levels": "5", "name": "Hospiten Cl\u00ednica Roca", "roof:levels": "0", "roof:shape": "flat", "wheelchair": "yes"}}, {"type": "way", "id": 191470730, "center": {"lat": 28.4667003, "lon": -16.2701382}, "nodes": [2020302480, 2020445868, 2020445859, 2020302470, 2020302471, 2020302480], "tags": {"amenity": "hospital", "emergency": "yes", "name": "Centro de Salud Barrio de la Salud", "operator": "Seguridad Social"}}, {"type": "way", "id": 194829405, "center": {"lat": 28.9666084, "lon": -13.5447951}, "nodes": [2053345880, 2053345872, 2053345911, 2053345915, 2053345909, 2053345901, 2053345883, 2053345895, 2053345880], "tags": {"amenity": "hospital", "building": "yes", "name": "Centro de Salud de Valterra"}}, {"type": "way", "id": 206592305, "center": {"lat": 27.7671699, "lon": -15.5956023}, "nodes": [2166147864, 2166147799, 2166147671, 2166147789, 2166147805, 2166147876, 2166147864], "tags": {"amenity": "hospital", "building": "hospital", "emergency": "yes", "name": "Centro de Salud Maspalomas"}}, {"type": "way", "id": 224312439, "center": {"lat": 20.5221672, "lon": -13.0518777}, "nodes": [2331306157, 2331306159, 2331306161, 4267354146, 2331306163, 2331306165, 4264616884, 2331306167, 2331306157], "tags": {"addr:city": "\u0623\u0637\u0627\u0631", "amenity": "hospital", "name": "\u0645\u0631\u0643\u0632 \u0627\u0644\u0645\u0633\u062a\u0634\u0641\u0649 \u0627\u0644\u0625\u0642\u0644\u064a\u0645\u064a", "name:ar": "\u0645\u0631\u0643\u0632 \u0627\u0644\u0645\u0633\u062a\u0634\u0641\u0649 \u0627\u0644\u0625\u0642\u0644\u064a\u0645\u064a", "name:fr": "CHR"}}, {"type": "way", "id": 224312440, "center": {"lat": 20.5166623, "lon": -13.0514657}, "nodes": [2331306169, 2331306171, 2331306173, 2331306175, 2331306177, 2331306169], "tags": {"addr:city": "\u0623\u0637\u0627\u0631", "amenity": "hospital", "name": "\u0645\u0633\u062a\u0648\u0635\u0641", "name:ar": "\u0645\u0633\u062a\u0648\u0635\u0641", "name:fr": "Dispensaire"}}, {"type": "way", "id": 226292931, "center": {"lat": 20.4637844, "lon": -12.3681203}, "nodes": [2351469415, 2351469416, 2351469417, 2351469418, 2351469415], "tags": {"amenity": "hospital", "barrier": "wall", "name": "\u0645\u0633\u062a\u0634\u0641\u0649 \u0627\u0644\u0623\u062e\u0648\u0629", "name:ar": "\u0645\u0633\u062a\u0634\u0641\u0649 \u0627\u0644\u0623\u062e\u0648\u0629", "name:es": "Hospital de la Fraternidad"}}, {"type": "way", "id": 226371840, "center": {"lat": 28.3942796, "lon": -16.513851}, "nodes": [2352127280, 2352127277, 2352127274, 2352127258, 2352127257, 2352127252, 2352127249, 2352127239, 2352127224, 2352127193, 2352127175, 2352127180, 2352127135, 2352127206, 2352127221, 1270373148, 2352127231, 2352127237, 1270373090, 2352127280], "tags": {"amenity": "hospital", "name": "Centro de Salud Las Dehesas"}}, {"type": "way", "id": 236267551, "center": {"lat": 28.8661524, "lon": -13.8317168}, "nodes": [2443179671, 2443179686, 2443179672, 2443179673, 2443179668, 2443179667, 2443179654, 10990427910, 10990427911, 10990427909, 10990427908, 2443179642, 2443179657, 2443179656, 2443179660, 2443179661, 2443179671], "tags": {"addr:postcode": "35570", "addr:street": "El Varadero", "amenity": "hospital", "building": "yes", "healthcare": "hospital", "name": "Ger\u00eancia de servicios sanitarios de Lanzarote", "name:es": "Consultorio local de playa blanca. Ger\u00eancia de servicios sanitarios de Lanzarote", "opening_hours": "24/7", "website": "http://www2.gobiernodecanarias.org/sanidad/scs/"}}, {"type": "way", "id": 237094321, "center": {"lat": 28.1205777, "lon": -15.4450127}, "nodes": [2450434566, 442399552, 11170069172, 11170069168, 11170069174, 11170069175, 11170069173, 11170069167, 11170069176, 11170069169, 442399551, 11170069178, 11170069179, 11170069177, 11170069180, 442399548, 11170069181, 442399547, 11170069186, 11170069185, 11170069184, 11170069187, 11170069183, 11170069182, 2450434569, 2450434570, 11170069159, 11170069163, 11170069161, 11170069164, 11170069160, 11170069166, 11170069162, 11170069165, 11170069158, 11170069189, 11170069195, 11170069191, 11170069194, 11170069190, 11170069193, 11170069192, 11170069196, 2450434574, 2450434575, 6362057643, 2450434576, 2450434580, 2450434566], "tags": {"addr:city": "Las Palmas de Gran Canaria", "addr:postcode": "35010", "addr:street": "Plaza Barranco de la Ballena", "amenity": "hospital", "emergency": "yes", "healthcare": "hospital", "name": "Hospital Universitario de Gran Canaria Doctor Negr\u00edn", "wheelchair": "yes", "wikidata": "Q5902989", "wikimedia_commons": "Category:Hospital Universitario de Gran Canaria Doctor Negr\u00edn"}}, {"type": "way", "id": 247901841, "center": {"lat": 28.0347613, "lon": -15.4964304}, "nodes": [4152784901, 2547562191, 2547562192, 4152784919, 4152784901], "tags": {"amenity": "hospital", "building": "yes"}}, {"type": "way", "id": 251218006, "center": {"lat": 29.0929825, "lon": -13.4703817}, "nodes": [2574707436, 2574707437, 2574707438, 2574707439, 2574707440, 2574707441, 2574707442, 2574707443, 2574707444, 2574707445, 2574707446, 2574707447, 2574707449, 2574707448, 2574707450, 2574707451, 2574707436], "tags": {"amenity": "hospital", "building": "yes", "emergency": "no"}}, {"type": "way", "id": 251369864, "center": {"lat": 28.1018033, "lon": -17.1235117}, "nodes": [2575963562, 2575963569, 2575963572, 2575963577, 2575963587, 2575963596, 2575963594, 2575963593, 2575963592, 2575963591, 2575963589, 2575963585, 2575963582, 2575963576, 2575963565, 2575963563, 2575963550, 10206927232, 2575963522, 2575963520, 2575963527, 10206927228, 2575963541, 10206927235, 2575963562], "tags": {"amenity": "hospital", "healthcare": "hospital", "name": "Centro de Salud San Sebasti\u00e1n de la Gomera"}}, {"type": "way", "id": 251369866, "center": {"lat": 28.1044288, "lon": -17.1302206}, "nodes": [2575963619, 2575963620, 2575963625, 2575963621, 2575963622, 2575963624, 2575963627, 2575963635, 2575963648, 2575963781, 2575963789, 2575963797, 2575963807, 2575963812, 2575963817, 2575963821, 2575963824, 2575963825, 2575963829, 2575963828, 2575963823, 2575963814, 2575963803, 2575963796, 2575963787, 2575963788, 2575963790, 2575963792, 2575963794, 2575963809, 2575963810, 2575963806, 2575963800, 2575963795, 1564389380, 2575963804, 2575963818, 2575963765, 2575963740, 2575963713, 2575963707, 2575963705, 2575963699, 2575963694, 2575963668, 2575963646, 2575963626, 2575963616, 2575963611, 2575963610, 1564389277, 2575963613, 2575963614, 2575963615, 2575963617, 2575963619], "tags": {"amenity": "hospital", "healthcare": "hospital", "name": "Hospital de la Gomera", "wikidata": "Q87762433"}}, {"type": "way", "id": 251776350, "center": {"lat": 23.7140931, "lon": -15.9226862}, "nodes": [2579527801, 2579527792, 5312416858, 2579527796, 2579527800, 2579527801], "tags": {"amenity": "hospital", "emergency": "yes", "name": "H\u00f4pital Hassan II \u0645\u0633\u062a\u0634\u0641\u0649 \u0627\u0644\u062d\u0633\u0646 \u0627\u0644\u062b\u0627\u0646\u064a", "name:ar": "\u0645\u0633\u062a\u0634\u0641\u0649 \u0627\u0644\u062d\u0633\u0646 \u0627\u0644\u062b\u0627\u0646\u064a", "name:en": "General Hospitals of Dakhla", "name:fr": "H\u00f4pital Hassan II"}}, {"type": "way", "id": 252474641, "center": {"lat": 22.7326572, "lon": -12.4775909}, "nodes": [2585183945, 2434307886, 2434307905, 2434307924, 2434307949, 2092367350, 2092367349, 2092367360, 2092367353, 2434307945, 2434307909, 2434307883, 2092366787, 2092366789, 2434307884, 2434307885, 2585183945], "tags": {"amenity": "hospital"}}, {"type": "way", "id": 252494426, "center": {"lat": 22.7358516, "lon": -12.463585}, "nodes": [2585325314, 2585325307, 2585325308, 2585325303, 2585325314], "tags": {"amenity": "hospital", "barrier": "wall", "healthcare": "hospital"}}, {"type": "way", "id": 259670710, "center": {"lat": 28.4486132, "lon": -16.3089183}, "nodes": [2651030398, 2651030399, 2651030400, 2651030401, 2651030402, 2651030403, 2651030404, 2651030405, 2651030406, 2651030407, 2651030408, 2651030409, 2651030410, 2651030411, 2651030412, 2651030413, 2651030414, 2651030415, 2651030416, 2651030417, 2651030418, 2651030398], "tags": {"addr:city": "San Crist\u00f3bal de La Laguna", "addr:housename": "Hospital Nuestra Se\u00f1ora de Los Dolores (Centro Geri\u00e1trico)", "addr:postcode": "38108", "addr:street": "Calle Volc\u00e1n Chaorra", "amenity": "hospital", "building": "yes", "emergency": "no", "name": "Hospital Nuestra Se\u00f1ora de Los Dolores", "phone": "+34 922239100", "wheelchair": "yes"}}, {"type": "way", "id": 311290860, "center": {"lat": 27.1566843, "lon": -13.1892818}, "nodes": [3168924054, 3168924044, 3168924036, 3168924027, 3168924041, 3168924049, 3168924054], "tags": {"amenity": "hospital", "healthcare": "hospital", "name": "H\u00f4pital Moulay Hassan Ben Mehdi", "name:en": "Moulay Hassan Ben Mehdi Hospital", "name:fr": "H\u00f4pital Moulay Hassan Ben Mehdi"}}, {"type": "way", "id": 333461568, "center": {"lat": 28.1017782, "lon": -15.417978}, "nodes": [3405706599, 5058561739, 5058561727, 5747849913, 3405703981, 5747849908, 5747849906, 5747849907, 5747849905, 3405703989, 5058561726, 5747849889, 5747849903, 5747849904, 5747849902, 5747849890, 5747849891, 5747849901, 5747849900, 5747849899, 5747849898, 5747849897, 5747849896, 5747849895, 5747849894, 3405706619, 5747849893, 5747849892, 5058561785, 3405706626, 5747849912, 5747849910, 5747849911, 5747849909, 3405706623, 3405706613, 3405706599], "tags": {"addr:housenumber": "1", "addr:street": "Calle Don Bernardino Correa Viera", "amenity": "hospital", "emergency": "no", "healthcare": "hospital", "name": "Centro de Salud de Triana"}}, {"type": "way", "id": 346365515, "center": {"lat": 22.679835, "lon": -12.7124528}, "nodes": [3529059746, 3529059747, 3529059748, 3529059749, 3529059750, 3529059751, 3529059752, 3529059753, 3529059754, 3529059755, 3529059756, 3529059757, 3529059746], "tags": {"addr:city": "\u0627\u0641\u062f\u064a\u0631\u0643", "addr:city:ar": "\u0627\u0641\u062f\u064a\u0631\u0643", "amenity": "hospital", "healthcare": "hospital", "language:ar": "main", "name": "\u0645\u0633\u062a\u0634\u0641\u0649 \u0627\u0641\u062f\u064a\u0631\u0643", "name:ar": "\u0645\u0633\u062a\u0634\u0641\u0649 \u0627\u0641\u062f\u064a\u0631\u0643"}}, {"type": "way", "id": 368728564, "center": {"lat": 28.2144093, "lon": -16.7814112}, "nodes": [3725757910, 3725757906, 3725757905, 3725757899, 3725757500, 1255788911, 3725757944, 3725757948, 3725757946, 3725757920, 3725757910], "tags": {"amenity": "hospital", "landuse": "healthcare", "name": "Centro de Salud Gu\u00eda de Isora", "source": "survey"}}, {"type": "way", "id": 443455833, "center": {"lat": 28.0690596, "lon": -16.7047483}, "nodes": [4410402555, 4410402556, 4410402557, 4410402558, 4410402559, 4749528128, 4410402560, 4749572042, 4410402561, 4410402562, 4410402563, 4410402564, 4410402565, 4410402555], "tags": {"amenity": "hospital", "healthcare": "hospital", "name": "Hospital del Sur", "wikidata": "Q16576239"}}, {"type": "way", "id": 454003061, "center": {"lat": 28.3744988, "lon": -16.8516247}, "nodes": [4506477404, 4506477385, 4506477386, 4506477387, 4506477439, 4506477438, 4506477437, 4506477388, 4506477389, 4506477390, 4506477391, 4506477392, 4506477393, 2388005403, 4506477394, 4506477395, 4506477396, 4506477397, 4506477398, 4506477399, 4506477400, 4506477401, 4506477402, 4506477373, 4506477403, 4506477404], "tags": {"amenity": "hospital", "emergency": "no", "landuse": "healthcare", "name": "Centro M\u00e9dico"}}, {"type": "way", "id": 455399662, "center": {"lat": 28.3658061, "lon": -16.816666}, "nodes": [4518062324, 4518062325, 4518062326, 4518062327, 4518062328, 4518062329, 4518062364, 4518062363, 4518062362, 4518062361, 4518062367, 4518062366, 4518062365, 4518062321, 4518062322, 4518062323, 4518062324], "tags": {"amenity": "hospital", "name": "Centro M\u00e9dico", "wheelchair": "yes"}}, {"type": "way", "id": 457393379, "center": {"lat": 28.3581176, "lon": -16.7742919}, "nodes": [4535466914, 315504987, 4535466904, 4535466905, 4535466893, 4535466668, 4535466894, 4535466895, 4535466896, 4535466928, 4535466927, 4535466926, 4535466925, 4535466924, 4535466923, 4535466922, 4535466921, 4535466920, 4535466919, 4535466918, 4535466917, 4535466916, 4535466915, 4535466914], "tags": {"amenity": "hospital", "landuse": "healthcare", "name": "Consultorio El Tanque", "source": "survey"}}, {"type": "way", "id": 459569949, "center": {"lat": 28.372626, "lon": -16.7647265}, "nodes": [4553854849, 4553854792, 4553854087, 4553854841, 4553854840, 4553854848, 4553854846, 7859586715, 2252744776, 7859586716, 4553854847, 4553854849], "tags": {"amenity": "hospital", "building": "hospital", "building:levels": "2", "healthcare": "hospital", "height": "6", "name": "Consultorio Garachico", "source": "survey"}}, {"type": "way", "id": 459593558, "center": {"lat": 28.3738294, "lon": -16.7586818}, "nodes": [4554035904, 2254936989, 4554035905, 1319038259, 4554035893, 4554035892, 4554035891, 4554035890, 4554035889, 4554035899, 4554035898, 4554035902, 4554035896, 4554035895, 4554035894, 4554035904], "tags": {"amenity": "hospital", "building": "yes", "building:levels": "1", "height": "3", "name": "Nuestra Se\u00f1ora de la Concepci\u00f3n"}}, {"type": "way", "id": 518380717, "center": {"lat": 28.0985712, "lon": -15.4129601}, "nodes": [5056700611, 5084300085, 5056700525, 5056700521, 5056700532, 5056700535, 5056700539, 5056700540, 5056700543, 5056700546, 5056700545, 5056700556, 5056700557, 5056700558, 5056700559, 5056700574, 5056700583, 5056700588, 5056700591, 5056700594, 5056700600, 5056700604, 5056700611], "tags": {"addr:housenumber": "16", "addr:street": "Calle Alcalde Francisco Hern\u00e1ndez Gonz\u00e1lez", "amenity": "hospital", "building": "yes", "healthcare": "hospital", "name": "Hospitales San Roque Traumatolog\u00eda"}}, {"type": "way", "id": 520379376, "center": {"lat": 28.0962456, "lon": -15.4126627}, "nodes": [5072060745, 5072060736, 5072060728, 5072060727, 5072060726, 5072060724, 5072060725, 5072060711, 5072060710, 5072060732, 5072060734, 5072060735, 5072060741, 5072060742, 5072060744, 5084343014, 5072060745], "tags": {"addr:housenumber": "43", "addr:street": "Avenida Alcalde D\u00edaz Saavedra Navarro", "amenity": "hospital", "building": "yes", "emergency": "no", "healthcare": "hospital", "name": "Centro Ambulatorio de Especialidades Prudencio Guzm\u00e1n"}}, {"type": "way", "id": 529228334, "center": {"lat": 28.1274348, "lon": -15.4408777}, "nodes": [5141474707, 5141475224, 5141475228, 5141475223, 5141475225, 5141475236, 5141475240, 5141475226, 5141475221, 5141475222, 5141475229, 5141475231, 5141475244, 5141475246, 5135524749, 5141474833, 5141474831, 5141474920, 5141474919, 5141474830, 5141474826, 5141474917, 5141474916, 5141474824, 5141474825, 5141474710, 5141474707], "tags": {"amenity": "hospital", "building": "yes", "emergency": "yes", "name": "Centro de Salud de Guanarteme"}}, {"type": "way", "id": 538089772, "center": {"lat": 21.2894497, "lon": -16.5280094}, "nodes": [5209136139, 5209134667, 5209134668, 5209134669, 5209136138, 5209136146, 5209136145, 5209136137, 5209136144, 5209136143, 5209131307, 5209136140, 5209136141, 5209134666, 5209136142, 5209136136, 5209136139], "tags": {"addr:city": "\u0628\u0648 \u0627\u0646\u0648\u0627\u0631", "addr:city:ar": "\u0628\u0648 \u0627\u0646\u0648\u0627\u0631", "amenity": "hospital", "building": "yes", "healthcare": "hospital", "name": "\u0645\u0633\u062a\u0648\u0635\u0641 \u0628\u0648 \u0627\u0646\u0648\u0627\u0631", "name:ar": "\u0645\u0633\u062a\u0648\u0635\u0641 \u0628\u0648 \u0627\u0646\u0648\u0627\u0631", "name:fr": "Dispensaire de Boulenouar"}}, {"type": "way", "id": 547880665, "center": {"lat": 29.0146733, "lon": -13.5417389}, "nodes": [5293470557, 5293470558, 5293470559, 5293470560, 5293470557], "tags": {"addr:city": "Tahiche", "addr:housenumber": "3", "addr:postcode": "35507", "addr:street": "Calle Benito P\u00e9rez Gald\u00f3s", "amenity": "hospital", "emergency": "no", "healthcare": "centre", "healthcare:speciality": "general", "name": "Consultorio Local de Tah\u00edche", "operator": "Servicio Canario de la Salud"}}, {"type": "way", "id": 559500501, "center": {"lat": 28.1437185, "lon": -15.6541004}, "nodes": [5396236546, 5396236550, 5396236551, 5396236552, 5396236553, 5396236554, 5396236555, 5396236556, 5396236557, 5396236558, 5396236560, 5396236561, 5396236562, 5396236563, 5396236564, 5396236565, 7330359109, 5396236546], "tags": {"addr:city": "G\u00e1ldar", "addr:postcode": "35460", "addr:street": "Calle Benartemi", "amenity": "hospital", "healthcare": "hospital", "name": "C.A.E. Galdar"}}, {"type": "way", "id": 565575179, "center": {"lat": 28.1082327, "lon": -15.5627551}, "nodes": [5446799316, 5446799317, 5446799318, 5446799319, 5446799316], "tags": {"amenity": "hospital", "healthcare": "hospital", "healthcare:speciality": "general", "name": "Centro de Salud de Firgas", "wheelchair": "yes"}}, {"type": "way", "id": 567727313, "center": {"lat": 28.4527865, "lon": -16.4541742}, "nodes": [5463932276, 9468287741, 6647259102, 5463932277, 5463932278, 5463932279, 5463932276], "tags": {"amenity": "hospital", "description": "Centro de atenci\u00f3n m\u00e9dica general de la Matanza de Acentejo.", "healthcare": "hospital", "healthcare:speciality": "general", "name": "Centro de Salud La Matanza", "official_name": "Centro de Salud La Matanza de Acentejo", "phone": "+34 922 57 90 16", "wheelchair": "yes"}}, {"type": "way", "id": 583707234, "center": {"lat": 28.1038729, "lon": -15.4224635}, "nodes": [5579347759, 5580369278, 5580369279, 5580369296, 5580369297, 5580369298, 5580369299, 5580369300, 5580369301, 5580369302, 5580369303, 5580369304, 5580369305, 5580369306, 5580369280, 5580369307, 5580369281, 5580369282, 5580369308, 5580369309, 5580369283, 5580369310, 5580369311, 5580369312, 5580369284, 5580369313, 5580369285, 5580369286, 5580369287, 5580369288, 5580369289, 5580369290, 5580369314, 5580369291, 5580369292, 5580369293, 5580369294, 5580369295, 5580369315, 5579347754, 5579347753, 5579347752, 5579347751, 5579347759], "tags": {"amenity": "hospital", "healthcare": "hospital", "name": "Hospital Militar Juan Carlos I"}}, {"type": "way", "id": 660762979, "center": {"lat": 27.9980018, "lon": -15.614587}, "nodes": [6186387230, 6186387231, 6186387232, 6186387233, 6186387234, 6186387235, 6186387236, 6186387237, 6186387238, 6186387239, 6186387240, 6186387241, 6186387242, 6186387243, 6186387244, 6186387230], "tags": {"amenity": "hospital", "building": "hospital", "name": "Centro de Salud de Tejeda"}}, {"type": "way", "id": 662926752, "center": {"lat": 28.1178085, "lon": -15.5267665}, "nodes": [6205808673, 6205808674, 6205808675, 6205808676, 6205808673], "tags": {"alt_name": "Centro Ambulatorio Especialidades de Arucas", "amenity": "hospital", "building": "yes", "healthcare": "hospital", "healthcare:speciality": "ophthalmology;neurology;trauma", "name": "CAE Arucas", "phone": "+34 928 303735;+34 928 303736;+34 928 303737;+34 928 303738"}}, {"type": "way", "id": 747861417, "center": {"lat": 28.4941444, "lon": -16.3137348}, "nodes": [6996939735, 6996939734, 6996939733, 6996939732, 6996939731, 6996939730, 6996939735], "tags": {"amenity": "hospital", "name": "Centro de Salud Las Mercedes"}}, {"type": "way", "id": 747872089, "center": {"lat": 27.9466945, "lon": -15.3932091}, "nodes": [6997013087, 6997013088, 6997013089, 6997013090, 6997013091, 6997013092, 6997013087], "tags": {"amenity": "hospital", "healthcare": "hospital"}}, {"type": "way", "id": 759269933, "center": {"lat": 28.4072651, "lon": -16.5446896}, "nodes": [7092122462, 7092122455, 7092122454, 7092122452, 7092122453, 7092122461, 7092122460, 7092122459, 7092122458, 7092122457, 7092122456, 7092122462], "tags": {"amenity": "hospital", "emergency": "yes", "name": "Hospiten Bellevue", "phone": "+34 922 38 35 51", "source": "Catastro", "website": "https://www.hospiten.com/es/hospitales-y-centros/tenerife-norte/hospiten-bellevue", "wheelchair": "yes"}}, {"type": "way", "id": 777837858, "center": {"lat": 28.1443545, "lon": -15.6486717}, "nodes": [7259211710, 7259211711, 7259211712, 7259211713, 7259211714, 7259211715, 7259211710], "tags": {"addr:city": "G\u00e1ldar", "addr:postcode": "35460", "addr:street": "Paseo de los Guanartemes", "amenity": "hospital", "healthcare": "hospital", "name": "Centro de Salud de G\u00e1ldar", "nohousenumber": "yes", "operator": "Servicio Canario de Salud"}}, {"type": "way", "id": 784169941, "center": {"lat": 26.1591637, "lon": -10.5569553}, "nodes": [3699268245, 3699268227, 3699268231, 3699268255, 3699268266, 3699268269, 3699268268, 3699268270, 3699268245], "tags": {"addr:city": "\u062a\u0641\u0627\u0631\u064a\u062a\u064a", "amenity": "hospital", "healthcare": "hospital", "name": "Hospital Navarra \u0645\u0633\u062a\u0634\u0641\u0649 \u0646\u0628\u0631\u0629", "name:ar": "\u0645\u0633\u062a\u0634\u0641\u0649 \u0646\u0628\u0631\u0629", "name:es": "Hospital Navarra", "name:fr": "H\u00f4pital Navarre"}}, {"type": "way", "id": 789179697, "center": {"lat": 29.3791581, "lon": -10.1780562}, "nodes": [2015785259, 7379000803, 7379000804, 7379000805, 7379000806, 7784779683, 7379000807, 7379000808, 7379000809, 9418375840, 2015785259], "tags": {"addr:city": "Sidi Ifni", "addr:city:es": "Sidi Ifni", "amenity": "hospital", "healthcare": "hospital", "name": "Centre Hospitalier Provincial Sidi Ifni", "name:es": "Centro Hospitalario Provincial Sidi Ifni"}}, {"type": "way", "id": 945257873, "center": {"lat": 28.0152124, "lon": -15.3847221}, "nodes": [8751073293, 8751073294, 8751073297, 8751073298, 8751073299, 5426945794, 5101972518, 5101972892, 8751073295, 8751073300, 8751073296, 8751073293], "tags": {"amenity": "hospital", "healthcare": "hospital", "name": "Hospital ICOT Ciudad de Telde"}}, {"type": "way", "id": 1039339444, "center": {"lat": 28.3412549, "lon": -16.7560656}, "nodes": [9570932087, 9570932072, 9570932073, 9570932088, 9570932089, 9570932090, 9570932091, 9570932083, 9570932084, 1185383539, 9570932092, 9570932093, 9570932094, 9570932095, 1185370875, 9570932096, 9587820464, 9570932087], "tags": {"amenity": "hospital", "healthcare": "hospital", "name": "Cruz Roja La Monta\u00f1eta", "operator": "Cruz Roja", "operator:wikidata": "Q7178", "operator:wikipedia": "es:Cruz Roja"}}, {"type": "way", "id": 1163817675, "center": {"lat": 29.0045177, "lon": -10.0473103}, "nodes": [10823801642, 10823801643, 10823801644, 10823801645, 10823801646, 10823801647, 10823801648, 10823801649, 10823801650, 10823801651, 10823801652, 10823801653, 10823801642], "tags": {"amenity": "hospital", "healthcare": "hospital", "name": "H\u00f4pital Militaire Guelmim"}}, {"type": "way", "id": 1192714105, "center": {"lat": 29.0021959, "lon": -10.0725836}, "nodes": [11071694758, 11071694759, 11071694760, 11071694761, 11071694762, 11071694763, 11071694764, 11071694758], "tags": {"amenity": "hospital", "healthcare": "hospital", "name": "\u0627\u0644\u0645\u0631\u0643\u0632 \u0627\u0644\u0627\u0633\u062a\u0634\u0641\u0627\u0626\u064a \u0627\u0644\u062c\u0647\u0648\u064a \u0643\u0644\u0645\u064a\u0645"}}, {"type": "way", "id": 1192714106, "center": {"lat": 29.0034161, "lon": -10.070263}, "nodes": [11071694764, 11071694717, 11071694753, 11071694754, 11071694755, 11071694756, 11071694757, 11071694718, 11071694817, 11071694758, 11071694764], "tags": {"amenity": "hospital", "healthcare": "hospital", "name": "Nouveau H\u00f4pital de Guelmim"}}, {"type": "relation", "id": 2082067, "center": {"lat": 28.4109051, "lon": -16.3256902}, "members": [{"type": "way", "ref": 154961712, "role": "outer"}, {"type": "way", "ref": 154961721, "role": "inner"}], "tags": {"amenity": "hospital", "building": "hospital", "building:levels": "2", "name": "Centro Salud", "type": "multipolygon"}}, {"type": "relation", "id": 2562826, "center": {"lat": 28.4571391, "lon": -16.2901672}, "members": [{"type": "way", "ref": 766309517, "role": "outer"}, {"type": "way", "ref": 189748402, "role": "outer"}, {"type": "way", "ref": 189748383, "role": "outer"}, {"type": "way", "ref": 189748396, "role": "outer"}, {"type": "way", "ref": 189748392, "role": "outer"}, {"type": "way", "ref": 189748352, "role": "outer"}], "tags": {"amenity": "hospital", "name": "Hospital de Ofra", "old_name": "Hospital del T\u00f3rax", "operator": "Hospital Universitario Nuestra Se\u00f1ora de Candelaria", "type": "multipolygon", "wikidata": "Q87762413"}}, {"type": "relation", "id": 2563070, "center": {"lat": 28.4484917, "lon": -16.2847787}, "members": [{"type": "way", "ref": 189772596, "role": "outer"}, {"type": "way", "ref": 189772598, "role": "outer"}, {"type": "way", "ref": 189772604, "role": "outer"}, {"type": "way", "ref": 189772593, "role": "outer"}, {"type": "way", "ref": 198303774, "role": "outer"}, {"type": "way", "ref": 645478865, "role": "outer"}, {"type": "way", "ref": 189772603, "role": "outer"}, {"type": "way", "ref": 189772588, "role": "outer"}, {"type": "way", "ref": 189772607, "role": "outer"}, {"type": "way", "ref": 189772591, "role": "outer"}, {"type": "way", "ref": 189772601, "role": "outer"}, {"type": "way", "ref": 189772586, "role": "outer"}, {"type": "way", "ref": 189772595, "role": "outer"}, {"type": "way", "ref": 189772590, "role": "outer"}, {"type": "way", "ref": 189772608, "role": "outer"}, {"type": "way", "ref": 189772602, "role": "outer"}], "tags": {"amenity": "hospital", "emergency": "yes", "name": "Hospital Universitario Nuestra Se\u00f1ora de Candelaria", "reg_name": "Hospital La Residencia", "short_name": "Hospital de la Candelaria", "type": "multipolygon", "wikidata": "Q5908637", "wikipedia": "es:Hospital Universitario Nuestra Se\u00f1ora de Candelaria"}}, {"type": "relation", "id": 2569155, "center": {"lat": 28.4613018, "lon": -16.2836849}, "members": [{"type": "way", "ref": 190329070, "role": "outer"}, {"type": "way", "ref": 190329066, "role": "outer"}, {"type": "way", "ref": 190329065, "role": "outer"}, {"type": "way", "ref": 190329068, "role": "outer"}, {"type": "way", "ref": 190329069, "role": "outer"}, {"type": "way", "ref": 190329067, "role": "outer"}, {"type": "way", "ref": 190329071, "role": "outer"}, {"type": "way", "ref": 573151908, "role": "outer"}], "tags": {"amenity": "hospital", "name": "Hospital San Juan de Dios", "type": "multipolygon", "wikidata": "Q87762419"}}, {"type": "relation", "id": 2598550, "center": {"lat": 28.4714769, "lon": -16.2590578}, "members": [{"type": "way", "ref": 192964619, "role": "outer"}, {"type": "way", "ref": 192964651, "role": "outer"}, {"type": "way", "ref": 192399551, "role": "outer"}, {"type": "way", "ref": 192964658, "role": "outer"}, {"type": "way", "ref": 192964644, "role": "outer"}, {"type": "way", "ref": 192399552, "role": "outer"}, {"type": "way", "ref": 192964835, "role": "outer"}, {"type": "way", "ref": 192399590, "role": "outer"}], "tags": {"amenity": "hospital", "name": "Cl\u00ednica Santa Cruz", "type": "multipolygon"}}, {"type": "relation", "id": 4195628, "center": {"lat": 28.074431, "lon": -16.7297067}, "members": [{"type": "way", "ref": 269855992, "role": "outer"}, {"type": "way", "ref": 312815714, "role": "inner"}, {"type": "way", "ref": 312815702, "role": "inner"}], "tags": {"addr:city": "Adeje", "addr:housenumber": "12", "addr:postcode": "38660", "addr:street": "Avenida de los Pueblos", "amenity": "hospital", "building": "yes", "email": "info.costaadeje@quiron.es", "name": "Hospital Quir\u00f3n Costa Adeje", "phone": "+34 922 752 626", "type": "multipolygon", "website": "http://www.quiron.es/es/tenerife_adeje", "wikidata": "Q87762438"}}, {"type": "relation", "id": 5470410, "center": {"lat": 27.7498328, "lon": -15.6070198}, "members": [{"type": "way", "ref": 368068368, "role": "outer"}, {"type": "way", "ref": 368068366, "role": "inner"}, {"type": "way", "ref": 368068367, "role": "inner"}], "tags": {"amenity": "hospital", "emergency": "yes", "healthcare": "hospital", "name": "Hospital San Roque Maspalomas", "type": "multipolygon", "website": "https://hospitalessanroque.com/es/centros/hospitales-san-roque-en-maspalomas", "wikidata": "Q87762383"}}, {"type": "relation", "id": 6559922, "center": {"lat": 28.1182488, "lon": -15.4223098}, "members": [{"type": "way", "ref": 132003795, "role": "outer"}, {"type": "way", "ref": 440644260, "role": "inner"}, {"type": "way", "ref": 440644257, "role": "inner"}, {"type": "way", "ref": 440644259, "role": "inner"}, {"type": "way", "ref": 440644258, "role": "inner"}, {"type": "way", "ref": 440644267, "role": "inner"}], "tags": {"addr:housename": "Centro de Salud Canalejas", "addr:postcode": "35004", "amenity": "hospital", "building": "hospital", "emergency": "yes", "name": "Centro de Salud de Canalejas", "type": "multipolygon"}}, {"type": "relation", "id": 9703736, "center": {"lat": 28.0928197, "lon": -15.4141658}, "members": [{"type": "way", "ref": 698303151, "role": "outer"}, {"type": "way", "ref": 698303150, "role": "inner"}], "tags": {"amenity": "hospital", "building": "yes", "emergency": "yes", "healthcare": "hospital", "name": "Centro de Salud de San Jos\u00e9", "type": "multipolygon"}}, {"type": "relation", "id": 10222063, "center": {"lat": 28.1117511, "lon": -15.4387706}, "members": [{"type": "way", "ref": 739126959, "role": "inner"}, {"type": "way", "ref": 739126960, "role": "outer"}], "tags": {"amenity": "hospital", "building": "hospital", "emergency": "no", "name": "Centro de Salud de Escaleritas", "type": "multipolygon"}}, {"type": "relation", "id": 11551897, "center": {"lat": 28.0834026, "lon": -15.4175859}, "members": [{"type": "way", "ref": 841421546, "role": "inner"}, {"type": "way", "ref": 841421545, "role": "inner"}, {"type": "way", "ref": 841421547, "role": "outer"}], "tags": {"amenity": "hospital", "building": "yes", "emergency": "yes", "healthcare": "hospital", "name": "Hospital Insular", "type": "multipolygon", "wheelchair": "yes", "wikidata": "Q5902948"}}, {"type": "relation", "id": 11558015, "center": {"lat": 28.0810299, "lon": -15.4172175}, "members": [{"type": "way", "ref": 842176816, "role": "inner"}, {"type": "way", "ref": 842176817, "role": "inner"}, {"type": "way", "ref": 842176818, "role": "inner"}, {"type": "way", "ref": 842176819, "role": "inner"}, {"type": "way", "ref": 842176821, "role": "outer"}], "tags": {"amenity": "hospital", "building": "yes", "healthcare": "hospital", "name": "Hospital Materno Infantil", "type": "multipolygon", "wheelchair": "yes"}}, {"type": "relation", "id": 14634545, "center": {"lat": 28.4568365, "lon": -16.2915963}, "members": [{"type": "way", "ref": 189748369, "role": "outer"}, {"type": "way", "ref": 1098539000, "role": "outer"}, {"type": "way", "ref": 1101553709, "role": "outer"}, {"type": "way", "ref": 1098539001, "role": "outer"}, {"type": "way", "ref": 1098538998, "role": "outer"}, {"type": "way", "ref": 1101553708, "role": "outer"}, {"type": "way", "ref": 1101553707, "role": "outer"}, {"type": "way", "ref": 189748354, "role": "outer"}, {"type": "way", "ref": 189748343, "role": "outer"}, {"type": "way", "ref": 189748375, "role": "outer"}], "tags": {"amenity": "hospital", "emergency": "yes", "name": "Hospital Universitario de Canarias (HUC)", "type": "multipolygon"}}]}