{"version": 0.6, "generator": "Overpass API 0.7.61.5 4133829e", "osm3s": {"timestamp_osm_base": "2023-10-31T20:55:45Z", "copyright": "The data included in this document is from www.openstreetmap.org. The data is made available under ODbL."}, "elements": [{"type": "node", "id": 358803861, "lat": 37.6002433, "lon": -120.9635633, "tags": {"addr:city": "Ceres", "addr:housenumber": "1904", "addr:postcode": "95307", "addr:street": "Richland Avenue", "amenity": "hospital", "beds": "16", "emergency": "no", "healthcare": "hospital", "healthcare:speciality": "psychiatry", "name": "Stanislaus County Psychiatric Health Facility", "opening_hours": "24/7", "phone": "+1 209 300 8800", "website": "http://www.telecarecorp.com/stanislaus-county-psychiatric-health-facility/"}}, {"type": "node", "id": 358806895, "lat": 38.2780415, "lon": -122.267009, "tags": {"amenity": "hospital", "ele": "21", "emergency": "no", "gnis:county_id": "055", "gnis:created": "01/19/1981", "gnis:feature_id": "1659203", "gnis:state_id": "06", "healthcare": "hospital", "name": "Napa State Hospital", "wikidata": "Q14683459"}}, {"type": "node", "id": 358806966, "lat": 37.9767296, "lon": -121.290909, "tags": {"addr:city": "Stockton", "addr:housenumber": "2510", "addr:postcode": "95204", "addr:street": "North California Street", "amenity": "hospital", "beds": "35", "emergency": "no", "gnis:feature_id": "1659272", "healthcare": "hospital", "healthcare:speciality": "psychiatry", "name": "Saint Joseph's Behavioral Health Center", "old_name": "Oak Park Community Hospital", "opening_hours": "24/7", "operator": "Dignity Health", "operator:wikidata": "Q5276334", "phone": "+1 209 948 2100", "website": "https://www.dignityhealth.org/central-california/locations/stjosephsbehavioral"}}, {"type": "node", "id": 358835316, "lat": 37.6435415, "lon": -120.990767, "tags": {"addr:housenumber": "730", "addr:street": "17th Street", "amenity": "hospital", "beds": "100", "ele": "28", "emergency": "no", "gnis:county_id": "099", "gnis:created": "03/25/1999", "gnis:feature_id": "1816908", "gnis:state_id": "06", "healthcare": "hospital", "name": "Central Valley Specialty Hospital", "phone": "+1-209-248-7700", "website": "https://centralvalleyspecialty.org/"}}, {"type": "node", "id": 358835329, "lat": 37.6461586, "lon": -120.982332, "tags": {"amenity": "hospital", "ele": "24", "emergency": "no", "gnis:county_id": "099", "gnis:created": "03/25/1999", "gnis:feature_id": "1816922", "gnis:state_id": "06", "healthcare": "hospital", "name": "Health Services Agency of Stanislaus County", "operator": "Stanislaus County"}}, {"type": "node", "id": 358852460, "lat": 38.5529616, "lon": -121.455231, "tags": {"addr:city": "Sacramento", "addr:housenumber": "2425", "addr:postcode": "95817", "addr:street": "Stockton Boulevard", "amenity": "hospital", "emergency": "no", "gnis:feature_id": "2061530", "healthcare": "hospital", "healthcare:speciality": "paediatrics", "name": "Shriners Hospitals for Children \u2014 Northern California", "operator": "Shriners Hospitals for Children", "operator:wikidata": "Q7504109", "operator:wikipedia": "en:Shriners Hospitals for Children", "phone": "+1 916 453 2000", "website": "https://www.shrinershospitalsforchildren.org/sacramento", "wikidata": "Q50575530"}}, {"type": "node", "id": 1256830720, "lat": 37.4615473, "lon": -122.1590573, "tags": {"addr:city": "Menlo Park", "addr:housenumber": "570", "addr:postcode": "94025", "addr:street": "Willow Road", "amenity": "hospital", "beds": "16", "emergency": "no", "healthcare": "hospital", "healthcare:speciality": "surgery", "name": "Menlo Park Surgical Hospital", "opening_hours": "24/7", "operator": "Sutter Health", "phone": "+1 650 324 8500", "website": "https://www.sutterhealth.org/find-location/facility/menlo-park-surgical-hospital"}}, {"type": "node", "id": 1334645717, "lat": 38.6442224, "lon": -121.13514, "tags": {"amenity": "hospital", "emergency": "no", "healthcare": "hospital", "name": "Kaiser Permanente"}}, {"type": "node", "id": 2588232404, "lat": 38.5539253, "lon": -121.4526363, "tags": {"addr:city": "Sacramento", "addr:housenumber": "2279", "addr:postcode": "95817", "addr:street": "45th Street", "amenity": "hospital", "emergency": "no", "healthcare": "hospital", "healthcare:speciality": "oncology", "name": "UC Davis Comprehensive Cancer Center", "phone": "+1 916 734 5959", "website": "http://www.ucdmc.ucdavis.edu/cancer/"}}, {"type": "node", "id": 2589839882, "lat": 37.7557501, "lon": -121.456856, "tags": {"addr:city": "Tracy", "addr:housenumber": "2185", "addr:postcode": "95377", "addr:state": "CA", "addr:street": "West Grant Line Road", "amenity": "hospital", "emergency": "no", "healthcare": "hospital", "name": "Tracy Medical Offices", "operator": "Kaiser Permanente", "operator:short": "KP", "operator:wikidata": "Q1721601", "operator:wikipedia": "en:Kaiser Permanente", "phone": "+1 209-839-3200", "website": "https://healthy.kaiserpermanente.org/northern-california/facilities/Tracy-Medical-Offices-100317"}}, {"type": "node", "id": 4001273234, "lat": 38.5751753, "lon": -121.4143325, "tags": {"addr:city": "Sacramento", "addr:housenumber": "2221", "addr:postcode": "95825", "addr:state": "CA", "addr:street": "Fair Oaks Boulevard", "amenity": "hospital", "emergency": "no", "healthcare": "hospital", "name": "Valley Recovery Center of California", "operator": "Summit Behavioral Healthcare", "website": "https://valleyrecovery.com/"}}, {"type": "node", "id": 4785477140, "lat": 38.4694359, "lon": -121.423679, "tags": {"addr:city": "Sacramento", "addr:housenumber": "6600", "addr:postcode": "95823", "addr:state": "CA", "addr:street": "Bruceville Road", "amenity": "hospital", "emergency": "no", "healthcare": "hospital", "healthcare:speciality": "surgery", "name": "Kaiser Ambulatory Surgery Center", "operator": "Kaiser Permanente", "operator:short": "KP", "operator:wikidata": "Q1721601", "operator:wikipedia": "en:Kaiser Permanente"}}, {"type": "node", "id": 5555408498, "lat": 37.7647716, "lon": -122.3896641, "tags": {"addr:city": "San Francisco", "addr:housenumber": "1975", "addr:postcode": "94158", "addr:street": "4th Street", "amenity": "hospital", "emergency": "yes", "healthcare": "hospital", "healthcare:speciality": "paediatrics", "name": "UCSF Benioff Children's Hospital San Francisco", "opening_hours": "24/7", "phone": "+1 415 353 1664", "website": "https://www.ucsfbenioffchildrens.org/", "wikidata": "Q17031376"}}, {"type": "node", "id": 5597820454, "lat": 36.2075117, "lon": -121.1331464, "tags": {"amenity": "hospital", "healthcare": "hospital", "name": "MMH - Outpatient Center"}}, {"type": "node", "id": 5607255759, "lat": 38.3481522, "lon": -122.5173855, "tags": {"addr:city": "Eldridge", "addr:housenumber": "15000", "addr:postcode": "95431", "addr:street": "Arnold Drive", "amenity": "hospital", "beds": "1388", "emergency": "no", "healthcare": "hospital", "healthcare:speciality": "psychiatry", "name": "Sonoma Developmental Center", "phone": "+1 707 938 6000", "website": "https://www.dds.ca.gov/Sonoma/Index.cfm", "wikidata": "Q7562181", "wikipedia": "en:Sonoma Developmental Center"}}, {"type": "node", "id": 5608137309, "lat": 39.1320368, "lon": -121.613306, "tags": {"addr:city": "Yuba City", "addr:housenumber": "455", "addr:postcode": "95991", "addr:street": "Plumas Boulevard", "amenity": "hospital", "beds": "14", "emergency": "no", "healthcare": "hospital", "healthcare:speciality": "surgery", "name": "Sutter Surgical Hospital North Valley", "operator": "Sutter Health", "operator:wikidata": "Q7650154", "phone": "+1 530 749 5700", "website": "https://www.sutterhealth.org/find-location/facility/sutter-surgical-hospital-north-valley"}}, {"type": "node", "id": 5785120153, "lat": 39.5069742, "lon": -121.5409811, "tags": {"amenity": "hospital", "healthcare": "hospital", "name": "Emergency Room"}}, {"type": "node", "id": 5805243057, "lat": 37.4795113, "lon": -122.255023, "tags": {"addr:city": "Redwood City", "addr:housenumber": "170", "addr:postcode": "94062", "addr:state": "CA", "addr:street": "Alameda de las Pulgas", "amenity": "hospital", "beds": "208", "emergency": "yes", "healthcare": "hospital", "name": "Sequoia Hospital", "opening_hours": "24/7", "operator": "Dignity Health", "phone": "+1 650 369 5811", "website": "https://www.dignityhealth.org/bayarea/locations/sequoia", "wikidata": "Q7452546", "wikipedia": "en:Sequoia Hospital"}}, {"type": "node", "id": 6709187265, "lat": 38.669576, "lon": -121.3141295, "tags": {"amenity": "hospital", "healthcare": "hospital"}}, {"type": "node", "id": 6816256205, "lat": 37.7033003, "lon": -121.858653, "tags": {"addr:city": "Dublin", "addr:housenumber": "3100", "addr:postcode": "94568", "addr:state": "CA", "addr:street": "Dublin Boulevard", "amenity": "hospital", "emergency": "no", "healthcare": "hospital", "healthcare:speciality": "urgent_care;surgery;pharmacy", "name": "Dublin Medical Offices and Cancer Center", "operator": "Kaiser Permanente", "operator:short": "KP", "operator:wikidata": "Q1721601", "operator:wikipedia": "en:Kaiser Permanente", "phone": "+1-925-556-4200", "website": "https://thrive.kaiserpermanente.org/care-near-you/northern-california/diablo/locations/dublin-medical-offices/"}}, {"type": "node", "id": 7143800587, "lat": 36.9779863, "lon": -121.9879106, "tags": {"amenity": "hospital", "name": "Santa Cruz Post Acute Rehab"}}, {"type": "node", "id": 8413935550, "lat": 38.4503989, "lon": -122.7716276, "tags": {"addr:city": "Santa Rosa", "addr:housenumber": "1287", "addr:postcode": "95401-4923", "addr:street": "Fulton Road", "amenity": "hospital", "beds": "95", "healthcare": "hospital", "healthcare:speciality": "psychiatry", "name": "Aurora Behavioral Healthcare - Santa Rosa", "phone": "+1 707 800 7700"}}, {"type": "node", "id": 8421830159, "lat": 37.7822139, "lon": -122.442708, "tags": {"addr:housenumber": "2425", "addr:street": "Geary Boulevard", "amenity": "hospital", "emergency": "yes", "healthcare": "hospital", "healthcare:speciality": "emergency;anesthesiology;labor_and_delivery;nuclear;radiology", "name": "Hospital", "operator": "Kaiser Permanente", "operator:short": "KP", "operator:type": "private_non_profit", "operator:wikidata": "Q1721601", "operator:wikipedia": "en:Kaiser Permanente", "phone": "415-833-2000", "website": "https://thrive.kaiserpermanente.org/care-near-you/northern-california/sanfrancisco/locations/hospital-2/"}}, {"type": "node", "id": 8943832484, "lat": 37.4984336, "lon": -122.2131167, "tags": {"addr:city": "Redwood City", "addr:housenumber": "101", "addr:postcode": "94063", "addr:state": "CA", "addr:street": "Galveston Drive", "amenity": "hospital", "description": "Getting ahead of cancer is crucial no matter where people are in their cancer journey. From earlier cancer detection to treatment guidance and monitoring, we are helping people get the answers they need to make more informed decisions across the cancer co", "email": "info@exactsciences.com", "healthcare": "hospital", "image": "data:image/png;base64,iVBORw0KGgoAAAANSUhEUgAAAT0AAACfCAMAAAC85v7+AAAAz1BMVEX///8AAACidf/09PSmpqbS0tLj4+Orq6vJyclubm7r6+tAQEBbW1ufn5+Xl5ejo6O4uLh/f39nZ2eysrIdHR34+PjY2Nibaf++vr6fcP/e3t4zMzMmJiZ5eXnV1dXw8PASEhKOjo5VVVX59/99fX1XV1dJSUnCpv8jIyM3NzcODg6keP/t5", "name": "Exact Sciences", "phone": "866-662-6897"}}, {"type": "node", "id": 9865529017, "lat": 37.7630641, "lon": -122.4570483, "tags": {"amenity": "hospital"}}, {"type": "node", "id": 10866259068, "lat": 38.6334945, "lon": -121.3545544, "tags": {"addr:city": "Carmichael", "addr:housenumber": "4741", "addr:postcode": "95608", "addr:state": "CA", "addr:street": "Engle Road", "amenity": "hospital", "beds": "16", "healthcare": "hospital", "healthcare:speciality": "psychiatry", "name": "Crestwood Psychiatric Health Facility - Carmichael", "website": "https://www.crestwoodbehavioralhealth.com"}}, {"type": "node", "id": 10866318084, "lat": 39.1536036, "lon": -121.6175496, "tags": {"addr:city": "Yuba City", "addr:housenumber": "1535", "addr:postcode": "95993", "addr:state": "CA", "addr:street": "Plumas Court", "amenity": "hospital", "beds": "16", "healthcare": "hospital", "healthcare:speciality": "psychiatry", "name": "North Valley Behavioral Health", "website": "http://www.nvbh.com"}}, {"type": "node", "id": 10866352476, "lat": 39.7541866, "lon": -121.8675319, "tags": {"addr:city": "Chico", "addr:housenumber": "340", "addr:postcode": "95926-7238", "addr:street": "West East Avenue", "amenity": "hospital", "beds": "40", "healthcare": "hospital", "name": "Enloe Rehabilitation Center", "phone": "+1 530 332 7300", "website": "https://www.enloe.org/care-treatment/rehabilitation"}}, {"type": "node", "id": 10866397618, "lat": 38.7328089, "lon": -120.8020629, "tags": {"addr:city": "Placerville", "addr:housenumber": "935-B", "addr:postcode": "95667", "addr:street": "Spring Street", "amenity": "hospital", "beds": "16", "healthcare": "hospital", "healthcare:speciality": "psychiatry", "name": "Telecare El Dorado County PHF", "website": "https://www.telecarecorp.com/el-dorado-county-psychiatric-health-facility"}}, {"type": "node", "id": 10866404127, "lat": 39.1555956, "lon": -121.6184357, "tags": {"addr:city": "Yuba City", "addr:housenumber": "1965", "addr:postcode": "95991", "addr:street": "Live Oak Boulevard", "amenity": "hospital", "beds": "16", "healthcare": "hospital", "healthcare:speciality": "psychiatry", "name": "Sutter-Yuba Psychiatric Health Facility", "phone": "+1 530 822 7200", "website": "https://www.suttercounty.org/government/county-departments/health-and-human-services/sutter-yuba-behavioral-health"}}, {"type": "node", "id": 10866446169, "lat": 37.665824, "lon": -120.9222319, "tags": {"addr:city": "Modesto", "addr:housenumber": "1501", "addr:postcode": "95355-9711", "addr:street": "Claus Road", "amenity": "hospital", "beds": "67", "healthcare": "hospital", "healthcare:speciality": "psychiatry", "name": "Doctors Medical Center - Behavioral Health Department", "phone": "+1 209 557 6360", "website": "https://www.dmc-modesto.com/locations/detail/doctors-behavioral-health-center"}}, {"type": "node", "id": 10866470009, "lat": 37.6970277, "lon": -120.9757853, "tags": {"addr:city": "Modesto", "addr:housenumber": "1303", "addr:postcode": "95355", "addr:street": "Mable Avenue", "amenity": "hospital", "beds": "50", "healthcare": "rehabilitation", "name": "Encompass Health Rehabilitation Hospital Of Modesto", "phone": "+1 209 857 3421"}}, {"type": "node", "id": 10866472839, "lat": 38.5499259, "lon": -121.4146168, "tags": {"addr:city": "Sacramento", "addr:housenumber": "7700", "addr:postcode": "95826-2608", "addr:state": "CA", "addr:street": "Folsom Boulevard", "amenity": "hospital", "beds": "73", "healthcare": "hospital", "healthcare:speciality": "psychiatry", "name": "Sutter Center For Psychiatry", "phone": "+1 916 386 3000", "website": "https://www.sutterhealth.org/find-location/facility/sutter-center-for-psychiatry"}}, {"type": "node", "id": 10866477264, "lat": 37.9587062, "lon": -122.5524959, "tags": {"addr:city": "Kentfield", "addr:housenumber": "1125", "addr:postcode": "94904-0338", "addr:street": "Sir Francis Drake Boulevard", "amenity": "hospital", "beds": "60", "healthcare": "hospital", "name": "Kentfield Hospital", "phone": "+1 415 485 3521", "website": "https://kentfieldhospital.com"}}, {"type": "node", "id": 10866480352, "lat": 37.9796874, "lon": -120.3908013, "tags": {"addr:city": "Sonora", "addr:housenumber": "179", "addr:postcode": "95370-4809", "addr:state": "CA", "addr:street": "Fairview Lane", "amenity": "hospital", "beds": "12", "healthcare": "hospital", "name": "Adventist Health Sonora", "phone": "+1 209 532 3161", "website": "https://www.adventisthealth.org/locations/sierra-care-center-unit-6"}}, {"type": "node", "id": 10866493010, "lat": 37.2597574, "lon": -121.9475541, "tags": {"addr:city": "Campbell", "addr:housenumber": "3777", "addr:postcode": "95008-7320", "addr:street": "South Bascom Avenue", "amenity": "hospital", "beds": "4", "healthcare": "hospital", "name": "Children's Healthcare Organization Of Northern California - Pediatric Hospital", "phone": "+1 408 558 3640", "website": "https://www.chonc.org"}}, {"type": "node", "id": 10994681265, "lat": 35.6716963, "lon": -120.1364725, "tags": {"amenity": "hospital", "emergency": "no", "healthcare": "hospital", "healthcare:speciality": "general;internal"}}, {"type": "way", "id": 22942804, "center": {"lat": 37.8370969, "lon": -122.2676417}, "nodes": [247142932, 4108078099, 852207725, 247142934, 247142935, 2195365676, 247142936, 247142937, 852207736, 247142938, 247142939, 247142940, 247142941, 247142942, 247142943, 2195365662, 4709100926, 2195365664, 2195365614, 4709100927, 5567376580, 6313659090, 5567376589, 2195365672, 247142932], "tags": {"addr:city": "Oakland", "addr:country": "US", "addr:housenumber": "747", "addr:postcode": "94609", "addr:state": "CA", "addr:street": "52nd Street", "alt_name1": "UCSF Benioff Children\u2019s Hospital Oakland", "alt_name2": "Children's Hospital Oakland", "amenity": "hospital", "beds": "190", "emergency": "yes", "gnis:feature_id": "1676003", "healthcare": "hospital", "healthcare:speciality": "paediatrics", "name": "Children's Hospital & Research Center Oakland", "opening_hours": "24/7", "phone": "+1 510 428 3000", "website": "https://www.childrenshospitaloakland.org/", "wikidata": "Q5098123", "wikipedia": "en:Children's Hospital Oakland"}}, {"type": "way", "id": 24446045, "center": {"lat": 37.7567781, "lon": -122.4052172}, "nodes": [265688213, 1727334492, 1727334490, 1727334488, 1727334483, 1727334480, 265688214, 6273113452, 265688215, 265688216, 265688217, 10982250132, 265688218, 1727334485, 265688219, 8431757302, 265688213], "tags": {"addr:city": "San Francisco", "addr:country": "US", "addr:housenumber": "1001", "addr:postcode": "94158", "addr:state": "CA", "addr:street": "Potrero Avenue", "amenity": "hospital", "beds": "397", "emergency": "yes", "healthcare": "hospital", "name": "San Francisco General Hospital", "official_name": "Zuckerberg San Francisco General Hospital", "opening_hours": "24/7", "phone": "+1 415 206 8000", "website": "https://zuckerbergsanfranciscogeneral.org/", "wikidata": "Q7414040", "wikipedia": "en:San Francisco General Hospital"}}, {"type": "way", "id": 24561476, "center": {"lat": 37.6595195, "lon": -122.4394713}, "nodes": [5555084531, 267053068, 267053069, 5555084526, 267053070, 267053071, 5555084529, 267053072, 5555084530, 267053073, 267053074, 5555084528, 267053075, 267053076, 5555084527, 358830572, 5555084531], "tags": {"addr:city": "South San Francisco", "addr:housenumber": "1200", "addr:postcode": "94080", "addr:street": "El Camino Real", "amenity": "hospital", "beds": "120", "emergency": "yes", "gnis:feature_id": "1785809", "healthcare": "hospital", "name": "Kaiser Permanente South San Francisco Medical Center", "opening_hours": "24/7", "operator": "Kaiser Permanente", "phone": "+1 650 742 2000", "website": "https://thrive.kaiserpermanente.org/care-near-you/northern-california/southsanfrancisco/locations/kaiser-permanente-south-san-francisco-medical-center/"}}, {"type": "way", "id": 27294884, "center": {"lat": 37.0366437, "lon": -121.5717801}, "nodes": [299636570, 299636571, 299636572, 299636573, 299636574, 299636575, 299636576, 299636577, 299636578, 299636570], "tags": {"addr:city": "Gilroy", "addr:housenumber": "9400", "addr:postcode": "95020", "addr:street": "No Name Uno", "amenity": "hospital", "beds": "93", "emergency": "yes", "healthcare": "hospital", "name": "Saint Louise Regional Hospital", "old_name": "South Valley Hospital", "opening_hours": "24/7", "operator": "Verity Health", "phone": "+1 408 848 2000", "website": "https://stlouise.verity.org/"}}, {"type": "way", "id": 27589931, "center": {"lat": 36.8339484, "lon": -121.3865176}, "nodes": [302955205, 302955206, 302955207, 314125535, 302955208, 314125537, 302955209, 314126721, 302955205], "tags": {"addr:city": "Hollister", "addr:housenumber": "911", "addr:postcode": "95023", "addr:street": "Sunset Drive", "amenity": "hospital", "beds": "62", "emergency": "yes", "gnis:feature_id": "1817274", "healthcare": "hospital", "name": "Hazel Hawkins Memorial Hospital", "opening_hours": "24/7", "phone": "+1 831 637 5711", "website": "http://hazelhawkins.com/"}}, {"type": "way", "id": 28404502, "center": {"lat": 37.7981756, "lon": -122.231433}, "nodes": [312008137, 9969668180, 9969668181, 5554578304, 9969668182, 5554578303, 312008138, 9969668188, 9969668191, 9969668183, 9969668190, 9969668194, 312008139, 312008140, 9969668196, 312008141, 9969668197, 312008142, 9969668198, 312008143, 312008144, 9969668174, 9969668199, 312008145, 9969668203, 9969668200, 9969668201, 9969668202, 312008147, 4147101867, 9969668178, 312008148, 312008149, 9969668179, 312008137], "tags": {"addr:city": "Oakland", "addr:housenumber": "1411", "addr:postcode": "94602", "addr:street": "East 31st Street", "alt_name": "Highland Hospital Alameda County Medical Center", "amenity": "hospital", "beds": "236", "emergency": "yes", "healthcare": "hospital", "name": "Highland Hospital", "opening_hours": "24/7", "operator": "Alameda Health System", "phone": "+1 510 437 4800", "website": "http://www.alamedahealthsystem.org/", "wikidata": "Q5758843", "wikipedia": "en:Highland Hospital (Oakland, California)"}}, {"type": "way", "id": 28459583, "center": {"lat": 37.8207593, "lon": -122.2643458}, "nodes": [312662313, 312662314, 5480570794, 312662315, 312662316, 312662317, 312662318, 312662319, 312662320, 4333165266, 4333165285, 312662321, 312662322, 312662323, 3999453470, 312662324, 312662325, 312662326, 3999453541, 312662328, 312662329, 312662330, 312662331, 312662332, 312662333, 312662334, 312662313], "tags": {"addr:city": "Oakland", "addr:housenumber": "350", "addr:postcode": "94609", "addr:street": "Hawthorne Avenue", "amenity": "hospital", "beds": "354", "emergency": "yes", "healthcare": "hospital", "name": "Alta Bates Summit Medical Center - Summit Campus", "old_name": "Summit Medical Center", "opening_hours": "24/7", "operator": "Sutter Health", "operator:wikidata": "Q7650154", "operator:wikipedia": "en:Sutter Health", "phone": "+1 510 655 4000", "website": "http://www.altabatessummit.org/"}}, {"type": "way", "id": 30906584, "center": {"lat": 37.376164, "lon": -122.0655721}, "nodes": [3058035158, 343586276, 472580672, 343586277, 343586278, 343586279, 343586280, 343586281, 343586282, 343586283, 343586284, 343586285, 343586286, 343586287, 343586288, 343586289, 343586290, 343586291, 3058035158], "tags": {"addr:city": "Mountain View", "addr:housenumber": "701", "addr:postcode": "94040", "addr:street": "East El Camino Real", "alt_name": "Palo Alto Medical Foundation Mountain View Center", "amenity": "hospital", "brand": "Sutter Health", "brand:wikidata": "Q7650154", "emergency": "no", "healthcare": "hospital", "name": "PAMF Mountain View Center", "old_name": "Camino Medical Group", "operator": "Palo Alto Medical Foundation", "operator:wikidata": "Q7128506", "phone": "+1 650 934 7000", "website": "http://www.pamf.org/mountainview/"}}, {"type": "way", "id": 31461189, "center": {"lat": 37.9834268, "lon": -122.0347632}, "nodes": [5298811316, 5298811317, 5298811318, 5298811319, 3221365813, 351305129, 5298811320, 5298811721, 346147505, 5298811722, 351314640, 57930024, 5298811723, 5298811724, 5298811725, 5552455356, 5298811726, 5298811727, 5298811728, 5298811729, 5298811730, 5298811731, 5298811732, 5298811734, 5298811735, 5298811736, 5298811737, 5298811738, 5298811739, 5298811740, 5298811741, 5298811742, 5298811743, 5298811744, 5298811745, 351314641, 5298811747, 5298811746, 351316207, 351316213, 351304122, 351304123, 5298811315, 7071418072, 10537060912, 5298811316], "tags": {"addr:city": "Concord", "addr:housenumber": "2540", "addr:postcode": "94520", "addr:street": "East Street", "amenity": "hospital", "beds": "245", "emergency": "yes", "gnis:feature_id": "1702205", "healthcare": "hospital", "name": "John Muir Medical Center, Concord", "old_name": "Mount Diablo Hospital Medical Center", "opening_hours": "24/7", "operator": "John Muir Health", "phone": "+1 925 682 8200", "website": "https://www.johnmuirhealth.com/locations/john-muir-medical-center-concord.html"}}, {"type": "way", "id": 31532102, "center": {"lat": 38.006747, "lon": -122.132542}, "nodes": [4986011394, 4976290510, 4976290511, 4976290505, 4976290500, 10168753016, 10168781420, 4976290501, 4986044372, 57808432, 5552566835, 4976290504, 4976290503, 4986019454, 4598943914, 352870654, 352870655, 4598873925, 4986019429, 4598873926, 4986019435, 5485202656, 4986019434, 4986019438, 4986019430, 5552566848, 4986019431, 10168586855, 4986019440, 10168586857, 57844355, 4986019426, 6543305877, 4621358677, 4598873931, 3222786092, 4598860140, 4598873936, 4598873934, 4598873932, 352870660, 4986044346, 4986011372, 352869642, 4986011394], "tags": {"addr:city": "Martinez", "addr:housenumber": "2500", "addr:postcode": "94553", "addr:state": "CA", "addr:street": "Alhambra Avenue", "amenity": "hospital", "beds": "176", "emergency": "yes", "healthcare": "hospital", "name": "Contra Costa Regional Medical Center", "opening_hours": "24/7", "operator": "Contra Costa Health Services", "phone": "+1 925 370 5000", "short_name": "CCRMC", "website": "https://cchealth.org/medicalcenter/"}}, {"type": "way", "id": 31556915, "center": {"lat": 37.9826256, "lon": -121.8029737}, "nodes": [352842382, 353113211, 353113281, 353113212, 5552266814, 353113213, 5552266815, 5552266816, 5552266817, 358821231, 353113017, 353113292, 353113018, 353113019, 352842735, 352842380, 352842382], "tags": {"addr:city": "Antioch", "addr:housenumber": "3901", "addr:postcode": "94509", "addr:street": "Lone Tree Way", "amenity": "hospital", "emergency": "yes", "gnis:feature_id": "1701759", "healthcare": "hospital", "name": "Sutter Delta Medical Center", "opening_hours": "24/7", "operator": "Sutter Health", "operator:wikidata": "Q7650154", "phone": "+1 925 779 7200", "website": "https://www.sutterhealth.org/delta", "wikidata": "Q7650150", "wikipedia": "en:Sutter Delta Medical Center"}}, {"type": "way", "id": 31741127, "center": {"lat": 37.9123991, "lon": -122.0403934}, "nodes": [355202757, 57859624, 4926888190, 57861631, 4926888201, 2746915545, 4926888225, 57861627, 4926888232, 57861626, 9587597423, 3224460320, 6554076020, 355202763, 355202765, 355202766, 355202767, 355202769, 355202770, 355202772, 355202774, 2746915543, 2746915503, 347406561, 347406562, 347406563, 347406564, 347406565, 347406566, 57845040, 6577897896, 6577897895, 347405952, 2607416233, 57861634, 347405948, 347404294, 6553860142, 355202757], "tags": {"addr:city": "Walnut Creek", "addr:housenumber": "1601", "addr:postcode": "94598", "addr:street": "Ygnacio Canal Trail", "alt_name": "Walnut Creek Medical Center.", "amenity": "hospital", "beds": "554", "emergency": "yes", "gnis:feature_id": "1702422", "healthcare": "hospital", "name": "John Muir Medical Center", "opening_hours": "24/7", "operator": "John Muir Health", "phone": "+1 925 939 3000", "website": "https://www.johnmuirhealth.com/locations/john-muir-medical-center-walnut-creek.html"}}, {"type": "way", "id": 32476139, "center": {"lat": 38.5408529, "lon": -121.7283438}, "nodes": [365143022, 365143023, 365143025, 2577776661, 2577776660, 365143027, 365143028, 365143030, 2577776666, 2577776667, 2577776668, 365143032, 2577776669, 365143033, 365143034, 365143036, 2577776670, 2577776671, 365143037, 2577776672, 2577776673, 365143039, 2577776665, 2577776664, 365143040, 365143043, 365143045, 365143046, 365143048, 365143050, 2577776662, 2577776663, 365143052, 365143053, 365143055, 365143056, 365143058, 365143060, 365143062, 365143022], "tags": {"addr:city": "Davis", "addr:housenumber": "1955", "addr:postcode": "95618", "addr:street": "Cowell Boulevard", "amenity": "hospital", "building": "hospital", "emergency": "no", "healthcare": "hospital", "name": "Kaiser Permanente", "operator": "Kaiser Permanente", "operator:short": "KP", "operator:wikidata": "Q1721601", "operator:wikipedia": "en:Kaiser Permanente"}}, {"type": "way", "id": 36469442, "center": {"lat": 36.6973679, "lon": -121.6339804}, "nodes": [425131364, 5549292031, 9359582693, 5549292030, 368166946, 8236250910, 9354081016, 9354111837, 9354111838, 9354111843, 9354081013, 9354081012, 9354081011, 9354081010, 9354111840, 9354111841, 425131366, 9359582692, 9354080992, 9354080989, 9354080990, 9354080991, 5549292036, 9354080968, 425131370, 9354080967, 5549292037, 9126358885, 5549292034, 5549292033, 8236251004, 425131372, 5549292032, 425131364], "tags": {"addr:city": "Salinas", "addr:housenumber": "1441", "addr:postcode": "93906", "addr:street": "Constitution Boulevard", "amenity": "hospital", "beds": "172", "emergency": "yes", "healthcare": "hospital", "name": "Natividad Medical Center", "opening_hours": "24/7", "phone": "+1 831 755 4111", "source": "Tiger2009", "website": "http://www.natividad.com/", "wikidata": "Q19605661", "wikipedia": "en:Natividad Medical Center"}}, {"type": "way", "id": 36671926, "center": {"lat": 36.6591017, "lon": -121.6463443}, "nodes": [426377227, 426377228, 426377229, 6009177217, 426377230, 426377227], "tags": {"addr:city": "Salinas", "addr:housenumber": "450", "addr:postcode": "93901", "addr:street": "East Romie Lane", "amenity": "hospital", "beds": "266", "emergency": "yes", "gnis:feature_id": "1873259", "healthcare": "hospital", "name": "Salinas Valley Memorial Healthcare System", "opening_hours": "24/7", "phone": "+1 831 757 4333", "website": "https://www.svmh.com/"}}, {"type": "way", "id": 37622850, "center": {"lat": 37.2444031, "lon": -121.9482986}, "nodes": [5550943385, 5550930712, 5550930713, 5550930714, 5550930715, 3555367368, 440983075, 5550943386, 5550943385], "tags": {"addr:city": "Los Gatos", "addr:housenumber": "15891", "addr:postcode": "95032", "addr:street": "Los Gatos Almaden Road", "amenity": "hospital", "beds": "70", "emergency": "no", "gnis:feature_id": "2107754", "healthcare": "hospital", "name": "Mission Oaks Hospital", "operator": "HCA", "operator:wikidata": "Q1630431", "operator:wikipedia": "en:HCA Healthcare", "phone": "+1 408 559 2011"}}, {"type": "way", "id": 37789413, "center": {"lat": 38.7662117, "lon": -121.2496604}, "nodes": [7659913442, 7659922592, 648673716, 648673714, 648673713, 648673708, 648673707, 7659922638, 648673705, 648673704, 648673702, 648673701, 7659922655, 7659922656, 648673697, 648673696, 648673694, 648673693, 648673692, 7659922639, 7659922637, 648673691, 648673690, 648673689, 648673685, 648673683, 648673680, 648673678, 648673677, 648673675, 648673673, 648673672, 648673670, 648673668, 7659922658, 7659922657, 648673664, 648673661, 648673658, 7659922635, 7659913468, 7659922636, 648673655, 648673652, 648673649, 648673636, 648673631, 648673628, 648673623, 648673618, 648673613, 648673610, 648673607, 648673605, 648673604, 7659922646, 7659922647, 648673602, 7659922671, 7659922672, 7659922674, 7659922675, 7659922676, 7659922650, 7659922648, 7659922649, 7659922677, 7659922678, 7659922670, 7659922668, 7659922666, 7659922664, 7659922661, 7659922660, 7659922659, 7659922662, 7659922663, 7659922665, 7659922667, 7659922669, 7659922679, 7659922680, 7659922673, 7659922681, 7659922682, 7659922683, 648673601, 648673600, 648673599, 648673597, 648673596, 648673592, 648673591, 648673589, 648673587, 648673586, 7659922721, 7659922718, 7659922719, 7659922720, 7659922722, 7659922717, 7659922716, 648673584, 648673582, 7659922710, 7659922715, 7659922711, 7659922712, 7659922714, 7659922713, 648673580, 648673578, 7659922703, 7659922702, 7659922701, 7659922700, 7659922699, 7659922698, 7659922697, 7659922696, 7659922695, 7659922694, 7659922693, 7659922692, 648673576, 450390961, 7659922707, 7659922708, 7659922706, 7659922705, 7659922709, 7659922704, 450389428, 7659922645, 7659922640, 7659922728, 7659922723, 7659922724, 7659922727, 7659922726, 7659922725, 450389425, 7659922729, 450389422, 7659922731, 7659922730, 450389419, 450389414, 450389411, 7659922642, 7659922643, 450389408, 450389405, 450389398, 450389395, 450389392, 450389391, 450389388, 7659922740, 443268309, 443268320, 443268314, 648673566, 648673564, 450388389, 648673561, 648673560, 7659922688, 7659922687, 7659922686, 7659922689, 7659922690, 7659922685, 7659922684, 7659922691, 7659922735, 7659922732, 7659922733, 7659922734, 443268306, 648673740, 7643480568, 648673737, 648673735, 7659922756, 7659922755, 648673733, 648673732, 648673730, 648673728, 648673726, 648673724, 648673722, 648673721, 648673720, 648673719, 7659913443, 7659913442], "tags": {"addr:housenumber": "1", "addr:postcode": "95661", "addr:street": "Medical Plaza Drive", "amenity": "hospital", "building": "hospital", "emergency": "yes", "healthcare": "hospital", "name": "Sutter Roseville Medical Center", "old_name": "Roseville Hospital", "opening_hours": "24/7", "operator": "Sutter Health", "operator:wikidata": "Q7650154", "operator:wikipedia": "en:Sutter Health", "phone": "+1 916 781 1000", "website": "http://www.sutterroseville.org/"}}, {"type": "way", "id": 37862115, "center": {"lat": 37.5523445, "lon": -121.9747427}, "nodes": [444222572, 444222574, 444222575, 444222576, 444222577, 444222578, 444222579, 444222580, 444222581, 444222582, 444222583, 444222584, 444222585, 444222586, 444222587, 444222588, 444222572], "tags": {"addr:city": "Fremont", "addr:housenumber": "39400", "addr:postcode": "94538", "addr:street": "Paseo Padre Parkway", "amenity": "hospital", "emergency": "yes", "gnis:feature_id": "1692866", "healthcare": "hospital", "name": "Kaiser Permanente Fremont Medical Center", "opening_hours": "24/7", "operator": "Kaiser Permanente", "operator:short": "KP", "operator:wikidata": "Q1721601", "operator:wikipedia": "en:Kaiser Permanente", "phone": "+1 510 248 3000", "source:outline": "USGS/Terraserver Urban", "website": "https://thrive.kaiserpermanente.org/care-near-you/northern-california/gsaa/locations/60/"}}, {"type": "way", "id": 38060492, "center": {"lat": 37.2400148, "lon": -121.8008829}, "nodes": [5063211970, 335574251, 9517954631, 335574253, 345381164, 335574255, 335574257, 345381154, 335574258, 5063211971, 447582719, 447582718, 447582717, 5063211969, 5550910654, 447582716, 447582715, 447582714, 2087817725, 2087817718, 447582713, 447582712, 447119868, 5063211970], "tags": {"addr:city": "San Jose", "addr:housenumber": "250", "addr:postcode": "95119", "addr:street": "Hospital Parkway", "amenity": "hospital", "beds": "235", "emergency": "yes", "healthcare": "hospital", "name": "Kaiser Permanente San Jose", "opening_hours": "24/7", "operator": "Kaiser Permanente", "operator:short": "KP", "operator:wikidata": "Q1721601", "operator:wikipedia": "en:Kaiser Permanente", "phone": "+1 408 972 3000", "website": "https://thrive.kaiserpermanente.org/care-near-you/northern-california/sanjose/locations/san-jose-main-campus-2/"}}, {"type": "way", "id": 38061549, "center": {"lat": 37.2523269, "lon": -121.9456645}, "nodes": [447591525, 447591526, 447591527, 5550974839, 5550974840, 447591528, 5550974841, 5550974842, 358806490, 5550974838, 447591530, 447591525], "tags": {"addr:city": "San Jose", "addr:housenumber": "2425", "addr:postcode": "95124", "addr:street": "Samaritan Drive", "amenity": "hospital", "beds": "342", "emergency": "yes", "gnis:feature_id": "1658635", "healthcare": "hospital", "name": "Good Samaritan Hospital", "opening_hours": "24/7", "operator": "HCA", "phone": "+1 408 559 2011", "website": "https://goodsamsanjose.com/", "wikidata": "Q5582914", "wikipedia": "en:Good Samaritan Hospital (San Jose)"}}, {"type": "way", "id": 38098752, "center": {"lat": 37.3114795, "lon": -121.9150893}, "nodes": [448140114, 1187426223, 448140115, 11060496535, 11060496534, 11060496533, 11060496532, 11060496531, 11060496530, 11060496529, 11060496536, 11060496528, 11060496527, 10866431338, 11060496526, 11060496525, 11060496524, 11060496523, 11060496537, 448140119, 448140120, 455915293, 448140121, 448140114], "tags": {"addr:city": "San Jose", "addr:housenumber": "1425", "addr:postcode": "95128", "addr:street": "Fruitdale Avenue", "amenity": "hospital", "beds": "16", "healthcare": "hospital", "healthcare:speciality": "psychiatry", "name": "Crestwood San Jose Psychiatric Health Facility", "website": "https://www.crestwoodbehavioralhealth.com"}}, {"type": "way", "id": 38198942, "center": {"lat": 37.3358468, "lon": -121.9991897}, "nodes": [1126587132, 1126587130, 450091153, 450091158, 450091161, 450091165, 450094069, 450094064, 450094075, 5054623937, 5054623936, 5054623932, 1126587132], "tags": {"addr:city": "Santa Clara", "addr:housenumber": "710", "addr:postcode": "95051", "addr:state": "CA", "addr:street": "Lawrence Expressway", "amenity": "hospital", "beds": "327", "emergency": "yes", "healthcare": "hospital", "name": "Kaiser Permanente Santa Clara Medical Center", "opening_hours": "24/7", "operator": "Kaiser Permanente", "operator:short": "KP", "operator:wikidata": "Q1721601", "operator:wikipedia": "en:Kaiser Permanente", "phone": "+1 408 851 1000", "source": "Indoor Mapping: https://mydoctor.kaiserpermanente.org/ncal/Images/CampusMap2012_tcm75-140535.pdf", "website": "https://thrive.kaiserpermanente.org/care-near-you/northern-california/santaclara/locations/santa-clara-medical-center-2/", "wheelchair": "yes", "wikidata": "Q30280234"}}, {"type": "way", "id": 38899283, "center": {"lat": 37.3281384, "lon": -121.9382542}, "nodes": [462082546, 462082547, 462082548, 462082549, 7556848213, 7556848218, 462082550, 462082551, 462082552, 462082553, 462082554, 3751172755, 462082556, 462082557, 462082546], "tags": {"addr:city": "San Jose", "addr:housenumber": "2105", "addr:postcode": "95128", "addr:street": "Forest Avenue", "amenity": "hospital", "beds": "358", "emergency": "yes", "healthcare": "hospital", "name": "O\u2019Connor Hospital", "opening_hours": "24/7", "operator": "Verity Health", "phone": "+1 408 947 2500", "website": "https://oconnor.verity.org/", "wikidata": "Q7071731", "wikipedia": "en:O'Connor Hospital"}}, {"type": "way", "id": 39359077, "center": {"lat": 38.3551254, "lon": -121.9513243}, "nodes": [5552718499, 5552718500, 5552718498, 5552718501, 5552718502, 5552718503, 5552718504, 5552718505, 5552718506, 471573300, 2686097375, 471573301, 2686097156, 2686097157, 447636831, 5552718499], "tags": {"addr:city": "Vacaville", "addr:housenumber": "1000", "addr:postcode": "95678", "addr:street": "Nut Tree Road", "amenity": "hospital", "beds": "50", "emergency": "yes", "gnis:feature_id": "1800093", "healthcare": "hospital", "name": "VacaValley Hospital", "opening_hours": "24/7", "operator": "NorthBay Healthcare", "phone": "+1 707 624 7000", "website": "https://www.northbay.org/"}}, {"type": "way", "id": 40188454, "center": {"lat": 37.4733357, "lon": -122.2858247}, "nodes": [484182425, 484182426, 5554991059, 5554991060, 5554991058, 484182427, 484182428, 9184322654, 9184322653, 9184322652, 484182430, 9184322651, 358806206, 9184322655, 9184322650, 9184322649, 484182431, 484182432, 484182425], "tags": {"addr:city": "Redwood City", "addr:housenumber": "200", "addr:postcode": "94062", "addr:street": "Edmonds Road", "amenity": "hospital", "emergency": "no", "gnis:feature_id": "1658211", "healthcare": "hospital", "healthcare:speciality": "psychiatry", "name": "Cordilleras Mental Health Center", "opening_hours": "24/7", "phone": "+1 650 367 1890", "website": "http://www.telecarecorp.com/cordilleras-mental-health-services/"}}, {"type": "way", "id": 40719759, "center": {"lat": 37.3688517, "lon": -122.0798626}, "nodes": [494700028, 494700032, 494700036, 494700039, 311352996, 311352995, 311352994, 494700056, 494700028], "tags": {"addr:city": "Mountain View", "addr:housenumber": "2500", "addr:postcode": "94040", "addr:street": "Grant Road", "amenity": "hospital", "beds": "443", "emergency": "yes", "gnis:feature_id": "1828699", "healthcare": "hospital", "name": "El Camino Hospital", "opening_hours": "24/7", "operator": "El Camino Health", "phone": "+1 650 940 7000", "website": "https://www.elcaminohospital.org/", "wikidata": "Q5350885", "wikipedia": "en:El Camino Hospital"}}, {"type": "way", "id": 41381925, "center": {"lat": 36.9900559, "lon": -121.9836077}, "nodes": [502867068, 502867069, 502867070, 502867071, 502867072, 502867073, 502867075, 502867076, 502867077, 502867028, 502867027, 502867030, 502867029, 502867032, 502867031, 502867037, 502867033, 502867051, 502867045, 502867055, 502866968, 502866970, 502866953, 502866962, 498458966, 502866713, 502866714, 498458970, 506127777, 506127833, 506127815, 506128640, 506128652, 506128663, 506128676, 506128688, 502867068], "tags": {"addr:city": "Santa Cruz", "addr:housenumber": "1555", "addr:postcode": "95065", "addr:state": "CA", "addr:street": "Soquel Drive", "amenity": "hospital", "beds": "222", "emergency": "yes", "healthcare": "hospital", "name": "Dominican Hospital", "opening_hours": "24/7", "operator": "Dignity Health", "phone": "+1 831 462 7700", "website": "https://www.dignityhealth.org/bayarea/locations/dominican", "wikidata": "Q30279859"}}, {"type": "way", "id": 43701384, "center": {"lat": 35.1136235, "lon": -120.5904363}, "nodes": [552865849, 552865821, 552865805, 5528412794, 1745764793, 552865830, 1745782942, 1745764731, 1745782921, 552865849], "tags": {"addr:city": "Arroyo Grande", "addr:housenumber": "345", "addr:postcode": "93420", "addr:street": "South Halcyon Road", "amenity": "hospital", "emergency": "yes", "healthcare": "hospital", "name": "Arroyo Grande Community Hospital", "opening_hours": "24/7", "operator": "Dignity Health", "operator:wikidata": "Q5276334", "phone": "+1 805 489 4261", "source": "Tiger2009", "website": "https://www.dignityhealth.org/central-coast/locations/arroyo-grande", "wikidata": "Q4796234", "wikipedia": "en:Arroyo Grande Community Hospital"}}, {"type": "way", "id": 43926023, "center": {"lat": 37.2935884, "lon": -120.4729925}, "nodes": [3084084835, 3084084836, 3084084837, 558599563, 3084084839, 3084084838, 558599469, 558599379, 3128880089, 3128880088, 3128880086, 7368734160, 3128880087, 3128880085, 3084084835], "tags": {"ALAND": "40683", "AREAID": "110414522423", "AWATER": "0", "COUNTYFP": "047", "MTFCC": "K1231", "STATEFP": "06", "Tiger:MTFCC": "K1231", "amenity": "hospital", "beds": "186", "emergency": "no", "healthcare": "hospital", "name": "Sutter Merced Medical Center", "source": "Tiger2009"}}, {"type": "way", "id": 43985625, "center": {"lat": 37.6255298, "lon": -121.7633724}, "nodes": [559311543, 559311540, 559311542, 559311532, 559311533, 559311530, 559311531, 559311534, 559311535, 559311537, 559311536, 559311538, 559311596, 559311603, 559311583, 559311585, 559311587, 559311584, 8262309911, 559311586, 559311615, 559311637, 559311630, 7116194864, 559311575, 559311555, 559311552, 559311547, 559311548, 559311549, 559311545, 559311518, 559311517, 559311528, 559311527, 559311524, 559311523, 559311519, 559311520, 559311521, 559311522, 559311529, 2628878431, 559311355, 2628878430, 2628878429, 559311354, 7116267154, 559311643, 559311647, 559311666, 559311665, 559311664, 559311701, 559311582, 559311543], "tags": {"addr:city": "Livermore", "addr:housenumber": "4951", "addr:postcode": "94550", "addr:street": "Arroyo Road", "amenity": "hospital", "emergency": "no", "healthcare": "hospital", "name": "VA Palo Alto Health Care System - Livermore Division", "opening_hours": "Mo-Fr 08:00-16:30", "operator": "United States Department of Veterans Affairs", "phone": "+1 925 373 4700", "source": "Tiger2009", "website": "https://www.paloalto.va.gov/locations/livermore.asp"}}, {"type": "way", "id": 53364481, "center": {"lat": 37.4662628, "lon": -122.1606326}, "nodes": [674858561, 674858545, 674858539, 674858537, 1422395889, 1422395891, 674858550, 674858541, 1422395895, 674858538, 1422395901, 674858534, 674858536, 674858563, 10215193167, 674858552, 674858543, 10215193163, 10215193162, 674858564, 10215303074, 10215303067, 10215303068, 674858559, 474663646, 674858561], "tags": {"addr:city": "Palo Alto", "addr:housenumber": "795", "addr:postcode": "94025", "addr:street": "Willow Road", "amenity": "hospital", "emergency": "no", "healthcare": "hospital", "healthcare:for": "veterans", "name": "VA Medical Center Menlo Park", "opening_hours": "Mo-Fr 08:00-16:30", "operator": "Veterans Health Administration", "operator:short": "VA", "operator:wikidata": "Q6580225", "phone": "+1 650 614 9997", "short_name": "VA", "website": "https://www.paloalto.va.gov/locations/menlopark.asp"}}, {"type": "way", "id": 61221974, "center": {"lat": 36.1526139, "lon": -120.3411726}, "nodes": [765241679, 765244961, 765238432, 765248121, 765237606, 765238438, 765227214, 765228553, 765247473, 10567469001, 765245931, 10567469000, 10567468999, 765233324, 765238586, 765242766, 765226718, 765234226, 765231682, 765247601, 765232584, 765241679], "tags": {"addr:city": "Coalinga", "addr:housenumber": "1191", "addr:postcode": "93210", "addr:street": "West Phelps Avenue", "amenity": "hospital", "emergency": "yes", "healthcare": "hospital", "name": "Coalinga Regional Medical Center", "opening_hours": "24/7", "phone": "+1 559 935 6400", "website": "http://coalingamedicalcenter.com/"}}, {"type": "way", "id": 62203480, "center": {"lat": 37.6655543, "lon": -120.9973655}, "nodes": [775904311, 775904312, 775904313, 775904314, 775904311], "tags": {"addr:city": "Modesto", "addr:housenumber": "1441", "addr:postcode": "95350", "addr:street": "Florida Avenue", "amenity": "hospital", "beds": "447", "emergency": "yes", "gnis:feature_id": "1658425", "healthcare": "hospital", "name": "Doctors Medical Center", "opening_hours": "24/7", "operator": "TH Medical", "phone": "+1 209 578 1211", "website": "https://www.dmc-modesto.com/"}}, {"type": "way", "id": 104334210, "center": {"lat": 37.8244806, "lon": -122.2579905}, "nodes": [1203781267, 3139586275, 3139586271, 3139586286, 3139586277, 1203781257, 3215549005, 1203781269, 1203781229, 1203781260, 1203781166, 1203781148, 1203781189, 1203781246, 1203781139, 1203781144, 1203781213, 1203781280, 2192253671, 1203781124, 1203781146, 1203781127, 1203781289, 1203781238, 1203781286, 1203781131, 10891973809, 1203781207, 1203781227, 1203781187, 3139581944, 3139581952, 1203781285, 1203781180, 1203781223, 1203781270, 1203781264, 1203781267], "tags": {"addr:city": "Oakland", "addr:housenumber": "3600", "addr:postcode": "94611", "addr:street": "Broadway", "alt_name": "Kaiser Oakland", "amenity": "hospital", "beds": "365", "emergency": "yes", "healthcare": "hospital", "name": "Oakland Medical Center", "opening_hours": "24/7", "operator": "Kaiser Permanente", "operator:short": "KP", "operator:wikidata": "Q1721601", "operator:wikipedia": "en:Kaiser Permanente", "phone": "+1 510 752 1000", "source": "bing & medical center map", "website": "https://mydoctor.kaiserpermanente.org/ncal/facilities/region/eastbay/area_master/about_us/oakland/", "wikidata": "Q7074025", "wikipedia": "en:Oakland Medical Center"}}, {"type": "way", "id": 112073351, "center": {"lat": 37.7682569, "lon": -122.4346212}, "nodes": [1274907119, 1274907139, 4484370255, 1274907137, 1274907164, 1274907119], "tags": {"addr:city": "San Francisco", "addr:country": "US", "addr:housenumber": "45", "addr:postcode": "94114", "addr:state": "CA", "addr:street": "Castro Street", "amenity": "hospital", "emergency": "yes", "gnis:feature_id": "1656833", "healthcare": "hospital", "name": "CPMC Davies Campus", "opening_hours": "24/7", "operator": "California Pacific Medical Center", "phone": "+1 415 600 6000", "website": "http://www.cpmc.org/"}}, {"type": "way", "id": 115118200, "center": {"lat": 38.3505839, "lon": -120.7645567}, "nodes": [1302033447, 1302033438, 1302033476, 1302033439, 1302033437, 1302033411, 1302033462, 1302033446, 1302033397, 1302033301, 1302033488, 1302033478, 1321283812, 1302033412, 1302033308, 1302033489, 1302033441, 1302033330, 1302033305, 1302033402, 1302033480, 1302033447], "tags": {"addr:city": "Jackson", "addr:housenumber": "200", "addr:postcode": "95642", "addr:street": "Mission Boulevard", "amenity": "hospital", "beds": "52", "emergency": "yes", "gnis:feature_id": "1733378", "healthcare": "hospital", "name": "Sutter Amador Hospital", "opening_hours": "24/7", "operator": "Sutter Health", "phone": "+1 209 223 7500", "source": "Bing", "website": "https://www.sutterhealth.org/mhlb/find-location/facility/sutter-amador-hospital"}}, {"type": "way", "id": 120650296, "center": {"lat": 38.7463051, "lon": -121.2500598}, "nodes": [1352319568, 1352318495, 1352319833, 1352321479, 1352324032, 1352319087, 1352320333, 1352322266, 1352324873, 1352325004, 1352318716, 1352319959, 1352321699, 1352325574, 1352319279, 1352320566, 1352322574, 1352325065, 1352318812, 1352320038, 1352321797, 1352325678, 1352319344, 1352320703, 1352322799, 1352323245, 1352318947, 1352320187, 1352324603, 1352318194, 355819400, 1352319477, 1352320954, 1352319752, 1352321372, 1352323816, 1352325523, 1352320249, 1352322133, 1352324826, 1352318442, 1352318601, 1352319912, 1352321593, 1352324353, 1352319209, 1352319568], "tags": {"addr:city": "Roseville", "addr:housenumber": "1600", "addr:postcode": "95661", "addr:street": "Eureka Road", "amenity": "hospital", "attribution": "City of Roseville GIS", "emergency": "yes", "healthcare": "hospital", "name": "Kaiser Permanente Roseville Medical Center", "opening_hours": "24/7", "operator": "Kaiser Permanente", "operator:short": "KP", "operator:wikidata": "Q1721601", "operator:wikipedia": "en:Kaiser Permanente", "phone": "+1 916 784 4000", "source": "http://www.roseville.ca.us/services/maps_n_data/data_clearinghouse.asp", "website": "https://thrive.kaiserpermanente.org/care-near-you/northern-california/northvalley/locations/roseville-medical-center/"}}, {"type": "way", "id": 120650308, "center": {"lat": 38.7654433, "lon": -121.2481887}, "nodes": [5535954104, 1352320926, 7659922538, 7659922537, 7659922536, 7659922535, 1352323161, 1352325200, 1352318918, 1352321534, 1352324170, 1352325622, 1352319312, 1352322308, 1352324910, 1352318557, 1352319860, 1352319992, 1352321729, 1352324574, 1352318147, 1352320614, 1352322684, 1352325031, 1352318747, 1352325249, 1352318970, 1352320198, 1352322037, 1352318224, 1352319497, 1352321022, 1352323314, 1352323676, 1352325486, 1352319148, 1352320368, 1352324797, 1352318390, 1352319718, 1352321274, 1352323941, 1352325552, 355834070, 1352319246, 1352320515, 1352324863, 1352318481, 1352319809, 1352321435, 1352321658, 1352324491, 1352318024, 1352319383, 1352322508, 1352324979, 1352318684, 1352319939, 1352318907, 1352320145, 1352321948, 1352324698, 1352319437, 1352320884, 1352323070, 1352325188, 1352325387, 1352319048, 1352320287, 1352322189, 5535953702, 1352318310, 7659909250, 7659909251, 1352319268, 1352319242, 1352322570, 1352318493, 5535954098, 5535954097, 5535954096, 5535954095, 5535954102, 5535954101, 5535954100, 5535954099, 5535954103, 7659909249, 7659909248, 1352323539, 1352318827, 1352320081, 1352321827, 5535954104], "tags": {"amenity": "hospital", "attribution": "City of Roseville GIS", "healthcare": "hospital", "landuse": "civic", "source": "http://www.roseville.ca.us/services/maps_n_data/data_clearinghouse.asp"}}, {"type": "way", "id": 123074822, "center": {"lat": 37.9508127, "lon": -121.7748718}, "nodes": [1373593925, 11270406793, 1373592842, 11270157524, 1373592563, 1390372850, 1373592415, 1373592423, 1373592431, 1373592510, 1373592513, 1373592530, 8881986046, 1373592467, 1373592464, 1373592727, 5293088650, 1390372851, 1390372852, 1373593925], "tags": {"addr:city": "Antioch", "addr:housenumber": "4501", "addr:postcode": "94531", "addr:street": "Sand Creek Road", "amenity": "hospital", "emergency": "yes", "healthcare": "hospital", "name": "Kaiser Permanente Antioch Medical Center", "opening_hours": "24/7", "operator": "Kaiser Permanente", "operator:short": "KP", "operator:wikidata": "Q1721601", "phone": "+1 925 813 6500", "website": "https://thrive.kaiserpermanente.org/care-near-you/northern-california/diablo/locations/antioch-medical-center/"}}, {"type": "way", "id": 127161947, "center": {"lat": 39.1155799, "lon": -121.3419258}, "nodes": [1408014128, 1408014096, 1408014098, 1408014071, 1408014072, 1408014073, 1408014063, 1408013996, 1408013551, 1408013533, 1408013503, 1408013486, 1408013476, 1408013469, 1408013457, 1408013459, 1408013433, 1408013423, 1408013445, 1408013487, 1408013726, 1408014080, 1408014113, 1408014115, 1408014116, 1408014134, 1408014128], "tags": {"FMMP_modified": "no", "FMMP_reviewed": "no", "acres": "20.2384943817", "addr:county": "Yuba", "amenity": "hospital", "attribution": "Farmland Mapping and Monitoring Program", "description": "No Emergency Services Wellness Clinic Military families/ Dependents only", "emergency": "no", "name": "Beale AFB Clinic", "operator": "9th Medical Group", "source": "http://www.consrv.ca.gov/dlrp/fmmp/products/Pages/DownloadGISdata.aspx"}}, {"type": "way", "id": 129008826, "center": {"lat": 37.6936709, "lon": -121.8808269}, "nodes": [1424212064, 1424211889, 1424211862, 1424211850, 1424211871, 1424211885, 1424211898, 9791606782, 1424211909, 1424211915, 1424211906, 1424211901, 1424211985, 1424212156, 1424212244, 1424212287, 1424212333, 1424212349, 1424212364, 1424212379, 1424212395, 1424212396, 1424212394, 1424212393, 1424212387, 1424212385, 1424212351, 1424212169, 1424212098, 1424212064], "tags": {"addr:city": "Pleasanton", "addr:housenumber": "5555", "addr:postcode": "94588", "addr:street": "West Las Positas Boulevard", "amenity": "hospital", "beds": "242", "emergency": "yes", "healthcare": "hospital", "name": "ValleyCare Medical Center", "opening_hours": "24/7", "operator": "Stanford Health Care", "phone": "+1 925 847 3000", "website": "https://www.valleycare.com/"}}, {"type": "way", "id": 152699989, "center": {"lat": 36.9869751, "lon": -121.9211056}, "nodes": [1654934859, 1654934908, 1654934868, 9854636621, 9854636622, 1654934847, 1654934855, 1654934864, 9854636615, 1654934859], "tags": {"addr:housenumber": "6800", "addr:postcode": "95003", "addr:street": "Soquel Drive", "amenity": "hospital", "building": "yes", "designation": "Health Clinic", "emergency": "no", "emergency_service": "no", "name": "Doctors on Duty", "note": "Non-emergency urgent care clinic"}}, {"type": "way", "id": 160702015, "center": {"lat": 37.7739399, "lon": -122.4536158}, "nodes": [1727390361, 1727390375, 1727390363, 1727390377, 2682541006, 2682541037, 2682541073, 1727390379, 1727390381, 1727390304, 5437182880, 5437182887, 1727390286, 1727390361], "tags": {"addr:city": "San Francisco", "addr:country": "US", "addr:housenumber": "450", "addr:postcode": "94117", "addr:state": "CA", "addr:street": "Stanyan Street", "amenity": "hospital", "beds": "159", "emergency": "yes", "gnis:feature_id": "1656868", "healthcare": "hospital", "name": "Saint Mary's Medical Center", "opening_hours": "24/7", "operator": "Dignity Health", "operator:wikidata": "Q5276334", "phone": "+1 877 507 1759", "website": "https://www.dignityhealth.org/bayarea/locations/stmarys", "wikidata": "Q7590353", "wikipedia": "en:St. Mary's Medical Center (San Francisco)"}}, {"type": "way", "id": 160703804, "center": {"lat": 37.7954771, "lon": -122.4090035}, "nodes": [4055466275, 4055466276, 2639482704, 2623911640, 2623911663, 2623911665, 4055466280, 4055466275], "tags": {"addr:city": "San Francisco", "addr:country": "US", "addr:housenumber": "845", "addr:postcode": "94133", "addr:state": "CA", "addr:street": "Jackson Street", "amenity": "hospital", "beds": "65", "emergency": "yes", "fax": "+1 415 217 4188", "gnis:feature_id": "1655354", "healthcare": "hospital", "name": "Chinese Hospital", "opening_hours": "24/7", "phone": "+1 415 982 2400", "url": "http://www.chinesehospital-sf.org/", "website": "http://www.chinesehospital-sf.org/", "wikidata": "Q7413971"}}, {"type": "way", "id": 160705973, "center": {"lat": 37.7906634, "lon": -122.4322447}, "nodes": [1727449113, 10733809879, 10733809874, 10733809889, 10733809878, 1727459945, 1727459943, 10720141186, 1727449126, 1727449136, 1727449148, 1727449151, 1727449153, 10744771187, 1727449154, 10744771172, 10799673238, 10744771178, 1727449113], "tags": {"addr:city": "San Francisco", "addr:country": "US", "addr:housenumber": "2333", "addr:postcode": "94115", "addr:state": "CA", "addr:street": "Buchanan Street", "amenity": "hospital", "emergency": "yes", "healthcare": "hospital", "name": "California Pacific Medical Center", "opening_hours": "24/7", "operator": "Sutter Health", "phone": "+1 415 600 6000", "website": "http://www.cpmc.org/", "wikidata": "Q5020739", "wikipedia": "en:California Pacific Medical Center"}}, {"type": "way", "id": 160709337, "center": {"lat": 37.7472485, "lon": -122.4210918}, "nodes": [2760713347, 2760713427, 1727484931, 1727484930, 1727484922, 4087582688, 1727484917, 4087582687, 1727484915, 1727484908, 1727484909, 1727484910, 1727484911, 1727484912, 2760713347], "tags": {"addr:city": "San Francisco", "addr:country": "US", "addr:housenumber": "3555", "addr:postcode": "94110", "addr:state": "CA", "addr:street": "Cesar Chavez Street", "amenity": "hospital", "beds": "120", "emergency": "yes", "gnis:feature_id": "1656867", "healthcare": "hospital", "name": "CPMC Saint Luke's Campus", "opening_hours": "24/7", "operator": "California Pacific Medical Center", "phone": "+1 415 647 8600", "website": "http://www.cpmc.org/about/stluke.html"}}, {"type": "way", "id": 160710807, "center": {"lat": 37.7896083, "lon": -122.4168672}, "nodes": [1727493166, 1727493164, 2668926176, 1727493167, 1727493168, 1727493174, 1727493176, 1727493170, 1727493172, 1727493166], "tags": {"addr:city": "San Francisco", "addr:country": "US", "addr:housenumber": "900", "addr:postcode": "94109", "addr:state": "CA", "addr:street": "Hyde Street", "amenity": "hospital", "beds": "211", "emergency": "yes", "gnis:feature_id": "1656855", "healthcare": "hospital", "name": "Saint Francis Memorial Hospital", "opening_hours": "24/7", "operator": "Dignity Health", "operator:wikidata": "Q5276334", "operator:wikipedia": "en:Dignity Health", "phone": "+1 415 353 6000", "website": "https://www.dignityhealth.org/bayarea/locations/saintfrancis", "wikidata": "Q7401259", "wikipedia": "en:Saint Francis Memorial Hospital"}}, {"type": "way", "id": 160833241, "center": {"lat": 37.7865654, "lon": -122.4559321}, "nodes": [1728484290, 1728484287, 7115500116, 7115500117, 1728484292, 1728484304, 1728484302, 1728484306, 1728484293, 7115500115, 1728484291, 1728484290], "tags": {"addr:city": "San Francisco", "addr:country": "US", "addr:postcode": "94118", "addr:state": "CA", "amenity": "hospital", "emergency": "yes", "healthcare": "hospital", "name": "CPMC California Campus", "opening_hours": "24/7", "operator": "Sutter Health", "operator:wikidata": "Q7650154", "operator:wikipedia": "en:Sutter Health", "phone": "+1 415 600 6000", "website": "http://www.cpmc.org/", "wheelchair": "yes"}}, {"type": "way", "id": 160833245, "center": {"lat": 37.7828588, "lon": -122.4418785}, "nodes": [1728484170, 1728484173, 1728484175, 1728484177, 1728484179, 1728484181, 1728484193, 1728484198, 1728484188, 1728484189, 1728484171, 1728484166, 1728484167, 1728484168, 1728484169, 1728484164, 1728484162, 1728484159, 1728484170], "tags": {"addr:city": "San Francisco", "addr:country": "US", "addr:housenumber": "2425", "addr:postcode": "94115", "addr:state": "CA", "addr:street": "Geary Boulevard", "amenity": "hospital", "beds": "239", "emergency": "yes", "gnis:feature_id": "1655671", "healthcare": "hospital", "name": "Kaiser Permanente Medical Center", "opening_hours": "24/7", "operator": "Kaiser Permanente", "operator:short": "KP", "operator:wikidata": "Q1721601", "operator:wikipedia": "en:Kaiser Permanente", "phone": "+1 415 833 2000", "website": "https://thrive.kaiserpermanente.org/care-near-you/northern-california/sanfrancisco/locations/hospital-2/", "wheelchair": "yes"}}, {"type": "way", "id": 160833250, "center": {"lat": 37.7848676, "lon": -122.4393802}, "nodes": [1728484214, 1728484211, 1728484209, 1728484207, 1728484195, 1728484194, 1728484192, 5433307348, 1728484191, 1728484190, 1728484213, 4012270789, 5433307356, 1728484197, 1728484223, 1728484229, 1728484257, 1728484253, 1728484264, 1728484266, 1728484271, 5612907115, 1728484272, 1728484269, 1728484270, 1728484288, 1728484289, 1728484283, 1728484285, 1728484267, 1728484268, 1728484265, 1728484263, 1728484252, 1728484214], "tags": {"addr:city": "San Francisco", "addr:housenumber": "1600", "addr:postcode": "94115", "addr:street": "Divisadero Street", "alt_name": "UCSF Medical Center at Mount Zion", "amenity": "hospital", "emergency": "no", "healthcare": "hospital", "name": "UCSF Mount Zion Campus", "operator": "University of California, San Francisco", "phone": "+1 415 567 6600", "website": "http://mountzion.ucsfmedicalcenter.org/", "wheelchair": "yes"}}, {"type": "way", "id": 160835902, "center": {"lat": 37.7492051, "lon": -122.4573211}, "nodes": [1728510518, 1728510520, 6443839836, 6443839835, 1728510532, 1728510536, 1728510537, 1728510543, 1728510541, 1728510539, 1728510530, 1728510526, 1728510524, 1728510528, 1728510522, 1728510516, 1728510517, 1728510515, 1728510514, 1728510504, 1728510502, 1728510499, 6032632200, 1728510501, 4329854933, 5330252800, 5022899786, 1728510491, 6947423005, 6032632231, 6947423006, 6947423007, 6947423013, 6947423008, 6947423012, 6947423011, 6947423010, 6947423009, 1728510476, 1728510486, 1728510488, 1728510490, 1728510492, 1728510493, 1728510494, 1728510495, 1728510496, 1728510497, 1728510512, 1728510513, 6032632068, 6032632044, 6032631996, 1728510518], "tags": {"addr:city": "San Francisco", "addr:country": "US", "addr:housenumber": "375", "addr:postcode": "94116", "addr:state": "CA", "addr:street": "Laguna Honda Boulevard", "amenity": "hospital", "beds": "780", "ele": "152", "emergency": "no", "gnis:county_id": "075", "gnis:created": "01/19/1981", "gnis:edited": "02/15/2007", "gnis:feature_id": "226776", "gnis:state_id": "06", "healthcare": "hospital", "name": "Laguna Honda Hospital And Rehabilitation Center", "phone": "415-759-2300", "url": "http://lagunahonda.org"}}, {"type": "way", "id": 174612708, "center": {"lat": 38.1311841, "lon": -122.2383367}, "nodes": [358832202, 1852725339, 9477259432, 1852725331, 9477259431, 1852725304, 1852725334, 1852725137, 1852725194, 1852725366, 1852725130, 1852725384, 1852725266, 1852725337, 1852725178, 1852725364, 1852725264, 1852725311, 1852725324, 1852725136, 1852725291, 1772498212, 1852725077, 358832202], "tags": {"addr:city": "Vallejo", "addr:housenumber": "300", "addr:postcode": "94589", "addr:state": "CA", "addr:street": "Hospital Drive", "amenity": "hospital", "beds": "102", "emergency": "yes", "gnis:feature_id": "1800105", "healthcare": "hospital", "name": "Sutter Solano Medical Center", "opening_hours": "24/7", "operator": "Sutter Health", "operator:wikidata": "Q7650154", "operator:wikipedia": "en:Sutter Health", "phone": "+1 707 554 4444", "website": "https://www.sutterhealth.org/ssmc"}}, {"type": "way", "id": 174614552, "center": {"lat": 38.1266763, "lon": -122.2473943}, "nodes": [1852749586, 1852749541, 1852749590, 1852749573, 1852749565, 1852749579, 1852749582, 1852749576, 1852749543, 1852749528, 1852749536, 1852749569, 1852749534, 1852749538, 1852749532, 1852696268, 1852696309, 1852749586], "tags": {"addr:city": "Vallejo", "addr:housenumber": "975", "addr:postcode": "94589", "addr:state": "CA", "addr:street": "Sereno Drive", "amenity": "hospital", "beds": "248", "emergency": "yes", "healthcare": "hospital", "name": "Kaiser Permanente Vallejo Hospital & Medical Offices", "opening_hours": "24/7", "operator": "Kaiser Permanente", "operator:short": "KP", "operator:wikidata": "Q1721601", "operator:wikipedia": "en:Kaiser Permanente", "phone": "+1 707 651 1000", "website": "https://thrive.kaiserpermanente.org/care-near-you/northern-california/napasolano/locations/vallejo-hospital-medical-offices/"}}, {"type": "way", "id": 178929007, "center": {"lat": 37.7062327, "lon": -121.0524062}, "nodes": [1892833477, 1892833481, 1892833479, 7088870836, 7088870835, 1895807567, 1892833483, 1892833477], "tags": {"addr:city": "Modesto", "addr:housenumber": "4601", "addr:postcode": "95356", "addr:street": "Dale Road", "amenity": "hospital", "emergency": "yes", "healthcare": "hospital", "name": "Kaiser Permanente Modesto Medical Center and Medical Offices", "opening_hours": "24/7", "operator": "Kaiser Permanente", "operator:short": "KP", "operator:wikidata": "Q1721601", "phone": "+1 209 735 5000", "website": "https://thrive.kaiserpermanente.org/care-near-you/northern-california/centralvalley/locations/modesto-medical-center-and-offices/"}}, {"type": "way", "id": 191371068, "center": {"lat": 38.4068953, "lon": -121.409918}, "nodes": [2019559088, 2019559090, 2019572861, 2021967003, 2019559091, 2021967005, 2021967006, 2021967002, 2019559092, 2021967007, 2021967004, 2019559082, 2019559088], "tags": {"amenity": "hospital", "emergency": "no", "name": "Mercy Medical Plaza"}}, {"type": "way", "id": 200532114, "center": {"lat": 37.3116821, "lon": -120.4783547}, "nodes": [6350298453, 6350298452, 2105111537, 2105111538, 6350298453], "tags": {"amenity": "hospital", "designation": "Outpatient Center", "emergency": "no", "healthcare": "hospital", "name": "Mercy Medical Center Merced Dominican Campus", "operator": "Mercy", "operator:wikidata": "Q19896177", "wheelchair": "yes"}}, {"type": "way", "id": 209305484, "center": {"lat": 37.8554582, "lon": -122.2576518}, "nodes": [2195327652, 2195327668, 2195347819, 2195347817, 2195347828, 2195347820, 2195347822, 2195347825, 2195327630, 2195327637, 2195327676, 2195327661, 8072329900, 11168893968, 11168893969, 2195327644, 11168893963, 11168893961, 11168893962, 2195327652], "tags": {"addr:city": "Berkeley", "addr:housenumber": "2450", "addr:postcode": "94705", "addr:street": "Ashby Avenue", "alt_name": "Alta Bates Hospital;Alta Bates Medical Center", "amenity": "hospital", "beds": "401", "emergency": "yes", "gnis:feature_id": "1675994", "healthcare": "hospital", "name": "Alta Bates Summit Medical Center - Alta Bates Campus", "opening_hours": "24/7", "operator": "Sutter Health", "phone": "+1 510 204 4444", "website": "https://www.sutterhealth.org/find-location/facility/alta-bates-summit-medical-center-alta-bates-campus", "wheelchair": "yes"}}, {"type": "way", "id": 214002883, "center": {"lat": 37.3621961, "lon": -120.5740268}, "nodes": [2236368599, 2236368612, 2236368611, 2236368614, 2236368610, 2236368615, 2236368607, 2236368609, 2236368608, 2236368606, 2236368604, 2236368605, 2236368602, 2236368603, 2236368600, 2236368601, 2236368599], "tags": {"addr:city": "Atwater", "addr:housenumber": "1910", "addr:postcode": "95301", "addr:street": "West Customer Care Way", "amenity": "hospital", "building": "commercial", "emergency": "no", "name": "Golden Valley Heath Centers", "shop": "mobile_phone"}}, {"type": "way", "id": 222473837, "center": {"lat": 37.9370449, "lon": -122.3609568}, "nodes": [2082821972, 2314436787, 2314436802, 2314436790, 2314436789, 2314436784, 2314436799, 2314436796, 2314436788, 2314436800, 2314436806, 2314436798, 2314436795, 2314436791, 2314436804, 2314436793, 2314436797, 2082821971, 2082821972], "tags": {"addr:city": "Richmond", "addr:country": "US", "addr:housenumber": "901", "addr:postcode": "94801", "addr:state": "CA", "addr:street": "Nevin Avenue", "amenity": "hospital", "emergency": "yes", "healthcare": "hospital", "name": "Kaiser Permanente Richmond Medical Center", "opening_hours": "24/7", "operator": "Kaiser Permanente", "operator:short": "KP", "operator:wikidata": "Q1721601", "phone": "+1 510 307 1555", "website": "https://thrive.kaiserpermanente.org/care-near-you/northern-california/eastbay/locations/richmond-medical-center/", "wikidata": "Q7330915"}}, {"type": "way", "id": 231055907, "center": {"lat": 37.7625985, "lon": -122.2539513}, "nodes": [358817397, 2394724031, 559261052, 559260829, 559260821, 2394724038, 5938503081, 4604467142, 5938503069, 2394724014, 2394724008, 2394724046, 358817397], "tags": {"addr:city": "Alameda", "addr:housenumber": "2070", "addr:postcode": "94501", "addr:street": "Clinton Avenue", "amenity": "hospital", "beds": "215", "emergency": "yes", "gnis:feature_id": "1670844", "healthcare": "hospital", "name": "Alameda Hospital", "opening_hours": "24/7", "operator": "Alameda Health System", "phone": "+1 510 522 3700", "website": "http://www.alamedahealthsystem.org/", "wikidata": "Q4705871", "wikipedia": "en:Alameda Hospital"}}, {"type": "way", "id": 237618827, "center": {"lat": 34.6408243, "lon": -120.4395756}, "nodes": [2455000914, 5526738603, 2455000915, 2455000916, 5526738602, 2455000917, 2455000914], "tags": {"addr:city": "Lompoc", "addr:housenumber": "1515", "addr:postcode": "93463", "addr:street": "East Ocean Avenue", "amenity": "hospital", "emergency": "yes", "healthcare": "hospital", "healthcare:speciality": "general;surgery;emergency;radiology;maternity;internal;paediatrics;laboratory;birthing;bariatic_surgery;critical_care;physical_therapy", "name": "Lompoc Valley Medical Center", "opening_hours": "24/7", "operator": "Lompoc Valley Medical Center", "operator:type": "community", "phone": "+1 805 737 3300", "website": "https://lompocvmc.com/locations/lvmc", "wikidata": "Q21593078"}}, {"type": "way", "id": 242448523, "center": {"lat": 38.6813731, "lon": -121.158396}, "nodes": [2499148556, 2499148557, 2499148559, 2499148560, 2499148561, 2499148562, 2499148563, 2499148564, 2499148565, 2499148566, 2499148567, 2499148568, 2499148569, 2499148570, 2499148571, 2499148572, 2499148573, 2499148574, 2499148556], "tags": {"addr:city": "Folsom", "addr:housenumber": "330", "addr:postcode": "95630", "addr:street": "Montrose Drive", "amenity": "hospital", "beds": "58", "building": "yes", "emergency": "no", "healthcare": "hospital", "name": "Vibra Hospital"}}, {"type": "way", "id": 246354609, "center": {"lat": 38.6875615, "lon": -121.7949833}, "nodes": [2533999067, 2534078259, 2534078265, 2534078263, 2534078260, 2534078269, 2534078266, 2534078268, 2534078257, 2533999068, 2533999067], "tags": {"addr:city": "Woodland", "addr:housenumber": "137", "addr:postcode": "95695", "addr:street": "North Cottonwood Street", "amenity": "hospital", "building": "yes", "emergency": "no", "healthcare": "hospital", "name": "Herbert Bauer M.D. Health and Alcohol, Drug & Mental Health Building", "phone": "5306668516", "source": "http://www.yolocounty.org/Index.aspx?page=56", "website": "http://www.yolocounty.org/Index.aspx?page=59"}}, {"type": "way", "id": 251737719, "center": {"lat": 37.530899, "lon": -122.3002084}, "nodes": [2579210642, 2579210609, 2579210655, 2579210636, 2579210628, 2579210658, 2579210642], "tags": {"addr:city": "San Mateo", "addr:housenumber": "222", "addr:postcode": "94403", "addr:street": "West 39th Avenue", "amenity": "hospital", "beds": "509", "emergency": "yes", "healthcare": "hospital", "name": "San Mateo Medical Center", "opening_hours": "24/7", "operator": "San Mateo County", "phone": "+1 650 573 2222", "source": "Tiger2009", "website": "https://www.smchealth.org/san-mateo-medical-center"}}, {"type": "way", "id": 278755523, "center": {"lat": 37.9279872, "lon": -122.029279}, "nodes": [57848747, 5772246094, 4925258298, 5772246109, 4925258280, 2830699358, 5772246174, 2830699285, 4925258314, 4925258315, 4925258308, 5772246106, 4925258312, 4925258309, 5772246184, 4925258316, 2830698626, 2757716740, 4925258525, 4878855048, 4925258317, 4878855055, 4878855065, 57848747], "tags": {"amenity": "hospital", "healthcare": "hospital", "name": "Kaiser Permanente Medical Offices", "operator": "Kaiser Permanente", "operator:short": "KP", "operator:wikidata": "Q1721601"}}, {"type": "way", "id": 281790795, "center": {"lat": 37.9711841, "lon": -121.28857}, "nodes": [2857578898, 5541025371, 2857578882, 2857582068, 2857583953, 2857584473, 2857579382, 5541025370, 2857578393, 2857578898], "tags": {"addr:city": "Stockton", "addr:housenumber": "1801", "addr:postcode": "95204", "addr:state": "CA", "addr:street": "Cemetery Lane", "amenity": "hospital", "beds": "355", "emergency": "yes", "gnis:feature_id": "1659570", "healthcare": "hospital", "name": "Saint Josephs Hospital", "opening_hours": "24/7", "operator": "Dignity Health", "operator:wikidata": "Q5276334", "operator:wikipedia": "en:Dignity Health", "phone": "+1 209 943 2000", "website": "https://www.dignityhealth.org/central-california/locations/stjosephs-stockton", "wikidata": "Q108828229"}}, {"type": "way", "id": 281792074, "center": {"lat": 37.9615447, "lon": -121.3017327}, "nodes": [2857566103, 2857565940, 2857566904, 358806315, 2857566987, 2857566997, 2857567213, 2857566310, 2857563135, 2857566057, 2857566103], "tags": {"addr:city": "Stockton", "addr:housenumber": "525", "addr:postcode": "95203", "addr:street": "West Acacia Street", "amenity": "hospital", "beds": "170", "emergency": "yes", "gnis:feature_id": "1658370", "healthcare": "hospital", "name": "Dameron Hospital", "opening_hours": "24/7", "operator": "Dameron Hospital Association", "phone": "+1 209 944 5550", "website": "https://www.dameronhospital.org/"}}, {"type": "way", "id": 286962347, "center": {"lat": 38.3881575, "lon": -121.938125}, "nodes": [2906298827, 3977518943, 3977518944, 2906298828, 3977518942, 3977518941, 3977518945, 3977518946, 3977518947, 2906298829, 2906298830, 2906298831, 2906298832, 2906298833, 5552725912, 2906298834, 2906298835, 2906298836, 2906298837, 1357372493, 1357372575, 1357372599, 2906298838, 3977518948, 5552725910, 3977518949, 3977518950, 5552725911, 2906298840, 2906298827], "tags": {"addr:city": "Vacaville", "addr:housenumber": "1", "addr:postcode": "95678", "addr:street": "Quality Drive", "amenity": "hospital", "emergency": "yes", "healthcare": "hospital", "name": "Kaiser Permanente Vacaville Medical Center", "opening_hours": "24/7", "operator": "Kaiser Permanente", "operator:short": "KP", "operator:wikidata": "Q1721601", "phone": "+1 707 624 4000", "website": "https://thrive.kaiserpermanente.org/care-near-you/northern-california/napasolano/locations/vacaville-hospital-trauma-center-medical-offices/", "wikidata": "Q39049052", "wikipedia": "en:Vacaville Medical Center"}}, {"type": "way", "id": 287627333, "center": {"lat": 38.0177145, "lon": -121.2976498}, "nodes": [2911218374, 2911221931, 2911222317, 2911222308, 2911222143, 2911222149, 2911222721, 2911222729, 2911222291, 2911222292, 2911222245, 2911222248, 2911220958, 2911221054, 2911220929, 2911220939, 2911221124, 2911220568, 2911220906, 2911220896, 2911220861, 2911220859, 2911220835, 2911220841, 2911220216, 2911220201, 2911219219, 2911219218, 2911219833, 2911219828, 2911219819, 2911219812, 2911218373, 2911218374], "tags": {"addr:city": "Stockton", "addr:housenumber": "7373", "addr:state": "CA", "addr:street": "West Lane", "amenity": "hospital", "healthcare": "hospital", "operator": "Kaiser Permanente", "operator:short": "KP", "operator:wikidata": "Q1721601", "operator:wikipedia": "en:Kaiser Permanente"}}, {"type": "way", "id": 287807844, "center": {"lat": 38.2622081, "lon": -122.0475872}, "nodes": [2913722450, 2913722451, 5552625840, 2913722452, 2913722453, 2913722454, 5552625827, 5552625828, 5552625829, 5552625830, 2913722455, 2913722456, 5552625831, 2913722457, 5552625832, 5552625833, 5552625834, 5552625835, 5552625836, 5552625837, 5552625838, 6901224765, 5552625839, 2913722450], "tags": {"addr:city": "Fairfield", "addr:housenumber": "1200", "addr:postcode": "94533", "addr:state": "CA", "addr:street": "B Gale Wilson Boulevard", "amenity": "hospital", "emergency": "yes", "gnis:feature_id": "1800042", "healthcare": "hospital", "name": "NorthBay Medical Center", "opening_hours": "24/7", "operator": "NorthBay Healthcare", "phone": "+1 707 646 5000", "website": "https://www.northbay.org/"}}, {"type": "way", "id": 288533921, "center": {"lat": 37.7860517, "lon": -122.4223676}, "nodes": [2920899585, 8602603647, 8602603651, 2920899574, 2920899617, 2920899623, 8602603654, 9698423827, 10935261536, 2920899585], "tags": {"addr:city": "San Francisco", "addr:housenumber": "1101", "addr:postcode": "94109", "addr:state": "CA", "addr:street": "Van Ness Avenue", "amenity": "hospital", "building": "yes", "check_date": "2022-06-06", "contact:facebook": "SutterHealth", "contact:instagram": "sutterhealth", "contact:twitter": "SutterHealth", "emergency": "yes", "healthcare": "hospital", "name": "CPMC Van Ness Campus", "opening_hours": "24/7", "operator": "Sutter Health", "operator:wikidata": "Q7650154", "phone": "+1 415 6006000", "website": "https://www.sutterhealth.org/find-location/facility/cpmc-van-ness-campus", "wheelchair": "yes"}}, {"type": "way", "id": 293625793, "center": {"lat": 37.8863116, "lon": -121.2830338}, "nodes": [5541536470, 5541536469, 5541536468, 5541536467, 5541536466, 5541536465, 5541536464, 5541536463, 5541536462, 5541536461, 5541536460, 5541536459, 5541536458, 5541536457, 5541536456, 5541536455, 5541536454, 5541536453, 5541536452, 5541536451, 5541536450, 5541536449, 5541536448, 5541536447, 5541536446, 5541536445, 5541536444, 5541536443, 5541536442, 5541536441, 5541536440, 5541536439, 5541536438, 358809460, 5541536437, 5541536436, 5541536435, 5541536434, 5541536433, 5541536432, 5541536431, 5541536430, 5541536429, 5541536428, 5541536427, 5541536470], "tags": {"addr:city": "French Camp", "addr:housenumber": "500", "addr:postcode": "95231", "addr:state": "CA", "addr:street": "West Hospital Road", "amenity": "hospital", "beds": "196", "emergency": "yes", "gnis:feature_id": "1662189", "healthcare": "hospital", "name": "San Joaquin General Hospital", "opening_hours": "24/7", "phone": "+1 209 468 6000", "website": "http://www.sjgeneral.org/", "wikidata": "Q7414393", "wikipedia": "en:San Joaquin General Hospital"}}, {"type": "way", "id": 303133603, "center": {"lat": 37.0640235, "lon": -120.8592589}, "nodes": [3074477092, 3074477086, 3074477084, 3074477085, 3074477087, 3074477089, 3074477088, 3074477090, 3074477091, 3074477093, 3074477092], "tags": {"addr:city": "Los Banos", "addr:housenumber": "520", "addr:postcode": "93635", "addr:street": "West I Street", "amenity": "hospital", "emergency": "yes", "gnis:feature_id": "1816747", "healthcare": "hospital", "name": "Memorial Hospital Los Banos", "opening_hours": "24/7", "operator": "Sutter Health", "operator:wikidata": "Q7650154", "operator:wikipedia": "en:Sutter Health", "phone": "+1 209 826 0591", "website": "https://www.sutterhealth.org/find-location/facility/memorial-hospital-los-banos"}}, {"type": "way", "id": 306464835, "center": {"lat": 38.4437331, "lon": -122.7009092}, "nodes": [358831562, 3113981867, 3113981856, 3113981860, 3113981863, 3113981862, 5553083595, 3113981866, 3113981861, 3113973809, 3113973808, 3113973785, 3113981868, 3113973794, 3113973786, 3113973784, 358831562], "tags": {"addr:city": "Santa Rosa", "addr:housenumber": "1165", "addr:postcode": "95405", "addr:street": "Montgomery Drive", "amenity": "hospital", "beds": "338", "emergency": "yes", "gnis:feature_id": "1799489", "healthcare": "hospital", "name": "Santa Rosa Memorial Hospital", "opening_hours": "24/7", "operator": "Saint Joseph Health", "phone": "+1 707 525 5300", "website": "https://www.stjoesonoma.org/", "wikidata": "Q7419902", "wikipedia": "en:Santa Rosa Memorial Hospital"}}, {"type": "way", "id": 306465606, "center": {"lat": 38.4717507, "lon": -122.7264506}, "nodes": [358831578, 3114041355, 3114041350, 3114041370, 3114041365, 3114041363, 3114041367, 3114041348, 3114041371, 3114041353, 3114041357, 3114041359, 3114041368, 3114041366, 3114041362, 3114041364, 3114041354, 3114041369, 3114041372, 3114041351, 3114041361, 3114041358, 3114041349, 3114041360, 3114041356, 3114041352, 358831578], "tags": {"addr:city": "Santa Rosa", "addr:housenumber": "401", "addr:postcode": "95403", "addr:street": "Bicentennial Way", "amenity": "hospital", "beds": "173", "emergency": "yes", "gnis:feature_id": "1799509", "healthcare": "hospital", "name": "Kaiser Permanente Santa Rosa Medical Center", "opening_hours": "24/7", "operator": "Kaiser Permanente", "operator:short": "KP", "operator:wikidata": "Q1721601", "operator:wikipedia": "en:Kaiser Permanente", "website": "https://thrive.kaiserpermanente.org/care-near-you/northern-california/santarosa/locations/santa-rosa/"}}, {"type": "way", "id": 307484649, "center": {"lat": 37.7060235, "lon": -122.165165}, "nodes": [3126547613, 5310002199, 5310002198, 5310002200, 5310002212, 5310002211, 5310002210, 5310002204, 5310002205, 5310002209, 5310002206, 5310002207, 5310002208, 3126547614, 3126547612, 3449404124, 3126547615, 3126547616, 3126547617, 3126547618, 3126547613], "tags": {"addr:city": "San Leandro", "addr:housenumber": "2500", "addr:postcode": "94577", "addr:street": "Merced Street", "amenity": "hospital", "beds": "206", "emergency": "yes", "healthcare": "hospital", "name": "San Leandro Medical Center", "opening_hours": "24/7", "operator": "Kaiser Permanente", "operator:short": "KP", "operator:wikidata": "Q1721601", "operator:wikipedia": "en:Kaiser Permanente", "phone": "+1 510 454 1000", "website": "https://thrive.kaiserpermanente.org/care-near-you/northern-california/gsaa/locations/san-leandro-medical-center/", "wikidata": "Q30293436"}}, {"type": "way", "id": 319498211, "center": {"lat": 37.8010132, "lon": -121.1973121}, "nodes": [3259114954, 358837522, 3259114955, 3259114956, 3259114957, 3259114958, 7094766713, 3259114959, 3259114960, 3259115361, 3259115362, 3259115363, 3259115364, 3259115365, 3259115366, 3259115367, 3259115368, 3259115369, 3259115370, 3259115371, 3259115372, 3259115373, 3259115374, 3259114954], "tags": {"addr:city": "Manteca", "addr:housenumber": "1205", "addr:postcode": "95336", "addr:street": "East North Street", "amenity": "hospital", "beds": "73", "emergency": "yes", "gnis:feature_id": "1827392", "healthcare": "hospital", "name": "Doctors Hospital of Manteca", "opening_hours": "24/7", "operator": "TH Medical", "phone": "+1 209 823 3111", "website": "https://www.doctorsmanteca.com/"}}, {"type": "way", "id": 321212152, "center": {"lat": 37.7988096, "lon": -121.245621}, "nodes": [1948291779, 1948294642, 1948294849, 1948295035, 1948295037, 3249630997, 3249630996, 1948295040, 1948294660, 1948291784, 276247575, 1948291779], "tags": {"addr:city": "Manteca", "addr:housenumber": "1777", "addr:postcode": "95337", "addr:street": "West Yosemite Avenue", "amenity": "hospital", "beds": "251", "emergency": "yes", "healthcare": "hospital", "name": "Kaiser Permanente Manteca Medical Center", "opening_hours": "24/7", "operator": "Kaiser Permanente", "operator:short": "KP", "operator:wikidata": "Q1721601", "phone": "+1 209 825 3700", "website": "https://healthy.kaiserpermanente.org/northern-california/facilities/Manteca-Medical-Center-100356"}}, {"type": "way", "id": 328488801, "center": {"lat": 36.2064034, "lon": -121.1329796}, "nodes": [566785522, 3353199596, 3353199594, 5612704803, 5612704804, 5612704805, 5612704806, 5612704807, 5612704808, 2590035296, 2590035290, 3353199595, 5618674266, 5618674267, 566785516, 4880401648, 8192407540, 4880401658, 4880401657, 5612704794, 5528971292, 566785522], "tags": {"addr:city": "King City", "addr:housenumber": "300", "addr:postcode": "93930", "addr:state": "CA", "addr:street": "Canal Street", "alt_name": "George L. Lee Memorial Hospital", "amenity": "hospital", "beds": "94", "emergency": "yes", "gnis:feature_id": "1873485", "healthcare": "hospital", "name": "Mee Memorial Hospital", "opening_hours": "24/7", "phone": "+1 831 385 6000", "source": "Tiger2009", "website": "https://meememorial.com/"}}, {"type": "way", "id": 330700899, "center": {"lat": 38.2548092, "lon": -122.6318357}, "nodes": [3376952180, 3376952178, 3376952179, 3376952184, 3376952185, 3376952177, 3376952181, 3376952293, 3376952294, 3376952297, 3376952296, 3376952418, 3376952417, 3376952424, 3376952419, 3376952452, 3376952439, 3376952450, 3376952447, 3376952455, 3376952449, 3376952440, 3376952437, 3376952411, 3376952410, 3376952405, 3376952302, 3376952182, 3376952180], "tags": {"amenity": "hospital", "building": "hospital", "healthcare": "hospital", "layer": "1"}}, {"type": "way", "id": 331050828, "center": {"lat": 37.7764219, "lon": -121.9581364}, "nodes": [3380970942, 3380970943, 3380970945, 3380970947, 3380970949, 3380970951, 3380970953, 3380970955, 3380970958, 9993882258, 3380970960, 3380970962, 3380970961, 3380970959, 9993882277, 3380970956, 3380970957, 3380970954, 11002141544, 3380970952, 3380970950, 3380970948, 3380970946, 3380970944, 11002141782, 3380970941, 3380970930, 3380970923, 3380970921, 3380970920, 3380970922, 11002141781, 3380970924, 11002141752, 3380970925, 3380970926, 11002141761, 3380970927, 9993882196, 9993882197, 3380970928, 3380970929, 3380970931, 9993882211, 3380970932, 9993882212, 3380970933, 9993882222, 9993882223, 3380970940, 3380970942], "tags": {"addr:city": "San Ramon", "addr:housenumber": "6001", "addr:postcode": "94583", "addr:street": "Norris Canyon Road", "amenity": "hospital", "emergency": "yes", "gnis:feature_id": "1670409", "healthcare": "hospital", "name": "San Ramon Regional Medical Center", "opening_hours": "24/7", "operator": "TH Medical", "phone": "+1 925 275 9200", "website": "https://www.sanramonmedctr.com/"}}, {"type": "way", "id": 358960996, "center": {"lat": 37.4046252, "lon": -122.1405315}, "nodes": [3637874764, 3637874765, 3637874766, 3637874767, 3637874768, 3637874769, 3637874770, 3637874771, 7180669535, 3637874772, 3637874773, 3637874774, 3637874775, 3637874777, 3637874778, 3637874776, 472553435, 1750849416, 3637874758, 3637874757, 3637874759, 3637874760, 3637874761, 3637874762, 3637874763, 3637874764], "tags": {"addr:city": "Palo Alto", "addr:housenumber": "3801", "addr:postcode": "94304", "addr:street": "Miranda Avenue", "amenity": "hospital", "emergency": "yes", "healthcare": "hospital", "healthcare:for": "veterans", "name": "VA Palo Alto Health Care System", "opening_hours": "24/7", "operator": "Veterans Health Administration", "operator:short": "VA", "operator:wikidata": "Q6580225", "operator:wikipedia": "en:Veterans Health Administration", "phone": "+1 650 493 5000", "short_name": "VA", "website": "https://www.paloalto.va.gov/", "wikidata": "Q7906572", "wikipedia": "en:VA Palo Alto Health Care System"}}, {"type": "way", "id": 361820477, "center": {"lat": 37.7085337, "lon": -122.1184135}, "nodes": [3662470825, 3662467009, 3662470830, 3662470826, 3662470834, 3662467010, 3662470829, 3662470828, 3662467012, 3662467020, 3662470833, 3662467021, 3662470835, 3662470831, 3662470827, 3662467013, 3662467022, 3662467016, 3662467008, 1294148290, 3662470836, 3662467007, 3662467018, 3662467017, 5554519823, 5554519824, 5554519825, 4054995576, 5554519826, 5554519827, 5554519828, 5554519829, 5554519830, 5554519831, 5554519832, 5554519833, 5554519834, 5554519835, 5554519836, 5554519837, 5554519838, 5554519839, 4054995776, 3662470825], "tags": {"addr:city": "San Leandro", "addr:housenumber": "15400", "addr:postcode": "94578", "addr:street": "Foothill Boulevard", "amenity": "hospital", "emergency": "no", "healthcare": "hospital", "name": "Fairmont Rehabilitation and Wellness", "operator": "Alameda Health System", "phone": "+1 510 895 4200", "website": "http://www.alamedahealthsystem.org/"}}, {"type": "way", "id": 384867357, "center": {"lat": 38.5628328, "lon": -121.7710453}, "nodes": [3882228119, 3882228120, 3882228121, 9139041958, 3882228122, 3882228123, 3882228124, 3882228125, 3882228126, 3882228127, 11287000043, 11287000044, 11287000045, 11287000046, 3882228130, 3882228131, 11287000042, 3882228137, 3882228119], "tags": {"addr:city": "Davis", "addr:country": "US", "addr:housenumber": "2000", "addr:postcode": "95616", "addr:state": "CA", "addr:street": "Sutter Place", "amenity": "hospital", "beds": "48", "contact:phone": "+1 530 756 6440", "contact:website": "http://www.sutterdavis.org/", "emergency": "yes", "healthcare": "hospital", "name": "Sutter Davis Hospital", "phone": "+1-530-756-6440", "website": "http://www.sutterdavis.org/", "wheelchair": "yes", "wikidata": "Q50037038"}}, {"type": "way", "id": 384941781, "center": {"lat": 37.5651332, "lon": -122.3262487}, "nodes": [3882955358, 3882955359, 3882955360, 3882955361, 3882955362, 3882955363, 3882955364, 3720825912, 3720825931, 3720825951, 3720825973, 3720826021, 2596233766, 2596233775, 3882955365, 3882955358], "tags": {"addr:city": "San Mateo", "addr:housenumber": "100", "addr:postcode": "94401", "addr:state": "CA", "addr:street": "South San Mateo Drive", "amenity": "hospital", "emergency": "no", "gnis:feature_id": "1659134", "healthcare": "hospital", "name": "Mills Health Center", "phone": "650 696-5400"}}, {"type": "way", "id": 385484809, "center": {"lat": 37.9475822, "lon": -122.5357287}, "nodes": [3888300348, 5553547072, 5553547073, 3888300349, 5553547074, 3888300353, 3888311160, 3888311159, 3888311157, 3888311162, 3888311161, 3888311158, 3888300356, 3888300355, 3888300354, 3888300352, 5553547069, 3888300351, 5553547070, 3888300350, 5553547071, 3888300348], "tags": {"addr:city": "Greenbrae", "addr:housenumber": "250", "addr:postcode": "94904", "addr:street": "Bon Air Road", "amenity": "hospital", "beds": "235", "emergency": "yes", "healthcare": "hospital", "name": "Marin Health Medical Center", "opening_hours": "24/7", "phone": "+1 415 925 7000", "website": "https://www.maringeneral.org/"}}, {"type": "way", "id": 389317015, "center": {"lat": 38.6649293, "lon": -121.7922063}, "nodes": [3924698701, 3924694250, 11092078169, 11092078170, 3924694251, 3924694254, 9750326222, 9750326221, 9750326220, 9750326219, 9750321869, 3924698701], "tags": {"addr:city": "Woodland", "addr:housenumber": "1325", "addr:postcode": "95695", "addr:state": "CA", "addr:street": "Cottonwood Street", "amenity": "hospital", "emergency": "yes", "healthcare": "hospital", "name": "Woodland Healthcare", "opening_hours": "24/7", "operator": "Diginity Health", "phone": "+1 530 662 3961", "website": "https://www.dignityhealth.org/sacramento/locations/woodland-memorial-hospital"}}, {"type": "way", "id": 391773657, "center": {"lat": 37.5920659, "lon": -122.3837085}, "nodes": [3950232487, 6648418729, 9348067573, 6648418771, 6648418772, 6648413241, 6648413240, 6648413237, 6648413236, 9348067575, 5577552193, 5577551807, 3950232488, 5578915776, 5577552126, 3950232489, 4528134951, 3950232490, 3950232491, 4529708117, 4529708116, 4529708115, 3950232492, 4529708118, 6648395092, 3950232487], "tags": {"addr:city": "Burlingame", "addr:housenumber": "1501", "addr:postcode": "94010", "addr:state": "CA", "addr:street": "Trousdale Drive", "amenity": "hospital", "beds": "241", "emergency": "yes", "healthcare": "hospital", "name": "Mills-Peninsula Medical Center", "opening_hours": "24/7", "operator": "Sutter Health", "operator:wikidata": "Q7650154", "operator:wikipedia": "en:Sutter Health", "phone": "+1 650 696 5400", "website": "http://www.mills-peninsula.org/"}}, {"type": "way", "id": 393170638, "center": {"lat": 37.5119478, "lon": -120.8380871}, "nodes": [3963874983, 3963874984, 3963874985, 3963874986, 3963874987, 3963874988, 3963874989, 3963874990, 358803902, 3963874983], "tags": {"addr:city": "Turlock", "addr:housenumber": "825", "addr:postcode": "95382", "addr:street": "Delbon Avenue", "amenity": "hospital", "beds": "209", "emergency": "yes", "gnis:feature_id": "1655996", "healthcare": "hospital", "name": "Emanuel Medical Center", "opening_hours": "24/7", "operator": "TH Medical", "phone": "+1 209 667 4200", "website": "https://www.emanuelmedicalcenter.org/", "wikidata": "Q5369103", "wikipedia": "en:Emanuel Medical Center"}}, {"type": "way", "id": 400143893, "center": {"lat": 39.1388549, "lon": -121.5934151}, "nodes": [358823279, 4027588027, 4027588029, 4027588015, 358823279], "tags": {"addr:city": "Marysville", "addr:housenumber": "726", "addr:street": "4th Street", "amenity": "hospital", "emergency": "yes", "gnis:feature_id": "1703577", "healthcare": "hospital", "name": "Rideout Regional Medical Center", "opening_hours": "24/7", "operator": "Rideout Heallth", "phone": "+1 530 749 4300", "website": "http://www.frhg.org/", "wikidata": "Q7332593", "wikipedia": "en:Rideout Memorial Hospital"}}, {"type": "way", "id": 403124170, "center": {"lat": 37.7132086, "lon": -122.14283}, "nodes": [4055034710, 4055034725, 4055034690, 8849339350, 4055034697, 4055034707, 4055034452, 4055034710], "tags": {"addr:city": "San Leandro", "addr:housenumber": "13855", "addr:postcode": "94578", "addr:street": "East 14th Street", "amenity": "hospital", "beds": "94", "emergency": "yes", "healthcare": "hospital", "name": "San Leandro Hospital", "opening_hours": "24/7", "operator": "Alameda Health System", "phone": "+1 510 357 6500", "website": "http://www.alamedahealthsystem.org/"}}, {"type": "way", "id": 403207487, "center": {"lat": 37.3620815, "lon": -121.8493737}, "nodes": [4055800326, 4055800327, 4055800328, 6040754436, 4055800330, 4055800326], "tags": {"addr:city": "San Jose", "addr:housenumber": "225", "addr:postcode": "95116", "addr:state": "CA", "addr:street": "North Jackson Avenue", "amenity": "hospital", "beds": "258", "emergency": "yes", "healthcare": "hospital", "name": "Regional Medical Center of San Jose", "opening_hours": "24/7", "operator": "HCA", "operator:wikidata": "Q1630431", "operator:wikipedia": "en:HCA Healthcare", "phone": "+1 408 259 5000", "website": "https://regionalmedicalsanjose.com/"}}, {"type": "way", "id": 403579332, "center": {"lat": 37.7165424, "lon": -122.1305936}, "nodes": [4059333606, 4588787393, 4059333599, 358819535, 4059333603, 4059333602, 4059333608, 4059333600, 4059333605, 4059333601, 4588787392, 4588785588, 4059333606], "tags": {"addr:city": "San Leandro", "addr:housenumber": "2800", "addr:postcode": "94578", "addr:street": "Benedict Drive", "amenity": "hospital", "beds": "99", "emergency": "no", "gnis:feature_id": "1692917", "healthcare": "hospital", "hist_name": "Physicians Community Hospital", "name": "Kindred Hospital - San Francisco Bay Area", "operator": "Kindred Healthcare", "operator:wikidata": "Q921363", "phone": "+1 510 357 8300", "website": "https://www.kindredhealthcare.com/locations/transitional-care-hospitals/kindred-hospital-san-francisco-bay-area", "wikidata": "Q28222814", "wikipedia": "en:Kindred Hospital - San Francisco Bay Area"}}, {"type": "way", "id": 405350101, "center": {"lat": 38.5522502, "lon": -121.4520941}, "nodes": [4075546279, 4075546280, 4075546281, 4075546282, 4075546283, 4075546284, 4075546285, 4075546286, 4075546287, 4075546288, 4075546289, 4075546290, 4075546291, 4075546292, 4075546293, 4075546294, 4075546295, 4075546296, 4075546297, 4075546298, 4075546299, 4075546300, 4075546301, 4075546302, 4075546303, 4075546304, 4075546305, 4075546306, 4075546307, 4075546279], "tags": {"addr:city": "Sacramento", "addr:housenumber": "2315", "addr:postcode": "95817", "addr:street": "Stockton Boulevard", "amenity": "hospital", "beds": "627", "emergency": "yes", "healthcare": "hospital", "name": "University of California, Davis Medical Center", "opening_hours": "24/7", "phone": "+1 916 734 2011", "website": "http://www.ucdmc.ucdavis.edu/medicalcenter/", "wikidata": "Q7864160", "wikipedia": "en:UC Davis Medical Center"}}, {"type": "way", "id": 458946620, "center": {"lat": 38.9504831, "lon": -122.6287423}, "nodes": [4548702482, 4548702490, 4548702483, 4548702484, 4548702485, 4548702486, 4548702487, 4548702488, 4548702489, 4548702482], "tags": {"addr:city": "Clearlake", "addr:housenumber": "15230", "addr:postcode": "95422", "addr:state": "CA", "addr:street": "Lakeshore Drive", "addr:unit": "102", "amenity": "hospital", "fax": "+17079954546", "healthcare": "hospital", "healthcare:speciality": "psychiatry;dentistry;vaccination;chiropractic", "image": "https://www.adventisthealth.org/cms/thumbnails/00/1100x506/images/locations/new%20clinic%20photos/AH-Clearlake-RHC-15230-Lakeshore-Dr.jpg", "name": "Adventist Health Clear Lake Medical Office - Clearlake, Live Well Program", "opening_hours": "Mo-Fr 08:00-18:00; PH off", "operator": "Adventist Health", "operator:wikidata": "Q4686452", "operator:wikipedia": "en:Adventist Health", "phone": "+17079954545", "website": "https://www.adventisthealth.org/locations/adventist-health-clear-lake-medical-office-clear2/"}}, {"type": "way", "id": 463598674, "center": {"lat": 38.3252983, "lon": -122.2965806}, "nodes": [4588609866, 10962261005, 10962261006, 10962263870, 4588609867, 10962261007, 4588609868, 4588609869, 10962222944, 10962222945, 10962222943, 10962222942, 10962879275, 4588609871, 4588609866], "tags": {"addr:city": "Napa", "addr:housenumber": "1000", "addr:postcode": "95678", "addr:state": "CA", "addr:street": "Trancas Street", "amenity": "hospital", "beds": "208", "denomination": "roman_catholic", "emergency": "yes", "gnis:feature_id": "1800229", "healthcare": "hospital", "name": "Queen of the Valley Medical Center", "opening_hours": "24/7", "operator": "Saint Joseph Health", "phone": "+1 707 252 4411", "religion": "christian", "website": "https://www.thequeen.org/", "wikidata": "Q7270683", "wikipedia": "en:Queen of the Valley Medical Center"}}, {"type": "way", "id": 464622799, "center": {"lat": 36.1331548, "lon": -120.2404399}, "nodes": [4597143000, 4597142989, 4597142990, 4597142991, 4597142992, 4597142993, 4597142994, 4597142995, 4597142996, 4597142997, 4597142998, 4597142999, 4597143005, 4597143004, 4597143003, 4597143002, 4597143001, 4597143000], "tags": {"addr:city": "Coalinga", "addr:country": "US", "addr:housenumber": "24511", "addr:postcode": "93210", "addr:state": "CA", "addr:street": "West Jayne Avenue", "amenity": "hospital", "barrier": "fence", "emergency": "no", "fax": "+1 559 935 7118", "name": "Coalinga State Hospital", "operator": "California Department of State Hospitals", "phone": "+1 559 935 4300", "short_name": "CSH", "website": "http://www.dsh.ca.gov/Coalinga/", "wikidata": "Q5137885", "wikipedia": "en:Coalinga State Hospital"}}, {"type": "way", "id": 465063220, "center": {"lat": 37.9938938, "lon": -122.1153154}, "nodes": [4554465192, 5552539720, 4679427947, 4679427948, 4986138002, 4986138008, 4986138010, 4986138012, 4986138013, 4986138015, 4986138016, 4986138017, 4986138014, 4986138011, 4986138009, 4986138007, 4986138006, 4986138005, 4986138004, 4986138003, 5552539718, 304105490, 57921818, 4878956243, 57828184, 4600845951, 5552539726, 5552539695, 4993556805, 4993240706, 4993240708, 4993240710, 4993556801, 4600845953, 4960182653, 4960182656, 4960182704, 4960182703, 4960182695, 4960182694, 4554465192], "tags": {"addr:city": "Martinez", "addr:housenumber": "150", "addr:postcode": "94553", "addr:state": "CA", "addr:street": "Muir Road", "amenity": "hospital", "beds": "120", "description": "120 long term beds in CREC on campus", "emergency": "no", "healthcare": "hospital", "healthcare:for": "veteran", "healthcare:speciality": "outpatient;veterans;rehab;physical_rehabilitation;LTACH", "name": "Martinez Outpatient Clinic", "opening_hours": "08:00-16:30", "operator": "Veterans Health Administration", "operator:short": "VA", "operator:wikidata": "Q6580225", "phone": "+1 925 372 2000", "short_name": "VA", "website": "https://www.northerncalifornia.va.gov/locations/Martinez_OPC.asp", "wikidata": "Q33122143"}}, {"type": "way", "id": 468894941, "center": {"lat": 39.2280876, "lon": -121.0470841}, "nodes": [89981422, 5538418606, 5538418604, 5538418596, 358819010, 5538418611, 8917431971, 5538418593, 5538418595, 5538418594, 5538418592, 5538418610, 5538418609, 5538418612, 5538418602, 5538418601, 5538418600, 5538418599, 5538418608, 5538418607, 5538418605, 5538418603, 8625269772, 9133572426, 89981422], "tags": {"addr:city": "Grass Valley", "addr:housenumber": "155", "addr:postcode": "95945", "addr:state": "CA", "addr:street": "Glasson Way", "amenity": "hospital", "emergency": "yes", "gnis:feature_id": "1682969", "healthcare": "hospital", "name": "Sierra Nevada Memorial Hospital", "opening_hours": "24/7", "operator": "Dignity Health", "operator:wikidata": "Q5276334", "operator:wikipedia": "en:Dignity Health", "phone": "+1 530 274 6000", "website": "https://www.dignityhealth.org/sacramento/locations/sierra-nevada-memorial-hospital"}}, {"type": "way", "id": 474294244, "center": {"lat": 39.5055915, "lon": -121.5412036}, "nodes": [4682864505, 4682864635, 4682864636, 4682864634, 4682864588, 4682864587, 4682864513, 4682864493, 4682864056, 4682864055, 4682864054, 4682864057, 4682864058, 4682864079, 4682864505], "tags": {"addr:city": "Oroville", "addr:housenumber": "2767", "addr:postcode": "95966", "addr:street": "Olive Highway", "amenity": "hospital", "emergency": "yes", "gnis:feature_id": "1723984", "healthcare": "hospital", "name": "Oroville Hospital", "note": "approximate boundaries", "opening_hours": "24/7", "phone": "+1 530 533 8500", "website": "https://www.orovillehospital.com/", "wikidata": "Q7103900", "wikipedia": "en:Oroville Hospital"}}, {"type": "way", "id": 476389846, "center": {"lat": 38.5715937, "lon": -121.4688199}, "nodes": [4699844199, 4699844200, 5539017551, 358807503, 4699844201, 7093663568, 7093663567, 4699844202, 6876758636, 4699844199], "tags": {"addr:city": "Sacramento", "addr:housenumber": "2825", "addr:postcode": "95816", "addr:state": "CA", "addr:street": "Capitol Avenue", "amenity": "hospital", "emergency": "yes", "gnis:feature_id": "1659930", "healthcare": "hospital", "name": "Sutter Medical Center, Sacramento", "opening_hours": "24/7", "operator": "Sutter Health", "operator:wikidata": "Q7650154", "operator:wikipedia": "en:Sutter Health", "phone": "+1 916 887 0000", "website": "http://www.suttermedicalcenter.org/", "wikidata": "Q7650153", "wikipedia": "en:Sutter General Hospital"}}, {"type": "way", "id": 494760178, "center": {"lat": 38.6694634, "lon": -121.3131281}, "nodes": [4865035637, 4865035638, 4865035639, 4865035640, 4865035641, 4865035642, 4865035643, 4865035644, 4865035645, 4865035646, 4865035647, 374204890, 4865035637], "tags": {"addr:city": "Carmichael", "addr:housenumber": "6501", "addr:postcode": "95608", "addr:state": "CA", "addr:street": "Coyle Avenue", "amenity": "hospital", "emergency": "yes", "healthcare": "hospital", "name": "Mercy San Juan Medical Center", "opening_hours": "24/7", "operator": "Dignity Health", "operator:wikidata": "Q5276334", "operator:wikipedia": "en:Dignity Health", "phone": "+1 916 537 5000", "website": "https://www.dignityhealth.org/sacramento/locations/mercy-san-juan-medical-center", "wikidata": "Q6818797", "wikipedia": "en:Mercy San Juan Medical Center"}}, {"type": "way", "id": 546946902, "center": {"lat": 39.7423938, "lon": -121.8504052}, "nodes": [5538207830, 5538207829, 5538207828, 5538207827, 5538207826, 10125370740, 10125370737, 5538207824, 5538207823, 10125370738, 10125370739, 5538207825, 5538207830], "tags": {"addr:city": "Chico", "addr:housenumber": "1531", "addr:postcode": "95926", "addr:street": "Esplanade", "amenity": "hospital", "emergency": "yes", "healthcare": "hospital", "name": "Enloe Medical Center", "opening_hours": "24/7", "phone": "+1 530 332 7300", "website": "https://www.enloe.org/"}}, {"type": "way", "id": 548492917, "center": {"lat": 37.9857071, "lon": -122.0373012}, "nodes": [5298811727, 5298811726, 5552455356, 5298811725, 5298811724, 5298811723, 5298811748, 346147508, 346147509, 5298811727], "tags": {"amenity": "hospital", "gnis:feature_id": "237859", "healthcare": "hospital", "old_name": "Williams School"}}, {"type": "way", "id": 558313025, "center": {"lat": 38.6701261, "lon": -121.1459977}, "nodes": [358835945, 5383762875, 5383762876, 5383762877, 5383762878, 5383762879, 5383762880, 5383762881, 5383762882, 5383762883, 5383762884, 5383762885, 5383762886, 5383762887, 5383762888, 5383762889, 5383762890, 5383762891, 5383762892, 5383762893, 5383762894, 5383762895, 5383762896, 5383762897, 5383762898, 5383762899, 5383762900, 5383762901, 5383762902, 5383762903, 5383762904, 5383762905, 5383762906, 5383762907, 358835945], "tags": {"addr:city": "Folsom", "addr:housenumber": "1650", "addr:postcode": "95630", "addr:state": "CA", "addr:street": "Creekside Drive", "amenity": "hospital", "beds": "106", "building": "hospital", "ele": "95", "emergency": "yes", "gnis:county_id": "067", "gnis:created": "03/26/1999", "gnis:feature_id": "1819955", "gnis:state_id": "06", "healthcare": "hospital", "name": "Mercy Hospital of Folsom", "opening_hours": "24/7", "operator": "Dignity Health", "operator:wikidata": "Q5276334", "phone": "+1-855-479-6006", "website": "https://www.dignityhealth.org/sacramento/locations/mercy-hospital-of-folsom"}}, {"type": "way", "id": 560407431, "center": {"lat": 37.4892388, "lon": -122.224299}, "nodes": [5404453811, 5404453812, 11073118721, 11073118722, 11073118720, 11073118723, 11073118724, 11073113853, 11073113854, 11073113855, 11073118725, 5404453813, 5404453814, 5404456225, 5404453811], "tags": {"addr:city": "Redwood City", "addr:housenumber": "1100", "addr:postcode": "94063", "addr:state": "CA", "addr:street": "Veterans Blvd", "amenity": "hospital", "building": "hospital", "building:levels": "7", "emergency": "yes", "healthcare": "hospital", "name": "Kaiser Permanente Hospital", "operator": "Kaiser Permanente", "operator:short": "KP", "operator:type": "private", "operator:wikidata": "Q1721601", "operator:wikipedia": "en:Kaiser Permanente", "phone": "+1 650 299 2000"}}, {"type": "way", "id": 568599711, "center": {"lat": 38.9451556, "lon": -121.1008692}, "nodes": [5470165115, 358823734, 5470165116, 5470165117, 5470165118, 5470165119, 5470165120, 5470166921, 5470166922, 5470166923, 5470166924, 5470166929, 5470166925, 5470166928, 5470166926, 5470166927, 5470165115], "tags": {"addr:city": "Auburn", "addr:housenumber": "11815", "addr:postcode": "95602", "addr:street": "Education Street", "amenity": "hospital", "emergency": "yes", "gnis:feature_id": "1723407", "healthcare": "hospital", "name": "Sutter Auburn Faith Hospital", "old_name": "Auburn Faith Community Hospital", "opening_hours": "24/7", "operator": "Sutter Health", "operator:wikidata": "Q7650154", "operator:wikipedia": "en:Sutter Health", "phone": "+1 530 888 4500", "website": "https://www.sutterhealth.org/find-location/facility/sutter-auburn-faith-hospital", "wikidata": "Q50037030"}}, {"type": "way", "id": 576137123, "center": {"lat": 34.6020776, "lon": -120.1259065}, "nodes": [5526722052, 5526722051, 5526722050, 5526722049, 5526722048, 358848260, 5526722052], "tags": {"addr:city": "Solvang", "addr:housenumber": "2050", "addr:postcode": "93463", "addr:street": "Viborg Road", "amenity": "hospital", "emergency": "yes", "gnis:feature_id": "1871806", "healthcare": "hospital", "name": "Santa Ynez Valley Hospital", "opening_hours": "24/7", "operator": "Cottage Health", "phone": "+1 805 688 6431", "website": "https://www.cottagehealth.org/santa-ynez-valley-cottage-hospital/", "wikidata": "Q14956762"}}, {"type": "way", "id": 576348960, "center": {"lat": 34.9509821, "lon": -120.4117132}, "nodes": [5528034271, 5528034270, 5528034269, 1382814546, 5528034268, 9159688477, 9159688476, 9159694164, 9159694165, 5528034267, 5528034266, 5528034265, 5528034271], "tags": {"addr:city": "Santa Maria", "addr:housenumber": "1400", "addr:postcode": "93454", "addr:street": "East Church Street", "amenity": "hospital", "emergency": "yes", "healthcare": "hospital", "name": "Marian Medical Center", "opening_hours": "24/7", "operator": "Dignity Health", "operator:wikidata": "Q5276334", "operator:wikipedia": "en:Dignity Health", "phone": "+1 805 739 3000", "website": "https://www.dignityhealth.org/central-coast/locations/marianregional"}}, {"type": "way", "id": 576397014, "center": {"lat": 35.2777114, "lon": -120.6514825}, "nodes": [5528446018, 5528446017, 358848891, 5528446016, 5528446015, 5528446014, 5528446013, 5528446012, 5528446011, 5528446010, 5528446009, 5528446008, 5528446007, 5528446006, 5528446005, 5528446004, 5528446003, 7439899360, 5528446001, 5528446000, 5528445999, 5528445998, 5528445997, 1595790503, 5528445996, 5528445995, 5528445994, 5528445993, 1595790495, 1441728663, 1441728646, 5528445992, 5528445991, 5528445990, 5528446018], "tags": {"addr:city": "San Luis Obispo", "addr:housenumber": "1911", "addr:postcode": "93401", "addr:street": "Johnson Avenue", "amenity": "hospital", "emergency": "yes", "gnis:feature_id": "1872421", "healthcare": "hospital", "name": "French Hospital", "opening_hours": "24/7", "operator": "Dignity Health", "operator:wikidata": "Q5276334", "operator:wikipedia": "en:Dignity Health", "phone": "+1 805 543 5353", "website": "https://www.dignityhealth.org/central-coast/locations/frenchhospital", "wheelchair": "yes"}}, {"type": "way", "id": 576405022, "center": {"lat": 35.2925581, "lon": -120.665911}, "nodes": [5528513865, 5528513864, 5528513863, 5528513862, 5528513861, 5528513860, 5528513859, 5528513858, 5528513857, 5528513856, 5528513855, 5528513854, 5528513853, 5528513852, 5528513851, 5528513850, 5528513849, 5528513848, 5528513847, 5528513846, 5528513845, 5528513865], "tags": {"addr:city": "San Luis Obispo", "addr:housenumber": "1010", "addr:postcode": "93405", "addr:street": "Murray Avenue", "amenity": "hospital", "beds": "164", "emergency": "yes", "healthcare": "hospital", "name": "Sierra Vista Regional Medical Center", "opening_hours": "24/7", "operator": "TH Medical", "phone": "+1 805 546 7600", "website": "https://www.sierravistaregional.com/", "wikidata": "Q7511621", "wikipedia": "en:Sierra Vista Regional Medical Center"}}, {"type": "way", "id": 576412445, "center": {"lat": 35.5553459, "lon": -120.7200541}, "nodes": [5442442784, 358848729, 5442406861, 5442406860, 5442406859, 5442406858, 5442406868, 5442406880, 5442406879, 5442406873, 5442406872, 5442471987, 5442471986, 5442471985, 5442442784], "tags": {"addr:city": "Templeton", "addr:housenumber": "1100", "addr:postcode": "93465", "addr:street": "Las Tablas Road", "amenity": "hospital", "beds": "122", "emergency": "yes", "gnis:feature_id": "1872246", "healthcare": "hospital", "name": "Twin Cities Community Hospital", "opening_hours": "24/7", "operator": "TH Medical", "phone": "+1 805 434 3500", "website": "https://www.twincitieshospital.com/"}}, {"type": "way", "id": 577332381, "center": {"lat": 37.9766124, "lon": -120.3711731}, "nodes": [5534936430, 5534936429, 5534936428, 5534936427, 5534936426, 5534936425, 5534936424, 5534936423, 5534936422, 5534936421, 5534935120, 5534935119, 5534935118, 5534935117, 5534935116, 5534935115, 5534935114, 5534935113, 5534935112, 5534935111, 5534935110, 5534935109, 5534935108, 5534935107, 5534935106, 5534935105, 5334159893, 5534935104, 5534935103, 5534936430], "tags": {"addr:city": "Sonora", "addr:housenumber": "900", "addr:postcode": "95370", "addr:state": "CA", "addr:street": "Greenley Road", "amenity": "hospital", "beds": "152", "emergency": "yes", "healthcare": "hospital", "name": "Adventist Health Sonora", "old_name": "Sonora Regional Medical Center", "opening_hours": "24/7", "operator": "Adventist Health", "operator:wikidata": "Q4686452", "operator:wikipedia": "en:Adventist Health", "phone": "+1 209 536 5000", "website": "https://www.adventisthealth.org/sonora/", "wikidata": "Q7562225", "wikipedia": "en:Sonora Regional Medical Center"}}, {"type": "way", "id": 577336906, "center": {"lat": 38.1902364, "lon": -120.6700457}, "nodes": [5534964717, 5534964716, 5534964715, 5534964714, 5534964713, 5534964712, 5534964711, 5534964710, 5534964709, 8314234982, 8899617490, 8899617491, 8899617489, 5534964708, 8899617488, 8899617487, 8899617486, 8899617485, 8899617484, 5534964707, 358806819, 5534964706, 5534964705, 5534964704, 5534964703, 5534964702, 5534964701, 5534964700, 5534964699, 5534964717], "tags": {"addr:city": "San Andreas", "addr:housenumber": "768", "addr:postcode": "95249", "addr:street": "Mountain Ranch Road", "amenity": "hospital", "beds": "25", "emergency": "yes", "gnis:feature_id": "1659064", "healthcare": "hospital", "name": "Mark Twain Medical Center", "opening_hours": "24/7", "operator": "CommonSpirit Health", "operator:wikidata": "Q85753582", "phone": "+1 209 754 3521", "website": "https://www.dignityhealth.org/central-california/locations/marktwainmedical"}}, {"type": "way", "id": 577460089, "center": {"lat": 38.7248164, "lon": -120.7916257}, "nodes": [5535798936, 5535798935, 5535798934, 5535798933, 5535798932, 5535798931, 5535798930, 5535798929, 5535798928, 5535798927, 5535798926, 5535798925, 5535798924, 5535798923, 358827985, 6605594365, 5535798922, 5535798921, 5535798520, 5535798519, 5535798518, 5535798517, 5535798516, 5535798515, 5535798514, 5535798513, 5535798512, 5535798511, 5535798510, 5535798509, 5535798508, 5535798936], "tags": {"addr:city": "Placerville", "addr:housenumber": "1100", "addr:postcode": "95667", "addr:street": "Marshall Way", "amenity": "hospital", "beds": "125", "emergency": "yes", "gnis:feature_id": "1744737", "healthcare": "hospital", "name": "Marshall Medical Center", "opening_hours": "24/7", "phone": "+1 530 622 1441", "website": "https://www.marshallmedical.org/"}}, {"type": "way", "id": 577519118, "center": {"lat": 39.9398205, "lon": -120.9615327}, "nodes": [2193743195, 358820422, 5536223338, 5536223337, 2193743192, 2193743195], "tags": {"addr:city": "Quincy", "addr:housenumber": "1065", "addr:postcode": "95971", "addr:street": "Bucks Lake Road", "amenity": "hospital", "emergency": "yes", "gnis:feature_id": "1701393", "healthcare": "hospital", "name": "Plumas District Hospital", "opening_hours": "24/7", "phone": "+1 530 283 2121", "urgent_care": "yes", "website": "http://www.pdh.org/"}}, {"type": "way", "id": 577732911, "center": {"lat": 39.43171, "lon": -123.8005006}, "nodes": [5537765828, 5537765827, 5537765826, 5537765825, 358824659, 5537765824, 5537765823, 5537765822, 5537765828], "tags": {"addr:city": "Fort Bragg", "addr:housenumber": "700", "addr:postcode": "95437", "addr:state": "CA", "addr:street": "River Drive", "amenity": "hospital", "beds": "25", "emergency": "yes", "gnis:feature_id": "1724112", "healthcare": "hospital", "name": "Mendocino Coast District Hospital", "opening_hours": "24/7", "phone": "+1 707 961 1234", "short_name": "MCDH", "website": "http://www.mcdh.org/", "wikidata": "Q43895413"}}, {"type": "way", "id": 577743579, "center": {"lat": 39.3900669, "lon": -123.3388334}, "nodes": [5537828986, 5537828985, 5537828984, 5537828983, 5537828982, 5537828981, 5537828980, 5537828979, 5537828978, 5537828977, 5537828976, 5537828975, 5537828974, 5537828973, 5537828972, 5537828986], "tags": {"addr:city": "Willits", "addr:housenumber": "1", "addr:postcode": "95437", "addr:street": "Marcela Drive", "amenity": "hospital", "emergency": "yes", "healthcare": "hospital", "name": "Adventist Health Howard Memorial", "opening_hours": "24/7", "operator": "Adventist Health", "operator:wikidata": "Q4686452", "operator:wikipedia": "en:Adventist Health", "phone": "+1 707 459 6801", "website": "https://www.adventisthealth.org/howard-memorial/", "wikidata": "Q5489125", "wikipedia": "en:Frank R. Howard Memorial Hospital"}}, {"type": "way", "id": 577768353, "center": {"lat": 39.152879, "lon": -123.2026175}, "nodes": [5537970921, 5537959020, 5537959019, 5537959018, 5537959017, 5537959016, 5537959015, 5537959014, 5537959013, 5537970921], "tags": {"addr:city": "Ukiah", "addr:housenumber": "275", "addr:postcode": "95482", "addr:state": "CA", "addr:street": "Hospital Drive", "amenity": "hospital", "beds": "78", "emergency": "yes", "gnis:feature_id": "1724271", "healthcare": "hospital", "name": "Adventist Health Ukiah Valley", "name_1": "Ukiah Valley Medical Center", "old_name": "Ukiah Valley Medical Center", "opening_hours": "24/7", "operator": "Adventist Health", "operator:wikidata": "Q4686452", "operator:wikipedia": "en:Adventist Health", "phone": "+1 707 462 3111", "website": "https://www.adventisthealth.org/ukiah-valley/", "wikidata": "Q7878306", "wikipedia": "en:Ukiah Valley Medical Center"}}, {"type": "way", "id": 577779410, "center": {"lat": 39.1050193, "lon": -122.906456}, "nodes": [5538041610, 5538041609, 5538041608, 5538041607, 5538041606, 5538041605, 5538041604, 358806694, 5538041603, 5538041602, 1702353508, 1702353437, 1702353475, 1702353515, 1702353535, 1702353570, 1702353667, 5538041601, 5538041600, 5538041610], "tags": {"addr:city": "Lakeport", "addr:housenumber": "5176", "addr:postcode": "95453", "addr:state": "CA", "addr:street": "Hill Road East", "amenity": "hospital", "beds": "25", "emergency": "yes", "gnis:feature_id": "1658933", "healthcare": "hospital", "name": "Sutter Lakeside Hospital", "opening_hours": "24/7", "operator": "Sutter Health", "phone": "+1 707 262 5000", "website": "https://www.sutterhealth.org/find-location/facility/sutter-lakeside-hospital", "wheelchair": "yes"}}, {"type": "way", "id": 577781339, "center": {"lat": 38.9351312, "lon": -122.6199421}, "nodes": [1702179337, 5538056289, 11234940080, 358830196, 11234940079, 5538056288, 11234940078, 5538056287, 5538056286, 5915240154, 1702180944, 1702180870, 1702180425, 1702180355, 11234940081, 11234940082, 1702179337], "tags": {"addr:city": "Clearlake", "addr:housenumber": "15630", "addr:postcode": "95422", "addr:state": "CA", "addr:street": "18th Avenue", "amenity": "hospital", "beds": "25", "emergency": "yes", "gnis:feature_id": "1766144", "healthcare": "hospital", "name": "Adventist Health Clear Lake", "old_name": "Saint Helena Hospital Clearlake", "opening_hours": "24/7", "operator": "Adventist Health", "operator:wikidata": "Q4686452", "phone": "+1 707 994 6486", "website": "https://www.adventisthealth.org/clear-lake/", "wikidata": "Q3145236", "wikipedia": "en:St. Helena Hospital Clearlake"}}, {"type": "way", "id": 577782629, "center": {"lat": 38.6270611, "lon": -122.8652626}, "nodes": [5538066222, 5538066221, 5538065620, 5538065619, 5538065618, 5538065617, 5538065616, 358831272, 5538065615, 5538065614, 5538066222], "tags": {"addr:city": "Healdsburg", "addr:housenumber": "1375", "addr:postcode": "95448", "addr:street": "University Avenue", "amenity": "hospital", "beds": "43", "emergency": "yes", "gnis:feature_id": "1799156", "healthcare": "hospital", "name": "Healdsburg District Hospital", "opening_hours": "24/7", "operator": "North Sonoma County Healthcare District", "phone": "+1 707 431 6500", "short_name": "HDH", "website": "https://healdsburgdistricthospital.org/"}}, {"type": "way", "id": 577785925, "center": {"lat": 39.5216991, "lon": -122.2081363}, "nodes": [358822045, 5538087603, 5538087602, 5538087601, 5538087600, 5538087599, 358822045], "tags": {"addr:city": "Willows", "addr:housenumber": "1133", "addr:postcode": "95988", "addr:street": "West Sycamore Street", "amenity": "hospital", "emergency": "yes", "gnis:feature_id": "1702587", "healthcare": "hospital", "name": "Glenn Medical Center", "opening_hours": "24/7", "phone": "+1 530 934 1800", "website": "https://glennmed.org/"}}, {"type": "way", "id": 577807430, "center": {"lat": 39.757417, "lon": -121.570327}, "nodes": [5538276663, 5538276662, 358824394, 5538276661, 1559302697, 1559302699, 1559302702, 5538276660, 5538276659, 5538276658, 5538276657, 5538276656, 5538276655, 5538276654, 5538276653, 5538276652, 5538276651, 5538276650, 5538276663], "tags": {"addr:city": "Paradise", "addr:housenumber": "5974", "addr:postcode": "95969", "addr:street": "Pentz Road", "amenity": "hospital", "beds": "100", "emergency": "yes", "gnis:feature_id": "1723854", "healthcare": "hospital", "name": "Adventist Health Feather River", "old_name": "Feather River Hospital", "opening_hours": "24/7", "operator": "Adventist Health", "phone": "+1 530 877 9361", "short_name": "AHFR", "website": "https://www.adventisthealth.org/feather-river/", "wikidata": "Q5439589", "wikipedia": "en:Adventist Health Feather River"}}, {"type": "way", "id": 577823407, "center": {"lat": 39.3676714, "lon": -121.689576}, "nodes": [358806107, 5538402050, 5923027027, 5923027029, 5923027028, 358806107], "tags": {"addr:city": "Gridley", "addr:housenumber": "240", "addr:postcode": "95948", "addr:street": "Spruce Street", "amenity": "hospital", "beds": "45", "emergency": "yes", "gnis:feature_id": "1658058", "healthcare": "hospital", "name": "Orchard Hospital", "old_name": "Biggs Gridley Memorial Hospital", "opening_hours": "24/7", "phone": "+1 530 846 9000", "website": "https://www.orchardhospital.com/"}}, {"type": "way", "id": 577879059, "center": {"lat": 38.5726584, "lon": -121.2949177}, "nodes": [5538906240, 5538906239, 5538906238, 5538906237, 5538906236, 7933416033, 7933416034, 5538906235, 7933416032, 7933416030, 7933416031, 7933416029, 1212919850, 2588228495, 2588228496, 5538906234, 5538906233, 5538906232, 5538906240], "tags": {"addr:city": "Mather", "addr:housenumber": "10535", "addr:postcode": "95655", "addr:street": "Hospital Way", "amenity": "hospital", "beds": "60", "emergency": "yes", "healthcare": "hospital", "healthcare:for": "veterans", "name": "Sacramento VA Medical Center", "opening_hours": "24/7", "operator": "Veterans Health Administration", "operator:short": "VA", "operator:wikidata": "Q6580225", "operator:wikipedia": "en:Veterans Health Administration", "phone": "+1 916 843 7000", "short_name": "VA", "website": "https://www.northerncalifornia.va.gov/"}}, {"type": "way", "id": 577887505, "center": {"lat": 38.6432338, "lon": -121.3650348}, "nodes": [5538970570, 5538970569, 5538970568, 5538970567, 5538970566, 5538970565, 5538970564, 5538970570], "tags": {"addr:city": "Sacramento", "addr:housenumber": "4250", "addr:postcode": "95841", "addr:street": "Auburn Boulevard", "amenity": "hospital", "beds": "125", "emergency": "no", "healthcare": "hospital", "healthcare:speciality": "psychiatry", "name": "Heritage Oaks Hospital", "phone": "+1 916 489 3336", "website": "https://heritageoakshospital.com/"}}, {"type": "way", "id": 577890444, "center": {"lat": 38.601612, "lon": -121.3946397}, "nodes": [5538986776, 5538986775, 10752870383, 10752870388, 5538986774, 10752870384, 5538986773, 10752870375, 10752870374, 5538986772, 5538986771, 5538986770, 5538986769, 5538986768, 5538986767, 5538986766, 5538986765, 5538986764, 5538986763, 358806671, 5538986776], "tags": {"addr:city": "Sacramento", "addr:housenumber": "2025", "addr:postcode": "95825", "addr:street": "Morse Avenue", "amenity": "hospital", "emergency": "yes", "gnis:feature_id": "1658880", "healthcare": "hospital", "name": "Kaiser Permanente Sacramento Medical Center", "opening_hours": "24/7", "operator": "Kaiser Permanente", "operator:short": "KP", "operator:wikidata": "Q1721601", "operator:wikipedia": "en:Kaiser Permanente", "phone": "+1 916 973 5000", "website": "https://thrive.kaiserpermanente.org/care-near-you/northern-california/northvalley/locations/sacramento-medical-center/"}}, {"type": "way", "id": 577895513, "center": {"lat": 38.5706169, "lon": -121.452869}, "nodes": [358806839, 5539013431, 5539013430, 5539013429, 5539013427, 5539013426, 5539013425, 5539013424, 5539013423, 5539013422, 5539013421, 5539013428, 358806839], "tags": {"addr:city": "Sacramento", "addr:housenumber": "4001", "addr:postcode": "95819", "addr:street": "J Street", "amenity": "hospital", "emergency": "yes", "gnis:feature_id": "1659111", "healthcare": "hospital", "name": "Mercy General Hospital", "opening_hours": "24/7", "operator": "Dignity Health", "operator:wikidata": "Q5276334", "operator:wikipedia": "en:Dignity Health", "phone": "+1 916 453 4545", "website": "https://www.dignityhealth.org/sacramento/locations/mercy-general-hospital", "wikidata": "Q6818732", "wikipedia": "en:Mercy General Hospital"}}, {"type": "way", "id": 578100530, "center": {"lat": 38.4694707, "lon": -121.4225856}, "nodes": [5540222400, 5540222399, 5540222398, 5540222397, 5540222396, 358837004, 5540222395, 5540222394, 5540222393, 5540222392, 5540222391, 5540222390, 5540222389, 5540222388, 5540222387, 5540222386, 5540222385, 5540222384, 5540222383, 5540222382, 5540222381, 5540222380, 5540222379, 5540222378, 5540222377, 5540222376, 5540222375, 5540222374, 5540222373, 5540222372, 5540222371, 5540222370, 5540222369, 5540222368, 5540222367, 5540222366, 5540222365, 5540222364, 5540222363, 5540222400], "tags": {"addr:city": "Sacramento", "addr:housenumber": "6600", "addr:postcode": "95823", "addr:state": "CA", "addr:street": "Bruceville Road", "amenity": "hospital", "beds": "209", "emergency": "yes", "gnis:feature_id": "1827095", "healthcare": "hospital", "name": "Kaiser Permanente South Sacramento Medical Center", "opening_hours": "24/7", "operator": "Kaiser Permanente", "operator:short": "KP", "operator:wikidata": "Q1721601", "operator:wikipedia": "en:Kaiser Permanente", "phone": "+1 916 688 2000", "website": "https://thrive.kaiserpermanente.org/care-near-you/northern-california/southsacramento/locations/south-sacramento-medical-center/"}}, {"type": "way", "id": 578107842, "center": {"lat": 38.4628827, "lon": -121.4163642}, "nodes": [5540268404, 5540268403, 5540268402, 5540268401, 5540268400, 5540268399, 5540268398, 5540268397, 5540268396, 5540268395, 358837011, 5540268394, 5540268404], "tags": {"addr:city": "Sacramento", "addr:housenumber": "7500", "addr:postcode": "95823", "addr:street": "Hospital Drive", "amenity": "hospital", "beds": "329", "emergency": "yes", "gnis:feature_id": "1827100", "healthcare": "hospital", "name": "Methodist Hospital of Sacramento", "opening_hours": "24/7", "operator": "Dignity Health", "operator:wikidata": "Q5276334", "operator:wikipedia": "en:Dignity Health", "phone": "+1 916 423 3000", "website": "https://www.dignityhealth.org/sacramento/locations/methodist-hospital-of-sacramento", "wikidata": "Q6823834", "wikipedia": "en:Methodist Hospital of Sacramento"}}, {"type": "way", "id": 578178961, "center": {"lat": 38.1212282, "lon": -121.286965}, "nodes": [5540746289, 5540746288, 5540746287, 5540746286, 5540746285, 5540746284, 358837429, 5540746289], "tags": {"addr:city": "Lodi", "addr:housenumber": "975", "addr:postcode": "95240", "addr:street": "South Fairmont Avenue", "amenity": "hospital", "emergency": "yes", "gnis:feature_id": "1827310", "healthcare": "hospital", "name": "Adventist Health Lodi Memorial", "old_name": "Lodi Memorial Hospital", "opening_hours": "24/7", "operator": "Adventist Health", "phone": "+1 209 334 3411", "website": "https://www.adventisthealth.org/lodimemorial/"}}, {"type": "way", "id": 578229087, "center": {"lat": 37.7444966, "lon": -121.4340372}, "nodes": [358837683, 5541158283, 5541158282, 5541158281, 5541158280, 5541158279, 5541158278, 5541158277, 5541158276, 358837683], "tags": {"addr:city": "Tracy", "addr:housenumber": "1420", "addr:postcode": "95376", "addr:street": "North Tracy Boulevard", "amenity": "hospital", "beds": "77", "emergency": "yes", "gnis:feature_id": "1827518", "healthcare": "hospital", "name": "Sutter Tracy Community Hospital", "opening_hours": "24/7", "operator": "Sutter Health", "operator:wikidata": "Q7650154", "phone": "+1 209 835 1500", "website": "https://www.sutterhealth.org/find-location/facility/sutter-tracy-community-hospital"}}, {"type": "way", "id": 578263538, "center": {"lat": 37.7574666, "lon": -120.8614782}, "nodes": [5541477917, 5541477916, 5541477915, 5541477914, 5541477913, 5541477912, 5541477911, 5541477910, 5541477909, 5541477908, 5541477907, 5541477906, 358835446, 6933060470, 6933060469, 5541477905, 5541477917], "tags": {"addr:city": "Oakdale", "addr:housenumber": "350", "addr:postcode": "95361", "addr:street": "South Oak Avenue", "amenity": "hospital", "beds": "150", "emergency": "yes", "gnis:feature_id": "1817226", "healthcare": "hospital", "name": "Oak Valley Hospital", "opening_hours": "24/7", "phone": "+1 209 847 3011", "website": "http://www.oakvalleycares.org/"}}, {"type": "way", "id": 578496140, "center": {"lat": 37.3399309, "lon": -120.4669897}, "nodes": [5542787382, 6351577094, 5542787381, 5542787380, 6351577089, 5542787379, 5542787378, 6351577103, 6351577104, 5542787376, 5542787375, 5542787374, 6346666831, 5542787373, 5542787372, 5542787371, 5542787370, 5542787382], "tags": {"addr:city": "Merced", "addr:housenumber": "333", "addr:postcode": "95340", "addr:street": "Mercy Avenue", "amenity": "hospital", "beds": "186", "emergency": "yes", "healthcare": "hospital", "name": "Mercy Medical Center Merced", "opening_hours": "24/7", "operator": "Dignity Health", "operator:wikidata": "Q5276334", "operator:wikipedia": "en:Dignity Health", "phone": "+1 209 564 5000", "website": "https://www.dignityhealth.org/central-california/locations/mercymedical-merced", "wheelchair": "yes", "wikidata": "Q6818786", "wikipedia": "en:Mercy Medical Center Merced"}}, {"type": "way", "id": 578520032, "center": {"lat": 36.9438544, "lon": -120.0443816}, "nodes": [11050225278, 358834638, 5542874227, 5542874226, 5542874225, 5542874224, 5542874223, 5542874222, 5542874221, 6970864131, 5542861220, 11050225278], "tags": {"addr:city": "Madera", "addr:housenumber": "1250", "addr:postcode": "93637", "addr:street": "East Almond Avenue", "amenity": "hospital", "beds": "106", "emergency": "yes", "gnis:feature_id": "1812656", "healthcare": "hospital", "name": "Madera Community Hospital", "opening_hours": "24/7", "phone": "+1 559 675 5555", "website": "https://www.maderahospital.org/", "wikidata": "Q14683234", "wikipedia": "en:Madera Community Hospital"}}, {"type": "way", "id": 579386885, "center": {"lat": 36.5793032, "lon": -121.9139242}, "nodes": [420465510, 5548883176, 5548883175, 5548883174, 5548883173, 5548883172, 5548883171, 5548883170, 5548883169, 5548883168, 5548883167, 5548883166, 5548883165, 5548883164, 5548883163, 5548883162, 5548883161, 5548883160, 5548883159, 358849837, 5548883158, 5548883157, 5548883156, 5548883155, 5548883154, 2199140227, 420465508, 10613337720, 420465509, 420465510], "tags": {"addr:city": "Monterey", "addr:housenumber": "23625", "addr:postcode": "93940", "addr:state": "CA", "addr:street": "Pacific Grove-Carmel Highway", "amenity": "hospital", "emergency": "yes", "gnis:feature_id": "1873557", "healthcare": "hospital", "name": "Community Hospital of the Monterey Peninsula", "opening_hours": "24/7", "operator": "Montage Health", "phone": "+1 831 624 5311", "website": "https://www.chomp.org/", "wikidata": "Q5154791"}}, {"type": "way", "id": 579550238, "center": {"lat": 36.9264681, "lon": -121.7935449}, "nodes": [5550124717, 5550124716, 5550124715, 5550124714, 5550124713, 5550124712, 5550124711, 431041611, 5550124710, 5550124709, 5550124708, 5550124707, 5550124706, 5550124705, 5550124704, 5550124703, 5550124717], "tags": {"addr:city": "Watsonville", "addr:housenumber": "75", "addr:postcode": "95076", "addr:street": "Neilson Street", "amenity": "hospital", "beds": "106", "emergency": "yes", "healthcare": "hospital", "name": "Watsonville Community Hospital", "opening_hours": "24/7", "phone": "+1 831 724 4741", "website": "http://www.watsonvillehospital.com/", "wikidata": "Q61932002"}}, {"type": "way", "id": 579665920, "center": {"lat": 37.2628657, "lon": -121.9692126}, "nodes": [440995084, 5550984301, 5550984300, 358838586, 5550984299, 5550984298, 5550984297, 440995079, 8700805694, 440995080, 7130345890, 440995077, 440995078, 440995085, 440995084], "tags": {"addr:city": "Los Gatos", "addr:housenumber": "815", "addr:postcode": "95032", "addr:street": "Pollard Road", "amenity": "hospital", "beds": "143", "emergency": "yes", "gnis:feature_id": "1830302", "healthcare": "hospital", "name": "El Camino Hospital Los Gatos", "opening_hours": "24/7", "operator": "El Camino Hospital", "phone": "+1 408 378 6131", "website": "https://www.elcaminohospital.org/locations/los-gatos-campus"}}, {"type": "way", "id": 579805948, "center": {"lat": 37.5572513, "lon": -121.9793278}, "nodes": [358807691, 10815459523, 5552086667, 5552086666, 5552086665, 5552086664, 5552086663, 5552086662, 10815459474, 5552086661, 5552086660, 437703599, 437703597, 437703594, 5552086659, 5552086658, 5552086657, 5552086656, 5552086655, 5552086654, 358807691], "tags": {"addr:city": "Fremont", "addr:housenumber": "2000", "addr:postcode": "94538", "addr:street": "Mowry Avenue", "amenity": "hospital", "beds": "341", "emergency": "yes", "gnis:feature_id": "1660132", "healthcare": "hospital", "name": "Washington Hospital", "opening_hours": "24/7", "operator": "Washington Hospital Healthcare System", "phone": "+1 510 797 1111", "website": "https://www.whhs.com/"}}, {"type": "way", "id": 579899802, "center": {"lat": 38.5419852, "lon": -122.4745104}, "nodes": [5552791938, 5552791937, 358807220, 5552791936, 5552791935, 5552791934, 5552791933, 5552791932, 5552791931, 5552791930, 5552791929, 5552791928, 5552791927, 5552791926, 5552791925, 5552791924, 5552791923, 5552791922, 5552791921, 5552791620, 5552791619, 5552791618, 5552791617, 5552791616, 5552791938], "tags": {"addr:city": "Saint Helena", "addr:housenumber": "10", "addr:postcode": "94574", "addr:street": "Woodland Road", "amenity": "hospital", "beds": "151", "emergency": "yes", "gnis:feature_id": "1659569", "healthcare": "hospital", "name": "Adventist Health Saint Helena", "old_name": "Saint Helena Hospital and Health Center", "opening_hours": "24/7", "operator": "Adventist Health", "phone": "+1 707 963 3611", "website": "https://www.adventisthealth.org/sthelena", "wikidata": "Q3145294", "wikipedia": "fr:H\u00f4pital de St. Helena"}}, {"type": "way", "id": 579917982, "center": {"lat": 38.4946257, "lon": -122.7520027}, "nodes": [5552902683, 5552902657, 5552902679, 5552902659, 6737818977, 5552902678, 5552902682, 7024761390, 5552902681, 7024761394, 7024761395, 5552902680, 5552902677, 7024761396, 7024761397, 5552902676, 7024761398, 7024761399, 5552902675, 5552902674, 7024761400, 7024761401, 5552902673, 5552902672, 7024761402, 7024761403, 5552902671, 5552902670, 7024761404, 7024777631, 5552902669, 5552902668, 5552902667, 7024777630, 5552902666, 5552902665, 5552902664, 7024777629, 5552902663, 7024777628, 5552902662, 7024777627, 7024777626, 5552902661, 5552902660, 5552902683], "tags": {"addr:city": "Santa Rosa", "addr:housenumber": "30", "addr:postcode": "95403", "addr:state": "CA", "addr:street": "Mark West Springs Road", "amenity": "hospital", "beds": "84", "emergency": "yes", "healthcare": "hospital", "name": "Sutter Santa Rosa Regional Hospital", "opening_hours": "24/7", "operator": "Sutter Health", "operator:wikidata": "Q7650154", "phone": "+1 707 576 4000", "website": "https://www.sutterhealth.org/ssrrh"}}, {"type": "way", "id": 579955632, "center": {"lat": 38.3972416, "lon": -122.8193299}, "nodes": [5553170379, 5553170378, 5553170377, 5553170376, 5553170375, 5553170374, 5553170373, 5553170372, 5553170371, 5553170370, 358831463, 5553170369, 5553170379], "tags": {"addr:city": "Sebastopol", "addr:housenumber": "501", "addr:postcode": "95472", "addr:street": "Petaluma Avenue", "amenity": "hospital", "beds": "37", "emergency": "yes", "gnis:feature_id": "1799384", "healthcare": "hospital", "name": "Sonoma West Medical Center", "opening_hours": "24/7", "phone": "+1 707 823 8511", "website": "http://sonomawestmedicalcenter.com/"}}, {"type": "way", "id": 579959366, "center": {"lat": 38.2545664, "lon": -122.6318574}, "nodes": [9453821462, 5553194392, 5553194393, 5553194391, 5553194394, 9453821424, 9453821435, 9453821423, 5553194396, 9453821422, 5553194386, 5553194387, 9453821421, 358831695, 5553194388, 9453821420, 9453821419, 9453821418, 9453821417, 9453806416, 9453806415, 5553194389, 9453806414, 5553194390, 9453806413, 9453821465, 9453821464, 9453821463, 9453821462], "tags": {"addr:city": "Petaluma", "addr:housenumber": "400", "addr:postcode": "94954", "addr:street": "North McDowell Boulevard", "amenity": "hospital", "beds": "80", "emergency": "yes", "gnis:feature_id": "1799693", "healthcare": "hospital", "name": "Petaluma Valley Hospital", "opening_hours": "24/7", "operator": "Saint Joseph Health", "phone": "+1 707 778 1111", "website": "https://www.stjoesonoma.org/contact-us/locations-and-directions/petaluma-valley-hospital/"}}, {"type": "way", "id": 579963758, "center": {"lat": 38.2881077, "lon": -122.4653592}, "nodes": [5553248802, 7396176687, 7396176686, 7396176685, 7396176688, 5553248804, 7396176689, 7396176690, 7396176691, 7396176692, 7396176693, 7396176703, 7396176611, 5553248803, 7396176694, 7396176695, 7396176696, 7396176697, 7403804198, 7403804204, 7396176698, 7396176699, 7396176704, 7396176678, 7396176677, 358831705, 7396176679, 7396176680, 7396176681, 7396176711, 7396176682, 7396176612, 7396176683, 7396176684, 5553248802], "tags": {"addr:city": "Sonoma", "addr:housenumber": "347", "addr:postcode": "95476", "addr:street": "Andrieux Street", "amenity": "hospital", "beds": "51", "emergency": "yes", "gnis:feature_id": "1799707", "healthcare": "hospital", "name": "Sonoma Valley Hospital", "opening_hours": "24/7", "operator": "Sonoma Valley Health Care District", "phone": "+1 707 935 5000", "short_name": "SVH", "website": "https://www.svh.com/", "wikidata": "Q41471", "wikipedia": "en:Sonoma Valley Hospital"}}, {"type": "way", "id": 579979418, "center": {"lat": 38.0987785, "lon": -122.5603002}, "nodes": [5553455260, 5553455259, 5553455258, 5553455257, 5553455256, 5553455255, 5553455254, 5553455253, 5553455252, 5553455251, 5553455250, 5553455260], "tags": {"addr:city": "Novato", "addr:housenumber": "4", "addr:postcode": "94945", "addr:state": "CA", "addr:street": "Rowland Way", "amenity": "hospital", "emergency": "yes", "healthcare": "hospital", "name": "Novato Community Hospital", "opening_hours": "24/7", "operator": "Sutter Health", "operator:wikidata": "Q7650154", "operator:wikipedia": "en:Sutter Health", "phone": "+1 415 897 3111", "website": "https://www.sutterhealth.org/find-location/facility/novato-community-hospital"}}, {"type": "way", "id": 579983524, "center": {"lat": 38.004505, "lon": -122.5544845}, "nodes": [5553496997, 5553496996, 5553496995, 5553496994, 5553496993, 5553496992, 5553496991, 5553496990, 5553496989, 5553496988, 5553496987, 5553496986, 5553496985, 5553496984, 358832716, 5553496983, 5553496982, 5553496981, 5553496980, 5553496979, 5553496997], "tags": {"addr:city": "San Rafael", "addr:housenumber": "99", "addr:postcode": "94903", "addr:street": "Montecillo Road", "amenity": "hospital", "beds": "116", "emergency": "yes", "gnis:feature_id": "1800749", "healthcare": "hospital", "name": "Kaiser Permanente San Rafael Medical Center", "opening_hours": "24/7", "operator": "Kaiser Permanente", "operator:short": "KP", "operator:wikidata": "Q1721601", "operator:wikipedia": "en:Kaiser Permanente", "phone": "+1 415 444 2000", "website": "https://thrive.kaiserpermanente.org/care-near-you/northern-california/sanrafael/locations/san-rafael-medical-offices/"}}, {"type": "way", "id": 580000443, "center": {"lat": 37.6330866, "lon": -122.0878995}, "nodes": [358807224, 5553620267, 369170015, 5553620266, 5553620254, 5553620265, 5553620264, 5553620263, 5553620262, 5553620261, 5553620260, 5553620259, 5553620258, 5553620257, 5553620256, 5553620255, 358807224], "tags": {"addr:city": "Hayward", "addr:housenumber": "27200", "addr:postcode": "94545", "addr:street": "Calaroga Avenue", "amenity": "hospital", "beds": "195", "emergency": "yes", "gnis:feature_id": "1659572", "healthcare": "hospital", "name": "Saint Rose Hospital", "opening_hours": "24/7", "phone": "+1 510 264 4000", "website": "https://www.strosehospital.org/", "wikidata": "Q7591630", "wikipedia": "en:St. Rose Hospital"}}, {"type": "way", "id": 580152822, "center": {"lat": 37.710422, "lon": -122.1193133}, "nodes": [3662467017, 3662467011, 3662471458, 3662467014, 3662467015, 3662467024, 3662470837, 3662470832, 6445913008, 3662467019, 3662470825, 4054995776, 5554519839, 5554519838, 5554519837, 5554519836, 5554519835, 5554519834, 5554519833, 5554519832, 5554519831, 5554519830, 5554519829, 5554519828, 5554519827, 5554519826, 4054995576, 5554519825, 5554519824, 5554519823, 3662467017], "tags": {"addr:city": "San Leandro", "addr:housenumber": "2060", "addr:postcode": "94578", "addr:street": "Fairmont Drive", "amenity": "hospital", "emergency": "no", "healthcare": "hospital", "healthcare:speciality": "psychiatry", "name": "John George Psychiatric Hospital", "operator": "Alameda Health System", "phone": "+1 510 346 1300", "website": "http://www.alamedahealthsystem.org/", "wikidata": "Q6235157", "wikipedia": "en:John George Psychiatric Pavilion"}}, {"type": "way", "id": 580229406, "center": {"lat": 37.526393, "lon": -122.5075423}, "nodes": [1516200030, 358830590, 5555029070, 5555029069, 1516200055, 1516200056, 1516200048, 1516200043, 1516200026, 1516199958, 1516200030], "tags": {"addr:city": "Moss Beach", "addr:housenumber": "600", "addr:postcode": "94038", "addr:street": "Marine Boulevard", "amenity": "hospital", "beds": "116", "emergency": "yes", "gnis:feature_id": "1785830", "healthcare": "hospital", "name": "Seton Coastside Hospital", "opening_hours": "24/7", "operator": "Verity Health", "phone": "+1 650 563 7100", "website": "https://setoncoastside.verity.org/"}}, {"type": "way", "id": 580239673, "center": {"lat": 37.67939, "lon": -122.4742787}, "nodes": [5555127814, 5555127813, 6821259162, 5561436720, 5555127812, 5555127811, 5555127810, 5555127809, 5555127808, 5555127807, 5555127814], "tags": {"addr:city": "Daly City", "addr:housenumber": "1900", "addr:postcode": "94015", "addr:street": "Sullivan Avenue", "amenity": "hospital", "beds": "434", "emergency": "yes", "gnis:feature_id": "1785729", "healthcare": "hospital", "name": "Seton Medical Center", "opening_hours": "24/7", "operator": "Verity Health", "phone": "+1 650 992 4000", "website": "https://seton.verity.org/", "wikidata": "Q7456803", "wikipedia": "en:Seton Medical Center"}}, {"type": "way", "id": 580277612, "center": {"lat": 37.7655773, "lon": -122.3907516}, "nodes": [5555408512, 5555408511, 5555408510, 5555408509, 5555408508, 6329857139, 5555408507, 5555408506, 5555408505, 5555408504, 5555408503, 5555408502, 5555408501, 4668344953, 4668344950, 4668344951, 4561825894, 5555408500, 5555408499, 5555408512], "tags": {"addr:city": "San Francisco", "addr:housenumber": "1975", "addr:postcode": "94158", "addr:street": "4th Street", "amenity": "hospital", "emergency": "no", "healthcare": "hospital", "name": "UCSF Medical Center at Mission Bay", "operator": "University of California San Francisco", "website": "https://www.ucsfhealth.org/"}}, {"type": "way", "id": 586913467, "center": {"lat": 37.6981684, "lon": -122.089207}, "nodes": [5607005386, 5607005369, 5607005370, 5607005385, 5607005384, 5607005383, 5607005382, 5607005381, 5607005380, 5607005379, 5358198767, 5358198768, 5607005378, 5607005377, 5607005376, 5607005375, 5607005371, 5607005372, 5607005373, 5607005374, 5607005386], "tags": {"addr:city": "Castro Valley", "addr:housenumber": "20103", "addr:postcode": "94546", "addr:street": "Lake Chabot Road", "amenity": "hospital", "beds": "130", "emergency": "yes", "healthcare": "hospital", "name": "Eden Medical Center", "opening_hours": "24/7", "operator": "Sutter Health", "operator:wikidata": "Q7650154", "operator:wikipedia": "en:Sutter Health", "phone": "+1 510 537 1234", "website": "https://www.sutterhealth.org/find-location/facility/eden-medical-center"}}, {"type": "way", "id": 587062695, "center": {"lat": 37.664461, "lon": -120.9584011}, "nodes": [5608279969, 5608279968, 5608279967, 5608279966, 5608279965, 5608279964, 5608279963, 5608279962, 5608279961, 5608279969], "tags": {"addr:city": "Modesto", "addr:housenumber": "1421", "addr:postcode": "95355", "addr:state": "CA", "addr:street": "Oakdale Road", "amenity": "hospital", "beds": "23", "emergency": "no", "healthcare": "hospital", "healthcare:speciality": "surgery", "name": "Stanislaus Surgical Hospital", "phone": "+1 209 572 2700", "website": "https://stanislaussurgical.com/"}}, {"type": "way", "id": 587063376, "center": {"lat": 37.6691108, "lon": -120.9733772}, "nodes": [5608288219, 5608288218, 5608288217, 5608288216, 5608288215, 5608288214, 5608288213, 5608288212, 5608288211, 5608288169, 5608288170, 5608288171, 5608288172, 5608288210, 5608288205, 5608288209, 5608288208, 5608288207, 5608288206, 4169523134, 5608288219], "tags": {"addr:city": "Modesto", "addr:housenumber": "1700", "addr:postcode": "95355", "addr:state": "CA", "addr:street": "Coffee Road", "amenity": "hospital", "beds": "388", "emergency": "yes", "healthcare": "hospital", "name": "Memorial Medical Center", "opening_hours": "24/7", "operator": "Sutter Health", "operator:wikidata": "Q7650154", "phone": "+1 209 526 4500", "website": "https://www.sutterhealth.org/mmc", "wikidata": "Q6815474", "wikipedia": "en:Memorial Medical Center (Modesto, California)"}}, {"type": "way", "id": 608778056, "center": {"lat": 37.9258199, "lon": -122.0528186}, "nodes": [57913219, 348422174, 8306481970, 4876545224, 348422173, 4876545227, 575691981, 348423201, 5767002385, 5767002386, 5767002418, 348423202, 5767002310, 57807550, 370516838, 6538482303, 370516839, 370516840, 57913219], "tags": {"addr:city": "Walnut Creek", "addr:housenumber": "1450", "addr:postcode": "94597", "addr:state": "CA", "addr:street": "Treat Boulevard", "amenity": "hospital", "healthcare": "hospital", "name": "Walnut Creek Outpatient Center", "operator": "John Muir Health", "phone": "(925) 296-9700", "website": "https://www.johnmuirhealth.com/locations/outpatient-center-walnut-creek.html?cid=orgloc:landingURL:yext"}}, {"type": "way", "id": 609820044, "center": {"lat": 37.9295984, "lon": -122.0296781}, "nodes": [4925258264, 2830809616, 4925258285, 5772242592, 57848747, 4925258298, 5772246109, 4925258280, 2830699358, 4925258294, 347423363, 4925258278, 347423362, 57860243, 2807886681, 5020575628, 5020549088, 5020549087, 5020549086, 5020549085, 5020575643, 5775837617, 4925258264], "tags": {"amenity": "hospital", "healthcare": "hospital"}}, {"type": "way", "id": 609820045, "center": {"lat": 37.9251641, "lon": -122.0263039}, "nodes": [2730609866, 2822186238, 2730609864, 2730609862, 2755123211, 57848745, 4878849689, 2755123184, 347423727, 2822186275, 2822186258, 625738175, 625738626, 5775837619, 2751286826, 2751286889, 2751286927, 5775837620, 2730609866], "tags": {"amenity": "hospital", "healthcare": "hospital"}}, {"type": "way", "id": 609820047, "center": {"lat": 37.9252758, "lon": -122.0232425}, "nodes": [2784526836, 4925258603, 347423357, 4925258591, 2784526812, 2784526811, 625738110, 9623098532, 5775837616, 2784526817, 2784526837, 2784526854, 2784526868, 2784526836], "tags": {"amenity": "hospital", "healthcare": "hospital"}}, {"type": "way", "id": 664549791, "center": {"lat": 39.805464, "lon": -120.4630178}, "nodes": [6219964425, 6219964424, 6219964423, 6219964422, 6219964421, 6219964420, 6219964419, 6219964418, 6219964417, 6219964416, 6219964415, 6219964414, 6219964413, 6219964412, 6219964411, 6219964410, 6219964409, 6219964408, 6219964407, 6219964406, 6219964405, 6219964404, 6219964403, 6219964402, 6219964401, 6219964400, 6219964399, 6219964398, 6219964425], "tags": {"addr:city": "Portola", "addr:housenumber": "500", "addr:postcode": "96122", "addr:street": "1st Avenue", "amenity": "hospital", "beds": "9", "building": "hospital", "emergency": "yes", "opening_hours": "24/7", "operator": "Eastern Plumas Health Care", "phone": "+1 530 832 6500", "website": "https://www.ephc.org/"}}, {"type": "way", "id": 681004075, "center": {"lat": 36.9878028, "lon": -121.9775199}, "nodes": [6376988772, 6376988771, 6376988770, 6376988769, 6376988768, 6376988767, 6376988766, 6376988765, 6376988764, 6376988763, 6376988762, 6984124878, 6376988761, 6376988760, 6376988772], "tags": {"addr:city": "Santa Cruz", "addr:housenumber": "2900", "addr:postcode": "95065", "addr:street": "Chanticleer Avenue", "amenity": "hospital", "beds": "28", "emergency": "no", "healthcare": "hospital", "name": "Sutter Maternity & Surgery Center", "opening_hours": "24/7", "operator": "Sutter Health", "phone": "+1 831 477 2200", "upload_version": "5", "website": "https://www.sutterhealth.org/find-location/facility/sutter-maternity-surgery-center"}}, {"type": "way", "id": 691924059, "center": {"lat": 38.4210742, "lon": -122.7519644}, "nodes": [6458406385, 6494613728, 7885421251, 7885421250, 6494613729, 6494613730, 6458406385], "tags": {"addr:housenumber": "2240", "addr:street": "Mercury Way", "amenity": "hospital", "building": "yes", "healthcare": "hospital", "name": "Kaiser Mercury Way"}}, {"type": "way", "id": 691981592, "center": {"lat": 37.5463961, "lon": -121.9797251}, "nodes": [6495324176, 6495324177, 10815523869, 6495324178, 6495324179, 10815523860, 6495324180, 6495324181, 6495324182, 6495324176], "tags": {"addr:city": "Fremont", "addr:housenumber": "39001", "addr:postcode": "94538", "addr:state": "CA", "addr:street": "Sundale Drive", "amenity": "hospital", "beds": "148", "emergency": "no", "healthcare": "hospital", "healthcare:speciality": "psychiatry", "name": "Fremont Hospital", "phone": "+1 510 796 1100", "website": "https://fremonthospital.com/"}}, {"type": "way", "id": 692728697, "center": {"lat": 38.6679367, "lon": -121.1502235}, "nodes": [6503521755, 6503521756, 6503521757, 6503521758, 6503521759, 6503521760, 6503521761, 6503521762, 6503521763, 6503521764, 6503521765, 6503521766, 6503521767, 6503521768, 6503521769, 6503521770, 6503521771, 6503521772, 6503521773, 6503521755], "tags": {"amenity": "hospital", "healthcare": "hospital", "name": "Folsom Surgery Center"}}, {"type": "way", "id": 692733305, "center": {"lat": 38.4620707, "lon": -121.4144002}, "nodes": [6503565068, 6503565069, 6503565070, 6503565071, 6503565068], "tags": {"amenity": "hospital", "healthcare": "hospital", "name": "Endoscopy Center of South Sacramento"}}, {"type": "way", "id": 701135456, "center": {"lat": 37.8831591, "lon": -122.1842244}, "nodes": [6584552301, 4931056043, 57815356, 4174871827, 378476174, 6584552346, 6587735731, 6584552302, 6584552301], "tags": {"addr:city": "Orinda", "addr:housenumber": "11", "addr:postcode": "94563", "addr:state": "CA", "addr:street": "Altarinda Drive", "amenity": "hospital", "healthcare": "hospital", "name": "Orinda Rehabilitation", "phone": "(925) 254-6500"}}, {"type": "way", "id": 722674586, "center": {"lat": 39.4003881, "lon": -123.3509836}, "nodes": [6778936145, 276369321, 276369320, 276369334, 276369333, 6778936146, 276369318, 6778936147, 6778936148, 6778936149, 87311751, 6778936145], "tags": {"addr:city": "Willits", "addr:street": "Madrone Street", "amenity": "hospital", "healthcare": "hospital", "name": "Frank R. Howard Memorial Hospital", "wikidata": "Q5489125", "wikipedia": "en:Adventist Health Howard Memorial Hospital"}}, {"type": "way", "id": 726622105, "center": {"lat": 37.6653587, "lon": -122.4693682}, "nodes": [6810799477, 7159899236, 7159899205, 6810799478, 7159899212, 7159899242, 7159899224, 7159899230, 7159899228, 7159899210, 6810799479, 7159899248, 7159899218, 6810799480, 6810799481, 6810799482, 6810799477], "tags": {"addr:city": "Daly City", "addr:housenumber": "386", "addr:postcode": "94015", "addr:state": "CA", "addr:street": "Gellert Boulevard", "amenity": "hospital", "building": "yes", "healthcare": "hospital", "name": "Chinese Hospital Outpatient Center", "phone": "1-650-761-3500"}}, {"type": "way", "id": 741324404, "center": {"lat": 38.4401502, "lon": -122.7436644}, "nodes": [6940022240, 6940022241, 6940022242, 6940022243, 6940022244, 6940022245, 6940022246, 6940022247, 6940022248, 6940022249, 6940022234, 6940022233, 6940022250, 6940022551, 6940022251, 6940022252, 6940022253, 6940022254, 6940022255, 6940022240], "tags": {"amenity": "hospital", "healthcare": "hospital", "name": "Sonoma County Indian Health Project"}}, {"type": "way", "id": 741324405, "center": {"lat": 38.4405352, "lon": -122.7436513}, "nodes": [6940022256, 6940022282, 6940022281, 6940022280, 6940022279, 6940022278, 6940022277, 6940022276, 6940022275, 6940022274, 6940022273, 6940022272, 6940022271, 6940022270, 6940022269, 6940022268, 6940022267, 6940022266, 6940022265, 6940022264, 6940022263, 6940022262, 6940022261, 6940022260, 6940022259, 6940022258, 6940022257, 6940022256], "tags": {"amenity": "hospital", "building": "hospital", "healthcare": "hospital", "name": "Sonoma County Indian Health Project"}}, {"type": "way", "id": 787331201, "center": {"lat": 38.1175678, "lon": -122.249123}, "nodes": [7361574422, 7361574423, 7361574424, 7361574425, 7361574426, 7361574427, 7361574422], "tags": {"addr:city": "Vallejo", "addr:state": "CA", "amenity": "hospital", "beds": "61", "emergency": "no", "healthcare": "hospital", "healthcare:speciality": "psychiatry", "name": "Adventist Health Vallejo", "operator": "Adventist Health", "operator:wikidata": "Q4686452", "operator:wikipedia": "en:Adventist Health"}}, {"type": "way", "id": 818452766, "center": {"lat": 38.7659333, "lon": -121.2486944}, "nodes": [7659922753, 7643480567, 7643480566, 7659922759, 7659922760, 7659922757, 7659922758, 7659922632, 648673735, 648673737, 7643480568, 7659922754, 7659922593, 7659922753], "tags": {"amenity": "hospital", "building": "hospital", "healthcare": "hospital", "name": "Sutter Roseville Medical Center Emergency Department", "start_date": "2020"}}, {"type": "way", "id": 820118939, "center": {"lat": 39.2063378, "lon": -122.0008825}, "nodes": [7658074947, 7855709960, 7855709958, 7855709957, 7855709956, 7855709955, 7855709954, 7855709952, 7855709950, 7855709951, 7855709953, 7658074952, 7658074953, 7658074954, 7658074955, 7658074956, 7658074957, 7658074958, 7658074959, 7658074960, 7658074961, 7658074962, 7855709946, 7855709945, 7855709944, 7855709947, 7855709919, 7855709948, 7855709949, 7658074963, 7658074964, 7658074947], "tags": {"addr:housenumber": "199", "addr:street": "East Webster Street", "amenity": "hospital", "building": "hospital"}}, {"type": "way", "id": 826590701, "center": {"lat": 38.3845506, "lon": -121.3713364}, "nodes": [7717613795, 7717613812, 7717613813, 7717613797, 7717613811, 7717613810, 7717613809, 7717613798, 7717613796, 7717613814, 7717613806, 7717613828, 7717613808, 7717613824, 7717613821, 7717613807, 7717613827, 7717613805, 7717613818, 7717613819, 7717613793, 7717613820, 7717613801, 7717613825, 7717613803, 7717613822, 7717613799, 7717613815, 7717613816, 7717613800, 7717613823, 7717613804, 7717613826, 7717613802, 7717613817, 7717613794, 7717613795], "tags": {"addr:city": "Elk Grove", "addr:housenumber": "10305", "addr:postcode": "95757", "addr:state": "CA", "addr:street": "Promenade Parkway", "amenity": "hospital", "building": "yes", "emergency": "no", "healthcare": "hospital", "name": "Kaiser Permanente Medical Offices", "operator": "Kaiser Permanente", "operator:short": "KP", "operator:type": "private_non_profit", "operator:wikidata": "Q1721601"}}, {"type": "way", "id": 830183625, "center": {"lat": 37.3015893, "lon": -122.031305}, "nodes": [7748131813, 7748131812, 7748131811, 7748131810, 7748131809, 469060364, 469060363, 469566015, 7748131808, 1984736755, 7748131807, 7748131806, 7748131805, 7748131804, 7748131803, 7748131813], "tags": {"addr:city": "San Jose", "addr:housenumber": "7225", "addr:postcode": "95129", "addr:street": "Rainbow Drive", "amenity": "hospital", "emergency": "no", "healthcare": "hospital", "name": "Palo Alto Medical Foundation", "short_name": "PAMF"}}, {"type": "way", "id": 931241904, "center": {"lat": 38.467161, "lon": -121.4170688}, "nodes": [8633891084, 8633891085, 8633891086, 8633891087, 8633891088, 8633891089, 8633891090, 8633891091, 8633891084], "tags": {"addr:city": "Sacramento", "addr:housenumber": "8001", "addr:postcode": "95823", "addr:state": "CA", "addr:street": "BRUCEVILLE ROAD", "amenity": "hospital", "healthcare": "hospital", "healthcare:speciality": "psychiatry", "name": "Sierra Vista Hospital", "phone": "+1-916-288-0300", "website": "https://sierravistahospital.com/about-us/licensing-and-accreditation/"}}, {"type": "way", "id": 963790039, "center": {"lat": 39.2277105, "lon": -121.0473717}, "nodes": [8914964252, 8914964253, 8914964254, 8914964255, 8914964256, 8914964257, 8914964258, 8914964259, 8914964260, 8914964261, 8914964262, 8914964263, 8914964264, 8914964265, 8914964266, 8914964321, 8914964267, 8914964268, 8914964269, 8914964270, 8914964271, 8914964272, 8914964273, 8914964274, 8914964275, 8914964276, 8914964277, 8914964278, 8914964309, 8914964279, 8914964280, 8914964281, 8914964282, 8914964283, 8914964284, 8914964285, 8914964286, 8914964287, 8914964288, 8914964289, 8914964290, 8914964291, 8914964292, 8914964293, 8914964294, 8914964295, 8914964296, 8914964297, 8914964298, 8914964299, 8914964300, 8914964301, 8914964302, 8914964303, 8914964304, 8914964305, 8914964306, 8914964307, 8914964308, 8914964252], "tags": {"addr:city": "Grass Valley", "addr:housenumber": "155", "addr:postcode": "95945", "addr:state": "CA", "addr:street": "Glasson Way", "amenity": "hospital", "building": "hospital", "building:levels": "10", "emergency": "yes", "healthcare": "hospital", "healthcare:speciality": "general;intensive;emergency;surgery;maternity", "name": "Sierra Nevada Memorial Hospital", "opening_hours": "24/7", "operator": "Dignity Health", "operator:type": "private", "operator:wikidata": "Q5276334", "operator:wikipedia": "en:Dignity Health", "phone": "(530) 274-6000", "website": "https://locations.dignityhealth.org/sierra-nevada-memorial-hospital"}}, {"type": "way", "id": 1066834082, "center": {"lat": 38.2668694, "lon": -122.2393818}, "nodes": [4925678667, 10696097939, 55953785, 10696097943, 4623128063, 55948855, 4623128062, 10696097940, 55953786, 55953787, 11016277360, 11016277361, 11016277362, 11016277363, 11016277369, 10693873865, 7147832706, 7147832705, 55952688, 55953793, 2889572525, 55953795, 55953797, 11223198641, 4925679086, 4925679083, 55953798, 9949279771, 4925679097, 7156224660, 7156224654, 55950745, 415374878, 55953769, 11013914480, 1019380190, 1019380191, 2805090335, 1019380193, 1019380194, 1019380195, 1019380197, 1019380199, 55953771, 2805090312, 10693961197, 539877376, 415374905, 540173482, 415374904, 415374903, 10693975716, 415374902, 415374901, 10693975798, 10693975790, 10693975789, 10693948543, 10693975773, 415374900, 10693948524, 10693948522, 9795870583, 415374899, 9795870564, 10693949638, 10693949639, 415374898, 9795870582, 10693949690, 9795870578, 9795870579, 415374897, 10693949712, 9795870580, 10693949713, 415374896, 10693949726, 10693949729, 9795870581, 10693949733, 10693949737, 415374895, 10693949742, 10693949743, 10693949747, 415374894, 10693949753, 10693949755, 9795870576, 415374893, 10693949770, 9795870577, 10693949789, 10693949790, 10693949793, 10693949796, 415374892, 9795870574, 10693949812, 10693949814, 10693949815, 9795870575, 10693975688, 10693975690, 10693975691, 10693949509, 10693949508, 10693949540, 415374891, 10693949541, 10693949542, 10693949494, 9795870573, 9795870572, 10693949481, 10693949474, 9795870571, 10693949472, 415374890, 10693949458, 414237868, 10693970167, 10693970187, 415374887, 10693949419, 10693949417, 10693970134, 415374879, 9795870570, 11017150842, 11017150843, 9795870565, 11017150845, 11017150844, 9795870569, 9795870566, 10693949354, 10693949338, 10693949334, 10693949327, 9795870567, 10693949239, 9795870568, 2018924192, 1017940099, 11017266013, 1017940101, 1017940106, 1017940111, 1017940116, 1017940118, 1017940121, 1017940122, 1019378153, 1017940123, 11014988320, 1017940124, 1017940127, 1017940130, 1017940142, 1017948535, 7847831844, 7847831847, 7847831849, 7847831845, 303689659, 3549228422, 303689660, 7847831843, 7847831848, 55944238, 7847886330, 303689889, 7847886322, 7847886325, 7847886345, 1019377499, 7847886342, 55953778, 55937210, 8745448876, 55972489, 55953783, 4925678667], "tags": {"amenity": "hospital", "healthcare": "hospital", "name": "Napa State Hospital"}}, {"type": "way", "id": 1180728018, "center": {"lat": 38.3897914, "lon": -122.363425}, "nodes": [10965994226, 10965994227, 10965994228, 10965994229, 10965994230, 10965994231, 10965994232, 10965994233, 10965994234, 10965994235, 10965994236, 10965994237, 10965994238, 10965994239, 10965994240, 10965994241, 10965994242, 10965994226], "tags": {"amenity": "hospital", "healthcare": "hospital", "name": "Holderman Memorial Hospital", "website": "https://www.calvet.ca.gov/VetHomes/Pages/Yountville.aspx"}}, {"type": "way", "id": 1196300000, "center": {"lat": 38.1004298, "lon": -122.2734132}, "nodes": [2149930320, 11101185858, 11101185857, 9018929084, 11101185856, 11101185855, 11101185854, 11101185853, 11101185852, 11101185929, 11101185930, 11101185877, 11101185931, 9678894350, 9678893922, 11101185932, 2149930237, 11101185859, 2149930320], "tags": {"addr:city": "Vallejo", "addr:housenumber": "900", "addr:state": "CA", "addr:street": "Walnut Avenue", "amenity": "hospital", "healthcare": "hospital", "healthcare:for": "veteran", "name": "U.S. Department of Veterans Affairs", "operator": "Veterans Health Administration", "operator:short": "VA", "operator:type": "government", "operator:wikidata": "Q6580225", "short_name": "VA", "website": "https://www.va.gov/northern-california-health-care/locations/mare-island-va-clinic/"}}, {"type": "way", "id": 1203330054, "center": {"lat": 38.9624019, "lon": -122.6408052}, "nodes": [11154673749, 11154673750, 11154673755, 11154673751, 11154673756, 11154673752, 11154673753, 11154673754, 11154673749], "tags": {"addr:city": "Clearlake", "addr:housenumber": "14440", "addr:postcode": "95422", "addr:state": "CA", "addr:street": "Olympic Drive", "amenity": "hospital", "healthcare": "hospital", "name": "Lake County Tribal Health Southshore Clinic"}}, {"type": "relation", "id": 2142027, "center": {"lat": 37.7824568, "lon": -122.505399}, "members": [{"type": "way", "ref": 160070165, "role": "outer"}, {"type": "way", "ref": 160070168, "role": "outer"}, {"type": "way", "ref": 160030096, "role": "outer"}, {"type": "way", "ref": 145027151, "role": "outer"}], "tags": {"addr:city": "San Francisco", "addr:country": "US", "addr:housenumber": "4150", "addr:postcode": "94121-1545", "addr:state": "CA", "addr:street": "Clement Street", "amenity": "hospital", "emergency": "yes", "healthcare": "hospital", "healthcare:for": "veterans", "name": "San Francisco VA Medical Center", "opening_hours": "24/7", "operator": "Veterans Health Administration", "operator:short": "VA", "operator:wikidata": "Q6580225", "operator:wikipedia": "en:Veterans Health Administration", "phone": "+1 415 221 4810", "short_name": "VA", "type": "multipolygon", "website": "https://www.sanfrancisco.va.gov/", "wikidata": "Q7414132", "wikipedia": "en:San Francisco VA Medical Center"}}, {"type": "relation", "id": 5228960, "center": {"lat": 39.3253416, "lon": -120.1997552}, "members": [{"type": "way", "ref": 350490813, "role": "outer"}, {"type": "way", "ref": 350490822, "role": "outer"}, {"type": "way", "ref": 350490873, "role": "outer"}, {"type": "way", "ref": 350490823, "role": "outer"}, {"type": "way", "ref": 350490939, "role": "outer"}], "tags": {"addr:city": "Truckee", "addr:housenumber": "10121", "addr:postcode": "96161", "addr:street": "Pine Avenue", "amenity": "hospital", "beds": "25", "emergency": "yes", "healthcare": "hospital", "name": "Tahoe Forest Hospital", "opening_hours": "24/7", "operator": "Tahoe Forest Hospital District", "phone": "+1 530 587 6011", "type": "multipolygon", "website": "https://www.tfhd.com/"}}, {"type": "relation", "id": 5416154, "center": {"lat": 35.4639437, "lon": -120.6342145}, "members": [{"type": "way", "ref": 165794239, "role": "outer"}, {"type": "way", "ref": 364260922, "role": "inner"}, {"type": "way", "ref": 364260936, "role": "inner"}, {"type": "way", "ref": 364260911, "role": "inner"}, {"type": "way", "ref": 364260938, "role": "inner"}, {"type": "way", "ref": 364260937, "role": "inner"}, {"type": "way", "ref": 364260928, "role": "inner"}, {"type": "way", "ref": 364260932, "role": "inner"}, {"type": "way", "ref": 364260931, "role": "inner"}, {"type": "way", "ref": 364260926, "role": "inner"}, {"type": "way", "ref": 364260920, "role": "inner"}, {"type": "way", "ref": 364260924, "role": "inner"}, {"type": "way", "ref": 364260925, "role": "inner"}, {"type": "way", "ref": 364260915, "role": "inner"}], "tags": {"addr:city": "Atascadero", "addr:country": "US", "addr:housenumber": "10333", "addr:state": "CA", "addr:street": "El Camino Real", "amenity": "hospital", "beds": "1239", "building": "hospital", "emergency": "no", "gnis:feature_id": "1660278", "healthcare": "hospital", "healthcare:speciality": "psychiatry", "name": "Atascadero State Hospital", "operator": "California Department of State Hospitals", "short_name": "ASH", "type": "multipolygon", "website": "http://dsh.ca.gov/Atascadero/", "wikidata": "Q4812857", "wikipedia": "en:Atascadero State Hospital"}}, {"type": "relation", "id": 8464706, "center": {"lat": 37.3135065, "lon": -121.9353094}, "members": [{"type": "way", "ref": 609630707, "role": "outer"}], "tags": {"addr:city": "Santa Clara", "addr:housenumber": "751", "addr:postcode": "95128", "addr:street": "South Bascom Avenue", "amenity": "hospital", "beds": "574", "emergency": "yes", "healthcare": "hospital", "name": "Santa Clara Valley Medical Center", "opening_hours": "24/7", "operator": "County of Santa Clara", "phone": "+1 408 885 5000", "short_name": "SCVMC", "type": "multipolygon", "website": "https://scvmc.scvh.org/", "wikidata": "Q7419341", "wikipedia": "en:Santa Clara Valley Medical Center"}}, {"type": "relation", "id": 8524811, "center": {"lat": 38.2698709, "lon": -121.9644997}, "members": [{"type": "way", "ref": 616215081, "role": "outer"}, {"type": "way", "ref": 616215085, "role": "inner"}, {"type": "way", "ref": 616215086, "role": "inner"}, {"type": "way", "ref": 616215084, "role": "inner"}, {"type": "way", "ref": 616215083, "role": "inner"}, {"type": "way", "ref": 616215082, "role": "inner"}], "tags": {"amenity": "hospital", "building": "hospital", "healthcare": "hospital", "name": "David Grant USAF Medical Center", "type": "multipolygon", "wikidata": "Q5234323", "wikipedia": "en:David Grant USAF Medical Center"}}, {"type": "relation", "id": 9387378, "center": {"lat": 37.8636401, "lon": -122.270026}, "members": [{"type": "way", "ref": 675933938, "role": "outer"}, {"type": "way", "ref": 209305481, "role": "outer"}], "tags": {"addr:city": "Berkeley", "addr:housenumber": "2001", "addr:postcode": "94704", "addr:state": "CA", "addr:street": "Dwight Way", "alt_name": "Herrick Hospital", "amenity": "hospital", "ele": "48", "emergency": "no", "gnis:feature_id": "1676016", "healthcare": "hospital", "name": "Alta Bates Summit Medical Center - Herrick Campus", "old_name": "Herrick Memorial Hospital", "operator": "Sutter Health", "operator:wikidata": "Q7650154", "operator:wikipedia": "en:Sutter Health", "type": "multipolygon", "website": "https://www.sutterhealth.org/find-location/facility/alta-bates-summit-medical-center-herrick-campus", "wheelchair": "yes"}}, {"type": "relation", "id": 9696191, "center": {"lat": 37.891112, "lon": -122.0598684}, "members": [{"type": "way", "ref": 697660750, "role": "outer"}, {"type": "way", "ref": 31537914, "role": "outer"}], "tags": {"addr:city": "Walnut Creek", "addr:housenumber": "1425", "addr:postcode": "94596", "addr:street": "South Main Street", "amenity": "hospital", "beds": "233", "emergency": "yes", "gnis:feature_id": "1723572", "healthcare": "hospital", "name": "Walnut Creek Medical Center", "opening_hours": "24/7", "operator": "Kaiser Permanente", "operator:short": "KP", "operator:wikidata": "Q1721601", "operator:wikipedia": "en:Kaiser Permanente", "phone": "+1 925 295 4000", "type": "multipolygon", "website": "https://thrive.kaiserpermanente.org/care-near-you/northern-california/diablo/locations/walnut-creek-medical-center/"}}, {"type": "relation", "id": 12130441, "center": {"lat": 37.4343774, "lon": -122.1776047}, "members": [{"type": "relation", "ref": 1753562, "role": ""}, {"type": "way", "ref": 891732466, "role": ""}, {"type": "way", "ref": 891732465, "role": ""}, {"type": "way", "ref": 324983015, "role": ""}], "tags": {"addr:city": "Stanford", "addr:postcode": "94305", "addr:street": "Pasteur Drive", "amenity": "hospital", "emergency": "yes", "healthcare": "hospital", "name": "Stanford Hospital", "phone": "+1 650 498 3333", "type": "multipolygon", "website": "https://stanfordhealthcare.org/", "wikidata": "Q7598810"}}, {"type": "relation", "id": 12130449, "center": {"lat": 37.436136, "lon": -122.1744513}, "members": [{"type": "way", "ref": 689417360, "role": "outer"}, {"type": "way", "ref": 130100416, "role": "outer"}, {"type": "way", "ref": 784079435, "role": "outer"}], "tags": {"addr:city": "Stanford", "addr:housenumber": "725", "addr:postcode": "94304", "addr:street": "Welch Road", "amenity": "hospital", "healthcare": "hospital", "name": "Lucile Packard Children's Hospital", "type": "multipolygon", "wikidata": "Q6697222"}}]}