{"version": 0.6, "generator": "Overpass API 0.7.61.5 4133829e", "osm3s": {"timestamp_osm_base": "2023-10-31T20:57:44Z", "copyright": "The data included in this document is from www.openstreetmap.org. The data is made available under ODbL."}, "elements": [{"type": "node", "id": 357097971, "lat": 44.4124756, "lon": -103.4715427, "tags": {"addr:city": "Fort Meade", "addr:housenumber": "113", "addr:postcode": "57741", "addr:street": "Comanche Road", "amenity": "hospital", "emergency": "no", "gnis:feature_id": "1265099", "name": "VA Black Hills Health Care System", "old_name": "Fort Meade Veterans Hospital", "phone": "+1 605 347 2511", "website": "https://www.blackhills.va.gov/"}}, {"type": "node", "id": 358919696, "lat": 40.2546936, "lon": -103.6429792, "tags": {"amenity": "hospital", "ele": "1293", "emergency": "no", "gnis:county_id": "087", "gnis:created": "10/13/1978", "gnis:feature_id": "182920", "gnis:state_id": "08", "is_in:city": "Brush", "is_in:state": "Colorado", "is_in:state_code": "CO", "name": "Eben-Ezer Lutheran Care Center"}}, {"type": "node", "id": 1406581176, "lat": 49.3935025, "lon": -105.13432, "tags": {"amenity": "hospital", "name": "Bengough Health Centre"}}, {"type": "node", "id": 2057690225, "lat": 49.2090229, "lon": -108.3921046, "tags": {"amenity": "hospital", "building": "yes", "source": "NRCan-CanVec-10.0"}}, {"type": "node", "id": 2406868903, "lat": 41.1405788, "lon": -104.815424, "tags": {"addr:city": "Cheyenne", "addr:housename": "Cheyenne Cardiology Associates", "addr:housenumber": "2301", "addr:postcode": "82001", "addr:street": "House Avenue", "amenity": "hospital", "emergency": "no", "healthcare": "hospital", "healthcare:speciality": "cardiology", "name": "Cheyenne Cardiology", "note": "Cardiology inside main hospital building, take elevator, construction zone, park in parking garage on House Ave", "phone": "+1-307-637-1600", "website": "https://www.cheyenneregional.org/"}}, {"type": "node", "id": 2593438746, "lat": 49.9362759, "lon": -105.970234, "tags": {"amenity": "hospital", "building": "yes", "healthcare": "hospital", "source": "NRCan-CanVec-10.0"}}, {"type": "node", "id": 2616772934, "lat": 49.6381057, "lon": -102.4846528, "tags": {"amenity": "hospital", "building": "yes", "source": "NRCan-CanVec-10.0"}}, {"type": "node", "id": 4015035835, "lat": 40.5558611, "lon": -105.0953676, "tags": {"addr:city": "Fort Collins", "addr:housenumber": "1030", "addr:postcode": "80526", "addr:state": "CO", "addr:street": "Centre Avenue", "amenity": "hospital", "emergency": "no", "healthcare": "hospital", "name": "Hearing Rehab Center"}}, {"type": "node", "id": 9492780196, "lat": 48.292761, "lon": -109.8984775, "tags": {"amenity": "hospital", "healthcare": "hospital", "name": "Chippewa Cree Medical Center"}}, {"type": "node", "id": 10074565438, "lat": 40.1362681, "lon": -105.1237378, "tags": {"addr:city": "Longmont", "addr:housenumber": "1921", "addr:postcode": "80501", "addr:state": "CO", "addr:street": "Corporate Center Circle", "addr:unit": "Suite 3G", "amenity": "hospital", "description": "Our Longmont ABA Therapy center provides services for early learners, school-age children, and teens on the Autism Spectrum. Applied Behavior Analysis (ABA) therapy is the leading treatment method to improve the signs and symptoms associated with ASD.", "healthcare": "hospital", "healthcare:speciality": "mental_health", "name": "Action Behavior Centers - ABA Therapy for Autism", "phone": "+1-720-405-6201", "website": "https://www.actionbehavior.com/locations/aba-therapy-longmont-co/"}}, {"type": "node", "id": 10253863392, "lat": 45.5194881, "lon": -109.4451517, "tags": {"amenity": "hospital", "healthcare": "hospital", "name": "Shipps Assisted Living"}}, {"type": "node", "id": 10869486239, "lat": 40.075728, "lon": -105.925792, "tags": {"amenity": "hospital", "beds": "7", "healthcare": "hospital", "name": "Middle Park Medical Center - Granby", "phone": "+1-970-724-3190", "website": "https://middleparkhealth.org"}}, {"type": "node", "id": 10869546329, "lat": 40.1620559, "lon": -105.0585095, "tags": {"addr:city": "Longmont", "addr:housenumber": "1750", "addr:postcode": "80504", "addr:state": "CO", "addr:street": "East Ken Pratt Boulevard", "amenity": "hospital", "beds": "57", "healthcare": "hospital", "name": "Longs Peak Hospital", "phone": "+1-720-718-3005", "website": "https://www.uchealth.org/locations/uchealth-longs-peak-hospital"}}, {"type": "node", "id": 10900941994, "lat": 46.8418693, "lon": -100.9076977, "tags": {"addr:city": "Mandan", "addr:housenumber": "1000", "addr:postcode": "58554", "addr:state": "ND", "addr:street": "18th Street Northwest", "amenity": "hospital", "beds": "41", "healthcare": "hospital", "name": "Vibra Hospital Of Central Dakotas", "phone": "+1 701 667 2000", "website": "https://vhcentraldakotas.com"}}, {"type": "node", "id": 10906471374, "lat": 44.4844536, "lon": -103.8178055, "tags": {"addr:city": "Spearfish", "addr:housenumber": "2519", "addr:postcode": "57783", "addr:state": "SD", "addr:street": "Windmill Drive", "amenity": "hospital", "beds": "30", "healthcare": "hospital", "healthcare:speciality": "psychiatry", "name": "Canyon Hills Center", "phone": "+1 605 559 3500", "website": "https://lsssd.org/what-we-do/residential-services-for-children-youth/canyon-hills-spearfish.html"}}, {"type": "node", "id": 10906735882, "lat": 45.8092599, "lon": -100.8083509, "tags": {"addr:city": "Mclaughlin", "addr:housenumber": "701", "addr:postcode": "57642", "addr:state": "SD", "addr:street": "6th Street East", "amenity": "hospital", "beds": "12", "healthcare": "hospital", "name": "Mclaughlin Public Health Service Indian Health Center", "phone": "+1 605 823 4459", "website": "https://www.ihs.gov"}}, {"type": "node", "id": 10906756024, "lat": 43.9092188, "lon": -103.3775922, "tags": {"addr:city": "Rapid City", "addr:housenumber": "24100", "addr:postcode": "57702-7422", "addr:state": "SD", "addr:street": "S. Rockerville Rd.", "amenity": "hospital", "beds": "52", "healthcare": "hospital", "healthcare:speciality": "psychiatry", "name": "Black Hills Children's Home", "phone": "+1 605 343 5422", "website": "https://chssd.org/residential-treatment-and-education"}}, {"type": "node", "id": 10914361328, "lat": 42.8442255, "lon": -106.2423701, "tags": {"addr:city": "Casper", "addr:housenumber": "5715", "addr:postcode": "82609", "addr:state": "WY", "addr:street": "East 2nd Street", "amenity": "hospital", "beds": "41", "healthcare": "rehabilitation", "name": "Elkhorn Valley Rehabilitation Hospital", "phone": "+1-307-265-0005", "website": "https://evrh.ernesthealth.com"}}, {"type": "way", "id": 32945397, "center": {"lat": 42.8480342, "lon": -106.3092555}, "nodes": [370982742, 370982743, 370982745, 370982746, 370982747, 370982748, 370982742], "tags": {"addr:city": "Casper", "addr:housenumber": "1233", "addr:postcode": "82601", "addr:street": "East 2nd Street", "amenity": "hospital", "emergency": "yes", "healthcare": "hospital", "name": "Banner Wyoming Medical Center", "operator": "Banner Health", "phone": "+1 800 822 7201", "website": "https://wyomingmedicalcenter.org/", "wikidata": "Q8040358", "wikipedia": "en:Wyoming Medical Center"}}, {"type": "way", "id": 32945434, "center": {"lat": 42.8347694, "lon": -106.2943296}, "nodes": [370983423, 370983424, 370983425, 6511253859, 370983426, 370983428, 370983423], "tags": {"addr:city": "Casper", "addr:housenumber": "2521", "addr:postcode": "82609", "addr:state": "WY", "addr:street": "East 15th Street", "amenity": "hospital", "emergency": "no", "healthcare": "hospital", "name": "Wyoming Behavioral Institute", "phone": "+1 307 237 7444", "website": "https://www.wbihelp.com/"}}, {"type": "way", "id": 91840359, "center": {"lat": 49.2253436, "lon": -100.0608275}, "nodes": [1067254128, 1067205931, 1067223783, 1067208004, 1067227514, 1067239986, 1067249095, 1067198830, 1067211921, 1067231825, 1067242469, 1067233596, 1067244144, 1067253071, 1067254128], "tags": {"amenity": "hospital", "attribution": "2001 Her Majesty the Queen in Right of Manitoba, as represented by the Minister of Conservation. All rights reserved.", "building": "yes", "name": "Boissevain Health Centre", "source": "NRCan-CanVec-7.0"}}, {"type": "way", "id": 158958594, "center": {"lat": 49.1525977, "lon": -103.0116098}, "nodes": [1710697418, 1710697359, 1710697273, 1710697407, 1710697268, 1710697413, 1710697365, 1710697419, 1710697383, 1710697370, 1710697334, 1710697482, 1710697494, 1710697386, 1710697314, 1710697490, 1710697435, 1710697445, 1710697280, 1710697423, 1710697486, 1710697434, 1710697271, 1710697412, 1710697415, 1710697495, 1710697355, 1710697388, 1710697453, 1710697324, 1710697427, 1710697290, 1710697409, 1710697404, 1710697269, 1710697361, 1710697411, 1710697329, 1710697360, 1710697325, 1710697432, 1710697475, 1710697362, 1710697287, 1710697372, 1710697366, 1710697302, 1710697462, 1710697344, 1710697364, 1710697458, 1710697431, 1710697306, 1710697460, 1710697274, 1710697446, 1710697356, 1710697330, 1710697447, 1710697288, 1710697363, 1710697429, 1710697443, 1710697418], "tags": {"amenity": "hospital", "building": "hospital", "name": "St Joseph's Hospital", "source": "Bing"}}, {"type": "way", "id": 171481099, "center": {"lat": 48.2020852, "lon": -106.6407499}, "nodes": [1825035864, 1825035855, 1825035863, 1825035862, 1825035861, 1825035859, 1825035856, 1825035864], "tags": {"addr:housenumber": "1009", "addr:postcode": "59230", "addr:street": "6th Avenue North", "alt_name": "Eastern Montana Community Mental Health Center", "amenity": "hospital", "building": "yes", "emergency": "no", "healthcare": "hospital", "name": "Mental Health Center", "phone": "+1-406-228-9349", "start_date": "1959"}}, {"type": "way", "id": 183238911, "center": {"lat": 46.8074843, "lon": -100.7823221}, "nodes": [1936091291, 1936091289, 9332520501, 9332520507, 75088426, 3759125945, 9332520494, 75088431, 9332520500, 75088442, 75093448, 75021976, 9332533519, 9332533518, 1936091291], "tags": {"addr:city": "Bismarck", "addr:housenumber": "300", "addr:postcode": "58501", "addr:street": "North 7th Street", "amenity": "hospital", "emergency": "yes", "healthcare": "hospital", "name": "Sanford Medical Center", "old_name": "Medcenter One", "operator": "Sanford Health", "operator:wikidata": "Q7417625", "operator:wikipedia": "en:Sanford Health", "phone": "+1 701 323 6000", "website": "https://www.sanfordhealth.org/bismarck/"}}, {"type": "way", "id": 192285485, "center": {"lat": 44.7566706, "lon": -108.7709244}, "nodes": [2028443039, 2028443029, 2028443018, 2028442537, 2028442543, 2028442540, 2028442546, 2028442534, 2028442726, 2028442734, 2028442766, 2028442765, 2028442762, 2028442799, 2028442795, 2028442853, 2028442874, 2028442961, 2028442964, 2028442981, 2028442977, 2028443006, 2028443021, 2028443033, 2028443036, 8375396697, 8375396568, 8375396535, 2028443039], "tags": {"addr:city": "Powell", "addr:housenumber": "777", "addr:postcode": "82435", "addr:state": "WY", "addr:street": "Avenue H", "amenity": "hospital", "emergency": "yes", "gnis:feature_id": "1794900", "healthcare": "hospital", "name": "Powell Hospital", "phone": "+1 307 754 2267", "source": "bing", "website": "https://www.pvhc.org/"}}, {"type": "way", "id": 192406859, "center": {"lat": 47.3188397, "lon": -106.911255}, "nodes": [2029718251, 2029718249, 2029718261, 2029718259, 2029718247, 2029718245, 2029718229, 357964388, 2029718206, 2029718210, 2029718226, 2029718228, 2029718251], "tags": {"addr:city": "Jordan", "addr:housenumber": "332", "addr:postcode": "59337", "addr:state": "MT", "addr:street": "Leavitt Avenue", "amenity": "hospital", "building": "hospital", "emergency": "yes", "gnis:feature_id": "1715943", "healthcare": "hospital", "name": "Garfield County Health Center", "opening_hours": "24/7", "operator": "Garfield County", "operator:type": "government", "phone": "+1 406 557 2500", "website": "http://www.garfieldco.us/garfield-county-health-center.html"}}, {"type": "way", "id": 196202315, "center": {"lat": 49.6524345, "lon": -108.4038607}, "nodes": [2065539344, 2065539384, 2065539402, 2065539354, 2065539344], "tags": {"amenity": "hospital", "building": "yes", "source": "NRCan-CanVec-10.0"}}, {"type": "way", "id": 222216883, "center": {"lat": 41.8864526, "lon": -103.6634173}, "nodes": [4425679416, 4425679404, 4425679402, 4425679401, 4425679392, 4425679390, 4425679389, 4425678788, 4425678787, 4425678785, 4425678786, 4425679413, 4425679414, 4425679415, 4425679416], "tags": {"addr:city": "Scottsbluff", "addr:housenumber": "4021", "addr:postcode": "69361", "addr:street": "Avenue B", "amenity": "hospital", "beds": "188", "emergency": "yes", "healthcare": "hospital", "name": "Regional West Medical Center", "opening_hours": "24/7", "operator": "Regional West Health Services", "phone": "+1 308 635 3711", "website": "https://www.rwhs.org/"}}, {"type": "way", "id": 223272733, "center": {"lat": 49.8556655, "lon": -100.923884}, "nodes": [2321879212, 2323072699, 2321879214, 2321879207, 2321879198, 2323072674, 2321879206, 2321879202, 2321879212], "tags": {"addr:street": "440 KING ST E", "amenity": "hospital", "name": "Virden Hospital and Clinic"}}, {"type": "way", "id": 224226981, "center": {"lat": 41.3122272, "lon": -105.5558129}, "nodes": [2330492650, 2330492655, 10181139369, 2330492656, 10600277766, 2330492654, 2330492653, 2330492652, 2330492651, 2330490424, 2330490423, 2330492650], "tags": {"addr:city": "Laramie", "addr:housenumber": "255", "addr:postcode": "82072", "addr:street": "North 30th Street", "amenity": "hospital", "emergency": "yes", "healthcare": "hospital", "name": "Ivinson Memorial Hospital", "phone": "+1 307 742 2141", "website": "https://www.ivinsonhospital.org/"}}, {"type": "way", "id": 225757776, "center": {"lat": 41.1216559, "lon": -100.770169}, "nodes": [2345125509, 2345125525, 2345125517, 10766997173, 10766997174, 2345125523, 2345125509], "tags": {"addr:city": "North Platte", "addr:housenumber": "601", "addr:postcode": "69101", "addr:street": "West Leota Street", "amenity": "hospital", "emergency": "yes", "gnis:feature_id": "1838553", "healthcare": "hospital", "name": "Great Plains Health", "old_name": "Great Plains Regional Medical Center", "phone": "308-696-8000", "source": "Bing", "website": "https://www.gphealth.org/"}}, {"type": "way", "id": 230925665, "center": {"lat": 41.1404066, "lon": -104.8160309}, "nodes": [2571454560, 9938292136, 9938292008, 9938292009, 9938292010, 9938292013, 9938292022, 9938292023, 9938292024, 2393548005, 9945933705, 9945933710, 9938291961, 2393548007, 9938291957, 9938291958, 2393548008, 9938291929, 9938292133, 2393548010, 9938211638, 9938291930, 2393548011, 2393548012, 2571454560], "tags": {"addr:city": "Cheyenne", "addr:housename": "CRMC or Cheyenne Regional Medical Center;CRMC Emergency Entrance", "addr:housenumber": "214", "addr:postcode": "82001", "addr:street": "East 23rd Street", "amenity": "hospital", "emergency": "yes", "healthcare": "hospital", "name": "Cheyenne Regional Medical Center", "note": "CRMC has 12 locations in Cheyenne, and has built new buildings not currently shown here. It is the only hospital in the city. A new ER extends to Warren, and can be accessed on East 23rd Street by October 2013.", "phone": "+1-307-634-2273", "source": "local knowledge, visit opening, website", "website": "https://www.cheyenneregional.org/", "wheelchair": "yes", "wikidata": "Q5094598"}}, {"type": "way", "id": 232334393, "center": {"lat": 41.1651353, "lon": -104.8101214}, "nodes": [2406913865, 2640282081, 2640282078, 2406913866, 2406913867, 2406913868, 2406913869, 2640282132, 2640282133, 2640282127, 2406913871, 2640282126, 2640282130, 2640282109, 2640282108, 2406913872, 2640282107, 2640282106, 2640282105, 2406913874, 2640282071, 2640282075, 2640282074, 2640282062, 2640282066, 2640282049, 2640282043, 2640282052, 2640282053, 2640282068, 2406913875, 2406913876, 2406913877, 2406913878, 2640281982, 2640281979, 2406913879, 2406913880, 2640281980, 2640281976, 2640281981, 2640282014, 2406913881, 2406913882, 2640282037, 2640282040, 2406913865], "tags": {"addr:city": "Cheyenne", "addr:housename": "Cheyenne Medical Specialists PC clinic", "addr:housenumber": "5050", "addr:postcode": "82009", "addr:state": "WY", "addr:street": "Powderhouse Road", "amenity": "hospital", "building": "yes", "emergency": "no", "healthcare": "hospital", "name": "Cheyenne Medical Specialists", "note": "Mon-Fri 8-5, part of Colorado Health Medical Group", "phone": "+1-307-634-1311", "website": "http://www.cmsmed.com"}}, {"type": "way", "id": 236036193, "center": {"lat": 41.1480508, "lon": -104.7860762}, "nodes": [2441121118, 2441121122, 2441121125, 2441121129, 2441121133, 2441121136, 2441121139, 2441121142, 2441121149, 2441121150, 2441121151, 2441121152, 2441121153, 2441121154, 2441121155, 2441121156, 2441121158, 2441121159, 2441121161, 2441121163, 2441121165, 2441121118], "tags": {"addr:city": "Cheyenne", "addr:housenumber": "2360", "addr:postcode": "82001", "addr:street": "East Pershing Boulevard", "amenity": "hospital", "emergency": "no", "healthcare": "hospital", "name": "Cheyenne Veterans Affairs Medical Center", "note": "888 483 9127 for VA wvc.wyo.gov/ veterans assistance wvc.wyo.gov/", "phone": "+1 307 778 7550", "source": "local_knowledge, bing lines, 3 websites, VA", "website": "https://www.cheyenne.va.gov/", "wheelchair": "yes"}}, {"type": "way", "id": 258695562, "center": {"lat": 41.1480491, "lon": -104.7856833}, "nodes": [2640197391, 2640197409, 2640197387, 2640197368, 2640197312, 10815455887, 10815455886, 10815455885, 10815455884, 10815455883, 10815455882, 10815455881, 10815455880, 10815455879, 10815455878, 10815455877, 10815455876, 10815455875, 10815455874, 10815455873, 10815455872, 10815455871, 10815455870, 10815455869, 10815455868, 10815455867, 10815455866, 2640197295, 2640197322, 2640197308, 2640197339, 2640197341, 2640197352, 2640197353, 2640197281, 2640197283, 2640197252, 2640197251, 2640197172, 2640197173, 2640197112, 2640197102, 2640197103, 2640197185, 2640197184, 2640197193, 2640197192, 2640197229, 2640197230, 2640197254, 2640197253, 2640197285, 2640197288, 2640197334, 2640197332, 2640197354, 2640197355, 2640197362, 2640197363, 2640197223, 2640197224, 2640197205, 2640197204, 2640197219, 2640197235, 2640197240, 2640197241, 2640197361, 2640197359, 2640197370, 2640197371, 2640197381, 2640197380, 2640197423, 2640197422, 2640197473, 2640197472, 2640197522, 2640197521, 2640197518, 2640197497, 2640197496, 2640197446, 2640197447, 2640197431, 2640197432, 2640197389, 2640197388, 2640197397, 2640197395, 2640197403, 2640197404, 2640197493, 2640197490, 2640197394, 2640197393, 2640197477, 2640197476, 2640197483, 2640197482, 2640197475, 2640197474, 2640197469, 2640197468, 2640197454, 2640197455, 2640197416, 2640197415, 2640197392, 2640197391], "tags": {"addr:city": "Cheyenne", "addr:housenumber": "2360", "addr:postcode": "82001", "addr:state": "WY", "addr:street": "East Pershing Blvd", "amenity": "hospital", "brand": "VA", "brand:wikidata": "Q6580225", "brand:wikipedia": "en:Veterans Health Administration", "building": "hospital", "healthcare": "hospital", "healthcare:for": "veterans", "name": "Cheyenne VA Medical Center", "operator": "Veterans Health Administration", "operator:short": "VA", "operator:wikidata": "Q6580225", "operator:wikipedia": "en:Veterans Health Administration", "short_name": "VA"}}, {"type": "way", "id": 295116947, "center": {"lat": 44.0586445, "lon": -103.2289247}, "nodes": [2987877949, 2987877950, 2987877951, 2987877952, 2987877953, 2987877954, 2987877955, 2987877956, 2987877957, 2987877958, 2987877959, 2987877960, 2987877961, 2987877962, 2987877963, 2987877964, 2987877965, 2987877966, 2987877967, 2987877968, 2987877949], "tags": {"addr:city": "Rapid City", "addr:housenumber": "651", "addr:postcode": "57701", "addr:street": "Cathedral Drive", "amenity": "hospital", "beds": "6", "building": "hospital", "emergency": "no", "healthcare": "hospital", "healthcare:speciality": "surgery", "name": "Same Day Surgery Center", "phone": "+1 605 755 9900", "website": "http://www.samedaysurgerycenter.org/"}}, {"type": "way", "id": 308299381, "center": {"lat": 44.828276, "lon": -106.9837605}, "nodes": [3135930451, 3135930322, 3135930250, 3135930251, 3135930252, 3135930255, 3135930264, 3135930262, 3135930263, 3135930265, 3135930282, 3135930287, 3135930292, 3135930303, 3135930299, 3135930296, 3135930450, 3135930451], "tags": {"addr:city": "Sheridan", "addr:housenumber": "1898", "addr:postcode": "82801", "addr:street": "Fort Road", "amenity": "hospital", "emergency": "no", "name": "Sheridan VA Medical Center", "operator": "United States Department of Veterans Affairs", "phone": "+1 307 672 3473", "website": "https://www.sheridan.va.gov/", "wikidata": "Q28153614"}}, {"type": "way", "id": 310806073, "center": {"lat": 49.4846056, "lon": -100.5269949}, "nodes": [3162927238, 3162992239, 2688738684, 3162916720, 2688738691, 2688738682, 2688738668, 2688738930, 2688738680, 3162953672, 3162927238], "tags": {"addr:city": "Hartney", "addr:housenumber": "617", "addr:street": "River Avenue", "amenity": "hospital", "name": "Hartney Health Centre", "operator": "Assiniboine Regional Health Authority"}}, {"type": "way", "id": 312794882, "center": {"lat": 43.4366538, "lon": -103.4766235}, "nodes": [357094107, 3186839348, 3186839374, 3186839287, 3186839367, 4420642347, 4420642346, 4420642345, 4420642343, 4420642339, 4420642338, 4420642337, 3186839323, 3186839302, 3186839291, 4420642329, 4420642326, 3186839321, 3186839361, 3186839307, 3186828246, 3186839276, 3186839347, 3186839283, 3186839368, 3186839335, 3186828251, 3186839373, 3186839281, 357094107], "tags": {"addr:city": "Hot Springs", "addr:housenumber": "500", "addr:postcode": "57747", "addr:street": "North 5th Street", "amenity": "hospital", "emergency": "no", "healthcare": "hospital", "name": "VA Black Hills Health Care System", "phone": "+1 605 745 2000", "website": "https://www.blackhills.va.gov/"}}, {"type": "way", "id": 320611889, "center": {"lat": 40.4142938, "lon": -104.7089357}, "nodes": [3272099488, 3272099489, 358915924, 3272099490, 3272099491, 4643318137, 11050348546, 4643318138, 4643318139, 4643318140, 3272099488], "tags": {"addr:city": "Greeley", "addr:housenumber": "1801", "addr:postcode": "80631", "addr:street": "16th Street", "amenity": "hospital", "emergency": "yes", "gnis:feature_id": "180631", "healthcare": "hospital", "name": "North Colorado Medical Center", "old_name": "Weld County Public Hospital", "opening_hours": "24/7", "phone": "+1 970 810 4121", "website": "https://www.bannerhealth.com/locations/greeley/north-colorado-medical-center", "wikidata": "Q30259619"}}, {"type": "way", "id": 332145225, "center": {"lat": 44.5268524, "lon": -109.0735979}, "nodes": [4419821466, 3392633945, 3392633946, 3392633947, 3392633948, 3392633949, 4419821460, 4419821462, 4419821461, 4419821459, 4419821458, 4419821457, 4419821455, 4419821454, 4419821456, 4419821466], "tags": {"addr:city": "Cody", "addr:housenumber": "707", "addr:postcode": "82414", "addr:street": "Sheridan Avenue", "amenity": "hospital", "emergency": "yes", "healthcare": "hospital", "name": "West Park Hospital", "phone": "+1 307 527 7501", "website": "http://www.westparkhospital.org/"}}, {"type": "way", "id": 335691619, "center": {"lat": 40.5244411, "lon": -101.6504648}, "nodes": [3428019725, 3428019726, 3428019727, 3428019728, 3428019729, 3428019730, 3428019725], "tags": {"addr:city": "Imperial", "addr:housenumber": "600", "addr:postcode": "69033", "addr:street": "West 12th Street", "amenity": "hospital", "emergency": "yes", "gnis:feature_id": "1838848", "healthcare": "hospital", "name": "Chase County Community Hospital", "phone": "+1 308 882 7111", "website": "https://www.chasecountyhospital.com/"}}, {"type": "way", "id": 359904031, "center": {"lat": 40.2602608, "lon": -103.7954881}, "nodes": [3645310572, 3645310573, 3645310574, 3645310575, 3645310572], "tags": {"addr:city": "Fort Morgan", "addr:housenumber": "1000", "addr:postcode": "80701", "addr:street": "Lincoln Street", "amenity": "hospital", "beds": "50", "emergency": "yes", "healthcare": "hospital", "name": "Colorado Plains Medical Center", "opening_hours": "24/7", "phone": "+1 970 867 3391", "website": "https://www.coloradoplainsmedicalcenter.com/"}}, {"type": "way", "id": 376119942, "center": {"lat": 49.514899, "lon": -108.8249218}, "nodes": [3795237562, 3795237563, 3795237559, 3795237561, 3795237560, 3795237056, 3795237051, 3795237046, 3795237050, 3795237049, 3795237047, 3795237048, 3795237052, 3795237054, 3795237055, 3795237558, 3795237557, 3795237562], "tags": {"amenity": "hospital", "building": "hospital", "source": "NRCan-CanVec-10.0"}}, {"type": "way", "id": 384890796, "center": {"lat": 40.0163519, "lon": -105.2368921}, "nodes": [3882466292, 4937647520, 3882466293, 3882466294, 7353142132, 3882466295, 3882466296, 3882466297, 3882466298, 3882466299, 3882466292], "tags": {"amenity": "hospital", "emergency": "yes", "gnis:feature_id": "2036554", "healthcare": "hospital", "name": "Foothills Hospital", "opening_hours": "24/7", "operator": "Boulder Community Health", "phone": "+1 303 415 7000", "website": "https://www.bch.org/Locations/Foothills-Hospital.aspx"}}, {"type": "way", "id": 403754644, "center": {"lat": 40.2052658, "lon": -100.6080202}, "nodes": [4060751010, 357779965, 4060751029, 4060751011, 4060751001, 4060751010], "tags": {"addr:city": "McCook", "addr:housenumber": "1301", "addr:postcode": "69001", "addr:street": "East H Street", "amenity": "hospital", "emergency": "yes", "gnis:feature_id": "1841197", "healthcare": "hospital", "name": "Community Hospital - McCook", "phone": "+1 308 344 2650", "source": "Mapbox", "website": "https://chmccook.org/"}}, {"type": "way", "id": 406694232, "center": {"lat": 42.7587771, "lon": -105.3805845}, "nodes": [4087375150, 4087375172, 4087375139, 4087375176, 356511386, 4087375175, 4087375150], "tags": {"addr:city": "Douglas", "addr:housenumber": "111", "addr:postcode": "82633", "addr:street": "South 5th Street", "amenity": "hospital", "emergency": "yes", "gnis:feature_id": "1794882", "name": "Memorial Hospital of Converse County", "phone": "+1 307 358 2122", "source": "www.conversehospital.com", "website": "https://www.conversehospital.com/"}}, {"type": "way", "id": 432043137, "center": {"lat": 47.7162236, "lon": -104.1729088}, "nodes": [4312137419, 4312215191, 4312215190, 4312137420, 4312137421, 4312215203, 4312137422, 4312137423, 4312137424, 4312137425, 4312137426, 4312137427, 357962947, 4312137419], "tags": {"addr:city": "Sidney", "addr:housenumber": "216", "addr:postcode": "59270", "addr:state": "MT", "addr:street": "14th Avenue Southwest", "amenity": "hospital", "emergency": "yes", "healthcare": "hospital", "name": "Sidney Health Center", "opening_hours": "24/7", "operator": "Sidney Health Center", "phone": "+1 406 488 2100", "website": "https://www.sidneyhealth.org/", "wheelchair": "yes"}}, {"type": "way", "id": 432074104, "center": {"lat": 40.6124341, "lon": -103.2206412}, "nodes": [4312418418, 3780511309, 4312418392, 4312418391, 11055989177, 4312418418], "tags": {"addr:city": "Sterling", "addr:housenumber": "615", "addr:postcode": "80751", "addr:street": "Fairhurst Street", "amenity": "hospital", "beds": "25", "emergency": "yes", "healthcare": "hospital", "name": "Sterling Regional MedCenter", "opening_hours": "24/7", "operator": "Banner Health", "operator:wikidata": "Q4856918", "phone": "+1 970 522 0122", "website": "https://www.bannerhealth.com/locations/sterling/sterling-regional-medcenter"}}, {"type": "way", "id": 432770305, "center": {"lat": 49.1789854, "lon": -101.4512017}, "nodes": [4317265929, 4317265953, 4317265954, 4317265955, 4317265927, 4317265928, 4317265929], "tags": {"addr:city": "Gainsborough", "addr:housenumber": "312", "addr:street": "Reynolds Avenue", "amenity": "hospital", "name": "Gainsborough Health Care"}}, {"type": "way", "id": 438652727, "center": {"lat": 49.6145975, "lon": -100.2490749}, "nodes": [4363621339, 4363621338, 4363621340, 1924519258, 1924519168, 4363621339], "tags": {"amenity": "hospital", "healthcare": "hospital"}}, {"type": "way", "id": 438872791, "center": {"lat": 48.1153669, "lon": -105.1924801}, "nodes": [4365210260, 4365210261, 4365210262, 4365210263, 4365210264, 4365210265, 4365193503, 4365210266, 4365210260], "tags": {"addr:city": "Poplar", "addr:housenumber": "211", "addr:postcode": "59255", "addr:state": "MT", "addr:street": "H Street", "amenity": "hospital", "beds": "22", "emergency": "yes", "healthcare": "hospital", "name": "Poplar Community Hospital", "opening_hours": "24/7", "operator": "Northeast Montana Health Services", "phone": "+1 406 768 6100", "website": "https://www.nemhs.net/"}}, {"type": "way", "id": 444344471, "center": {"lat": 41.142954, "lon": -104.7840801}, "nodes": [4418311279, 4418311278, 4418311280, 4418311281, 4418311282, 4418311283, 356510927, 4418311284, 4418311288, 4418311389, 4418311287, 4418311285, 4418311286, 4418311279], "tags": {"addr:city": "Cheyenne", "addr:housenumber": "2600", "addr:postcode": "82001", "addr:street": "East 18th Street", "amenity": "hospital", "emergency": "no", "gnis:feature_id": "1608528", "healthcare": "hospital", "name": "Cheyenne Regional Medical Center East", "phone": "+1 307 634 2273", "website": "http://cheyenneregional.org/sites/cheyenne-regional-medical-center-east-campus/"}}, {"type": "way", "id": 444348959, "center": {"lat": 42.0827691, "lon": -104.1926806}, "nodes": [3528515069, 4418372424, 4418372423, 4418372425, 4418372426, 4418372429, 4418372431, 356511400, 3528515069], "tags": {"addr:city": "Torrington", "addr:housenumber": "2000", "addr:postcode": "82240", "addr:state": "WY", "addr:street": "Campbell Drive", "amenity": "hospital", "beds": "25", "emergency": "yes", "gnis:feature_id": "1794896", "healthcare": "hospital", "name": "Community Hospital", "opening_hours": "24/7", "operator": "Banner Health", "phone": "+1 307 532 4181", "website": "https://www.bannerhealth.com/locations/torrington/community-hospital"}}, {"type": "way", "id": 444351800, "center": {"lat": 42.0498094, "lon": -104.9608883}, "nodes": [4418396806, 4418396807, 356511401, 4418396823, 4418396806], "tags": {"addr:city": "Wheatland", "addr:housenumber": "201", "addr:postcode": "82201", "addr:street": "14th Street", "amenity": "hospital", "emergency": "yes", "gnis:feature_id": "1794897", "healthcare": "hospital", "name": "Platte County Memorial Hospital", "phone": "+1 307 322 3636", "website": "https://www.bannerhealth.com/locations/wheatland/platte-county-memorial-hospital"}}, {"type": "way", "id": 444356581, "center": {"lat": 42.7531831, "lon": -104.4453533}, "nodes": [4418441664, 4418441662, 4418441659, 4418441658, 4418441654, 4418441655, 4418441656, 4418441661, 4418441663, 4418441666, 4418441668, 4418441669, 4418441672, 4418441680, 4418441681, 356511393, 4418441685, 4418441688, 4418441687, 4418441679, 4418441676, 4418441671, 4418441667, 4418441665, 4418441664], "tags": {"addr:city": "Lusk", "addr:housenumber": "921", "addr:postcode": "82225", "addr:street": "South Ballancee", "amenity": "hospital", "emergency": "yes", "gnis:feature_id": "1794889", "healthcare": "hospital", "name": "Niobrara County Memorial Hospital", "phone": "+1 307 334 4000", "website": "https://niobrarahospital.com/"}}, {"type": "way", "id": 444358862, "center": {"lat": 41.7869412, "lon": -107.2616852}, "nodes": [4418458882, 4418458884, 2039071478, 2039071518, 4418458886, 4418458885, 4418458883, 4418458882], "tags": {"addr:city": "Rawlins", "addr:housenumber": "2221", "addr:postcode": "82301", "addr:state": "WY", "addr:street": "West Elm Street", "amenity": "hospital", "emergency": "yes", "gnis:feature_id": "1794891", "healthcare": "hospital", "name": "Memorial Hospital of Carbon County", "phone": "+1 307 324 2221", "website": "https://www.imhcc.com/"}}, {"type": "way", "id": 444420245, "center": {"lat": 42.8205721, "lon": -108.7267577}, "nodes": [4418988854, 4418988852, 4418988853, 4418988856, 4418988873, 4418988875, 4418988880, 4418988881, 4418988878, 4418988872, 4418988863, 4418988860, 4418988857, 4418988855, 4418988854], "tags": {"addr:city": "Lander", "addr:housenumber": "1320", "addr:postcode": "82520", "addr:street": "Bishop Randall Drive", "amenity": "hospital", "emergency": "yes", "healthcare": "hospital", "name": "SageWest Health Care \u2013 Lander", "phone": "+1 307 332 4420", "website": "https://www.sagewesthealthcare.com/"}}, {"type": "way", "id": 444442880, "center": {"lat": 44.3507912, "lon": -106.7072545}, "nodes": [4419208557, 4419208561, 4419208560, 4419208562, 356511384, 2055547101, 4037845826, 4037845825, 2055547100, 2055547091, 4037845822, 4037845821, 2055547089, 4419208559, 4419208558, 4419208557], "tags": {"addr:city": "Buffalo", "addr:housenumber": "497", "addr:postcode": "82834", "addr:street": "West Lott Street", "amenity": "hospital", "emergency": "yes", "gnis:feature_id": "1794880", "healthcare": "hospital", "name": "Johnson County Memorial Hospital", "phone": "+1 307 684 5521", "website": "https://www.jchealthcare.com/"}}, {"type": "way", "id": 444450842, "center": {"lat": 43.848028, "lon": -104.1887502}, "nodes": [4419295033, 356511394, 4419295055, 4419295051, 4419295048, 4419295046, 4419295044, 4419295042, 4419295041, 4419295034, 4419295031, 4419295030, 4419295033], "tags": {"addr:city": "Newcastle", "addr:housenumber": "1124", "addr:postcode": "82701", "addr:street": "Washington Boulevard", "amenity": "hospital", "emergency": "yes", "healthcare": "hospital", "name": "Weston County Health Services", "phone": "+1 307 746 4491", "website": "https://wchs-wy.org/"}}, {"type": "way", "id": 444454661, "center": {"lat": 44.4089452, "lon": -104.3741751}, "nodes": [4419336463, 4419336473, 4419336475, 4419336474, 356511398, 4419336471, 4419336470, 4419336467, 4419336464, 4419336463], "tags": {"addr:city": "Sundance", "addr:housenumber": "713", "addr:postcode": "82729", "addr:street": "East Oak Street", "amenity": "hospital", "beds": "16", "emergency": "yes", "gnis:feature_id": "1794894", "healthcare": "hospital", "name": "Crook County Medical Services District", "opening_hours": "24/7", "operator": "Crook County Medical Services District", "phone": "+1 307 283 3501", "website": "https://www.ccmsd.org/"}}, {"type": "way", "id": 444474706, "center": {"lat": 43.6479587, "lon": -108.1997576}, "nodes": [3688753445, 4419550792, 356511399, 4419550793, 3688753438, 3688753436, 3688753445], "tags": {"addr:city": "Thermopolis", "addr:housenumber": "150", "addr:postcode": "82443", "addr:street": "East Arapahoe Street", "amenity": "hospital", "emergency": "yes", "gnis:feature_id": "1794895", "healthcare": "hospital", "name": "Hot Springs County Memorial Hospital", "phone": "+1 307 864 3121", "website": "http://www.hscmh.org/"}}, {"type": "way", "id": 444493771, "center": {"lat": 44.8086501, "lon": -106.9761052}, "nodes": [4419742103, 4419742109, 4419742116, 4419742117, 4419742118, 4419742119, 4419742122, 4419742123, 4419742121, 4419742124, 4419742120, 4419742110, 4419742111, 4419742101, 2631934316, 2631934317, 4419742104, 4419742106, 4419742107, 4419742103], "tags": {"addr:city": "Sheridan", "addr:housenumber": "1401", "addr:postcode": "82801", "addr:street": "West 5th Street", "amenity": "hospital", "emergency": "yes", "healthcare": "hospital", "name": "Sheridan Memorial Hospital", "phone": "+1 307 672 1000", "website": "https://www.sheridanhospital.org/", "wikidata": "Q50037220"}}, {"type": "way", "id": 444501233, "center": {"lat": 43.0348647, "lon": -108.4188661}, "nodes": [4419799012, 4419799014, 1042153561, 4419799062, 4419799063, 4419799064, 4419799071, 4419799070, 4419799065, 4419799066, 4419799013, 4419799011, 4419799010, 4419799008, 4419799009, 4419799012], "tags": {"addr:city": "Riverton", "addr:country": "US", "addr:housenumber": "2100", "addr:postcode": "82501", "addr:state": "WY", "addr:street": "West Sunset Drive", "amenity": "hospital", "beds": "159", "emergency": "yes", "gnis:feature_id": "1794892", "healthcare": "hospital", "name": "SageWest Health Care", "old_name": "Riverton Memorial Hospital", "opening_hours": "24/7", "operator": "SageWest Health Care", "phone": "+1 307 856 4161", "website": "https://www.sagewesthealthcare.com/"}}, {"type": "way", "id": 444504119, "center": {"lat": 44.012643, "lon": -107.9496375}, "nodes": [4419816728, 8787960655, 8787960654, 8787960653, 8787960652, 4419816756, 356505270, 8787960657, 8787960656, 4419816727, 4419816728], "tags": {"addr:city": "Worland", "addr:housenumber": "400", "addr:postcode": "82401", "addr:street": "South 15th Street", "amenity": "hospital", "emergency": "yes", "gnis:feature_id": "1596054", "healthcare": "hospital", "healthcare:speciality": "community", "name": "Washakie Medical Center", "old_name": "Washakie Memorial Hospital", "operator": "Banner Health", "operator:type": "private_non_profit", "operator:wikidata": "Q4856918", "phone": "+1 307 347 3221", "website": "https://www.bannerhealth.com/locations/worland/washakie-medical-center#"}}, {"type": "way", "id": 444576841, "center": {"lat": 44.8265661, "lon": -108.3901158}, "nodes": [4420412819, 4420412820, 4420412821, 4420412832, 4420412836, 4420412839, 4420412837, 4420412840, 356511392, 4420412835, 4420412834, 4420412833, 4420412831, 4420412830, 4420412829, 4420412826, 4420412823, 4420412822, 4420412819], "tags": {"addr:city": "Lovell", "addr:housenumber": "1115", "addr:postcode": "82431", "addr:street": "Lane 12", "amenity": "hospital", "emergency": "yes", "gnis:feature_id": "1794888", "healthcare": "hospital", "name": "North Big Horn Hospital", "phone": "+1 307 548 5200", "website": "https://www.nbhh.com/"}}, {"type": "way", "id": 444592866, "center": {"lat": 44.4339461, "lon": -108.0507627}, "nodes": [4420580721, 4420580722, 356504265, 4420580707, 4420580721], "tags": {"addr:city": "Basin", "addr:housenumber": "388", "addr:postcode": "82410", "addr:street": "US 20 South", "amenity": "hospital", "emergency": "yes", "gnis:feature_id": "1594594", "healthcare": "hospital", "name": "South Big Horn County Hospital", "phone": "+1 307 568 3311", "website": "https://midwayclinic.sharepoint.com/"}}, {"type": "way", "id": 444596578, "center": {"lat": 43.1696585, "lon": -101.7308417}, "nodes": [2049305689, 4420615806, 4420615807, 4420615808, 2049305689], "tags": {"addr:city": "Martin", "addr:housenumber": "102", "addr:postcode": "57551", "addr:street": "Major Allen Street", "amenity": "hospital", "emergency": "yes", "healthcare": "hospital", "name": "Bennett County Hospital", "phone": "+1 605 685 6622", "website": "http://www.bennettcountyhospital.com/"}}, {"type": "way", "id": 444667196, "center": {"lat": 48.1560566, "lon": -103.6460125}, "nodes": [4421298326, 2406383491, 4421298331, 4421298334, 4421298335, 4421298336, 4421298337, 4421298338, 4421298340, 4421298342, 4421298343, 4421298341, 4421298339, 4421298333, 4421298332, 4421298330, 4421298329, 4421298327, 4421298328, 4421298325, 4421298326], "tags": {"addr:city": "Williston", "addr:housenumber": "1301", "addr:postcode": "58801", "addr:street": "15th Avenue West", "amenity": "hospital", "emergency": "yes", "healthcare": "hospital", "name": "CHI St. Alexius Health - Williston Medical Center", "old_name": "Mercy Medical Center", "phone": "+1 701 774 7400", "website": "http://www.mercy-williston.org/"}}, {"type": "way", "id": 444668119, "center": {"lat": 46.8888998, "lon": -102.8208712}, "nodes": [4421311610, 4421311615, 4421311632, 4421311634, 4421311633, 4421311631, 4421311630, 4421311629, 4421311628, 4421311627, 4421311626, 4421311625, 4421311624, 4421311623, 4421311622, 4421311618, 4421311616, 4421311614, 4421311612, 4421311611, 4421311610], "tags": {"addr:city": "Dickinson", "addr:housenumber": "2500", "addr:postcode": "58601", "addr:street": "Fairway Street", "amenity": "hospital", "emergency": "yes", "healthcare": "hospital", "name": "CHI St. Alexius Health Dickinson", "old_name": "CHI St. Joseph\u2019s Health", "operator": "Catholic Health Initiatives", "operator:short": "CHI", "operator:wikidata": "Q5053168", "phone": "+1 701 456 4000", "website": "https://chistjosephshealth.org/"}}, {"type": "way", "id": 444670951, "center": {"lat": 48.2317653, "lon": -101.287197}, "nodes": [4421370841, 4421370842, 357759243, 4421370852, 4421370862, 6944078384, 4421370861, 4421370850, 4421370851, 4421370843, 4421370844, 4421370841], "tags": {"addr:city": "Minot", "addr:housenumber": "407", "addr:postcode": "58702", "addr:street": "3rd Street Southeast", "amenity": "hospital", "emergency": "no", "gnis:feature_id": "1031193", "healthcare": "hospital", "name": "Trinity Hospital - St. Joseph's", "old_name": "Saint Josephs Hospital", "phone": "+1 701 857 5000"}}, {"type": "way", "id": 444670952, "center": {"lat": 48.232514, "lon": -101.2944897}, "nodes": [4421370865, 4421370854, 4421370853, 4421370863, 357762585, 4421370864, 4421370865], "tags": {"addr:city": "Minot", "addr:housenumber": "1", "addr:postcode": "58702", "addr:street": "Burdick Expressway West", "amenity": "hospital", "emergency": "yes", "gnis:feature_id": "1032538", "healthcare": "hospital", "name": "Trinity Hospital", "phone": "+1 701 857 5000", "website": "https://www.trinityhealth.org/"}}, {"type": "way", "id": 444688384, "center": {"lat": 46.8079596, "lon": -100.7762904}, "nodes": [4421563825, 4421563835, 4421563834, 357758820, 4421563832, 4421563827, 4421563826, 4421563824, 4421563825], "tags": {"addr:city": "Bismarck", "addr:housenumber": "900", "addr:postcode": "58501", "addr:street": "East Broadway Avenue", "amenity": "hospital", "emergency": "yes", "gnis:feature_id": "1031076", "healthcare": "hospital", "name": "CHI St. Alexius Health", "old_name": "Saint Alexius Medical Center", "operator": "Catholic Health Initiatives", "operator:short": "CHI", "operator:wikidata": "Q5053168", "operator:wikipedia": "en:Catholic Health Initiatives", "phone": "+1 701 530 7000", "website": "https://www.st.alexius.org/", "wikidata": "Q7586777", "wikipedia": "en:CHI St. Alexius Health Bismarck"}}, {"type": "way", "id": 445093488, "center": {"lat": 41.1508511, "lon": -101.7186134}, "nodes": [4425456921, 4425456922, 4425456920, 4425456919, 4425456910, 357778833, 4425456874, 4425456921], "tags": {"addr:city": "Ogallala", "addr:housenumber": "2601", "addr:postcode": "69153", "addr:street": "North Spruce Street", "amenity": "hospital", "emergency": "yes", "healthcare": "hospital", "name": "Ogallala Community Hospital", "phone": "+1 308 284 4011", "website": "https://www.bannerhealth.com/locations/ogallala/ogallala-community-hospital"}}, {"type": "way", "id": 445127653, "center": {"lat": 42.8230333, "lon": -103.0142951}, "nodes": [4425976566, 4425976563, 4425976557, 2393530746, 4425976559, 4425976560, 4425976564, 4425976565, 4425976569, 4425976568, 4425976567, 4425976566], "tags": {"addr:city": "Chadron", "addr:housenumber": "825", "addr:postcode": "69337", "addr:street": "Centennial Drive", "amenity": "hospital", "emergency": "yes", "name": "Chadron Community Hospital", "phone": "+1 308 432 5586", "website": "https://www.chadronhospital.com/"}}, {"type": "way", "id": 445128686, "center": {"lat": 42.1167617, "lon": -102.8699192}, "nodes": [4425989907, 4425989908, 4425989914, 4425989913, 357777229, 4425989912, 4425989907], "tags": {"addr:city": "Alliance", "addr:housenumber": "2101", "addr:postcode": "69301", "addr:street": "Box Butte Avenue", "amenity": "hospital", "emergency": "yes", "gnis:feature_id": "1827791", "healthcare": "hospital", "name": "Box Butte General Hospital", "phone": "+1 308 762 6660", "website": "https://www.bbgh.org/"}}, {"type": "way", "id": 445180836, "center": {"lat": 42.8123356, "lon": -102.1997284}, "nodes": [4426506279, 357778557, 4426506276, 4426506278, 4426506279], "tags": {"addr:city": "Gordon", "addr:housenumber": "300", "addr:postcode": "69343", "addr:street": "East 8th Street", "amenity": "hospital", "beds": "25", "emergency": "yes", "gnis:feature_id": "1832204", "healthcare": "hospital", "name": "Gordon Memorial Hospital", "opening_hours": "24/7", "phone": "+1 308 282 0401", "website": "https://www.gordonmemorial.org/"}}, {"type": "way", "id": 445220465, "center": {"lat": 42.8792349, "lon": -100.5379248}, "nodes": [4426757585, 357778346, 4426757578, 4426757579, 4426757569, 4426757568, 4426757585], "tags": {"addr:city": "Valentine", "addr:housenumber": "510", "addr:postcode": "69201", "addr:street": "North Green Street", "amenity": "hospital", "emergency": "yes", "gnis:feature_id": "1832032", "healthcare": "hospital", "name": "Cherry County Hospital", "phone": "+1 402 376 2525", "website": "https://www.cherrycountyhospital.org/"}}, {"type": "way", "id": 445313515, "center": {"lat": 41.6617696, "lon": -103.0920756}, "nodes": [4427633552, 7603249237, 4427633553, 357777939, 9978133533, 4427633551, 9978133531, 4427633552], "tags": {"addr:city": "Bridgeport", "addr:housenumber": "1313", "addr:postcode": "69336", "addr:street": "S Street", "amenity": "hospital", "emergency": "yes", "gnis:feature_id": "1829976", "name": "Morrill County Community Hospital", "phone": "+1 308 262 1616", "website": "https://www.morrillcountyhospital.com/"}}, {"type": "way", "id": 445318535, "center": {"lat": 41.2325393, "lon": -103.6665247}, "nodes": [4427688271, 4427688272, 4427688277, 357778187, 4427688281, 4427688280, 4427688271], "tags": {"addr:city": "Kimball", "addr:housenumber": "505", "addr:postcode": "69145", "addr:street": "South Burg Street", "amenity": "hospital", "emergency": "yes", "gnis:feature_id": "1830194", "healthcare": "hospital", "name": "Kimball Health Services", "old_name": "Kimball County Hospital", "phone": "308-235-1951", "website": "https://www.kimballhealth.org/"}}, {"type": "way", "id": 445334041, "center": {"lat": 41.1358446, "lon": -102.9523858}, "nodes": [4427817522, 4427817525, 4427817526, 4427817524, 4309439345, 4427817523, 4427817522], "tags": {"addr:city": "Sidney", "addr:housenumber": "1000", "addr:postcode": "69162", "addr:state": "NE", "addr:street": "Pole Creek Crossing", "amenity": "hospital", "emergency": "yes", "healthcare": "hospital", "name": "Sidney Regional Medical Center", "phone": "+1 308 254 5825", "website": "https://www.sidneyrmc.com/"}}, {"type": "way", "id": 445351658, "center": {"lat": 40.9940109, "lon": -102.2686398}, "nodes": [4427967018, 4427967021, 4427967031, 4427967026, 4427967018], "tags": {"addr:city": "Julesburg", "addr:housenumber": "900", "addr:postcode": "80737", "addr:street": "Cedar Street", "amenity": "hospital", "beds": "15", "emergency": "yes", "healthcare": "hospital", "name": "Sedgwick County Memorial Hospital", "opening_hours": "24/7", "operator": "Sedgwick County Health Center", "phone": "+1 970 474 3323", "website": "https://www.schealth.org/"}}, {"type": "way", "id": 445353180, "center": {"lat": 41.4125461, "lon": -102.3485622}, "nodes": [4427983369, 4427983370, 4427983364, 357778678, 4427983369], "tags": {"addr:city": "Oshkosh", "addr:housenumber": "1100", "addr:postcode": "69154", "addr:street": "West 2nd Street", "amenity": "hospital", "emergency": "yes", "gnis:feature_id": "1832285", "healthcare": "hospital", "name": "Regional West Garden County", "old_name": "Garden County Hospital", "phone": "+1 308 772 3283", "website": "http://gchealth.org/"}}, {"type": "way", "id": 445394219, "center": {"lat": 40.280305, "lon": -100.1798764}, "nodes": [4428297281, 4428297284, 4428297496, 4428297515, 4428297516, 4428297518, 4428297517, 4428297493, 4428297489, 4428297288, 4428297492, 4428297491, 4428297287, 4428297286, 4428297285, 4428297283, 4428297282, 4428297281], "tags": {"addr:city": "Cambridge", "addr:housenumber": "1305", "addr:postcode": "69022", "addr:street": "Highway 6/34", "amenity": "hospital", "beds": "20", "emergency": "yes", "healthcare": "hospital", "name": "Cambridge Memorial Hospital", "opening_hours": "24/7", "operator": "Tri Valley Health System", "phone": "+1 308 697 3329", "website": "http://trivalleyhealth.com/"}}, {"type": "way", "id": 448549341, "center": {"lat": 40.5225982, "lon": -105.0311823}, "nodes": [4455539801, 4455539800, 4455539798, 9379735545, 9379735547, 9379735546, 9379735552, 9379735551, 4455539799, 9379735550, 9379735549, 9379735548, 4455539801], "tags": {"addr:city": "Fort Collins", "addr:housenumber": "4630", "addr:postcode": "80528", "addr:state": "CO", "addr:street": "Snow Mesa Drive", "amenity": "hospital", "building": "hospital", "emergency": "yes", "healthcare": "hospital", "healthcare:speciality": "emergency", "name": "UC Health Emergency Room"}}, {"type": "way", "id": 459278340, "center": {"lat": 40.4578113, "lon": -109.5317342}, "nodes": [84137273, 6911068979, 5824325781, 84137275, 84163440, 5802511108, 84138344, 4551719054, 4551719040, 4551719039, 4551719038, 4551719037, 4551719036, 4551719035, 84138342, 5788034789, 84137273], "tags": {"addr:city": "Vernal", "addr:housenumber": "150", "addr:postcode": "84078", "addr:street": "West 100 North", "amenity": "hospital", "emergency": "yes", "gnis:feature_id": "1435070", "healthcare": "hospital", "name": "Ashley Valley Medical Center", "opening_hours": "24/7", "phone": "+1 435 789 3342", "website": "http://avmc-hospital.org/"}}, {"type": "way", "id": 459360245, "center": {"lat": 40.304539, "lon": -109.9961263}, "nodes": [4552233316, 4552233315, 4552233314, 4552233313, 4552233312, 4552233311, 356675571, 4552233316], "tags": {"addr:city": "Roosevelt", "addr:housenumber": "250", "addr:postcode": "84066", "addr:street": "West 300 North", "amenity": "hospital", "emergency": "yes", "gnis:feature_id": "1435459", "healthcare": "hospital", "name": "Uintah Basin Medical Center", "opening_hours": "24/7", "phone": "+1 435 722 4691", "website": "http://www.ubmc.org/", "wikidata": "Q7878108"}}, {"type": "way", "id": 466206347, "center": {"lat": 40.1200377, "lon": -102.7370191}, "nodes": [4610665620, 4610665621, 4610665622, 4642949949, 4610665620], "tags": {"addr:city": "Yuma", "addr:housenumber": "1000", "addr:postcode": "80759", "addr:street": "West 8th Avenue", "amenity": "hospital", "emergency": "yes", "name": "Yuma District Hospital", "opening_hours": "24/7", "phone": "+1 970 848 5405", "website": "https://yumahospital.org/"}}, {"type": "way", "id": 468483563, "center": {"lat": 45.7896771, "lon": -108.5132991}, "nodes": [4630177631, 4909505955, 4630177632, 4630177633, 822126024, 7038169186, 7038169187, 7038169188, 7038169189, 822125986, 46694552, 4630177634, 4909505953, 4909505954, 4630177635, 4630177631], "tags": {"addr:city": "Billings", "addr:housenumber": "2800", "addr:postcode": "59101", "addr:street": "10th Avenue North", "amenity": "hospital", "emergency": "yes", "gnis:feature_id": "770499", "healthcare": "hospital", "name": "Billings Clinic", "opening_hours": "24/7", "operator": "Billings Clinic", "phone": "+1 406 238 2500", "website": "https://www.billingsclinic.com/"}}, {"type": "way", "id": 468960760, "center": {"lat": 40.5183665, "lon": -107.5797687}, "nodes": [4634004588, 4634004702, 4634004701, 4634004700, 4634004699, 4634004698, 4634004697, 4634004696, 4634004695, 4634004694, 4634004693, 4634004692, 4634004691, 4634004690, 4634004689, 4634004588], "tags": {"addr:city": "Craig", "addr:housenumber": "750", "addr:postcode": "81625", "addr:street": "Hospital Loop", "amenity": "hospital", "emergency": "yes", "healthcare": "hospital", "name": "The Memorial Hospital", "phone": "+1 970 824 9411", "website": "http://www.thememorialhospital.com/"}}, {"type": "way", "id": 470026259, "center": {"lat": 40.0761539, "lon": -102.2345379}, "nodes": [4642811927, 4642811926, 4642811925, 4642811924, 4642811923, 4642811922, 4642811921, 4642811927], "tags": {"addr:city": "Wray", "addr:housenumber": "1017", "addr:postcode": "80758", "addr:state": "CO", "addr:street": "West 7th Street", "amenity": "hospital", "emergency": "yes", "name": "Wray Community District Hospital", "opening_hours": "24/7", "phone": "+1 970 332 4811", "website": "https://wrayhospital.org/", "wikidata": "Q29641891"}}, {"type": "way", "id": 470077867, "center": {"lat": 40.641885, "lon": -102.6313363}, "nodes": [4643206193, 4643206192, 4643206191, 4643206190, 4643206193], "tags": {"addr:city": "Haxtun", "addr:housenumber": "235", "addr:postcode": "80731", "addr:street": "West Fletcher Street", "amenity": "hospital", "emergency": "yes", "name": "Haxtun Hospital District", "opening_hours": "24/7", "phone": "+1 970 774 6123", "website": "https://haxtunhealth.org/"}}, {"type": "way", "id": 470078901, "center": {"lat": 40.3715138, "lon": -105.5152389}, "nodes": [4643214142, 4643214141, 4643214140, 4643214139, 7500131287, 4643214138, 7500131394, 7500131264, 7500131398, 4643214137, 4643214136, 7500131397, 4643214135, 7500131443, 4643214134, 7500131369, 7500131370, 4643214133, 4643214132, 7500131383, 4643214131, 4643214130, 4643214129, 7500131251, 4643214128, 4643214127, 4643214126, 4643214125, 3269634631, 7500131343, 4643214124, 4643214123, 4643214122, 4643214121, 4643214142], "tags": {"addr:city": "Estes Park", "addr:housenumber": "555", "addr:postcode": "80517", "addr:street": "Prospect Avenue", "amenity": "hospital", "beds": "25", "emergency": "yes", "healthcare": "hospital", "name": "Estes Park Medical Center", "opening_hours": "24/7", "phone": "+1 970 586 2317", "website": "https://www.epmedcenter.com/", "wikidata": "Q49410808"}}, {"type": "way", "id": 470094302, "center": {"lat": 40.5720096, "lon": -105.0564428}, "nodes": [4643341389, 4643341288, 4643341287, 4643341286, 4643341285, 4643341284, 4643341283, 8999675078, 8999675079, 4643341282, 4643341281, 4643341280, 4643341279, 4643341278, 4643341277, 4643341276, 4643341275, 4643341274, 5083001106, 4643341273, 8994285489, 8994285490, 8994285491, 8994285492, 8994285493, 8994285496, 8994285494, 8994285495, 8994285497, 4643341389], "tags": {"addr:city": "Fort Collins", "addr:housenumber": "1024", "addr:postcode": "80524", "addr:street": "South Lemay Avenue", "amenity": "hospital", "beds": "270", "emergency": "yes", "healthcare": "hospital", "name": "Poudre Valley Hospital", "opening_hours": "24/7", "phone": "+1 970 495 7000", "website": "https://www.uchealth.org/pages/oham/orgunitdetails.aspx?OrganizationalUnitId=8", "wikidata": "Q7235470", "wikipedia": "en:Poudre Valley Hospital"}}, {"type": "way", "id": 470098086, "center": {"lat": 40.5214624, "lon": -105.0091475}, "nodes": [4643369507, 4643369506, 3743611165, 4643369505, 4643369504, 4643369503, 4643369507], "tags": {"addr:city": "Fort Collins", "addr:housenumber": "4700", "addr:postcode": "80528", "addr:street": "Lady Moon Drive", "amenity": "hospital", "emergency": "yes", "healthcare": "hospital", "name": "Banner Fort Collins Medical Center", "opening_hours": "24/7", "operator": "Banner Health", "operator:wikidata": "Q4856918", "operator:wikipedia": "en:Banner Health", "phone": "+1 970 821 4000", "website": "https://www.bannerhealth.com/locations/fort-collins/banner-fort-collins-medical-center"}}, {"type": "way", "id": 470456869, "center": {"lat": 40.1822511, "lon": -105.1261704}, "nodes": [4646446691, 4646446690, 4646446689, 4646446388, 4646446387, 4646446386, 4646446385, 11256601801, 4646446384, 11256601814, 11256601813, 11256601809, 11256601810, 11256601811, 11256601812, 11256601833, 4646446383, 4646446382, 11256601855, 4646446691], "tags": {"addr:city": "Longmont", "addr:housenumber": "1950", "addr:postcode": "80501", "addr:street": "Mountain View Avenue", "amenity": "hospital", "emergency": "yes", "healthcare": "hospital", "name": "Longmont United Hospital", "opening_hours": "24/7", "phone": "+1 303 651 5111", "website": "http://www.luhcares.org/", "wikidata": "Q16894313", "wikipedia": "en:Longmont United Hospital"}}, {"type": "way", "id": 470728580, "center": {"lat": 40.0023439, "lon": -104.9932199}, "nodes": [2695743584, 4649119426, 4649119416, 2695740608, 2695740609, 5919190646, 2031171104, 2031171079, 2031171057, 2031171033, 7737442379, 3335199558, 2695738815, 2695738816, 2695743584], "tags": {"addr:city": "Broomfield", "addr:housenumber": "469", "addr:postcode": "80023", "addr:state": "CO", "addr:street": "West State Highway 7", "amenity": "hospital", "description": "24/7 urgent and inpatient care center located between Boulder and North Denver.", "emergency": "no", "healthcare": "hospital", "name": "Children's Hospital Colorado North Campus, Broomfield", "note": "24/7 Urgent Care Specialist Care Observation and Inpatient Care up to 72 hours Rehabilitation and Sports Physical Therapy Diagnostics and Imaging", "opening_hours": "24/7", "operator": "Children's Hospital Colorado", "phone": "+1 720 777 1340", "website": "https://www.childrenscolorado.org/your-visit/locations/north-campus/"}}, {"type": "way", "id": 479544663, "center": {"lat": 47.1175992, "lon": -104.7040612}, "nodes": [4726291074, 4726263349, 4726263350, 4911161813, 4911161814, 4911161815, 4911161812, 4911161811, 4911161810, 4911161809, 4726263352, 4911161808, 4726291074], "tags": {"addr:city": "Glendive", "addr:housenumber": "202", "addr:postcode": "59330", "addr:street": "Prospect Drive", "amenity": "hospital", "beds": "25", "emergency": "yes", "healthcare": "hospital", "name": "Glendive Medical Center", "opening_hours": "24/7", "phone": "+1 406 345 3306", "website": "https://www.gmc.org/"}}, {"type": "way", "id": 487076273, "center": {"lat": 48.8290516, "lon": -100.4499154}, "nodes": [4795911186, 4795911187, 4795911188, 4795911189, 4795911190, 4795911191, 4795911186], "tags": {"addr:city": "Bottineau", "addr:housenumber": "316", "addr:postcode": "58318", "addr:state": "ND", "addr:street": "Ohmer Street", "amenity": "hospital", "beds": "25", "emergency": "yes", "healthcare": "hospital", "name": "Saint Andrews Health Center", "opening_hours": "24/7", "operator": "Sisters of Mary of the Presentation Health System", "phone": "+1 701 228 9300", "website": "https://www.standrewshealth.com/"}}, {"type": "way", "id": 499714660, "center": {"lat": 45.7932064, "lon": -108.517755}, "nodes": [6081131235, 4909505949, 4909505948, 4909505947, 4909505946, 4909505945, 7859669220, 4909505944, 6081131715, 4909505943, 4909505942, 4909505941, 7859669299, 46673584, 4909505937, 357930879, 8689924879, 4909505936, 4909505935, 4909505934, 6081131235], "tags": {"addr:city": "Billings", "addr:housenumber": "1233", "addr:postcode": "59101", "addr:street": "North 30th Street", "amenity": "hospital", "emergency": "yes", "gnis:feature_id": "777143", "healthcare": "hospital", "name": "Saint Vincent Healthcare", "opening_hours": "24/7", "operator": "SCL Health", "phone": "+1 406 237 7000", "website": "https://www.sclhealth.org/locations/st-vincent-healthcare/"}}, {"type": "way", "id": 499759519, "center": {"lat": 48.7879542, "lon": -105.4182803}, "nodes": [4909905913, 4909905912, 4909905911, 4909905910, 357959202, 4909905909, 4909905908, 4909905907, 4909905906, 4909905905, 4909905913], "tags": {"addr:city": "Scobey", "addr:housenumber": "105", "addr:postcode": "59263", "addr:street": "5th Avenue East", "amenity": "hospital", "beds": "24", "emergency": "yes", "gnis:feature_id": "1637541", "healthcare": "hospital", "name": "Daniels Memorial Healthcare Center", "opening_hours": "24/7", "phone": "+1 406 487 2296", "website": "https://www.danielsmemorialhealthcare.org/"}}, {"type": "way", "id": 499875380, "center": {"lat": 48.7790085, "lon": -104.5631867}, "nodes": [4910697045, 4910697044, 4910697043, 357960814, 4910697042, 4910697041, 4910697045], "tags": {"addr:city": "Plentywood", "addr:housenumber": "440", "addr:postcode": "59254", "addr:street": "West Laurel Avenue", "amenity": "hospital", "emergency": "yes", "gnis:feature_id": "1677416", "healthcare": "hospital", "name": "Sheridan Memorial Hospital", "opening_hours": "24/7", "phone": "+1 406 765 3700", "website": "https://www.sheridanmemorial.net/"}}, {"type": "way", "id": 499887767, "center": {"lat": 48.1892901, "lon": -106.6348618}, "nodes": [4910789241, 4910789240, 4910789239, 4910789238, 4910789237, 4910789236, 357960624, 4910789235, 4910789234, 4910789233, 4910789232, 4910789231, 4910789230, 4910789229, 357925397, 4910789228, 4910789227, 4910789226, 4910789225, 4910789224, 4910789223, 4910789222, 4910789221, 4910788620, 4910788619, 4910788618, 4910789241], "tags": {"addr:city": "Glasgow", "addr:housenumber": "621", "addr:postcode": "59230", "addr:street": "3rd Street South", "amenity": "hospital", "emergency": "yes", "gnis:feature_id": "770501", "healthcare": "hospital", "name": "Frances Mahon Deaconess Hospital", "opening_hours": "24/7", "phone": "+1 406 228 3500", "website": "https://www.fmdh.org/"}}, {"type": "way", "id": 499908346, "center": {"lat": 48.1014426, "lon": -105.6418477}, "nodes": [4910924080, 357959684, 4910924079, 4910924078, 4910924077, 357959651, 4910924076, 4910924075, 4910924080], "tags": {"addr:city": "Wolf Point", "addr:housenumber": "315", "addr:postcode": "59201", "addr:street": "Knapp Street", "amenity": "hospital", "emergency": "yes", "gnis:feature_id": "1669222", "healthcare": "hospital", "name": "Trinity Hospital", "opening_hours": "24/7", "operator": "Northeast Montana Health Services", "phone": "+1 406 653 6500", "website": "https://www.nemhs.net/"}}, {"type": "way", "id": 499919714, "center": {"lat": 48.1514622, "lon": -104.5146435}, "nodes": [4911017462, 357959700, 4911017463, 357959693, 4911017462], "tags": {"addr:city": "Culbertson", "addr:housenumber": "818", "addr:postcode": "59218", "addr:street": "2nd Avenue East", "amenity": "hospital", "emergency": "yes", "gnis:feature_id": "1669225", "healthcare": "hospital", "name": "Roosevelt Medical Center", "opening_hours": "24/7", "phone": "+1 406 787 6401", "website": "http://www.rooseveltmedical.org/"}}, {"type": "way", "id": 499930337, "center": {"lat": 47.4186648, "lon": -105.5807904}, "nodes": [4911103292, 4911103291, 357964902, 4911103290, 4911103289, 357964904, 4911103288, 4911103287, 4911103292], "tags": {"addr:city": "Circle", "addr:housenumber": "605", "addr:postcode": "59215", "addr:street": "Sullivan Avenue", "amenity": "hospital", "emergency": "yes", "healthcare": "hospital", "name": "McCone County Health Center", "opening_hours": "24/7", "phone": "+1 406 485 3381", "website": "https://www.mcconehealth.org/"}}, {"type": "way", "id": 499967131, "center": {"lat": 46.3656014, "lon": -104.2806671}, "nodes": [357961955, 4911398906, 4911398905, 4911398904, 6369150486, 357961947, 357961949, 357961955], "tags": {"addr:city": "Baker", "addr:housenumber": "202", "addr:postcode": "59313", "addr:street": "South 4th Street West", "amenity": "hospital", "emergency": "yes", "gnis:feature_id": "1688756", "healthcare": "hospital", "name": "Fallon Medical Complex", "opening_hours": "24/7", "phone": "+1 406 778 3331", "website": "http://www.fallonmedical.org/"}}, {"type": "way", "id": 499969316, "center": {"lat": 45.8883376, "lon": -104.549784}, "nodes": [357961752, 4911418607, 4911418606, 4911418605, 4911418603, 4911418602, 4911418601, 357961752], "tags": {"addr:city": "Ekalaka", "addr:housenumber": "215", "addr:postcode": "59324", "addr:street": "Sandy Street", "amenity": "hospital", "emergency": "yes", "healthcare": "hospital", "name": "Dahl Memorial Healthcare", "opening_hours": "24/7", "phone": "+1 406 775 8739", "website": "http://www.dahlmemorial.com/cah.html"}}, {"type": "way", "id": 499980759, "center": {"lat": 46.3951932, "lon": -105.8284914}, "nodes": [4911525297, 4911525281, 4911525296, 4911525295, 4911525294, 4911525293, 357966305, 357966450, 4911525292, 4911525291, 4911525290, 4911525289, 4911525288, 4911525287, 4911525286, 4911525285, 4911525284, 4911525283, 4911525282, 4911525297], "tags": {"addr:city": "Miles City", "addr:housenumber": "2600", "addr:postcode": "59301", "addr:street": "Wilson Street", "amenity": "hospital", "emergency": "yes", "gnis:feature_id": "1716934", "healthcare": "hospital", "name": "Holy Rosary Health Center", "opening_hours": "24/7", "operator": "SCL Health", "phone": "+1 406 233 2600", "website": "https://www.sclhealth.org/locations/holy-rosary-healthcare/", "wikidata": "Q14704560", "wikipedia": "en:Holy Rosary Hospital"}}, {"type": "way", "id": 499989056, "center": {"lat": 46.2716188, "lon": -106.6701438}, "nodes": [4911605787, 4911605786, 357965808, 4911605785, 4911605784, 4911605787], "tags": {"addr:city": "Forsyth", "addr:housenumber": "383", "addr:postcode": "59327", "addr:street": "North 17th Avenue", "amenity": "hospital", "emergency": "yes", "gnis:feature_id": "1716670", "healthcare": "hospital", "name": "Rosebud Health Care Center", "opening_hours": "24/7", "phone": "+1 406 346 2161", "website": "https://www.rosebudhcc.org/"}}, {"type": "way", "id": 500122990, "center": {"lat": 45.5821296, "lon": -107.4489605}, "nodes": [4912599844, 4912599843, 4912599842, 357965128, 4912599841, 4912599840, 4912599839, 4912599838, 4912599837, 4912599836, 4912599835, 4912599834, 4912599844], "tags": {"addr:city": "Crow Agency", "addr:housenumber": "237", "addr:postcode": "59022", "addr:street": "Hospital Loop", "amenity": "hospital", "emergency": "yes", "gnis:feature_id": "1716382", "healthcare": "hospital", "name": "Crow/Northern Cheyenne Hospital", "opening_hours": "24/7", "phone": "+1 406 638 3500", "website": "https://www.ihs.gov/billings/healthcarefacilities/crow/"}}, {"type": "way", "id": 500129978, "center": {"lat": 45.7286007, "lon": -107.6162379}, "nodes": [357965119, 7877321830, 7877321833, 7877321832, 7877321831, 357965117, 4912651749, 4912651748, 4912651747, 4912651746, 4912651745, 4912651744, 357965119], "tags": {"addr:city": "Hardin", "addr:housenumber": "17", "addr:postcode": "59034", "addr:street": "North Miles Avenue", "amenity": "hospital", "emergency": "yes", "gnis:feature_id": "1716366", "healthcare": "hospital", "name": "Big Horn County Memorial Hospital", "opening_hours": "24/7", "phone": "+1 406 665 2310", "website": "https://www.bighornhospital.org/"}}, {"type": "way", "id": 500155520, "center": {"lat": 48.3572212, "lon": -107.8592979}, "nodes": [357967231, 4912794745, 4912794744, 4912794743, 4912794742, 4912794741, 4912794740, 4912794739, 357967231], "tags": {"addr:city": "Malta", "addr:housenumber": "311", "addr:postcode": "59538", "addr:street": "South 8th Avenue East", "amenity": "hospital", "beds": "6", "emergency": "yes", "gnis:feature_id": "1721821", "healthcare": "hospital", "name": "Phillips County Hospital and Family Health Clinic", "opening_hours": "24/7", "phone": "+1 406 654 1100", "website": "https://pchospital.us/"}}, {"type": "way", "id": 500182335, "center": {"lat": 48.5380437, "lon": -109.6857852}, "nodes": [357973137, 4912962300, 4912962299, 4912962298, 4912962297, 357973130, 4912962296, 4912962295, 6925924785, 357973137], "tags": {"addr:city": "Havre", "addr:housenumber": "30", "addr:postcode": "59501", "addr:street": "13th Street West", "amenity": "hospital", "emergency": "yes", "gnis:feature_id": "1744138", "healthcare": "hospital", "name": "Northern Montana Health Care", "opening_hours": "24/7", "phone": "+1 406 265 2211", "website": "https://www.nmhcare.org/"}}, {"type": "way", "id": 500271096, "center": {"lat": 47.0588368, "lon": -109.4442042}, "nodes": [4913689287, 4913689286, 357969039, 4913689285, 7797497372, 357968900, 357968898, 7779337169, 4913689287], "tags": {"addr:city": "Lewistown", "addr:housenumber": "408", "addr:postcode": "59457", "addr:street": "Wendell Avenue", "amenity": "hospital", "emergency": "yes", "gnis:feature_id": "1722496", "healthcare": "hospital", "name": "Central Montana Medical Center", "opening_hours": "24/7", "phone": "+1 406 535 7711", "website": "http://www.cmmccares.org/"}}, {"type": "way", "id": 500281266, "center": {"lat": 46.4373729, "lon": -109.8407716}, "nodes": [4913772504, 4913772503, 4913772502, 4913772501, 4913772500, 4913772499, 4913772498, 4913772504], "tags": {"addr:city": "Harlowton", "addr:housenumber": "530", "addr:postcode": "59036", "addr:street": "3rd Street Northwest", "amenity": "hospital", "emergency": "yes", "gnis:feature_id": "1725838", "healthcare": "hospital", "name": "Wheatland Memorial Healthcare", "opening_hours": "24/7", "phone": "+1 406 632 4351", "website": "https://www.wheatlandmemorial.org/"}}, {"type": "way", "id": 500288379, "center": {"lat": 45.8280909, "lon": -109.9519404}, "nodes": [4913829696, 357971831, 4913829695, 4913829694, 4913829696], "tags": {"addr:city": "Big Timber", "addr:housenumber": "301", "addr:postcode": "59011", "addr:street": "West 7th Avenue", "amenity": "hospital", "emergency": "yes", "gnis:feature_id": "1743441", "healthcare": "hospital", "name": "Pioneer Medical Center", "opening_hours": "24/7", "phone": "+1 406 932 4603", "short_name": "PMC", "website": "https://pmcmt.org/"}}, {"type": "way", "id": 500295698, "center": {"lat": 45.6428821, "lon": -109.2419345}, "nodes": [4913899393, 4913899392, 4913899391, 4913899390, 4913899389, 4913899388, 4913899387, 4913899386, 4913899385, 4913899384, 4913899383, 4913899382, 4913899381, 4913899393], "tags": {"addr:city": "Columbus", "addr:housenumber": "711", "addr:postcode": "59019", "addr:street": "11th Street North", "amenity": "hospital", "emergency": "yes", "healthcare": "hospital", "name": "Stillwater Billings Clinic", "opening_hours": "24/7", "phone": "+1 406 322 1000", "website": "https://stillwaterbillingsclinic.com/"}}, {"type": "way", "id": 500298325, "center": {"lat": 45.2127836, "lon": -109.2436476}, "nodes": [4913936478, 4913936477, 4913936476, 4913936475, 4913936470, 4913936474, 4913936473, 4913936472, 7264959993, 4913936471, 4913936478], "tags": {"addr:city": "Red Lodge", "addr:housenumber": "2525", "addr:postcode": "59068", "addr:street": "North Broadway Avenue", "amenity": "hospital", "emergency": "yes", "healthcare": "hospital", "name": "Beartooth Billings Clinic", "opening_hours": "24/7", "phone": "+1 406 446 2345", "website": "https://www.beartoothbillingsclinic.org/"}}, {"type": "way", "id": 501256566, "center": {"lat": 46.7911059, "lon": -105.3155315}, "nodes": [4921183289, 4921183285, 357964318, 4921183288, 4921183287, 4921183286, 4921183289], "tags": {"addr:city": "Terry", "addr:housenumber": "312", "addr:postcode": "59349", "addr:street": "Adams Avenue", "amenity": "hospital", "emergency": "yes", "gnis:feature_id": "1715784", "healthcare": "hospital", "name": "Prairie Community Hospital", "opening_hours": "24/7", "phone": "+1 406 635 5511"}}, {"type": "way", "id": 512175868, "center": {"lat": 44.2906857, "lon": -105.5177664}, "nodes": [5008563909, 5008563910, 4902772051, 4902772056, 5008563912, 6114099807, 5008563913, 5008563920, 5008566221, 5008563914, 5008563919, 5008563915, 5008563916, 5184847853, 5008563917, 5008563918, 5008563909], "tags": {"addr:city": "Gillette", "addr:housenumber": "501", "addr:postcode": "82716", "addr:state": "WY", "addr:street": "South Burma Avenue", "amenity": "hospital", "beds": "90", "emergency": "yes", "healthcare": "hospital", "healthcare:speciality": "general;radiology;emergency;psychiatry;oncology;maternity;internal", "name": "Campbell County Health", "opening_hours": "24/7", "phone": "+1-307-688-1000", "source": "survey;local knowledge", "website": "https://www.cchwyo.org/"}}, {"type": "way", "id": 513741849, "center": {"lat": 40.4632255, "lon": -106.8148729}, "nodes": [5021189026, 5021189025, 5021189024, 5021189023, 5021189022, 5021189021, 5021188420, 5021188419, 5021188418, 5021188417, 5021188416, 5021188415, 5021188414, 5021188413, 5021188412, 5021188411, 5021188374, 5021188368, 5021188410, 5021188409, 5021189026], "tags": {"addr:city": "Steamboat Springs", "addr:housenumber": "1024", "addr:postcode": "80487", "addr:street": "Central Park Drive", "amenity": "hospital", "beds": "39", "emergency": "yes", "healthcare": "hospital", "name": "Yampa Valley Medical Center", "opening_hours": "24/7", "operator": "UCHealth", "phone": "+1 970 879 1322", "website": "https://www.uchealth.org/locations/uchealth-yampa-valley-medical-center/"}}, {"type": "way", "id": 568319447, "center": {"lat": 49.5613947, "lon": -101.100204}, "nodes": [5467762584, 5467762578, 5467762577, 5467762583, 5467762579, 5467762580, 5467762582, 5467762572, 5467762571, 5467762581, 5467762574, 5467762573, 5467762575, 5467762576, 5467762584], "tags": {"amenity": "hospital", "building": "hospital", "name": "Reston Health Centre"}}, {"type": "way", "id": 576490483, "center": {"lat": 40.148932, "lon": -105.1326396}, "nodes": [5529411518, 5529411519, 5529411520, 5529411721, 5529411722, 5529411723, 5529411724, 5529411725, 5529411726, 5529411727, 5529411728, 5529411729, 5529411730, 5529411731, 5529411732, 5529411733, 5529411734, 5529411735, 5529411736, 5529411737, 5529411738, 5529411739, 5529411740, 5529411741, 5529411742, 5529411743, 5529411518], "tags": {"amenity": "hospital", "building": "hospital", "name": "Kaiser Permanente"}}, {"type": "way", "id": 580700299, "center": {"lat": 40.2557369, "lon": -103.6491006}, "nodes": [1172291884, 6384783878, 6384783879, 6384783880, 6384783881, 5558270640, 5558270639, 5558270638, 1172291884], "tags": {"addr:city": "Brush", "addr:housenumber": "2400", "addr:postcode": "80723", "addr:state": "CO", "addr:street": "Edison Street", "amenity": "hospital", "beds": "25", "emergency": "yes", "healthcare": "hospital", "name": "East Morgan County Hospital", "opening_hours": "24/7", "operator": "Banner Health", "phone": "+1 970 842 6200", "website": "https://www.bannerhealth.com/locations/brush/east-morgan-county-hospital"}}, {"type": "way", "id": 580706776, "center": {"lat": 40.4132902, "lon": -105.0515167}, "nodes": [5558304957, 5558304956, 5558304955, 5558304954, 5558304953, 5558304952, 5558304951, 5558304950, 3795877035, 3795877036, 3795877037, 3795877016, 3795877015, 3795877038, 3795877039, 3795877040, 3795877041, 3795877042, 3793708631, 3795877044, 3793708632, 3795877421, 3795877420, 3795877419, 3795877418, 3795877417, 3795877416, 3795877415, 3795877414, 3795877413, 3795877412, 3795877411, 3795877423, 3795877424, 3795877422, 3796359199, 3796359198, 3796359197, 3796359196, 3796359195, 3796359194, 3796359193, 3796359192, 3796359191, 3796359190, 3796359189, 3796359204, 3797300917, 3797300918, 3797300919, 3797300920, 3797300921, 3797300922, 3797300923, 3797300924, 3797300925, 3797300926, 3797300927, 3797300928, 3797300929, 3797300930, 3797300931, 3797300932, 3797300933, 3797300934, 3797300935, 3797300936, 3797300937, 3797300938, 3797300939, 3797300940, 3793703848, 3797300941, 3797300942, 3797300943, 3797300944, 3797300945, 3797300946, 3797300907, 3797300908, 5558304949, 5558304948, 5558304947, 3798929482, 5558304946, 5558304957], "tags": {"addr:city": "Loveland", "addr:housenumber": "2000", "addr:postcode": "80538", "addr:street": "Boise Avenue", "amenity": "hospital", "emergency": "yes", "healthcare": "hospital", "name": "McKee Medical Center", "opening_hours": "24/7", "operator": "Banner Health", "operator:wikidata": "Q4856918", "operator:wikipedia": "en:Banner Health", "phone": "+1 970 820 4640", "website": "https://www.bannerhealth.com/locations/loveland/mckee-medical-center"}}, {"type": "way", "id": 580710951, "center": {"lat": 40.4155035, "lon": -104.997797}, "nodes": [5558332304, 5558332303, 5558332302, 5558332301, 5558332300, 5558332299, 5558332298, 5558332297, 5558332296, 5558332295, 5558332294, 5558332293, 5558332292, 10951329781, 721543858, 5558332291, 5558332290, 5558332289, 5558332288, 5558332287, 5558332286, 5558332285, 5558332284, 5558332283, 5558332282, 5558332281, 5558332304], "tags": {"addr:city": "Loveland", "addr:housenumber": "2500", "addr:postcode": "80538", "addr:street": "Rocky Mountain Avenue", "amenity": "hospital", "beds": "166", "emergency": "yes", "healthcare": "hospital", "name": "Medical Center of the Rockies", "opening_hours": "24/7", "operator": "UCHealth", "phone": "+1 970 624 2500", "website": "https://www.uchealth.org/locations/uchealth-medical-center-of-the-rockies/", "wikidata": "Q6806291", "wikipedia": "en:Medical Center of the Rockies"}}, {"type": "way", "id": 583604815, "center": {"lat": 40.9390877, "lon": -100.1533238}, "nodes": [5579496230, 5579496229, 5579496228, 357783242, 5579496230], "tags": {"addr:city": "Gothenburg", "addr:housenumber": "918", "addr:postcode": "69138", "addr:street": "20th Street", "amenity": "hospital", "beds": "12", "emergency": "yes", "gnis:feature_id": "1875018", "healthcare": "hospital", "name": "Gothenburg Memorial Hospital", "opening_hours": "24/7", "operator": "Gothenburg Health", "phone": "+1 308 537 3661", "website": "https://www.gothenburghealth.org/"}}, {"type": "way", "id": 584701128, "center": {"lat": 45.5463625, "lon": -100.4496583}, "nodes": [5588564187, 5588564186, 5588564185, 5109746677, 5588564187], "tags": {"addr:city": "Mobridge", "addr:housenumber": "1401", "addr:postcode": "57601", "addr:street": "10th Avenue West", "amenity": "hospital", "beds": "25", "emergency": "yes", "healthcare": "hospital", "name": "Mobridge Regional Hospital", "opening_hours": "24/7", "operator": "Mobridge Regional Hospital and Clinics", "phone": "+1 605 845 3692", "website": "https://www.mobridgehospital.org/"}}, {"type": "way", "id": 584891248, "center": {"lat": 41.5846782, "lon": -109.2353734}, "nodes": [5590203728, 5590203727, 5590203726, 1692923174, 5590203725, 5590203724, 5590203723, 5590203722, 5590203721, 5590201220, 5590201219, 5590201218, 5590201217, 5590201216, 5590201215, 5590201214, 5590201213, 5590201212, 5590201211, 5590203728], "tags": {"addr:city": "Rock Springs", "addr:housenumber": "1200", "addr:postcode": "82901", "addr:state": "WY", "addr:street": "College Drive", "amenity": "hospital", "beds": "99", "emergency": "yes", "healthcare": "hospital", "name": "Memorial Hospital of Sweetwater County", "opening_hours": "24/7", "phone": "+1 307 362 3711", "website": "https://www.sweetwatermemorial.com/"}}, {"type": "way", "id": 587275556, "center": {"lat": 40.5793044, "lon": -102.2900983}, "nodes": [5609733795, 10274635961, 10274635962, 5609733794, 5609733793, 5609733792, 5609733791, 5609733790, 5609733789, 5609733795], "tags": {"addr:city": "Holyoke", "addr:housenumber": "1001", "addr:postcode": "80734", "addr:street": "East Johnson Street", "amenity": "hospital", "beds": "15", "emergency": "yes", "healthcare": "hospital", "name": "Melissa Memorial Hospital", "opening_hours": "24/7", "phone": "+1 970 854 2241", "website": "http://melissamemorial.org/"}}, {"type": "way", "id": 587290792, "center": {"lat": 40.0790668, "lon": -108.8069442}, "nodes": [5609891372, 5609891371, 5609891370, 5609891369, 5609891368, 5609891367, 5609891366, 5609891365, 5609891364, 5609891363, 5609891362, 5609891361, 5609891360, 5609891359, 6373407011, 5609891358, 5609891357, 5609891356, 5609891355, 5609891354, 5609891372], "tags": {"addr:city": "Rangely", "addr:housenumber": "225", "addr:postcode": "81648", "addr:street": "East Crest Drive", "amenity": "hospital", "beds": "25", "emergency": "yes", "healthcare": "hospital", "name": "Rangely District Hospital", "opening_hours": "24/7", "phone": "+1 970 675 5011", "website": "https://www.rangelyhospital.com/"}}, {"type": "way", "id": 587306368, "center": {"lat": 40.0463826, "lon": -107.8812531}, "nodes": [5610057644, 5610057643, 5610057642, 5610057575, 5610057574, 5610057641, 5610057640, 5610057639, 5610057638, 5610057637, 5610057636, 5610057635, 5610057634, 5610057633, 5610057644], "tags": {"addr:city": "Meeker", "addr:housenumber": "100", "addr:postcode": "81641", "addr:street": "Pioneers Medical Center Drive", "amenity": "hospital", "beds": "10", "emergency": "yes", "healthcare": "hospital", "name": "Pioneers Medical Center", "opening_hours": "24/7", "phone": "+1 970 878 5047", "website": "https://www.pioneershospital.org/"}}, {"type": "way", "id": 591267828, "center": {"lat": 48.4823806, "lon": -108.7630981}, "nodes": [5644609380, 7857482910, 5644609379, 5644609378, 5644609377, 5644609376, 5644609375, 5644609374, 5644609373, 5644609372, 5644609371, 5644609380], "tags": {"addr:city": "Harlem", "addr:housenumber": "669", "addr:postcode": "59526", "addr:street": "Agency Main Street", "amenity": "hospital", "beds": "6", "emergency": "yes", "healthcare": "hospital", "name": "Fort Belknap Hospital", "opening_hours": "24/7", "operator": "Indian Health Service", "phone": "+1 406 353 3100", "website": "https://www.ihs.gov/billings/healthcarefacilities/ftbelknap/"}}, {"type": "way", "id": 591284305, "center": {"lat": 40.8487292, "lon": -101.7268594}, "nodes": [1780548170, 1780548166, 1780548184, 5644858833, 5644858832, 5644858863, 5644858831, 5644858830, 5644858866, 1780548169, 1783686824, 1780548170], "tags": {"addr:city": "Grant", "addr:housenumber": "900", "addr:postcode": "69140", "addr:street": "Lincoln Avenue", "amenity": "hospital", "beds": "20", "emergency": "yes", "healthcare": "hospital", "name": "Perkins County Health Services", "opening_hours": "24/7", "phone": "+1 308 352 7200", "website": "https://www.pchsgrant.com/"}}, {"type": "way", "id": 592189637, "center": {"lat": 46.0952092, "lon": -100.6282237}, "nodes": [5652474265, 5652474264, 5652474263, 5652474262, 5652474261, 5652474260, 5652474259, 5652474265], "tags": {"addr:city": "Fort Yates", "addr:postcode": "58538", "amenity": "hospital", "emergency": "yes", "healthcare": "hospital", "name": "Fort Yates Hospital", "opening_hours": "24/7", "operator": "Indian Health Service", "phone": "+1 701 854 3831", "website": "https://www.ihs.gov/greatplains/healthcarefacilities/standingrock/"}}, {"type": "way", "id": 592203451, "center": {"lat": 48.3114102, "lon": -102.3800925}, "nodes": [5652631397, 5652631396, 5652631395, 5652631394, 5652631397], "tags": {"addr:city": "Stanley", "addr:housenumber": "615", "addr:postcode": "58784", "addr:street": "6th Street Southeast", "amenity": "hospital", "beds": "11", "emergency": "yes", "healthcare": "hospital", "name": "Mountrail County Medical Center", "opening_hours": "24/7", "phone": "+1 701 628 2424", "short_name": "MCHC", "website": "https://www.stanleyhealth.org/"}}, {"type": "way", "id": 592213780, "center": {"lat": 46.0020511, "lon": -102.6281391}, "nodes": [5652733128, 5652733127, 5652733126, 5652733125, 5652733124, 5652733123, 5652733122, 5652733121, 5652733120, 5652733119, 5652733118, 5652733117, 5652733116, 5652733128], "tags": {"addr:city": "Hettinger", "addr:housenumber": "1000", "addr:postcode": "58639", "addr:street": "Highway 12", "amenity": "hospital", "beds": "25", "emergency": "yes", "healthcare": "hospital", "name": "West River Regional Medical Center", "opening_hours": "24/7", "operator": "West River Health Services", "phone": "+1 701 567 4561", "website": "https://www.wrhs.com/"}}, {"type": "way", "id": 592338164, "center": {"lat": 46.2713793, "lon": -100.2336662}, "nodes": [5653565980, 5653565979, 5653565978, 5653565977, 5653565976, 5653565975, 5653565974, 5653565973, 5653565980], "tags": {"addr:city": "Linton", "addr:housenumber": "518", "addr:postcode": "58552", "addr:street": "North Broadway", "amenity": "hospital", "beds": "14", "emergency": "yes", "healthcare": "hospital", "name": "Linton Hospital", "opening_hours": "24/7", "phone": "+1 701 254 4511", "website": "https://www.lintonhospital.org/"}}, {"type": "way", "id": 592340242, "center": {"lat": 47.806934, "lon": -103.2823173}, "nodes": [5653574148, 5653574147, 5653574146, 5653574145, 5653574148], "tags": {"addr:city": "Watford City", "addr:housenumber": "516", "addr:postcode": "58854", "addr:street": "North Main Street", "amenity": "hospital", "beds": "24", "emergency": "yes", "healthcare": "hospital", "name": "Mckenzie County Healthcare Systems", "opening_hours": "24/7", "phone": "+1 701 842 3000", "website": "https://www.mckenziehealth.com/"}}, {"type": "way", "id": 592343808, "center": {"lat": 47.6488434, "lon": -101.4106288}, "nodes": [5653606377, 5653606376, 5653606375, 5653606374, 5653606377], "tags": {"addr:city": "Garrison", "addr:housenumber": "407", "addr:postcode": "58540", "addr:street": "3rd Avenue Southeast", "amenity": "hospital", "beds": "22", "emergency": "yes", "healthcare": "hospital", "name": "CHI Saint Alexius Health Garrison", "old_name": "Garrison Memorial Hospital", "opening_hours": "24/7", "operator": "Catholic Health Initiatives", "phone": "+1 701 463 2275", "website": "https://www.chistalexiushealth.org/garrison"}}, {"type": "way", "id": 592346113, "center": {"lat": 47.5182546, "lon": -100.8943585}, "nodes": [5653613836, 5653613835, 5653613834, 5653613833, 5653613836], "tags": {"addr:city": "Turtle Lake", "addr:housenumber": "220", "addr:postcode": "58575", "addr:street": "5th Avenue", "amenity": "hospital", "beds": "25", "emergency": "yes", "healthcare": "hospital", "name": "CHI Saint Alexius Health Turtle Lake", "opening_hours": "24/7", "operator": "Catholic Health Initiatives", "phone": "+1 701 448 2331", "website": "https://www.chistalexiushealth.org/turtlelake"}}, {"type": "way", "id": 592347886, "center": {"lat": 48.6742072, "lon": -102.0845379}, "nodes": [5653650233, 5653650232, 5653650231, 5653650230, 5653650233], "tags": {"addr:city": "Kenmare", "addr:housenumber": "317", "addr:postcode": "58746", "addr:street": "1st Avenue Northwest", "amenity": "hospital", "beds": "25", "emergency": "yes", "healthcare": "hospital", "name": "Trinity Kenmare Community Hospital", "opening_hours": "24/7", "operator": "Trinity Health", "phone": "+1 701 385 4296", "website": "https://www.trinityhealth.org/index.php?page=location&detail=25"}}, {"type": "way", "id": 592359070, "center": {"lat": 47.2983159, "lon": -101.6102193}, "nodes": [5653724388, 5653724387, 5653724386, 5653724385, 5653724384, 5653724383, 5653724382, 5653724381, 5653724388], "tags": {"addr:city": "Hazen", "addr:housenumber": "510", "addr:postcode": "58545", "addr:street": "8th Avenue Northeast", "amenity": "hospital", "beds": "13", "emergency": "yes", "healthcare": "hospital", "name": "Sakakawea Medical Center", "opening_hours": "24/7", "phone": "+1 701 748 2225", "website": "https://www.smcnd.org/"}}, {"type": "way", "id": 592502042, "center": {"lat": 46.1847826, "lon": -103.40692}, "nodes": [5654941006, 5654941009, 5654941008, 5654941007, 5654941006], "tags": {"addr:city": "Bowman", "addr:housenumber": "802", "addr:postcode": "58623", "addr:street": "2nd Street Northwest", "amenity": "hospital", "beds": "23", "emergency": "yes", "healthcare": "hospital", "name": "Southwest Healthcare Services", "opening_hours": "24/7", "phone": "+1 701 523 3226", "website": "https://swhealthcare.net/"}}, {"type": "way", "id": 592506820, "center": {"lat": 46.4072548, "lon": -101.8412898}, "nodes": [5654969685, 5654969684, 5654969683, 5654969682, 5654969681, 5654969680, 5654969679, 5654969685], "tags": {"addr:city": "Elgin", "addr:housenumber": "601", "addr:postcode": "58533", "addr:street": "East Street North", "amenity": "hospital", "beds": "30", "emergency": "yes", "healthcare": "hospital", "name": "Jacobson Memorial Hospital Care Center", "opening_hours": "24/7", "phone": "+1 701 584 2792", "short_name": "JMHCC", "website": "http://www.jacobsonhospital.org/"}}, {"type": "way", "id": 592536859, "center": {"lat": 48.9067476, "lon": -103.2991272}, "nodes": [5655174255, 5655174254, 5655174253, 5655174252, 5655174251, 5655174250, 5655174249, 5655174248, 5655174247, 5655174246, 5655174255], "tags": {"addr:city": "Crosby", "addr:housenumber": "702", "addr:postcode": "58730", "addr:street": "1st Street Southwest", "amenity": "hospital", "beds": "15", "emergency": "yes", "healthcare": "hospital", "name": "Saint Luke\u2019s Medical Center", "opening_hours": "24/7", "phone": "+1 701 965 6384", "website": "https://www.dcstlukes.org/"}}, {"type": "way", "id": 595454316, "center": {"lat": 44.3607802, "lon": -100.3429869}, "nodes": [5675177652, 5675177651, 5675177650, 5675177649, 5675177648, 5675177647, 5675177646, 5675177652], "tags": {"addr:city": "Pierre", "addr:housenumber": "801", "addr:postcode": "57501", "addr:street": "East Sioux Avenue", "amenity": "hospital", "beds": "50", "emergency": "yes", "healthcare": "hospital", "name": "Avera Saint Mary's Hospital", "opening_hours": "24/7", "operator": "Avera", "phone": "+1 605 224 3100", "website": "https://www.avera.org/locations/st-marys/"}}, {"type": "way", "id": 595461447, "center": {"lat": 44.0564569, "lon": -103.2245833}, "nodes": [5675255856, 5675255855, 5675255854, 5675255853, 5675255852, 5675255851, 5675255850, 5675255849, 5675255848, 5675255847, 5675255846, 5675255845, 5675255844, 5675255843, 5675255842, 5675255841, 10297769025, 5675255840, 5675255839, 10297750087, 5675255856], "tags": {"addr:city": "Rapid City", "addr:housenumber": "353", "addr:postcode": "57701", "addr:state": "SD", "addr:street": "Fairmont Boulevard", "amenity": "hospital", "beds": "417", "emergency": "yes", "healthcare": "hospital", "name": "Monument Health Rapid City Hospital", "opening_hours": "24/7", "operator": "Monument Health", "operator:type": "private_non_profit", "phone": "+1 605 719 1000", "website": "https://directory.monument.health/facility/sd/rapid-city/353-fairmont-boulevard-6671503", "wheelchair": "yes"}}, {"type": "way", "id": 595665023, "center": {"lat": 44.9917892, "lon": -101.2438738}, "nodes": [5676670400, 5676670399, 5676670398, 5676667286, 5676670397, 5676667287, 5676670396, 5676670395, 5676670394, 5676670393, 5676670392, 5676670391, 5676670390, 5676670389, 5676670388, 9800355634, 5676670387, 9800355633, 9800355632, 5676670386, 9800355631, 5676670385, 5676670384, 5676670383, 5676670382, 5676670400], "tags": {"addr:city": "Eagle Butte", "addr:housenumber": "24276", "addr:postcode": "57625", "addr:state": "SD", "addr:street": "166th Street, Airport Road", "amenity": "hospital", "beds": "8", "emergency": "yes", "healthcare": "hospital", "name": "Cheyenne River Health Center", "opening_hours": "24/7", "operator": "Indian Health Service", "phone": "+1 605 964 7724", "website": "https://www.ihs.gov/greatplains/healthcarefacilities/cheyenneriver/"}}, {"type": "way", "id": 595809184, "center": {"lat": 43.2564458, "lon": -100.8503723}, "nodes": [5677594204, 5677594203, 5677594202, 5677594201, 5677594200, 5677594199, 5677594198, 5677594197, 5677594196, 5677594195, 5677594194, 5677594193, 5677594192, 5677594191, 5677594190, 5677594189, 5677594188, 5677594187, 5677594186, 5677594185, 5677594184, 5677594183, 5677594182, 5677594181, 5677594204], "tags": {"addr:city": "Rosebud", "addr:postcode": "57570", "addr:state": "SD", "amenity": "hospital", "beds": "35", "emergency": "yes", "healthcare": "hospital", "name": "Rosebud Hospital", "opening_hours": "24/7", "operator": "Indian Health Service", "operator:type": "government", "phone": "+1 605 747 2231", "website": "https://www.ihs.gov/greatplains/healthcarefacilities/rosebud/"}}, {"type": "way", "id": 595910573, "center": {"lat": 44.0461956, "lon": -103.223631}, "nodes": [5678265906, 5678265905, 5678265904, 5678265903, 5678265902, 5678265901, 5678265900, 5678265899, 5678265898, 5678265897, 5678265896, 5678265895, 5678265894, 5678265893, 5678265906], "tags": {"addr:city": "Rapid City", "addr:housenumber": "216", "addr:postcode": "57105", "addr:state": "SD", "addr:street": "Anamaria Drive", "amenity": "hospital", "beds": "26", "emergency": "no", "healthcare": "hospital", "healthcare:speciality": "surgery", "name": "Black Hills Surgical Hospital", "phone": "+1 605 721 4700", "website": "https://bhsh.com/"}}, {"type": "way", "id": 596102139, "center": {"lat": 44.039861, "lon": -101.6718015}, "nodes": [5679617132, 5679617131, 5679617130, 5679617129, 5679617132], "tags": {"addr:city": "Philip", "addr:housenumber": "503", "addr:postcode": "57567", "addr:street": "West Pine Street", "amenity": "hospital", "beds": "18", "emergency": "yes", "healthcare": "hospital", "name": "Hans P. Peterson Memorial Hospital", "opening_hours": "24/7", "operator": "Philip Health Services", "phone": "+1 605 859 2511", "website": "https://www.philiphealthservices.com/"}}, {"type": "way", "id": 596103272, "center": {"lat": 44.3696477, "lon": -103.7285891}, "nodes": [5679623371, 5679623359, 5679623370, 5679623360, 5679623369, 5679623357, 5679623368, 5679623358, 5679623367, 5679623356, 5679623366, 5679623355, 5679623365, 5679623354, 5679623364, 5679623353, 5679623363, 5679623362, 5679623361, 5679623371], "tags": {"addr:city": "Deadwood", "addr:housenumber": "61", "addr:postcode": "57732", "addr:street": "Charles Street", "amenity": "hospital", "beds": "18", "emergency": "yes", "healthcare": "hospital", "name": "Regional Health Lead-Deadwood Hospital", "opening_hours": "24/7", "operator": "Regional Health", "phone": "+1 605 717 6000", "website": "https://regionalhealth.com/location/regional-health-lead-deadwood-hospital"}}, {"type": "way", "id": 596105191, "center": {"lat": 44.4025317, "lon": -103.5077052}, "nodes": [5679628711, 5679628710, 5679628709, 5679628708, 5679628711], "tags": {"addr:city": "Sturgis", "addr:housenumber": "2140", "addr:postcode": "57785", "addr:street": "Junction Avenue", "amenity": "hospital", "beds": "25", "emergency": "yes", "healthcare": "hospital", "name": "Monument Health Sturgis Hospital", "opening_hours": "24/7", "operator": "Monument Health", "phone": "+1 605 720 2400", "website": "https://regionalhealth.com/location/regional-health-sturgis-hospital"}}, {"type": "way", "id": 596107097, "center": {"lat": 43.4173988, "lon": -103.4796157}, "nodes": [5679651233, 5679651232, 5679651231, 5679651230, 5679651229, 5679651228, 5679651227, 5679651226, 5679651225, 5679651224, 5679651223, 5679651233], "tags": {"addr:city": "Hot Springs", "addr:housenumber": "1201", "addr:postcode": "57747", "addr:street": "Highway 71 South", "amenity": "hospital", "beds": "25", "emergency": "yes", "healthcare": "hospital", "name": "Fall River Hospital", "opening_hours": "24/7", "operator": "Fall River Health Services", "phone": "+1 605 745 8910", "website": "https://www.frhssd.org/"}}, {"type": "way", "id": 596112421, "center": {"lat": 43.7724641, "lon": -103.5941903}, "nodes": [5679690220, 5679690219, 5679690218, 5679690209, 5679690217, 5679690216, 5679690215, 5679690214, 5679690213, 5679690212, 5679690211, 5679690210, 5679690220], "tags": {"addr:city": "Custer", "addr:housenumber": "1039", "addr:postcode": "57730", "addr:state": "SD", "addr:street": "Montgomery Street", "amenity": "hospital", "beds": "11", "emergency": "yes", "healthcare": "hospital", "name": "Regional Health Custer Hospital", "opening_hours": "24/7", "operator": "Regional Health", "phone": "+1 605 673 9400", "website": "https://www.regionalhealth.com/Our-Locations/Regional-Hospitals/Custer-Regional-Hospital.aspx"}}, {"type": "way", "id": 596164396, "center": {"lat": 43.0239883, "lon": -102.5412905}, "nodes": [5680035373, 5680035372, 5680035371, 5680035370, 5680035369, 5680035368, 5680035367, 5680035366, 5680035365, 5680035364, 5680035363, 5680035354, 5680035362, 5680035361, 5680035360, 5680035359, 5680035358, 5680035357, 5680035356, 5680035355, 5680035373], "tags": {"addr:city": "Pine Ridge", "addr:postcode": "57770", "addr:street": "East Highway 18", "amenity": "hospital", "beds": "45", "emergency": "yes", "healthcare": "hospital", "name": "Pine Ridge Hospital", "opening_hours": "24/7", "operator": "Indian Health Service", "operator:short": "IHS", "operator:wikidata": "Q6020429", "operator:wikipedia": "en:Indian Health Service", "phone": "+1 605 867 5131", "website": "https://www.ihs.gov/greatplains/healthcarefacilities/pineridge/"}}, {"type": "way", "id": 605265922, "center": {"lat": 41.6027999, "lon": -109.2465824}, "nodes": [5741066876, 5741066875, 5741066826, 5741066862, 5741066863, 5741066874, 5741066873, 5741066872, 5741066871, 5741066870, 5741066869, 5741066868, 5741066867, 5741066866, 5741066865, 5741066864, 5741066876], "tags": {"addr:city": "Rock Springs", "addr:housenumber": "4401", "addr:postcode": "82901", "addr:street": "College Drive", "amenity": "hospital", "beds": "16", "emergency": "no", "healthcare": "hospital", "name": "Aspen Mountain Medical Center", "phone": "+1 307 352 8900", "website": "https://aspenmountainmc.com/"}}, {"type": "way", "id": 605274206, "center": {"lat": 42.8407659, "lon": -106.2257847}, "nodes": [5741126090, 5741126089, 5741126088, 5741126087, 5741126086, 5741126085, 5741126084, 5741126083, 5741126082, 5741126081, 5741126080, 5741126079, 5741126078, 5741126090], "tags": {"addr:city": "Casper", "addr:housenumber": "6550", "addr:postcode": "82609", "addr:street": "East 2nd Street", "amenity": "hospital", "emergency": "no", "healthcare": "hospital", "name": "Wyoming Medical Center East Campus", "old_name": "Mountain View Regional Hospital", "operator": "Wyoming Medical Center", "phone": "+1 307 995 8100", "website": "https://wyomingmedicalcenter.org/"}}, {"type": "way", "id": 605274211, "center": {"lat": 42.841649, "lon": -106.2309695}, "nodes": [5741126095, 5741126094, 5741126093, 5741126092, 5741126091, 5741126095], "tags": {"addr:city": "Casper", "addr:housenumber": "6350", "addr:postcode": "82609", "addr:street": "East 2nd Street", "amenity": "hospital", "beds": "16", "emergency": "yes", "healthcare": "hospital", "name": "Summit Medical Center", "note": "Helipad at Wyoming Medical Center East Campus 600m east", "opening_hours": "24/7", "phone": "+1 307 232 6600", "website": "https://summitmedicalcasper.com/"}}, {"type": "way", "id": 622546156, "center": {"lat": 40.0570321, "lon": -106.3906468}, "nodes": [6384717154, 6384717153, 6384717152, 6384717155, 6384717154], "tags": {"addr:city": "Kremmling", "addr:housenumber": "214", "addr:postcode": "80459", "addr:state": "CO", "addr:street": "4th Street", "amenity": "hospital", "emergency": "yes", "fixme": "facility needs to be updated with recent imagery", "gnis:feature_id": "2043326", "healthcare": "hospital", "name": "Middle Park Medical Center", "old_name": "Kremmling Memorial Hospital", "opening_hours": "24/7", "phone": "+1 970 724 3442", "website": "https://mpmc.org/"}}, {"type": "way", "id": 681778936, "center": {"lat": 40.2556413, "lon": -103.6493223}, "nodes": [6384784236, 6384784235, 6384784234, 6384784233, 6384784232, 6384784231, 6384784230, 6384784229, 6384784228, 6384784226, 6384784225, 6384784224, 6384784223, 6384784222, 6384784221, 6384784220, 6384784219, 6384784218, 6384784217, 6384784216, 6384784215, 6384784214, 6384784213, 6384784212, 6384784211, 6384784210, 6384784209, 6384784208, 6384784207, 6384784206, 6384784205, 6384784204, 6384784203, 6384784202, 6384784201, 6384784200, 6384784236], "tags": {"addr:city": "Brush", "addr:housenumber": "2400", "addr:postcode": "80723", "addr:state": "CO", "addr:street": "Edison Street", "amenity": "hospital", "beds": "25", "building": "hospital", "emergency": "yes", "healthcare": "hospital", "name": "East Morgan County Hospital", "opening_hours": "24/7", "operator": "Banner Health", "phone": "+1 970 842 6200", "website": "https://www.bannerhealth.com/locations/brush/east-morgan-county-hospital"}}, {"type": "way", "id": 743740175, "center": {"lat": 48.4026689, "lon": -102.934379}, "nodes": [6960845811, 6960845810, 6960845809, 357764908, 6960845808, 6960845807, 6960845806, 6960845805, 6960845804, 6960845803, 6960845802, 6960845801, 6960845800, 6960845811], "tags": {"addr:city": "Tioga", "addr:housenumber": "810", "addr:postcode": "58852", "addr:street": "Welo Street", "amenity": "hospital", "emergency": "yes", "gnis:feature_id": "1034103", "name": "Tioga Medical Center", "phone": "+1 701 664 3305", "website": "https://www.tiogahealth.org/"}}, {"type": "way", "id": 834068029, "center": {"lat": 47.0563466, "lon": -109.4258056}, "nodes": [7785994266, 7785994272, 7785994273, 7785994274, 7785994275, 7785994276, 7785994277, 7785994278, 7785994279, 7785994280, 7785994281, 7786025941, 7785994282, 7681529795, 7681529794, 7681529793, 7785994266], "tags": {"amenity": "hospital", "healthcare": "hospital"}}, {"type": "way", "id": 839980719, "center": {"lat": 47.0491165, "lon": -109.4290258}, "nodes": [7681504572, 7838281994, 7838281993, 7838281992, 7821614596, 7760051696, 7760051697, 7681504572], "tags": {"amenity": "hospital", "healthcare": "hospital"}}, {"type": "way", "id": 844469310, "center": {"lat": 46.4538443, "lon": -108.5456489}, "nodes": [357932468, 7877343162, 7877343163, 7877343164, 7877343165, 357932468], "tags": {"addr:city": "Roundup", "addr:housenumber": "1202", "addr:postcode": "59072", "addr:street": "3rd Street West", "amenity": "hospital", "emergency": "yes", "gnis:feature_id": "778774", "healthcare": "hospital", "name": "Roundup Memorial Healthcare", "opening_hours": "24/7", "phone": "+1 406 323 2301", "source": "Esri beta", "website": "https://rmhmt.org/"}}, {"type": "way", "id": 915149599, "center": {"lat": 47.8036417, "lon": -103.2707569}, "nodes": [8500942333, 8500942330, 8500942328, 8500942327, 8500942325, 8500942326, 8500942329, 8500942322, 8500942324, 8500942323, 8500942331, 8500942332, 8500942333], "tags": {"addr:city": "Watford City", "addr:housenumber": "709", "addr:postcode": "58854", "addr:state": "ND", "addr:street": "4th Avenue Northeast", "amenity": "hospital", "contact:fax": "(701) 842-6248", "contact:phone": "(701) 842-3000", "name": "McKenzie County Hospital", "operator": "McKenzie County Healthcare Systems", "url": "https://www.mckenziehealth.com/"}}, {"type": "way", "id": 930835812, "center": {"lat": 48.4825637, "lon": -108.7641378}, "nodes": [8630618147, 8630634265, 8630618148, 8630618149, 8630618150, 8630618147], "tags": {"amenity": "hospital", "healthcare": "hospital", "healthcare:speciality": "general", "name": "EMS BARN"}}, {"type": "way", "id": 983876628, "center": {"lat": 40.0557429, "lon": -101.5379062}, "nodes": [9097563150, 9097563151, 9097563152, 9097563153, 9097563154, 9097563155, 9097563156, 9097563157, 9097563158, 9097563159, 9097563160, 9097563161, 9097563162, 9097563163, 9097563164, 9097563150], "tags": {"amenity": "hospital", "healthcare": "hospital", "name": "Dundy County Hospital"}}, {"type": "way", "id": 1046211772, "center": {"lat": 40.3910085, "lon": -104.7901327}, "nodes": [9621173207, 9621173208, 9621173209, 9621173210, 9621173211, 9621173213, 9621173214, 9621173216, 9621209017, 9621209018, 9621209019, 9621209020, 9621209021, 9621209022, 9621209023, 9621209024, 9621209025, 9621209026, 9621209028, 9621209029, 9621209030, 9621209031, 9621209032, 9621209033, 9621209034, 9621209035, 9621209036, 9621209037, 9621209038, 9621209039, 9621209040, 9621209041, 9621209042, 9621209043, 9621209044, 9621209045, 9621209046, 9621209047, 9621209048, 9621209049, 9621209050, 9621209051, 9621209052, 9621209053, 9621209054, 9621209055, 9621209056, 9621209057, 9621209058, 9621209059, 9621209060, 11143602465, 11143605149, 9621209062, 9621209063, 11143605150, 11143602464, 9621209064, 9621209065, 9621209066, 9621209067, 9621209068, 9621209069, 9621209070, 9621209071, 9621209072, 9621209073, 9621209074, 9621209075, 11143605154, 11143605142, 9621209076, 9621209077, 11143605143, 11143605153, 9621209078, 9621209079, 9621209080, 9621209081, 11143602462, 11143605134, 9621209082, 9621209083, 11143605133, 11143605156, 11143602463, 9621209084, 9621173207], "tags": {"addr:city": "Greeley", "addr:housenumber": "6767", "addr:postcode": "80634", "addr:state": "CO", "addr:street": "West 29th Street", "amenity": "hospital", "building": "yes", "healthcare": "hospital", "name": "UCHealth Greeley Hospital"}}, {"type": "way", "id": 1090826321, "center": {"lat": 45.7433601, "lon": -108.605012}, "nodes": [9991247415, 9991247416, 9991316617, 9991316618, 9991316619, 9991316620, 9991316621, 9991316622, 9991316623, 9991316624, 9991316625, 9991316626, 9991316627, 9991247415], "tags": {"addr:city": "Billings", "addr:housenumber": "3528", "addr:postcode": "59102", "addr:state": "MT", "addr:street": "Gabel Road", "amenity": "hospital", "healthcare": "hospital", "name": "Advanced Care Hospital of Montana", "website": "https://www.achm.ernesthealth.com/"}}, {"type": "way", "id": 1128001472, "center": {"lat": 49.903224, "lon": -109.4885948}, "nodes": [10312974802, 10312974775, 10312974774, 10312974803, 10312974804, 10312974805, 10312974806, 10312974802], "tags": {"amenity": "hospital", "healthcare": "hospital", "name": "Southwest Integrated Healthcare Facility"}}, {"type": "way", "id": 1135309752, "center": {"lat": 49.8742488, "lon": -106.5633745}, "nodes": [10582886714, 10582886654, 10582886655, 10582886715, 10582886716, 10582886714], "tags": {"amenity": "hospital", "healthcare": "hospital", "name": "St Joseph's Hospital"}}, {"type": "way", "id": 1135423700, "center": {"lat": 49.6286031, "lon": -105.9836365}, "nodes": [848200417, 10584055179, 10584055180, 10584055181, 848200417], "tags": {"amenity": "hospital", "healthcare": "hospital"}}, {"type": "way", "id": 1135423722, "center": {"lat": 49.6464329, "lon": -104.6617556}, "nodes": [10584057830, 10584057831, 10584057832, 10584057833, 10584057830], "tags": {"amenity": "hospital", "healthcare": "hospital"}}, {"type": "way", "id": 1135423728, "center": {"lat": 49.4634425, "lon": -104.3056577}, "nodes": [10584057857, 10584057858, 10584057859, 10584057860, 10584057857], "tags": {"amenity": "hospital", "healthcare": "hospital", "name": "Radville Marian Health Centre"}}, {"type": "way", "id": 1135797063, "center": {"lat": 49.4191144, "lon": -107.0702725}, "nodes": [1752757782, 10587665583, 10587665584, 10587665585, 10587665586, 10587665587, 1752757782], "tags": {"amenity": "hospital", "healthcare": "hospital", "source": "NRCan-CanVec-10.0"}}, {"type": "way", "id": 1149752633, "center": {"lat": 48.1943945, "lon": -101.3285086}, "nodes": [10695760852, 10695760853, 10695760854, 10695760855, 10695760856, 10904626094, 10904626093, 10695760857, 10695760858, 10695760859, 10695760860, 10695760861, 10695760862, 10695760863, 10695760852], "tags": {"amenity": "hospital", "healthcare": "hospital"}}, {"type": "way", "id": 1157762824, "center": {"lat": 41.1218238, "lon": -100.770696}, "nodes": [10766997172, 10766997163, 10766997162, 10766997161, 10766997160, 10766997159, 10766997158, 10766997157, 10766997156, 10766997155, 10766997154, 10766997153, 10766997152, 10766997151, 10766997150, 10766997149, 10766997148, 10766997147, 10766997086, 10766997083, 10766997146, 10766997145, 10766997144, 10766997143, 10766997142, 10766997141, 10766997140, 10766997139, 10766997138, 10766997082, 10766997137, 10766997136, 10766997135, 10766997134, 10766997133, 10766997132, 10766997131, 10766997130, 10766997129, 10766997128, 10766997127, 10766997126, 10766997125, 10766997124, 10766997123, 10766997122, 10766997121, 10766997120, 10766997119, 10766997118, 10766997117, 10766997116, 10766997115, 10766997114, 10766997113, 10766997112, 10766997018, 10766997111, 10766997019, 10766997110, 10766997109, 10766997108, 10766997107, 10766997106, 10766997105, 10766997104, 10766997103, 10766997102, 10766997101, 10766997100, 10766997099, 10766997098, 10766997097, 10766997096, 10766997095, 10766997094, 10766997093, 10766997092, 10766997172], "tags": {"amenity": "hospital", "building": "hospital"}}, {"type": "way", "id": 1193310697, "center": {"lat": 46.878686, "lon": -102.8096087}, "nodes": [11076776180, 11076776181, 11076776182, 11076776183, 11076776184, 11104137538, 11076776185, 11076776180], "tags": {"amenity": "hospital", "building": "yes", "healthcare": "hospital", "operator": "Sanford Health", "operator:wikidata": "Q7417625"}}, {"type": "relation", "id": 1335484, "center": {"lat": 49.1920516, "lon": -100.4989422}, "members": [{"type": "way", "ref": 90953262, "role": "outer"}, {"type": "way", "ref": 90953996, "role": "inner"}], "tags": {"amenity": "hospital", "attribution": "2001 Her Majesty the Queen in Right of Manitoba, as represented by the Minister of Conservation. All rights reserved.", "building": "yes", "source": "Manitoba Lands Initiative", "type": "multipolygon"}}, {"type": "relation", "id": 4045879, "center": {"lat": 44.4985875, "lon": -103.8606011}, "members": [{"type": "way", "ref": 164454903, "role": "outer"}, {"type": "way", "ref": 303667259, "role": "outer"}, {"type": "way", "ref": 302492189, "role": "outer"}, {"type": "way", "ref": 1110147588, "role": "outer"}, {"type": "way", "ref": 303667256, "role": "outer"}, {"type": "way", "ref": 1110147587, "role": "outer"}, {"type": "way", "ref": 301191431, "role": "outer"}, {"type": "way", "ref": 464841505, "role": "outer"}, {"type": "way", "ref": 293433264, "role": "outer"}, {"type": "way", "ref": 303667262, "role": "outer"}, {"type": "way", "ref": 303667261, "role": "outer"}], "tags": {"addr:city": "Spearfish", "addr:housenumber": "1440", "addr:postcode": "57783", "addr:street": "North Main Street", "alt_name": "Regional Health Spearfish Hospital", "amenity": "hospital", "beds": "40", "emergency": "yes", "healthcare": "hospital", "name": "Spearfish Regional Hospital", "opening_hours": "24/7", "operator": "Regional Health", "phone": "+1 605 644 4000", "type": "multipolygon", "website": "https://www.regionalhealth.com/location/regional-health-spearfish-hospital"}}, {"type": "relation", "id": 13617220, "center": {"lat": 40.5216029, "lon": -105.0343594}, "members": [{"type": "way", "ref": 470097846, "role": "outer"}, {"type": "way", "ref": 1016945196, "role": "outer"}], "tags": {"amenity": "hospital", "emergency": "yes", "healthcare": "hospital", "name": "UC Health Harmony Campus", "operator": "UC Health", "operator:type": "private", "type": "multipolygon"}}]}