{"version": 0.6, "generator": "Overpass API 0.7.61.5 4133829e", "osm3s": {"timestamp_osm_base": "2023-10-31T20:58:45Z", "copyright": "The data included in this document is from www.openstreetmap.org. The data is made available under ODbL."}, "elements": [{"type": "node", "id": 35722048, "lat": 45.5728964, "lon": -62.6433142, "tags": {"addr:city": "New Glasgow", "addr:housenumber": "875", "addr:postcode": "B2H 3S6", "addr:street": "East River Road", "amenity": "hospital", "emergency": "yes", "name": "Aberdeen Hospital", "name:en": "Aberdeen Hospital", "opening_hours": "24/7", "operator": "NSHA", "phone": "+1 902-752-7600", "toilets:wheelchair": "yes", "website": "https://nshealth.ca/locations-details/Aberdeen%20Hospital", "wheelchair": "yes"}}, {"type": "node", "id": 358211277, "lat": 44.8178848, "lon": -68.741553, "tags": {"addr:city": "Bangor", "addr:housenumber": "656", "addr:postcode": "04401", "addr:state": "ME", "addr:street": "State Street", "amenity": "hospital", "beds": "100", "building": "hospital", "emergency": "no", "gnis:feature_id": "561560", "healthcare": "hospital", "healthcare:speciality": "psychiatry", "name": "Dorothea Dix Phychiatric Center", "old_name": "Bangor State Hospital", "phone": "+1-207-941-4000", "website": "https://www.maine.gov/dhhs/DDPC/", "wikidata": "Q22966878", "wikipedia": "en:Dorothea Dix Psychiatric Center"}}, {"type": "node", "id": 358229036, "lat": 43.9063272, "lon": -69.890184, "tags": {"addr:city": "Brunswick", "addr:housenumber": "123", "addr:postcode": "04011", "addr:state": "ME", "addr:street": "Medical Center Drive", "amenity": "hospital", "ele": "13", "emergency": "yes", "gnis:feature_id": "1907831", "healthcare": "hospital", "name": "Mid Coast Hospital", "phone": "+1-207-373-6000", "website": "http://www.midcoasthealth.com/", "wheelchair": "yes", "wikidata": "Q6840946", "wikipedia": "en:Mid Coast Hospital"}}, {"type": "node", "id": 469440380, "lat": 45.0403498, "lon": -63.1403411, "tags": {"addr:city": "Middle Musquodoboit", "addr:housenumber": "492", "addr:postcode": "B0N 1X0", "addr:province": "Nova Scotia", "addr:street": "Archibald Brook Road", "amenity": "hospital", "name": "Musquodoboit Valley Memorial Hospital", "operator": "Nova Scotia Health Authority", "phone": "+1 902-384-2220", "website": "https://www.nshealth.ca/locations-details/Musquodoboit%20Valley%20Memorial%20Hospital"}}, {"type": "node", "id": 763516968, "lat": 44.0375268, "lon": -64.7056342, "tags": {"amenity": "hospital"}}, {"type": "node", "id": 931251913, "lat": 43.7492064, "lon": -65.3097898, "tags": {"addr:city": "Shelburne", "addr:housenumber": "1606", "addr:postbox": "610", "addr:postcode": "B0T 1W0", "addr:province": "Nova Scotia", "addr:street": "Lake Road", "amenity": "hospital", "name": "Roseway Hospital", "phone": "+1 902-875-3011", "phone:patients": "+1 902-875-2696", "website": "https://www.nshealth.ca/locations-details/Roseway%20Hospital"}}, {"type": "node", "id": 1261202131, "lat": 45.9326378, "lon": -65.1711608, "tags": {"amenity": "hospital", "building": "yes", "emergency": "no", "name": "Petitcodiac Health Centre", "source": "NRCan-CanVec-7.0"}}, {"type": "node", "id": 1317530640, "lat": 46.810464, "lon": -60.3336982, "tags": {"addr:city": "Neils Harbour", "addr:housenumber": "32610", "addr:postcode": "B0C 1N0", "addr:street": "Cabot Trail", "amenity": "hospital", "name": "Buchanan Memorial Community Health Centre", "phone": "+1 902-336-2200", "website": "https://www.nshealth.ca/locations-details/Buchanan%20Memorial%20Community%20Health%20Centre"}}, {"type": "node", "id": 1387959521, "lat": 45.2540138, "lon": -66.1269178, "tags": {"amenity": "hospital", "healthcare": "hospital", "healthcare:speciality": "psychiatry", "name": "Centracare", "operator": "Horizon Health Network"}}, {"type": "node", "id": 1732041983, "lat": 45.9392605, "lon": -66.6544122, "tags": {"amenity": "hospital", "emergency": "yes", "healthcare": "hospital", "name": "Dr. Everett Chalmers Hospital Emergency Room", "source": "survey", "wheelchair": "yes"}}, {"type": "node", "id": 2436056339, "lat": 45.1468764, "lon": -61.9818177, "tags": {"amenity": "hospital", "building": "yes", "source": "NRCan-CanVec-10.0"}}, {"type": "node", "id": 2493319871, "lat": 45.3461894, "lon": -64.7947624, "tags": {"amenity": "hospital", "building": "yes", "name": "Bayview Memorial Health Care Centre", "source": "NRCan-CanVec-10.0"}}, {"type": "node", "id": 2899379544, "lat": 49.4196781, "lon": -67.3028942, "tags": {"amenity": "hospital", "name": "Centre de Sant\u00e9e et de services sociaux Manicouagan - CLSC Corrine-Vall\u00e9e-Therrien"}}, {"type": "node", "id": 3107713210, "lat": 45.6285349, "lon": -61.9823768, "tags": {"amenity": "hospital", "emergency": "yes", "name": "St Martha's Regional Hospital"}}, {"type": "node", "id": 3499170879, "lat": 45.0929965, "lon": -63.3916752, "tags": {"amenity": "hospital"}}, {"type": "node", "id": 3865388649, "lat": 45.0671247, "lon": -63.713291, "tags": {"addr:city": "Upper Rawdon", "addr:housenumber": "3889", "addr:postcode": "B0N 2N0", "addr:province": "Nova Scotia", "addr:street": "Highway 14", "amenity": "hospital", "emergency": "no", "name": "Rawdon Hills Health Centre"}}, {"type": "node", "id": 4408735964, "lat": 44.2998261, "lon": -69.7700831, "tags": {"addr:city": "Augusta", "addr:housenumber": "250", "addr:postcode": "04330", "addr:state": "ME", "addr:street": "Arsenal Street", "amenity": "hospital", "emergency": "no", "healthcare": "hospital", "name": "Riverview Psychiatric Center", "phone": "+1-207-624-3900", "website": "https://www.maine.gov/dhhs/riverview/", "wikidata": "Q7338768", "wikipedia": "en:Riverview Psychiatric Center"}}, {"type": "node", "id": 5549289222, "lat": 44.9207756, "lon": -62.5327695, "tags": {"addr:city": "Sheet Harbour", "addr:housenumber": "22637", "addr:postcode": "B0J 3B0", "addr:province": "Nova Scotia", "addr:street": "Highway 7", "amenity": "hospital", "healthcare": "hospital", "name": "Eastern Shore Memorial Hospital", "operator": "Nova Scotia Health Authority", "phone": "+1 902-885-2554", "website": "https://www.nshealth.ca/locations-details/Eastern%20Shore%20Memorial%20Hospital"}}, {"type": "node", "id": 7185034853, "lat": 44.8470606, "lon": -68.7414226, "tags": {"addr:city": "Bangor", "addr:housenumber": "73", "addr:postcode": "04401", "addr:state": "ME", "addr:street": "Ridgewood Drive", "amenity": "hospital", "fixme": "Imagery not available on google maps, or bing maps. Will need to swing by and figure it out, or someone else can if they are in the area", "healthcare": "hospital", "name": "Downeast Surgery Center"}}, {"type": "node", "id": 7252085492, "lat": 44.6370974, "lon": -63.5833733, "tags": {"addr:city": "Halifax", "addr:district": "7", "addr:housenumber": "5981", "addr:province": "Nova Scotia", "addr:street": "South Street", "amenity": "hospital", "emergency": "yes", "healthcare": "hospital", "healthcare:speciality": "emergency", "name": "Children's Emergency", "phone": "+1 902-470-8050", "phone:poison": "+1 800-565-8161"}}, {"type": "node", "id": 7779697254, "lat": 44.7829962, "lon": -63.1582526, "tags": {"addr:housenumber": "7704", "addr:postcode": "B0J 2L0", "addr:province": "Nova Scotia", "addr:street": "Highway 7", "amenity": "hospital", "emergency": "yes", "healthcare": "hospital", "name": "Twin Oaks Memorial Hospital", "phone": "+1 902-889-2200 \"Administration\"; +1 902-889-2420 \"Patients\"", "website": "https://www.nshealth.ca/locations-details/Twin%20Oaks%20Memorial%20Hospital"}}, {"type": "node", "id": 8155326734, "lat": 44.654127, "lon": -63.5481972, "tags": {"amenity": "hospital", "emergency": "yes", "healthcare": "hospital", "healthcare:speciality": "emergency", "level": "3", "name": "Emergency", "wheelchair": "yes"}}, {"type": "node", "id": 10892337200, "lat": 44.5902024, "lon": -68.4335906, "tags": {"addr:city": "Ellsworth", "addr:housenumber": "16", "addr:postcode": "04605", "addr:state": "ME", "addr:street": "Kids Peace Way", "amenity": "hospital", "healthcare": "hospital", "healthcare:speciality": "psychiatry", "name": "Kidspeace National Centers Of New England", "phone": "+1 207 667 0909", "website": "https://www.kidspeace.org"}}, {"type": "node", "id": 11203418148, "lat": 47.3755551, "lon": -61.8687518, "tags": {"addr:city": "Cap-aux-Meiles", "addr:housenumber": "430", "addr:postcode": "G4T 1R9", "addr:street": "Chemin Principal", "amenity": "hospital", "name": "H\u00f4pital de l'Archipel", "operator": "MSSS", "phone": "+1 418-986-2121", "website": "https://www.cisssdesiles.com/"}}, {"type": "way", "id": 3813356, "center": {"lat": 44.645306, "lon": -63.5872607}, "nodes": [3118584903, 3118584912, 6638317547, 6638317546, 3118584916, 3118584915, 6638317548, 6638317549, 3118584907, 3118584904, 6638317550, 19120615, 3230009880, 3230007560, 3230007542, 19120613, 3107674264, 6522047827, 3107674252, 5543029733, 5543029732, 19120611, 6522047836, 3107674284, 19120617, 3118584903], "tags": {"amenity": "hospital", "emergency": "yes", "healthcare": "hospital", "name": "Halifax Infirmary", "operator": "Queen Elizabeth II Health Sciences Centre", "wheelchair": "yes"}}, {"type": "way", "id": 35046785, "center": {"lat": 45.9387952, "lon": -66.6537306}, "nodes": [4738015224, 4738015223, 4738015222, 1254554001, 4738015221, 4738014019, 4738014020, 4738015225, 4738015226, 1180894320, 5465398407, 51309492, 32634767, 1268338388, 5465487551, 6506577967, 5465535359, 5465527848, 5465527849, 7341004446, 980013526, 6506577972, 6506577969, 6506577970, 5465527885, 6506577971, 5465527850, 411060658, 5465527854, 411060659, 1728970202, 411060661, 411060662, 5465513195, 5465513194, 1290245898, 51307790, 4738015224], "tags": {"addr:street": "Priestman Street", "amenity": "hospital", "emergency": "yes", "healthcare": "hospital", "name": "Dr. Everett Chalmers Regional Hospital", "source": "Bing", "wheelchair": "yes", "wikidata": "Q5304077"}}, {"type": "way", "id": 39754741, "center": {"lat": 44.5654327, "lon": -69.6462036}, "nodes": [476623684, 476623686, 476623688, 476623696, 476623699, 476623702, 476623707, 476623710, 476623713, 476623716, 476623718, 476623721, 476623723, 476623726, 476623684], "tags": {"addr:city": "Waterville", "addr:housenumber": "149", "addr:postcode": "04901", "addr:street": "North Street", "amenity": "hospital", "emergency": "yes", "healthcare": "hospital", "name": "Thayer Center for Health", "operator": "MaineGeneral Medical Center", "phone": "+1-207-872-1000", "website": "https://www.mainegeneral.org/Pages/Find-a-Location/Thayer%20Center%20for%20Health.aspx"}}, {"type": "way", "id": 70587389, "center": {"lat": 44.6377282, "lon": -63.5836986}, "nodes": [842337310, 3028718099, 842338096, 3028460763, 3028460762, 842337602, 842338371, 5960465972, 842337881, 842337408, 842337310], "tags": {"addr:city": "Halifax", "addr:housenumber": "5850/5980", "addr:street": "University Avenue", "amenity": "hospital", "emergency": "yes", "healthcare": "hospital", "healthcare:speciality": "paediatrics", "name": "IWK Health Centre", "source": "CanVec 6.0 - NRCan", "toilets:wheelchair": "yes", "wheelchair": "yes", "wikidata": "Q14875689", "wikipedia": "en:IWK Health Centre"}}, {"type": "way", "id": 73321676, "center": {"lat": 45.5856744, "lon": -67.3347395}, "nodes": [869708475, 869710756, 869710862, 869714783, 869708475], "tags": {"amenity": "hospital", "building": "yes", "emergency": "no", "name": "McAdam Health Centre", "source": "CanVec 6.0 - NRCan"}}, {"type": "way", "id": 77402854, "center": {"lat": 45.4023533, "lon": -61.5071217}, "nodes": [911059462, 911077959, 2972219045, 2972219044, 2972219043, 2972219042, 2972219041, 2972219036, 10966506678, 10966506680, 10966506681, 10966506679, 2972219040, 2972219039, 2972219037, 2972219038, 911055872, 911068650, 2972219035, 911069955, 911082113, 911068892, 911077768, 911059462], "tags": {"addr:city": "Guysborough", "addr:housenumber": "10560", "addr:postcode": "B0H 1N0", "addr:province": "Nova Scotia", "addr:street": "Highway 16", "amenity": "hospital", "building": "yes", "emergency": "yes", "healthcare": "hospital", "name": "Guysborough Memorial Hospital", "phone": "+1 902-533-3702", "source": "CanVec 6.0 - NRCan", "website": "https://www.nshealth.ca/locations-details/Guysborough%20Memorial%20Hospital"}}, {"type": "way", "id": 105595676, "center": {"lat": 46.2399417, "lon": -60.085764}, "nodes": [1215965667, 1215965531, 1215962032, 1215967531, 1215960235, 1215961684, 1215965275, 1215967489, 1215959935, 1215961979, 1215965640, 1215956729, 1215965667], "tags": {"amenity": "hospital", "building": "yes", "name": "New Waterford Consolidated Hospital", "source": "NRCan-CanVec-7.0"}}, {"type": "way", "id": 116519823, "center": {"lat": 45.0629741, "lon": -66.7856029}, "nodes": [1313329059, 1313324335, 1313325347, 1313324593, 1313323208, 1313323930, 1313332179, 1313324776, 1313329059], "tags": {"amenity": "hospital", "building": "yes", "emergency": "no", "name": "Fundy Health Centre", "source": "NRCan-CanVec-7.0"}}, {"type": "way", "id": 117019339, "center": {"lat": 44.7622244, "lon": -66.7639272}, "nodes": [5032463048, 1318030676, 1318033492, 1318035004, 1318036465, 1318033489, 1318031526, 1318034551, 1318031323, 5032463050, 5032463048], "tags": {"amenity": "hospital", "building": "yes", "emergency": "yes", "healthcare": "hospital", "name": "Grand Manan Hospital", "source": "NRCan-CanVec-7.0"}}, {"type": "way", "id": 142952019, "center": {"lat": 48.3548126, "lon": -64.671661}, "nodes": [1564158138, 4732278534, 4732278535, 1564158462, 4732278526, 4732278524, 4732278525, 4732278527, 1564158687, 1564158635, 4732278528, 4732278529, 1564158742, 4732278530, 4732278531, 4732278532, 4732278533, 1564158418, 1564158296, 1564158370, 1564158138], "tags": {"addr:city": "Chandler", "addr:housenumber": "451", "addr:postcode": "G0C 1K0", "addr:street": "Rue Mgr Ross Est", "amenity": "hospital", "building": "hospital", "healthcare": "hospital", "name": "H\u00f4pital de Chandler", "phone": "+1-418-689-2261", "website": "http://csssrocherperce.org/", "wheelchair": "yes"}}, {"type": "way", "id": 149812959, "center": {"lat": 45.8922263, "lon": -64.3732397}, "nodes": [1627561687, 3785444875, 3785444874, 3785444873, 3785444872, 1627561705, 3785444898, 3785444897, 1627561722, 3785444896, 3785444895, 1627561729, 3785444894, 3785444893, 3785444892, 3785444891, 3785444890, 3785444889, 3785444888, 3785444887, 3785444886, 3785444885, 3785444884, 3785444883, 1627561718, 1627561703, 3785444882, 3785444881, 3785444880, 3785444879, 3785444878, 3785444877, 1627561707, 1627561690, 1627561688, 3785444876, 1627561672, 1627561687], "tags": {"addr:city": "Sackville", "addr:housenumber": "8", "addr:postcode": "E4L 4A3", "addr:street": "Main Street", "amenity": "hospital", "building": "yes", "emergency": "yes", "healthcare": "hospital", "name": "Sackville Memorial Hospital", "phone": "+1-506-364-4100", "source": "NRCan-CanVec-8.0", "website": "http://en.horizonnb.ca/home/facilities-and-services/facilities/sackville-memorial-hospital.aspx", "wikidata": "Q7396859", "wikipedia": "en:Sackville Memorial Hospital"}}, {"type": "way", "id": 151799670, "center": {"lat": 46.8908548, "lon": -67.3978068}, "nodes": [1646441033, 1646441131, 1646441137, 1646441130, 1646441135, 1646441125, 1646441117, 1646441062, 1646441033], "tags": {"amenity": "hospital", "building": "yes", "emergency": "no", "name": "Tobique Valley Community Health Centre", "source": "NRCan-CanVec-8.0"}}, {"type": "way", "id": 152174463, "center": {"lat": 47.7947113, "lon": -64.9385248}, "nodes": [1650049035, 5476624241, 5476624242, 1650049150, 5476624243, 5476624244, 1650049182, 1650049320, 1650049257, 5476640130, 1650049491, 4906930160, 4906930161, 4906930162, 4906930163, 5476623509, 5476623510, 5476623511, 5476623512, 5476623515, 5476623516, 5476623517, 5476623518, 5476623514, 5476623513, 5476624221, 5476623520, 5476623519, 4906930164, 4906930165, 5476624222, 5476624223, 5476624224, 5476624225, 5476624226, 5476639783, 4906930166, 4906930167, 4906930169, 4906930159, 1650049670, 1650049510, 1650049442, 1650049342, 1650049438, 5476624227, 5476624228, 1650049157, 5476624233, 5476624315, 5476624234, 5476640149, 5476624235, 5476624316, 5476624232, 5476624231, 5476624230, 5476624229, 5476624236, 5476624237, 5476624317, 5476624239, 5476624240, 5476624318, 5476639804, 5476624238, 1650049035], "tags": {"amenity": "hospital", "building": "yes", "emergency": "yes", "name": "L'H\u00f4pital de l'Enfant-J\u00e9sus de Caraquet", "operator": "Vitalit\u00e9", "source": "NRCan-CanVec-8.0"}}, {"type": "way", "id": 153285006, "center": {"lat": 46.558381, "lon": -64.7819587}, "nodes": [1659926287, 1659926342, 1659926341, 1659926316, 1659926313, 1659926285, 1659926287], "tags": {"amenity": "hospital", "building": "yes", "name": "H\u00f4pital Stella-Maris-de-Kent", "name:en": "Stella-Maris-de-Kent Hospital", "source": "NRCan-CanVec-8.0", "wikidata": "Q19604565"}}, {"type": "way", "id": 162154565, "center": {"lat": 45.0876487, "lon": -64.3708119}, "nodes": [1740899366, 1740899371, 1740899374, 1740899369, 1740899366], "tags": {"addr:city": "Wolfville", "addr:province": "Nova Scotia", "amenity": "hospital", "building": "yes", "emergency": "no", "name": "Eastern Kings Memorial Community Health Centre"}}, {"type": "way", "id": 162624424, "center": {"lat": 46.1128947, "lon": -60.174454}, "nodes": [1744924545, 1744925327, 10900953799, 10900953795, 10900953784, 10900953792, 10900953735, 1744927605, 1744926889, 1744926277, 1744926003, 1744924545], "tags": {"addr:housenumber": "1482", "addr:postcode": "B1P 1P3", "addr:street": "George Street", "amenity": "hospital", "building": "yes", "healthcare": "hospital", "name": "Cape Breton Regional Hospital", "phone": "+1 902-567-8000", "website": "https://www.nshealth.ca/locations-details/Cape%20Breton%20Regional%20Hospital", "wikidata": "Q5034616", "wikipedia": "en:Cape Breton Regional Hospital"}}, {"type": "way", "id": 163447293, "center": {"lat": 45.2788074, "lon": -66.057676}, "nodes": [1751402353, 1751402361, 1751402325, 1751402328, 1751402326, 2043861821, 8305400018, 1751402318, 1751402315, 1751402308, 2043861717, 2012655189, 2012655188, 2012655187, 2012655186, 1751402297, 1751402302, 1751402300, 1751402304, 1751402306, 1751402316, 1751402312, 1751402310, 1751402309, 1751402307, 1751402305, 1751402311, 1751402313, 1751402317, 1751402321, 1751402322, 1751402323, 1751402329, 1751402324, 1751402330, 1751402333, 1751402336, 1751402362, 1751402365, 1751402353], "tags": {"addr:city": "Saint john", "addr:housenumber": "130", "addr:postcode": "E2L 3L6", "addr:street": "Bayard Drive", "amenity": "hospital", "building": "hospital", "building:levels": "7", "emergency": "no", "healthcare": "hospital", "name": "Saint Joseph's Hospital", "operator": "Horizon Health Network", "wheelchair": "yes"}}, {"type": "way", "id": 165452535, "center": {"lat": 47.7917889, "lon": -64.6528501}, "nodes": [1769910465, 4931787742, 1769910487, 1769910485, 1769910493, 1769910492, 1769910539, 1769910540, 1769910552, 4931787741, 4931787740, 1769910532, 1769910496, 1769910495, 1769910475, 4931787747, 4931787746, 4931787745, 4931787744, 4931787743, 1769910465], "tags": {"addr:housenumber": "29", "addr:street": "Rue de l'H\u2320pital", "amenity": "hospital", "building": "yes", "name": "H\u00f4pital et CSC de Lam\u00e8que", "source": "NRCan-CanVec-10.0"}}, {"type": "way", "id": 169662756, "center": {"lat": 46.5762139, "lon": -63.9262382}, "nodes": [1808302961, 1808302995, 1808302981, 1808302949, 1808302961], "tags": {"amenity": "hospital", "building": "yes", "source": "NRCan-CanVec-10.0"}}, {"type": "way", "id": 180425168, "center": {"lat": 47.0030297, "lon": -65.5413006}, "nodes": [1908674388, 1908674438, 1908674406, 1908674393, 1908674384, 5339665638, 1908674344, 5339665637, 5339665635, 5339665636, 5339665634, 5339665633, 1908674350, 5339665632, 1908674354, 1908674399, 1908674381, 1908674402, 1908674431, 1908674408, 1908674356, 5339665631, 5339665630, 5339665629, 5339665628, 5339665627, 5339665626, 5339665625, 5339665622, 5339665624, 5339665623, 1908674391, 1908674341, 1908674434, 1908674398, 1908674397, 5339665641, 5339665640, 1908674342, 5339665639, 1908674388], "tags": {"amenity": "hospital", "building": "yes", "healthcare:speciality": "general", "name": "Miramichi Regional Hospital"}}, {"type": "way", "id": 184775525, "center": {"lat": 45.3327264, "lon": -60.9841336}, "nodes": [1952935841, 1952935845, 1952935844, 1952935849, 1952935842, 1952935840, 1952935839, 1952935833, 1952935835, 1952935834, 1952935836, 1952935838, 1952935841], "tags": {"addr:city": "Canso", "addr:housenumber": "1746", "addr:postcode": "B0H 1H0", "addr:street": "Union Street", "amenity": "hospital", "building": "hospital", "name": "Eastern Memorial Hospital", "phone": "+1 902-366-2794", "website": "https://nshealth.ca/locations-details/Eastern%20Memorial%20Hospital"}}, {"type": "way", "id": 186512980, "center": {"lat": 47.6795458, "lon": -68.8867216}, "nodes": [1972320608, 1972308233, 1972320621, 1972308191, 1972320611, 1972320613, 1972320608], "tags": {"amenity": "hospital", "healthcare": "hospital", "name": "CLSC du Cabano", "source": "Bing"}}, {"type": "way", "id": 188135708, "center": {"lat": 45.5110163, "lon": -61.0320507}, "nodes": [1987407019, 1987407597, 6488206290, 6488206291, 6488206289, 1987407534, 1987407706, 6488206292, 6488206293, 6488206294, 6488206295, 6488206296, 6488206297, 6488206300, 6488206299, 6488206298, 1987407749, 1987407636, 1987407609, 1987407077, 1987407019], "tags": {"amenity": "hospital", "building": "yes", "healthcare": "hospital", "source": "NRCan-CanVec-10.0"}}, {"type": "way", "id": 188973006, "center": {"lat": 44.037657, "lon": -64.705684}, "nodes": [1996109797, 1996109798, 1996109787, 1996109800, 1996109790, 1996109763, 1996109793, 1996109769, 1996109774, 1996109784, 1996109782, 1996109761, 1996109767, 1996109770, 1996109794, 1996109785, 1996109796, 1996109781, 1996109795, 1996109791, 1996109799, 1996109765, 1996109789, 1996109788, 1996109772, 1996109786, 1996109792, 1996109783, 1996109797], "tags": {"amenity": "hospital", "name": "Queens General Hospital"}}, {"type": "way", "id": 208121531, "center": {"lat": 46.1702746, "lon": -62.6553021}, "nodes": [2184420819, 2184420858, 2184420862, 6131423756, 5935675808, 5935675809, 2184420898, 5935675825, 5935675826, 5935675824, 5935675823, 2184420894, 2184420953, 5935675820, 5935675821, 5935675822, 5935675819, 2184420965, 2184420913, 2184420916, 5935675818, 5935675817, 5935675815, 5935675816, 5935675813, 5935675827, 5935675828, 5935675814, 2184420877, 2184420868, 2184420824, 5935675812, 5935675811, 5935675810, 2184420819], "tags": {"amenity": "hospital", "building": "yes", "healthcare": "hospital", "name": "Kings County Memorial Hospital", "source": "NRCan-CanVec-10.0"}}, {"type": "way", "id": 208805963, "center": {"lat": 46.2346476, "lon": -60.2225282}, "nodes": [2190665491, 2190665500, 2190665511, 2190665658, 2190665631, 2190665727, 2190665645, 2190665508, 2190665521, 2190665474, 2190665482, 2190665471, 2190665491], "tags": {"amenity": "hospital", "building": "yes", "emergency": "no", "name": "Harbour View Hospital", "source": "NRCan-CanVec-10.0"}}, {"type": "way", "id": 208805976, "center": {"lat": 46.2182306, "lon": -60.2358005}, "nodes": [2190664108, 2190664124, 2190664151, 2190664154, 4897471658, 4897471657, 4897471656, 4897471655, 2190664136, 2190664153, 2190664147, 2190664123, 2190664105, 2190664108], "tags": {"amenity": "hospital", "building": "yes", "emergency": "yes", "healthcare": "hospital", "name": "Northside General Hospital", "source": "NRCan-CanVec-10.0"}}, {"type": "way", "id": 224042852, "center": {"lat": 46.1003359, "lon": -60.7559763}, "nodes": [2328806542, 2328806591, 5739128761, 5739128759, 9784359969, 9784359962, 5739128758, 5739128760, 2328806668, 2328806618, 5739128756, 9784359945, 9784359968, 9784359961, 9784359963, 9784359952, 5739128755, 9784359965, 9784359954, 9784359966, 9784359956, 9784359951, 5739128752, 5739128753, 5739128754, 5739128757, 2328806542], "tags": {"addr:city": "Baddeck", "addr:housenumber": "30", "addr:postcode": "B0E 1B0", "addr:province": "Nova Scotia", "addr:street": "Old Margaree Road", "amenity": "hospital", "building": "hospital", "emergency": "yes", "healthcare": "hospital", "name": "Victoria County Memorial Hospital", "operator": "Nova Scotia Health Authority", "phone": "+1 902-295-2112", "source": "NRCan-CanVec-10.0", "website": "https://www.nshealth.ca/locations-details/Victoria%20County%20Memorial%20Hospital"}}, {"type": "way", "id": 235889497, "center": {"lat": 45.6279449, "lon": -61.982192}, "nodes": [2439675027, 2439675045, 2439675063, 2439675069, 2439675078, 2439675073, 2439675090, 2439675093, 2439675109, 2439675105, 2439675115, 2439675172, 2439675147, 2439675184, 2439675163, 2439675188, 2439675275, 2439675362, 2439675406, 2439675301, 2439675337, 2439675262, 2439675290, 2439675233, 2439675226, 2439675207, 2439675159, 2439675182, 2439675149, 2439675124, 2439675086, 2439675085, 2439675067, 2439675061, 2439675027], "tags": {"addr:housenumber": "25", "addr:street": "Bay Street", "amenity": "hospital", "building": "hospital", "emergency": "yes", "name": "St. Martha's Regional Hospital", "source": "NRCan-CanVec-10.0"}}, {"type": "way", "id": 239004221, "center": {"lat": 46.6235036, "lon": -61.0156075}, "nodes": [2468095399, 2468095390, 2468095157, 2468095156, 2468095178, 2468094859, 2468094794, 2468094624, 2468094737, 2468094740, 2468094758, 2468094623, 2468094626, 2468094784, 2468094789, 2468094785, 2468094787, 2468094792, 2468095016, 2468094800, 2468094796, 2468094790, 2468094791, 2468094752, 2468094786, 2468095032, 2468095154, 2468095179, 2468095344, 2468095180, 2468095174, 2468095135, 2468095155, 2468095068, 2468095041, 2468095025, 2468095029, 2468094806, 2468094860, 2468094795, 2468094798, 2468094793, 2468094799, 2468094803, 2468094862, 2468094835, 2468095015, 2468095026, 2468095030, 2468095075, 2468095153, 2468095169, 2468095170, 2468095219, 2468095195, 2468095246, 2468095206, 2468095275, 2468095396, 2468095395, 2468095404, 2468095464, 2468095549, 2468095509, 2468095456, 2468095453, 2468095461, 2468095405, 2468095459, 2468095412, 2468095397, 2468095331, 2468095398, 2468095389, 2468095476, 2468095403, 2468095172, 2468094801, 2468095114, 2468095171, 2468095402, 2468095468, 2468095492, 2468095457, 2468095254, 2468095399], "tags": {"addr:city": "Cheticamp", "addr:housenumber": "15102", "addr:postcode": "B0E 1H0", "addr:province": "Nova Scotia", "addr:state": "NS", "addr:street": "Cabot Trail", "amenity": "hospital", "building": "hospital", "healthcare": "hospital", "name": "Sacred Heart Community Health Centre", "phone": "+1 902-224-4000", "website": "https://www.nshealth.ca/locations-details/Sacred%20Heart%20Community%20Health%20Centre"}}, {"type": "way", "id": 240529786, "center": {"lat": 45.7114324, "lon": -63.2962604}, "nodes": [2482570700, 2482570734, 5057178818, 5057178817, 2482570782, 2482570820, 5057178814, 5057178812, 5057178811, 5057178813, 2482570865, 2482570775, 2482570728, 2482570744, 5057178815, 5057178816, 2482570700], "tags": {"addr:city": "Tatamagouche", "addr:housenumber": "111", "addr:postcode": "B0K 1V0", "addr:province": "Nova Scotia", "addr:street": "Blair Avenue", "amenity": "hospital", "building": "hospital", "name": "Lillian Fraser Memorial Hospital", "phone": "+1 902-657-2382", "source": "NRCan-CanVec-10.0", "website": "https://nshealth.ca/locations-details/Lillian%20Fraser%20Memorial%20Hospital"}}, {"type": "way", "id": 241047328, "center": {"lat": 45.8561273, "lon": -63.6589097}, "nodes": [2487312203, 2487312272, 2487312282, 10076385585, 10076385555, 2487312219, 2487312203], "tags": {"amenity": "hospital", "building": "yes", "healthcare": "hospital", "name": "North Cumberland Memorial Hospital", "operator": "Nova Scoita Health Authority", "source": "NRCan-CanVec-10.0"}}, {"type": "way", "id": 286599102, "center": {"lat": 45.7490962, "lon": -64.7424914}, "nodes": [2902771634, 2902771638, 2902771637, 2902771623, 2902771621, 2902771619, 2902771643, 2902771645, 2902771634], "tags": {"amenity": "hospital", "building": "yes", "name": "Albert County Health & Wellness Centre"}}, {"type": "way", "id": 297977705, "center": {"lat": 45.6171499, "lon": -61.2225753}, "nodes": [3018786778, 3018786779, 3018786780, 3018786781, 3018786782, 3018786783, 3018786784, 3018786785, 3018786786, 3018786787, 1987489835, 3018786788, 3018786789, 3018786778], "tags": {"amenity": "hospital"}}, {"type": "way", "id": 298909374, "center": {"lat": 44.6384865, "lon": -63.5802767}, "nodes": [842337602, 3028460762, 3028460763, 842338096, 3028731365, 3028731366, 842337602], "tags": {"alt_name": "VG", "amenity": "hospital", "emergency": "no", "healthcare": "hospital", "name": "Victoria General", "operator": "Queen Elizabeth II Health Sciences Centre", "wheelchair": "yes"}}, {"type": "way", "id": 345605004, "center": {"lat": 43.895142, "lon": -69.9682987}, "nodes": [358222720, 3522475403, 3522475404, 3522475402, 3522475399, 3522475395, 3522471890, 3522471888, 3522471889, 3522471892, 3522471891, 3522475393, 3522475394, 3522475396, 358222720], "tags": {"addr:city": "Brunswick", "addr:housenumber": "329", "addr:postcode": "04011", "addr:state": "ME", "addr:street": "Maine Street", "amenity": "hospital", "emergency": "yes", "gnis:feature_id": "573003", "healthcare": "hospital", "name": "Parkview Adventist Medical Center", "phone": "+1-207-373-2000", "website": "http://parkviewamc.org/"}}, {"type": "way", "id": 356410197, "center": {"lat": 44.9468009, "lon": -65.059352}, "nodes": [3618780690, 3618780792, 3618780862, 4040840401, 5744735442, 5326062884, 5326062885, 4040840402, 5744735440, 4040840403, 4040840404, 4040840405, 5744735441, 3618781079, 3618781121, 3618781081, 4040840406, 4040840407, 4040840408, 4040840409, 3618781118, 3618781042, 4040840400, 4040840399, 4040840398, 3618780768, 3618780709, 3618780750, 3618780690], "tags": {"addr:city": "Middleton", "addr:country": "CA", "addr:housenumber": "462", "addr:postcode": "B0S 1P0", "addr:province": "Nova Scotia", "addr:street": "Main Street", "amenity": "hospital", "building": "hospital", "name": "Soldiers' Memorial Hospital", "phone": "+1 902-825-3411", "source": "NRCan-CanVec-10.0", "website": "https://www.nshealth.ca/locations-details/Soldiers%20Memorial%20Hospital", "wheelchair": "yes"}}, {"type": "way", "id": 357015823, "center": {"lat": 45.036694, "lon": -64.7365652}, "nodes": [3624114564, 3624114554, 3624114576, 3624114604, 3624114499, 3624114462, 3624114564], "tags": {"amenity": "hospital", "building": "yes", "source": "NRCan-CanVec-10.0"}}, {"type": "way", "id": 379499077, "center": {"lat": 47.3762374, "lon": -68.3105423}, "nodes": [3827988360, 1498578244, 1498578234, 1498578214, 1498578135, 1498578053, 1498578040, 1498578038, 1498578046, 1498578086, 3331121545, 1498578148, 3331121546, 3331121549, 3331121548, 3355807632, 3355807631, 3355807630, 3355807629, 3355807628, 3827988361, 3827988360], "tags": {"amenity": "hospital", "healthcare": "hospital"}}, {"type": "way", "id": 384248063, "center": {"lat": 44.278453, "lon": -69.7038007}, "nodes": [5569517857, 5569517856, 3875399514, 3875399515, 5569517853, 5569517854, 5569517855, 3875399516, 5569517852, 5569517851, 5569517848, 5569517849, 3875399517, 5569517850, 5569517874, 5569517875, 5569517876, 5569517862, 5569517863, 5569517860, 5569517861, 5569517858, 3875399520, 5569517859, 3875399518, 5569517857], "tags": {"addr:city": "Chelsea", "addr:housenumber": "1", "addr:postcode": "04330", "addr:state": "ME", "addr:street": "VA Center", "amenity": "hospital", "emergency": "yes", "healthcare": "hospital", "healthcare:for": "veterans", "name": "Togus Veterans Affairs Medical Center", "name:en": "Maine VA Medical Center", "opening_hours": "24/7", "operator": "Veterans Health Administration", "operator:short": "VA", "operator:wikidata": "Q6580225", "phone": "+1-207-623-8411", "short_name": "VA", "website": "https://www.maine.va.gov/", "wikidata": "Q7813239", "wikipedia": "en:Togus, Maine"}}, {"type": "way", "id": 390922606, "center": {"lat": 44.8259337, "lon": -68.7833767}, "nodes": [3940764066, 3940764067, 3771361156, 3940763452, 3940763454, 3771361155, 3940764068, 4674501464, 3940764069, 3940764070, 4674494186, 3940764071, 3940765312, 3940765313, 3940764082, 3940764072, 3940765314, 3940765315, 3940764073, 3940764074, 3940764075, 4674494949, 3940765316, 3940764076, 3940764077, 3940764078, 3940764079, 3940764080, 3940764081, 3940764066], "tags": {"addr:city": "Bangor", "addr:housenumber": "758", "addr:postcode": "04401", "addr:state": "ME", "addr:street": "Broadway", "amenity": "hospital", "emergency": "no", "healthcare": "hospital", "name": "Ross Manor", "operator": "Ross Manor"}}, {"type": "way", "id": 398410808, "center": {"lat": 46.2567272, "lon": -63.0929708}, "nodes": [2100718594, 2623980483, 2100718637, 2100718690, 4011718640, 4011718641, 4011718642, 4011718643, 4011718644, 4011718645, 4011718646, 4011718647, 4011718648, 4011718649, 6484070180, 4011718650, 4011718651, 4011718652, 4011718653, 4011718654, 4011718655, 4011718656, 4011718657, 2100718594], "tags": {"addr:city": "Charlottetown", "addr:housenumber": "115", "addr:street": "Deacon Grove Lane", "amenity": "hospital", "emergency": "no", "healthcare": "hospital", "name": "Hillsborough Hospital", "start_date": "1879", "wikidata": "Q5763705", "wikipedia": "en:Hillsborough Hospital"}}, {"type": "way", "id": 411697823, "center": {"lat": 44.3652997, "lon": -69.7957412}, "nodes": [4133199512, 4133199513, 4133199514, 4133199515, 4133199512], "tags": {"addr:city": "Augusta", "addr:housenumber": "15", "addr:postcode": "04330", "addr:state": "ME", "addr:street": "Enterprise Drive", "amenity": "hospital", "healthcare": "hospital", "name": "MaineGeneral Express Care", "operator": "MaineGeneral"}}, {"type": "way", "id": 443044197, "center": {"lat": 44.820476, "lon": -68.7637927}, "nodes": [4406877316, 3768972198, 3768972197, 4406877326, 4406877325, 4406877320, 4406877319, 4406877317, 358224941, 4406877316], "tags": {"addr:city": "Bangor", "addr:housenumber": "268", "addr:postcode": "04402", "addr:street": "Stillwater Avenue", "amenity": "hospital", "emergency": "no", "gnis:feature_id": "576684", "healthcare": "hospital", "name": "Acadia Hospital", "phone": "+1-800-640-1211", "website": "https://acadiahospital.org/", "wheelchair": "yes", "wikidata": "Q50036412"}}, {"type": "way", "id": 443044201, "center": {"lat": 44.8082788, "lon": -68.7506186}, "nodes": [4406873759, 4406873757, 4406873753, 4406873750, 4406873747, 4406873744, 4406873742, 4406873739, 4406873736, 4406873732, 4406873730, 4406873731, 4406873733, 4406873734, 4406873735, 4406873737, 4406873738, 4406873740, 4406873741, 4406873746, 358219392, 4406873749, 4406873751, 10739207079, 4406873752, 10739207077, 4406873755, 4406873756, 4406873758, 4406873759], "tags": {"addr:city": "Bangor", "addr:housenumber": "489", "addr:postcode": "04401", "addr:street": "State Street", "amenity": "hospital", "beds": "411", "emergency": "yes", "gnis:feature_id": "565729", "healthcare": "hospital", "name": "Eastern Maine Medical Center", "opening_hours": "24/7", "phone": "+1-207-973-7000", "website": "https://www.emmc.org/", "wheelchair": "yes", "wikidata": "Q5330270", "wikipedia": "en:Eastern Maine Medical Center"}}, {"type": "way", "id": 443044203, "center": {"lat": 44.8144266, "lon": -68.7722165}, "nodes": [4406877293, 1220048591, 1220048675, 1220048601, 4406877304, 4406877303, 4406877300, 358223705, 4406877290, 4406877289, 4406873786, 4406873788, 2033939763, 2033939700, 2033939987, 2033940038, 2033939876, 2033940065, 2033939727, 4406873775, 4406877293], "tags": {"addr:city": "Bangor", "addr:housenumber": "360", "addr:postcode": "04402", "addr:state": "ME", "addr:street": "Broadway", "amenity": "hospital", "emergency": "yes", "gnis:feature_id": "574729", "healthcare": "hospital", "name": "Saint Joseph Hospital", "phone": "+1-207-907-1000", "website": "http://www.stjoeshealing.org/", "wheelchair": "yes", "wikidata": "Q30280972"}}, {"type": "way", "id": 443077675, "center": {"lat": 47.2659001, "lon": -68.5928828}, "nodes": [4407138673, 4407138672, 4407138671, 3134533896, 3134533895, 9886184380, 4407138675, 4407138676, 9886184385, 4407138677, 9886184386, 4407138678, 4407138679, 358230736, 4407138673], "tags": {"addr:city": "Fort Kent", "addr:housenumber": "194", "addr:postcode": "04743", "addr:state": "ME", "addr:street": "East Main Street", "amenity": "hospital", "emergency": "yes", "gnis:feature_id": "1910528", "name": "Northern Maine Medical Center", "phone": "+1-207-834-3155", "website": "https://www.nmmc.org/", "wikidata": "Q7058694", "wikipedia": "en:Northern Maine Medical Center"}}, {"type": "way", "id": 443081830, "center": {"lat": 46.8796994, "lon": -68.008089}, "nodes": [4407180952, 358230585, 4407180949, 4407180950, 4407180951, 4407180953, 4407180955, 4407180956, 4407180957, 4407180959, 4407180960, 4407180961, 4407180963, 4407180964, 4407180962, 3115291324, 3115291270, 3115291222, 4407180958, 4407180954, 4407180952], "tags": {"addr:city": "Caribou", "addr:housenumber": "164", "addr:postcode": "04736", "addr:street": "Van Buren Road", "amenity": "hospital", "emergency": "yes", "gnis:feature_id": "1910285", "name": "Cary Medical Center", "phone": "+1-207-498-3111", "website": "https://www.carymedicalcenter.org/"}}, {"type": "way", "id": 443089284, "center": {"lat": 45.1777726, "lon": -67.2679692}, "nodes": [4407254877, 4407255710, 4407255723, 4407255719, 4407255716, 358229922, 4407254887, 4407254877], "tags": {"addr:city": "Calais", "addr:housenumber": "24", "addr:postcode": "04619", "addr:state": "ME", "addr:street": "Hospital Lane", "amenity": "hospital", "emergency": "yes", "healthcare": "hospital", "name": "Calais Regional Hospital", "phone": "+1-207-454-7521", "website": "https://www.calaishospital.org/"}}, {"type": "way", "id": 443091868, "center": {"lat": 44.714422, "lon": -67.4756715}, "nodes": [4407285449, 358229959, 4407285447, 4407285446, 4407285456, 4407285460, 4407285464, 4407285466, 4407285468, 4407285472, 4407285476, 4407285475, 4407285474, 4407285473, 4407285471, 4407285470, 4407285469, 4407285467, 4407285465, 4407285463, 4407285461, 4407285458, 4407285457, 4407285452, 4407285449], "tags": {"addr:city": "Machias", "addr:housenumber": "11", "addr:postcode": "04654", "addr:state": "ME", "addr:street": "Hospital Drive", "amenity": "hospital", "emergency": "yes", "gnis:feature_id": "1909144", "name": "Down East Community Hospital", "phone": "+1-207-255-3356", "website": "https://www.dech.org/"}}, {"type": "way", "id": 443093641, "center": {"lat": 45.6528868, "lon": -68.7161572}, "nodes": [1926273300, 4407299763, 4407299764, 4407299766, 4895520952, 4407299767, 4407299769, 4962748881, 4407299773, 4407299772, 4407299771, 4407299770, 358234931, 4407299768, 4407299762, 4898124159, 1926273300], "tags": {"addr:city": "Millinocket", "addr:housenumber": "200", "addr:postcode": "04462", "addr:state": "ME", "addr:street": "Somerset Street", "amenity": "hospital", "emergency": "yes", "gnis:feature_id": "1913712", "healthcare": "hospital", "name": "Millinocket Regional Hospital", "phone": "+1-207-723-5161", "website": "https://www.mrhme.org/"}}, {"type": "way", "id": 443095439, "center": {"lat": 45.458672, "lon": -69.6102662}, "nodes": [4407315284, 4407315275, 4407315277, 4407315263, 4407315258, 4407315256, 4407315254, 4407315253, 4407315255, 4407315251, 4407315250, 4407315252, 4407315257, 4407315259, 4407315260, 4407315261, 4407315262, 4407315265, 358230437, 4407315283, 4407315284], "tags": {"addr:city": "Greenville", "addr:housenumber": "364", "addr:postcode": "04441", "addr:state": "ME", "addr:street": "Pritham Avenue", "amenity": "hospital", "emergency": "yes", "gnis:feature_id": "1910037", "name": "Charles A Dean Memorial Hospital", "phone": "+1-207-695-5200", "website": "http://cadean.org/"}}, {"type": "way", "id": 443135673, "center": {"lat": 44.3851534, "lon": -68.2019274}, "nodes": [4407695653, 4407695660, 4407695664, 4407695663, 4407695666, 4407695665, 4407695662, 4407695661, 4407695659, 4407695658, 4407695647, 4407695646, 4407695645, 4407695653], "tags": {"addr:city": "Bar Harbor", "addr:housenumber": "10", "addr:postcode": "04609", "addr:state": "ME", "addr:street": "Wayman Lane", "amenity": "hospital", "emergency": "yes", "healthcare": "hospital", "name": "Mount Desert Island Hospital", "phone": "+1-207-288-5081", "website": "https://www.mdihospital.org/"}}, {"type": "way", "id": 443190991, "center": {"lat": 44.5464634, "lon": -68.4162582}, "nodes": [4408132496, 4408132501, 4408132497, 4408132510, 4408132495, 4408132530, 4408132548, 4408132568, 358226324, 4408132581, 4408132697, 4408132696, 4408132695, 4408132584, 4408132575, 4408132570, 4408132561, 4408132554, 4408132508, 4408132493, 4408132490, 4408127488, 4408132492, 4408132499, 4408132504, 4408132505, 4408132498, 4408132509, 4408132496], "tags": {"addr:city": "Ellsworth", "addr:housenumber": "50", "addr:postcode": "04605", "addr:state": "ME", "addr:street": "Union Street", "amenity": "hospital", "emergency": "yes", "gnis:feature_id": "580172", "name": "Maine Coast Memorial Hospital", "phone": "+1-207-664-5311", "website": "http://mcmhospital.org/"}}, {"type": "way", "id": 443227098, "center": {"lat": 44.7586878, "lon": -69.7130921}, "nodes": [4408443091, 4408443094, 4408443095, 4408443096, 4408443093, 4408443092, 4408442486, 4408442480, 4408442482, 4408442476, 4408442477, 4408442478, 4408442479, 4408442481, 4408442483, 4408442484, 4408442485, 4408443091], "tags": {"addr:city": "Skowhegan", "addr:housenumber": "46", "addr:postcode": "04976", "addr:state": "ME", "addr:street": "Fairview Avenue", "amenity": "hospital", "emergency": "yes", "gnis:feature_id": "1908655", "name": "Redington-Fairview General Hospital", "phone": "+1-207-474-5121", "website": "https://www.rfgh.net/"}}, {"type": "way", "id": 443244513, "center": {"lat": 44.5413368, "lon": -69.6623175}, "nodes": [4408591487, 4408591790, 4408591793, 4408591798, 4408591799, 4408591792, 4408591791, 4408591789, 476767900, 4408591488, 4408591487], "tags": {"addr:city": "Waterville", "addr:housenumber": "200", "addr:postcode": "04901", "addr:state": "ME", "addr:street": "Kennedy Memorial Drive", "amenity": "hospital", "beds": "48", "emergency": "yes", "healthcare": "hospital", "name": "Inland Hospital", "opening_hours": "24/7", "phone": "+1-207-861-3000", "website": "http://www.inlandhospital.org/"}}, {"type": "way", "id": 443261108, "center": {"lat": 44.3641159, "lon": -69.7801671}, "nodes": [4408716416, 4408716418, 4408716438, 4408716456, 4408716470, 4408716503, 4408716518, 4408716536, 4408716555, 4408716565, 4408716568, 4408716569, 4408716570, 4408716574, 4408716576, 9036560681, 4408716577, 9036560670, 9036607587, 4408716575, 4408716573, 4408716572, 4408716571, 4408716556, 4408716469, 4408716414, 8022703474, 8022703473, 4408716411, 4408716410, 4408716413, 4408716415, 4408716416], "tags": {"addr:city": "Augusta", "addr:housenumber": "35", "addr:postcode": "04330", "addr:state": "ME", "addr:street": "Medical Center Parkway", "amenity": "hospital", "emergency": "yes", "healthcare": "hospital", "name": "MaineGeneral Medical Center - Alfond Center for Health", "operator": "MaineGeneral Health", "phone": "+1-207-626-1000", "website": "https://www.mainegeneral.org/"}}, {"type": "way", "id": 472834301, "center": {"lat": 48.4467918, "lon": -68.5303693}, "nodes": [373587798, 373582737, 4672080111, 4672080110, 11298248666, 11298248665, 4672080109, 4672080108, 373587782, 373587798], "tags": {"amenity": "hospital", "emergency": "yes", "healthcare": "hospital", "name": "H\u00f4pital r\u00e9gional de Rimouski"}}, {"type": "way", "id": 473131140, "center": {"lat": 48.1328365, "lon": -69.1589945}, "nodes": [372068080, 4673015439, 4673015440, 4673015441, 3328907888, 4949513431, 4949513432, 4280641679, 372068080], "tags": {"amenity": "hospital", "healthcare": "hospital", "name": "Centre de Sant\u00e9 et Services Sociaux des Basques"}}, {"type": "way", "id": 486436477, "center": {"lat": 47.8182087, "lon": -69.5395479}, "nodes": [4790526677, 10675553719, 4790526692, 10675553743, 1142918357, 4790526693, 10675553744, 1142905289, 4790526694, 4790526696, 7453599851, 7453599853, 4790555692, 7453599857, 7453599858, 4790555689, 4790526675, 7453599859, 4790526674, 4790526677], "tags": {"amenity": "hospital", "healthcare": "hospital"}}, {"type": "way", "id": 495299707, "center": {"lat": 48.3520611, "lon": -69.4072448}, "nodes": [4870825430, 4870825435, 372135277, 4870825436, 4870825430], "tags": {"amenity": "hospital", "name": "CSSS de la Haute-C\u00f4te-Nord"}}, {"type": "way", "id": 507601188, "center": {"lat": 47.9930859, "lon": -66.6665446}, "nodes": [1220407041, 1220409648, 4970730812, 1220406597, 1220407749, 1220604473, 1220614700, 1220599835, 1220596317, 1220615997, 1220592451, 1220595250, 1220603418, 1220591771, 1220594162, 1220591601, 1220605376, 4862247900, 1220602020, 1220611382, 1220597266, 1220603725, 1220591935, 1220598889, 1220620143, 1220608680, 1220602631, 4970772400, 1220408423, 4970772401, 4970772402, 4970772403, 1220407041], "tags": {"amenity": "hospital", "healthcare": "hospital", "name": "Campbellton Regional Hospital"}}, {"type": "way", "id": 512370882, "center": {"lat": 46.2826093, "lon": -67.5725953}, "nodes": [5009962699, 5009935901, 5009935902, 5009935903, 1638283128, 1638283113, 1638283110, 1638283464, 1638283584, 1638283557, 1638283167, 1638283053, 1638283039, 1638282975, 1638282781, 1638282448, 1638282348, 5009973484, 1638281391, 1638281018, 1638280970, 5009973485, 1638281660, 1638281987, 1638282102, 1638282143, 1638456201, 1638456206, 1638456218, 1638456244, 1638456292, 1638456356, 1638456373, 1638456385, 1638456416, 1638456512, 1638456588, 1638456630, 1638456675, 5009962704, 5009962703, 5009962702, 5009962701, 5009962700, 5009962699], "tags": {"amenity": "hospital"}}, {"type": "way", "id": 513303417, "center": {"lat": 48.1692926, "lon": -65.9932145}, "nodes": [5018000489, 5018000490, 9775695406, 9775695404, 5018000491, 5018000492, 5018000489], "tags": {"amenity": "hospital", "healthcare": "hospital", "name": "Hopital de Maria"}}, {"type": "way", "id": 520349002, "center": {"lat": 46.4176519, "lon": -63.7730595}, "nodes": [5071793587, 5071793588, 5071793589, 5071807063, 5071807657, 5071807658, 5071807659, 5071793590, 5071793591, 5071793592, 5071807528, 5071793593, 5071793594, 5071793595, 5071805042, 5071807064, 5071793596, 5071807660, 5071808224, 5071793597, 5071807661, 5071793587], "tags": {"addr:city": "Summerside", "addr:housenumber": "65", "addr:postcode": "C1N 2A9", "addr:street": "Roy Boates Avenue", "amenity": "hospital", "healthcare": "hospital", "name": "Prince County Hospital", "website": "https://www.princeedwardisland.ca/en/information/health-pei/prince-county-hospital", "wikidata": "Q7243873", "wikipedia": "en:Prince County Hospital"}}, {"type": "way", "id": 569456172, "center": {"lat": 47.7947513, "lon": -64.938783}, "nodes": [5476558470, 5476558472, 5476558490, 5476558491, 5476558475, 5476558476, 5476558477, 5476558478, 5476558479, 5476558480, 5476558481, 5476558482, 5476558483, 5476558484, 5476558485, 5476558486, 5476558487, 5476558488, 5473852129, 5476624285, 5473889198, 8931400921, 886252850, 5473822553, 5476558470], "tags": {"amenity": "hospital", "healthcare": "hospital"}}, {"type": "way", "id": 570962273, "center": {"lat": 49.1900227, "lon": -68.2524472}, "nodes": [5488558412, 5488558413, 5488558414, 5488558417, 5488558415, 5488558416, 5488558412], "tags": {"amenity": "hospital", "healthcare": "hospital", "name": "H\u00f4pital Le Royer"}}, {"type": "way", "id": 572702576, "center": {"lat": 46.7291735, "lon": -67.7102118}, "nodes": [5501861013, 5501861014, 5501861015, 5501861016, 5501861017, 5501861018, 5500091417, 5500091416, 5501861224, 5501861227, 5501861226, 5501861225, 5501861222, 5501861223, 5501861221, 5501861019, 5502271403, 5501861020, 5501861013], "tags": {"amenity": "hospital", "healthcare": "hospital"}}, {"type": "way", "id": 574213938, "center": {"lat": 46.5092703, "lon": -67.5848658}, "nodes": [5512551460, 5512551459, 5512551473, 1644993197, 1644993268, 1644993351, 5512551460], "tags": {"amenity": "hospital", "healthcare": "hospital"}}, {"type": "way", "id": 575567743, "center": {"lat": 45.9792915, "lon": -66.6281743}, "nodes": [5522693205, 5522693230, 10098243814, 10098243816, 5522693231, 5522693196, 10098250873, 5522693203, 10098250871, 5522693204, 10098243813, 5522693205], "tags": {"amenity": "hospital", "healthcare": "hospital"}}, {"type": "way", "id": 582260509, "center": {"lat": 45.187799, "lon": -69.2374947}, "nodes": [5569133923, 5569133922, 5569133921, 5569133420, 5569133419, 5569133418, 5569133417, 5569133416, 5569133415, 5569133414, 5569133413, 5569133412, 5569133411, 5569133410, 5569133409, 5569133923], "tags": {"addr:city": "Dover-Foxcroft", "addr:housenumber": "897", "addr:postcode": "04426", "addr:street": "West Main Street", "amenity": "hospital", "beds": "25", "emergency": "yes", "healthcare": "hospital", "name": "Mayo Regional Hospital", "opening_hours": "24/7", "phone": "+1-207-564-8401", "website": "http://www.mayohospital.com/"}}, {"type": "way", "id": 582269487, "center": {"lat": 45.3475628, "lon": -68.5173673}, "nodes": [5569193404, 5569193403, 5569193402, 5569193401, 5569193400, 5569193399, 5569193398, 1768944878, 5569193397, 5569193396, 5569193395, 5569193394, 5569193393, 5569193392, 5569193404], "tags": {"addr:city": "Lincoln", "addr:housenumber": "7", "addr:postcode": "04457", "addr:state": "ME", "addr:street": "Transalpine Road", "amenity": "hospital", "emergency": "yes", "healthcare": "hospital", "name": "Penobscot Valley Hospital", "opening_hours": "24/7", "phone": "+1-207-794-3321", "short_name": "PVH", "website": "https://pvhme.org/"}}, {"type": "way", "id": 582281743, "center": {"lat": 44.4112712, "lon": -68.5873903}, "nodes": [5569270242, 5569270241, 5569270240, 5569270239, 5569270238, 5569270237, 5569270236, 358231346, 5569270242], "tags": {"addr:city": "Blue Hill", "addr:housenumber": "57", "addr:postcode": "04614", "addr:state": "ME", "addr:street": "Water Street", "amenity": "hospital", "beds": "25", "emergency": "yes", "gnis:feature_id": "1911425", "healthcare": "hospital", "name": "Blue Hill Memorial Hospital", "opening_hours": "24/7", "phone": "+1-207-374-3400", "short_name": "BHMH", "toilets:wheelchair": "yes", "website": "https://bhmh.org/", "wheelchair": "yes"}}, {"type": "way", "id": 586355170, "center": {"lat": 44.1442683, "lon": -69.0849321}, "nodes": [5602394417, 5602394416, 5602394415, 5602394414, 5602394413, 5602394412, 5602394411, 5602394410, 5602394409, 5602394408, 5602394407, 5602394406, 5602394405, 5602394404, 5602394403, 5602394402, 5602394401, 5602394400, 5602394399, 5602394398, 5602394397, 5602394396, 5602394395, 5602394394, 5602394393, 5602394392, 5602394391, 5602394390, 5602394389, 5602394388, 5602394387, 5602394417], "tags": {"addr:city": "Rumford", "addr:housenumber": "6", "addr:postcode": "04856", "addr:street": "Glen Cove Drive", "alt_name": "Penobscot Bay Medical Center", "amenity": "hospital", "beds": "109", "emergency": "yes", "gnis:feature_id": "1909570", "healthcare": "hospital", "name": "Pen Bay Medical Center", "opening_hours": "24/7", "operator": "MaineHealth", "phone": "+1-207-921-8000", "website": "https://mainehealth.org/pen-bay-medical-center"}}, {"type": "way", "id": 586361736, "center": {"lat": 44.0259464, "lon": -69.5299044}, "nodes": [5602459289, 5602459288, 5602459287, 5602459286, 358230353, 2289325122, 2289325144, 2289325153, 2289325162, 2289325168, 2289325165, 2289325159, 2289325156, 2289325151, 2289325133, 2289325125, 2289325130, 5602459285, 5602459284, 5602459283, 5602459282, 5602459281, 5602459289], "tags": {"addr:city": "Damariscotta", "addr:housenumber": "35", "addr:postcode": "04543", "addr:street": "Miles Street", "amenity": "hospital", "beds": "25", "emergency": "yes", "gnis:feature_id": "1909861", "healthcare": "hospital", "name": "LincolnHealth - Miles Campus", "old_name": "Miles Memorial Hospital", "opening_hours": "24/7", "operator": "MaineHealth", "phone": "+1-207-563-1234", "website": "https://mainehealth.org/lincolnhealth"}}, {"type": "way", "id": 586366244, "center": {"lat": 44.4128136, "lon": -68.9940924}, "nodes": [5602513823, 5602513822, 5602513821, 5602513820, 5602513819, 5602513818, 5602513817, 5602513816, 5602513815, 5602513814, 5602513813, 5602513823], "tags": {"addr:city": "Belfast", "addr:housenumber": "118", "addr:postcode": "04915", "addr:state": "ME", "addr:street": "Northport Avenue", "amenity": "hospital", "beds": "25", "emergency": "yes", "healthcare": "hospital", "name": "Waldo County General Hospital", "opening_hours": "24/7", "operator": "MaineHealth", "phone": "+1-207-338-2500", "website": "https://mainehealth.org/waldo-county-general-hospital"}}, {"type": "way", "id": 586372084, "center": {"lat": 44.7901713, "lon": -69.3706879}, "nodes": [5602573270, 5602573259, 5602573269, 5602573268, 5602573267, 5602573266, 5602573265, 5602573264, 5602573263, 5602573262, 5602573261, 5602573260, 5602573270], "tags": {"addr:city": "Pittsfield", "addr:housenumber": "447", "addr:postcode": "04967", "addr:state": "ME", "addr:street": "North Main Street", "amenity": "hospital", "beds": "25", "emergency": "yes", "healthcare": "hospital", "name": "Sebasticook Valley Health", "opening_hours": "24/7", "phone": "+1-207-487-4000", "website": "http://www.sebasticookvalleyhealth.org/"}}, {"type": "way", "id": 625322355, "center": {"lat": 45.9226649, "lon": -66.7267358}, "nodes": [5904446135, 5904446136, 5904446137, 5904446138, 5904446135], "tags": {"addr:city": "Hanwell", "addr:housenumber": "1794", "addr:street": "Hanwell Road", "amenity": "hospital", "healthcare": "hospital", "name": "Carmichael Healthcare"}}, {"type": "way", "id": 642018634, "center": {"lat": 47.4976214, "lon": -67.3933432}, "nodes": [6045137598, 6045133763, 6045137599, 6045137600, 6045137601, 6045137602, 6045137603, 6045137598], "tags": {"amenity": "hospital", "healthcare": "hospital"}}, {"type": "way", "id": 681749836, "center": {"lat": 48.5724338, "lon": -68.2159869}, "nodes": [6384462024, 8999929512, 6384462025, 6384462026, 6384462027, 6384462024], "tags": {"amenity": "hospital", "healthcare": "hospital"}}, {"type": "way", "id": 682308258, "center": {"lat": 45.1947058, "lon": -67.2664729}, "nodes": [6389616947, 6389616948, 6389616949, 6389616950, 6389616951, 6389616952, 6389616953, 6389614769, 6389614768, 6389614767, 6389614766, 6389614765, 6389614764, 6389614763, 6389616954, 6389614778, 6389614779, 6389616955, 6389616956, 904653359, 6389616947], "tags": {"amenity": "hospital", "healthcare": "hospital"}}, {"type": "way", "id": 720684128, "center": {"lat": 45.8918462, "lon": -64.3730029}, "nodes": [1627561748, 1627561645, 1627561610, 4720937880, 4720937881, 3785444901, 6762833032, 6762833031, 6762833030, 6762833029, 1627561630, 10125352402, 1627561716, 1627561748], "tags": {"addr:city": "Sackville", "addr:housenumber": "8", "addr:postcode": "E4L 4A3", "addr:street": "Main Street", "amenity": "hospital", "emergency": "yes", "healthcare": "hospital", "internet_access": "wlan", "internet_access:fee": "no", "name": "Sackville Memorial Hospital", "phone": "+1 506-364-4100", "website": "https://horizonnb.ca/facilities/sackville-memorial-hospital/"}}, {"type": "way", "id": 725705196, "center": {"lat": 45.7264384, "lon": -65.4889236}, "nodes": [1610985020, 1610984813, 1610984621, 6804270263, 6804270264, 6804270265, 6804270256, 1610984576, 1610984540, 6804270249, 6804270250, 6804270251, 6804270252, 6804270253, 1610985189, 1610985120, 1610985058, 1610985020], "tags": {"amenity": "hospital", "healthcare": "hospital"}}, {"type": "way", "id": 732482448, "center": {"lat": 45.8487064, "lon": -66.4735784}, "nodes": [1246485170, 1653862060, 6859167087, 1241483060, 6872195108, 2288509858, 1068330301, 6872195107, 1068330304, 1246483157, 1246477851, 4756430528, 1246485170], "tags": {"amenity": "hospital", "healthcare": "hospital", "name": "Oromocto Public Hospital"}}, {"type": "way", "id": 743437101, "center": {"lat": 44.3826777, "lon": -64.5113099}, "nodes": [6399585230, 6958727999, 6958728000, 6958728001, 6958728002, 6399585230], "tags": {"addr:city": "Bridgewater", "addr:housenumber": "90", "addr:postcode": "B4V 3S6", "addr:street": "Glen Allan Drive", "amenity": "hospital", "emergency": "yes", "healthcare": "hospital", "internet_access": "wlan", "name": "South Shore Regional Hospital", "phone": "+1 902-543-4603", "website": "https://www.nshealth.ca/locations-details/South%20Shore%20Regional%20Hospital"}}, {"type": "way", "id": 765856365, "center": {"lat": 47.0452073, "lon": -67.7541883}, "nodes": [670104639, 678986198, 668439559, 668439558, 668439557, 668439564, 670104639], "tags": {"amenity": "hospital", "healthcare": "hospital"}}, {"type": "way", "id": 766121300, "center": {"lat": 46.1335748, "lon": -67.8436712}, "nodes": [7155254587, 7155254586, 7155254585, 7155254584, 7155254583, 7155254582, 7155254581, 6205286350, 6205286351, 6205286352, 6205286353, 6205286354, 6205286355, 7155254580, 7155254579, 7155254578, 7155254577, 7155254576, 7155254575, 7155254574, 7155254587], "tags": {"addr:city": "Houlton", "addr:housenumber": "20", "addr:postcode": "04730", "addr:state": "ME", "addr:street": "Hartford Street", "amenity": "hospital", "beds": "25", "emergency": "yes", "healthcare": "hospital", "name": "Houlton Regional Hospital", "opening_hours": "24/7", "phone": "+1-207-532-2900", "website": "https://houltonregional.org/"}}, {"type": "way", "id": 856936229, "center": {"lat": 45.9330206, "lon": -66.6346678}, "nodes": [1197549171, 1197550720, 1197543070, 1197540908, 578291874, 7989713226, 7248891684, 570271874, 1197549171], "tags": {"amenity": "hospital", "emergency": "no", "healthcare": "hospital"}}, {"type": "way", "id": 890968467, "center": {"lat": 43.8503056, "lon": -66.1225568}, "nodes": [8280787779, 8280787780, 8280787781, 8280787782, 8280787783, 8280787784, 8280787785, 8280787786, 8280787787, 8280787788, 8280787779], "tags": {"amenity": "hospital", "healthcare": "hospital", "name": "Yarmouth Regional Hospital", "phone": "+1 902-742-3541", "website": "https://www.nshealth.ca/locations-details/Yarmouth%20Regional%20Hospital"}}, {"type": "way", "id": 907893271, "center": {"lat": 46.8104759, "lon": -64.0659666}, "nodes": [8749824304, 701313078, 8430183393, 8427099095, 8427099094, 8427099093, 8427099092, 8427099091, 8427099090, 8427099089, 8427099088, 8427099087, 8427099086, 8427099085, 8427099084, 8427099083, 8427099082, 8427099081, 8427099080, 8427099079, 8427099078, 8427099077, 8430183394, 8749824304], "tags": {"amenity": "hospital", "healthcare": "hospital"}}, {"type": "way", "id": 930617917, "center": {"lat": 45.0828494, "lon": -64.5005643}, "nodes": [673027493, 8628800018, 8628800019, 8628800020, 8628800021, 8628800022, 8628800023, 8628800024, 8628800025, 8628800026, 8628800027, 673027493], "tags": {"addr:housenumber": "150", "addr:street": "Exhibition Street", "amenity": "hospital", "healthcare": "hospital", "name": "Valley Regional Hospital"}}, {"type": "way", "id": 936056064, "center": {"lat": 45.301692, "lon": -66.085675}, "nodes": [8673744404, 8673744403, 8673744402, 8673744401, 8673744400, 8673744399, 8673744398, 8673744397, 8673744396, 8673744395, 8673744394, 8673744393, 8673744392, 8673744391, 8673744390, 8673744389, 8673744388, 8673744387, 8673744386, 8673744385, 8673744384, 8673744383, 8673744382, 8673744381, 8673744380, 8673744379, 8673744378, 8673744377, 8673744376, 8673744375, 8673744374, 8673744373, 8673744372, 8673744371, 8673744370, 8673744369, 1865061019, 1865061026, 1865061053, 3094243271, 1865061097, 1865061117, 1865061119, 1865061114, 3094243270, 3094238789, 3094243272, 3094243230, 1865061108, 8672087797, 1865061137, 1865061143, 3094252620, 3094252598, 3094252595, 1865061180, 1865061193, 8673744368, 8673744367, 8673744366, 8673744365, 8673744364, 1865061189, 8673744363, 8673744362, 8673744361, 10966252774, 8673744360, 10966252773, 8673744359, 8673744358, 10966252772, 8673744357, 8673744356, 8673744355, 10966252771, 8673744354, 8673744353, 8673744352, 10966252776, 10966252770, 10966252769, 1865085224, 1865085226, 1865085138, 1865085070, 1865085034, 1865084985, 1865084930, 1865084916, 1865084837, 1865084763, 1865084684, 1865084674, 1865084647, 8673744404], "tags": {"amenity": "hospital", "emergency": "yes", "name": "Saint John Regional Hospital", "phone": "+1 506 648600-0", "website": "https://en.horizonnb.ca/home/facilities-and-services/facilities/saint-john-regional-hospital.aspx", "wheelchair": "yes", "wikidata": "Q14875635"}}, {"type": "way", "id": 939464858, "center": {"lat": 44.3002162, "lon": -69.7707405}, "nodes": [8268954480, 8702518760, 8702518761, 8702518762, 8702518763, 8702518764, 8702518765, 8702518766, 8702518767, 8702518768, 8702518769, 8702518770, 8702518771, 8702518772, 8702518773, 8702518774, 8702518775, 8702518776, 8702518777, 8702518778, 8702518779, 8702518780, 8555219430, 8555219431, 8555219432, 8555219433, 8555219434, 8555219435, 8555219436, 8555219437, 8555219438, 8555219439, 8555219440, 8555219441, 8555219442, 8103545882, 8555219443, 8103545883, 8555219444, 8555219445, 8555219446, 8576592707, 8576592708, 8576592709, 8576592710, 101844335, 8576592711, 8576592712, 8576592713, 8576592714, 8576592715, 8576592716, 8576592717, 8576592718, 8576592719, 8576592720, 8576592721, 8576592722, 8576592723, 8576592724, 8576592725, 8576592726, 8576592727, 8702518781, 8268954487, 8268954486, 8268954485, 8268954484, 8268954483, 8268954482, 8702518783, 8702518782, 8268954481, 8268954480], "tags": {"addr:city": "Augusta", "addr:housenumber": "250", "addr:postcode": "04330", "addr:state": "ME", "addr:street": "Arsenal Street", "amenity": "hospital", "healthcare": "hospital", "name": "Riverview Grounds"}}, {"type": "way", "id": 946000248, "center": {"lat": 49.1186943, "lon": -66.483575}, "nodes": [8757639816, 8757655517, 8757655518, 8757655519, 8757655520, 8757655521, 8757655522, 8757639816], "tags": {"amenity": "hospital", "healthcare": "hospital", "name": "Hospital De Sainte-Anne-Des-Monts"}}, {"type": "way", "id": 950186547, "center": {"lat": 46.7072291, "lon": -64.2372505}, "nodes": [8287803977, 8796405308, 8796405309, 8796405310, 8796405311, 8796450266, 8796405312, 8287803995, 8287803977], "tags": {"addr:city": "O'Leary", "addr:housenumber": "14", "addr:postcode": "C0B 1V0", "addr:street": "MacKinnon Drive", "amenity": "hospital", "fax": "+1 902-859-8774", "healthcare": "hospital", "phone": "+1 902-859-8700", "website": "https://www.princeedwardisland.ca/en/information/health-pei/community-hospital-oleary"}}, {"type": "way", "id": 961673806, "center": {"lat": 45.5730135, "lon": -62.6438251}, "nodes": [8895613257, 8895613258, 8895613259, 8895613260, 8895613257], "tags": {"amenity": "hospital", "healthcare": "hospital", "name": "Aberdeen Hospital", "operator": "NSHA"}}, {"type": "way", "id": 1011343043, "center": {"lat": 48.8131082, "lon": -64.4965093}, "nodes": [1564905099, 9330893268, 10212121256, 10212121270, 9330893256, 9330893257, 9330893258, 9330893259, 9330893260, 9330893261, 9330893262, 10212121255, 10212121254, 10212121253, 9330893263, 9330893264, 9330893265, 9330893266, 10212121257, 1564905099], "tags": {"amenity": "hospital", "healthcare": "hospital"}}, {"type": "way", "id": 1014977786, "center": {"lat": 44.9863393, "lon": -64.1196351}, "nodes": [9363064984, 9363064980, 9363064981, 9363065015, 9363064984], "tags": {"addr:city": "Garlands Crossing", "addr:housenumber": "89", "addr:postcode": "B0N 2T0", "addr:street": "Payzant Drive", "amenity": "hospital", "name": "Hants Community Hospital", "phone": "+1 902-792-2000", "website": "https://www.nshealth.ca/locations-details/Hants%20Community%20Hospital"}}, {"type": "way", "id": 1020394673, "center": {"lat": 48.4685796, "lon": -67.4193033}, "nodes": [6354920319, 6354920320, 4247791831, 6293477256, 6354922792, 6354920319], "tags": {"amenity": "hospital", "healthcare": "hospital", "name": "CSSS De La Matap\u00e9dia"}}, {"type": "way", "id": 1020574950, "center": {"lat": 48.8435767, "lon": -67.5244584}, "nodes": [1519271528, 1519271506, 1519270913, 1519270407, 2242643009, 1519271528], "tags": {"amenity": "hospital", "healthcare": "hospital", "name": "Hopital de Matane"}}, {"type": "way", "id": 1020957361, "center": {"lat": 47.6123392, "lon": -68.7993204}, "nodes": [2790412613, 9416464483, 1498483908, 2790412691, 9617145092, 2790412684, 2790412750, 2790412732, 2790412711, 2790412613], "tags": {"amenity": "hospital", "healthcare": "hospital", "name": "Centre de sant\u00e9 et de services sociaux de T\u00e9miscouata"}}, {"type": "way", "id": 1038119929, "center": {"lat": 48.4349368, "lon": -68.5720633}, "nodes": [4535938660, 3517343974, 3517343973, 3517343967, 3517343969, 3517343968, 4535938657, 9561576360, 4535938660], "tags": {"amenity": "hospital", "healthcare": "hospital", "name": "Centre de sant\u00e9 et de services sociaux Rimouski-Neigette - Centre d'h\u00e9bergement"}}, {"type": "way", "id": 1088035103, "center": {"lat": 46.3513771, "lon": -62.244286}, "nodes": [9968940286, 9968940287, 9968940288, 9968940289, 9968940290, 9968940291, 9968940292, 9968940286], "tags": {"amenity": "hospital", "healthcare": "hospital", "name": "Souris Hospital"}}, {"type": "way", "id": 1093922768, "center": {"lat": 45.6765927, "lon": -62.7270305}, "nodes": [10019000878, 10019000879, 2474654042, 2474654417, 10019000878], "tags": {"amenity": "hospital", "healthcare": "hospital", "name": "Sutherland Harris Memorial Hospital"}}, {"type": "way", "id": 1101309749, "center": {"lat": 45.6747349, "lon": -62.652764}, "nodes": [10078253341, 10078253342, 10078253343, 10078253344, 10078253345, 10078253346, 10078253347, 10078253348, 10078253349, 10078253350, 10078253351, 10078253352, 10078253353, 10078253354, 10078253341], "tags": {"amenity": "hospital", "healthcare": "hospital", "name": "Pictou Landing Health Centre"}}, {"type": "way", "id": 1111229457, "center": {"lat": 44.3824265, "lon": -64.3272313}, "nodes": [10168007582, 10168007573, 10167980501, 10168007470, 10168007533, 10168007430, 10168007546, 10168007587, 10168007582], "tags": {"addr:city": "Lunenburg", "addr:housenumber": "14", "addr:postcode": "B0J 2C0", "addr:province": "Nova Scotia", "addr:street": "High Street", "amenity": "hospital", "name": "Fisherman's Memorial Hospital", "phone": "+1 902-634-8801", "website": "https://www.nshealth.ca/locations-details/Fishermen's%20Memorial%20Hospital"}}, {"type": "way", "id": 1126674711, "center": {"lat": 45.8034453, "lon": -64.1971527}, "nodes": [1627754635, 10208610177, 10208610178, 10208610179, 10208610180, 1627754564, 1627754623, 1627754625, 1627754447, 10208610181, 10208610182, 10208610188, 10208610187, 10208610194, 10208610193, 10208610192, 10302327121, 10302327122, 10302327123, 10302327124, 10302327125, 10302327126, 1627754635], "tags": {"amenity": "hospital", "emergency": "yes", "healthcare": "hospital", "name": "Cumberland Regionial Health Care Centre", "wheelchair": "yes"}}, {"type": "way", "id": 1134392778, "center": {"lat": 43.8503602, "lon": -69.6388675}, "nodes": [11123488554, 10575593136, 10575593137, 10575600460, 7744751679, 7744765670, 10575600458, 10575600459, 7744735441, 7744749435, 7744719327, 10575600457, 10575600456, 10575600455, 7744733212, 10575600454, 10575600453, 10575600452, 10575600451, 7744779981, 10575600450, 7744794145, 10575600449, 7744763451, 10575600448, 10575600447, 10575600446, 7744777398, 7744747065, 7744761207, 7744730978, 10575600445, 10575600444, 10575600443, 10575600442, 7744744833, 10575593138, 11123488582, 11123488581, 11123488572, 11123488583, 8568160902, 11123488570, 11123488571, 11123488561, 11123488560, 11123488559, 11123488558, 11123488563, 11123488557, 11123488562, 11123488566, 11123488554], "tags": {"amenity": "hospital", "healthcare": "hospital", "name": "LincolnHealth - St. Andrews Campus"}}, {"type": "relation", "id": 3441284, "center": {"lat": 46.2554358, "lon": -63.1004998}, "members": [{"type": "way", "ref": 28327070, "role": "outer"}, {"type": "way", "ref": 256743279, "role": "inner"}, {"type": "way", "ref": 256743281, "role": "inner"}, {"type": "way", "ref": 256743282, "role": "inner"}, {"type": "way", "ref": 1218551154, "role": "inner"}, {"type": "way", "ref": 256768580, "role": "inner"}], "tags": {"addr:city": "Charlottetown", "addr:housenumber": "60", "addr:postcode": "C1A8T5", "addr:province": "PE", "addr:street": "Riverside Drive", "amenity": "hospital", "building": "yes", "emergency": "yes", "healthcare": "hospital", "healthcare:speciality": "general;paediatrics;intensive;orthopaedics;dialysis;ophthalmology;emergency;surgery;oncology;radiology;maternity", "name": "Queen Elizabeth Hospital", "operator": "Health PEI", "operator:type": "government", "start_date": "1982", "type": "multipolygon", "wikidata": "Q7270342", "wikipedia": "en:Queen Elizabeth Hospital (Charlottetown)"}}, {"type": "relation", "id": 5852876, "center": {"lat": 45.3492303, "lon": -63.3033676}, "members": [{"type": "way", "ref": 180426858, "role": "outer"}, {"type": "way", "ref": 390889831, "role": "inner"}, {"type": "way", "ref": 390889832, "role": "inner"}, {"type": "way", "ref": 390889833, "role": "inner"}], "tags": {"addr:city": "Truro", "addr:housenumber": "600", "addr:postcode": "B2N 5A1", "addr:street": "Abenaki Road", "amenity": "hospital", "building": "yes", "emergency": "yes", "healthcare": "hospital", "name": "Colchester East Hants Health Centre", "phone": "+1 902-893-4321", "phone:patients": "+1 902-893-4321", "source": "bing", "type": "multipolygon", "website": "https://nshealth.ca/locations-details/Colchester%20East%20Hants%20Health%20Centre", "wheelchair": "yes"}}, {"type": "relation", "id": 8427806, "center": {"lat": 46.2265695, "lon": -61.3043559}, "members": [{"type": "way", "ref": 605049671, "role": "inner"}, {"type": "way", "ref": 117664921, "role": "outer"}], "tags": {"addr:city": "Inverness", "addr:housenumber": "39", "addr:postcode": "B0E 1N0", "addr:province": "Nova Scotia", "addr:street": "Maple Street", "amenity": "hospital", "building": "hospital", "ele": "2", "healthcare": "hospital", "name": "Inverness Consolidated Memorial Hospital", "phone": "+1 902-258-2100", "type": "multipolygon", "website": "https://www.nshealth.ca/locations-details/Inverness%20Consolidated%20Memorial%20Hospital"}}, {"type": "relation", "id": 8685362, "center": {"lat": 44.6383079, "lon": -63.5808465}, "members": [{"type": "way", "ref": 28908522, "role": ""}, {"type": "way", "ref": 14504771, "role": ""}, {"type": "way", "ref": 24509821, "role": ""}, {"type": "way", "ref": 467502700, "role": ""}, {"type": "way", "ref": 584733664, "role": ""}, {"type": "way", "ref": 631165707, "role": ""}, {"type": "way", "ref": 70587361, "role": ""}, {"type": "relation", "ref": 8685361, "role": ""}], "tags": {"abbr_name": "VG", "amenity": "hospital", "healthcare": "hospital", "name": "Victoria General", "type": "site"}}, {"type": "relation", "id": 8685363, "center": {"lat": 44.6376579, "lon": -63.5835821}, "members": [{"type": "way", "ref": 298881215, "role": ""}, {"type": "way", "ref": 298879983, "role": ""}, {"type": "way", "ref": 298882032, "role": ""}, {"type": "way", "ref": 70587333, "role": ""}, {"type": "way", "ref": 298881699, "role": ""}], "tags": {"amenity": "hospital", "healthcare": "hospital", "name": "IWK", "official_name": "Isaak Walton Killam Hospital", "phone": "+1 888-470-5888;+1 902-470-8888", "type": "site"}}, {"type": "relation", "id": 13679395, "center": {"lat": 44.6518444, "lon": -63.5495412}, "members": [{"type": "way", "ref": 1021702028, "role": "outer"}, {"type": "way", "ref": 1021702030, "role": "outer"}, {"type": "way", "ref": 1021662188, "role": "outer"}, {"type": "way", "ref": 1021662189, "role": "outer"}, {"type": "way", "ref": 1021702029, "role": "outer"}], "tags": {"addr:city": "Dartmouth", "addr:housenumber": "300", "addr:province": "Nova Scotia", "addr:street": "Pleasant Street", "amenity": "hospital", "healthcare": "hospital", "name": "Nova Scotia Hospital", "operator": "Capital Health", "type": "multipolygon"}}, {"type": "relation", "id": 13679397, "center": {"lat": 44.6545919, "lon": -63.5479184}, "members": [{"type": "way", "ref": 1021694798, "role": "outer"}, {"type": "way", "ref": 468932586, "role": "outer"}], "tags": {"addr:city": "Dartmouth", "addr:housenumber": "325", "addr:province": "Nova Scotia", "addr:street": "Pleasant Street", "amenity": "hospital", "emergency": "yes", "healthcare": "hospital", "name": "Dartmouth General Hospital", "operator": "Capitol Health", "type": "multipolygon"}}, {"type": "relation", "id": 13726677, "center": {"lat": 44.7565211, "lon": -63.6588976}, "members": [{"type": "way", "ref": 1025047061, "role": "outer"}, {"type": "way", "ref": 1025047060, "role": "outer"}, {"type": "way", "ref": 1025047065, "role": "outer"}, {"type": "way", "ref": 1025047063, "role": "outer"}, {"type": "way", "ref": 1025044750, "role": "outer"}, {"type": "way", "ref": 1025044749, "role": "outer"}, {"type": "way", "ref": 1025047067, "role": "outer"}], "tags": {"amenity": "hospital", "healthcare": "hospital", "type": "multipolygon"}}, {"type": "relation", "id": 14228833, "center": {"lat": 46.6746505, "lon": -67.9987529}, "members": [{"type": "way", "ref": 443072387, "role": "outer"}, {"type": "way", "ref": 1067711517, "role": "outer"}], "tags": {"addr:city": "Presque Isle", "addr:housenumber": "140", "addr:postcode": "04769", "addr:state": "ME", "addr:street": "Academy Street", "amenity": "hospital", "beds": "89", "emergency": "yes", "gnis:feature_id": "1910235", "healthcare": "hospital", "name": "The Aroostook Medical Center", "opening_hours": "24/7", "phone": "+1-207-768-4000", "short_name": "TAMC", "type": "multipolygon", "website": "http://www.tamc.org/", "wikidata": "Q54872432"}}, {"type": "relation", "id": 16022735, "center": {"lat": 47.4045545, "lon": -61.8978242}, "members": [{"type": "way", "ref": 1185156441, "role": "outer"}, {"type": "way", "ref": 1185156442, "role": "outer"}], "tags": {"amenity": "hospital", "name": "Centre De Readaptation Des \u00eele", "operator": "CISSS", "type": "multipolygon"}}]}