{"version": 0.6, "generator": "Overpass API 0.7.61.5 4133829e", "osm3s": {"timestamp_osm_base": "2023-10-31T20:57:44Z", "copyright": "The data included in this document is from www.openstreetmap.org. The data is made available under ODbL."}, "elements": [{"type": "node", "id": 356676423, "lat": 40.6469523, "lon": -111.9332293, "tags": {"addr:city": "Salt Lake City", "addr:housenumber": "5770", "addr:postcode": "84123", "addr:street": "South 1500 West", "amenity": "hospital", "emergency": "no", "gnis:feature_id": "1436587", "healthcare": "hospital", "healthcare:speciality": "psychiatry", "name": "Wasatch Canyons Hospital", "phone": "+1 801 313 7770", "website": "https://intermountainhealthcare.org/locations/primary-childrens-hospital/hospital-information/contact-maps-directions/wasatch-canyons-behavioral-health/"}}, {"type": "node", "id": 356685658, "lat": 40.6878705, "lon": -111.873578, "tags": {"addr:city": "Salt Lake City", "addr:housenumber": "617", "addr:postcode": "84107", "addr:street": "East 3900 South", "amenity": "hospital", "emergency": "no", "gnis:feature_id": "2432257", "healthcare": "hospital", "name": "Salt Lake Surgical Center"}}, {"type": "node", "id": 357958245, "lat": 46.1806046, "lon": -112.793195, "tags": {"addr:city": "Warm Springs", "addr:postcode": "59425", "amenity": "hospital", "emergency": "no", "gnis:feature_id": "792839", "healthcare:speciality": "psychiatry", "name": "Montana State Hospital", "phone": "+1 406 693 7000", "website": "https://dphhs.mt.gov/amdd/MSH.aspx", "wikidata": "Q14704737", "wikipedia": "en:Montana State Hospital"}}, {"type": "node", "id": 358652950, "lat": 43.1874153, "lon": -112.3346991, "tags": {"addr:city": "Blackfoot", "addr:housenumber": "700", "addr:postcode": "83221", "addr:street": "East Alice Street", "amenity": "hospital", "emergency": "no", "gnis:feature_id": "375262", "healthcare": "hospital", "healthcare:speciality": "psychiatry", "name": "State Hospital South", "phone": "+1-208-785-8401", "website": "http://healthandwelfare.idaho.gov/medical/mentalhealth/statehospitals/tabid/495/default.aspx"}}, {"type": "node", "id": 358665780, "lat": 47.6982747, "lon": -116.7992944, "tags": {"amenity": "hospital", "emergency": "no", "gnis:feature_id": "399526", "healthcare": "hospital", "healthcare:speciality": "psychiatry", "name": "Kootenai Health Behavioral Health Services", "old_name": "Pine Crest Hospital"}}, {"type": "node", "id": 358667479, "lat": 42.5661081, "lon": -114.483156, "tags": {"addr:city": "Twin Falls", "addr:housenumber": "228", "addr:postcode": "83301", "addr:street": "Shoup Avenue West", "amenity": "hospital", "emergency": "no", "gnis:feature_id": "401260", "healthcare": "hospital", "healthcare:speciality": "psychiatry", "name": "St. Luke\u2019s Canyon View Behavioral Health Services", "old_name": "Canyon View Hospital", "phone": "+1-208-814-7900", "website": "https://www.stlukesonline.org/communities-and-locations/facilities/hospitals-and-medical-centers/st-lukes-canyon-view-behavioral-health-services"}}, {"type": "node", "id": 358668072, "lat": 43.6071105, "lon": -116.2667862, "tags": {"addr:state": "ID", "amenity": "hospital", "ele": "825", "gnis:created": "04/01/1993", "gnis:feature_id": "401501", "healthcare": "hospital", "name": "Intermountain Hospital"}}, {"type": "node", "id": 1828219248, "lat": 43.8784927, "lon": -110.5738423, "tags": {"addr:city": "Moran", "addr:housenumber": "550", "addr:postcode": "83013", "addr:state": "WY", "addr:street": "Pronghorn Place", "amenity": "hospital", "emergency": "no"}}, {"type": "node", "id": 4467044293, "lat": 49.8835665, "lon": -119.4497089, "tags": {"amenity": "hospital", "healthcare": "hospital", "name": "BC Prosthetic & Orthotic Services", "name:en": "BC Prosthetic & Orthotic Services"}}, {"type": "node", "id": 5146199742, "lat": 49.9133861, "lon": -116.9136176, "tags": {"addr:city": "Kaslo", "addr:housenumber": "673", "addr:postcode": "V0G 1M0", "addr:street": "A Avenue", "addr:unit": "Lower", "amenity": "hospital", "emergency": "no", "name": "Kaslo Primary Health Centre", "operator": "Victorian Community Health Centre"}}, {"type": "node", "id": 5146199743, "lat": 49.9134061, "lon": -116.9144432, "tags": {"addr:city": "Kaslo", "addr:housenumber": "673", "addr:postcode": "V0G 1M0", "addr:street": "A Avenue", "addr:unit": "Upper", "amenity": "hospital", "emergency": "yes", "level": "1", "name": "Victorian Community Health Centre", "operator": "Victorian Community Health Centre", "wheelchair": "yes"}}, {"type": "node", "id": 5611527803, "lat": 43.1959518, "lon": -112.3549159, "tags": {"addr:city": "Blackfoot", "addr:housenumber": "350", "addr:postcode": "83221", "addr:street": "North Meridian Street", "amenity": "hospital", "beds": "8", "emergency": "no", "healthcare": "hospital", "healthcare:speciality": "neurosurgery", "name": "Idaho Doctors' Hospital", "operator": "Bingham Memorial Hospital", "phone": "+1-208-782-2900", "website": "https://www.binghammemorial.org/idaho-doctors-hospital-blackfoot"}}, {"type": "node", "id": 6283888336, "lat": 43.5974945, "lon": -116.5171771, "tags": {"addr:city": "Nampa", "addr:housenumber": "4300", "addr:postcode": "83687", "addr:state": "ID", "addr:street": "East Flamingo Avenue", "amenity": "hospital", "emergency": "yes", "healthcare": "hospital", "name": "Saint Alphonsus Medical Center - Nampa"}}, {"type": "node", "id": 6388426551, "lat": 49.2205368, "lon": -119.9559674, "tags": {"amenity": "hospital", "healthcare": "hospital", "name": "Ashnola at the Crossing", "operator": "BC Mental Health & Substance Abuse Services", "website": "http://www.bcmhsus.ca/our-services/provincial-addiction-programs/ashnola-at-the-crossing"}}, {"type": "node", "id": 6975864509, "lat": 43.6189074, "lon": -110.628574, "tags": {"amenity": "hospital", "healthcare": "hospital"}}, {"type": "node", "id": 7895285985, "lat": 44.0240434, "lon": -116.929504, "tags": {"addr:city": "Fruitland", "addr:housenumber": "1210", "addr:postcode": "83619", "addr:state": "ID", "addr:street": "Northwest 16th Street", "amenity": "hospital", "contact:phone": "+1-208-381-2222", "contact:website": "https://www.stlukesonline.org/communities-and-locations/facilities/hospitals-and-medical-centers/st-lukes-fruitland-medical-plaza", "emergency": "yes", "healthcare": "hospital", "healthcare:speciality": "general;emergency;laboratory;clinical_laboratory;surgery;family_medicine;internal;outpatient;multi_speciality", "name": "St. Luke's Fruitland Medical Plaza", "opening_hours": "Mo-Fr 09:00-17:00", "operator": "St. Luke's Health System"}}, {"type": "node", "id": 7979577108, "lat": 48.1065721, "lon": -119.7821557, "tags": {"amenity": "hospital", "emergency": "emergency_ward_entrance", "healthcare": "hospital", "name": "Emergency enterance"}}, {"type": "node", "id": 7996602515, "lat": 42.7175006, "lon": -110.9304477, "tags": {"addr:city": "Afton", "addr:housenumber": "901", "addr:postcode": "83110", "addr:state": "WY", "addr:street": "Adams Street", "amenity": "hospital", "healthcare": "hospital", "healthcare:speciality": "general", "name": "Star Valley Health Hospital", "phone": "+1-307-885-5800"}}, {"type": "node", "id": 8307978071, "lat": 46.0102586, "lon": -112.5407819, "tags": {"amenity": "hospital", "healthcare": "hospital", "name": "St. James Hospital"}}, {"type": "node", "id": 8639089972, "lat": 45.2603805, "lon": -111.3010582, "tags": {"amenity": "hospital", "emergency": "yes", "healthcare": "hospital", "name": "Bozeman Health"}}, {"type": "node", "id": 8779239915, "lat": 42.9225727, "lon": -111.0028984, "tags": {"addr:city": "Thayne", "addr:housenumber": "387", "addr:postcode": "83127", "addr:state": "WY", "addr:street": "North Main Street", "amenity": "hospital", "healthcare": "hospital", "name": "Premier Home Health, Inc", "operator": "Prime Healthcare Services", "operator:wikidata": "Q7243267", "operator:wikipedia": "en:Prime Healthcare Services", "phone": "+1-307-883-5500", "website": "https://www.premierhomehealthcare.com/"}}, {"type": "node", "id": 9111800072, "lat": 40.5074059, "lon": -111.4137307, "tags": {"amenity": "hospital", "healthcare": "hospital", "healthcare:speciality": "hospice;home_health", "name": "Encompass Health", "operator": "Encompass Health", "operator:wikidata": "Q5690400", "operator:wikipedia": "en:Encompass Health", "strapline": "Home Health and Hospice"}}, {"type": "node", "id": 9702347376, "lat": 40.6458486, "lon": -111.8358369, "tags": {"addr:city": "Holladay", "addr:housenumber": "5800", "addr:postcode": "84121", "addr:state": "UT", "addr:street": "Highland Drive", "amenity": "hospital", "description": "Since 1969, Utah Youth Village have been working to help provide young Utahns with the adult relationships and learning opportunities they need to thrive.", "healthcare": "hospital", "healthcare:speciality": "foster_care", "image": "https://s35598.pcdn.co/wp-content/uploads/2020/04/UYVillage_Logo.png", "name": "Utah Youth Village", "phone": "(801) 272-9980", "website": "https://youthvillage.org"}}, {"type": "node", "id": 9882334839, "lat": 44.4171081, "lon": -118.9598405, "tags": {"addr:city": "John Day", "addr:housenumber": "170", "addr:postcode": "97845", "addr:state": "OR", "addr:street": "Ford Road", "amenity": "hospital", "healthcare": "hospital", "name": "Blue Mountain Hospital", "website": "https://bluemountainhospital.org/"}}, {"type": "node", "id": 10874330196, "lat": 43.6003745, "lon": -116.5312612, "tags": {"addr:city": "Nampa", "addr:housenumber": "1652", "addr:postcode": "83687", "addr:state": "ID", "addr:street": "11th Avenue North", "amenity": "hospital", "beds": "16", "healthcare": "hospital", "healthcare:speciality": "psychiatry", "name": "State Hospital West", "phone": "+1 208 606 7777", "website": "https://healthandwelfare.idaho.gov/dhw/state-hospital-west"}}, {"type": "node", "id": 10874450099, "lat": 43.065168, "lon": -115.850283, "tags": {"addr:city": "Mountain Home Afb", "addr:housenumber": "90", "addr:postcode": "83648-1000", "addr:state": "ID", "addr:street": "Hope Drive", "amenity": "hospital", "healthcare": "hospital", "name": "366th Medical Group - Mountain Home Airforce Base Medical Facility", "phone": "+1 208 828 7900", "website": "https://mountainhome.tricare.mil"}}, {"type": "node", "id": 10874458887, "lat": 43.5861268, "lon": -116.3588419, "tags": {"amenity": "hospital", "beds": "92", "healthcare": "hospital", "healthcare:speciality": "psychiatry", "name": "Cottonwood Creek Behavioral Hospital", "phone": "+1 208 996 8449", "website": "https://www.cottonwoodcreekboise.com"}}, {"type": "node", "id": 10914355899, "lat": 41.2638287, "lon": -110.9470982, "tags": {"addr:city": "Evanston", "addr:housenumber": "831", "addr:postcode": "82931", "addr:state": "WY", "addr:street": "Highway 150 South", "amenity": "hospital", "beds": "238", "healthcare": "hospital", "healthcare:speciality": "psychiatry", "name": "Wyoming State Hospital", "phone": "+1-307-789-3464", "website": "https://health.wyo.gov/behavioralhealth/statehospital/"}}, {"type": "node", "id": 10920324687, "lat": 40.7579422, "lon": -111.8228069, "tags": {"addr:city": "Salt Lake City", "addr:housenumber": "501", "addr:postcode": "84108", "addr:state": "UT", "addr:street": "Chipeta Way", "amenity": "hospital", "beds": "94", "healthcare": "hospital", "healthcare:speciality": "psychiatry", "name": "University Of Utah Neuropsychiatric Institute", "website": "https://healthcare.utah.edu/hmhi"}}, {"type": "node", "id": 10920367585, "lat": 40.305434, "lon": -111.6625831, "tags": {"addr:city": "Provo", "addr:housenumber": "306", "addr:postcode": "84604", "addr:state": "UT", "addr:street": "West River Bend Lane", "amenity": "hospital", "beds": "40", "contact:sts": "+1 888-346-5822", "contact:tty": "+1 800-346-4128", "contact:vco": "+1 800-346-7141", "emergency": "no", "fax": "+1 801-226-8890", "healthcare": "hospital", "name": "Utah Valley Specialty Hospital", "operator": "Ernest Health", "operator:type": "private", "phone": "+1 801-226-8880", "website": "https://uvsh.ernesthealth.com", "wheelchair": "yes"}}, {"type": "node", "id": 10920409045, "lat": 41.0754081, "lon": -112.0792064, "tags": {"addr:city": "Syracuse", "addr:housenumber": "2732", "addr:postcode": "84075", "addr:state": "UT", "addr:street": "West 2700 South", "amenity": "hospital", "beds": "26", "healthcare": "hospital", "healthcare:speciality": "psychiatry", "name": "Viewpoint Center", "website": "https://www.viewpointcenter.com"}}, {"type": "node", "id": 10920439577, "lat": 40.6795415, "lon": -111.893282, "tags": {"addr:city": "Murray", "addr:housenumber": "4252 S", "addr:postcode": "84107", "addr:state": "UT", "addr:street": "Birkhill Boulevard", "amenity": "hospital", "beds": "38", "healthcare": "hospital", "name": "KPC Promise Hospital Of Salt Lake", "phone": "+1 385 425 0050", "website": "https://saltlake.kpcph.com"}}, {"type": "node", "id": 11176850386, "lat": 48.2146042, "lon": -114.3233174, "tags": {"amenity": "hospital", "emergency": "yes", "healthcare": "hospital", "name": "Logan Health Medical Center", "old_name": "Kalispell Regional Medical Center", "opening_hours": "24/7", "operator": "Logan Healthcare", "phone": "+1 406 752 5111", "website": "https://www.logan.org/health/locations/logan-health-medical-center", "wikidata": "Q14704640", "wikipedia": "en:Logan Health"}}, {"type": "way", "id": 27366960, "center": {"lat": 41.1847815, "lon": -111.9532813}, "nodes": [682237735, 682237772, 682237776, 682237781, 682237788, 682237792, 682237797, 300433636, 682349115, 300433643, 9228641394, 598055767, 598055733, 300433798, 598055768, 682210001, 484210082, 300433815, 682237700, 484210083, 300433831, 497355061, 682237735], "tags": {"addr:city": "Ogden", "addr:housenumber": "4401", "addr:postcode": "84403", "addr:state": "UT", "addr:street": "Harrison Boulevard", "amenity": "hospital", "ele": "4600 ft", "emergency": "yes", "healthcare": "hospital", "name": "McKay-Dee Hospital", "name_1": "Intermountain Heath Care", "note": "Area is approximate", "operator": "Intermountain Healthcare", "operator:wikidata": "Q6047563", "operator:wikipedia": "en:Intermountain Healthcare", "phone": "+1-801-387-2800", "website": "https://intermountainhealthcare.org/", "wheelchair": "yes", "wikidata": "Q14711818", "wikipedia": "en:McKay-Dee Hospital"}}, {"type": "way", "id": 32331040, "center": {"lat": 40.3137616, "lon": -111.7134137}, "nodes": [364000693, 9834728263, 364000694, 364000695, 364000696, 364000697, 939745510, 364000698, 364000693], "tags": {"addr:city": "Orem", "addr:housenumber": "700", "addr:postcode": "84057", "addr:street": "West 800 North", "amenity": "hospital", "emergency": "yes", "healthcare": "hospital", "name": "Timpanogos Regional Hospital", "opening_hours": "24/7", "phone": "+1 801 714 6000", "website": "https://timphospital.com/", "wikidata": "Q7807642"}}, {"type": "way", "id": 33634352, "center": {"lat": 40.7712208, "lon": -111.8388781}, "nodes": [384772157, 6218104424, 6218104425, 6218104426, 6218104423, 384772158, 384772159, 384772160, 384772161, 6218104431, 6218104430, 6218104429, 6218104428, 6218104427, 384772162, 6218104432, 6218104433, 6218104434, 6218104435, 6218104436, 6218104437, 6218104438, 6218104439, 6218104440, 6218104441, 6218104442, 6218104443, 6218104444, 6218104445, 6218104446, 6218104447, 6218104448, 6218104449, 6218104450, 6218104451, 384772163, 6218104453, 384772164, 6218104452, 384772165, 384772166, 6218104454, 384772168, 6218104455, 6218104456, 384772169, 384772170, 6218104457, 384772171, 384772172, 10566467944, 6218104458, 6218104459, 384772173, 384772179, 384772181, 384772183, 384772184, 6218104403, 6218104404, 6218104405, 6218104406, 6218104408, 6218104407, 6218104409, 6218104410, 6218104411, 6218104412, 6218104413, 6218104414, 384772185, 6218104415, 6218104416, 6218104417, 6218104418, 6218104419, 6218104420, 6218104421, 6218104422, 384772157], "tags": {"addr:city": "Salt Lake City", "addr:housenumber": "100", "addr:postcode": "84113", "addr:state": "UT", "addr:street": "Mario Capecchi Drive", "amenity": "hospital", "building": "hospital", "ele": "1490", "emergency": "yes", "healthcare": "hospital", "height": "21", "layer": "1", "name": "Primary Children's Hospital", "opening_hours": "24/7", "operator": "Intermountain Healthcare", "operator:wikidata": "Q6047563", "operator:wikipedia": "en:Intermountain Healthcare", "phone": "+1 801 662 1000", "website": "https://intermountainhealthcare.org/locations/primary-childrens-hospital/", "wikidata": "Q7243062"}}, {"type": "way", "id": 33634604, "center": {"lat": 40.7729023, "lon": -111.8347557}, "nodes": [384775064, 384775065, 384775066, 384775067, 384775068, 384775069, 384775070, 384775071, 384775072, 384775073, 384775074, 384775075, 2463302668, 384775076, 384775077, 384775078, 384775079, 384775080, 384775081, 384775082, 2464622803, 1485341630, 384775083, 384775084, 384775085, 384775086, 384775087, 384775088, 384775089, 1485341617, 384775093, 1485341614, 1485341611, 1485341604, 1485341586, 1485341602, 384775064], "tags": {"addr:city": "Salt Lake City", "addr:housenumber": "1950", "addr:postcode": "84112", "addr:street": "Circle of Hope", "amenity": "hospital", "building": "yes", "ele": "1530", "emergency": "no", "healthcare": "hospital", "height": "35", "name": "Huntsman Cancer Hospital", "phone": "+1 801 587 7000", "website": "https://huntsmancancer.org/", "wikidata": "Q5945809"}}, {"type": "way", "id": 33908953, "center": {"lat": 40.7773923, "lon": -111.8504258}, "nodes": [388499640, 388499641, 388499642, 388499643, 388499644, 388499645, 388499646, 388499647, 388499648, 388499649, 388499650, 1661530745, 388499651, 388499652, 388499653, 388499654, 388499655, 388499656, 388499657, 388499640], "tags": {"addr:city": "Salt Lake City", "addr:housenumber": "1275", "addr:postcode": "84103", "addr:street": "East Fairfax Road", "amenity": "hospital", "brand": "Shriners Hospitals for Children", "brand:wikidata": "Q7504109", "brand:wikipedia": "en:Shriners Hospitals for Children", "building": "yes", "emergency": "no", "healthcare": "hospital", "healthcare:speciality": "paediatrics", "name": "Shriners Hospitals for Children", "phone": "+1 801 536 3500", "website": "http://www.shrinershospitalsforchildren.org/locations/saltlakecity"}}, {"type": "way", "id": 36821838, "center": {"lat": 41.7555507, "lon": -111.8216349}, "nodes": [427996964, 3404462386, 3404462387, 3404462388, 3404462389, 9306946129, 10981538877, 10981538868, 10981538864, 3404462383, 3404462382, 427996965, 427983662, 4462226939, 4462226940, 427983664, 3404462392, 3404462391, 3404462390, 427996966, 3404463593, 3404463594, 3404462385, 3404462384, 427996964], "tags": {"addr:city": "Logan", "addr:housenumber": "1400", "addr:postcode": "84341", "addr:state": "UT", "addr:street": "North 500 East", "amenity": "hospital", "emergency": "yes", "gnis:feature_id": "1448619", "healthcare": "hospital", "name": "Logan Regional Hospital", "opening_hours": "24/7", "operator": "Intermountain Healthcare", "operator:type": "private", "operator:wikidata": "Q6047563", "operator:wikipedia": "en:Intermountain Healthcare", "phone": "+1 435 716 1000", "website": "https://intermountainhealthcare.org/locations/logan-regional-hospital/", "wheelchair": "yes", "wikidata": "Q6667136"}}, {"type": "way", "id": 36940189, "center": {"lat": 41.7750188, "lon": -111.8215389}, "nodes": [429561432, 9306634810, 4540097499, 4540097496, 4540097494, 4540097492, 4540097491, 429561415, 429561413, 9306634781, 11200997022, 429561432], "tags": {"addr:city": "North Logan", "addr:housenumber": "2380", "addr:postcode": "84341", "addr:street": "North 400 East", "amenity": "hospital", "emergency": "yes", "healthcare": "hospital", "name": "Cache Valley Hospital", "opening_hours": "24/7", "phone": "tel:4357139700", "website": "https://cachevalleyhospital.com/"}}, {"type": "way", "id": 39152977, "center": {"lat": 40.5447532, "lon": -111.8635654}, "nodes": [468752046, 468752048, 6861347637, 6861347636, 6861347635, 6861347634, 6861347633, 6861347632, 6861347631, 468752050, 6861347630, 6861347629, 468752052, 6861347628, 468752046], "tags": {"amenity": "hospital", "building": "yes", "emergency": "no", "healthcare": "hospital", "name": "Intermountian Healthcare South Sandy Clinic"}}, {"type": "way", "id": 41230398, "center": {"lat": 40.6984674, "lon": -111.9899315}, "nodes": [503826763, 8912360690, 503826765, 503826766, 503826767, 503826768, 9805108303, 503826769, 503826770, 503826772, 503826763], "tags": {"addr:city": "West Valley City", "addr:housenumber": "3460 S", "addr:postcode": "84120", "addr:state": "UT", "addr:street": "Pioneer Parkway", "amenity": "hospital", "emergency": "yes", "healthcare": "hospital", "name": "Holy Cross Hospital - Jordan Valley West", "old_name": "Pioneer Valley Hospital", "opening_hours": "24/7", "operator": "Centura Health", "operator:wikidata": "Q110940557", "operator:wikipedia": "en:Centura Health", "phone": "+1 801 964 3100", "website": "https://www.centura.org/location/holy-cross-hospital-jordan-valley-west/hc"}}, {"type": "way", "id": 82711293, "center": {"lat": 40.3802971, "lon": -111.7666815}, "nodes": [962975805, 962975807, 10276701540, 10276701535, 10276701534, 962975810, 962975812, 962975805], "tags": {"addr:city": "American Fork", "addr:housenumber": "170", "addr:postcode": "84003", "addr:street": "North 1100 East", "amenity": "hospital", "beds": "90", "emergency": "yes", "healthcare": "hospital", "name": "American Fork Hospital", "opening_hours": "24/7", "operator": "Intermountain Healthcare", "operator:wikidata": "Q6047563", "operator:wikipedia": "en:Intermountain Healthcare", "phone": "+1 801 855 3300", "website": "https://intermountainhealthcare.org/locations/american-fork-hospital/", "wikidata": "Q4743841"}}, {"type": "way", "id": 100584338, "center": {"lat": 49.8734256, "lon": -119.4936591}, "nodes": [1162933608, 1162933609, 1162933610, 1162933611, 1162933612, 1162933613, 1162933614, 1162933615, 1162933616, 1162933617, 1162933608], "tags": {"amenity": "hospital", "emergency": "yes", "healthcare": "hospital", "name": "Kelowna General Hospital", "wheelchair": "yes"}}, {"type": "way", "id": 102179690, "center": {"lat": 49.5136559, "lon": -115.0560971}, "nodes": [1179279715, 1179279793, 1179279741, 1179279526, 1155884378, 1179279753, 1179279529, 1179279700, 1179279733, 1179279504, 1179279677, 1179279499, 1179279703, 1179279715], "tags": {"amenity": "hospital", "emergency": "yes", "healthcare": "hospital", "name": "Elk Valley Hospital", "opening_hours": "24/7", "source": "Bing", "website": "https://www.interiorhealth.ca/locations/elk-valley-hospital"}}, {"type": "way", "id": 103626582, "center": {"lat": 49.2048198, "lon": -119.8327895}, "nodes": [1196571360, 1196570590, 1196568892, 1196571149, 1196569430, 1196567883, 1196570092, 1196568475, 1196570721, 1196569020, 1196571281, 1196569581, 1196568052, 1196570254, 1196571360], "tags": {"amenity": "hospital", "building": "yes", "emergency": "yes", "name": "South Similkameen Health Centre", "source": "NRCan-CanVec-7.0"}}, {"type": "way", "id": 108178880, "center": {"lat": 40.5203843, "lon": -111.9802742}, "nodes": [1240485933, 9143559346, 9143559347, 9143559348, 4602023302, 5361602389, 2439379107, 4602024095, 4602038177, 4602038176, 1241526125, 4602023299, 9143559345, 1240485933], "tags": {"addr:city": "Riverton", "addr:housenumber": "3741 W", "addr:postcode": "84065", "addr:street": "12600 South", "amenity": "hospital", "beds": "97", "emergency": "yes", "healthcare": "hospital", "name": "Riverton Hospital", "opening_hours": "24/7", "operator": "Intermountain Healthcare", "operator:wikidata": "Q6047563", "operator:wikipedia": "en:Intermountain Healthcare", "phone": "+1-801-285-4000", "website": "https://intermountainhealthcare.org/locations/riverton-hospital/"}}, {"type": "way", "id": 121252710, "center": {"lat": 46.199171, "lon": -119.1207655}, "nodes": [5736435761, 1354252028, 1357893932, 1357893887, 1357893896, 1357893864, 5736435756, 5736435757, 5736435758, 5736435759, 5736435760, 5736435761], "tags": {"addr:city": "Kennewick", "addr:housenumber": "900", "addr:postcode": "99336", "addr:street": "South Auburn Street", "amenity": "hospital", "emergency": "no", "healthcare": "hospital", "name": "Trios Women's and Children's Hospital", "old_name": "Kennewick General Hospital", "operator": "Trios Health", "phone": "+1 509 221 7000", "website": "http://www.trioshealth.org/"}}, {"type": "way", "id": 122090015, "center": {"lat": 42.5903241, "lon": -114.4956412}, "nodes": [1365112477, 1365112458, 1365112456, 1365112462, 1365112477], "tags": {"addr:city": "Twin Falls", "addr:housenumber": "801", "addr:postcode": "83301", "addr:street": "Pole Line Road West", "amenity": "hospital", "emergency": "yes", "healthcare": "hospital", "name": "St. Luke's Magic Valley Regional Medical Center", "opening_hours": "24/7", "operator": "St. Luke's", "phone": "+1 208 814 1000", "website": "https://www.stlukesonline.org/communities-and-locations/facilities/hospitals-and-medical-centers/st-lukes-magic-valley-medical-center"}}, {"type": "way", "id": 123962247, "center": {"lat": 49.7259612, "lon": -113.3932708}, "nodes": [5566420865, 10215579560, 1380917821, 304642858, 304642856, 1379442783, 1379442785, 5566420858, 5566420859, 5566420869, 5566420860, 5566420872, 5566420877, 5566420870, 5566420863, 5566420867, 5566420861, 5566420878, 5566420879, 5566420862, 5566420876, 5566420864, 5566420871, 5566420875, 5566420874, 5566420866, 5566420868, 5566420873, 5566420865], "tags": {"amenity": "hospital", "healthcare": "hospital"}}, {"type": "way", "id": 134157708, "center": {"lat": 46.8751383, "lon": -114.0002698}, "nodes": [357979099, 7701250221, 4907827305, 4907827304, 357979099], "tags": {"addr:city": "Missoula", "addr:housenumber": "500", "addr:postcode": "59802", "addr:street": "West Broadway Street", "amenity": "hospital", "emergency": "yes", "gnis:feature_id": "1781158", "healthcare": "hospital", "name": "Saint Patrick Hospital", "opening_hours": "24/7", "operator": "Providence Health & Services", "operator:wikidata": "Q7252430", "operator:wikipedia": "en:Providence Health & Services", "phone": "+1 406 543 7271", "website": "https://montana.providence.org/hospitals/st-patrick/", "wheelchair": "yes", "wikidata": "Q14704774", "wikipedia": "en:St. Patrick Hospital and Health Sciences Center"}}, {"type": "way", "id": 147431475, "center": {"lat": 40.2326967, "lon": -111.6354349}, "nodes": [1606556344, 1606556345, 10226403200, 1606556394, 10226403199, 1606556392, 10226403198, 10226403197, 1606556396, 10226403196, 10226403195, 10226403194, 1606556349, 5465229821, 1606556390, 10226403193, 1606556388, 10226403191, 10226403190, 10226403189, 1606556389, 10226403188, 1606556357, 1606556359, 1606556361, 1606556363, 1606556366, 1606556372, 10226403180, 10226403181, 1606556380, 10226403183, 10226403187, 10226403184, 1606556375, 10226403185, 1606556378, 1606556400, 2256096267, 1606556402, 2256096342, 1606556404, 1606556411, 1606556414, 1606556416, 1606556418, 1606556420, 1606556422, 1606556426, 1606556430, 1606556433, 1606556443, 1606556446, 1606556450, 1606556454, 1606556456, 1606556458, 1606556460, 1606556461, 1606556463, 1606556465, 1606556483, 1606556487, 1606556489, 1606556491, 1606556493, 1606556496, 1606556344], "tags": {"amenity": "hospital", "emergency": "no", "healthcare": "hospital", "name": "Utah State Hospital", "social_facility:for": "mental_health", "wikidata": "Q7902415"}}, {"type": "way", "id": 148059453, "center": {"lat": 40.6442727, "lon": -111.8851316}, "nodes": [1611688001, 1611688003, 1611688005, 1611688008, 1611687863, 1611687894, 1611688010, 1611688025, 1611688031, 1611688059, 1611688077, 6603471901, 1611688100, 1611688258, 1611688255, 1611688265, 1611688264, 1611688319, 1611688317, 1611688313, 1611688286, 1611688261, 1611688244, 1611688211, 1611688098, 1611688001], "tags": {"addr:city": "Murray", "addr:housenumber": "5848", "addr:postcode": "84107", "addr:street": "Fashion Boulevard", "amenity": "hospital", "emergency": "no", "healthcare": "hospital", "name": "The Orthopedic Specialty Hospital", "old_name": "Cottonwood Hospital", "operator": "Intermountain Healthcare", "operator:wikidata": "Q6047563", "operator:wikipedia": "en:Intermountain Healthcare", "phone": "+1 801 314 4100", "short_name": "TOSH", "website": "https://intermountainhealthcare.org/locations/the-orthopedic-specialty-hospital/", "wikidata": "Q7755434"}}, {"type": "way", "id": 155881346, "center": {"lat": 40.617874, "lon": -111.8964623}, "nodes": [1682363526, 4556473019, 4556473018, 4556473020, 1682363329, 1682363591, 2495726851, 2495726852, 1682363542, 1682363526], "tags": {"addr:city": "Midvale", "addr:housenumber": "7309", "addr:postcode": "84047", "addr:street": "South 180 West", "amenity": "hospital", "emergency": "no", "healthcare": "hospital", "healthcare:speciality": "psychiatry", "name": "Highland Ridge Hospital", "phone": "+1 801 845 9544", "website": "https://www.highlandridgehospital.com/"}}, {"type": "way", "id": 156222396, "center": {"lat": 40.6047854, "lon": -111.8547097}, "nodes": [1684930301, 1684930374, 1684930298, 1684930356, 1684930301], "tags": {"addr:city": "Sandy", "addr:housenumber": "8074", "addr:postcode": "84094", "addr:street": "South 1300 East", "amenity": "hospital", "beds": "84", "emergency": "no", "gnis:feature_id": "2432256", "healthcare": "hospital", "name": "Healthsouth Rehabilitation Hospital of Utah", "phone": "+1 801 561 3400", "website": "https://www.healthsouthutah.com/"}}, {"type": "way", "id": 158294960, "center": {"lat": 46.8691775, "lon": -117.3767356}, "nodes": [1705210665, 4782133520, 4782133519, 1705210680, 1705210678, 356543150, 4782133518, 4782133517, 4782133516, 4782133513, 4782133512, 8681022833, 8681022832, 4782133511, 1705210677, 1705210669, 1705210681, 1705210665], "tags": {"addr:city": "Colfax", "addr:housenumber": "1200", "addr:postcode": "99111", "addr:street": "West Fairview Street", "amenity": "hospital", "emergency": "yes", "gnis:feature_id": "1514561", "healthcare": "hospital", "name": "Whitman Hospital & Medical Clinics", "opening_hours": "24/7", "phone": "+1 509 397 3435", "website": "https://www.whmc.org/"}}, {"type": "way", "id": 174036686, "center": {"lat": 40.3881089, "lon": -111.9249817}, "nodes": [1847859892, 1847859878, 1847859877, 1847859875, 1847859874, 1847859873, 1847859882, 1847859881, 1847859885, 1847859886, 1847859887, 1847859888, 1847859891, 1847859892], "tags": {"amenity": "hospital", "building": "yes", "healthcare": "hospital", "name": "Saratoga Springs Instacare", "operator": "Intermountain Healthcare", "operator:wikidata": "Q6047563", "operator:wikipedia": "en:Intermountain Healthcare"}}, {"type": "way", "id": 187002148, "center": {"lat": 46.0535294, "lon": -118.3556147}, "nodes": [1977593041, 1287371194, 1287371211, 1287371161, 4340423229, 4340429798, 5194178570, 5194178569, 5194178568, 1287371192, 1287371149, 1977593040, 1906504086, 1906504058, 1906504081, 366028450, 1977593018, 9584799626, 1977593041], "tags": {"addr:city": "Walla Walla", "addr:housenumber": "77", "addr:postcode": "99362", "addr:state": "WA", "addr:street": "Wainwright Drive", "amenity": "hospital", "emergency": "no", "gnis:feature_id": "1531330", "healthcare": "hospital", "name": "Jonathan M. Wainwright Memorial VA Medical Center", "phone": "+1 509 525 5200", "website": "https://www.wallawalla.va.gov/"}}, {"type": "way", "id": 187359506, "center": {"lat": 46.0616381, "lon": -118.3430467}, "nodes": [1980674342, 1980674284, 1980674291, 1980674305, 1980674332, 1980674265, 1980674266, 1980674261, 1980674262, 1980674307, 1980674346, 1980674394, 1980674365, 1980674359, 1980674345, 1980674343, 1980674342], "tags": {"addr:city": "Walla Walla", "addr:housenumber": "401", "addr:postcode": "99362", "addr:street": "West Poplar Street", "amenity": "hospital", "emergency": "yes", "healthcare": "hospital", "name": "Providence Saint Mary Medical Center", "old_name": "Saint Marys Hospital", "opening_hours": "24/7", "operator": "Providence Health & Services", "phone": "+1 509 897 3320", "website": "https://washington.providence.org/hospitals/st-mary/"}}, {"type": "way", "id": 224387827, "center": {"lat": 46.2349121, "lon": -119.09564}, "nodes": [2332026596, 2332026598, 2332026600, 2332026604, 2332026611, 2332026609, 2332026607, 2332026606, 2332026602, 2332026596], "tags": {"addr:city": "Pasco", "addr:housenumber": "420", "addr:postcode": "99301", "addr:street": "North 4th Avenue", "amenity": "hospital", "emergency": "yes", "healthcare": "hospital", "name": "Lourdes Medical Center", "opening_hours": "24/7", "operator": "Lourdes Health", "phone": "+1 509 547 7704", "website": "https://www.yourlourdes.com/"}}, {"type": "way", "id": 239614188, "center": {"lat": 49.1030654, "lon": -117.7017315}, "nodes": [2473960488, 8495517157, 8495517156, 8495517155, 8495517154, 8495517149, 8495517148, 8495517147, 8495517150, 8495517146, 8495517151, 8495517152, 2473960489, 8495517153, 2473960490, 2473960491, 2473960492, 2473960493, 2473960495, 2473960496, 2473960497, 2473960498, 2473960500, 8495517161, 8495517162, 2473960501, 2473960502, 8495517160, 8495517159, 8495517158, 2473960503, 2473960504, 8495517164, 2473960505, 8495517163, 2473960506, 2473960507, 2473960508, 2473960509, 2473960510, 2473960488], "tags": {"addr:street": "Hospital Bench", "amenity": "hospital", "building": "yes", "emergency": "yes", "name": "Kootenay Boundary Regional Hospital", "wheelchair": "yes"}}, {"type": "way", "id": 256617556, "center": {"lat": 40.7715869, "lon": -111.8365452}, "nodes": [2622642754, 2622642755, 2622642756, 2622642757, 2622642758, 2622642759, 2622642803, 2622642808, 2622642760, 2622642761, 2622642762, 2622642763, 2622642764, 2622642765, 2622642766, 2622642767, 2622642768, 2622642769, 2622642770, 2622642771, 2622642772, 2622642773, 2622642774, 2622642775, 2622642776, 2622642777, 2622642778, 2622642779, 2622642780, 2622642781, 2622642754], "tags": {"addr:city": "Salt Lake City", "addr:housenumber": "50", "addr:postcode": "84132", "addr:street": "Medical Drive", "amenity": "hospital", "building": "hospital", "emergency": "yes", "healthcare": "hospital", "name": "University of Utah Hospital", "opening_hours": "24/7", "phone": "+1 801 581 2121", "website": "https://healthcare.utah.edu/hospital/", "wikidata": "Q7896515", "wikipedia": "en:University of Utah Hospital"}}, {"type": "way", "id": 278139080, "center": {"lat": 49.4948495, "lon": -117.2851754}, "nodes": [501604950, 2825623334, 503873389, 6853926853, 6853926854, 2560754112, 2825623335, 2825623336, 2825623351, 2825623337, 501604909, 501604950], "tags": {"amenity": "hospital", "healthcare": "hospital", "name": "Kootenay Lake Hospital"}}, {"type": "way", "id": 288267375, "center": {"lat": 49.4644335, "lon": -112.6510414}, "nodes": [2918255768, 2918255786, 2918255746, 2918255761, 2918255750, 2918255730, 5033297787, 5033297788, 5033297790, 5033297798, 5033297791, 2918255779, 5033297792, 2918257003, 5033297793, 360570241, 2918255756, 2918255782, 2918255739, 5033297796, 2918255747, 2918255768], "tags": {"amenity": "hospital", "healthcare": "hospital", "name": "Raymond Health Centre", "source:name": "local_knowledge", "website": "https://www.albertahealthservices.ca/facilities.asp?pid=facility&rid=3306"}}, {"type": "way", "id": 288816358, "center": {"lat": 43.6271471, "lon": -116.2823182}, "nodes": [2923715473, 2923715474, 2923715475, 2923715472, 2923715476, 2923715473], "tags": {"addr:city": "Boise", "addr:housenumber": "8050", "addr:postcode": "83704", "addr:state": "ID", "addr:street": "West Northview Street", "amenity": "hospital", "emergency": "no", "healthcare": "hospital", "healthcare:speciality": "psychiatry", "name": "Safe Haven Hospital of Treasure Valley", "old_name": "Boise Behavioral Health Hospital", "phone": "+1 208 327 0504", "website": "https://www.safehavenhealthcare.org/services/psychiatric-hospital/"}}, {"type": "way", "id": 296529208, "center": {"lat": 49.6852266, "lon": -112.816206}, "nodes": [4611642585, 4611642584, 4611642582, 4611642583, 4611642585], "tags": {"addr:city": "Lethbridge", "addr:housenumber": "960", "addr:postcode": "T1J 1W5", "addr:street": "19 Street S", "amenity": "hospital", "emergency": "yes", "name": "Chinook Regional Hospital"}}, {"type": "way", "id": 297222504, "center": {"lat": 47.6508731, "lon": -117.4256875}, "nodes": [4782145940, 4782145939, 4782145938, 4782145937, 4782145936, 4782145935, 4782145934, 4782145933, 4782145932, 4782145931, 4782145930, 4782145929, 4782145928, 4782145927, 4782145940], "tags": {"addr:city": "Spokane", "addr:housenumber": "911", "addr:postcode": "99204", "addr:street": "West 5th Avenue", "amenity": "hospital", "emergency": "no", "healthcare": "hospital", "healthcare:speciality": "paediatrics", "name": "Shriners Hospitals for Children Spokane", "operator": "Shriners Hospitals for Children", "operator:wikidata": "Q7504109", "operator:wikipedia": "en:Shriners Hospitals for Children", "phone": "+1 509 455 7844", "website": "https://www.shrinershospitalsforchildren.org/locations/spokane", "wikidata": "Q30282041"}}, {"type": "way", "id": 297639513, "center": {"lat": 40.6595381, "lon": -111.8917076}, "nodes": [3015312291, 3015312294, 3015312293, 6571200408, 6571200409, 6571200410, 6571200411, 6571200412, 6571200413, 6571200414, 3015312295, 3015312296, 3015312290, 3015312289, 3015312288, 3015312287, 3015312285, 3015312274, 3015312273, 3015312272, 4272136060, 4272136061, 3015312271, 4272136062, 6587945463, 4272136063, 4272136064, 3015312275, 3015312276, 4272136065, 3015312278, 3015312277, 3015312283, 3015312284, 3015312292, 3015312291], "tags": {"addr:city": "Murray", "addr:housenumber": "5121", "addr:postcode": "84107", "addr:street": "South Cottonwood Street", "amenity": "hospital", "beds": "454", "emergency": "yes", "healthcare": "hospital", "name": "Intermountain Medical Center", "opening_hours": "24/7", "phone": "+1 801 507 7000", "website": "https://intermountainhealthcare.org/locations/intermountain-medical-center/", "wikidata": "Q6047575"}}, {"type": "way", "id": 316768398, "center": {"lat": 40.5897669, "lon": -111.974533}, "nodes": [83650155, 4556316338, 6761041600, 4556316339, 4556316340, 4556316341, 4556316342, 6761041619, 4556316343, 4556316344, 4556316345, 4556316346, 4556316347, 3229468360, 5819518920, 4556316350, 83650155], "tags": {"addr:city": "West Jordan", "addr:housenumber": "3580", "addr:postcode": "84088", "addr:state": "UT", "addr:street": "West 9000 South", "amenity": "hospital", "emergency": "yes", "healthcare": "hospital", "name": "Holy Cross Hospital - Jordan Valley", "opening_hours": "24/7", "operator:wikidata": "Q110940557", "operator:wikipedia": "en:Centura Health", "phone": "+1 801 561 8888", "website": "https://www.centura.org/location/holy-cross-hospital-jordan-valley/hc"}}, {"type": "way", "id": 324879169, "center": {"lat": 43.6534014, "lon": -116.6949839}, "nodes": [4548055991, 4548055987, 4548055988, 4548055989, 9251250584, 4548055990, 3315529303, 3315529304, 9251250540, 9251250541, 4548055998, 4548055996, 9251250542, 9251250543, 9251250544, 9251250552, 9251250545, 4548055992, 4548055991], "tags": {"addr:city": "Caldwell", "addr:housenumber": "1717", "addr:postcode": "83605-5407", "addr:street": "Arlington Avenue", "amenity": "hospital", "emergency": "yes", "healthcare": "hospital", "name": "West Valley Medical Center", "opening_hours": "24/7", "phone": "+1 208 459 4641", "website": "https://westvalleymedctr.com/", "wheelchair": "yes"}}, {"type": "way", "id": 330174593, "center": {"lat": 49.0299743, "lon": -118.4686659}, "nodes": [419477553, 419433445, 3371270071, 3371270072, 3371270073, 8419392244, 3371270074, 8419392253, 8419392255, 419435662, 8419392254, 419432957, 419477553], "tags": {"addr:city": "Grand Forks", "addr:housenumber": "7649", "addr:postcode": "V0H 1H0", "addr:street": "22nd Street", "amenity": "hospital", "emergency": "yes", "healthcare": "hospital", "healthcare:speciality": "general", "name": "Boundary District Hospital", "note": "Phone 9-1-1 in the case of an emergency!", "phone": "+1-250-443-2100", "website": "https://www.interiorhealth.ca/locations/boundary-district-hospital"}}, {"type": "way", "id": 333319564, "center": {"lat": 41.7245374, "lon": -112.1828171}, "nodes": [3404400890, 4649091324, 3404400891, 9409111017, 3404400892, 9409111015, 3404403793, 3404403794, 3404403795, 3404403796, 3404403797, 3404403798, 3404403799, 3404403800, 3404403801, 3404403802, 3404403803, 3404403804, 3404403805, 3404403806, 3404403807, 3404403808, 3404403809, 3404403810, 3404403811, 356681246, 3404403812, 3404400890], "tags": {"addr:city": "Tremonton", "addr:housenumber": "905", "addr:postcode": "84337", "addr:state": "UT", "addr:street": "North 1000 West", "amenity": "hospital", "beds": "16", "emergency": "yes", "gnis:feature_id": "1448118", "healthcare": "hospital", "name": "Intermountain Bear River Valley Hospital", "operator": "Intermountain Healthcare", "phone": "+1 435 207 4500", "website": "http://www.intermountainhealthcare.org/hospitals/bearriver/Pages/home.aspx"}}, {"type": "way", "id": 345054748, "center": {"lat": 41.4909382, "lon": -112.0263071}, "nodes": [3517492066, 3517492067, 3517492068, 3517492069, 4938702562, 3517492081, 4554657285, 4554657286, 4554657287, 4554657284, 4554657283, 3517492073, 3517492074, 2653009508, 4554657282, 4554657281, 4554657280, 4554657279, 9937742693, 9937742424, 4554657278, 4554657277, 4554657276, 4554657275, 4554657274, 4554657273, 4554657272, 4554657271, 4554657270, 9937742375, 9937742560, 3627482259, 9937742473, 9937742601, 3627422876, 3517492079, 3517492066], "tags": {"addr:city": "Brigham City", "addr:housenumber": "950 South", "addr:postcode": "84302", "addr:street": "Medical Drive", "amenity": "hospital", "emergency": "yes", "healthcare": "hospital", "name": "Brigham City Community Hospital", "phone": "+1 435 734 9471", "website": "https://brighamcityhospital.com/", "wheelchair": "yes"}}, {"type": "way", "id": 361493599, "center": {"lat": 42.6205745, "lon": -113.6862373}, "nodes": [3659578883, 358652003, 3659578869, 3659578884, 3659578883], "tags": {"addr:city": "Rupert", "addr:housenumber": "1224", "addr:postcode": "83350", "addr:street": "8th Street", "amenity": "hospital", "emergency": "yes", "gnis:feature_id": "373971", "healthcare": "hospital", "name": "Minidoka Memorial Hospital", "phone": "+1 208 436 0481", "website": "http://www.minidokamemorial.com/"}}, {"type": "way", "id": 363169810, "center": {"lat": 49.4817041, "lon": -119.5777232}, "nodes": [9220322800, 9220322782, 9220322786, 9220322784, 9220322783, 9220322785, 9220322780, 9220322779, 9220322781, 9220322803, 9220322742, 9220322796, 9220322776, 9220322777, 9220322778, 9220322775, 9220322773, 9220322774, 9220322772, 9220322771, 9220322770, 5599924959, 9220322787, 9220322798, 9220322807, 9220322805, 9220322795, 9220322788, 9220322804, 9220322789, 9220322790, 9220322801, 9220322806, 9220322802, 9220322791, 9220322797, 9220322793, 9220322792, 9220322799, 9220322794, 9220322800], "tags": {"amenity": "hospital", "healthcare": "hospital", "name": "Penticton Regional Hospital"}}, {"type": "way", "id": 370131162, "center": {"lat": 44.0253383, "lon": -116.9772991}, "nodes": [3738541228, 3738541264, 3738541271, 3738541302, 3738541838, 3738541837, 3738541836, 3738541301, 3738541300, 3738541296, 3738541295, 3738541289, 3738541282, 3738541279, 3738541274, 3738541270, 3738541256, 3738541251, 3738541244, 3738541231, 3738541227, 3738541314, 3738541228], "tags": {"addr:city": "Ontario", "addr:housenumber": "351", "addr:postcode": "97914", "addr:street": "Southwest 9th Street", "amenity": "hospital", "beds": "49", "emergency": "yes", "gnis:feature_id": "1638992", "healthcare": "hospital", "name": "Saint Alphonsus Medical Center", "opening_hours": "24/7", "phone": "+1 541 881 7000", "website": "https://www.saintalphonsus.org/ontario"}}, {"type": "way", "id": 374423737, "center": {"lat": 49.7847263, "lon": -112.1650529}, "nodes": [3778137857, 3778138249, 3778138203, 3778138092, 3778138104, 3778138113, 3778138183, 3778138079, 3778138214, 3778138106, 3778138221, 3778138240, 3778138128, 3778137857], "tags": {"amenity": "hospital", "healthcare": "hospital"}}, {"type": "way", "id": 385205276, "center": {"lat": 40.7790799, "lon": -111.8800279}, "nodes": [4556092817, 4556092807, 4556092808, 4556092815, 4556092809, 4556092810, 4556092816, 4556092818, 4556092811, 4556092812, 4556092813, 4556092814, 4556092817], "tags": {"addr:city": "Salt Lake City", "addr:postcode": "84143", "addr:state": "UT", "addr:street": "8th Avenue C Street", "amenity": "hospital", "beds": "220", "emergency": "yes", "healthcare": "hospital", "name": "LDS Hospital", "nohousenumber": "yes", "opening_hours": "24/7", "operator": "Intermountain Healthcare", "operator:wikidata": "Q6047563", "operator:wikipedia": "en:Intermountain Healthcare", "phone": "+1 801 408 1100", "website": "https://intermountainhealthcare.org/locations/lds-hospital/", "wikidata": "Q6457522"}}, {"type": "way", "id": 403470620, "center": {"lat": 45.6695958, "lon": -111.0209494}, "nodes": [4058193802, 357971042, 4058193803, 4058193804, 4058193805, 4058193806, 4058193807, 4058193808, 4058193809, 4058193810, 4058193811, 4058193812, 4058193813, 4058193814, 9445422943, 4058193815, 4058193816, 4058193817, 4058193818, 4058193819, 4058193824, 4058193820, 4058193825, 4058193821, 4058193822, 4058193823, 4058193802], "tags": {"addr:city": "Bozeman", "addr:housenumber": "915", "addr:postcode": "59715", "addr:state": "MT", "addr:street": "Highland Boulevard", "amenity": "hospital", "emergency": "yes", "gnis:feature_id": "1737987", "healthcare": "hospital", "name": "Bozeman Deaconess Hospital", "note": "Define non-offset Hospital land use for MapBox base map.", "opening_hours": "24/7", "operator": "Bozeman Health", "phone": "+1 406 414 5000", "website": "https://www.bozemanhealth.org/"}}, {"type": "way", "id": 405585411, "center": {"lat": 47.4907324, "lon": -111.261775}, "nodes": [39364444, 39367051, 39368813, 8200143708, 8200143709, 8200143707, 8200143703, 8200143702, 39370339, 8200143814, 3641352386, 3641352384, 8921129432, 4077578124, 8921129553, 8921129554, 39349222, 8200143621, 8921129521, 9252328895, 39349227, 8200143927, 9252328898, 39349232, 8200144035, 8200143818, 8200144032, 8200143820, 8200143828, 39364444], "tags": {"addr:city": "Great Falls", "addr:housenumber": "1101", "addr:postcode": "59405", "addr:street": "26th Street South", "amenity": "hospital", "emergency": "yes", "gnis:feature_id": "770500", "healthcare": "hospital", "name": "Benefis East", "opening_hours": "24/7", "operator": "Benefis Health System", "phone": "+1 406 455 5000", "website": "http://www.benefis.org/"}}, {"type": "way", "id": 419181918, "center": {"lat": 49.0241427, "lon": -118.4648506}, "nodes": [4193093854, 4193093855, 4193093856, 4193093857, 4193093858, 4193093859, 4193093860, 4193093861, 4193093862, 4193093863, 4193093864, 4193093865, 4193093866, 4193093867, 4193082785, 4193093868, 4193093869, 4193093870, 4193093871, 4193093872, 4193093873, 4193093874, 4193093875, 4193093876, 4193093877, 4193093878, 4193093879, 4193093880, 4193093881, 4193093882, 4193093883, 4193093884, 4193093885, 4193093886, 4193093887, 4193093888, 4193093889, 4193093890, 4193093891, 4193093892, 4193093854], "tags": {"addr:city": "Grand Forks", "addr:postcode": "V0H 1H0", "addr:street": "72nd Avenue", "amenity": "hospital", "healthcare": "hospital", "healthcare:speciality": "general", "name": "Silver Kettle Village"}}, {"type": "way", "id": 422037386, "center": {"lat": 40.7253877, "lon": -111.9331172}, "nodes": [4217612871, 4217612872, 4217612873, 4217612874, 5793356043, 5793356021, 4217612875, 5793360833, 5793356012, 5793360824, 5793360776, 4217612876, 4217612877, 5793360756, 5793356040, 4217612878, 4217612879, 4217612880, 4217612871], "tags": {"addr:city": "Salt Lake City", "addr:state": "UT", "addr:street": "2100 South", "amenity": "hospital", "building": "yes", "emergency": "yes", "healthcare": "hospital", "name": "Redwood Health Center"}}, {"type": "way", "id": 422377553, "center": {"lat": 47.7026595, "lon": -117.4780616}, "nodes": [4221161133, 4221161132, 10268021818, 10268021817, 9467440821, 9467440820, 4221161130, 9467440819, 9467440818, 4221161131, 10268021536, 4221161133], "tags": {"addr:city": "Spokane", "addr:housenumber": "4815", "addr:postcode": "99205", "addr:street": "North Assembly Street", "amenity": "hospital", "emergency": "no", "healthcare": "hospital", "name": "Mann-Grandstaff VA Medical Center", "opening_hours": "08:00-18:00", "phone": "+1 509 434 7000", "website": "https://www.spokane.va.gov/"}}, {"type": "way", "id": 423513808, "center": {"lat": 49.4225669, "lon": -112.8636878}, "nodes": [360388268, 360387046, 360546999, 7597371710, 7597371692, 360418723, 360388268], "tags": {"amenity": "hospital", "healthcare": "hospital"}}, {"type": "way", "id": 423894248, "center": {"lat": 41.1916771, "lon": -111.951399}, "nodes": [682348687, 4234092336, 682370809, 4234092338, 4234092337, 682348686, 682348687], "tags": {"addr:city": "Ogden", "addr:housenumber": "3903", "addr:postcode": "84403", "addr:state": "UT", "addr:street": "Harrison Boulevard", "amenity": "hospital", "ele": "4600 ft", "emergency": "no", "healthcare": "hospital", "name": "McKay-Dee North Campus", "operator": "Intermountain Healthcare", "operator:wikidata": "Q6047563", "phone": "+1-801-387-3600", "website": "https://intermountainhealthcare.org/"}}, {"type": "way", "id": 428066072, "center": {"lat": 40.685896, "lon": -111.8569842}, "nodes": [4272144803, 4272144804, 4557541506, 4557541505, 4557541795, 4557541794, 4557541796, 4557541797, 4272144805, 4272144806, 4272144803], "tags": {"addr:city": "Salt Lake City", "addr:housenumber": "1200 E", "addr:postcode": "84124", "addr:state": "UT", "addr:street": "3900 South", "amenity": "hospital", "beds": "317", "emergency": "yes", "gnis:feature_id": "1449060", "healthcare": "hospital", "name": "St. Mark's Hospital", "operator": "HCA", "operator:wikidata": "Q1630431", "operator:wikipedia": "en:HCA Healthcare", "phone": "+1 801 268 7111", "website": "https://stmarkshospital.com/", "wikidata": "Q30281054", "wikipedia": "en:St. Mark's Hospital (Utah)"}}, {"type": "way", "id": 431241600, "center": {"lat": 40.2479566, "lon": -111.6657167}, "nodes": [4304830500, 4304830501, 4304830502, 4553910546, 4553910547, 4553910548, 4553910549, 9554552447, 9554552448, 4304830503, 4304830504, 4553910550, 6961266662, 9395375095, 4304830500], "tags": {"addr:city": "Provo", "addr:housenumber": "1034", "addr:postcode": "84604", "addr:street": "North 500 West", "amenity": "hospital", "beds": "395", "emergency": "yes", "gnis:feature_id": "1449135", "healthcare": "hospital", "name": "Utah Valley Hospital", "old_name": "Utah Valley Regional Medical Center", "opening_hours": "24/7", "operator": "Intermountain Healthcare", "operator:type": "private_non_profit", "operator:wikidata": "Q6047563", "operator:wikipedia": "en:Intermountain Healthcare", "phone": "+1 801 357 7850", "website": "https://intermountainhealthcare.org/locations/utah-valley-hospital/", "wikidata": "Q7902518"}}, {"type": "way", "id": 431241612, "center": {"lat": 40.2488692, "lon": -111.668823}, "nodes": [4304830556, 1307488100, 1307488163, 1307488035, 1307488172, 1307488116, 1307488176, 4304830561, 4304830562, 4304830563, 4304830564, 5252274426, 1307488155, 4304830556], "tags": {"addr:city": "Provo", "addr:housenumber": "1055", "addr:postcode": "84604", "addr:street": "North 500 West", "amenity": "hospital", "emergency": "no", "gnis:feature_id": "1448929", "healthcare": "hospital", "name": "Revere Health", "old_name": "Riverwood Hospital", "phone": "+1 801 429 8000", "website": "https://reverehealth.com/"}}, {"type": "way", "id": 440804961, "center": {"lat": 43.4807798, "lon": -110.7506216}, "nodes": [4385735202, 9885631224, 4385735203, 356511389, 4385735204, 9885631418, 4385735205, 4385735202], "tags": {"addr:city": "Jackson", "addr:housenumber": "625", "addr:postcode": "83001", "addr:state": "WY", "addr:street": "Broadway", "amenity": "hospital", "emergency": "yes", "gnis:feature_id": "1794885", "healthcare": "hospital", "name": "Saint John's Medical Center", "phone": "+1 307 733 3636", "website": "https://www.tetonhospital.org/"}}, {"type": "way", "id": 442214760, "center": {"lat": 49.616799, "lon": -114.4581192}, "nodes": [4399046459, 10212150724, 10212150725, 10212150726, 4399046460, 4399046461, 4399046462, 4399046463, 4399046464, 4399046465, 4399046466, 4399046467, 4399046468, 4399046469, 4399046470, 4399046471, 4399046472, 4399046473, 4399046474, 4399046475, 4399046459], "tags": {"amenity": "hospital", "healthcare": "hospital", "name": "Crowsnest Pass Medical Centre"}}, {"type": "way", "id": 442666470, "center": {"lat": 49.7214956, "lon": -114.8925408}, "nodes": [4403384298, 4403384283, 4403384284, 4403384285, 4403384286, 4403384287, 4403384296, 4403384297, 9499436434, 4403384298], "tags": {"amenity": "hospital", "healthcare": "hospital", "name": "Sparwood Health Centre"}}, {"type": "way", "id": 444457636, "center": {"lat": 41.7898574, "lon": -110.5413837}, "nodes": [4419376212, 4419376217, 4419376219, 4419376222, 4419376223, 4419376221, 356511390, 4419376231, 4419376230, 4419376229, 4419376228, 4419376227, 4419376226, 4419376225, 4419376224, 4419376214, 4419376213, 4419376212], "tags": {"addr:city": "Kemmerer", "addr:housenumber": "711", "addr:postcode": "83101", "addr:street": "Onyx Street", "amenity": "hospital", "emergency": "yes", "gnis:feature_id": "1794886", "healthcare": "hospital", "name": "South Lincoln Medical Center", "phone": "+1 307 877 4401", "website": "https://www.southlincolnmedical.com/"}}, {"type": "way", "id": 444458639, "center": {"lat": 42.7171161, "lon": -110.9305236}, "nodes": [4419385701, 4419385696, 4419385695, 4419385694, 4419385693, 4419385700, 4419385699, 4419385708, 4419385709, 4419385703, 356506834, 2884679729, 4419385702, 4419385701], "tags": {"addr:city": "Afton", "addr:housenumber": "901", "addr:postcode": "83110", "addr:street": "Adams Street", "amenity": "hospital", "emergency": "yes", "gnis:feature_id": "1603341", "healthcare": "hospital", "name": "Star Valley Health", "old_name": "Star Valley Latter Day Saints Hospital", "phone": "+1 307 885 5800", "website": "https://www.starvalleyhealth.org/", "wikidata": "Q17063054", "wikipedia": "en:Star Valley Medical Center"}}, {"type": "way", "id": 444624615, "center": {"lat": 49.4932651, "lon": -113.9472695}, "nodes": [4420879594, 4420879595, 10214492849, 4420879596, 4420879597, 1748695773, 4420879594], "tags": {"amenity": "hospital", "healthcare": "hospital", "name": "Pincher Creek Health Centre"}}, {"type": "way", "id": 448073378, "center": {"lat": 46.1780635, "lon": -119.1916102}, "nodes": [4451241304, 4451241263, 4451241177, 4451241171, 4451241166, 4451241155, 4451241147, 4451241126, 4451241095, 10861337189, 4451241034, 4451241023, 4451240943, 4451240930, 4451240912, 4451240960, 4451241016, 4451241061, 10720034664, 4451241094, 4451241193, 4451241247, 4451241304], "tags": {"addr:city": "Kennewick", "addr:housenumber": "3810", "addr:postcode": "99336", "addr:street": "Plaza Way", "amenity": "hospital", "emergency": "yes", "healthcare": "hospital", "name": "Trios Southridge Hospital", "opening_hours": "24/7", "operator": "Trios Health", "phone": "+1 509 221 7000", "website": "https://www.trioshealth.org/"}}, {"type": "way", "id": 452961757, "center": {"lat": 46.0086463, "lon": -112.544925}, "nodes": [357984972, 11287255332, 11287254699, 357984978, 4908922402, 4908922401, 11287255062, 11287255060, 11287255061, 11287255059, 4908922400, 357984902, 11287254874, 11287255041, 4497777558, 357984911, 4908922399, 11287254651, 11287254502, 11287254499, 4908922398, 11287254496, 11287254494, 11287254492, 11287254490, 4908922397, 11287254610, 11287254487, 11287254485, 11287254611, 11287254483, 11287254481, 11287254612, 11287254479, 11287255367, 11287254477, 11287254613, 11287254475, 11287254473, 11287254471, 11287254469, 4908922396, 11287239667, 11287254614, 11287239664, 11287239662, 11287239660, 11287239658, 11287239656, 11287239654, 11287239652, 11287239650, 11287239648, 4908922395, 11287239646, 11287239644, 11287239642, 11287239640, 11287239638, 11287239635, 4908922394, 4908922393, 11287255366, 4908922392, 11287254615, 11287255365, 4908922391, 11287255364, 11287255363, 11287255362, 4908922390, 11287255338, 11287255337, 11287255336, 11287255335, 4908922389, 11287255334, 11287255333, 357984972], "tags": {"addr:city": "Butte", "addr:housenumber": "400", "addr:postcode": "59701", "addr:street": "South Clark Street", "amenity": "hospital", "emergency": "yes", "gnis:feature_id": "793814", "healthcare": "hospital", "helipad": "yes", "name": "Saint James Healthcare", "old_name": "Saint James Hospital", "opening_hours": "24/7", "phone": "+1 406 723 2500", "website": "https://www.sclhealth.org/locations/st-james-healthcare/"}}, {"type": "way", "id": 458796604, "center": {"lat": 48.2776878, "lon": -116.5496768}, "nodes": [4547454085, 4547454084, 4547454083, 4547454082, 4547454081, 4547454080, 358665790, 4547454079, 4547454085], "tags": {"addr:city": "Sandpoint", "addr:housenumber": "520", "addr:postcode": "83864", "addr:street": "North 3rd Avenue", "amenity": "hospital", "emergency": "yes", "gnis:feature_id": "399529", "healthcare": "hospital", "name": "Bonner County Hospital", "opening_hours": "24/7", "phone": "+1 208 263 1441", "website": "https://bonnergeneral.org/"}}, {"type": "way", "id": 458797591, "center": {"lat": 47.5469964, "lon": -116.1306978}, "nodes": [4547462625, 4547462624, 4547462623, 4547462622, 4547462621, 4547462620, 4547462619, 4547462618, 4547462617, 4547462616, 4547462615, 4547462614, 4547462613, 4547462612, 4547462611, 4547462610, 4547462609, 4547462608, 4547462607, 4547462625], "tags": {"addr:city": "Kellogg", "addr:housenumber": "25", "addr:postcode": "83837", "addr:street": "Jacobs Gulch Road", "amenity": "hospital", "emergency": "yes", "healthcare": "hospital", "name": "Shoshone Medical Center", "opening_hours": "24/7", "phone": "+1 208 784 1221", "website": "https://www.shoshonehealth.com/"}}, {"type": "way", "id": 458860983, "center": {"lat": 46.4167674, "lon": -117.0242643}, "nodes": [4547982694, 4547982693, 4547982692, 2615103777, 4547982691, 4547982690, 4547982689, 4547982688, 4547982687, 4547982686, 4547982685, 4547982684, 4547982694], "tags": {"addr:city": "Lewiston", "addr:housenumber": "415", "addr:postcode": "83501", "addr:street": "6th Street", "amenity": "hospital", "emergency": "yes", "healthcare": "hospital", "name": "Saint Joseph's Regional Medical Center", "opening_hours": "24/7", "phone": "+1 208 743 2511", "website": "https://www.sjrmc.org/"}}, {"type": "way", "id": 458860984, "center": {"lat": 46.3959335, "lon": -117.0209707}, "nodes": [4547982717, 4547982716, 4547982715, 4547982714, 4547982713, 4547982712, 4547982711, 4547982710, 4547982709, 4547982708, 4547982707, 4547982706, 4547982705, 4547982704, 4547982703, 4547982702, 4547982701, 4547982700, 4547982699, 4547982698, 4547982697, 4547982696, 4547982695, 4547982717], "tags": {"addr:city": "Lewiston", "addr:housenumber": "2315", "addr:postcode": "83501", "addr:street": "8th Street", "amenity": "hospital", "emergency": "no", "name": "Valley Medical Center", "opening_hours": "Mo-Sa 07:30-19:00; Su 12:00-17:00", "phone": "+1 208 746 1383", "website": "http://www.valleymedicalcenter.com/"}}, {"type": "way", "id": 458863872, "center": {"lat": 45.9271888, "lon": -116.1276283}, "nodes": [4548004360, 5773868396, 5773868395, 5773868394, 5773868393, 5773868392, 5773868390, 5773868391, 4548004359, 5773868389, 4548004358, 5773868388, 5773868398, 5773868397, 4548004357, 4548004360], "tags": {"addr:city": "Grangeville", "addr:housenumber": "607", "addr:postcode": "83530", "addr:street": "West Main Street", "amenity": "hospital", "emergency": "yes", "healthcare": "hospital", "name": "Syringa Hospital & Clinics", "opening_hours": "24/7", "phone": "+1 208 983 1700", "website": "https://www.syringahospital.org/"}}, {"type": "way", "id": 458864407, "center": {"lat": 44.248519, "lon": -116.9624295}, "nodes": [4548008189, 4548008088, 4548008087, 4548008086, 4548008189], "tags": {"addr:city": "Weiser", "addr:housenumber": "645", "addr:postcode": "83672", "addr:street": "East 5th Street", "amenity": "hospital", "beds": "25", "emergency": "yes", "healthcare": "hospital", "name": "Weiser Memorial Hospital", "opening_hours": "24/7", "phone": "+1 208 549 0370", "website": "http://www.weisermemorialhospital.org/"}}, {"type": "way", "id": 458904887, "center": {"lat": 43.5540006, "lon": -116.57002}, "nodes": [4548334252, 4548334251, 4548334250, 8570489569, 4548334249, 4548334248, 358665813, 4548334247, 7354170692, 4548334246, 4548334252], "tags": {"addr:city": "Nampa", "addr:housenumber": "1512", "addr:postcode": "83686", "addr:street": "12th Avenue Road", "amenity": "hospital", "emergency": "yes", "gnis:feature_id": "399536", "healthcare": "hospital", "name": "Saint Alphonsus Medical Center", "opening_hours": "24/7", "phone": "+1 208 463 5000", "website": "https://www.saintalphonsus.org/"}}, {"type": "way", "id": 458911990, "center": {"lat": 43.5994568, "lon": -116.352288}, "nodes": [4548401178, 4548401177, 4548401176, 4548401175, 4548401174, 4548401173, 4548401172, 4548401171, 4548401170, 4548401169, 4548401168, 4548401167, 11268478529, 4548401166, 4548401161, 4548401160, 4548401178], "tags": {"addr:city": "Meridian", "addr:housenumber": "520", "addr:postcode": "83642", "addr:state": "ID", "addr:street": "South Eagle Road", "amenity": "hospital", "emergency": "yes", "healthcare": "hospital", "name": "Saint Lukes Meridian Medical Center", "opening_hours": "24/7", "phone": "+1-208-706-5000", "website": "https://www.stlukesonline.org/communities-and-locations/facilities/hospitals-and-medical-centers/st-lukes-meridian-medical-center"}}, {"type": "way", "id": 458915602, "center": {"lat": 43.6888689, "lon": -116.3503669}, "nodes": [4548431709, 9102633563, 9102633564, 4548431708, 9102633562, 2545914645, 9102633574, 4548431707, 9102633573, 4548431706, 9102633572, 9102633571, 4548431705, 9102633570, 9102633569, 4548431704, 9102633568, 9102633565, 9102633566, 9102633567, 4548431703, 4548431709], "tags": {"addr:city": "Eagle", "addr:housenumber": "323", "addr:postcode": "83616", "addr:state": "ID", "addr:street": "East Riverside Drive", "amenity": "hospital", "emergency": "yes", "healthcare": "hospital", "name": "Saint Alphonsus Eagle Health Plaza", "opening_hours": "24/7", "phone": "+1 208 367 5300", "website": "https://www.saintalphonsus.org/eagle-health-plaza"}}, {"type": "way", "id": 458921175, "center": {"lat": 43.6125485, "lon": -116.2586544}, "nodes": [4548479556, 4548479557, 4548479558, 4548479559, 4548479560, 4548479561, 4548479562, 4548479563, 4548479564, 4548479565, 4548479566, 4548479567, 4548479568, 4548479569, 4548479570, 8920049233, 10184428665, 10184428667, 8920064421, 8920064420, 8920064419, 8920064418, 8920064417, 8920049316, 8920049315, 8920049314, 6990517227, 6990517228, 6990517223, 8920049313, 8920049312, 8920049311, 10184428666, 8920064428, 4548479546, 4548479547, 4548479548, 4548479549, 4548479550, 8920049295, 4548479551, 4548479553, 4548479554, 4548479555, 4548479556], "tags": {"addr:city": "Boise", "addr:housenumber": "1055", "addr:postcode": "83706", "addr:state": "ID", "addr:street": "North Curtis Road", "amenity": "hospital", "emergency": "yes", "gnis:feature_id": "395020", "healthcare": "hospital", "name": "Saint Alphonsus Regional Medical Center", "opening_hours": "24/7", "phone": "+1 208 367 2121", "website": "https://www.saintalphonsus.org/"}}, {"type": "way", "id": 458928501, "center": {"lat": 43.6130672, "lon": -116.1927046}, "nodes": [4548529740, 4548529739, 4548529738, 358665841, 7234149340, 4548529737, 4548529736, 10184216866, 8223397373, 4548529734, 4548529733, 8223397376, 8223397377, 8223397378, 8223397379, 4548529732, 8223397381, 4548529731, 4548529730, 4548529729, 4548529728, 4548529727, 4548529726, 4548529725, 4548529724, 4548529723, 4548529722, 4548529740], "tags": {"addr:city": "Boise", "addr:housenumber": "190", "addr:postcode": "83712", "addr:state": "ID", "addr:street": "East Bannock Street", "amenity": "hospital", "emergency": "yes", "gnis:feature_id": "399564", "healthcare": "hospital", "name": "St. Luke's Boise Medical Center", "old_name": "Saint Lukes Hospital", "opening_hours": "24/7", "phone": "+1 208 381 2222", "website": "https://www.stlukesonline.org/communities-and-locations/facilities/hospitals-and-medical-centers/st-lukes-boise-medical-center", "wikidata": "Q65076661"}}, {"type": "way", "id": 458928504, "center": {"lat": 43.6159473, "lon": -116.1916928}, "nodes": [358665826, 6897257825, 4548529761, 6897246879, 6897246878, 6897246877, 4548529759, 358665826], "tags": {"addr:city": "Boise", "addr:housenumber": "600", "addr:postcode": "83702", "addr:state": "ID", "addr:street": "North Robbins Road", "amenity": "hospital", "emergency": "no", "gnis:feature_id": "399541", "healthcare": "hospital", "name": "St. Luke\u2019s Rehabilitation Hospital", "old_name": "Elks Hospital", "phone": "+1 208 489 4444", "website": "https://www.stlukesonline.org/communities-and-locations/facilities/hospitals-and-medical-centers/st-lukes-rehabilitation-hospital"}}, {"type": "way", "id": 458930326, "center": {"lat": 43.1386221, "lon": -115.6934392}, "nodes": [4548547440, 4548547439, 4548547438, 4548547437, 4548547436, 4548547435, 358650884, 4548547434, 4548547440], "tags": {"addr:city": "Mountain Home", "addr:housenumber": "895", "addr:postcode": "83647", "addr:street": "North 6th East Street", "amenity": "hospital", "emergency": "yes", "gnis:feature_id": "372612", "healthcare": "hospital", "name": "St. Luke's Elmore Medical Center", "old_name": "Elmore Medical Center", "opening_hours": "24/7", "phone": "+1 208 587 8401", "website": "https://www.stlukesonline.org/communities-and-locations/facilities/hospitals-and-medical-centers/st-lukes-elmore-medical-center"}}, {"type": "way", "id": 458937623, "center": {"lat": 43.649257, "lon": -114.3497555}, "nodes": [4548609627, 4548609626, 4548609625, 4548609624, 358665816, 4548609623, 4548609622, 4548609621, 4548609620, 4548609619, 4548609618, 4548609617, 4548609627], "tags": {"addr:city": "Ketchum", "addr:housenumber": "100", "addr:postcode": "83340", "addr:street": "Hospital Drive", "amenity": "hospital", "emergency": "yes", "gnis:feature_id": "399537", "healthcare": "hospital", "name": "St Luke's Wood River Medical Center", "opening_hours": "24/7", "phone": "+1 208 727 8800", "website": "https://www.stlukesonline.org/communities-and-locations/facilities/hospitals-and-medical-centers/st-lukes-wood-river-medical-center"}}, {"type": "way", "id": 458938377, "center": {"lat": 42.7298978, "lon": -114.5196519}, "nodes": [4548613574, 4548613573, 358660950, 4548613572, 4548613571, 4548613570, 4548613569, 4548613574], "tags": {"addr:city": "Jerome", "addr:housenumber": "709", "addr:postcode": "83338", "addr:street": "North Lincoln Avenue", "amenity": "hospital", "beds": "25", "emergency": "yes", "gnis:feature_id": "395798", "healthcare": "hospital", "name": "Saint Luke's Jerome Medical Center", "opening_hours": "24/7", "phone": "+1 208 814 9500", "website": "https://www.stlukesonline.org/communities-and-locations/facilities/hospitals-and-medical-centers/st-lukes-jerome-medical-center"}}, {"type": "way", "id": 458938802, "center": {"lat": 43.6396101, "lon": -113.2951262}, "nodes": [4548620281, 4548620280, 7895791664, 7895791663, 358657159, 4548620279, 4548620278, 4548620277, 4548620276, 4548620275, 4548620274, 4548620273, 4548620272, 4548620281], "tags": {"addr:city": "Arco", "addr:housenumber": "551", "addr:postcode": "83213", "addr:street": "Highland Drive", "amenity": "hospital", "emergency": "yes", "gnis:feature_id": "386180", "healthcare": "hospital", "name": "Lost Rivers Medical Center", "old_name": "Lost River Hospital", "opening_hours": "24/7", "phone": "+1 208 527 8206", "website": "https://lostriversmedical.com/"}}, {"type": "way", "id": 458942492, "center": {"lat": 42.5344554, "lon": -113.7814434}, "nodes": [4548663360, 4548663359, 4548663358, 4548663357, 4548663356, 4548663355, 3758311916, 4548663354, 4548663360], "tags": {"addr:city": "Burley", "addr:housenumber": "1501", "addr:postcode": "83318", "addr:street": "Hiland Avenue", "amenity": "hospital", "emergency": "yes", "name": "Cassia Regional Hospital", "old_name": "Cassia Regional Medical Center", "opening_hours": "24/7", "operator": "Intermountain Healthcare", "phone": "+1 208 678 4444", "website": "https://intermountainhealthcare.org/locations/cassia-regional-hospital/"}}, {"type": "way", "id": 458948470, "center": {"lat": 42.1892244, "lon": -112.2500323}, "nodes": [4548715731, 4548715730, 4548715729, 4548715728, 4548715727, 4548715726, 4548715725, 4548715724, 4548715723, 4548715722, 4548715721, 4548715731], "tags": {"addr:city": "Malad City", "addr:housenumber": "150", "addr:postcode": "83252", "addr:street": "North 200 West", "amenity": "hospital", "emergency": "yes", "healthcare": "hospital", "name": "Nell J. Redfield Memorial Hospital", "old_name": "Oneida County Hospital", "opening_hours": "24/7", "phone": "+1 208 766 2231", "website": "https://www.oneidacountyhospital.com/"}}, {"type": "way", "id": 458948965, "center": {"lat": 42.7815842, "lon": -112.8485502}, "nodes": [4548699412, 4548699411, 4548699410, 358665530, 4548699409, 4548699408, 4548699407, 4548699406, 4548699405, 4548699404, 4548699403, 4548699402, 4548699401, 4548699400, 4548699399, 4548699412], "tags": {"addr:city": "American Falls", "addr:housenumber": "510", "addr:postcode": "83211", "addr:street": "Roosevelt Street", "amenity": "hospital", "emergency": "yes", "gnis:feature_id": "399056", "healthcare": "hospital", "name": "Power County Hospital District", "phone": "+1 208 226 3200", "website": "https://www.pchd.net/"}}, {"type": "way", "id": 458950944, "center": {"lat": 43.8260977, "lon": -111.7707937}, "nodes": [4548737295, 365489993, 2928653304, 2928616811, 2928616810, 2928616809, 2928616808, 2928493879, 2928493878, 2928493877, 2928493876, 2928493909, 2928493908, 2928493907, 2928493906, 2928493905, 4548737294, 4548737293, 4548737292, 4548737291, 4548737290, 4548737289, 4548737288, 4548737287, 4548737286, 4548737285, 2928493793, 2928493792, 2928493791, 2928493790, 2928493789, 2928493616, 2928493617, 2928493618, 2928493619, 2928493620, 2928493621, 2928493622, 2928493623, 2928493624, 2928493625, 2928493626, 4548737284, 4548737283, 4548737295], "tags": {"addr:city": "Rexburg", "addr:housenumber": "450", "addr:postcode": "83440", "addr:street": "East Main Street", "amenity": "hospital", "emergency": "yes", "healthcare": "hospital", "name": "Madison Memorial Hospital", "opening_hours": "24/7", "phone": "+1 208 359 6900", "website": "https://madisonmemorial.org/"}}, {"type": "way", "id": 459011187, "center": {"lat": 45.4326616, "lon": -117.2846596}, "nodes": [4549327722, 4549327721, 4549327720, 4549327719, 4549327718, 4549327717, 4549327716, 4549327715, 4549327714, 4549327713, 4549327712, 4549327722], "tags": {"addr:city": "Enterprise", "addr:housenumber": "601", "addr:postcode": "97828", "addr:street": "Medical Parkway", "amenity": "hospital", "emergency": "yes", "healthcare": "hospital", "name": "Wallowa Memorial Hospital", "opening_hours": "24/7", "phone": "+1 541 426 3111", "website": "https://www.wchcd.org/"}}, {"type": "way", "id": 459017341, "center": {"lat": 44.7948418, "lon": -117.847062}, "nodes": [4549405339, 4549405338, 4549405337, 4549405336, 4549405335, 4549405334, 4549405339], "tags": {"addr:city": "Baker City", "addr:housenumber": "3325", "addr:postcode": "97814", "addr:street": "Pocahontas Road", "amenity": "hospital", "emergency": "yes", "healthcare": "hospital", "name": "Saint Alphonsus Medical Center - Baker City", "old_name": "Saint Elizabeth Hospital", "opening_hours": "24/7", "phone": "+1 541 523 6461", "website": "https://www.saintalphonsus.org/bakercity"}}, {"type": "way", "id": 459018785, "center": {"lat": 45.319334, "lon": -118.1056318}, "nodes": [4549420257, 4549420256, 4549420255, 4549420254, 4549420253, 4549420252, 4549420251, 4549420250, 4549420249, 4549420248, 4549420247, 4549420246, 4549420245, 4549420244, 357332999, 4549420257], "tags": {"addr:city": "La Grande", "addr:housenumber": "900", "addr:postcode": "97850", "addr:street": "Sunset Drive", "amenity": "hospital", "beds": "25", "emergency": "yes", "fixme": "facility needs be updated with recently available imagery", "gnis:feature_id": "1164097", "healthcare": "hospital", "name": "Grande Ronde Hospital", "opening_hours": "24/7", "phone": "+1 541 963 8421", "website": "https://www.grh.org/", "wikidata": "Q5595360"}}, {"type": "way", "id": 459021099, "center": {"lat": 44.4171178, "lon": -118.9597902}, "nodes": [4549442962, 4081077268, 4549442961, 4549442960, 4549442959, 4549442958, 4549442957, 4549442956, 4549442955, 4549442954, 4549442962], "tags": {"addr:city": "John Day", "addr:housenumber": "170", "addr:postcode": "97845", "addr:street": "Ford Road", "amenity": "hospital", "beds": "25", "emergency": "yes", "healthcare": "hospital", "name": "Blue Mountain Hospital", "opening_hours": "24/7", "phone": "+1 541 575 1311", "website": "https://www.bluemountainhospital.org/", "wikidata": "Q4929519"}}, {"type": "way", "id": 459026775, "center": {"lat": 45.6487847, "lon": -118.8125467}, "nodes": [4549488338, 4549488337, 4549488336, 5000278142, 4549488335, 4549488334, 4549488333, 5586355482, 4549488332, 4549488331, 5586355483, 4549488330, 5586355484, 4549488329, 4549488328, 4549488338], "tags": {"addr:city": "Pendelton", "addr:housenumber": "2801", "addr:postcode": "97801", "addr:street": "Saint Anthony Way", "amenity": "hospital", "emergency": "yes", "healthcare": "hospital", "name": "CHI Saint Anthony Hospital", "opening_hours": "24/7", "phone": "+1-541-276-5121", "website": "https://www.sahpendleton.org/", "wikidata": "Q15352957", "wikipedia": "en:St. Anthony Hospital (Pendleton, Oregon)"}}, {"type": "way", "id": 459035892, "center": {"lat": 45.847779, "lon": -119.3082964}, "nodes": [4549569594, 357346573, 4549569593, 4549569592, 4549569591, 4549569590, 4549569589, 4812729508, 4549569388, 4549569387, 4549569386, 4549569385, 4549569384, 4549569383, 4549569382, 4549569594], "tags": {"addr:city": "Hermiston", "addr:housenumber": "610", "addr:postcode": "97838", "addr:street": "Northwest 11th Street", "amenity": "hospital", "emergency": "yes", "gnis:feature_id": "1167887", "healthcare": "hospital", "name": "Good Shepherd Medical Center", "opening_hours": "24/7", "phone": "+1 541 667 3400", "website": "https://www.gshealth.org/"}}, {"type": "way", "id": 459479822, "center": {"lat": 40.0439274, "lon": -111.7141062}, "nodes": [4553244196, 4553244195, 4553244194, 4553244193, 4553244192, 4553244191, 4553244190, 4553244189, 4553244188, 4553244187, 4553244186, 4553244185, 4611229432, 4553244183, 4553244182, 445494393, 4553244181, 4553244196], "tags": {"addr:city": "Payson", "addr:housenumber": "1000", "addr:postcode": "84651", "addr:street": "East 100 North", "amenity": "hospital", "emergency": "yes", "healthcare": "hospital", "name": "Mountain View Hospital", "opening_hours": "24/7", "phone": "+1 801 465 7000", "website": "https://mvhpayson.com/", "wikidata": "Q6925376"}}, {"type": "way", "id": 459579718, "center": {"lat": 40.3106413, "lon": -111.6636549}, "nodes": [356681360, 4553924700, 4678588094, 4553924699, 4553924698, 356681360], "tags": {"addr:city": "Orem", "addr:housenumber": "1350", "addr:postcode": "84097", "addr:street": "East 750 North", "amenity": "hospital", "emergency": "no", "gnis:feature_id": "1448261", "healthcare": "hospital", "healthcare:speciality": "psychiatry", "name": "Provo Canyon Behavioral Hospital", "old_name": "Charter Canyon Hospital", "phone": "+1 801 852 2273", "website": "https://www.pcbh.com/"}}, {"type": "way", "id": 459590931, "center": {"lat": 40.566686, "lon": -112.2982073}, "nodes": [4554014424, 4554014423, 4554014422, 4554014421, 4554014420, 4554014419, 1784719126, 4554014418, 4554014417, 4554014416, 4554014424], "tags": {"addr:city": "Tooele", "addr:housenumber": "2055", "addr:postcode": "84074", "addr:street": "North Main Street", "amenity": "hospital", "beds": "44", "emergency": "yes", "healthcare": "hospital", "name": "Mountain West Medical Center", "old_name": "Tooele Valley Regional Medical Centre", "opening_hours": "24/7", "phone": "+1 435 843 3600", "website": "http://www.mountainwestmc.com/", "wikidata": "Q6925434"}}, {"type": "way", "id": 459593183, "center": {"lat": 40.6879522, "lon": -111.4690581}, "nodes": [4554032913, 4554032912, 4554032911, 4554032910, 4554032909, 4554032908, 4554032907, 4554032906, 4554032905, 4554032904, 4554032903, 4554032902, 4554032901, 4554032900, 4554032899, 4029475651, 4554032914, 4554032913], "tags": {"addr:city": "Park City", "addr:housenumber": "900", "addr:postcode": "84060", "addr:street": "Round Valley Drive", "amenity": "hospital", "emergency": "yes", "healthcare": "hospital", "name": "Park City Hospital", "old_name": "Park City Medical Center", "opening_hours": "24/7", "operator": "Intermountain Healthcare", "phone": "+1 435 658 7000", "website": "https://intermountainhealthcare.org/locations/park-city-hospital/", "wikidata": "Q7137699"}}, {"type": "way", "id": 459683619, "center": {"lat": 41.0910328, "lon": -111.9952203}, "nodes": [4554757506, 4554757507, 4554757508, 4554757509, 389403839, 389403840, 389403841, 389403842, 4554757505, 389403828, 4554757506], "tags": {"addr:city": "Layton", "addr:housenumber": "1600", "addr:postcode": "84041", "addr:street": "West Antelope Drive", "amenity": "hospital", "beds": "220", "emergency": "yes", "healthcare": "hospital", "name": "Holy Cross Hospital - Davis", "old_name": "Davis Hospital and Medical Center", "opening_hours": "24/7", "operator": "Centura Health", "operator:wikidata": "Q110940557", "operator:wikipedia": "en:Centura Health", "phone": "+1 801 807 1000", "website": "https://www.centura.org/location/holy-cross-hospital-davis/hc"}}, {"type": "way", "id": 459704554, "center": {"lat": 41.1640458, "lon": -111.9705984}, "nodes": [4554868719, 4554868718, 4554868717, 4554868716, 616966298, 616966307, 517893451, 517893449, 616966306, 4554868715, 4554868714, 4554868713, 517893190, 344365266, 344365267, 4554868712, 4554868711, 4554868710, 356682035, 4554868709, 4554868708, 4554868719], "tags": {"addr:city": "Washington Terrace", "addr:housenumber": "5475", "addr:postcode": "84405", "addr:street": "South 500 East", "amenity": "hospital", "emergency": "yes", "gnis:feature_id": "1449059", "name": "Ogden Regional Medical Center", "name_1": "Saint Benedicts Hospital", "opening_hours": "24/7", "phone": "+1 801 479 2111", "website": "https://ogdenregional.com/", "wikidata": "Q7079943"}}, {"type": "way", "id": 459706762, "center": {"lat": 41.1571014, "lon": -111.9412688}, "nodes": [4554881970, 4554881969, 4554881968, 4554881967, 509872074, 509872079, 509872083, 509872087, 509872089, 4554881966, 4554881965, 4554881964, 4554881970], "tags": {"addr:city": "South Ogden", "addr:housenumber": "5825", "addr:postcode": "84403", "addr:street": "Harrison Boulevard", "amenity": "hospital", "emergency": "no", "healthcare": "hospital", "name": "Northern Utah Rehabilitation Hospital", "operator": "Ernest Health", "phone": "+1 801 475 5254", "website": "https://nurh.ernesthealth.com/"}}, {"type": "way", "id": 459709346, "center": {"lat": 40.8852868, "lon": -111.8712565}, "nodes": [4554898338, 4554898337, 4554898336, 4554898335, 4554898334, 4554898333, 4554898332, 4554898331, 356682014, 4554898338], "tags": {"addr:city": "Bountiful", "addr:housenumber": "401", "addr:postcode": "84010", "addr:street": "South 400 East", "amenity": "hospital", "emergency": "no", "gnis:feature_id": "1449027", "healthcare": "hospital", "name": "South Davis Community Hospital", "phone": "+1 801 295 2361", "website": "https://www.sdch.com/"}}, {"type": "way", "id": 459709347, "center": {"lat": 40.8861125, "lon": -111.8694441}, "nodes": [4554898366, 4554898365, 4554898364, 4554898363, 4554898362, 4554898361, 4554898360, 4554898359, 4554898358, 4554898357, 4554898356, 4554898355, 4554898354, 4554898353, 4554898352, 4554898351, 4554898350, 4554898349, 4554898348, 4554898347, 4554898346, 4554898345, 4554898344, 4554898343, 4554898342, 4554898341, 4554898340, 4554898339, 4554898366], "tags": {"addr:city": "Bountiful", "addr:housenumber": "630", "addr:postcode": "84010", "addr:street": "East Medical Drive", "amenity": "hospital", "emergency": "yes", "healthcare": "hospital", "name": "Lakeview Hospital", "opening_hours": "24/7", "phone": "+1 801 299 2200", "website": "https://lakeviewhospital.com/"}}, {"type": "way", "id": 459710630, "center": {"lat": 40.8777574, "lon": -111.8955453}, "nodes": [4554905370, 356685646, 4554905369, 4554905368, 4554905367, 4554905366, 4554905370], "tags": {"addr:city": "Woods Cross", "addr:housenumber": "592", "addr:postcode": "84087", "addr:street": "West 1350 South", "amenity": "hospital", "emergency": "no", "gnis:feature_id": "2432248", "healthcare": "hospital", "healthcare:speciality": "psychiatry", "name": "Benchmark Behavioral Health Systems", "phone": "+1 801 299 5319", "website": "https://www.bbhsnet.com/"}}, {"type": "way", "id": 459884061, "center": {"lat": 40.7682229, "lon": -111.8610824}, "nodes": [4556092801, 4556092800, 4556092799, 4556092805, 4556092801], "tags": {"addr:city": "Salt Lake City", "addr:housenumber": "1050", "addr:postcode": "84102", "addr:state": "UT", "addr:street": "South Temple Street", "amenity": "hospital", "beds": "158", "emergency": "yes", "healthcare": "hospital", "name": "Holy Cross Hospital - Salt Lake", "old_name": "Salt Lake Regional Medical Center", "opening_hours": "24/7", "operator": "Centura Health", "operator:wikidata": "Q110940557", "operator:wikipedia": "en:Centura Health", "phone": "+1 801 350 4111", "utahagrc:parcelid": "16052010052000", "website": "https://www.centura.org/location/holy-cross-hospital-salt-lake/hc"}}, {"type": "way", "id": 459890484, "center": {"lat": 40.7557395, "lon": -111.8385387}, "nodes": [4556150806, 4556150805, 509912031, 384742474, 384742473, 384745559, 384745558, 7772408460, 3487302557, 3487302564, 4556150804, 4556150803, 4556150802, 4556150801, 4556150800, 4556150799, 4556150798, 4556150797, 4556150796, 4556150795, 4556150794, 4556150806], "tags": {"addr:city": "Salt Lake City", "addr:housenumber": "500", "addr:postcode": "84148", "addr:street": "Foothill Drive", "amenity": "hospital", "emergency": "yes", "healthcare": "hospital", "name": "George E. Wahlen Department of Veterans Affairs Medical Center", "opening_hours": "24/7", "phone": "+1 801 582 1565", "website": "https://www.saltlakecity.va.gov/"}}, {"type": "way", "id": 459900100, "center": {"lat": 40.5419783, "lon": -112.0142417}, "nodes": [4556229555, 2390921692, 4556229554, 4556229553, 4556229552, 4556229551, 4556229550, 4556229549, 4556229548, 6110354394, 6110354395, 4556229547, 4556229546, 4556229555], "tags": {"addr:city": "South Jordan", "addr:housenumber": "5126", "addr:postcode": "84009", "addr:state": "UT", "addr:street": "Daybreak Parkway", "amenity": "hospital", "emergency": "yes", "healthcare": "hospital", "name": "University of Utah Healthcare - South Jordan Health Center", "opening_hours": "24/7", "phone": "+1 801 213 4500", "website": "https://healthcare.utah.edu/primarycare/southjordan/"}}, {"type": "way", "id": 463963656, "center": {"lat": 40.3026569, "lon": -111.7080222}, "nodes": [937910360, 937910361, 10278989745, 5083821110, 937869936, 5083821111, 5083821112, 937869933, 937869932, 5083825881, 5109463641, 5109463640, 5109463638, 4591540015, 5053996462, 4591540016, 937910398, 937910400, 5104103660, 5104103659, 5104103658, 937910401, 937910356, 720517797, 937910358, 11252961295, 11252961302, 720517636, 937910360], "tags": {"addr:city": "Orem", "addr:housenumber": "331", "addr:postcode": "84057", "addr:street": "North 400 West", "amenity": "hospital", "emergency": "yes", "gnis:feature_id": "1448783", "healthcare": "hospital", "name": "Orem Community Hospital", "opening_hours": "24/7", "operator": "Intermountain Healthcare", "operator:wikidata": "Q6047563", "operator:wikipedia": "en:Intermountain Healthcare", "phone": "+1 801 224 4080", "website": "https://intermountainhealthcare.org/locations/orem-community-hospital/", "wikidata": "Q7101531", "wikipedia": "en:Orem Community Hospital"}}, {"type": "way", "id": 465102523, "center": {"lat": 40.5351846, "lon": -111.8890193}, "nodes": [4601055797, 4601055798, 4601055799, 4601055800, 4601055797], "tags": {"addr:city": "Draper", "addr:housenumber": "11925 S", "addr:postcode": "84020", "addr:state": "UT", "addr:street": "State Street", "amenity": "hospital", "beds": "30", "emergency": "yes", "healthcare": "hospital", "name": "Lone Peak Hospital", "opening_hours": "24/7", "operator": "HCA", "operator:type": "private", "operator:wikidata": "Q1630431", "operator:wikipedia": "en:HCA Healthcare", "phone": "+1-801-545-8000", "website": "https://lonepeakhospital.com/"}}, {"type": "way", "id": 465488340, "center": {"lat": 42.0976361, "lon": -111.8729645}, "nodes": [4604426841, 4604426842, 4604426843, 4604426844, 4604426845, 4604426846, 4604426847, 4604426848, 358665517, 4604426849, 9744163510, 9744163507, 4604426850, 4604426851, 4604426852, 4604426841], "tags": {"addr:city": "Preston", "addr:housenumber": "44", "addr:postcode": "83263", "addr:street": "East 1st North", "amenity": "hospital", "beds": "20", "emergency": "yes", "gnis:feature_id": "399023", "healthcare": "hospital", "name": "Franklin County Medical Center", "opening_hours": "24/7", "phone": "+1 208 852 0137", "website": "https://www.fcmc.org/"}}, {"type": "way", "id": 468561069, "center": {"lat": 45.2604248, "lon": -111.3005267}, "nodes": [4630844920, 4915248103, 4915248102, 4915248101, 4915248100, 4915248099, 4915248098, 4630844939, 4630844938, 4630844935, 4630844937, 4630844936, 4630844921, 4630844922, 4915248097, 4630844923, 4630844920], "tags": {"addr:city": "Big Sky", "addr:housenumber": "334", "addr:postcode": "59716", "addr:street": "Town Center Avenue", "amenity": "hospital", "emergency": "yes", "healthcare": "hospital", "name": "Big Sky Medical Center", "opening_hours": "24/7", "operator": "Bozeman Health", "phone": "+1 406 995 6995", "website": "https://www.bigskymedicalcenter.org/"}}, {"type": "way", "id": 469023597, "center": {"lat": 45.3558685, "lon": -119.5486569}, "nodes": [4634419117, 4634419118, 4634419119, 4634419120, 4634419121, 4634419122, 4634419123, 4634419124, 4634419125, 4634419126, 4634419127, 4634419128, 4634419129, 4634419130, 4634419117], "tags": {"addr:city": "Heppner", "addr:housenumber": "564", "addr:postcode": "97836", "addr:street": "East Pioneer Drive", "amenity": "hospital", "beds": "21", "building": "yes", "emergency": "yes", "gnis:feature_id": "1125432", "healthcare": "hospital", "name": "Pioneer Memorial Hospital", "opening_hours": "24/7", "phone": "+1 541 676 9133", "website": "https://morrowcountyhealthdistrict.org/pioneer-memorial-hospital-nursing-facility-2/"}}, {"type": "way", "id": 483439568, "center": {"lat": 40.8229142, "lon": -115.7304721}, "nodes": [4761751998, 4761751997, 4761751996, 4761751995, 4761751994, 4761751993, 4761751992, 4761751991, 4761751990, 4761751989, 4761751988, 4761751987, 4761751986, 4761751985, 3030179768, 4761751984, 4761751983, 4761751982, 4761751981, 4761751980, 4761751979, 4761751978, 4761751977, 4761751976, 4761751998], "tags": {"addr:city": "Elko", "addr:housenumber": "2001", "addr:postcode": "89801", "addr:state": "NV", "addr:street": "Errecart Boulevard", "amenity": "hospital", "emergency": "yes", "healthcare": "hospital", "helipad": "yes", "name": "Northeastern Nevada Regional Hospital", "opening_hours": "24/7", "phone": "+1 775 738 5151", "website": "https://www.nnrhospital.com/"}}, {"type": "way", "id": 483456590, "center": {"lat": 40.639553, "lon": -116.9407219}, "nodes": [4761920203, 4761920202, 4761920201, 4761920200, 4761920199, 357564846, 4761920198, 4761920197, 4761920203], "tags": {"addr:city": "Battle Mountain", "addr:housenumber": "535", "addr:postcode": "89820", "addr:state": "NV", "addr:street": "South Humboldt Street", "amenity": "hospital", "emergency": "yes", "gnis:feature_id": "2052988", "healthcare": "hospital", "helipad": "no", "name": "Battle Mountain General Hospital", "opening_hours": "24/7", "phone": "+1 775 635 2550", "website": "https://www.bmgh.org/"}}, {"type": "way", "id": 483461648, "center": {"lat": 40.175944, "lon": -118.4820228}, "nodes": [9153716613, 9153718028, 9153718027, 9153716614, 9153716615, 4761987260, 4761987259, 357554500, 9153716613], "tags": {"addr:city": "Lovelock", "addr:housenumber": "855", "addr:postcode": "89419", "addr:state": "NV", "addr:street": "6th Street", "amenity": "hospital", "emergency": "yes", "gnis:feature_id": "851977", "healthcare": "hospital", "helipad": "yes", "name": "Pershing General Hospital", "opening_hours": "24/7", "phone": "+1 775 273 2621", "website": "https://pershinghospital.org/"}}, {"type": "way", "id": 485419285, "center": {"lat": 46.2816428, "lon": -119.2819115}, "nodes": [4781883511, 4781883510, 4781883509, 4781883508, 4781883507, 4781883506, 4781883505, 4781883504, 4781883503, 4781883502, 4781883501, 4781883500, 4781883499, 4781883498, 4781883497, 6239155522, 6239155523, 4781883496, 4781883495, 4781883494, 4781883493, 10179232683, 4781883511], "tags": {"addr:city": "Richland", "addr:housenumber": "888", "addr:postcode": "99352", "addr:street": "Swift Boulevard", "amenity": "hospital", "emergency": "yes", "gnis:feature_id": "1513451", "healthcare": "hospital", "name": "Kadlec Regional Medical Center", "opening_hours": "24/7", "phone": "+1 509 946 4611", "website": "https://www.kadlec.org/"}}, {"type": "way", "id": 485439680, "center": {"lat": 46.3120019, "lon": -117.9703254}, "nodes": [4782094140, 4782094139, 4782094138, 4782094137, 4782094136, 4782094135, 356543114, 4782094134, 4782094133, 4782094132, 4782094131, 4782094130, 4782094129, 4782094140], "tags": {"addr:city": "Dayton", "addr:housenumber": "1012", "addr:postcode": "99328", "addr:street": "South 3rd Street", "amenity": "hospital", "emergency": "yes", "gnis:feature_id": "1514532", "healthcare": "hospital", "name": "Dayton General Hospital", "opening_hours": "24/7", "operator": "Columbia County Health System", "phone": "+1 509 382 2531", "website": "http://www.cchd-wa.org/"}}, {"type": "way", "id": 485441583, "center": {"lat": 46.402437, "lon": -117.0546645}, "nodes": [4782112820, 356543074, 4782112819, 4782112818, 4782112817, 4782112816, 4782112815, 4782112814, 4782112813, 4782112812, 4782112811, 4782112810, 4782112809, 4782112808, 4782112820], "tags": {"addr:city": "Clarkston", "addr:housenumber": "1221", "addr:postcode": "99403", "addr:state": "WA", "addr:street": "Highland Avenue", "amenity": "hospital", "emergency": "yes", "gnis:feature_id": "1514496", "healthcare": "hospital", "name": "Tri-State Memorial Hospital", "opening_hours": "24/7", "phone": "+1 509 758 5511", "website": "https://tristatehospital.org/"}}, {"type": "way", "id": 485444102, "center": {"lat": 47.6702355, "lon": -117.2356764}, "nodes": [4782137315, 4782137314, 4782137313, 4782137312, 10303484945, 10303484944, 10303484943, 10303484948, 4782137315], "tags": {"addr:city": "Spokane Valley", "addr:housenumber": "12606", "addr:postcode": "99216", "addr:street": "East Mission Avenue", "amenity": "hospital", "beds": "123", "emergency": "yes", "gnis:feature_id": "1508608", "healthcare": "hospital", "name": "Valley Hospital", "old_name": "Spokane Valley Hospital", "opening_hours": "24/7", "operator": "Rockwood Health System", "phone": "+1 509 924 6650", "website": "http://www.spokanevalleyhospital.com/"}}, {"type": "way", "id": 485446325, "center": {"lat": 47.7097047, "lon": -117.4059166}, "nodes": [4782150001, 4782150000, 8681127882, 8681127883, 8681127881, 4782149999, 4782149998, 8681127879, 8681127880, 8681127878, 4782149997, 8681127877, 8681127876, 8681127875, 8681127874, 4782149996, 4782150001], "tags": {"addr:city": "Spokane", "addr:housenumber": "5633", "addr:postcode": "99208", "addr:state": "WA", "addr:street": "North Lidgerwood Street", "amenity": "hospital", "emergency": "yes", "healthcare": "hospital", "name": "Providence Holy Family Hospital", "opening_hours": "24/7", "operator": "Providence Health & Services", "operator:wikidata": "Q7252430", "operator:wikipedia": "en:Providence Health & Services", "phone": "+1 509 482 0111", "website": "https://washington.providence.org/hospitals/holy-family-hospital/"}}, {"type": "way", "id": 485447020, "center": {"lat": 47.5707572, "lon": -117.6978834}, "nodes": [4782156142, 5570364705, 5570364704, 4782156141, 4782156140, 4782156139, 4782156138, 4782156137, 4782156136, 4782156135, 4782156134, 4782156133, 356539995, 4782156132, 4782156131, 4782156130, 4782156129, 4782156128, 4782156127, 4782156126, 4782156125, 4782156124, 4782156123, 4782156122, 4782156121, 4782156142], "tags": {"addr:city": "Medical Lake", "addr:postcode": "99022", "addr:street": "Maple Street", "amenity": "hospital", "beds": "287", "emergency": "no", "gnis:feature_id": "1504662", "healthcare": "hospital", "healthcare:speciality": "psychiatry", "name": "Eastern State Hospital", "phone": "+1 509 565 4000", "website": "https://www.dshs.wa.gov/bha/division-state-hospitals/eastern-state-hospital-overview", "wikidata": "Q5330493", "wikipedia": "en:Eastern State Hospital (Washington)"}}, {"type": "way", "id": 485490570, "center": {"lat": 48.1823111, "lon": -117.0491123}, "nodes": [4782741152, 4782741151, 4782741150, 4782741149, 7235876846, 4782741148, 7235876844, 7235876845, 7235876843, 4782741147, 4782741146, 4782741145, 7235876852, 7235876853, 7235876851, 7235876850, 7235876849, 4782741144, 7235876879, 7235876881, 7235876880, 7235876882, 7235876884, 7235876883, 7235876878, 7235876877, 4782741143, 7235876847, 7235876848, 4782741152], "tags": {"addr:city": "Newport", "addr:housenumber": "714", "addr:postcode": "99156", "addr:street": "West Pine Street", "amenity": "hospital", "emergency": "yes", "healthcare": "hospital", "name": "Newport Hospital & Health Services", "old_name": "Newport Community Hospital", "opening_hours": "24/7", "operator": "Pend Oreille County Public Hospital District #1", "phone": "+1 509 447 2441", "website": "https://newporthospitalandhealth.org/"}}, {"type": "way", "id": 485492763, "center": {"lat": 48.2776394, "lon": -117.7106042}, "nodes": [4782761358, 4782761357, 356547378, 4782761356, 4782761355, 2031028285, 2031028282, 2031028279, 2031028277, 2031028257, 2031028242, 4782761358], "tags": {"addr:city": "Chewelah", "addr:housenumber": "500", "addr:postcode": "99109", "addr:street": "East Webster Avenue", "amenity": "hospital", "emergency": "yes", "gnis:feature_id": "1530413", "healthcare": "hospital", "name": "Providence Saint Joseph's Hospital", "old_name": "Saint Joseph's Hospital", "opening_hours": "24/7", "operator": "Providence Health & Services", "operator:wikidata": "Q7252430", "phone": "+1 509 935 8211", "website": "https://washington.providence.org/hospitals/st-josephs-hospital/"}}, {"type": "way", "id": 485499211, "center": {"lat": 48.6529537, "lon": -118.7313291}, "nodes": [4782836231, 4782836230, 4782836229, 4782836228, 4782836227, 4782836226, 4782836225, 4782836224, 4782836223, 4782836222, 4782836221, 4782836220, 4782836219, 4782836218, 4782836217, 4782836216, 4782836215, 4782836214, 4782836231], "tags": {"addr:city": "Republic", "addr:housenumber": "36", "addr:postcode": "99166", "addr:street": "North Klondike Road", "amenity": "hospital", "beds": "25", "emergency": "yes", "healthcare": "hospital", "name": "Ferry County Memorial Hospital", "opening_hours": "24/7", "phone": "+1 509 775 3333", "website": "http://www.fcphd.org/", "wikidata": "Q50039175"}}, {"type": "way", "id": 485500684, "center": {"lat": 48.7068483, "lon": -119.4387247}, "nodes": [4782847357, 4782847356, 4782847355, 4782847354, 4782847353, 8363284778, 4782847352, 4782847351, 4782847350, 4782847357], "tags": {"addr:city": "Tonasket", "addr:housenumber": "203", "addr:postcode": "98855", "addr:state": "WA", "addr:street": "South Western Avenue", "amenity": "hospital", "emergency": "yes", "healthcare": "hospital", "name": "North Valley Hospital", "opening_hours": "24/7", "phone": "+1 509 486 2151", "website": "https://www.nvhospital.org/", "wikidata": "Q7057100"}}, {"type": "way", "id": 485502188, "center": {"lat": 48.3965876, "lon": -119.5467103}, "nodes": [4782857982, 4782857981, 4782857980, 4782857979, 4782857978, 9095032664, 9095032667, 4782857977, 4782857976, 9095032672, 4782857975, 4782857974, 4782857973, 4782857972, 4782857971, 356547166, 4782857970, 4782857969, 4782857968, 4782857982], "tags": {"addr:city": "Omak", "addr:housenumber": "810", "addr:postcode": "98841", "addr:street": "Jasmine Street", "amenity": "hospital", "emergency": "yes", "gnis:feature_id": "1529140", "healthcare": "hospital", "name": "Mid Valley Hospital", "opening_hours": "24/7", "phone": "+1 509 826 1760", "website": "https://www.mvhealth.org/", "wikidata": "Q6840830", "wikipedia": "en:Mid-Valley Hospital"}}, {"type": "way", "id": 485503426, "center": {"lat": 48.1062296, "lon": -119.7825396}, "nodes": [4782867230, 4782867229, 4782867228, 4782867227, 4782867226, 4782867225, 4782867224, 4782867223, 4782867222, 4782867221, 4782867230], "tags": {"addr:city": "Brewster", "addr:housenumber": "507", "addr:postcode": "98812", "addr:street": "Hospital Way", "amenity": "hospital", "emergency": "yes", "gnis:feature_id": "1530205", "name": "Three Rivers Hospital", "old_name": "Okanogan Douglas County Hospital", "opening_hours": "24/7", "phone": "+1 509 689 2517", "website": "https://threerivershospital.net/"}}, {"type": "way", "id": 485511453, "center": {"lat": 47.2312462, "lon": -119.8681}, "nodes": [4782938497, 4782938491, 4782938496, 4782938495, 4782938494, 4782938493, 4782938492, 9550551200, 356540937, 4782938497], "tags": {"addr:city": "Quincy", "addr:housenumber": "908", "addr:postcode": "98848", "addr:street": "10th Avenue Southwest", "amenity": "hospital", "emergency": "yes", "gnis:feature_id": "1507680", "healthcare": "hospital", "name": "Quincy Valley Medical Center", "opening_hours": "24/7", "phone": "+1 509 787 3531", "website": "https://www.quincyhospital.org/"}}, {"type": "way", "id": 485512328, "center": {"lat": 47.3144202, "lon": -119.54616}, "nodes": [4782955199, 356543108, 4782955198, 4782955197, 4782955196, 4782955195, 8487633117, 4782955194, 4782955193, 4782955192, 4782955191, 4782955190, 4782955189, 4782955188, 4782955187, 4782955186, 4782955199], "tags": {"addr:city": "Ephrata", "addr:housenumber": "200", "addr:postcode": "98823", "addr:street": "Nat Washington Way", "amenity": "hospital", "emergency": "yes", "gnis:feature_id": "1514524", "healthcare": "hospital", "name": "Columbia Basin Hospital", "opening_hours": "24/7", "phone": "+1 509 754 4631", "website": "https://www.columbiabasinhospital.org/"}}, {"type": "way", "id": 485515457, "center": {"lat": 47.9422466, "lon": -119.0078534}, "nodes": [4782979752, 4782979751, 4782979750, 4782979749, 678963643, 4782979748, 4782979747, 4782979746, 4782979745, 4782979744, 4782979743, 4782979742, 4782979752], "tags": {"addr:city": "Grand Coulee", "addr:housenumber": "411", "addr:postcode": "99133", "addr:street": "Fortuyn Boulevard", "amenity": "hospital", "emergency": "yes", "healthcare": "hospital", "name": "Coulee Medical Center", "opening_hours": "24/7", "phone": "+1 509 633 1753", "website": "http://cmccares.org/"}}, {"type": "way", "id": 485518333, "center": {"lat": 47.6576405, "lon": -118.1455649}, "nodes": [4783008037, 9647936726, 4783008036, 4783008035, 4783008034, 4783008033, 4783008032, 356542391, 4783008031, 4783008030, 4783008029, 7252020497, 4783008028, 4783008027, 7252020523, 4783008037], "tags": {"addr:city": "Davenport", "addr:housenumber": "10", "addr:postcode": "99122", "addr:street": "Nichols Street", "amenity": "hospital", "emergency": "yes", "gnis:feature_id": "1513148", "healthcare": "hospital", "name": "Lincoln Hospital", "opening_hours": "24/7", "phone": "+1 509 725 7101", "website": "http://lincolnhospital.org/"}}, {"type": "way", "id": 485520028, "center": {"lat": 47.1212611, "lon": -118.3718336}, "nodes": [4783021941, 4783021940, 4783021939, 4783021938, 4783021941], "tags": {"addr:city": "Ritzville", "addr:housenumber": "903", "addr:postcode": "99169", "addr:street": "South Adams Street", "amenity": "hospital", "beds": "20", "emergency": "yes", "healthcare": "hospital", "name": "East Adams Rural Healthcare", "old_name": "Memorial Hospital", "opening_hours": "24/7", "phone": "+1 509 659 1200", "website": "http://www.earh.org/", "wikidata": "Q5327633"}}, {"type": "way", "id": 485524815, "center": {"lat": 46.8300866, "lon": -119.1552646}, "nodes": [4783064009, 4783064008, 4783064007, 4783064006, 4783064009], "tags": {"addr:city": "Othello", "addr:housenumber": "315", "addr:postcode": "99344", "addr:street": "North 14th Avenue", "amenity": "hospital", "emergency": "yes", "healthcare": "hospital", "name": "Othello Community Hospital", "opening_hours": "24/7", "phone": "+1 509 488 2636", "website": "https://www.othellocommunityhospital.org/"}}, {"type": "way", "id": 485529903, "center": {"lat": 47.3311445, "lon": -118.6820707}, "nodes": [4783112771, 4783112770, 2500258264, 4783112769, 4783112768, 4783112767, 4783112766, 4783112765, 4783112764, 4783112771], "tags": {"addr:city": "Odessa", "addr:housenumber": "502", "addr:postcode": "99159", "addr:street": "East Amende Street", "amenity": "hospital", "beds": "25", "emergency": "yes", "name": "Odessa Memorial Healthcare Center", "opening_hours": "24/7", "phone": "+1 509 982 2611", "website": "https://www.omhc.org/"}}, {"type": "way", "id": 499350654, "center": {"lat": 46.5817903, "lon": -111.9894329}, "nodes": [4906329964, 4906329962, 4906329961, 9291885790, 4906329959, 7799426713, 4906329957, 4906329956, 4906329954, 357981412, 4906329953, 2623983867, 4906329952, 4906329951, 4906329964], "tags": {"addr:city": "Helena", "addr:housenumber": "2755", "addr:postcode": "59604", "addr:street": "Colonial Drive", "amenity": "hospital", "emergency": "no", "healthcare": "hospital", "healthcare:speciality": "psychiatry", "name": "Shodair Children's Hospital", "phone": "+1 406 444 7500", "website": "https://shodair.org/", "wikidata": "Q30280653"}}, {"type": "way", "id": 499350658, "center": {"lat": 46.5828294, "lon": -111.9966817}, "nodes": [357981414, 4906329981, 4906329980, 4906329979, 4906329978, 4906329977, 6135851315, 6135851316, 4906329976, 6135781813, 6135781812, 6135781811, 7786197154, 7786217503, 4906329975, 4906329974, 6135851800, 6135865492, 357981414], "tags": {"addr:city": "Helena", "addr:housenumber": "2475", "addr:postcode": "59601", "addr:street": "East Broadway Street", "amenity": "hospital", "contact:phone": "+14064574180", "emergency": "yes", "gnis:feature_id": "1789572", "healthcare": "hospital", "name": "Saint Peter's Health", "opening_hours": "24/7", "phone": "+1 406 442 2480", "url": "https://www.stpetes.org/", "website": "https://www.stpetes.org/", "wikidata": "Q50037076"}}, {"type": "way", "id": 499383681, "center": {"lat": 46.4134638, "lon": -112.7267138}, "nodes": [4906646161, 4906646160, 4906646159, 4906646158, 4906646157, 4906646161], "tags": {"addr:city": "Deer Lodge", "addr:housenumber": "1100", "addr:postcode": "59722", "addr:street": "Hollenbeck Lane", "amenity": "hospital", "emergency": "yes", "name": "Deer Lodge Medical Center", "opening_hours": "24/7", "phone": "+1 406 846 2212", "website": "https://www.dlmed.org/"}}, {"type": "way", "id": 499513677, "center": {"lat": 46.8467018, "lon": -114.0481751}, "nodes": [357979157, 357979142, 5731784002, 4907827348, 4907827346, 4907827345, 357979166, 4907827344, 4907827343, 4907827342, 357979138, 4907827341, 357979157], "tags": {"addr:city": "Missoula", "addr:housenumber": "2827", "addr:postcode": "59804", "addr:street": "Fort Missoula Road", "amenity": "hospital", "emergency": "yes", "gnis:feature_id": "1781167", "healthcare": "hospital", "name": "Community Medical Center", "opening_hours": "24/7", "phone": "+1 406 728 4100", "website": "https://communitymed.org/", "wikidata": "Q5154815", "wikipedia": "en:Community Medical Center (Montana)"}}, {"type": "way", "id": 499516956, "center": {"lat": 47.5284651, "lon": -114.1062628}, "nodes": [4907861907, 4907861906, 4907861905, 4907861904, 4907861903, 357982933, 357982949, 4907861902, 4907861901, 4907861900, 4907861899, 4907861898, 4907861897, 4907861896, 4907861907], "tags": {"addr:city": "Ronan", "addr:housenumber": "107", "addr:postcode": "59864", "addr:state": "MT", "addr:street": "6th Avenue Southwest", "amenity": "hospital", "emergency": "yes", "gnis:feature_id": "1796996", "healthcare": "hospital", "name": "Saint Luke Community Hospital", "opening_hours": "24/7", "operator": "Saint Luke Community Healthcare", "phone": "+1 406 676 4441", "website": "https://www.stlukehealthcare.org/"}}, {"type": "way", "id": 499535804, "center": {"lat": 47.6823959, "lon": -114.1630422}, "nodes": [4908030935, 357982838, 357982856, 357982866, 4908030934, 4908030933, 4908030932, 4908030931, 4908030930, 4908030935], "tags": {"addr:city": "Polson", "addr:housenumber": "6", "addr:postcode": "59860", "addr:street": "13th Avenue East", "amenity": "hospital", "emergency": "yes", "gnis:feature_id": "1796991", "healthcare": "hospital", "name": "Providence Saint Joseph Medical Center", "opening_hours": "24/7", "operator": "Providence Health & Services", "operator:wikidata": "Q7252430", "operator:wikipedia": "en:Providence Health & Services", "phone": "+1 406 883 5680", "website": "https://montana.providence.org/hospitals/st-joseph/"}}, {"type": "way", "id": 499739264, "center": {"lat": 45.6751396, "lon": -110.5261414}, "nodes": [4909771742, 4909771741, 4909771740, 4909771739, 4909771206, 4909771738, 4909771737, 4909771736, 4909771742], "tags": {"addr:city": "Livingston", "addr:housenumber": "320", "addr:postcode": "59047", "addr:street": "Alpenglow Lane", "amenity": "hospital", "emergency": "yes", "name": "Livingston HealthCare", "opening_hours": "24/7", "phone": "+1 406 222 3541", "website": "https://www.livingstonhealthcare.org/"}}, {"type": "way", "id": 499756184, "center": {"lat": 45.2013876, "lon": -112.6472792}, "nodes": [4909890115, 4909890013, 4909890114, 4909890014, 4909890113, 4909890015, 4909890112, 4909890111, 4909890016, 4909890110, 4909890109, 4909890108, 4909890107, 4909890019, 4909890106, 4909890018, 4909890020, 4909890105, 4909890104, 4909890017, 4909890103, 4909890102, 4909890115], "tags": {"addr:city": "Dillon", "addr:housenumber": "600", "addr:postcode": "59725", "addr:street": "State Highway 91 South", "amenity": "hospital", "beds": "18", "emergency": "yes", "healthcare": "hospital", "name": "Barrett Hospital & Healthcare", "opening_hours": "24/7", "phone": "+1 406 683 3000", "website": "https://www.barretthospital.org/"}}, {"type": "way", "id": 500497812, "center": {"lat": 45.3516773, "lon": -111.7320146}, "nodes": [4915367833, 4915367832, 4915367831, 357940888, 4915367830, 4915367829, 4915367828, 4915367827, 4915367826, 4915367833], "tags": {"addr:city": "Ennis", "addr:housenumber": "305", "addr:postcode": "59729", "addr:street": "North Main Street", "amenity": "hospital", "emergency": "yes", "gnis:feature_id": "793709", "healthcare": "hospital", "name": "Madison Valley Medical Center", "opening_hours": "24/7", "phone": "+1 406 682 6862", "website": "https://www.mvmedcenter.org/"}}, {"type": "way", "id": 500530425, "center": {"lat": 45.4528456, "lon": -112.1921346}, "nodes": [357984246, 4915617760, 4915617759, 4915617758, 357984246], "tags": {"addr:city": "Sheridan", "addr:housenumber": "220", "addr:postcode": "59759", "addr:street": "East Crofoot Street", "amenity": "hospital", "emergency": "yes", "gnis:feature_id": "1797549", "healthcare": "hospital", "name": "Ruby Valley Hospital", "opening_hours": "24/7", "phone": "+1 406 842 5453", "website": "https://www.rubyvalleyhospital.com/"}}, {"type": "way", "id": 500709033, "center": {"lat": 46.3218215, "lon": -111.5163079}, "nodes": [4916962418, 4916962417, 357976733, 4916962416, 4916962418], "tags": {"addr:city": "Townsend", "addr:housenumber": "110", "addr:postcode": "59644", "addr:street": "North Oak Street", "amenity": "hospital", "emergency": "yes", "gnis:feature_id": "1762250", "healthcare": "hospital", "name": "Broadwater Health Center", "opening_hours": "24/7", "phone": "+1 406 266 3186", "website": "https://www.broadwaterhealthcenter.com/"}}, {"type": "way", "id": 500713646, "center": {"lat": 46.5474429, "lon": -110.9044284}, "nodes": [357978213, 357978217, 4916997518, 4916997517, 4916997516, 4916997515, 357978213], "tags": {"addr:city": "White Sulphur Springs", "addr:housenumber": "16", "addr:postcode": "59644", "addr:street": "West Main Street", "amenity": "hospital", "emergency": "yes", "gnis:feature_id": "1762852", "healthcare": "hospital", "name": "Mountainview Medical Center", "opening_hours": "24/7", "phone": "+1 406 547 3321", "website": "https://www.mvmc.org/"}}, {"type": "way", "id": 500731167, "center": {"lat": 47.8204058, "lon": -110.6721832}, "nodes": [4917150662, 4917150661, 4917150660, 4917150659, 357974225, 4917150658, 4917150662], "tags": {"addr:city": "Fort Benton", "addr:housenumber": "1501", "addr:postcode": "59442", "addr:state": "MT", "addr:street": "Saint Charles Street", "amenity": "hospital", "emergency": "yes", "gnis:feature_id": "1750346", "name": "Missouri River Medical Center", "opening_hours": "24/7", "phone": "+1 406 622 3331", "website": "http://www.mrmcfb.org/"}}, {"type": "way", "id": 500753956, "center": {"lat": 47.4890075, "lon": -111.2982213}, "nodes": [4077635291, 39349155, 39271031, 39350345, 39343945, 314784490, 39343948, 4917365584, 9252163208, 9252163138, 357975403, 4077635291], "tags": {"addr:city": "Great Falls", "addr:housenumber": "500", "addr:postcode": "59405", "addr:street": "15th Avenue South", "amenity": "hospital", "emergency": "no", "gnis:feature_id": "1761717", "healthcare": "hospital", "name": "Benefis West", "operator": "Benefis Health System", "phone": "+1 406 455 5000", "website": "http://www.benefis.org/"}}, {"type": "way", "id": 500781710, "center": {"lat": 47.8143255, "lon": -112.1927634}, "nodes": [357976279, 357976272, 4917570996, 4917570995, 357976279], "tags": {"addr:city": "Choteau", "addr:housenumber": "915", "addr:postcode": "59422", "addr:street": "4th Street Northwest", "amenity": "hospital", "emergency": "yes", "gnis:feature_id": "1762011", "healthcare": "hospital", "name": "Benefis Teton Medical Center", "opening_hours": "24/7", "operator": "Benefis Health System", "phone": "+1 406 466 5763", "website": "http://tetonmedicalcenter.net/"}}, {"type": "way", "id": 500783795, "center": {"lat": 48.5100138, "lon": -110.9718045}, "nodes": [4917588916, 4917588915, 357973264, 357973262, 4917588914, 4917588913, 4917588916], "tags": {"addr:city": "Chester", "addr:housenumber": "315", "addr:postcode": "59522", "addr:street": "West Madison Avenue", "amenity": "hospital", "emergency": "yes", "gnis:feature_id": "1748575", "healthcare": "hospital", "name": "Liberty Medical Center", "opening_hours": "24/7", "phone": "+1 406 759 5181", "website": "https://www.libertymedicalcenter.org/"}}, {"type": "way", "id": 500788504, "center": {"lat": 48.5096587, "lon": -111.8495868}, "nodes": [4917637697, 9872815538, 9872815535, 7474325743, 7474325744, 9872815534, 9872815533, 9872815532, 9872815526, 9872815527, 9872815525, 9872815524, 9872815523, 7474325724, 9872815556, 4917637695, 4917637694, 9872815561, 46301560, 9872815577, 4917637693, 9872815578, 1844957365, 1842605156, 4917637690, 7489435227, 1844957363, 9872815582, 9872815583, 4917637689, 9872815581, 357973892, 9872815580, 9872815579, 4917637697], "tags": {"addr:city": "Shelby", "addr:housenumber": "640", "addr:postcode": "59474", "addr:street": "Park Avenue", "amenity": "hospital", "emergency": "yes", "gnis:feature_id": "1750050", "healthcare": "hospital", "name": "Marias Medical Center", "old_name": "Toole County Hospital", "opening_hours": "24/7", "phone": "+1 406 434 3200", "website": "http://mmcmt.org/"}}, {"type": "way", "id": 500790995, "center": {"lat": 48.6282045, "lon": -112.3268082}, "nodes": [357974654, 4917654788, 4917654781, 4917654780, 4917654787, 4917654786, 4917654785, 4917654784, 4917654783, 4917654782, 357974654], "tags": {"addr:city": "Cut Bank", "addr:housenumber": "802", "addr:postcode": "59427", "addr:street": "2nd Street Southeast", "amenity": "hospital", "emergency": "yes", "gnis:feature_id": "1750554", "healthcare": "hospital", "name": "Northern Rockies Medical Center", "opening_hours": "24/7", "phone": "+1 406 873 2251", "website": "http://nrmcinc.org/"}}, {"type": "way", "id": 500792189, "center": {"lat": 48.5654815, "lon": -113.0192477}, "nodes": [357974638, 4917670968, 4917670967, 4917670966, 4917670965, 4917670964, 4917670963, 4917670962, 4917670961, 357974634, 4917670960, 4917670959, 8312482082, 4917670958, 4917670957, 8312482081, 4917670956, 4917670955, 4917670954, 8312482077, 4917670953, 8312482080, 8312482078, 8312482079, 4917670952, 4917670951, 357974638], "tags": {"addr:city": "Browning", "addr:postcode": "59417", "addr:state": "MT", "amenity": "hospital", "emergency": "yes", "gnis:feature_id": "1750548", "healthcare": "hospital", "name": "Blackfeet Community Hospital", "opening_hours": "24/7", "operator": "Indian Health Service", "phone": "+1 406 338 6100", "website": "https://www.ihs.gov/billings/healthcarefacilities/blackfeet/"}}, {"type": "way", "id": 500795238, "center": {"lat": 48.1748286, "lon": -111.9583803}, "nodes": [4917715260, 4917715259, 4917715258, 4917715257, 4917715256, 4917715255, 4917715254, 357973493, 4917715260], "tags": {"addr:city": "Conrad", "addr:housenumber": "805", "addr:postcode": "59425", "addr:street": "Sunset Boulevard", "amenity": "hospital", "emergency": "yes", "gnis:feature_id": "1748765", "name": "Pondera Medical Center", "opening_hours": "24/7", "phone": "+1 406 271 3211", "website": "https://www.ponderamedical.org/"}}, {"type": "way", "id": 500798580, "center": {"lat": 46.1324575, "lon": -112.9565199}, "nodes": [357940945, 4917745377, 4917745376, 7877283666, 7877283667, 4917745375, 357940945], "tags": {"addr:city": "Anaconda", "addr:housenumber": "401", "addr:postcode": "59711", "addr:street": "West Pennsylvania Street", "amenity": "hospital", "emergency": "yes", "gnis:feature_id": "793763", "healthcare": "hospital", "name": "Community Hospital of Anaconda", "opening_hours": "24/7", "phone": "+1 406 563 8500", "website": "http://www.communityhospitalofanaconda.org/", "wikidata": "Q50036461"}}, {"type": "way", "id": 500817075, "center": {"lat": 46.330218, "lon": -113.2942847}, "nodes": [4917890983, 4917890982, 357980113, 4917890981, 4917890980, 4917890979, 4917890983], "tags": {"addr:city": "Philipsburg", "addr:housenumber": "310", "addr:postcode": "59858", "addr:street": "South Sansome Street", "amenity": "hospital", "emergency": "yes", "healthcare": "hospital", "name": "Granite County Medical Center", "opening_hours": "24/7", "phone": "+1 406 859 3271", "website": "https://www.gcmedcenter.org/"}}, {"type": "way", "id": 500827274, "center": {"lat": 46.2482022, "lon": -114.1717623}, "nodes": [4917980181, 4917980180, 4917980179, 4917980178, 4917980177, 4917980176, 4917980175, 4917980174, 2024005175, 4917980173, 4917980181], "tags": {"addr:city": "Hamilton", "addr:housenumber": "1200", "addr:postcode": "59840", "addr:street": "Westwood Drive", "amenity": "hospital", "emergency": "yes", "name": "Marcus Daly Memorial Hospital", "opening_hours": "24/7", "phone": "+1 406 363 2211", "website": "https://www.mdmh.org/"}}, {"type": "way", "id": 501029557, "center": {"lat": 47.1852519, "lon": -114.8762245}, "nodes": [4919351548, 4919351547, 357979865, 357979868, 4919351546, 4919351545, 4919351548], "tags": {"addr:city": "Superior", "addr:housenumber": "1208", "addr:postcode": "59872", "addr:street": "6th Avenue East", "amenity": "hospital", "emergency": "yes", "gnis:feature_id": "1781676", "healthcare": "hospital", "name": "Mineral Community Hospital", "opening_hours": "24/7", "phone": "+1 406 822 4841", "website": "https://mineralcommunityhospital.com/"}}, {"type": "way", "id": 501067954, "center": {"lat": 47.4682376, "lon": -114.8886055}, "nodes": [4919710348, 4919710341, 4919710347, 4919710340, 4919710346, 357978439, 4919710345, 4919710344, 4919710343, 4919710342, 4919710348], "tags": {"addr:city": "Plains", "addr:housenumber": "10", "addr:postcode": "59859", "addr:street": "Kruger Road", "amenity": "hospital", "beds": "16", "emergency": "yes", "gnis:feature_id": "1780888", "healthcare": "hospital", "name": "Clark Fork Valley Hospital", "opening_hours": "24/7", "phone": "+1 406 826 4800", "website": "https://www.cfvh.org/", "wikidata": "Q5127227"}}, {"type": "way", "id": 501175543, "center": {"lat": 48.3805984, "lon": -114.3317168}, "nodes": [4920508684, 357981940, 4920508683, 4920508682, 4920508681, 4920508680, 4920508684], "tags": {"addr:city": "Whitefish", "addr:housenumber": "1600", "addr:postcode": "59937", "addr:street": "Hospital Way", "amenity": "hospital", "emergency": "yes", "gnis:feature_id": "1795877", "healthcare": "hospital", "name": "North Valley Hospital", "opening_hours": "24/7", "operator": "Kalispell Regional Healthcare", "phone": "+1 406-863-3500", "website": "https://www.krh.org/nvh/", "wikidata": "Q17039973"}}, {"type": "way", "id": 542500654, "center": {"lat": 49.7262887, "lon": -113.3939211}, "nodes": [5566420840, 5244926671, 5244926658, 5244926672, 5244926673, 5244926656, 5566420849, 5566420854, 5244926675, 5566420850, 5566420853, 5244926676, 5566420852, 5566420851, 5244926657, 5244926674, 5244926653, 5244926668, 5244926665, 5244926659, 5244926664, 5244926663, 5244926660, 5244926666, 5566420848, 5244926662, 5244926669, 5566420856, 5566420855, 5244926654, 5244926655, 5244926652, 5244926670, 5566420857, 5566420839, 5566420843, 5566420842, 5566420841, 5566420847, 5566420846, 5566420845, 5566420844, 5566420840], "tags": {"amenity": "hospital", "building": "hospital", "healthcare": "hospital", "name": "Fort Macleod Hospital"}}, {"type": "way", "id": 544899952, "center": {"lat": 49.9837141, "lon": -117.3734285}, "nodes": [5266893008, 5266893010, 5266898424, 5266898421, 5266893012, 5266898426, 5266898425, 5266893011, 5266898422, 5266898423, 5266893009, 5266893007, 5266893019, 5266893018, 5266893006, 5266893016, 5266893003, 5266893013, 5266893014, 5266893004, 5266893017, 5266893015, 5266893005, 5266893020, 5266893008], "tags": {"amenity": "hospital", "building": "hospital", "name": "Slocan Community Health Centre"}}, {"type": "way", "id": 545093167, "center": {"lat": 49.3149973, "lon": -117.6614888}, "nodes": [5268636144, 5268636143, 5268636142, 9597770137, 5268636141, 8617972512, 5268636140, 2560720177, 5268636144], "tags": {"addr:housenumber": "709", "addr:street": "10th Street", "amenity": "hospital", "emergency": "no", "healthcare": "hospital", "name": "Castlegar and District Community Health Centre", "operator": "Interior Health", "operator:type": "public", "phone": "+1-250-365-7711", "website": "https://www.interiorhealth.ca/locations/castlegar-district-community-health-centre", "wheelchair": "yes"}}, {"type": "way", "id": 571772156, "center": {"lat": 41.0520866, "lon": -111.9686464}, "nodes": [5494413176, 5494413177, 5494413178, 5494413179, 5494413180, 5494413181, 5494413182, 5494413183, 5494413184, 5494413176], "tags": {"addr:city": "Layton", "addr:housenumber": "201", "addr:postcode": "84041", "addr:street": "West Layton Parkway", "amenity": "hospital", "healthcare": "hospital", "name": "Intermountain Healthcare Layton Hospital", "operator": "Intermountain Healthcare", "operator:wikidata": "Q6047563", "operator:wikipedia": "en:Intermountain Healthcare", "phone": "+1 801 543 6000", "website": "https://intermountainhealthcare.org/locations/layton-hospital/"}}, {"type": "way", "id": 581427534, "center": {"lat": 46.7284413, "lon": -117.0006884}, "nodes": [5563241171, 5563241170, 5563241169, 358669423, 5563241171], "tags": {"addr:city": "Moscow", "addr:housenumber": "700", "addr:postcode": "83843", "addr:street": "South Main Street", "amenity": "hospital", "emergency": "yes", "gnis:feature_id": "399539", "healthcare": "hospital", "name": "Gritman Medical Center", "opening_hours": "24/7", "phone": "+1 208 882 4511", "website": "https://www.gritman.org/", "wheelchair": "yes", "wikidata": "Q5609713"}}, {"type": "way", "id": 581428426, "center": {"lat": 46.4869577, "lon": -116.2599076}, "nodes": [4649518642, 5563248150, 2055367595, 4649518635, 4649518636, 4649518637, 4649518638, 4649518639, 4649518640, 4649518641, 4649518642], "tags": {"addr:city": "Orofino", "addr:housenumber": "301", "addr:postcode": "83544", "addr:street": "Cedar Street", "amenity": "hospital", "emergency": "yes", "healthcare": "hospital", "name": "Clearwater Valley Hospital", "opening_hours": "24/7", "phone": "+1 208 476 4555", "website": "http://www.smh-cvhc.org/", "wikidata": "Q50039189"}}, {"type": "way", "id": 581429227, "center": {"lat": 46.0502853, "lon": -116.3531526}, "nodes": [5563252358, 5563252357, 5563252356, 5563252355, 5563252354, 5563252358], "tags": {"addr:city": "Cottonwood", "addr:housenumber": "701", "addr:postcode": "83522", "addr:street": "Lewiston Street", "amenity": "hospital", "emergency": "yes", "healthcare": "hospital", "name": "Saint Mary's Hospital", "opening_hours": "24/7", "phone": "+1 208 962 3251", "website": "http://www.smh-cvhc.org/"}}, {"type": "way", "id": 581433214, "center": {"lat": 43.8800284, "lon": -116.4845627}, "nodes": [5563282556, 5563282552, 5563282553, 5563282554, 5268826555, 5563282555, 5563282556], "tags": {"addr:city": "Emmett", "addr:housenumber": "1202", "addr:postcode": "83617", "addr:street": "East Locust Street", "amenity": "hospital", "emergency": "yes", "healthcare": "hospital", "name": "Valor Health Hospital", "opening_hours": "24/7", "operator": "Valor Health", "phone": "+1 208 365 3561", "urgent_care": "08:00-20:00", "website": "https://www.valorhealth.org/"}}, {"type": "way", "id": 581435050, "center": {"lat": 43.617665, "lon": -116.5906648}, "nodes": [5563290995, 5563290994, 4851095735, 5563290992, 5563290991, 5563290990, 5563290989, 5563290988, 5563290995], "tags": {"addr:city": "Nampa", "addr:housenumber": "9850", "addr:postcode": "83687", "addr:street": "West Saint Luke's Drive", "amenity": "hospital", "emergency": "yes", "healthcare": "hospital", "name": "St. Luke\u2019s Nampa Medical Center", "opening_hours": "24/7", "operator": "St. Luke's", "phone": "+1 208 505 2000", "website": "https://www.stlukesonline.org/communities-and-locations/facilities/hospitals-and-medical-centers/st-lukes-nampa-medical-center", "wheelchair": "yes"}}, {"type": "way", "id": 581437232, "center": {"lat": 43.6205637, "lon": -116.1901842}, "nodes": [5563305118, 5563305117, 5563305116, 10771700447, 10771700446, 5563305115, 5563305114, 6283694258, 6036027782, 5563305112, 6440808729, 9419951338, 358665829, 9419951298, 9419951297, 9441288921, 9441288922, 9419951296, 5563305110, 9419951295, 5563305109, 5563305108, 5563305107, 5563305106, 5563305105, 5563305104, 5563305103, 5563305102, 5274740228, 6901369518, 5563305101, 6367833813, 6367833811, 6367833812, 5563305099, 6367833810, 6901369513, 5563305098, 5563305097, 5563305096, 5563305095, 5563305094, 5563305093, 5563305092, 5563305091, 6228253289, 6281456092, 6281456093, 6228253290, 5563305090, 5563305118], "tags": {"access": "private", "addr:city": "Boise", "addr:housenumber": "500", "addr:postcode": "83702", "addr:state": "ID", "addr:street": "West Fort Street", "amenity": "hospital", "emergency": "yes", "gnis:feature_id": "399542", "healthcare": "hospital", "healthcare:for": "veterans", "name": "Boise Va Medical Center", "opening_hours": "24/7", "operator": "Veterans Health Administration", "operator:short": "VA", "operator:wikidata": "Q6580225", "operator:wikipedia": "en:Veterans Health Administration", "phone": "+1 208 422 1000", "short_name": "VA", "website": "https://www.boise.va.gov/"}}, {"type": "way", "id": 581578470, "center": {"lat": 43.1932747, "lon": -112.3465939}, "nodes": [5564279600, 5564279599, 5564279598, 5564279597, 5564279596, 358665807, 5564279595, 5564279594, 5564279593, 5564279592, 5564279591, 5564279590, 5564279589, 5564279588, 5564279587, 5564279586, 5564279600], "tags": {"addr:city": "Blackfoot", "addr:housenumber": "98", "addr:postcode": "83221", "addr:street": "Poplar Street", "amenity": "hospital", "emergency": "yes", "gnis:feature_id": "399534", "healthcare": "hospital", "name": "Bingham Memorial Hospital", "opening_hours": "24/7", "phone": "+1 208 785 4100", "website": "https://www.binghammemorial.org/", "wikidata": "Q18358397", "wikipedia": "en:Bingham Memorial Hospital"}}, {"type": "way", "id": 581584017, "center": {"lat": 42.8727506, "lon": -112.4203777}, "nodes": [5564312075, 5642278703, 5642278704, 5564312074, 5564312070, 5564312068, 5564312067, 5564312065, 5564312064, 5564312063, 5564312061, 5564312058, 5564312057, 5564312056, 5564312055, 5564312054, 5564312053, 5564312052, 5564312051, 5564312075], "tags": {"addr:city": "Pocatello", "addr:housenumber": "777", "addr:postcode": "83201", "addr:street": "Hospital Way", "amenity": "hospital", "beds": "187", "emergency": "yes", "healthcare": "hospital", "name": "Portneuf Medical Center", "opening_hours": "24/7", "operator": "Portneuf Health Partners", "phone": "+1 208 239 1000", "toilets:wheelchair": "yes", "website": "https://www.portneuf.org/", "wheelchair": "yes"}}, {"type": "way", "id": 584079955, "center": {"lat": 40.425394, "lon": -111.8786}, "nodes": [5583627895, 5583628726, 5583628727, 5583628728, 5583628729, 5583628730, 5583628731, 5583628732, 5583628733, 5583628734, 5583627896, 5583627897, 5583627898, 5583627899, 5583627900, 5583627901, 5583627902, 5583627903, 5583627904, 5583627905, 5583627906, 5583627907, 5583628779, 5583627895], "tags": {"addr:city": "Lehi", "addr:housenumber": "3000", "addr:postcode": "84043", "addr:state": "UT", "addr:street": "Triumph Boulevard", "amenity": "hospital", "contact:phone": "13853453000", "contact:website": "https://www.centura.org/location/holy-cross-hospital-mountain-point/hc", "emergency": "yes", "healthcare": "hospital", "healthcare:speciality": "general", "name": "Holy Cross Hospital - Mountain Point", "operator": "Centura Health", "operator:wikidata": "Q110940557", "operator:wikipedia": "en:Centura Health"}}, {"type": "way", "id": 584401981, "center": {"lat": 43.5883587, "lon": -119.0608925}, "nodes": [5586298033, 5586298032, 5586298031, 2913031179, 5586298030, 5586298029, 5586298033], "tags": {"addr:city": "Burns", "addr:housenumber": "557", "addr:postcode": "97720", "addr:street": "West Washington Street", "amenity": "hospital", "beds": "25", "emergency": "yes", "healthcare": "hospital", "name": "Harney District Hospital", "opening_hours": "24/7", "phone": "+1-541-573-7281", "short_name": "HDH", "website": "https://www.harneydh.com/"}}, {"type": "way", "id": 587479832, "center": {"lat": 48.7019197, "lon": -116.3212044}, "nodes": [5611558054, 7440120323, 358665786, 5611558053, 5611558052, 5611558051, 5611558050, 5611558049, 7440120318, 7440120317, 5611558048, 5611558042, 5611558047, 5611558046, 5611558045, 5611558044, 5611558043, 5611558054], "tags": {"addr:city": "Bonners Ferry", "addr:housenumber": "6640", "addr:postcode": "83805", "addr:street": "Kaniksu Street", "amenity": "hospital", "beds": "20", "emergency": "yes", "gnis:feature_id": "399528", "healthcare": "hospital", "name": "Boundary Community Hospital", "opening_hours": "24/7", "phone": "+1 208 267 3141", "website": "https://www.boundarycommunityhospital.org/"}}, {"type": "way", "id": 587501655, "center": {"lat": 42.9209077, "lon": -114.7102451}, "nodes": [5611708112, 5611708111, 5611708110, 5611708109, 5611708062, 5611708061, 5611708060, 5611708108, 5611708107, 5611708093, 5611708106, 5611708105, 5611708092, 5611708104, 5611708103, 5611708091, 5611708102, 5611708101, 5611708100, 5611708099, 5611708112], "tags": {"addr:city": "Gooding", "addr:housenumber": "267", "addr:postcode": "83330", "addr:street": "North Canyon Drive", "amenity": "hospital", "beds": "18", "emergency": "yes", "healthcare": "hospital", "name": "North Canyon Medical Center", "opening_hours": "24/7", "phone": "+1 208 934 4433", "website": "https://www.ncm-c.org/"}}, {"type": "way", "id": 587506552, "center": {"lat": 45.1737252, "lon": -113.8918037}, "nodes": [5611740415, 5611740414, 5611740413, 9136308125, 5611740408, 5611740407, 5611740406, 5611740415], "tags": {"addr:city": "Salmon", "addr:housenumber": "203", "addr:postcode": "83467", "addr:street": "South Daisy Street", "amenity": "hospital", "beds": "18", "emergency": "yes", "healthcare": "hospital", "name": "Steele Memorial Medical Center", "opening_hours": "24/7", "phone": "+1 208 756 5600", "website": "https://www.steelemh.org/"}}, {"type": "way", "id": 587510280, "center": {"lat": 44.5182693, "lon": -116.0490287}, "nodes": [5611772992, 5611772991, 5611772985, 5611772990, 5611772989, 5611772988, 5611772987, 5611772986, 5611772992], "tags": {"addr:city": "Cascade", "addr:housenumber": "402", "addr:postcode": "83611", "addr:street": "Lake Cascade Parkway", "amenity": "hospital", "beds": "10", "emergency": "yes", "healthcare": "hospital", "name": "Cascade Medical Center", "old_name": "Valley County Hospital", "opening_hours": "24/7", "phone": "+1 208 382 4242", "website": "http://www.cascademedicalcenter.net/"}}, {"type": "way", "id": 587516859, "center": {"lat": 42.6522904, "lon": -111.6146539}, "nodes": [5611846587, 5611846584, 5611846583, 9925473735, 385863454, 385863452, 385863451, 385863450, 385863449, 5611846578, 10861368053, 5611846574, 5611846587], "tags": {"addr:city": "Soda Springs", "addr:housenumber": "300", "addr:postcode": "83276", "addr:street": "South 3rd West Street", "amenity": "hospital", "beds": "25", "emergency": "yes", "healthcare": "hospital", "name": "Caribou Memorial Hospital", "opening_hours": "24/7", "phone": "+1 208 547 3341", "website": "https://cmhlc.org/"}}, {"type": "way", "id": 587518150, "center": {"lat": 44.9094018, "lon": -116.1108783}, "nodes": [5611858919, 5611858918, 5611858917, 5611858916, 5611858915, 8245323780, 8245323781, 8245323782, 5611858914, 5611858913, 5611858919], "tags": {"addr:city": "McCall", "addr:housenumber": "1000", "addr:postcode": "83638", "addr:street": "State Street", "amenity": "hospital", "beds": "15", "emergency": "yes", "healthcare": "hospital", "name": "Saint Luke's McCall Medical Center", "opening_hours": "24/7", "operator": "Saint Luke's Health System", "phone": "+1 208 634 2221", "website": "https://www.stlukesonline.org/communities-and-locations/facilities/hospitals-and-medical-centers/st-lukes-mccall-medical-center"}}, {"type": "way", "id": 587521737, "center": {"lat": 43.72662, "lon": -111.1079646}, "nodes": [5611906201, 5611906200, 5611906199, 5611906198, 5611906197, 5611906196, 5611906201], "tags": {"addr:city": "Driggs", "addr:housenumber": "120", "addr:postcode": "83422", "addr:street": "East Howard Avenue", "amenity": "hospital", "beds": "13", "emergency": "yes", "healthcare": "hospital", "name": "Teton Valley Hospital", "opening_hours": "24/7", "operator": "Teton Valley Health Care", "phone": "+1 208 354 2383", "website": "https://tvhcare.org/"}}, {"type": "way", "id": 587533059, "center": {"lat": 42.3165879, "lon": -111.2997027}, "nodes": [5612023297, 5612023296, 5612023295, 5612023294, 5612023293, 5612023292, 8498156830, 5612023291, 8483995113, 5612023289, 8483995337, 9393674001, 9393674000, 8451630722, 5612023287, 9123474155, 9123474154, 9123474153, 9123474152, 5612023297], "tags": {"addr:city": "Montpelier", "addr:housenumber": "164", "addr:postcode": "83254", "addr:street": "South 5th Street", "amenity": "hospital", "beds": "21", "emergency": "yes", "healthcare": "hospital", "name": "Bear Lake Memorial Hospital", "opening_hours": "24/7", "phone": "+1 208 847 1630", "website": "https://www.blmhospital.com/"}}, {"type": "way", "id": 587534063, "center": {"lat": 47.3145027, "lon": -116.5670415}, "nodes": [5612016861, 5612016860, 5612016859, 5612016858, 5612016857, 5612016856, 5612016855, 5612016854, 5612016861], "tags": {"addr:city": "Saint Maries", "addr:housenumber": "229", "addr:postcode": "83861", "addr:street": "South 7th Street", "amenity": "hospital", "beds": "19", "emergency": "yes", "healthcare": "hospital", "name": "Benewah Community Hospital", "opening_hours": "24/7", "phone": "+1 208 245 5551", "website": "https://www.bchmed.org/"}}, {"type": "way", "id": 591255257, "center": {"lat": 47.4882987, "lon": -111.2545851}, "nodes": [5644447141, 5644447140, 4077567296, 39339163, 4077567317, 7948222035, 5644447139, 4077567323, 314787423, 314787421, 314787420, 314787419, 39349235, 39361968, 314787412, 314787413, 39351332, 4077567297, 5644447141], "tags": {"addr:city": "Great Falls", "addr:housenumber": "3000", "addr:postcode": "59405", "addr:street": "15th Avenue South", "amenity": "hospital", "beds": "19", "emergency": "yes", "healthcare": "hospital", "name": "Great Falls Clinic Hospital", "opening_hours": "24/7", "operator": "Great Falls Clinic", "phone": "+1 406 216 8000", "website": "http://www.gfclinic.com/location/great-falls-clinic-hospital/"}}, {"type": "way", "id": 604235181, "center": {"lat": 46.7126948, "lon": -117.1690523}, "nodes": [5733919698, 5733919697, 5733919696, 5215006989, 5215006961, 5733919695, 5733919694, 5733919693, 5733919692, 5733919691, 5733919690, 5733919689, 5733919688, 11205773701, 5733919687, 8487102371, 5733919686, 5215007154, 5215007153, 5215007151, 11205797659, 8487102370, 11205797658, 5215007150, 11205797657, 8487102369, 11205797660, 8162525450, 11205797661, 8162525449, 5733919684, 5733919683, 11205797668, 11205797667, 11205797666, 11205797665, 11205797664, 11205797662, 11205797663, 5733919682, 11205797696, 5733919681, 11205797698, 11205797697, 5733919680, 5733919679, 5733919678, 11205797699, 5733919698], "tags": {"addr:city": "Pullman", "addr:housenumber": "835", "addr:postcode": "99163", "addr:street": "Southeast Bishop Boulevard", "amenity": "hospital", "beds": "25", "emergency": "yes", "healthcare": "hospital", "name": "Pullman Regional Hospital", "opening_hours": "24/7", "phone": "+1 509 332 2541", "website": "https://pullmanregional.org/"}}, {"type": "way", "id": 604591918, "center": {"lat": 47.1285321, "lon": -119.2649059}, "nodes": [5144586059, 5736308568, 5736308567, 5736308566, 5736308565, 5736308564, 5736308563, 5736308562, 5144586051, 5144586052, 5144586053, 5144586054, 5144586055, 5144586056, 5144586057, 5144586058, 5144586059], "tags": {"addr:city": "Moses Lake", "addr:housenumber": "801", "addr:postcode": "98837", "addr:street": "East Wheeler Road", "amenity": "hospital", "beds": "50", "emergency": "yes", "healthcare": "hospital", "name": "Samaritan Hospital", "opening_hours": "24/7", "operator": "Samaritan Healthcare", "phone": "+1 509 765 5606", "website": "https://www.samaritanhealthcare.com/"}}, {"type": "way", "id": 604940974, "center": {"lat": 46.4753888, "lon": -117.6027129}, "nodes": [5738795247, 7235937393, 7235937392, 5738795246, 5738795245, 7235937394, 7235937395, 5738795244, 7235937396, 7235937398, 7235937397, 5738795243, 7235937399, 5738795242, 7235937400, 5738795241, 5738795240, 7235937402, 7235937401, 5738795239, 5738795238, 5738795237, 5738795236, 7235937403, 7235937404, 7235937405, 7235937406, 7235937407, 7235937408, 5738795235, 5738795234, 5738795233, 5738795247], "tags": {"addr:city": "Pomeroy", "addr:housenumber": "66", "addr:postcode": "99347", "addr:street": "North 6th Street", "amenity": "hospital", "beds": "25", "emergency": "yes", "healthcare": "hospital", "name": "Garfield County Public Hospital", "opening_hours": "24/7", "operator": "Garfield County Hospital District", "phone": "+1 509 843 1591", "website": "https://www.pomeroymd.com/"}}, {"type": "way", "id": 605260800, "center": {"lat": 41.2432174, "lon": -110.9906807}, "nodes": [5741029076, 5741029075, 5741029074, 5741029073, 5741029076], "tags": {"addr:city": "Evanston", "addr:housenumber": "190", "addr:postcode": "82930", "addr:street": "Arrowhead Drive", "amenity": "hospital", "beds": "42", "emergency": "yes", "healthcare": "hospital", "name": "Evanston Regional Hospital", "opening_hours": "24/7", "phone": "+1 307 789 3636", "website": "http://www.evanstonregionalhospital.com/"}}, {"type": "way", "id": 611078054, "center": {"lat": 49.6012646, "lon": -119.6687204}, "nodes": [5786367448, 5786355395, 5786365666, 5786354388, 5786367448], "tags": {"amenity": "hospital", "source": "NRCan-CanVec-10.0"}}, {"type": "way", "id": 617667081, "center": {"lat": 40.7206979, "lon": -111.8547553}, "nodes": [5838662430, 5838662431, 5838662432, 5838662433, 5838662430], "tags": {"addr:city": "Salt Lake City", "addr:housenumber": "1280", "addr:postcode": "84106", "addr:state": "UT", "addr:street": "Stringham Avenue", "amenity": "hospital", "building": "yes", "healthcare": "hospital", "name": "Sugar House Health Center", "operator": "University of Utah Health", "operator:type": "university"}}, {"type": "way", "id": 660603911, "center": {"lat": 48.2787323, "lon": -116.5499154}, "nodes": [6184947253, 6184947254, 6184947255, 6184947256, 6184947257, 6184947258, 6184947259, 6184947260, 6184947261, 6184947262, 6184947253], "tags": {"amenity": "hospital", "building": "yes", "healthcare": "hospital", "healthcare:speciality": "general;paediatrics;Family", "name": "Family Health Center"}}, {"type": "way", "id": 678813596, "center": {"lat": 43.5750144, "lon": -116.155624}, "nodes": [8340488334, 6355881396, 6355881397, 6355881398, 6355881399, 6355881400, 8340488334], "tags": {"addr:city": "Boise", "addr:housenumber": "2141", "addr:postcode": "83706", "addr:state": "ID", "addr:street": "East Parkcenter Boulevard", "amenity": "hospital", "healthcare": "hospital", "name": "Saint Alphonsus Health Plaza Bown Crossing", "operator": "Saint Alphonsus Medical Group"}}, {"type": "way", "id": 682051791, "center": {"lat": 43.6069851, "lon": -116.2670348}, "nodes": [6387204258, 6387204241, 6387204240, 6387204257, 6387204256, 6387204239, 6387204242, 6387204253, 6387204252, 6387204249, 6387204245, 6387204244, 6387204248, 6387204247, 6387204254, 6387204255, 6387204258], "tags": {"amenity": "hospital", "healthcare": "hospital", "name": "Intermountain Hospital"}}, {"type": "way", "id": 693502879, "center": {"lat": 40.5892089, "lon": -112.0327075}, "nodes": [6510892977, 6510892978, 6510892979, 6510892980, 6510892981, 6510892982, 6510892983, 6510892984, 6510893485, 6510893486, 6510893487, 6510893488, 6510893489, 6510893490, 6510893491, 6510892977], "tags": {"amenity": "hospital", "healthcare": "hospital", "name": "Copper Hills Youth Center"}}, {"type": "way", "id": 693507333, "center": {"lat": 40.3300501, "lon": -111.7086548}, "nodes": [6510935029, 6510935030, 6510935031, 6510935032, 6510935033, 6510935034, 6510935035, 6510935036, 6510935037, 6510935038, 6510935039, 6510935040, 6510935041, 6510935042, 6510935043, 6510935044, 6510935029], "tags": {"amenity": "hospital", "healthcare": "hospital", "name": "Center for Change"}}, {"type": "way", "id": 693530873, "center": {"lat": 47.6519792, "lon": -117.4141888}, "nodes": [6511215839, 6511215840, 6511215841, 6511215842, 6511215843, 6511215844, 6511215845, 6511215846, 6511215847, 6511215848, 6511215839], "tags": {"amenity": "hospital", "healthcare": "hospital", "name": "Inland Northwest Behavioral Health"}}, {"type": "way", "id": 745230115, "center": {"lat": 43.6030137, "lon": -116.1871583}, "nodes": [6975988088, 6975988089, 6975988090, 6975988091, 6975988092, 6964945305, 6975988088], "tags": {"amenity": "hospital", "healthcare": "hospital"}}, {"type": "way", "id": 776559147, "center": {"lat": 41.3055267, "lon": -111.9913514}, "nodes": [6703768766, 7245538483, 6703768765, 6545402497, 7245631108, 6703768766], "tags": {"amenity": "hospital", "healthcare": "hospital", "healthcare:speciality": "emergency", "name": "Pleasant View Emergency Center", "operator": "Ogden Regional Medical Center"}}, {"type": "way", "id": 782858596, "center": {"lat": 40.6451216, "lon": -112.2893938}, "nodes": [7310731523, 7919487693, 7310731524, 7310731525, 7919487687, 7919487702, 7310731526, 7310731527, 7310731523], "tags": {"addr:city": "Stansbury Park", "addr:housenumber": "220", "addr:postcode": "84074", "addr:state": "UT", "addr:street": "Millpond Road", "amenity": "hospital", "healthcare": "hospital", "name": "Stansbury Health Center", "operator": "University of Utah Health", "operator:type": "university"}}, {"type": "way", "id": 819314272, "center": {"lat": 49.1833484, "lon": -119.5390828}, "nodes": [4737512137, 4521062896, 4521062897, 4737512136, 4737512135, 7651257904, 7651257905, 7651257906, 7651257907, 7651257908, 7651257909, 4737512137], "tags": {"addr:housenumber": "911", "addr:street": "McKinney Road", "amenity": "hospital", "emergency": "yes", "healthcare": "hospital", "name": "South Okanagan General Hospital", "phone": "+1-250-498-5000", "website": "https://www.interiorhealth.ca/locations/south-okanagan-general-hospital", "wheelchair": "yes", "wikidata": "Q7568061", "wikipedia": "en:South Okanagan General Hospital"}}, {"type": "way", "id": 822780551, "center": {"lat": 46.8761537, "lon": -114.001627}, "nodes": [7682119139, 7717374192, 7682119140, 7682119141, 7682119142, 7682119143, 7682119144, 7682119145, 7682119146, 7682119147, 7682119148, 7682119149, 7717374195, 7682119150, 7682119139], "tags": {"amenity": "hospital", "healthcare": "hospital"}}, {"type": "way", "id": 824751196, "center": {"lat": 46.8784746, "lon": -113.9928117}, "nodes": [7701171105, 7701171106, 7701171107, 7701171108, 7701171109, 7701171110, 7701171111, 7701171112, 7701171113, 7701171114, 7701171115, 7701171116, 7701171117, 7701171118, 7701171119, 7701171120, 7701171121, 7701171122, 7701171123, 7701171124, 7701171125, 7701171105], "tags": {"amenity": "hospital", "healthcare": "hospital", "name": "Providence Health Center"}}, {"type": "way", "id": 832386136, "center": {"lat": 40.8319757, "lon": -115.7347472}, "nodes": [7771282263, 7771282264, 7771282265, 7771282266, 7771282267, 7771282268, 7771282269, 7771282270, 7771282271, 7771282272, 7771282273, 7771282274, 7771282263], "tags": {"amenity": "hospital", "healthcare": "hospital", "name": "Elko Medical Plaza"}}, {"type": "way", "id": 863995186, "center": {"lat": 47.1120246, "lon": -119.2606206}, "nodes": [8048848690, 8048848736, 8048848691, 8048848692, 8048848693, 8048848737, 8048848751, 8048848694, 8048848750, 8048848758, 8048848695, 8048848757, 8048848696, 8048848762, 8048848697, 8048848759, 8048848698, 8048848699, 8048848763, 8048848700, 8048848701, 8048848702, 8048848735, 8048848690], "tags": {"amenity": "hospital", "healthcare": "hospital"}}, {"type": "way", "id": 866061025, "center": {"lat": 46.8492068, "lon": -114.0468051}, "nodes": [7998272369, 8072401108, 8072401104, 7998272802, 7998272369], "tags": {"amenity": "hospital", "healthcare": "hospital"}}, {"type": "way", "id": 873367773, "center": {"lat": 46.618223, "lon": -112.1019258}, "nodes": [8133343109, 8133343110, 8133343111, 8133343112, 8133343113, 8133343114, 8133343115, 8133343116, 8133358617, 8133358618, 8133358619, 8133358620, 8133358621, 8133358622, 8133358623, 8133343109], "tags": {"amenity": "hospital", "healthcare": "hospital", "healthcare:for": "veterans", "name": "Veterans Administration Medical Center", "operator": "Veterans Health Administration", "operator:short": "VA", "operator:wikidata": "Q6580225", "operator:wikipedia": "en:Veterans Health Administration", "short_name": "VA"}}, {"type": "way", "id": 881511876, "center": {"lat": 47.5079482, "lon": -111.2790082}, "nodes": [39352214, 39352211, 10131677549, 10131677543, 39348125, 39348128, 10131677539, 10131677535, 10131677533, 39352214], "tags": {"amenity": "hospital", "healthcare": "hospital", "name": "Columbus Center"}}, {"type": "way", "id": 886036857, "center": {"lat": 43.6033078, "lon": -116.264895}, "nodes": [8238757692, 8238757693, 6990517237, 8238757694, 8238757695, 9041144637, 8238757696, 8238757697, 8238757698, 8238757699, 8238757692], "tags": {"amenity": "hospital", "healthcare": "hospital"}}, {"type": "way", "id": 888625615, "center": {"lat": 49.0985, "lon": -116.5075852}, "nodes": [8261665695, 8261665696, 8261665697, 8261665698, 8261665695], "tags": {"addr:housenumber": "312", "addr:street": "15th Avenue North", "amenity": "hospital", "healthcare": "hospital", "name": "Creston Valley Hospital & Health Centre"}}, {"type": "way", "id": 889356177, "center": {"lat": 43.6596317, "lon": -116.2640855}, "nodes": [8268141187, 8268141193, 8268141194, 8268141191, 8268141192, 8268141187], "tags": {"amenity": "hospital", "healthcare": "hospital"}}, {"type": "way", "id": 907177553, "center": {"lat": 43.5556782, "lon": -116.5701047}, "nodes": [8423914435, 8423914442, 8423914440, 8423914437, 8423914436, 8423914435], "tags": {"amenity": "hospital", "healthcare": "hospital"}}, {"type": "way", "id": 924704002, "center": {"lat": 40.1304947, "lon": -111.6409189}, "nodes": [8581988279, 8581988280, 8581988281, 8581988282, 8581988283, 8581988284, 8581988285, 8581988286, 8581988287, 8581988288, 8581988289, 8581988290, 8581988291, 8581988292, 8581988293, 8581988294, 8581988295, 8581988296, 8581988297, 8581988298, 8581988299, 8581988300, 8581988301, 8581988302, 8581988303, 8581988304, 8581988305, 8581988306, 8581988307, 8581988308, 8581988309, 8581988310, 8581988311, 8581988312, 8581988313, 8581988314, 8581988315, 9706054244, 8581988316, 8582010717, 8582010718, 9706054461, 9706054462, 9706054463, 8582010719, 9706054460, 8582010720, 9706054458, 8582010721, 9706054459, 8582010722, 9706054457, 8582010723, 9706054456, 8582010724, 9706054455, 8582010725, 9706054454, 8582010726, 9706054453, 9706054452, 8582010727, 9706054451, 8582010728, 8582010729, 9706054450, 8582010730, 9706054313, 9706054314, 8582010731, 8582010732, 9706029641, 9706029642, 8582010733, 9706029643, 9706029644, 9706029645, 9706029646, 9706029647, 8582010734, 8582010735, 9731389268, 9731389267, 8582010736, 9731389265, 9731389266, 9731389261, 9731389264, 9731389263, 9731389262, 8581988279], "tags": {"addr:city": "Spanish Fork", "addr:housenumber": "765", "addr:postcode": "84660", "addr:state": "UT", "addr:street": "East Marketplace Drive", "amenity": "hospital", "healthcare": "hospital", "name": "Intermountain Healthcare - Spanish Fork", "operator": "Intermountain Healthcare", "operator:wikidata": "Q6047563", "operator:wikipedia": "en:Intermountain Healthcare"}}, {"type": "way", "id": 931108606, "center": {"lat": 48.5406289, "lon": -117.8914754}, "nodes": [8632862528, 8632862529, 8632862530, 8632862531, 8632862532, 8632862599, 8632862763, 8632862533, 8632862534, 8632862535, 8632862770, 8632862536, 8632862537, 8632862538, 8632862539, 8632862540, 8632862541, 8632862542, 8632862543, 8632862544, 8632862545, 8632862546, 8632862547, 8632862548, 8632862549, 8632862550, 8632862551, 8632862552, 8632862553, 8632862554, 8632862555, 8632862556, 8632862557, 8632862558, 8632862559, 8632862560, 8632862561, 8632862562, 8632862528], "tags": {"amenity": "hospital", "emergency": "yes", "healthcare": "hospital"}}, {"type": "way", "id": 936909354, "center": {"lat": 47.7124066, "lon": -117.4052507}, "nodes": [8681127857, 8681127858, 8681127859, 8681127860, 8681127861, 8681127862, 8681127863, 8681127864, 8681127865, 8681127866, 8681127867, 8681127868, 8681127869, 8681127870, 8681127871, 8681127872, 8681127873, 8681127857], "tags": {"amenity": "hospital", "healthcare": "hospital"}}, {"type": "way", "id": 936909365, "center": {"lat": 47.7124011, "lon": -117.4069272}, "nodes": [8681128000, 8681128001, 8681128002, 8681128003, 8681128017, 8681128004, 8681128005, 8681128006, 8681128007, 8681128008, 8681128009, 8681128010, 8681128011, 8681128012, 8681128000], "tags": {"amenity": "hospital", "healthcare": "hospital"}}, {"type": "way", "id": 936909369, "center": {"lat": 47.7122768, "lon": -117.4042401}, "nodes": [8681128042, 8681128043, 8681128044, 8681128045, 8681128042], "tags": {"amenity": "hospital", "healthcare": "hospital"}}, {"type": "way", "id": 942036104, "center": {"lat": 43.4742313, "lon": -111.9878973}, "nodes": [8723604931, 8723604932, 8723604933, 8723604934, 8723604935, 8723604896, 8723604897, 8723604936, 8723604937, 8723604938, 8852112860, 9466469056, 8723604931], "tags": {"addr:city": "Idaho Falls", "addr:housenumber": "2325", "addr:postcode": "83404", "addr:state": "ID", "addr:street": "Coronado Street", "amenity": "hospital", "healthcare": "hospital", "name": "Mountain View Hospital & Idaho Falls Community Hospital"}}, {"type": "way", "id": 948253586, "center": {"lat": 44.5113228, "lon": -114.2246842}, "nodes": [8777412239, 8777412240, 8777412241, 8777412242, 4973852443, 128611164, 128623677, 8777412239], "tags": {"amenity": "hospital", "healthcare": "hospital"}}, {"type": "way", "id": 953280196, "center": {"lat": 43.6184419, "lon": -116.430549}, "nodes": [6986356462, 8823480109, 8823480110, 8823480111, 8823480104, 6986356464, 6986356463, 6986356462], "tags": {"amenity": "hospital", "healthcare": "hospital"}}, {"type": "way", "id": 956853383, "center": {"lat": 43.4702812, "lon": -111.9921111}, "nodes": [8854706730, 8852144885, 127514522, 127514847, 127236906, 127514851, 127514854, 127514857, 3902069808, 127233202, 8854706907, 127514914, 127418692, 127432225, 127468559, 8931296131, 127211896, 8854706731, 8853992815, 8854706730], "tags": {"addr:city": "Idaho Falls", "addr:housenumber": "3100", "addr:postcode": "83404", "addr:state": "ID", "addr:street": "Channing Way", "amenity": "hospital", "emergency": "yes", "healthcare": "hospital", "name": "Eastern Idaho Regional Medical Center"}}, {"type": "way", "id": 979714104, "center": {"lat": 41.9504239, "lon": -116.098201}, "nodes": [9063243859, 9063243860, 9063243861, 9063243862, 9063243863, 9063243864, 9063243865, 9063243866, 9063243867, 9063243868, 9063243869, 9063243870, 9063243871, 9063243872, 9063243873, 9063243874, 9063243875, 9063243876, 9063243877, 9063243878, 9063243879, 9063243880, 9063243881, 9063243882, 9063243883, 9063243859], "tags": {"addr:city": "Owyhee", "addr:postcode": "89832", "addr:state": "NV", "amenity": "hospital", "emergency": "yes", "gnis:feature_id": "2060073", "healthcare": "hospital", "helipad": "yes", "name": "Owyhee Community Health Facility", "opening_hours": "24/7", "phone": "+1 775 757 2415", "website": "https://shopaitribes.org/spochf/"}}, {"type": "way", "id": 984743202, "center": {"lat": 43.6823069, "lon": -116.3159584}, "nodes": [9104118748, 9104118749, 9104118750, 9104118751, 9104118752, 9104118753, 9104118754, 9104118755, 9104118756, 9104118757, 11164240343, 9104118758, 11164240337, 9104118748], "tags": {"amenity": "hospital", "healthcare": "hospital"}}, {"type": "way", "id": 997645691, "center": {"lat": 43.5961028, "lon": -116.5177868}, "nodes": [9211678175, 9211678176, 9211714736, 9211678177, 9211678178, 9211678179, 9211678180, 9211678181, 9211678182, 9211678183, 9211678184, 9211678185, 9211678186, 9211678187, 9211678188, 9211678189, 9211714720, 9211678190, 9211678191, 9211678192, 9211678193, 9211678194, 9211678195, 9211678196, 9211678197, 9211678198, 9211678199, 9211678200, 9211678201, 9211678202, 9211678203, 9211678204, 9211678205, 9211678206, 9211678207, 9211678208, 9211678209, 9211678210, 9211678175], "tags": {"amenity": "hospital", "healthcare": "hospital"}}, {"type": "way", "id": 1020091855, "center": {"lat": 43.58946, "lon": -116.1753638}, "nodes": [9408437999, 9408438009, 9408438000, 9408438001, 9408438002, 9408438003, 9408438004, 9408438005, 9408438006, 9408438007, 9408438008, 9408437998, 9408437999], "tags": {"amenity": "hospital", "healthcare": "hospital"}}, {"type": "way", "id": 1031882451, "center": {"lat": 47.3427752, "lon": -116.8939277}, "nodes": [9509537364, 9509537365, 9509537366, 9509537367, 9509537368, 9509537369, 9509537370, 9509537371, 9509537372, 9509537373, 9509537374, 9509537375, 9509537376, 9509537377, 9509537378, 9509537379, 9509537380, 9509537381, 9509537382, 9509537383, 9509537384, 9509537385, 9509537386, 9509537387, 9509537388, 9509537389, 9509537390, 9509537391, 9509537392, 9509537393, 9509537394, 9509537395, 9509537396, 9509537397, 9509537398, 9509537399, 9509537400, 9509537401, 9509537364], "tags": {"amenity": "hospital", "healthcare": "hospital"}}, {"type": "way", "id": 1061099892, "center": {"lat": 46.2279833, "lon": -119.263659}, "nodes": [9749331641, 9749331640, 9749331639, 9749331638, 9749331637, 9749331636, 9749331635, 9749331642, 9749331643, 9749331644, 9749331645, 9749331646, 9749331647, 10067744478, 9749331648, 9749331649, 9749331650, 9749331651, 9749331652, 9749331653, 9749331654, 9749331655, 9749331656, 9749331657, 9749331658, 9749331659, 9749331660, 9749331661, 9749331662, 9749331663, 9749331664, 9749331665, 9749331666, 9749331667, 9749331641], "tags": {"amenity": "hospital", "healthcare": "hospital"}}, {"type": "way", "id": 1092240735, "center": {"lat": 47.7132082, "lon": -116.9031155}, "nodes": [10003289009, 10003289023, 10003289024, 10003289025, 10003289026, 10003289027, 10003289028, 10003289029, 10003289030, 10003289031, 10003289032, 10003289033, 10003289034, 10003289035, 10003289036, 10003289037, 10003289038, 10003289039, 10003289040, 10003289041, 10003289042, 10003289008, 10003289009], "tags": {"amenity": "hospital", "healthcare": "hospital"}}, {"type": "way", "id": 1097583365, "center": {"lat": 40.5769373, "lon": -111.8547186}, "nodes": [4272142086, 4272142087, 10049916674, 10049916676, 10049916673, 10049916672, 10049916675, 10049916669, 10049916668, 10049916671, 10049916667, 10049916666, 10049916670, 10049916663, 10049916662, 10049916665, 10049916661, 10049916660, 10049916664, 10049916658, 10049916659, 10049916655, 10049916654, 10049916657, 10049916653, 10049916656, 10049916652, 10049916651, 10049916650, 10049916647, 10049916649, 10049916646, 10049916645, 10049916648, 10049916644, 10049916641, 10049916640, 10049916643, 10049916639, 10049916638, 10049916642, 10049916637, 10049916955, 10049916956, 10049916957, 10049916958, 10049916959, 10049916960, 10049916636, 10049916635, 10049916634, 10049916633, 10049916632, 10049916631, 10049916630, 10049916629, 10049916628, 10049916625, 10049916624, 10049916623, 10049916622, 10049916627, 10049916621, 10049916620, 10049916619, 10049916618, 10049916626, 10049832815, 10049916617, 10049832816, 10049832812, 10049832814, 10049832811, 10049832810, 10049832813, 10049832809, 10049832806, 10049832808, 10049832805, 10049832807, 10049832803, 10049832804, 10049832802, 10049832799, 10049832801, 10049832798, 10049832800, 10049832797, 10049832796, 10049832794, 10049832795, 10049832791, 10049832790, 10049832793, 10049832789, 10049832788, 10049832792, 10049832787, 10049832786, 10049832785, 4272142086], "tags": {"addr:city": "Sandy", "addr:housenumber": "9660", "addr:postcode": "84094", "addr:street": "South 1300 East", "amenity": "hospital", "emergency": "yes", "gnis:feature_id": "2432246", "healthcare": "hospital", "name": "Alta View Hospital", "opening_hours": "24/7", "phone": "+1 801 501 2600", "website": "https://intermountainhealthcare.org/locations/alta-view-hospital/", "wikidata": "Q4736003"}}, {"type": "way", "id": 1116455090, "center": {"lat": 45.7210883, "lon": -111.0779969}, "nodes": [10211365705, 10211365706, 10211365707, 10211365708, 10211365709, 10211365710, 10211365711, 10211365705], "tags": {"amenity": "hospital", "healthcare": "hospital", "name": "Billings Clinic - Bozeman"}}, {"type": "way", "id": 1149336796, "center": {"lat": 40.9711493, "lon": -117.7265408}, "nodes": [10692373674, 10692373646, 10692373675, 9153694723, 9153694724, 10692373676, 10692373678, 10692373677, 10692373679, 10692373682, 10692373680, 10692373683, 10692373681, 10692373684, 10692373687, 10692373685, 10692373688, 10692373686, 10692373690, 9153421497, 10692373689, 10692373653, 10692373671, 10692373673, 10692373670, 10692373672, 10692373674], "tags": {"amenity": "hospital", "emergency": "yes", "healthcare": "hospital", "name": "Humboldt General Hospital"}}, {"type": "way", "id": 1185619605, "center": {"lat": 47.7153433, "lon": -116.9285584}, "nodes": [11013249976, 11013249977, 11013249978, 11013249979, 11013249980, 11013249981, 11013249982, 11013249983, 11013249984, 11013249985, 11013249986, 11013249987, 11013249988, 11013249989, 11013249990, 11013249991, 11013249992, 11013249993, 11013249994, 11013249995, 11013249976], "tags": {"amenity": "hospital", "healthcare": "hospital", "name": "Kootenai Clinic Post Falls", "operator": "Kooteani Health"}}, {"type": "way", "id": 1202588451, "center": {"lat": 43.612359, "lon": -116.2910525}, "nodes": [9494287611, 11148638585, 11148638584, 11148638583, 11148638579, 11148638580, 11148638581, 11148638582, 9494355130, 9494355131, 8297696225, 9494287611], "tags": {"addr:city": "Boise", "addr:housenumber": "8800", "addr:postcode": "83704", "addr:state": "ID", "addr:street": "West Emerald Street", "amenity": "hospital", "beds": "10", "emergency": "no", "healthcare": "hospital", "healthcare:speciality": "surgery", "name": "Treasure Valley Hospital", "phone": "+1 208 373 5000", "website": "https://treasurevalleyhospital.com/"}}, {"type": "way", "id": 1210203200, "center": {"lat": 40.4902686, "lon": -111.40581}, "nodes": [11211534627, 5592303271, 5592303278, 11211534626, 11211534625, 11211534624, 11211534623, 11211534620, 11211534622, 11211534619, 11211534618, 11211534621, 11211534616, 11211534617, 11211534615, 11211534612, 11211534614, 11211534611, 11211534613, 11211534608, 11211534610, 11211534607, 11211534609, 11211534604, 11211534606, 11211534603, 11211534601, 11211534605, 11211534600, 11211534602, 11211534598, 11211534599, 11211534595, 11211534597, 11211534596, 11211534594, 11211534591, 11211534593, 11211534590, 11211534592, 11211534589, 11211534588, 11211534586, 11211534587, 11211534585, 11211534582, 11211534584, 11211534581, 11211534583, 11211534580, 11211534577, 11211534579, 11211534576, 11211534578, 11211534574, 11211534575, 11211534573, 11211534572, 11211534627], "tags": {"addr:city": "Heber City", "addr:housenumber": "1485", "addr:postcode": "84032", "addr:street": "South Highway 40", "amenity": "hospital", "beds": "19", "emergency": "yes", "healthcare": "hospital", "name": "Heber Valley Hospital", "old_name": "Wasatch County Hospital", "opening_hours": "24/7", "operator": "Intermountain Healthcare", "operator:wikidata": "Q6047563", "operator:wikipedia": "en:Intermountain Healthcare", "phone": "+1 435 654 2500", "website": "https://intermountainhealthcare.org/locations/heber-valley-hospital/"}}, {"type": "relation", "id": 6651469, "center": {"lat": 47.6483995, "lon": -117.4124356}, "members": [{"type": "way", "ref": 476211928, "role": "outer"}, {"type": "way", "ref": 448075195, "role": "outer"}, {"type": "way", "ref": 448076514, "role": "inner"}], "tags": {"addr:city": "Spokane", "addr:housenumber": "101", "addr:postcode": "99204", "addr:state": "WA", "addr:street": "West 8th Avenue", "amenity": "hospital", "capacity": "628", "emergency": "yes", "healthcare": "hospital", "name": "Providence Sacred Heart Medical Center and Children's Hospital", "opening_hours": "24/7", "operator": "Providence Health & Services", "operator:wikidata": "Q7252430", "operator:wikipedia": "en:Providence Health & Services", "phone": "+1-509-474-3131", "type": "multipolygon", "website": "https://washington.providence.org/hospitals/sacred-heart-medical-center-and-childrens-hospital/", "wheelchair": "yes", "wikidata": "Q7252476", "wikipedia": "en:Providence Sacred Heart Medical Center and Children's Hospital"}}, {"type": "relation", "id": 6933564, "center": {"lat": 46.4897534, "lon": -116.26039}, "members": [{"type": "way", "ref": 470762814, "role": "outer"}, {"type": "way", "ref": 470762816, "role": "inner"}], "tags": {"addr:city": "Orofino", "addr:housenumber": "300", "addr:postcode": "83544", "addr:street": "Hospital Drive", "amenity": "hospital", "beds": "55", "building": "hospital", "emergency": "no", "healthcare": "hospital", "healthcare:speciality": "psychiatry", "name": "State Hospital North", "phone": "+1 208 476 4511", "type": "multipolygon", "website": "http://healthandwelfare.idaho.gov/Medical/MentalHealth/StateHospitals/tabid/495/Default.aspx"}}, {"type": "relation", "id": 12339587, "center": {"lat": 48.392362, "lon": -115.5472866}, "members": [{"type": "way", "ref": 1179658230, "role": "outer"}, {"type": "way", "ref": 1179658234, "role": "outer"}, {"type": "way", "ref": 1180585787, "role": "outer"}, {"type": "way", "ref": 1180585791, "role": "outer"}], "tags": {"addr:city": "Libby", "addr:housenumber": "209", "addr:postcode": "59923", "addr:street": "Health Park Drive", "amenity": "hospital", "emergency": "yes", "healthcare": "hospital", "name": "Cabinet Peaks Medical Center", "opening_hours": "24/7", "phone": "+1 406 283 7000", "type": "multipolygon", "website": "https://www.cabinetpeaks.org/"}}, {"type": "relation", "id": 12816178, "center": {"lat": 46.2080797, "lon": -119.7637452}, "members": [{"type": "way", "ref": 951788117, "role": "outer"}, {"type": "way", "ref": 951788124, "role": "outer"}, {"type": "way", "ref": 604942772, "role": "outer"}, {"type": "way", "ref": 951788121, "role": "outer"}, {"type": "way", "ref": 951788123, "role": "outer"}], "tags": {"addr:city": "Prosser", "addr:housenumber": "723", "addr:postcode": "99350", "addr:state": "WA", "addr:street": "Memorial Street", "amenity": "hospital", "beds": "25", "emergency": "yes", "healthcare": "hospital", "name": "Prosser Memorial Hospital", "opening_hours": "24/7", "operator": "Prosser Memorial Health", "phone": "+1 509 786 2222", "type": "multipolygon", "website": "https://prosserhealth.org/"}}, {"type": "relation", "id": 15987563, "center": {"lat": 47.6500362, "lon": -117.4063339}, "members": [{"type": "way", "ref": 1182803024, "role": "outer"}, {"type": "way", "ref": 1182803692, "role": "outer"}], "tags": {"addr:city": "Spokane", "addr:housenumber": "711", "addr:postcode": "99202", "addr:state": "WA", "addr:street": "South Cowley Street", "amenity": "hospital", "healthcare": "hospital", "healthcare:speciality": "rehabilitation;occupational_therapy", "name": "St. Lukes Rehabilitation Institute", "phone": "+1-509-473-6000", "type": "multipolygon", "website": "https://www.st-lukes.org/"}}, {"type": "relation", "id": 15990680, "center": {"lat": 47.6509271, "lon": -117.4252987}, "members": [{"type": "way", "ref": 93591403, "role": "outer"}, {"type": "way", "ref": 1183298079, "role": "outer"}], "tags": {"addr:city": "Spokane", "addr:housenumber": "800", "addr:postcode": "99204", "addr:street": "West 5th Avenue", "amenity": "hospital", "beds": "388", "emergency": "yes", "healthcare": "hospital", "name": "MultiCare Deaconess Hospital", "opening_hours": "24/7", "operator": "MultiCare Health System", "phone": "+1 509 473 5800", "source": "bing", "type": "multipolygon", "website": "http://www.deaconessspokane.com/", "wikidata": "Q5245052"}}, {"type": "relation", "id": 16029463, "center": {"lat": 47.7161116, "lon": -116.9239475}, "members": [{"type": "way", "ref": 587467951, "role": "outer"}, {"type": "way", "ref": 1185619607, "role": "outer"}, {"type": "way", "ref": 1185619608, "role": "outer"}, {"type": "way", "ref": 1185619606, "role": "outer"}], "tags": {"addr:city": "Post Falls", "addr:housenumber": "1593", "addr:postcode": "83854", "addr:street": "East Polston Avenue", "amenity": "hospital", "beds": "34", "emergency": "no", "healthcare": "hospital", "healthcare:speciality": "surgery", "name": "Northwest Specialty Hospital Medical Park", "operator": "Northwest Specialty Hospital", "operator:type": "private_for_profit", "phone": "+1 208 262 2300", "type": "multipolygon", "website": "https://www.northwestspecialtyhospital.com/"}}, {"type": "relation", "id": 16393497, "center": {"lat": 47.6948469, "lon": -116.7958654}, "members": [{"type": "way", "ref": 458797319, "role": "outer"}, {"type": "way", "ref": 1211647685, "role": "outer"}, {"type": "way", "ref": 1212590165, "role": "outer"}, {"type": "way", "ref": 1212803547, "role": "outer"}], "tags": {"addr:city": "Coeur d'Alene", "addr:housenumber": "2003", "addr:postcode": "83814", "addr:street": "Kootenai Health Way", "amenity": "hospital", "beds": "292", "emergency": "yes", "healthcare": "hospital", "name": "Kootenai Medical Center", "opening_hours": "24/7", "phone": "+1 208 625 4000", "type": "multipolygon", "website": "https://www.kh.org/", "wheelchair": "yes"}}]}