{"version": 0.6, "generator": "Overpass API 0.7.61.5 4133829e", "osm3s": {"timestamp_osm_base": "2023-10-31T20:57:44Z", "copyright": "The data included in this document is from www.openstreetmap.org. The data is made available under ODbL."}, "elements": [{"type": "node", "id": 356551783, "lat": 47.534445, "lon": -122.366224, "tags": {"addr:city": "Seattle", "addr:housenumber": "2600", "addr:postcode": "98126", "addr:street": "Southwest Holden Street", "amenity": "hospital", "emergency": "no", "gnis:feature_id": "2462543", "healthcare": "hospital", "healthcare:speciality": "psychiatry", "name": "Navos West Seattle Campus", "old_name": "West Seattle Psychiatric Hospital", "operator": "Navos Mental Health Solutions", "phone": "+1-206-933-7000", "website": "https://www.navos.org/"}}, {"type": "node", "id": 357349177, "lat": 43.2247983, "lon": -123.3675632, "tags": {"access": "private", "addr:city": "Roseburg", "addr:housenumber": "913", "addr:postcode": "97471", "addr:street": "Northwest Garden Valley Boulevard", "amenity": "hospital", "emergency": "yes", "gnis:feature_id": "1639176", "healthcare": "hospital", "name": "Roseburg VA Medical Center", "phone": "+1 541 440 1000", "website": "https://www.roseburg.va.gov/"}}, {"type": "node", "id": 358818245, "lat": 40.101622, "lon": -123.792503, "tags": {"addr:city": "Garberville", "addr:housenumber": "733", "addr:postcode": "95542", "addr:state": "CA", "addr:street": "Cedar Street", "amenity": "hospital", "ele": "168", "emergency": "yes", "gnis:county_id": "023", "gnis:created": "04/26/1996", "gnis:feature_id": "1682026", "gnis:state_id": "06", "healthcare": "hospital", "name": "Jerold Phelps Community Hospital", "operator": "Southern Humboldt Community Healthcare District", "phone": "+1 707-923-3921", "website": "https://shchd.org/jerold-phelps-community-hospital/"}}, {"type": "node", "id": 358820450, "lat": 40.3058121, "lon": -121.2347413, "tags": {"addr:city": "Chester", "addr:housenumber": "130", "addr:postcode": "96020", "addr:street": "Brentwood Drive", "amenity": "hospital", "beds": "10", "emergency": "yes", "gnis:feature_id": "1701409", "healthcare": "hospital", "name": "Seneca Hospital", "opening_hours": "24/7", "operator": "Seneca Healthcare District", "phone": "+1 530 258 2151", "website": "https://www.senecahospital.org/"}}, {"type": "node", "id": 358821787, "lat": 41.4801377, "lon": -120.5453854, "tags": {"addr:city": "Alturas", "addr:housenumber": "228", "addr:postcode": "96101", "addr:street": "West McDowell Avenue", "amenity": "hospital", "beds": "16", "emergency": "yes", "gnis:feature_id": "1702406", "healthcare": "hospital", "name": "Modoc Medical Center", "opening_hours": "24/7", "phone": "+1 530 233 5131", "website": "https://modocmedicalcenter.org/"}}, {"type": "node", "id": 1333873695, "lat": 48.8715029, "lon": -123.3199232, "tags": {"addr:city": "Galiano", "addr:housenumber": "908", "addr:postcode": "V0N 1P0", "addr:province": "BC", "addr:street": "Burrill Road", "amenity": "hospital", "bed": "1", "emergency": "yes", "healthcare": "hospital", "name": "Galiano Health Clinic", "name_1": "Galiano Health Care Centre", "note": "limited emergency capable - will fly severe cases out", "operator": "Vancouver Island Health Authority"}}, {"type": "node", "id": 1565819251, "lat": 49.454403, "lon": -120.5267447, "tags": {"amenity": "hospital", "emergency": "yes", "name": "Princeton General Hospital"}}, {"type": "node", "id": 1708103766, "lat": 40.4505695, "lon": -122.2967393, "tags": {"amenity": "hospital", "emergency": "no", "healthcare": "hospital", "name": "Anderson Medical Associates", "source": "GPS Survey"}}, {"type": "node", "id": 2589755598, "lat": 49.3810397, "lon": -121.9361641, "tags": {"amenity": "hospital", "name": "First Aid Station"}}, {"type": "node", "id": 3518714008, "lat": 47.6732863, "lon": -122.129091, "tags": {"amenity": "hospital", "emergency": "no", "healthcare": "hospital", "name": "Kaiser Permanente Redmond Medical Center at Riverpark", "operator": "Kaiser Permanente", "operator:short": "KP", "operator:wikidata": "Q1721601", "operator:wikipedia": "en:Kaiser Permanente", "phone": "+1-888-901-4636"}}, {"type": "node", "id": 5718035521, "lat": 49.2455446, "lon": -123.123599, "tags": {"addr:housenumber": "4480", "addr:street": "Oak Street", "amenity": "hospital", "emergency": "yes", "healthcare": "hospital", "name": "Emergency", "wheelchair": "yes"}}, {"type": "node", "id": 5970443480, "lat": 47.5340433, "lon": -121.838407, "tags": {"addr:city": "Snoqualmie", "addr:housenumber": "37624", "addr:street": "Fury Street Southeast", "amenity": "hospital", "healthcare": "hospital", "name": "Swedish Snoqualmie Primary care"}}, {"type": "node", "id": 6407509664, "lat": 45.0046403, "lon": -122.790172, "tags": {"amenity": "hospital", "healthcare": "hospital", "name": "Silverton Hospital"}}, {"type": "node", "id": 6562979688, "lat": 47.976643, "lon": -122.2125408, "tags": {"amenity": "hospital", "healthcare": "hospital", "name": "The Everett Clinic"}}, {"type": "node", "id": 6946231182, "lat": 49.2621467, "lon": -123.124844, "tags": {"amenity": "hospital", "healthcare": "hospital", "name": "Emergency"}}, {"type": "node", "id": 7173862497, "lat": 46.1751557, "lon": -122.9166314, "tags": {"addr:city": "Longview", "addr:housenumber": "128", "addr:postcode": "98632", "addr:state": "WA", "addr:street": "Old Beacon Hill Drive", "amenity": "hospital", "healthcare": "hospital", "name": "Beacon Hill Rehabilitation"}}, {"type": "node", "id": 7477517094, "lat": 49.1860503, "lon": -123.970497, "tags": {"amenity": "hospital", "entrance": "emergency", "healthcare": "hospital", "name": "Emergency"}}, {"type": "node", "id": 8389138771, "lat": 46.6406101, "lon": -122.9413845, "tags": {"addr:city": "Chehalis", "addr:housenumber": "1201", "addr:postcode": "98532", "addr:state": "WA", "addr:street": "Bishop Road", "amenity": "hospital", "emergency": "yes", "healthcare": "hospital", "healthcare:speciality": "oncology", "name": "Capital Oncology"}}, {"type": "node", "id": 8508184533, "lat": 49.2641866, "lon": -123.245747, "tags": {"addr:housenumber": "2211", "addr:street": "Wesbrook Mall", "amenity": "hospital", "emergency": "yes", "healthcare": "hospital", "name": "UBC Hospital", "website": "https://www.vch.ca/en/location/ubc-hospital", "wikidata": "Q7863802", "wikipedia": "en:UBC Hospital"}}, {"type": "node", "id": 8766450032, "lat": 49.2582638, "lon": -123.0957019, "tags": {"amenity": "hospital", "healthcare": "hospital", "name": "Emergency"}}, {"type": "node", "id": 9115152224, "lat": 49.1755809, "lon": -122.8442429, "tags": {"amenity": "hospital", "healthcare": "hospital", "name": "Emergency"}}, {"type": "node", "id": 9213346422, "lat": 46.6873697, "lon": -122.9580516, "tags": {"amenity": "hospital", "healthcare": "hospital", "healthcare:for": "veterans", "name": "VA Medical Center", "operator": "Veterans Health Administration", "operator:short": "VA", "operator:wikidata": "Q6580225", "operator:wikipedia": "en:Veterans Health Administration", "short_name": "VA"}}, {"type": "node", "id": 9236455016, "lat": 47.4449555, "lon": -121.7638743, "tags": {"addr:city": "North Bend", "addr:housenumber": "42804", "addr:postcode": "98045", "addr:state": "WA", "addr:street": "Southeast 172nd Street", "amenity": "hospital", "emergency": "yes", "healthcare": "hospital", "name": "Eastside Fire & Rescue Station88"}}, {"type": "node", "id": 9297853571, "lat": 48.4334826, "lon": -123.3270611, "tags": {"amenity": "hospital", "healthcare": "hospital", "name": "Emergency"}}, {"type": "node", "id": 9448651084, "lat": 49.2259374, "lon": -122.8920702, "tags": {"amenity": "hospital", "emergency": "yes", "healthcare": "hospital", "name": "Emergency"}}, {"type": "node", "id": 9525009816, "lat": 47.6091703, "lon": -122.3242052, "tags": {"addr:city": "Seattle", "addr:housenumber": "1101", "addr:postcode": "98104", "addr:state": "WA", "addr:street": "Marion Street", "amenity": "hospital", "healthcare": "hospital", "healthcare:speciality": "plastic_surgery;surgery", "name": "The Seattle Facial Plastic Surgery Center", "operator": "Dr William Portuese", "operator:type": "business"}}, {"type": "node", "id": 10296290461, "lat": 40.5804711, "lon": -122.3943013, "tags": {"amenity": "hospital", "healthcare": "hospital", "operator": "Dignity Health", "operator:wikidata": "Q5276334"}}, {"type": "node", "id": 10866405740, "lat": 40.1747476, "lon": -122.2424489, "tags": {"addr:city": "Red Bluff", "addr:housenumber": "925", "addr:postcode": "96080", "addr:street": "Walnut Street", "amenity": "hospital", "beds": "16", "healthcare": "hospital", "healthcare:speciality": "psychiatry", "name": "Restpadd Red Bluff Psychiatric Health Facility", "phone": "+1 530 567 7300", "website": "https://www.restpaddhealth.com"}}, {"type": "node", "id": 10866445983, "lat": 40.7807166, "lon": -124.1606002, "tags": {"addr:city": "Eureka", "addr:housenumber": "720", "addr:postcode": "95501-4413", "addr:street": "Wood Street", "amenity": "hospital", "beds": "16", "healthcare": "hospital", "healthcare:speciality": "psychiatry", "name": "Sempervirens Psychiatric Health Facility", "phone": "+1 707 445 7710", "website": "https://humboldtgov.org/437/Sempervirens-Psychiatric-Health-Facility"}}, {"type": "node", "id": 10920467847, "lat": 47.0426091, "lon": -122.8279879, "tags": {"addr:city": "Lacey", "addr:housenumber": "605", "addr:postcode": "98503", "addr:state": "WA", "addr:street": "Woodland Square Loop", "amenity": "hospital", "beds": "108", "healthcare": "hospital", "healthcare:speciality": "psychiatry", "name": "South Sound Behavioral Hospital", "website": "https://www.southsoundbehavioralhospital.com"}}, {"type": "node", "id": 11162267113, "lat": 40.7840724, "lon": -124.1422189, "tags": {"addr:city": "Eureka", "addr:housenumber": "2700", "addr:postcode": "95501", "addr:state": "CA", "addr:street": "Dolbeer Street", "amenity": "hospital", "healthcare": "hospital", "name": "Providence St. Joseph Hospital Eureka"}}, {"type": "way", "id": 4766901, "center": {"lat": 48.4324503, "lon": -123.3269499}, "nodes": [30444947, 1504329014, 1504329637, 9979105552, 1504329655, 9979105551, 9979105550, 30444949, 9979105553, 30444954, 30444955, 1504328773, 30444956, 30444957, 30444958, 1504328315, 1504328336, 30444959, 30444961, 10248358601, 1504327562, 1504327544, 10248358600, 30444962, 10248358603, 30444964, 10248358604, 30444967, 10248358597, 30444969, 30444970, 30444947], "tags": {"addr:city": "Victoria", "addr:housenumber": "1952", "addr:province": "BC", "addr:street": "Bay Street", "amenity": "hospital", "emergency": "yes", "healthcare": "hospital", "name": "Royal Jubilee Hospital", "phone": "+1-250-370-8000", "toilets:wheelchair": "yes", "website": "https://www.islandhealth.ca/our-locations/hospitals-health-centre-locations/royal-jubilee-hospital-rjh", "wheelchair": "yes", "wikidata": "Q7374361", "wikipedia": "en:Royal Jubilee Hospital"}}, {"type": "way", "id": 23811142, "center": {"lat": 49.3209784, "lon": -123.0676719}, "nodes": [258031128, 258031129, 258031130, 258031131, 258031128], "tags": {"addr:housenumber": "231", "addr:street": "East 15th Street", "amenity": "hospital", "emergency": "yes", "healthcare": "hospital", "name": "Lions Gate Hospital", "operator": "Vancouver Coastal Health", "operator:type": "public", "phone": "+1-604-988-3131", "toilets:wheelchair": "yes", "website": "https://www.vch.ca/en/location/lions-gate-hospital", "wheelchair": "yes", "wikidata": "Q96418816", "wikipedia": "en:Lions Gate Hospital"}}, {"type": "way", "id": 25054082, "center": {"lat": 47.2921913, "lon": -122.3260475}, "nodes": [272573637, 272573640, 272573684, 272573686, 272573643, 272573644, 272573681, 272573671, 272573674, 272573679, 272573647, 272573649, 272573650, 272573653, 272573655, 4780213905, 4780213904, 4780213902, 4780213903, 475591779, 475591778, 475591781, 272573661, 475591780, 475591777, 272573664, 272573665, 4932824983, 4932824987, 272573667, 4932824986, 4932824617, 5225846323, 4780213906, 4780213907, 272573637], "tags": {"addr:city": "Federal Way", "addr:housenumber": "34515", "addr:postcode": "98003", "addr:street": "9th Avenue South", "amenity": "hospital", "beds": "110", "emergency": "yes", "gnis:feature_id": "2462522", "healthcare": "hospital", "name": "St. Francis Hospital", "opening_hours": "24/7", "operator": "CHI Franciscan Health", "phone": "+1 253 835 8100", "website": "https://www.chifranciscan.org/st-francis-hospital.html", "wikidata": "Q7587972"}}, {"type": "way", "id": 25054773, "center": {"lat": 47.2587028, "lon": -122.4528146}, "nodes": [272583826, 272583492, 4780162649, 272583832, 272583826], "tags": {"addr:city": "Tacoma", "addr:housenumber": "317", "addr:postcode": "98403", "addr:street": "Martin Luther King Jr Way", "amenity": "hospital", "beds": "72", "emergency": "yes", "gnis:feature_id": "2462519", "healthcare": "hospital", "name": "Mary Bridge Children's Hospital", "opening_hours": "24/7", "operator": "MultiCare Health System", "phone": "+1 253 403 1400", "website": "https://www.marybridge.org/", "wikidata": "Q6934524", "wikipedia": "en:Mary Bridge Children's Hospital"}}, {"type": "way", "id": 25054859, "center": {"lat": 47.2455492, "lon": -122.44808}, "nodes": [4294149730, 4294149731, 9996085547, 4294149732, 4294149733, 4294149723, 4294149722, 4294149721, 4294149703, 4294149702, 4294149701, 4294149700, 4294149699, 4294149696, 4294149697, 4294149698, 4294149704, 4294149705, 4294149706, 4294149707, 4294149708, 4294149709, 4294149710, 4294149711, 4294149724, 4294149725, 4294149726, 4294149727, 4294149728, 4294149729, 4294149730], "tags": {"addr:city": "Tacoma", "addr:housenumber": "1717", "addr:postcode": "98405", "addr:street": "South J Street", "amenity": "hospital", "beds": "374", "emergency": "yes", "healthcare": "hospital", "name": "Saint Joseph Medical Center", "opening_hours": "24/7", "operator": "CHI Franciscan Health", "phone": "+1 253 426 4101", "website": "https://www.chifranciscan.org/st-joseph-medical-center.html", "wheelchair": "yes", "wikidata": "Q7589340"}}, {"type": "way", "id": 25054939, "center": {"lat": 47.2417544, "lon": -122.4796202}, "nodes": [4780126333, 4780126332, 4780126338, 4780126337, 4780126336, 4780126335, 4780126334, 272585568, 272585566, 272585565, 3624136177, 4780126333], "tags": {"addr:city": "Tacoma", "addr:housenumber": "1901", "addr:postcode": "98405", "addr:street": "South Union Avenue", "alt_name": "Allenmore Hospital", "amenity": "hospital", "beds": "130", "emergency": "yes", "fixme": "Facility should be updated with newer imagery now available", "healthcare": "hospital", "healthcare:speciality": "orthopaedics;surgery", "name": "MultiCare Allenmore Hospital", "opening_hours": "24/7", "operator": "MultiCare Health System", "phone": "+1 253 459 6633", "website": "https://www.multicare.org/allenmore-hospital/"}}, {"type": "way", "id": 25099135, "center": {"lat": 47.1545618, "lon": -122.5017704}, "nodes": [4780113995, 4780113981, 4780113996, 4780113998, 4780113997, 4780113999, 4780114000, 273177620, 273177621, 273177622, 4780113994, 4780113993, 4780113992, 4780113991, 4780113990, 4780113989, 4780113988, 4780113987, 4780113986, 4780113985, 4780113984, 4780113983, 4780113982, 4780113995], "tags": {"addr:city": "Lakewood", "addr:housenumber": "11315", "addr:postcode": "98499", "addr:street": "Bridgeport Way Southwest", "amenity": "hospital", "beds": "106", "emergency": "yes", "gnis:feature_id": "2462521", "healthcare": "hospital", "name": "Saint Clare Hospital", "opening_hours": "24/7", "operator": "CHI Franciscan Health", "phone": "+1 253 985 1711", "website": "https://www.chifranciscan.org/st-clare-hospital.html", "wikidata": "Q7587611", "wikipedia": "en:St. Clare Hospital"}}, {"type": "way", "id": 25101011, "center": {"lat": 47.1801438, "lon": -122.563743}, "nodes": [653914190, 273199660, 273199661, 653914208, 653914212, 653914216, 653914222, 653914226, 653914234, 653914238, 6499062930, 653914242, 653914247, 653914251, 653914261, 653914273, 653914278, 653914294, 653914302, 653914185, 653914195, 653914190], "tags": {"addr:city": "Lakewood", "addr:housenumber": "9601", "addr:postcode": "98498", "addr:street": "Steilacoom Boulevard", "amenity": "hospital", "emergency": "no", "gnis:feature_id": "1509437", "healthcare": "hospital", "healthcare:speciality": "psychiatry", "name": "Western State Hospital", "phone": "+1 253 582 8900", "website": "https://www.dshs.wa.gov/bha/division-state-hospitals/western-state-hospital", "wikidata": "Q7988334", "wikipedia": "en:Western State Hospital (Washington)"}}, {"type": "way", "id": 25108936, "center": {"lat": 47.1777697, "lon": -122.2889164}, "nodes": [4780226654, 4780226655, 4780226656, 273342307, 4780226657, 273342311, 273342316, 273342319, 273342320, 273342324, 273342330, 273342344, 273342346, 273342350, 273342353, 273342358, 5460286882, 5460286881, 4780226658, 4780226659, 4780226660, 4780226661, 4780226662, 4780226663, 4780226675, 4780226676, 2101094254, 6373549179, 2101094255, 5373658192, 6262879938, 4780226653, 4780226652, 5373658193, 4780226651, 4780226650, 4780226649, 4780226648, 4780226647, 4780226646, 6240570830, 4780226654], "tags": {"addr:city": "Puyallup", "addr:housenumber": "401", "addr:postcode": "98372", "addr:street": "15th Avenue Southeast", "amenity": "hospital", "beds": "275", "emergency": "yes", "gnis:feature_id": "1505177", "healthcare": "hospital", "name": "MultiCare Good Samaritan Hospital", "opening_hours": "24/7", "operator": "MultiCare Health System", "phone": "+1 253 697 4000", "website": "https://www.multicare.org/good-samaritan-hospital/", "wikidata": "Q30254188"}}, {"type": "way", "id": 25207131, "center": {"lat": 49.1668554, "lon": -121.9638602}, "nodes": [274842304, 274842306, 274842308, 274842314, 274842319, 512772895, 274842322, 274842304], "tags": {"addr:housenumber": "45600", "addr:street": "Menholm Road", "amenity": "hospital", "emergency": "yes", "healthcare": "hospital", "name": "Chilliwack General Hospital", "operator": "Fraser Health Authority", "operator:type": "public", "operator:wikidata": "Q5493608", "phone": "+1-604-795-4141", "website": "https://www.fraserhealth.ca/Service-Directory/Locations/Chilliwack/chilliwack-general-hospital", "wikidata": "Q96418115", "wikipedia": "en:Chilliwack General Hospital"}}, {"type": "way", "id": 30264157, "center": {"lat": 44.9381604, "lon": -123.0028433}, "nodes": [431391185, 6896650387, 6896650386, 6896650385, 1919045995, 1919045994, 1919045993, 6896644984, 1919045992, 1919045989, 6896644983, 1919045988, 1919045986, 1919045985, 6896644982, 6896644981, 1919045982, 1919045980, 1919045978, 6896644980, 6896644979, 1919045977, 1919045970, 6896644978, 1919045969, 1919045967, 1919045968, 6896644977, 1919045972, 1919045974, 6896644976, 1919045975, 1919045973, 6896644975, 6896644974, 1919045971, 1919045966, 1919045964, 1919045962, 1919045960, 1919045961, 1919045963, 1919045965, 1919045976, 1919045979, 1919045981, 6896644973, 1919045983, 1919045984, 6896644972, 1919045987, 6896644971, 6896644970, 1919045990, 333542277, 6896650388, 6896650389, 1919046000, 1919046001, 1919046002, 1919046003, 1919046004, 9012742541, 431391171, 1919046005, 431391172, 1919030867, 1919030866, 1919030864, 1919030863, 1919030861, 1919030859, 1919030857, 6944284399, 6944284398, 6944284397, 1919030854, 6944284396, 6944284395, 6944284394, 1919030860, 6944284393, 6944284392, 6944284391, 6944284390, 1919030853, 6944284389, 6944284388, 6944284387, 1919030849, 1919030847, 6944284385, 6944284386, 1919030845, 1919030844, 6944284384, 6944284383, 6944284382, 1919030843, 6944284381, 6944284380, 6944284379, 1919030841, 6944284378, 6944284435, 6944284377, 1919030839, 6944284088, 6944284089, 6944284090, 1919030836, 6944284091, 6944284092, 6944284093, 1919030834, 6944284094, 6944284095, 1919030832, 6944284096, 6944284097, 6944284098, 1919030829, 1919030826, 1919030824, 1919030817, 1919030816, 1919030815, 1919030814, 1919030813, 1919030812, 1919030811, 1919030810, 1919030807, 1919030806, 1919030805, 1919030804, 431391185], "tags": {"addr:city": "Salem", "addr:housenumber": "2600", "addr:postcode": "97301", "addr:street": "Center Street Northeast", "amenity": "hospital", "emergency": "no", "healthcare": "hospital", "healthcare:speciality": "psychiatry", "name": "Oregon State Hospital", "phone": "+1 503-945-2800", "website": "https://www.oregon.gov/oha/osh/", "wikidata": "Q7101361"}}, {"type": "way", "id": 35827609, "center": {"lat": 47.406359, "lon": -120.3219187}, "nodes": [418857283, 8710621290, 418857287, 8710621289, 8710621291, 418857295, 418857303, 418857308, 418857310, 418857311, 418857312, 418857313, 418857283], "tags": {"addr:city": "Wenatchee", "addr:housenumber": "1201", "addr:postcode": "98801", "addr:street": "South Miller Street", "amenity": "hospital", "beds": "198", "emergency": "yes", "gnis:feature_id": "1525352", "healthcare": "hospital", "name": "Central Washington Hospital", "opening_hours": "24/7", "operator": "Confluence Health", "phone": "+1 509 662 1511", "website": "https://www.confluencehealth.org/locations/central-washington-hospital-clinics/"}}, {"type": "way", "id": 38522975, "center": {"lat": 47.7141308, "lon": -122.3371229}, "nodes": [455886833, 455886834, 455886835, 9663852112, 455886836, 455886838, 5419998298, 5419998297, 409433722, 409433718, 4346296047, 455886833], "tags": {"addr:city": "Seattle", "alt_name": "UW Medical Center - Northwest", "amenity": "hospital", "beds": "231", "ele": "121", "emergency": "yes", "gnis:county_id": "033", "gnis:created": "08/01/1990", "gnis:feature_id": "1509819", "gnis:state_id": "53", "healthcare": "hospital", "name": "University of Washington Medical Center - Northwest", "old_name": "Northwest Hospital & Medical Center", "operator": "UW Medicine", "website": "https://www.uwmedicine.org/locations/northwest-hospital", "wikidata": "Q7060076"}}, {"type": "way", "id": 40038371, "center": {"lat": 47.9751421, "lon": -122.2172556}, "nodes": [4777880062, 481451635, 481451639, 4777880061, 4777880060, 356540925, 4777880059, 4777880062], "tags": {"addr:city": "Everett", "addr:housenumber": "916", "addr:postcode": "98201", "addr:street": "Pacific Avenue", "amenity": "hospital", "emergency": "no", "gnis:feature_id": "1507648", "healthcare": "hospital", "name": "Providence Regional Medical Center", "not:operator:wikidata": "Q7252430", "old_name": "Providence Hospital", "operator": "Providence Health & Services", "operator:wikidata": "Q7252430", "phone": "+1 425 261 2000", "website": "https://washington.providence.org/hospitals/regional-medical-center/"}}, {"type": "way", "id": 41770711, "center": {"lat": 49.2851831, "lon": -122.8243716}, "nodes": [6712934311, 6733462747, 6733462749, 514831625, 6728302632, 2256011687, 2256011684, 6728302631, 514831629, 6728302628, 2256011664, 6728302630, 6728302629, 2256011702, 514831633, 514831638, 514831594, 2256011681, 2256011700, 8232660747, 2256011669, 514831597, 514831600, 514831603, 2884125564, 514831608, 6712934322, 2884125562, 2884125563, 514831611, 6720185757, 2884125580, 514831614, 2256011691, 2256011673, 6728332815, 6728332814, 2256011689, 6733462748, 6733462750, 6712934311], "tags": {"addr:housenumber": "475", "addr:street": "Guildford Way", "amenity": "hospital", "emergency": "yes", "healthcare": "hospital", "name": "Eagle Ridge Hospital", "operator": "Fraser Health Authority", "operator:type": "public", "phone": "+1-604-461-2022", "website": "https://www.fraserhealth.ca/Service-Directory/Locations/Port-Moody/eagle-ridge-hospital"}}, {"type": "way", "id": 41839791, "center": {"lat": 49.2496701, "lon": -123.0148685}, "nodes": [516996651, 4624421117, 516996652, 516996653, 516996655, 516996656, 2069352102, 516996651], "tags": {"addr:housenumber": "3935", "addr:street": "Kincaid Street", "amenity": "hospital", "beds": "286", "emergency": "yes", "healthcare": "hospital", "healthcare:speciality": "emergency;general;internal;surgery;orthopaedics;gynaecology;urology;obstetrics;neonatal_intensive_care;tertiary_palliative;psychiatry;ambulatory", "name": "Burnaby Hospital", "old_name": "Burnaby General Hospital", "opening_hours": "24/7", "operator": "Fraser Health Authority", "operator:type": "public", "operator:wikidata": "Q5493608", "operator:wikipedia": "en:Fraser Health", "phone": "+1-604-434-4211", "website": "https://www.fraserhealth.ca/Service-Directory/Locations/Burnaby/burnaby-hospital#.YIrwo_lKjn0", "wikidata": "Q4999585"}}, {"type": "way", "id": 41879302, "center": {"lat": 49.2265929, "lon": -122.8905814}, "nodes": [1505457145, 10100006217, 779733526, 9408475281, 254245145, 9408475283, 416104166, 10079181428, 3438666743, 3438689376, 10079181014, 3438666745, 416111804, 3438666744, 10079181354, 10079181343, 10079181346, 416108134, 25260311, 8268492111, 416110571, 9401727631, 10079181347, 973620279, 416108335, 1505474193, 1505474197, 9401727685, 1505457144, 968358281, 1505457145], "tags": {"addr:housenumber": "330", "addr:street": "East Columbia Street", "amenity": "hospital", "emergency": "yes", "healthcare": "hospital", "name": "Royal Columbian Hospital", "operator": "Fraser Health Authority", "operator:type": "public", "operator:wikidata": "Q5493608", "operator:wikipedia": "en:Fraser Health", "phone": "+1-604-520-4253", "website": "https://www.fraserhealth.ca/Service-Directory/Locations/New-Westminster/royal-columbian-hospital", "wikidata": "Q7373996"}}, {"type": "way", "id": 42504921, "center": {"lat": 49.2283437, "lon": -122.8112105}, "nodes": [10179120011, 10179125888, 416108884, 416104090, 530770815, 530770818, 530770820, 530770822, 530770824, 530770826, 530770827, 2278813702, 530751239, 530751245, 2278813712, 7758136513, 7758136517, 1076381587, 1076381578, 7758136516, 7758136515, 7758136514, 4405015603, 4405015607, 8246425754, 4405015608, 10179125862, 10179120011], "tags": {"amenity": "hospital", "emergency": "no", "healthcare": "hospital", "healthcare:speciality": "psychiatry", "name": "Forensic Psychiatric Hospital"}}, {"type": "way", "id": 51185697, "center": {"lat": 49.2806269, "lon": -123.1289158}, "nodes": [652989869, 652989867, 3907196944, 2465886654, 652989872, 5251451725, 652989862, 652989869], "tags": {"addr:city": "Vancouver", "addr:housenumber": "1081", "addr:postcode": "V6Z 1Y6", "addr:street": "Burrard Street", "amenity": "hospital", "emergency": "yes", "healthcare": "hospital", "name": "St. Paul's Hospital", "opening_hours": "24/7", "operator": "Providence Health Care", "operator:type": "public", "phone": "+1-604-682-2344", "website": "https://www.providencehealthcare.org/hospitals-residences/st-paul%27s-hospital", "wheelchair": "yes", "wikidata": "Q7591153", "wikipedia": "en:St. Paul's Hospital (Vancouver)"}}, {"type": "way", "id": 51221374, "center": {"lat": 47.1091813, "lon": -122.5521362}, "nodes": [653723375, 653723399, 653723421, 653723443, 653723469, 653723491, 653723505, 653723508, 653723517, 653723545, 653723563, 653723577, 653723592, 653723638, 653723654, 653723668, 653723684, 653723705, 653723719, 653723726, 653723736, 653723746, 653723759, 653723770, 653723780, 653723787, 653723793, 653723799, 653723807, 653723815, 653723821, 653723829, 653723836, 653723842, 653723851, 653723857, 653723872, 653723887, 653723901, 653723923, 653723932, 653723375], "tags": {"access": "private", "addr:city": "Tacoma", "addr:housenumber": "9040", "addr:postcode": "98431", "addr:street": "Jackson Avenue", "amenity": "hospital", "beds": "205", "emergency": "yes", "gnis:feature_id": "1506413", "healthcare": "hospital", "name": "Madigan Army Medical Center", "opening_hours": "24/7", "phone": "+1 253 968 1110", "website": "http://www.mamc.amedd.army.mil/", "wikidata": "Q6727718", "wikipedia": "en:Madigan Army Medical Center"}}, {"type": "way", "id": 51242100, "center": {"lat": 47.1334962, "lon": -122.5764928}, "nodes": [653925410, 653925422, 653925438, 5895466942, 653925453, 653925489, 653925493, 653925504, 653925521, 653925544, 653925569, 653925585, 653925600, 653925618, 653925629, 653925636, 653925644, 653925664, 653925675, 653925685, 653925694, 653925706, 653925715, 653925410], "tags": {"amenity": "hospital", "ele": "76", "emergency": "no", "gnis:county_id": "053", "gnis:created": "09/01/1990", "gnis:feature_id": "1510195", "gnis:state_id": "53", "healthcare": "hospital", "name": "American Lake VA Medical Center"}}, {"type": "way", "id": 51254675, "center": {"lat": 47.5942166, "lon": -122.6900821}, "nodes": [654015245, 654015246, 654015247, 654015248, 654015249, 654015250, 654015251, 654015252, 654015253, 654015254, 654015255, 654015256, 654015257, 654015258, 654015259, 654015260, 654015261, 654015262, 654015263, 654015264, 654015265, 654015266, 654015267, 654015268, 654015269, 654015270, 654015271, 654015272, 654015273, 654015274, 654015275, 654015245], "tags": {"addr:city": "Bremerton", "addr:housenumber": "1", "addr:postcode": "98312-1898", "addr:state": "WA", "addr:street": "Boone Road", "amenity": "hospital", "beds": "40", "ele": "18", "gnis:county_name": "Kitsap", "gnis:created": "11/17/2008", "gnis:feature_id": "2512335", "gnis:feature_type": "Military", "healthcare": "hospital", "landuse": "military", "name": "Naval Hospital Bremerton", "phone": "+1 360 475 4000", "source_ref": "geonames.usgs.gov", "website": "https://bremerton.tricare.mil"}}, {"type": "way", "id": 51564664, "center": {"lat": 47.4327584, "lon": -120.3226899}, "nodes": [659457823, 9482153288, 659457833, 659457844, 9482153342, 659457845, 659457846, 659457847, 9482153341, 659457823], "tags": {"addr:city": "Wenatchee", "addr:housenumber": "820", "addr:postcode": "98801", "addr:street": "North Chelan Avenue", "amenity": "hospital", "emergency": "no", "healthcare": "hospital", "name": "Wenatchee Valley Medical Center", "operator": "Confluence Health", "phone": "+1 509 663 8711", "source": "yahoo_wms", "website": "https://www.confluencehealth.org/locations/wenatchee-valley-hospital-clinics/", "wikidata": "Q30270663"}}, {"type": "way", "id": 52134999, "center": {"lat": 45.5484187, "lon": -122.679837}, "nodes": [664314346, 2352431202, 664314320, 664314314, 664314315, 1646417594, 1427521579, 1646417582, 1321229842, 664314312, 664314325, 1321229853, 664314322, 664314323, 3982809094, 3982809095, 3982809090, 3982809091, 3982809089, 2352431237, 2352431238, 2352431203, 664314346], "tags": {"amenity": "hospital", "emergency": "no", "healthcare": "hospital", "name": "Kaiser Permanente", "note": "TODO", "operator": "Kaiser Permanente", "operator:short": "KP", "operator:wikidata": "Q1721601", "operator:wikipedia": "en:Kaiser Permanente"}}, {"type": "way", "id": 53049158, "center": {"lat": 45.5396013, "lon": -122.8767098}, "nodes": [671780976, 671780491, 1490074601, 9650826258, 9650826260, 9650826259, 671780495, 671780532, 9650826269, 9650826271, 9650826270, 9650826272, 3732246428, 9650826268, 1490074604, 9650826267, 671780537, 9650826266, 1490074605, 9650826265, 671780547, 9650826264, 1490074606, 9650826263, 671780551, 9650826262, 9650826261, 1490074608, 671780558, 9650826278, 9650826273, 671780565, 9650826276, 671780568, 9650826274, 9650826277, 9650826275, 671780937, 3732205976, 671780976], "tags": {"addr:city": "Hillsboro", "addr:housenumber": "2875", "addr:postcode": "97124", "addr:state": "OR", "addr:street": "Northeast Stucki Avenue", "amenity": "hospital", "emergency": "yes", "healthcare": "hospital", "name": "Kaiser Permanente Westside Medical Center", "opening_hours": "24/7", "operator": "Kaiser Permanente", "operator:short": "KP", "operator:wikidata": "Q1721601", "operator:wikipedia": "en:Kaiser Permanente", "phone": "+1-971-310-1000", "website": "https://www.kaiserpermanente.org/", "wikidata": "Q12060932", "wikipedia": "en:Kaiser Westside Medical Center"}}, {"type": "way", "id": 53615315, "center": {"lat": 47.5630065, "lon": -122.3082632}, "nodes": [342200506, 342200505, 342200503, 342200502, 342200501, 342200500, 677185036, 677185045, 677185055, 677185061, 677185073, 677185085, 677185096, 677185110, 677185119, 677185136, 677185144, 677185147, 677185149, 677185150, 677185155, 677185151, 677185154, 677185152, 342200506], "tags": {"access": "private", "addr:city": "Seattle", "addr:housenumber": "1660", "addr:postcode": "98108", "addr:street": "South Columbian Way", "amenity": "hospital", "beds": "429", "brand": "VA", "brand:wikidata": "Q6580225", "brand:wikipedia": "en:Veterans Health Administration", "emergency": "yes", "healthcare": "hospital", "healthcare:for": "veterans", "name": "VA Medical Center - Seattle", "opening_hours": "24/7", "operator": "Veterans Health Administration", "operator:short": "VA", "operator:type": "government", "operator:wikidata": "Q6580225", "phone": "+1 206 762 1010", "short_name": "VA", "website": "https://www.pugetsound.va.gov/"}}, {"type": "way", "id": 56187081, "center": {"lat": 45.49772, "lon": -122.6860157}, "nodes": [715558728, 3383970512, 3383970511, 705057911, 705250950, 705057912, 1711774768, 1711774763, 705057914, 1711774753, 1711774731, 1711774720, 1711774707, 1711774658, 1711774602, 1711774599, 705057916, 705057919, 40665179, 705057921, 3383970471, 3383970472, 705057922, 705057924, 3383970467, 3383970466, 705057926, 705057927, 705057928, 705057929, 705057931, 705057935, 705057936, 705057937, 705057938, 705057939, 705057940, 705057941, 705057942, 705057943, 705057944, 705057945, 705057947, 705057948, 705057949, 705057950, 1711774543, 1711774569, 705057951, 705057952, 1711774577, 705057953, 705057954, 705057955, 705057956, 705057957, 705057958, 705057959, 705057960, 705057961, 705057962, 705057963, 705057846, 705057965, 705057966, 715558728], "tags": {"addr:city": "Portland", "addr:housenumber": "700", "addr:postcode": "97239", "addr:state": "OR", "addr:street": "Southwest Campus Drive", "amenity": "hospital", "building": "yes", "emergency": "no", "healthcare": "hospital", "healthcare:speciality": "paediatrics", "name": "Doernbecher Children's Hospital", "opening_hours": "24/7", "phone": "+1-503-346-0640", "website": "http://www.ohsu.edu/", "wikidata": "Q5288081", "wikipedia": "en:Doernbecher Children's Hospital"}}, {"type": "way", "id": 57692206, "center": {"lat": 45.4989989, "lon": -122.6855618}, "nodes": [705250995, 705243521, 705243531, 3383970559, 705243533, 1711774841, 1711774844, 705243585, 705250962, 705243560, 256953435, 705243567, 705243528, 705243518, 715313360, 715329229, 715329262, 715329260, 3383970589, 705250983, 1910584072, 1910584069, 1910584068, 1909516423, 1377073521, 1910584051, 705250986, 1910584053, 1910584058, 1711774871, 705243530, 705250990, 8648620129, 705243539, 705243513, 705250995], "tags": {"addr:city": "Portland", "addr:housenumber": "3251", "addr:postcode": "97239", "addr:state": "OR", "addr:street": "Southwest Sam Jackson Park Road", "alt_name": "OHSU Hospital", "amenity": "hospital", "building": "yes", "emergency": "no", "healthcare": "hospital", "name": "Oregon Health & Science University Hospital", "operator": "Oregon Health & Science University", "ref": "OHS", "short_name": "OHSU Hospital", "wikidata": "Q7101213", "wikipedia": "en:Oregon Health & Science University Hospital"}}, {"type": "way", "id": 57692207, "center": {"lat": 45.4996495, "lon": -122.6844186}, "nodes": [1377073567, 705250983, 3383970589, 715329260, 715329262, 715329229, 1377073365, 705243562, 3383970590, 715313367, 1711774873, 3383969963, 1377073595, 715313369, 3383970630, 3383970629, 1755386734, 3383970631, 715313372, 715313376, 3383970643, 1755386736, 3383970640, 715313380, 715313387, 1711774878, 705250976, 1711774876, 705250979, 1711774874, 1377073567], "tags": {"addr:city": "Portland", "addr:housenumber": "808", "addr:postcode": "97239", "addr:state": "OR", "addr:street": "Southwest Campus Drive", "amenity": "hospital", "building": "hospital", "emergency": "no", "healthcare": "hospital", "name": "Kohler Pavilion", "official_name": "Peter O. Kohler Pavillion", "operator": "Oregon Health & Science University", "ref": "KPV", "website": "https://www.ohsu.edu/xd/"}}, {"type": "way", "id": 91693935, "center": {"lat": 47.2255539, "lon": -123.1143942}, "nodes": [1065653785, 1065653271, 1065653516, 1065653594, 1065653196, 2093494060, 1065653443, 1065653785], "tags": {"addr:city": "Shelton", "addr:housenumber": "901", "addr:postcode": "98584", "addr:street": "Mountain View Drive", "amenity": "hospital", "beds": "25", "emergency": "yes", "gnis:feature_id": "1528869", "healthcare": "hospital", "name": "Mason General Hospital", "opening_hours": "24/7", "phone": "+1 360 426 1611", "website": "https://www.masongeneral.com/"}}, {"type": "way", "id": 148894456, "center": {"lat": 47.6764005, "lon": -122.0991002}, "nodes": [1619532265, 1619532190, 1619532192, 1619532208, 1619532265], "tags": {"addr:city": "Redmond", "addr:housenumber": "18100", "addr:postcode": "98052", "addr:street": "Northeast Union Hill Road", "amenity": "hospital", "beds": "18", "building": "yes", "emergency": "yes", "healthcare": "hospital", "name": "Swedish Hospital", "opening_hours": "24/7", "operator": "Swedish Medical Center", "phone": "+1 206 320 5190", "website": "https://www.swedish.org/locations/redmond-campus"}}, {"type": "way", "id": 152833564, "center": {"lat": 47.5812847, "lon": -122.1498082}, "nodes": [1656109932, 1656109941, 1656109945, 1656109935, 1656109934, 1656109929, 1656109943, 1656109927, 4795955525, 1656109931, 1656109933, 1656109932], "tags": {"amenity": "hospital", "building": "hospital", "emergency": "no", "healthcare": "hospital", "name": "Eastgate Public Health Center", "source": "http://www.kingcounty.gov/healthservices/health/locations/eastgate.aspx"}}, {"type": "way", "id": 163857391, "center": {"lat": 45.7204998, "lon": -122.6483474}, "nodes": [1755253305, 1755253307, 1755253302, 1755253285, 3643564002, 1755253280, 1755253274, 1755253268, 3643564003, 1755253255, 3643564004, 1755253245, 3643564001, 1755253122, 1755253116, 1755253114, 3643564000, 1755253113, 1755253112, 4145850703, 1755253130, 3643563998, 3643563997, 9088993705, 1755253305], "tags": {"addr:city": "Vancouver", "addr:housenumber": "2211", "addr:postcode": "98686", "addr:state": "WA", "addr:street": "Northeast 139th Street", "amenity": "hospital", "emergency": "yes", "healthcare": "hospital", "healthcare:speciality": "general;emergency", "name": "Legacy Salmon Creek Medical Center", "opening_hours": "24/7", "operator": "Legacy Health", "operator:type": "private_non_profit", "operator:wikidata": "Q6517244", "operator:wikipedia": "en:Legacy Health", "phone": "+1 360 487 1000", "website": "https://www.legacyhealth.org/locations/hospitals/legacy-salmon-creek-medical-center.aspx"}}, {"type": "way", "id": 166094267, "center": {"lat": 44.6026075, "lon": -123.2525026}, "nodes": [1775784122, 1775784134, 1775784141, 1775784151, 1775784209, 1775784176, 1775784274, 1775784263, 1775784351, 1775784234, 1775784354, 1775784378, 1775784386, 1775784385, 1775784384, 1775784383, 1775784390, 1775784389, 10660350325, 10660350324, 10660350323, 1775784364, 10660350322, 1775784303, 1775784275, 10660350321, 1775784146, 10660350320, 1775784082, 1775784096, 1775784062, 1775784055, 1775784056, 1775784067, 1775784063, 1775784070, 1775784073, 1775784074, 1775784071, 1775784075, 1775784079, 1775784089, 1775784084, 1775784083, 1775784052, 1775784053, 1775784092, 1775784054, 1775784093, 1775784095, 1775784105, 1775784114, 1775784117, 1775784120, 1775784122], "tags": {"addr:city": "Corvallis", "addr:housenumber": "3600", "addr:postcode": "97330", "addr:street": "Northwest Samaritan Drive", "amenity": "hospital", "emergency": "yes", "healthcare": "hospital", "name": "Good Samaritan Regional Medical Center", "opening_hours": "24/7", "phone": "+1 541 768 5111", "website": "https://www.samhealth.org/find-a-location/g/good-samaritan-regional-medical-center", "wikidata": "Q5582923"}}, {"type": "way", "id": 169511257, "center": {"lat": 47.6043096, "lon": -122.3238285}, "nodes": [1229464709, 11035186713, 11035186694, 11060868697, 1806727975, 1229464712, 1229464713, 1806727996, 1806727988, 60167236, 1806727955, 1806727990, 1806728003, 1806727992, 1806728001, 8015325477, 1806727986, 1806727970, 1806728006, 60167235, 11035186743, 53070520, 53070522, 53221909, 11014532844, 3874116579, 3874116581, 3874116583, 11035222096, 53114221, 11035222098, 3883968766, 3404864098, 3404863992, 3404864093, 3404863990, 11035186711, 1229464709], "tags": {"addr:city": "Seattle", "addr:housenumber": "325", "addr:postcode": "98104", "addr:street": "9th Avenue", "amenity": "hospital", "beds": "413", "emergency": "yes", "healthcare": "hospital", "name": "Harborview Medical Center", "opening_hours": "24/7", "operator": "UW Medicine", "phone": "+1 206 744 3000", "website": "https://www.uwmedicine.org/harborview", "wheelchair": "yes", "wikidata": "Q5654758", "wikipedia": "en:Harborview Medical Center"}}, {"type": "way", "id": 172783647, "center": {"lat": 47.4574623, "lon": -122.3424072}, "nodes": [1836399673, 1836399708, 1836399685, 4779174707, 4779174708, 1836399670, 1836399680, 1836399682, 1836399707, 1836399673], "tags": {"addr:city": "Burien", "addr:country": "US", "addr:housenumber": "16251", "addr:postcode": "98166", "addr:state": "WA", "addr:street": "Sylvester Road Southwest", "amenity": "hospital", "beds": "133", "emergency": "yes", "healthcare": "hospital", "name": "St. Anne Hospital", "old_name": "Highline Medical Center", "opening_hours": "24/7", "operator": "CHI Franciscan Health", "phone": "+1 206 244 9970", "website": "https://www.chifranciscan.org/st-anne-hospital.html"}}, {"type": "way", "id": 177186386, "center": {"lat": 42.3395743, "lon": -122.8635448}, "nodes": [1876349843, 1876349848, 1876349838, 1876349836, 1876349850, 1876349844, 1876349831, 1876349840, 4550120927, 1876349852, 1876349833, 1876349846, 1876349843], "tags": {"addr:city": "Medford", "addr:housenumber": "1111", "addr:postcode": "97504", "addr:street": "Crater Lake Avenue", "amenity": "hospital", "emergency": "yes", "healthcare": "hospital", "name": "Providence Medford Medical Center", "opening_hours": "24/7", "phone": "+1 541 732 5000", "website": "https://oregon.providence.org/location-directory/p/providence-medford-medical-center/", "wikidata": "Q30288329"}}, {"type": "way", "id": 193669878, "center": {"lat": 42.2529499, "lon": -121.7846794}, "nodes": [2041892225, 2041892227, 7629833579, 7629833578, 2041892231, 4243310510, 6206886619, 4243310511, 4243310512, 2041892233, 2041892133, 2041892130, 2041892123, 2041892121, 2041892122, 2041892125, 2041892129, 2041892128, 2041892124, 6206898592, 6206898591, 4243310501, 2041892126, 2041892131, 2041892132, 2041892134, 2041892138, 2041892139, 2041892213, 4243310504, 2041892225], "tags": {"addr:city": "Klamath Falls", "addr:housenumber": "2865", "addr:postcode": "97601", "addr:street": "Daggett Avenue", "amenity": "hospital", "beds": "176", "emergency": "yes", "healthcare": "hospital", "name": "Sky Lakes Medical Center", "opening_hours": "24/7", "phone": "+1 541 882 6311", "website": "https://www.skylakes.org/", "wikidata": "Q7537377"}}, {"type": "way", "id": 194713428, "center": {"lat": 45.5438879, "lon": -122.6699426}, "nodes": [2052194033, 2052194036, 2052194038, 2052194035, 2052194032, 2052194031, 2052194030, 2052194029, 2052194028, 2052194027, 2052194026, 2052194024, 2052194023, 2052194022, 2052194021, 2052194020, 2052194019, 2052194018, 2052194017, 2052194016, 2052194015, 2052194011, 2052194006, 2052193964, 2052193932, 2052193930, 2052193928, 2052193927, 2052193926, 2052193924, 2052193922, 2052193921, 2052193919, 2052193918, 2052193916, 2052193915, 2052193914, 2052193913, 2052193911, 2052193910, 2052193908, 2052193907, 2052193906, 2052193905, 2052193904, 2052193903, 2052193902, 2052193901, 2052193900, 2052193961, 2052193982, 2052193986, 2052193991, 2052194005, 2052194009, 2052194010, 2052194012, 2052194013, 2052194014, 2052194025, 2052194033], "tags": {"addr:city": "Portland", "addr:housenumber": "2801", "addr:postcode": "97227", "addr:street": "North Gantenbein Avenue", "amenity": "hospital", "emergency": "yes", "healthcare": "hospital", "name": "Legacy Emanuel Medical Center", "opening_hours": "24/7", "operator": "Legacy Health", "operator:wikidata": "Q6517244", "operator:wikipedia": "en:Legacy Health", "phone": "+1-503-413-2200", "website": "https://www.legacyhealth.org/", "wikidata": "Q6517238", "wikipedia": "en:Legacy Emanuel Medical Center"}}, {"type": "way", "id": 202177707, "center": {"lat": 44.0532522, "lon": -123.0034879}, "nodes": [2121574236, 2121574400, 7461743352, 2121574152, 7461743349, 2121574398, 2121574405, 2121574249, 2121574188, 2121574233, 2121574275, 2121574281, 2121574236], "tags": {"addr:city": "Springfield", "addr:housenumber": "1460", "addr:postcode": "97477", "addr:street": "G Street", "amenity": "hospital", "beds": "113", "emergency": "yes", "gnis:feature_id": "1638159", "healthcare": "hospital", "name": "McKenzie-Willamette Medical Center", "opening_hours": "24/7", "phone": "+1 541 726 4400", "website": "https://www.mckweb.com/", "wikidata": "Q6801815"}}, {"type": "way", "id": 202517493, "center": {"lat": 44.5502757, "lon": -122.906537}, "nodes": [2124846512, 2124846539, 2124846531, 357348409, 2124846532, 2124846490, 2124846553, 5023176402, 2124846530, 5023176400, 5023176399, 2124846552, 2124846545, 5023176406, 5023176372, 5023176374, 5023176371, 5023449678, 5023176369, 5023176405, 2124846512], "tags": {"addr:city": "Lebanon", "addr:housenumber": "525", "addr:postcode": "97355", "addr:street": "North Santiam Highway", "amenity": "hospital", "beds": "25", "emergency": "yes", "gnis:feature_id": "1638857", "healthcare": "hospital", "name": "Samaritan Lebanon Community Hospital", "old_name": "Lebanon Hospital", "opening_hours": "24/7", "phone": "+1 541 258 2101", "website": "https://www.samhealth.org/find-a-location/s/samaritan-lebanon-community-hospital", "wikidata": "Q7408843"}}, {"type": "way", "id": 216902616, "center": {"lat": 49.2485163, "lon": -124.7821809}, "nodes": [2262215129, 2262215132, 2262215114, 2262215133, 2262215102, 2262215130, 2262215122, 2262215093, 4491595419, 4491595418, 2262215125, 2262215124, 2262215115, 2262215131, 2262215109, 2262215101, 2262215128, 2262215135, 2262215097, 2262215094, 2262215107, 2262215108, 2262215096, 2262215121, 2262215111, 2262215104, 2262215091, 2262215110, 2262215092, 2262215120, 2262215113, 2262215100, 2262215103, 2262215106, 2262215090, 2262215118, 2262215116, 2262215098, 2262215119, 3251570873, 2262215126, 2262215095, 2262215112, 2262215127, 2262215123, 2262215117, 2262215088, 2262215089, 2262215134, 2262215099, 2262215136, 2262215129], "tags": {"amenity": "hospital", "building": "yes", "name": "West Coast General Hospital"}}, {"type": "way", "id": 221422722, "center": {"lat": 48.000619, "lon": -122.2055759}, "nodes": [2304460949, 2304460887, 2304460888, 2304460950, 4777869425, 4777869424, 2148999157, 2304462057, 2304462060, 433617949, 433617901, 2148999155, 2304460949], "tags": {"addr:city": "Everett", "addr:housenumber": "1700", "addr:postcode": "98201", "addr:street": "13th Street", "amenity": "hospital", "beds": "468", "emergency": "yes", "healthcare": "hospital", "name": "Providence Regional Medical Center Everett", "old_name": "Providence Hospital", "opening_hours": "24/7", "operator": "Providence Health & Services", "phone": "+1 425 261 2000", "website": "https://washington.providence.org/hospitals/regional-medical-center/", "wikidata": "Q7252468", "wikipedia": "en:Providence Regional Medical Center Everett"}}, {"type": "way", "id": 233309999, "center": {"lat": 49.0942805, "lon": -122.6119512}, "nodes": [2416949398, 4799356057, 2416949582, 10853103242, 2416949557, 2416949651, 2416949913, 2416949196, 10853103246, 2416949554, 2416950004, 2416949578, 10853103268, 10853103269, 2416949233, 2416949790, 2416949638, 2416949573, 2416949782, 2416949563, 2416950011, 2416949840, 2416949398], "tags": {"addr:housenumber": "22051", "addr:street": "Fraser Highway", "amenity": "hospital", "emergency": "yes", "healthcare": "hospital", "landuse": "institutional", "name": "Langley Memorial Hospital", "operator": "Fraser Health Authority", "operator:type": "public", "operator:wikidata": "Q5493608", "operator:wikipedia": "en:Fraser Health", "phone": "+1-604-514-6000", "website": "https://www.fraserhealth.ca/Service-Directory/Locations/Langley/langley-memorial-hospital", "wikidata": "Q17068624"}}, {"type": "way", "id": 233419976, "center": {"lat": 46.1878045, "lon": -123.8188632}, "nodes": [2418122230, 2418122224, 2418122314, 2418122007, 2418122447, 2418122432, 2418122153, 6403036419, 6403036420, 8281505893, 8281505894, 8281505895, 6403036421, 6403036422, 6403036423, 2418122404, 6466919133, 6466919134, 6466919135, 6466919136, 6466919137, 2418122230], "tags": {"addr:city": "Astoria", "addr:country": "US", "addr:housenumber": "2111", "addr:postcode": "97103", "addr:state": "OR", "addr:street": "Exchange Street", "amenity": "hospital", "beds": "25", "emergency": "yes", "gnis:feature_id": "1638916", "healthcare": "hospital", "name": "Columbia Memorial Hospital", "opening_hours": "24/7", "phone": "+1 503 325 4321", "website": "https://www.columbiamemorial.org/", "wikidata": "Q20064928", "wikipedia": "en:Columbia Memorial Hospital (Oregon)"}}, {"type": "way", "id": 242182549, "center": {"lat": 47.6494128, "lon": -122.3075239}, "nodes": [2316556517, 2316556521, 2316556525, 2316556527, 2316556532, 2316556544, 2316556547, 2316556549, 2316556553, 2316556556, 2316556558, 2316556561, 2316556563, 2316556566, 2316556568, 2316556570, 2316556573, 2316556575, 2316556578, 2316556583, 2316556587, 2316556592, 2316556597, 2316556599, 2316556602, 2316556605, 2316556616, 2316556621, 2316556612, 2316556614, 2316556629, 2316556640, 2497005535, 2497005536, 2497005537, 2497005542, 2497005543, 2497005544, 2497005545, 2497005546, 2497005547, 2497005548, 2497005549, 2497005534, 8628406275, 2497005530, 2497005529, 2497005528, 2497005527, 4684782668, 4684782666, 4684782667, 2497005510, 2497005511, 2497005512, 2497005513, 2497005514, 2497005515, 2497005517, 2497005518, 2497005519, 2497005520, 2497005521, 8628406273, 2497005522, 2498965332, 2497005523, 8628406256, 2497005524, 2497005525, 2316556650, 2316556634, 2316556647, 2316556627, 2316556613, 2316556611, 2316556608, 2316556604, 2316556606, 2316556595, 2316556590, 2316556586, 2316556593, 2316556584, 2316556610, 2316556607, 2316556603, 2316556601, 2316556591, 2316556577, 4117793070, 2316556565, 2761504957, 2316556529, 2316577243, 5754425906, 2316577240, 4117793069, 2316556546, 5754425907, 2316556514, 2497005505, 2316556513, 2316556531, 2316556517], "tags": {"addr:city": "Seattle", "addr:housenumber": "1959", "addr:postcode": "98195", "addr:street": "Northeast Pacific Street", "alt_name": "UW Medical Center - Montlake", "amenity": "hospital", "beds": "450", "building": "yes", "emergency": "yes", "healthcare": "hospital", "name": "University of Washington Medical Center - Montlake", "opening_hours": "24/7", "operator": "UW Medicine", "phone": "+1 206 598 3300", "website": "https://www.uwmedicine.org/uw-medical-center", "wikidata": "Q7896576", "wikimedia_commons": "Category:University of Washington Medical Center", "wikipedia": "en:University of Washington Medical Center"}}, {"type": "way", "id": 249487376, "center": {"lat": 47.363995, "lon": -122.6129639}, "nodes": [2560801693, 2560801703, 2560801704, 2560801705, 2560801706, 2560801707, 2560801708, 2560801709, 2560801710, 2560801711, 2560801712, 2560801713, 2560801714, 2560801715, 2560801716, 2560801717, 2560801718, 2560801719, 2560801720, 2560801721, 2560801722, 2560801723, 2560801724, 2560801725, 2560801726, 2560801727, 2560801728, 2560801729, 2560801730, 2560801731, 2560801732, 2560801733, 2560801734, 2560801741, 2560801736, 2560801737, 2560801738, 2560801739, 2560801740, 2560801693], "tags": {"addr:city": "Gig Harbor", "addr:housenumber": "11567", "addr:postcode": "98332", "addr:street": "Canterwood Boulevard Northwest", "amenity": "hospital", "beds": "80", "emergency": "yes", "healthcare": "hospital", "name": "Saint Anthony Hospital", "opening_hours": "24/7", "operator": "CHI Franciscan Health", "phone": "+1 253 530 2000", "website": "https://www.chifranciscan.org/st-anthony-hospital.html", "wikidata": "Q7587097"}}, {"type": "way", "id": 259652372, "center": {"lat": 49.244214, "lon": -123.1241227}, "nodes": [2650846317, 2650846318, 2650846313, 7096724946, 11275948132, 11275948126, 2650846312, 2650846331, 2650846333, 5130864922, 2650846324, 2650846323, 2650846321, 2650846320, 2650846317], "tags": {"addr:housenumber": "4500", "addr:street": "Oak Street", "alt_name": "BCCW", "amenity": "hospital", "healthcare": "hospital", "landuse": "institutional", "name": "Children's & Women's Health Centre of British Columbia", "operator": "Provincial Health Services Authority", "operator:type": "public", "short_name": "C&W", "website": "http://www.cw.bc.ca"}}, {"type": "way", "id": 263820891, "center": {"lat": 46.5936064, "lon": -120.5467663}, "nodes": [2694706374, 2694706368, 6741602231, 4781106569, 4781106568, 4781106567, 4781106566, 4781106565, 4781106570, 6741602230, 4781106571, 2694706345, 2694706349, 2694706374], "tags": {"addr:city": "Yakima", "addr:housenumber": "2811", "addr:postcode": "98902", "addr:state": "WA", "addr:street": "Tieton Drive", "amenity": "hospital", "emergency": "yes", "healthcare": "hospital", "name": "Virginia Mason Memorial", "old_name": "Yakima Valley Memorial Hospital", "opening_hours": "24/7", "operator": "Virginia Mason", "phone": "+1 509 575 8000", "website": "https://www.yakimamemorial.org/", "wikidata": "Q8047104", "wikipedia": "en:Yakima Valley Memorial Hospital"}}, {"type": "way", "id": 264478313, "center": {"lat": 47.2597119, "lon": -122.4531204}, "nodes": [272583492, 272583826, 356551268, 356550402, 4780162621, 4780162622, 10022177466, 4780162623, 4780162624, 4780162625, 4780162626, 4780162651, 4780162647, 4780162645, 4780162644, 4780162646, 4780162650, 4780162648, 110483879, 272583832, 4780162649, 272583492], "tags": {"addr:city": "Tacoma", "addr:housenumber": "315", "addr:postcode": "98403", "addr:street": "Martin Luther King Jr Way", "amenity": "hospital", "beds": "437", "emergency": "yes", "gnis:feature_id": "2462528", "healthcare": "hospital", "name": "MultiCare Tacoma General Hospital", "opening_hours": "24/7", "operator": "MultiCare Health System", "phone": "+1 253 403 1000", "website": "https://www.multicare.org/tacoma-general-hospital/", "wikidata": "Q6934525", "wikipedia": "en:MultiCare Tacoma General Hospital"}}, {"type": "way", "id": 292245531, "center": {"lat": 47.6675911, "lon": -122.3802398}, "nodes": [2957984090, 3610139433, 3610139434, 2957984092, 4458625545, 4410698992, 4788720280, 4458625543, 3610085759, 2957984093, 2957984094, 2957984095, 2957984096, 3406037573, 3406037570, 2957984097, 2957984098, 2957984099, 2957984100, 3664971738, 2957984101, 2957984090], "tags": {"addr:city": "Seattle", "addr:housenumber": "5300", "addr:postcode": "98107", "addr:street": "Tallman Avenue Northwest", "amenity": "hospital", "beds": "163", "emergency": "yes", "healthcare": "hospital", "name": "Swedish Medical Center Ballard Campus", "opening_hours": "24/7", "operator": "Swedish Medical Center", "phone": "+1 206 782 2700", "website": "https://www.swedish.org/locations/ballard-campus"}}, {"type": "way", "id": 292380824, "center": {"lat": 49.2579915, "lon": -123.0949686}, "nodes": [2959344343, 11176509152, 2970484097, 2959343023, 6510527222, 6510527224, 8766414591, 8766414592, 2959344346, 2959344347, 2959344348, 2959344349, 2959344350, 2959344343], "tags": {"addr:housenumber": "3080", "addr:street": "Prince Edward Street", "amenity": "hospital", "healthcare": "hospital", "name": "Mount Saint Joseph Hospital", "wikidata": "Q96419005", "wikipedia": "en:Mount Saint Joseph Hospital"}}, {"type": "way", "id": 293945054, "center": {"lat": 49.03684, "lon": -122.3134181}, "nodes": [2975218404, 2975218411, 2975218412, 2975218405, 2975218406, 3983347660, 3983347757, 3983347659, 3983347558, 3983347658, 3983347657, 2975218407, 2975218409, 3178283280, 3132762438, 3178251861, 3178251864, 3127850169, 2812553209, 3127850170, 2975218410, 2975218404], "tags": {"addr:city": "Abbotsford", "addr:housenumber": "32900", "addr:postcode": "V2S 0C2", "addr:province": "BC", "addr:street": "Marshall Road", "alt_name": "ARHCC", "amenity": "hospital", "beds": "300", "emergency": "yes", "healthcare": "hospital", "healthcare:speciality": "emergency", "landuse": "institutional", "name": "Abbotsford Regional Hospital & Cancer Centre", "operator": "Fraser Health Authority", "operator:type": "public", "phone": "+1-604-851-4700", "start_date": "2008-08-24", "website": "https://www.fraserhealth.ca/your_stay/our_hospitals/abbotsford-regional-hospital-and-cancer-centre", "wikidata": "Q17098832", "wikipedia": "en:Abbotsford_Regional_Hospital_and_Cancer_Centre"}}, {"type": "way", "id": 297300958, "center": {"lat": 47.6199564, "lon": -122.3120786}, "nodes": [4241767441, 4241767442, 4241767440, 4241767439, 4241767435, 4241767434, 4241767409, 4241767412, 4241767438, 4241767441], "tags": {"addr:city": "Seattle", "addr:housenumber": "201", "addr:postcode": "98112", "addr:state": "WA", "addr:street": "16th Avenue East", "amenity": "hospital", "emergency": "no", "healthcare": "hospital", "name": "Kaiser Permanente Capitol Hill Campus", "operator": "Kaiser Permanente", "operator:short": "KP", "operator:wikidata": "Q1721601", "operator:wikipedia": "en:Kaiser Permanente", "source": "King County GIS;data.seattle.gov"}}, {"type": "way", "id": 297302349, "center": {"lat": 47.6100706, "lon": -122.3278853}, "nodes": [3011709246, 3011709252, 3011709247, 3011709248, 3011709249, 3011709251, 3011709250, 3011709246], "tags": {"addr:city": "Seattle", "addr:housenumber": "1100", "addr:postcode": "98101", "addr:state": "WA", "addr:street": "9th Avenue", "alt_name": "VM Seattle", "amenity": "hospital", "beds": "336", "emergency": "no", "healthcare": "hospital", "name": "Virginia Mason Hospital & Seattle Medical Center", "opening_hours": "24/7", "phone": "+1 206 223 6600", "website": "https://www.virginiamason.org", "wikidata": "Q7934401", "wikipedia": "en:Virginia Mason Hospital"}}, {"type": "way", "id": 298029407, "center": {"lat": 49.4754626, "lon": -123.7494029}, "nodes": [3019421846, 7697507111, 3019421847, 7697507110, 3019421848, 3019421849, 3019421850, 3019421851, 3019421852, 3019421853, 3019421854, 3019421846], "tags": {"addr:city": "Sechelt", "addr:housenumber": "5544", "addr:postcode": "V0N 3A0", "addr:province": "BC", "addr:street": "Sunshine Coast Highway", "alt_name": "Sh\u00eds\u00e1lh Hospital", "amenity": "hospital", "emergency": "yes", "healthcare": "hospital", "healthcare:speciality": "emergency", "name": "Sechelt Hospital", "old_name": "Sechelt St. Mary's Hospital", "operator": "Vancouver Coastal Health", "operator:type": "public", "phone": "+1-604-885-2224", "website": "https://www.vch.ca/Locations-Services/result?res_id=648"}}, {"type": "way", "id": 307401368, "center": {"lat": 48.7735802, "lon": -122.4736571}, "nodes": [3125378641, 3125378642, 3125378643, 3125378644, 3125378645, 3125378646, 3125378647, 3125378648, 3125378649, 3125378650, 3125378651, 3125378652, 3125378653, 3125378654, 3125378655, 3125378656, 3125378657, 3125378658, 3125378659, 3125378660, 3125378661, 3125378662, 3125378663, 3125378664, 3125378665, 3125378666, 3125378667, 3125378668, 3125378669, 3125378670, 3125378641], "tags": {"addr:city": "Bellingham", "addr:housenumber": "2901", "addr:postcode": "98225", "addr:state": "WA", "addr:street": "Squalicum Parkway", "amenity": "hospital", "beds": "241", "emergency": "yes", "healthcare": "hospital", "healthcare:speciality": "emergency", "name": "PeaceHealth St. Joseph Medical Center", "old_name": "Saint Joseph Hospital", "opening_hours": "24/7", "operator": "PeaceHealth", "operator:wikidata": "Q16966652", "phone": "+1 360 734 5400", "website": "https://www.peacehealth.org/st-joseph-medical-center"}}, {"type": "way", "id": 307674922, "center": {"lat": 48.5020384, "lon": -122.6151081}, "nodes": [3128790294, 3128790295, 3128790296, 3128790297, 3128790298, 3128790299, 3128790300, 4777612634, 4777612633, 3128790301, 3128790302, 3128790303, 3128790304, 9651677135, 3128790294], "tags": {"addr:city": "Anacortes", "addr:housenumber": "1211", "addr:postcode": "98221", "addr:state": "WA", "addr:street": "24th Street", "amenity": "hospital", "beds": "43", "emergency": "yes", "healthcare": "hospital", "healthcare:speciality": "emergency", "name": "Island Hospital", "opening_hours": "24/7", "phone": "+1 360 299 1300", "website": "https://www.islandhospital.org/", "wikidata": "Q50036399"}}, {"type": "way", "id": 314175122, "center": {"lat": 48.4192738, "lon": -122.3241293}, "nodes": [3202216432, 3202216438, 3202216434, 3202216427, 6258423249, 2637052469, 3202215915, 3202215911, 9559342242, 3202215914, 3202215916, 3202216385, 3202216432], "tags": {"addr:city": "Mount Vernon", "addr:housenumber": "300", "addr:postcode": "98274", "addr:street": "Hospital Parkway", "amenity": "hospital", "emergency": "yes", "healthcare": "hospital", "name": "Skagit Valley Hospital", "opening_hours": "24/7", "operator": "Skagit Regional Health", "phone": "+1-360-424-4111", "website": "https://www.skagitregionalhealth.org/locations/skagit-valley-hospital", "wikidata": "Q7533759", "wikipedia": "en:Skagit Valley Hospital"}}, {"type": "way", "id": 315565538, "center": {"lat": 45.5283211, "lon": -122.6124141}, "nodes": [3216925196, 3216925197, 3216925198, 3216925199, 3216925200, 3216925201, 3216925202, 3216925203, 3216925204, 3216925205, 3216925206, 3216925207, 3216925208, 3216925209, 3216925210, 3216925211, 3216925212, 3216925213, 3216925214, 3216925215, 3216925196], "tags": {"addr:city": "Portland", "addr:housenumber": "4805", "addr:postcode": "97213", "addr:street": "Northeast Glisan Street", "amenity": "hospital", "beds": "483", "emergency": "yes", "healthcare": "hospital", "name": "Providence Portland Medical Center", "opening_hours": "24/7", "operator": "Providence Health & Services", "operator:wikidata": "Q7252430", "operator:wikipedia": "en:Providence Health & Services", "phone": "+1-503-215-1111", "website": "https://oregon.providence.org/location-directory/p/providence-portland-medical-center/", "wikidata": "Q7252461", "wikipedia": "en:Providence Portland Medical Center"}}, {"type": "way", "id": 326979267, "center": {"lat": 49.2612164, "lon": -123.1221077}, "nodes": [3336870504, 3336870505, 7961861606, 7961861605, 7961861607, 3343165862, 3343165863, 3343165864, 3343165865, 8194839699, 8194839698, 8194839700, 3343165866, 3648144010, 3343165861, 3336870506, 7978123329, 7978123328, 7978123330, 3336870507, 3343165868, 3343165867, 3336870504], "tags": {"addr:city": "Vancouver", "addr:housenumber": "899", "addr:postcode": "V5Z 0A2", "addr:province": "BC", "addr:street": "West 12th Avenue", "amenity": "hospital", "beds": "1900", "emergency": "yes", "full_name": "Vancouver General Hospital (VGH)", "healthcare": "hospital", "healthcare:speciality": "emergency", "name": "Vancouver General Hospital", "operator": "Vancouver Coastal Health", "operator:type": "public", "phone": "+1-604-875-4111", "ref": "VGH", "short_name": "VGH", "website": "https://www.vch.ca/en/location/vancouver-general-hospital", "wheelchair": "yes", "wikidata": "Q7914187", "wikipedia": "en:Vancouver General Hospital"}}, {"type": "way", "id": 331334467, "center": {"lat": 45.4989741, "lon": -122.6866485}, "nodes": [705243557, 705243537, 705243543, 705243516, 3383970552, 3383970559, 705243531, 705243573, 705243583, 705243556, 705243565, 705243542, 705243549, 705243525, 705251028, 705251031, 705243550, 705243557], "tags": {"addr:city": "Portland", "addr:housenumber": "3251", "addr:postcode": "97239", "addr:state": "OR", "addr:street": "Southwest Sam Jackson Park Road", "amenity": "hospital", "building": "yes", "emergency": "yes", "healthcare": "hospital", "name": "OHSU - Doernbecher Emergency", "opening_hours": "24/7", "phone": "+1 503 494 7551", "ref": "ERC", "website": "https://www.ohsu.edu/xd/health/services/doernbecher/programs-services/emergency/index.cfm"}}, {"type": "way", "id": 331334471, "center": {"lat": 45.49641, "lon": -122.6829977}, "nodes": [819695220, 3383969964, 3383969965, 3383969966, 3383969967, 3373773372, 3383970407, 3383970408, 3383970412, 3383970413, 3383970414, 3383970416, 3383970417, 3383970418, 3383970421, 3383970432, 3383970434, 3373773854, 3373773863, 3373773865, 1438584822, 1438584829, 1438584821, 1438584816, 1438584804, 1438584802, 1438584797, 1438584794, 1438584793, 1438584791, 1438584789, 1438584775, 1438584770, 1438584764, 1438584750, 11262052493, 11262052492, 819695220], "tags": {"access": "private", "amenity": "hospital", "emergency": "yes", "healthcare": "hospital", "name": "Portland VA Medical Center", "official_name": "Department of Vereran Affairs Medical Center Portland, Oregon", "old_name": "Sam Jackson Park", "website": "https://www.portland.va.gov/", "wikidata": "Q16902632"}}, {"type": "way", "id": 331334473, "center": {"lat": 45.5011692, "lon": -122.6844818}, "nodes": [3383970741, 3383970749, 3383970747, 3383970746, 3383970745, 3383970743, 3383970742, 3383970739, 3383970728, 3383970719, 3383970709, 3383970707, 3383970704, 3383970701, 3383970697, 3383970689, 3383970652, 3383970658, 3383970671, 3383970686, 3383970711, 3383970720, 3383970722, 3383970726, 3383970736, 3383970741], "tags": {"addr:city": "Portland", "addr:housenumber": "3101", "addr:postcode": "97239", "addr:state": "OR", "addr:street": "Southwest Sam Jackson Park Road", "amenity": "hospital", "beds": "29", "brand": "Shriners Hospitals for Children", "brand:wikidata": "Q7504109", "brand:wikipedia": "en:Shriners Hospitals for Children", "emergency": "no", "healthcare": "hospital", "healthcare:speciality": "paediatrics", "name": "Shriners Hospitals for Children", "operator": "Shriners Hospitals for Children", "operator:wikidata": "Q7504109", "operator:wikipedia": "en:Shriners Hospitals for Children", "phone": "+1-503-241-5090", "website": "https://www.shrinershospitalsforchildren.org/portland", "wikidata": "Q7504106", "wikipedia": "en:Shriners Hospital for Children (Portland)"}}, {"type": "way", "id": 333369584, "center": {"lat": 47.6086102, "lon": -122.3222589}, "nodes": [53184118, 4272325296, 10932556420, 53184121, 10932556421, 11004965702, 53212908, 11004965701, 3404809523, 3404809509, 3404809508, 3379043291, 3798496998, 3798496981, 3798496996, 3798496993, 53209848, 53184118], "tags": {"addr:city": "Seattle", "addr:housenumber": "747", "addr:postcode": "98122", "addr:street": "Broadway", "amenity": "hospital", "beds": "830", "contact:phone": "+1 (206) 386-6000", "contact:website": "http://www.swedish.org/locations/first-hill-campus", "emergency": "yes", "healthcare": "hospital", "name": "Swedish First Hill Medical Center", "opening_hours": "24/7", "operator": "Swedish", "source": "King County GIS", "wikidata": "Q7654755"}}, {"type": "way", "id": 334888030, "center": {"lat": 49.1513796, "lon": -125.9086005}, "nodes": [3413818602, 3420089024, 3420089026, 5007058821, 5007058822, 5007058823, 5007058720, 3420089029, 5007058717, 5007058718, 5007058719, 5007058716, 5007058715, 5007058714, 5007058713, 3420089027, 5007058712, 5007058711, 5007058710, 5007058709, 3420089023, 3420089022, 3413818602], "tags": {"addr:city": "Tofino", "addr:housenumber": "261", "addr:postcode": "V0R 2Z0", "addr:street": "Neill Street", "amenity": "hospital", "building": "yes", "healthcare": "hospital", "name": "Tofino General Hospital"}}, {"type": "way", "id": 335845847, "center": {"lat": 48.1154183, "lon": -123.4146344}, "nodes": [3429575462, 3801663898, 3429575461, 3429575460, 3801663899, 3429575463, 3429575468, 3429575464, 3429575465, 3429575462], "tags": {"addr:city": "Port Angeles", "addr:housenumber": "939", "addr:postcode": "98362", "addr:state": "WA", "addr:street": "Caroline Street", "amenity": "hospital", "beds": "67", "emergency": "yes", "healthcare": "hospital", "name": "Olympic Medical Center", "opening_hours": "24/7", "phone": "+1 360 417 7000", "website": "https://www.olympicmedical.org/", "wikidata": "Q7089097", "wikipedia": "en:Olympic Medical Center"}}, {"type": "way", "id": 337386536, "center": {"lat": 43.2415984, "lon": -123.3669486}, "nodes": [4550903020, 5379142153, 4550903019, 4550903018, 4550903017, 4550903016, 5379142125, 5379142124, 4550903015, 3444773118, 357349172, 4550903014, 4550903013, 4550903012, 4550903011, 4550903010, 4550903009, 4550903008, 4550903007, 4550903006, 4550903005, 4550903004, 4550903003, 4550903002, 4550903001, 4550903000, 5740096803, 4550902999, 4550903020], "tags": {"addr:city": "Roseburg", "addr:housenumber": "2700", "addr:postcode": "97471", "addr:street": "Northwest Stewart Parkway", "amenity": "hospital", "emergency": "yes", "gnis:feature_id": "1639175", "healthcare": "hospital", "name": "CHI Mercy Health Mercy Medical Center", "old_name": "Mercy Medical Center", "opening_hours": "24/7", "operator": "Catholic Health Initiatives", "operator:short": "CHI", "operator:wikidata": "Q5053168", "phone": "+1 541 673 0611", "website": "http://www.mercyrose.org/", "wikidata": "Q14709068"}}, {"type": "way", "id": 351679605, "center": {"lat": 48.9272775, "lon": -123.7158643}, "nodes": [3574943261, 3574943263, 3574943260, 3574943259, 3574943258, 3574943256, 3574943257, 3574943261], "tags": {"amenity": "hospital", "name": "Chemainus Health Care Centre", "wheelchair": "yes"}}, {"type": "way", "id": 360988611, "center": {"lat": 44.9857699, "lon": -123.9947461}, "nodes": [3655225117, 3921142131, 3655225125, 3655225128, 3655225103, 3655225101, 3655225113, 3921142147, 3921142148, 3921142149, 3655269469, 3655269497, 3655225126, 3655225124, 3655225108, 3655225109, 3655225117], "tags": {"addr:city": "Lincoln City", "addr:housenumber": "3043", "addr:postcode": "97367", "addr:state": "OR", "addr:street": "Northeast 28th Street", "amenity": "hospital", "beds": "25", "emergency": "yes", "healthcare": "hospital", "name": "Samaritan North Lincoln Hospital", "opening_hours": "24/7", "phone": "+1 541 994 3661", "website": "https://www.samhealth.org/find-a-location/s/samaritan-north-lincoln-hospital", "wikidata": "Q7408844", "wikipedia": "en:Samaritan North Lincoln Hospital"}}, {"type": "way", "id": 368030604, "center": {"lat": 49.4543397, "lon": -120.5263645}, "nodes": [3718959390, 3718959391, 3718959392, 3718959393, 3718959394, 3718959395, 3718959390], "tags": {"addr:housenumber": "98", "addr:postcode": "V0X 1W0", "addr:street": "Ridgewood Drive", "amenity": "hospital", "emergency": "yes", "name": "Princeton General Hospital"}}, {"type": "way", "id": 369609035, "center": {"lat": 45.4570751, "lon": -123.853838}, "nodes": [3733830603, 3733830636, 3733830635, 3733830639, 3733830640, 3733830637, 3733830638, 3733830609, 3733830604, 3733830603], "tags": {"addr:city": "Tillamook", "addr:housenumber": "1000", "addr:postcode": "97141", "addr:state": "OR", "addr:street": "3rd Street", "amenity": "hospital", "beds": "25", "emergency": "yes", "healthcare": "hospital", "name": "Tillamook Regional Medical Center", "old_name": "Tillamook County General Hospital", "opening_hours": "24/7", "operator": "Adventist Health", "operator:wikidata": "Q4686452", "operator:wikipedia": "en:Adventist Health", "phone": "+1-503-842-4444", "website": "https://www.adventisthealth.org/trmc/", "wikidata": "Q7802243", "wikipedia": "en:Tillamook Regional Medical Center"}}, {"type": "way", "id": 374891059, "center": {"lat": 45.6461948, "lon": -122.6703031}, "nodes": [3782740409, 3782740410, 3782740399, 3782740403, 3782740292, 3782740294, 3782740255, 4126848053, 3782740257, 3782740258, 3782740259, 3782740260, 3782740326, 3782740356, 3782740363, 3782740373, 3782740409], "tags": {"addr:city": "Vancouver", "addr:housenumber": "3400", "addr:postcode": "98663", "addr:street": "Main Street", "amenity": "hospital", "emergency": "no", "gnis:feature_id": "2474337", "healthcare": "hospital", "name": "PeaceHealth Southwest Memorial Health Center", "operator": "PeaceHealth", "operator:wikidata": "Q16966652", "operator:wikipedia": "en:PeaceHealth", "phone": "+1 360 696 5232", "website": "https://www.peacehealth.org/southwest-medical-center"}}, {"type": "way", "id": 374904217, "center": {"lat": 45.6374391, "lon": -122.6566683}, "nodes": [3782879411, 11074282826, 11074282847, 11074282848, 3782879291, 11060688439, 3784112678, 11074282807, 3784112716, 3784152214, 3782879788, 3782879789, 3782879787, 3782879781, 3782879761, 3782879411], "tags": {"addr:city": "Vancouver", "addr:housenumber": "1601", "addr:postcode": "98661", "addr:street": "East Fourth Plain Boulevard", "amenity": "hospital", "emergency": "no", "gnis:feature_id": "1503178", "healthcare": "hospital", "name": "Portland VA Medical Center - Vancouver Division", "operator": "Department of Veterans Affairs", "phone": "+1 360 759 1901", "website": "https://www.portland.va.gov/vancouver.asp"}}, {"type": "way", "id": 375433280, "center": {"lat": 45.6250195, "lon": -122.5810503}, "nodes": [3788008798, 3788008797, 4128995944, 1634597946, 1634597945, 3788008855, 3788008851, 3788008853, 3788007783, 3788007764, 3788007634, 3788007633, 3788007598, 3788007571, 3788007570, 3788007572, 3788007574, 3788007577, 3788007579, 3788007582, 3788008798], "tags": {"addr:city": "Vancouver", "addr:housenumber": "400", "addr:postcode": "98664", "addr:street": "Northeast Mother Joseph Place", "amenity": "hospital", "emergency": "yes", "gnis:feature_id": "2474336", "healthcare": "hospital", "name": "PeaceHealth Southwest Medical Center", "opening_hours": "24/7", "operator": "PeaceHealth", "phone": "+1 360 514 2000", "website": "https://www.peacehealth.org/southwest-medical-center", "wikidata": "Q7157279"}}, {"type": "way", "id": 383209796, "center": {"lat": 46.1301462, "lon": -122.9420818}, "nodes": [4797458737, 4797458736, 4797458735, 4797458734, 4797458733, 4797458732, 4797458731, 4797458730, 3864249971, 4797458568, 4797458569, 3864249957, 4797458571, 4797458570, 3864250090, 4797458737], "tags": {"addr:city": "Longview", "addr:housenumber": "1615", "addr:postcode": "98632", "addr:state": "WA", "addr:street": "Delaware Street", "amenity": "hospital", "emergency": "yes", "gnis:feature_id": "1508018", "healthcare": "hospital", "name": "PeaceHealth St. John Medical Center", "old_name": "Saint John's Hospital", "opening_hours": "24/7", "operator": "PeaceHealth", "operator:wikidata": "Q16966652", "operator:wikipedia": "en:PeaceHealth", "phone": "+1 360 414 2000", "website": "https://www.peacehealth.org/st-john-medical-center", "wikidata": "Q29096836", "wikipedia": "en:PeaceHealth St. John Medical Center"}}, {"type": "way", "id": 384088396, "center": {"lat": 47.5356792, "lon": -122.021731}, "nodes": [3874108641, 4778814526, 4778814525, 4778814524, 4778814523, 3873844998, 3873844993, 3873845036, 3873845037, 3873845038, 3873844994, 2312196785, 3874108632, 2312196786, 3873818267, 3873818268, 3873818269, 3874108633, 3874108634, 3874108635, 9659827262, 3874108638, 9659827267, 8833149084, 3874108636, 3874108640, 3874108641], "tags": {"addr:city": "Issaquah", "addr:housenumber": "751", "addr:postcode": "98029", "addr:street": "Northeast Blakely Drive", "amenity": "hospital", "beds": "120", "emergency": "yes", "healthcare": "hospital", "name": "Swedish Issaquah", "opening_hours": "24/7", "operator": "Swedish Medical Center", "phone": "+1 425 313 4000", "website": "https://www.swedish.org/locations/issaquah-campus"}}, {"type": "way", "id": 384258049, "center": {"lat": 40.7885875, "lon": -124.1409684}, "nodes": [5536779190, 358818197, 5536779189, 5536779185, 5536779186, 5536779188, 5536779187, 3875510906, 5536779190], "tags": {"addr:city": "Eureka", "addr:postcode": "95501", "amenity": "hospital", "emergency": "no", "gnis:feature_id": "1681986", "healthcare": "hospital", "name": "General Hospital Campus", "operator": "Saint Joseph Health", "website": "https://www.stjoehumboldt.org/", "wheelchair": "yes"}}, {"type": "way", "id": 384258051, "center": {"lat": 40.7839429, "lon": -124.1422045}, "nodes": [5536779206, 5536779203, 3875510908, 3875510909, 3875510910, 11162200593, 3875510911, 5536779205, 5536779204, 8212425923, 8212425922, 8212425921, 8212425920, 8212425919, 3875510914, 8212425926, 3875510916, 3875510917, 3875510918, 11162267128, 11162267127, 3875510919, 3875510920, 3875510921, 3875510922, 3875510923, 3875510924, 5536779206], "tags": {"addr:city": "Eureka", "addr:housenumber": "2700", "addr:postcode": "95501", "addr:state": "CA", "addr:street": "Dolbeer Street", "amenity": "hospital", "emergency": "yes", "gnis:feature_id": "1682023", "healthcare": "hospital", "name": "Saint Josephs Hospital", "opening_hours": "24/7", "operator": "Saint Joseph Health", "operator:type": "religious", "phone": "+1 707 445 8121", "website": "https://www.stjoehumboldt.org/", "wheelchair": "yes", "wikidata": "Q50039309"}}, {"type": "way", "id": 384258633, "center": {"lat": 40.8960998, "lon": -124.0913378}, "nodes": [5536533634, 5536533635, 3875517657, 7889150233, 3875517658, 3875517659, 3875517660, 2193684996, 2193684998, 2193685000, 5536533633, 7478147911, 7478147908, 5536533632, 7478147914, 5536533634], "tags": {"addr:city": "Arcata", "addr:housenumber": "3800", "addr:postcode": "95521", "addr:state": "CA", "addr:street": "Janes Road", "amenity": "hospital", "beds": "78", "emergency": "yes", "gnis:feature_id": "1681913", "healthcare": "hospital", "name": "Mad River Community Hospital", "opening_hours": "24/7", "phone": "+1 707 822 3621", "website": "http://madriverhospital.com/"}}, {"type": "way", "id": 391949890, "center": {"lat": 47.6209671, "lon": -122.1869413}, "nodes": [3952195305, 9721286743, 9721286742, 4777987658, 9721771737, 4777987657, 3952195306, 5017183576, 5017183577, 5017183578, 7018389319, 7018389320, 9723317526, 7018389322, 7018389328, 7018389323, 7018389321, 1592278840, 3952195303, 3952195302, 3952195300, 3952195298, 3952195305], "tags": {"addr:city": "Bellevue", "addr:housenumber": "1035", "addr:postcode": "98004", "addr:street": "116th Avenue Northeast", "amenity": "hospital", "beds": "347", "emergency": "yes", "healthcare": "hospital", "name": "Overlake Medical Center", "old_name": "Overlake Memorial Hospital", "opening_hours": "24/7", "phone": "+1 425 688 5000", "website": "https://www.overlakehospital.org/", "wikidata": "Q7113724", "wikipedia": "en:Overlake Hospital Medical Center"}}, {"type": "way", "id": 396326194, "center": {"lat": 49.1351851, "lon": -122.3310621}, "nodes": [3991356851, 6483874362, 3991356852, 3991356853, 3991356854, 3991356855, 3991356856, 3991356857, 3991356858, 3991356859, 3991356860, 3991356861, 3991356862, 3991356863, 3991356864, 3991356865, 3991356866, 3991356867, 3991356868, 3991356869, 3991356870, 3991356871, 3991356872, 3991356873, 3991356874, 3991356875, 3991356876, 3991356877, 3991356878, 3991356879, 3991356880, 3991356881, 3991356882, 3991356883, 3991356851], "tags": {"addr:housenumber": "7324", "addr:postcode": "V2V 3H5", "addr:street": "Hurd Street", "amenity": "hospital", "emergency": "yes", "healthcare": "hospital", "name": "Mission Memorial Hospital", "operator": "Fraser Health Authority", "operator:wikidata": "Q5493608", "operator:wikipedia": "en:Fraser Health", "website": "https://www.fraserhealth.ca/Service-Directory/Locations/Mission/mission-memorial-hospital", "wikidata": "Q121644233"}}, {"type": "way", "id": 398569207, "center": {"lat": 45.3085423, "lon": -122.9361725}, "nodes": [4013181527, 4013181571, 1991782487, 4013181570, 4013181555, 4013181532, 4013181526, 4013181491, 4013181254, 4013180985, 4013180984, 4013181527], "tags": {"addr:city": "Newberg", "addr:housenumber": "1001", "addr:postcode": "97132", "addr:state": "OR", "addr:street": "Providence Drive", "amenity": "hospital", "emergency": "yes", "healthcare": "hospital", "name": "Providence Newberg Medical Center", "phone": "+1-503-537-1555", "website": "https://oregon.providence.org/", "wikidata": "Q7252456"}}, {"type": "way", "id": 418121274, "center": {"lat": 45.3788268, "lon": -122.7414622}, "nodes": [4185727032, 4185727031, 4185727030, 4185727029, 4185727028, 4185727025, 4185727022, 4185727021, 4185727020, 4185727018, 4185727016, 4185727017, 357328779, 4185727027, 4185727026, 4185727024, 4185727023, 4185727019, 4185727014, 4185727001, 4185720593, 4185720594, 4185720595, 4185720596, 4185720597, 4185727032], "tags": {"addr:city": "Tualatin", "addr:housenumber": "19300", "addr:postcode": "97062", "addr:state": "OR", "addr:street": "Southwest 65th Avenue", "amenity": "hospital", "emergency": "yes", "healthcare": "hospital", "name": "Legacy Meridian Park Medical Center", "opening_hours": "24/7", "operator": "Legacy Health", "operator:wikidata": "Q6517244", "operator:wikipedia": "en:Legacy Health", "phone": "+1 503 692 1212", "toilets:wheelchair": "yes", "website": "https://www.legacyhealth.org/locations/hospitals/legacy-meridian-park-medical-center.aspx", "wheelchair": "yes", "wikidata": "Q6517255", "wikipedia": "en:Legacy Meridian Park Medical Center"}}, {"type": "way", "id": 419590338, "center": {"lat": 45.5357849, "lon": -122.5567209}, "nodes": [4196250118, 4196250018, 4196250017, 4196250015, 4196250117, 4196250118], "tags": {"addr:city": "Portland", "addr:housenumber": "10300", "addr:postcode": "97220", "addr:state": "OR", "addr:street": "Northeast Hancock Street", "amenity": "hospital", "emergency": "no", "fax": "+1-503-257-5673", "healthcare": "hospital", "name": "Vibra Specialty Hospital of Portland", "phone": "+1-503-257-5500", "website": "https://vshportland.com/"}}, {"type": "way", "id": 422890187, "center": {"lat": 45.9887495, "lon": -123.9124398}, "nodes": [4226162690, 4226162686, 4226162678, 4226162675, 4226162658, 4226162631, 4226162606, 4226162584, 4226162582, 4226162581, 4226162586, 4226162589, 4226162595, 4226162627, 4226162657, 4226162683, 4226162694, 4226162701, 4226162704, 4226162705, 4226162690], "tags": {"addr:city": "Seaside", "addr:housenumber": "725", "addr:postcode": "97138", "addr:state": "OR", "addr:street": "South Wahanna Road", "amenity": "hospital", "beds": "25", "emergency": "yes", "gnis:feature_id": "2508321", "healthcare": "hospital", "name": "Providence Seaside Hospital", "operator": "Providence Health & Services", "operator:wikidata": "Q7252430", "operator:wikipedia": "en:Providence Health & Services", "phone": "+1 503 717 7000", "website": "https://oregon.providence.org/location-directory/p/providence-seaside-hospital/", "wikidata": "Q22072921", "wikipedia": "en:Providence Seaside Hospital"}}, {"type": "way", "id": 436667677, "center": {"lat": 47.3091395, "lon": -122.2287729}, "nodes": [4345466326, 4345466261, 4345466259, 4345466258, 4345466363, 4345466364, 356550574, 4345466326], "tags": {"addr:city": "Auburn", "addr:housenumber": "202", "addr:postcode": "98001", "addr:street": "North Division Street", "amenity": "hospital", "beds": "195", "emergency": "yes", "gnis:feature_id": "2461624", "healthcare": "hospital", "name": "Multicare Auburn Medical Center", "opening_hours": "24/7", "operator": "MultiCare Health System", "phone": "+1 253 833 7711", "website": "https://www.multicare.org/auburn-medical-center/"}}, {"type": "way", "id": 438338475, "center": {"lat": 44.6384597, "lon": -121.1207428}, "nodes": [4360727294, 4360727190, 357328400, 4360727274, 4360727275, 4360727293, 4360727294], "tags": {"addr:city": "Madras", "addr:housenumber": "470", "addr:postcode": "97741", "addr:state": "OR", "addr:street": "Northeast A Street", "amenity": "hospital", "emergency": "yes", "gnis:feature_id": "1161822", "healthcare": "hospital", "name": "Saint Charles Medical Center", "old_name": "Mountain View Hospital", "opening_hours": "24/7", "phone": "+1 541 475 3882", "website": "https://www.stcharleshealthcare.org/Our-Locations/Madras", "wikidata": "Q16900533", "wikipedia": "en:St. Charles Medical Center \u2013 Madras"}}, {"type": "way", "id": 438355164, "center": {"lat": 44.0675987, "lon": -121.2693502}, "nodes": [4360891367, 4360891670, 7657034020, 4360891877, 4360891948, 7657034021, 7657034022, 4360891970, 4360891979, 4360891992, 4360891993, 9698533034, 5737230766, 9698533033, 5737230774, 5737230749, 4360891995, 4360891966, 4360891967, 4360891962, 4360891954, 4360891918, 4360891886, 4360891786, 4360891709, 7657034023, 7657034024, 7657034025, 7657034026, 7657034027, 7657034028, 4360891367], "tags": {"addr:city": "Bend", "addr:housenumber": "2500", "addr:postcode": "97701", "addr:state": "OR", "addr:street": "Northeast Neff Road", "amenity": "hospital", "emergency": "yes", "gnis:feature_id": "1161793", "healthcare": "hospital", "name": "Saint Charles Medical Center", "opening_hours": "24/7", "phone": "+1 541 382 4321", "website": "https://www.stcharleshealthcare.org/", "wikidata": "Q7587524"}}, {"type": "way", "id": 438488304, "center": {"lat": 44.2882708, "lon": -121.1700784}, "nodes": [4362316129, 4362316127, 4362316126, 4362316123, 4362316120, 357324158, 4362316116, 4362316119, 4362316160, 4362316161, 4362316221, 4362316224, 4362316246, 4362316247, 4362316245, 4362316241, 4362316240, 4362316234, 4362316233, 4362316181, 4362316171, 4362316158, 4362316129], "tags": {"addr:city": "Redmond", "addr:housenumber": "1253", "addr:postcode": "97756", "addr:street": "Northwest Canal Boulevard", "amenity": "hospital", "emergency": "yes", "gnis:feature_id": "1158162", "healthcare": "hospital", "name": "Saint Charles Medical Center Redmond", "opening_hours": "24/7", "phone": "+1 541 548 8131", "website": "https://www.stcharleshealthcare.org/Our-Locations/Redmond", "wikidata": "Q6865441", "wikipedia": "en:St. Charles Medical Center \u2013 Redmond"}}, {"type": "way", "id": 439819665, "center": {"lat": 48.5266732, "lon": -123.029941}, "nodes": [4374951147, 4374951148, 4374951149, 4374951150, 4374951151, 4374951152, 9419768316, 4374951153, 4374951154, 4374951155, 4374951156, 4374951147], "tags": {"addr:city": "Friday Harbor", "addr:housenumber": "1117", "addr:postcode": "98250", "addr:street": "Spring Street", "amenity": "hospital", "emergency": "yes", "healthcare": "hospital", "name": "PeaceHealth Peace Island Medical Center", "opening_hours": "24/7", "operator": "PeaceHealth", "phone": "+1 360 378 2141", "website": "https://www.peacehealth.org/peace-island-medical-center"}}, {"type": "way", "id": 450027901, "center": {"lat": 45.5125412, "lon": -122.5575537}, "nodes": [4469471257, 4469471323, 357361856, 4469469885, 4469469887, 4469469884, 4469469880, 4469469874, 4469469872, 4469469870, 4469469866, 4469469865, 4469469867, 4469469868, 4469469869, 4469469871, 4469471422, 4469471428, 4469471431, 4469471432, 4469471434, 4469471436, 4469471438, 4469471440, 4469471439, 4469471437, 4469471435, 4469471433, 4469471426, 4469471429, 4469471430, 4469471427, 4469471424, 4469471319, 4469471257], "tags": {"addr:city": "Portland", "addr:housenumber": "10123", "addr:postcode": "97216", "addr:state": "OR", "addr:street": "Southeast Market Street", "amenity": "hospital", "emergency": "yes", "healthcare": "hospital", "name": "Adventist Medical Center", "opening_hours": "24/7", "phone": "+1-503-257-2500", "website": "https://www.adventisthealth.org/", "wikidata": "Q2945876"}}, {"type": "way", "id": 452349230, "center": {"lat": 49.2474152, "lon": -124.7819551}, "nodes": [4491595427, 4491595426, 4491595425, 4491595424, 4491595423, 4491595422, 4491595421, 4491595420, 4491595427], "tags": {"amenity": "hospital", "building": "yes", "comment": "Extended Care facility"}}, {"type": "way", "id": 453670114, "center": {"lat": 45.7048436, "lon": -121.5234505}, "nodes": [4503795162, 4503795161, 6558497853, 6558497852, 6558497851, 6558497850, 4503795160, 6554181707, 6554181706, 4503795159, 4503795157, 4503795156, 4503795155, 4503795154, 4503795153, 4503795152, 4503795151, 4503795162], "tags": {"addr:city": "Hood River", "addr:housenumber": "810", "addr:postcode": "97031", "addr:street": "12th Street", "amenity": "hospital", "emergency": "yes", "gnis:feature_id": "1166983", "healthcare": "hospital", "name": "Providence Hood River Memorial Hospital", "opening_hours": "24/7", "operator": "Providence Health & Services", "operator:wikidata": "Q7252430", "operator:wikipedia": "en:Providence Health & Services", "phone": "+1 541 386 3911", "website": "https://oregon.providence.org/location-directory/p/providence-hood-river-memorial-hospital/"}}, {"type": "way", "id": 457223559, "center": {"lat": 42.1812517, "lon": -120.3520977}, "nodes": [1042143023, 4533976119, 4533976035, 4533976186, 4533976273, 4533976018, 4533976012, 4533976302, 1042143023], "tags": {"addr:city": "Lakeview", "addr:housenumber": "700", "addr:postcode": "97630", "addr:street": "South J Street", "amenity": "hospital", "emergency": "yes", "name": "Lake District Hospital", "opening_hours": "24/7", "phone": "+1 541 947 2114", "website": "http://www.lakehealthdistrict.org/", "wikidata": "Q6475625"}}, {"type": "way", "id": 459051265, "center": {"lat": 44.2980052, "lon": -120.8254271}, "nodes": [4549705262, 5915257560, 5915261239, 5915261280, 5915261387, 5915261149, 5915257572, 5915261096, 5915261088, 6025931957, 4549705261, 5915270936, 5902962657, 5933264458, 6080852340, 5915270970, 5903004010, 5903004009, 5903004017, 5903004019, 4549705260, 4549705259, 4549705258, 4549705257, 5903003982, 5933264457, 5719716237, 5724353093, 4549705256, 5903003788, 5719695954, 5719695952, 5719695953, 5719695966, 4549705262], "tags": {"addr:city": "Prineville", "addr:housenumber": "384", "addr:postcode": "97754", "addr:street": "Southeast Combs Flat Road", "amenity": "hospital", "emergency": "yes", "healthcare": "hospital", "name": "Saint Charles Prineville", "opening_hours": "24/7", "phone": "+1 541 447 6254", "website": "https://www.stcharleshealthcare.org/Our-Locations/Prineville"}}, {"type": "way", "id": 459056437, "center": {"lat": 45.5873483, "lon": -121.1637717}, "nodes": [4549743113, 4549743112, 4549743111, 4549743110, 4549743109, 357329270, 4549743108, 4549743107, 4549743106, 4549743105, 4549743104, 4549743103, 4549743102, 4549743101, 4549743100, 4549743099, 4549743098, 4549743097, 4549743096, 4549743095, 4549743094, 4549743093, 4549743092, 4549743113], "tags": {"addr:city": "The Dalles", "addr:housenumber": "1700", "addr:postcode": "97058", "addr:state": "OR", "addr:street": "East 19th Street", "amenity": "hospital", "emergency": "yes", "gnis:feature_id": "1162071", "healthcare": "hospital", "name": "Mid Columbia Medical Center", "opening_hours": "24/7", "phone": "+1 541 296 1111", "website": "https://www.mcmc.net/", "wikidata": "Q6840680"}}, {"type": "way", "id": 459086466, "center": {"lat": 43.1796036, "lon": -124.1796661}, "nodes": [4550024954, 4550024953, 4550024952, 357279322, 4550024951, 4550024950, 4550024949, 4550024948, 4550024947, 4550024946, 4550024945, 4550024954], "tags": {"addr:city": "Coquille", "addr:housenumber": "940", "addr:postcode": "97423", "addr:state": "OR", "addr:street": "East 5th Street", "amenity": "hospital", "beds": "17", "emergency": "yes", "gnis:feature_id": "1119279", "healthcare": "hospital", "name": "Coquille Valley Hospital", "opening_hours": "24/7", "phone": "+1 541 396 3101", "website": "https://www.cvhospital.org/"}}, {"type": "way", "id": 459088195, "center": {"lat": 42.2056564, "lon": -122.7249235}, "nodes": [4550056241, 4550056240, 357356750, 4550056239, 4550056238, 4550056237, 4550056236, 4550056241], "tags": {"addr:city": "Ashland", "addr:housenumber": "280", "addr:postcode": "97520", "addr:street": "Maple Street", "amenity": "hospital", "beds": "49", "emergency": "yes", "gnis:feature_id": "2091244", "healthcare": "hospital", "name": "Asante Ashland Community Hospital", "old_name": "Ashland Community Hospital", "opening_hours": "24/7", "phone": "+1 541 201 4000", "website": "https://www.asante.org/Locations/location-detail/?id=1042", "wikidata": "Q4805235"}}, {"type": "way", "id": 459093885, "center": {"lat": 42.318105, "lon": -122.8307342}, "nodes": [4550120905, 4550120904, 4550120903, 4550120902, 4550120901, 4550120900, 4550120899, 4550120898, 4550120897, 4550120896, 4550120895, 4550120894, 4550120893, 4550120892, 4550120891, 4550120890, 4550120889, 4550091188, 4550120905], "tags": {"addr:city": "Medford", "addr:housenumber": "2825", "addr:postcode": "97504", "addr:street": "East Barnett Road", "amenity": "hospital", "beds": "378", "emergency": "yes", "healthcare": "hospital", "name": "Asante Rogue Regional Medical Center", "opening_hours": "24/7", "phone": "+1 541 789 7000", "website": "https://www.asante.org/Locations/location-detail/?id=1018", "wikidata": "Q14709216"}}, {"type": "way", "id": 459096022, "center": {"lat": 42.4415752, "lon": -122.838739}, "nodes": [4550140891, 4550140892, 5745569475, 4550140481, 5745569476, 5745569478, 5745569480, 5745569491, 5745569492, 5745569493, 5745569494, 357304309, 5745569495, 4550140480, 4550140487, 4550140488, 4550140889, 4550140890, 4550140891], "tags": {"addr:city": "White City", "addr:housenumber": "8495", "addr:postcode": "97503", "addr:street": "Crater Lake Highway", "amenity": "hospital", "emergency": "no", "gnis:feature_id": "1135373", "healthcare": "hospital", "name": "White City VA Rehabilitation Center & Clinics", "phone": "+1 541 826 2111", "website": "https://www.southernoregon.va.gov/"}}, {"type": "way", "id": 459155922, "center": {"lat": 42.4210762, "lon": -123.3430041}, "nodes": [4550678122, 4550678121, 4550678120, 4550678119, 4550678118, 4550678117, 4550678116, 4550678115, 4550678114, 4550678113, 4550678112, 4550678111, 6949240436, 6949240431, 4550678110, 4550678109, 4550678108, 4550678107, 4550678106, 4550678105, 4550678104, 4550678103, 4550678102, 4550678101, 4550678100, 4550678099, 4550678098, 4550678122], "tags": {"addr:city": "Grants Pass", "addr:housenumber": "500", "addr:postcode": "97527", "addr:street": "Southwest Ramsey Avenue", "amenity": "hospital", "emergency": "yes", "healthcare": "hospital", "name": "Asante Three Rivers Medical Center", "opening_hours": "24/7", "phone": "+1 541 472 7000", "website": "https://www.asante.org/Locations/location-detail/?id=1022", "wikidata": "Q14709289"}}, {"type": "way", "id": 459207312, "center": {"lat": 44.0466189, "lon": -123.0819121}, "nodes": [4551119118, 4551119117, 4551119116, 4551119115, 10905847901, 4551119114, 4551119113, 10905847899, 4551119118], "tags": {"addr:city": "Eugene", "addr:housenumber": "1255", "addr:postcode": "97401", "addr:street": "Hilyard Street", "amenity": "hospital", "emergency": "yes", "healthcare": "hospital", "name": "Peace Health Medical Center University District", "opening_hours": "24/7", "operator": "PeaceHealth", "operator:wikidata": "Q16966652", "operator:wikipedia": "en:PeaceHealth", "phone": "+1 541 686 7300", "website": "https://www.peacehealth.org/sacred-heart-university-district", "wikidata": "Q7397235"}}, {"type": "way", "id": 459218530, "center": {"lat": 44.8050844, "lon": -122.785111}, "nodes": [4551243713, 4551243712, 4551243711, 4551243710, 4551243709, 4551243708, 4551243707, 4551243713], "tags": {"addr:city": "Stayton", "addr:housenumber": "1401", "addr:postcode": "97383", "addr:street": "North 10th Avenue", "amenity": "hospital", "beds": "40", "emergency": "yes", "healthcare": "hospital", "name": "Santiam Hospital", "opening_hours": "24/7", "phone": "+1 503 769 2175", "website": "https://santiamhospital.org/", "wikidata": "Q18157763"}}, {"type": "way", "id": 459222497, "center": {"lat": 44.9188722, "lon": -123.3101743}, "nodes": [4551284324, 4551284323, 4551284322, 4551284321, 4551284320, 4551284319, 4551284318, 4551284324], "tags": {"addr:city": "Dallas", "addr:housenumber": "525", "addr:postcode": "97338", "addr:street": "Southeast Washington Street", "amenity": "hospital", "emergency": "yes", "healthcare": "hospital", "name": "Salem Health West Valley", "old_name": "West Valley Hospital", "opening_hours": "24/7", "phone": "+1 503 623 8301", "website": "https://www.salemhealth.org/locations/west-valley-hospital", "wikidata": "Q20712671"}}, {"type": "way", "id": 459235509, "center": {"lat": 45.1990422, "lon": -123.1651653}, "nodes": [4365420150, 4365420151, 4365420161, 4551381099, 4551381098, 4551381097, 503809373, 4551381096, 4551381095, 4551381094, 2621611138, 4365420188, 4365420182, 4365420150], "tags": {"addr:city": "McMinnville", "addr:housenumber": "2700", "addr:postcode": "97128", "addr:state": "OR", "addr:street": "Southeast Stratus Avenue", "amenity": "hospital", "emergency": "yes", "healthcare": "hospital", "name": "Willamette Valley Medical Center", "opening_hours": "24/7", "phone": "+1-503-472-6131", "website": "https://willamettevalleymedical.com/", "wikidata": "Q8003322"}}, {"type": "way", "id": 459238302, "center": {"lat": 45.5172032, "lon": -123.090392}, "nodes": [4551405060, 4551405059, 4551405058, 357331665, 4551405057, 4551405056, 4551405060], "tags": {"addr:city": "Forest Grove", "addr:housenumber": "1809", "addr:postcode": "97116", "addr:state": "OR", "addr:street": "Maple Street", "amenity": "hospital", "contact:phone": "+1 503 359 6180", "contact:website": "https://tuality.org/hospital-services/immediate-care/", "emergency": "yes", "healthcare": "hospital", "name": "Tuality Forest Grove Hospital", "opening_hours": "24/7", "wheelchair": "yes", "wikidata": "Q7850607", "wikipedia": "en:Tuality Forest Grove Hospital"}}, {"type": "way", "id": 459250376, "center": {"lat": 45.5104142, "lon": -122.7721234}, "nodes": [365165004, 9955995350, 9955995349, 9955995347, 9955995348, 4551507702, 9955995351, 357328987, 9955995352, 4551507701, 4551507700, 4551507699, 9955995339, 4551507698, 9955995346, 4551507694, 4551507693, 4551507692, 4551507691, 1341926102, 1341926096, 1341926086, 1341926195, 1692201841, 1341926120, 1341826247, 1341826243, 1692201843, 1341926127, 365165004], "tags": {"addr:city": "Portland", "addr:housenumber": "9205", "addr:postcode": "97225", "addr:state": "OR", "addr:street": "Southwest Barnes Road", "amenity": "hospital", "emergency": "yes", "healthcare": "hospital", "name": "Providence Saint Vincent Hospital", "opening_hours": "24/7", "phone": "+1-503-216-1234", "website": "https://oregon.providence.org/", "wikidata": "Q7252480"}}, {"type": "way", "id": 459254498, "center": {"lat": 45.3561769, "lon": -122.5864454}, "nodes": [4551544531, 4551544530, 4551544529, 4551544528, 4551544527, 4551544526, 4551544525, 4551544524, 4551544523, 4551544522, 4551544521, 4551544520, 4551544519, 357361884, 4551544518, 4551544531], "tags": {"addr:city": "Oregon City", "addr:housenumber": "1500", "addr:postcode": "97045", "addr:state": "OR", "addr:street": "Division Street", "amenity": "hospital", "beds": "143", "emergency": "yes", "healthcare": "hospital", "name": "Providence Willamette Falls Medical Center", "opening_hours": "24/7", "phone": "+1-503-656-1631", "website": "https://oregon.providence.org/", "wikidata": "Q7252504"}}, {"type": "way", "id": 459258560, "center": {"lat": 45.4315664, "lon": -122.5598006}, "nodes": [4551581083, 4551581082, 4551581081, 4551581080, 4551581079, 4551581078, 4551581077, 4551581076, 4551581075, 4551581074, 357345703, 4551581073, 4551581072, 4551581071, 4551581070, 4551581069, 4551581068, 4551581067, 4551581066, 4551581065, 4551581064, 4551581083], "tags": {"addr:city": "Clackamas", "addr:housenumber": "10180", "addr:postcode": "97015", "addr:state": "OR", "addr:street": "Southeast Sunnyside Road", "amenity": "hospital", "contact:phone": "+1 503 652 2880", "contact:website": "https://healthy.kaiserpermanente.org/oregon-washington/facilities/Sunnyside-Medical-Center-100249", "emergency": "yes", "healthcare": "hospital", "name": "Kaiser Sunnyside Medical Center", "opening_hours": "24/7", "operator": "Kaiser Permanente", "operator:short": "KP", "operator:wikidata": "Q1721601", "operator:wikipedia": "en:Kaiser Permanente", "wikidata": "Q6348463"}}, {"type": "way", "id": 459416567, "center": {"lat": 40.5717552, "lon": -122.3958995}, "nodes": [358806842, 4694795183, 4694795182, 4694795181, 4694795184, 4552707932, 4694795185, 4694795186, 4694795187, 4694795188, 4694795189, 4694795190, 4694795191, 4552707933, 4694795192, 4694795193, 4694795194, 4694795195, 4552707960, 4694795197, 4694795196, 4694795199, 4694795198, 4552707944, 4694795200, 4694795201, 4552707943, 4694795202, 4694795204, 4694795203, 4552707928, 4694795205, 4694795206, 4694795207, 4694795208, 4694795209, 4694795211, 4694795210, 4694795212, 4694795213, 4694795217, 4694795214, 4694795216, 4694795215, 4552707919, 4552707945, 4694795218, 5259093178, 5259093177, 4694795219, 4694795220, 5259093179, 5259093180, 4694795226, 4552707924, 5259093181, 5259093182, 4694795225, 5259093184, 5259093183, 5259093185, 4694795223, 5259093186, 5259093187, 4694795224, 5259093188, 5259093189, 4694795222, 4694795221, 10800952323, 4552707942, 5259092515, 5259092516, 5262894628, 5262894629, 4552707941, 5259001855, 358806842], "tags": {"addr:city": "Redding", "addr:housenumber": "2175", "addr:postcode": "96001", "addr:street": "Rosaline Avenue", "amenity": "hospital", "beds": "267", "emergency": "yes", "gnis:feature_id": "1659112", "healthcare": "hospital", "name": "Mercy Medical Center Redding", "opening_hours": "24/7", "operator": "Dignity Health", "operator:wikidata": "Q5276334", "phone": "+1 530 225 6000", "website": "https://www.dignityhealth.org/north-state/locations/mercy-redding"}}, {"type": "way", "id": 460316369, "center": {"lat": 41.3182795, "lon": -122.3206225}, "nodes": [358821394, 4559915576, 4559915491, 4559915563, 4559915501, 4559915574, 5536427039, 4559915616, 4559915582, 4559915584, 11166059477, 4559915506, 4559915590, 4559915510, 358821394], "tags": {"addr:city": "Mount Shasta", "addr:housenumber": "914", "addr:postcode": "96067", "addr:street": "Pine Street", "amenity": "hospital", "beds": "25", "emergency": "yes", "gnis:feature_id": "1701882", "healthcare": "hospital", "name": "Mercy Medical Center Mount Shasta", "opening_hours": "24/7", "operator": "Dignity Health", "operator:wikidata": "Q5276334", "phone": "+1 530 926 6111", "website": "https://www.dignityhealth.org/north-state/locations/mercy-mtshasta"}}, {"type": "way", "id": 463367491, "center": {"lat": 44.6289541, "lon": -124.0594538}, "nodes": [4586402588, 4586402587, 4586402586, 4586402585, 4586402584, 4586402583, 4586402582, 4586402581, 4586402580, 4586402579, 4586402578, 4586402588], "tags": {"addr:city": "Newport", "addr:housenumber": "930", "addr:postcode": "97365", "addr:state": "OR", "addr:street": "Southwest Abbey Street", "amenity": "hospital", "beds": "25", "emergency": "yes", "healthcare": "hospital", "name": "Samaritan Pacific Communities Hospital", "opening_hours": "24/7", "operator": "Samaritan Health Services", "phone": "+1 541 265 2244", "website": "https://www.samhealth.org/find-a-location/s/samaritan-pacific-communities-hospital", "wikidata": "Q7408845", "wikipedia": "en:Samaritan Pacific Communities Hospital"}}, {"type": "way", "id": 463576028, "center": {"lat": 43.9729454, "lon": -124.1177383}, "nodes": [4588416134, 4588416133, 4588416132, 4588416131, 4240591789, 4588416130, 4588416129, 4588416128, 4588416127, 4588416126, 4588416125, 4588416124, 4588416123, 4588416122, 4588416121, 4588416134], "tags": {"addr:city": "Florence", "addr:housenumber": "400", "addr:postcode": "97439", "addr:state": "OR", "addr:street": "9th Street", "amenity": "hospital", "beds": "21", "emergency": "yes", "healthcare": "hospital", "name": "PeaceHealth Peace Harbor Medical Center", "opening_hours": "24/7", "operator": "PeaceHealth", "operator:wikidata": "Q16966652", "phone": "+1 541 997 8412", "website": "https://www.peacehealth.org/peace-harbor-medical-center", "wikidata": "Q7157372", "wikipedia": "en:Peace Harbor Hospital"}}, {"type": "way", "id": 464029030, "center": {"lat": 43.6945441, "lon": -124.1366006}, "nodes": [4592016778, 4592016777, 4592016776, 4592016775, 4592016774, 4592016773, 4592016772, 4592016778], "tags": {"addr:city": "Reedsport", "addr:housenumber": "600", "addr:postcode": "97467", "addr:state": "OR", "addr:street": "Ranch Road", "amenity": "hospital", "beds": "20", "emergency": "yes", "healthcare": "hospital", "name": "Lower Umpqua Hospital", "old_name": "Cruse Memorial Hospital", "opening_hours": "24/7", "phone": "+1 541 271 2171", "website": "https://www.lowerumpquahospital.org/"}}, {"type": "way", "id": 472880243, "center": {"lat": 47.3593424, "lon": -122.1037091}, "nodes": [4670658633, 4670658632, 4670658647, 7805123290, 7805123289, 7805123291, 7805123292, 4670658646, 4670658594, 4670658595, 4670658266, 4670658268, 4670658226, 4670658229, 4670658220, 4670658278, 4670658281, 4670658285, 4670658671, 4670658633], "tags": {"addr:city": "Covington", "addr:housenumber": "17700", "addr:postcode": "98042", "addr:street": "Southeast 272nd Street", "amenity": "hospital", "beds": "58", "emergency": "yes", "healthcare": "hospital", "name": "MultiCare Covington Medical Center", "opening_hours": "24/7", "operator": "MultiCare Health System", "phone": "+1 253 372 7100", "website": "https://www.multicare.org/multicare-covington-medical-center/"}}, {"type": "way", "id": 476150022, "center": {"lat": 49.0301701, "lon": -122.7923172}, "nodes": [4697975397, 4697975398, 4697975399, 4697975400, 4697975401, 2968187690, 2968187687, 4697975402, 2968184889, 4697975397], "tags": {"addr:housenumber": "15521", "addr:street": "Russell Avenue", "amenity": "hospital", "emergency": "yes", "healthcare": "hospital", "name": "Peace Arch Hospital", "opening_hours": "24/7", "operator": "Fraser Health Authority", "operator:type": "public", "operator:wikidata": "Q5493608", "phone": "+1-604-531-5512", "website": "https://www.fraserhealth.ca/Service-Directory/Locations/White-Rock/peace-arch-hospital", "wikidata": "Q7157315", "wikipedia": "en:Peace Arch Hospital"}}, {"type": "way", "id": 478493283, "center": {"lat": 44.9322812, "lon": -123.0340831}, "nodes": [4717104489, 10023013914, 10023013913, 10023013915, 10023013916, 10023013912, 10023013911, 10023013910, 10023013909, 7555342562, 4717104388, 4717104387, 4717104386, 4717104385, 4717104384, 4717104383, 4717104382, 1919351916, 1919351900, 1919351901, 1919351902, 1919351903, 1919351904, 1919351905, 1919351906, 1919351907, 1919351909, 1919351910, 1919351912, 1919351911, 1919351908, 5257034347, 5257034348, 10023013922, 10023013925, 10023013924, 10023013923, 4717104380, 4717104379, 4717104378, 4717104377, 4717104489], "tags": {"addr:city": "Salem", "addr:housenumber": "890", "addr:postcode": "97301", "addr:street": "Oak Street Southeast", "amenity": "hospital", "beds": "454", "emergency": "yes", "healthcare": "hospital", "name": "Salem Hospital", "opening_hours": "24/7", "operator": "Salem Health", "phone": "+1-503-561-5200", "website": "https://www.salemhealth.org/", "wikidata": "Q7404125", "wikipedia": "en:Salem Hospital (Oregon)"}}, {"type": "way", "id": 484971697, "center": {"lat": 45.7223712, "lon": -121.4712225}, "nodes": [4777190690, 4777190689, 5932203234, 7027392473, 4777190688, 5932203229, 5932203235, 7027392472, 4777190687, 7027392471, 4777190686, 5932203231, 4777190685, 5932203232, 5932203230, 4777190684, 7241049773, 7237594093, 4777190683, 4777190682, 4777190681, 4777190679, 492878849, 48756360, 5932203233, 4777190678, 4777190690], "tags": {"addr:city": "White Salmon", "addr:housenumber": "211", "addr:postcode": "98672", "addr:street": "Skyline Drive", "amenity": "hospital", "emergency": "yes", "healthcare": "hospital", "name": "Skyline Hospital", "opening_hours": "24/7", "phone": "+1 509 493 1101", "website": "http://www.skylinehospital.com/"}}, {"type": "way", "id": 484972615, "center": {"lat": 45.8199787, "lon": -120.8110097}, "nodes": [4777199485, 4777199484, 356542766, 4777199483, 4777199482, 4777199481, 4777199480, 4777199479, 4777199478, 4777199477, 4777199476, 4777199475, 4777199474, 4777199473, 4777199485], "tags": {"addr:city": "Goldendale", "addr:housenumber": "310", "addr:postcode": "98620", "addr:street": "South Roosevelt Avenue", "amenity": "hospital", "emergency": "yes", "gnis:feature_id": "1514236", "healthcare": "hospital", "name": "Klickitat Valley Hospital", "opening_hours": "24/7", "operator": "Klickitat Valley Health", "phone": "+1 509 773 4022", "website": "http://www.kvhealth.net/hospital.html"}}, {"type": "way", "id": 484984397, "center": {"lat": 46.5553381, "lon": -122.280107}, "nodes": [4777314105, 4777314104, 4777314103, 4777314102, 4777314101, 4777314100, 4777314099, 4777314098, 4777314097, 1914935908, 1914935913, 1914935912, 4189439380, 4189439379, 4777314105], "tags": {"addr:city": "Morton", "addr:housenumber": "521", "addr:postcode": "98356", "addr:street": "Adams Avenue", "amenity": "hospital", "emergency": "yes", "healthcare": "hospital", "name": "Arbor Health Morton Hospital", "opening_hours": "24/7", "phone": "+1 360 496 5112", "website": "http://www.mortongeneral.org/"}}, {"type": "way", "id": 484985445, "center": {"lat": 46.7124886, "lon": -122.9855669}, "nodes": [4777324882, 4777324881, 4777324880, 4777324879, 356542901, 4777324878, 4777324882], "tags": {"addr:city": "Centralia", "addr:housenumber": "914", "addr:postcode": "98331", "addr:street": "South Scheuber Road", "amenity": "hospital", "beds": "127", "emergency": "yes", "gnis:feature_id": "1514368", "healthcare": "hospital", "name": "Providence Centralia Hospital", "old_name": "Centralia General Hospital", "opening_hours": "24/7", "operator": "Providence Health & Services", "operator:wikidata": "Q7252430", "phone": "+1 360 736 2803", "website": "https://washington.providence.org/hospitals/centralia-hospital/"}}, {"type": "way", "id": 484986747, "center": {"lat": 46.311747, "lon": -124.0423694}, "nodes": [4777342319, 4777342318, 4777342317, 4777342316, 4777342315, 4777342314, 4777342312, 4777342310, 4777342319], "tags": {"addr:city": "Ilwaco", "addr:country": "US", "addr:housenumber": "174", "addr:postcode": "98624", "addr:state": "WA", "addr:street": "1st Avenue North", "amenity": "hospital", "beds": "25", "emergency": "yes", "healthcare": "hospital", "name": "Ocean Beach Hospital", "opening_hours": "24/7", "phone": "+1 360 6423747", "website": "https://www.oceanbeachhospital.com/"}}, {"type": "way", "id": 484990210, "center": {"lat": 46.6626982, "lon": -123.812487}, "nodes": [4777378648, 4777378647, 4777378646, 4777378645, 4777378644, 4777378643, 4777378642, 4777378641, 4777378640, 4777378639, 4777378638, 4777378637, 4777378636, 4777378635, 4777378634, 4777378633, 4777378632, 4777378631, 4777378648], "tags": {"addr:city": "South Bend", "addr:housenumber": "800", "addr:postcode": "98586", "addr:state": "WA", "addr:street": "Alder Street", "amenity": "hospital", "beds": "10", "emergency": "yes", "healthcare": "hospital", "name": "Willapa Harbor Hospital", "opening_hours": "24/7", "phone": "+1 360 875 5526", "website": "https://www.willapaharborhospital.com/"}}, {"type": "way", "id": 484992150, "center": {"lat": 46.9794162, "lon": -123.8463296}, "nodes": [4777394238, 5270864133, 4777394237, 4777394236, 4777394235, 5361665600, 4777394234, 4777394233, 4777394232, 4777394231, 4777394230, 4777394229, 5361665601, 4777394228, 5361665582, 5361665583, 5361665586, 5361665585, 5361665584, 356542729, 5270863784, 5361665581, 5270863809, 4777394238], "tags": {"addr:city": "Aberdeen", "addr:housenumber": "915", "addr:postcode": "98520", "addr:street": "Anderson Drive", "amenity": "hospital", "emergency": "yes", "gnis:feature_id": "1514191", "name": "Grays Harbor Community Hospital", "opening_hours": "24/7", "phone": "+1 360 532 8330", "website": "https://www.ghcares.org/", "wikidata": "Q98609845"}}, {"type": "way", "id": 484994269, "center": {"lat": 47.0074072, "lon": -123.3924252}, "nodes": [2410432336, 3712688625, 4777424613, 4777424612, 4777424611, 4777418608, 4777424610, 4777424609, 4777418609, 4777424608, 4777424607, 4777424606, 9953777569, 9953777570, 9953777568, 2410432576, 2410432682, 2410432545, 2410432534, 2410432336], "tags": {"addr:city": "Elma", "addr:housenumber": "600", "addr:postcode": "98541", "addr:street": "East Main Street", "amenity": "hospital", "beds": "11", "emergency": "yes", "healthcare": "hospital", "name": "Summit Pacific Medical Center", "opening_hours": "24/7", "phone": "+1 360 346 2222", "website": "https://summitpacificmedicalcenter.org/"}}, {"type": "way", "id": 485000916, "center": {"lat": 47.9464452, "lon": -124.3932684}, "nodes": [4777483579, 7235927777, 4777483578, 7235927778, 4777483577, 7235927776, 4777483576, 4777483575, 7235927781, 7235927783, 7235927782, 4777483574, 4777483573, 4777483572, 7235927773, 7235927774, 7235927775, 4777483571, 4777483570, 7235927779, 7235927780, 4777483569, 4777483579], "tags": {"addr:city": "Forks", "addr:housenumber": "530", "addr:postcode": "98331", "addr:state": "WA", "addr:street": "Bogachiel Way", "amenity": "hospital", "beds": "20", "emergency": "yes", "healthcare": "hospital", "name": "Forks Community Hospital", "opening_hours": "24/7", "phone": "+1 360 374 6271", "website": "https://www.forkshospital.org/"}}, {"type": "way", "id": 485006938, "center": {"lat": 48.105892, "lon": -122.7890014}, "nodes": [4777563536, 5435962151, 5435962034, 4777563535, 4777563534, 4777563533, 4777563532, 4777563528, 4777563529, 4777563531, 4777563530, 4777563536], "tags": {"addr:city": "Port Townsend", "addr:housenumber": "834", "addr:postcode": "98368", "addr:state": "WA", "addr:street": "Sheridan Street", "amenity": "hospital", "beds": "25", "emergency": "yes", "healthcare": "hospital", "name": "Jefferson Healthcare Hospital", "opening_hours": "24/7", "phone": "+1 360 385 2200", "website": "https://jeffersonhealthcare.org/", "wikidata": "Q16892891", "wikipedia": "en:Jefferson Healthcare Hospital"}}, {"type": "way", "id": 485007813, "center": {"lat": 48.2138132, "lon": -122.6844354}, "nodes": [4777571328, 10200955836, 4777571327, 4777571326, 10200955843, 4777571325, 4777571324, 356543162, 4777571323, 4777571328], "tags": {"addr:city": "Coupeville", "addr:housenumber": "101", "addr:postcode": "98239", "addr:state": "WA", "addr:street": "North MainStreet", "amenity": "hospital", "beds": "25", "emergency": "yes", "gnis:feature_id": "1514579", "healthcare": "hospital", "name": "WhidbeyHealth Medical Center", "name_1": "Whidbey General Hospital", "opening_hours": "24/7", "phone": "+1 360 678 5151", "website": "https://whidbeyhealth.org/"}}, {"type": "way", "id": 485014895, "center": {"lat": 48.4957658, "lon": -122.2757945}, "nodes": [4777668782, 4777668781, 4777668780, 6981180903, 2640425363, 4777668779, 4777668778, 4777668777, 4777668776, 4777668775, 4777668774, 4777668773, 4777668782], "tags": {"addr:city": "Sedro Woolley", "addr:housenumber": "2000", "addr:postcode": "98284", "addr:street": "Hospital Drive", "amenity": "hospital", "emergency": "yes", "healthcare": "hospital", "name": "PeaceHealth United General Medical Center", "old_name": "United General Hospital", "opening_hours": "24/7", "operator": "PeaceHealth", "phone": "+1 360 856 6021", "website": "https://www.peacehealth.org/united-general-medical-center", "wikidata": "Q30268426"}}, {"type": "way", "id": 485018652, "center": {"lat": 48.1891807, "lon": -122.118713}, "nodes": [4777714829, 4777714828, 4777714824, 4777714827, 4777714823, 4777714826, 356547310, 4777714825, 4777714829], "tags": {"addr:city": "Arlington", "addr:housenumber": "330", "addr:postcode": "98223", "addr:state": "WA", "addr:street": "South Stillaguamish Avenue", "amenity": "hospital", "beds": "48", "emergency": "yes", "gnis:feature_id": "1530104", "healthcare": "hospital", "name": "Cascade Valley Hospital", "opening_hours": "24/7", "phone": "+1 360 435 2133", "website": "http://www.cascadevalley.org/", "wikidata": "Q30595966"}}, {"type": "way", "id": 485031802, "center": {"lat": 47.8787141, "lon": -122.2347836}, "nodes": [4777883126, 4777883125, 4777883124, 4777883123, 4777883122, 7075823181, 4777883121, 4777883126], "tags": {"addr:city": "Everett", "addr:housenumber": "13020", "addr:postcode": "98208", "addr:state": "WA", "addr:street": "Meridian Avenue South", "amenity": "hospital", "beds": "0", "emergency": "yes", "healthcare": "hospital", "name": "Swedish Medical Center - Mill Creek", "opening_hours": "24/7", "operator": "Swedish Medical Center", "phone": "+1 425 357 3700", "website": "https://www.swedish.org/locations/mill-creek-campus"}}, {"type": "way", "id": 485032829, "center": {"lat": 47.8636835, "lon": -121.9885258}, "nodes": [356551780, 4777892361, 4777892360, 4777892359, 4777892358, 356545887, 356551780], "tags": {"addr:city": "Monroe", "addr:housenumber": "14701", "addr:postcode": "98272", "addr:street": "179th Avenue Southeast", "amenity": "hospital", "beds": "112", "emergency": "yes", "gnis:feature_id": "1523321", "healthcare": "hospital", "name": "EvergreenHealth Monroe", "old_name": "Valley General Hospital", "opening_hours": "24/7", "operator": "EvergreenHealth", "phone": "+1 360 794 7497", "website": "https://www.evergreenhealthmonroe.com/"}}, {"type": "way", "id": 485036588, "center": {"lat": 47.8028587, "lon": -122.3335911}, "nodes": [4777927510, 4777927509, 4777927508, 4777927507, 4777927506, 4777927505, 356543069, 4777927504, 4777927510], "tags": {"addr:city": "Edmonds", "addr:housenumber": "21601", "addr:postcode": "98026", "addr:street": "76th Avenue West", "amenity": "hospital", "beds": "217", "emergency": "yes", "gnis:feature_id": "1514488", "healthcare": "hospital", "name": "Swedish Medical Center Edmonds Campus", "old_name": "Stevens Memorial Hospital", "opening_hours": "24/7", "operator": "Swedish Medical Center", "phone": "+1 425 640 4000", "website": "https://www.swedish.org/locations/edmonds-campus"}}, {"type": "way", "id": 485040439, "center": {"lat": 47.7153387, "lon": -122.1783439}, "nodes": [4777971531, 4777971530, 4777971529, 4777971528, 4777971527, 4777971526, 4777971525, 4777971524, 4777971523, 4777971522, 4777971521, 4777971320, 4777971319, 4777971318, 4777971317, 4777971316, 4777971315, 4777971314, 4777971313, 4777971311, 4777971312, 4777971531], "tags": {"addr:city": "Kirkland", "addr:housenumber": "12040", "addr:postcode": "98034", "addr:street": "Northeast 128th Street", "amenity": "hospital", "beds": "318", "emergency": "yes", "gnis:feature_id": "1510108", "healthcare": "hospital", "name": "EvergreenHealth Kirkland", "old_name": "Evergreen General Hospital", "opening_hours": "24/7", "operator": "EvergreenHealth", "phone": "+1 425 899 1000", "website": "https://www.evergreenhealth.com/"}}, {"type": "way", "id": 485042186, "center": {"lat": 47.719426, "lon": -122.2046766}, "nodes": [356542723, 4777991064, 4777991063, 4777991062, 1713437306, 4777991061, 1768125458, 1768125457, 356542723], "tags": {"addr:city": "Kirkland", "addr:housenumber": "10200", "addr:postcode": "98034", "addr:street": "Northeast 132nd Street", "amenity": "hospital", "emergency": "no", "gnis:feature_id": "1514181", "healthcare": "hospital", "healthcare:speciality": "psychiatry", "name": "Fairfax Hospital", "phone": "+1 425 821 2000", "website": "https://www.fairfaxhospital.com/"}}, {"type": "way", "id": 485061269, "center": {"lat": 47.4434502, "lon": -122.2138148}, "nodes": [4778232384, 4778232381, 4778232380, 4778232378, 4778232376, 4778232374, 4778232370, 4778232371, 4778232373, 4778232377, 4778232386, 356551781, 4778232407, 4778232410, 4778232415, 4778232727, 5657593562, 4778232736, 4778232414, 4778232412, 4778232384], "tags": {"addr:city": "Renton", "addr:housenumber": "400", "addr:postcode": "98055", "addr:street": "South 43rd Street", "amenity": "hospital", "beds": "303", "emergency": "yes", "gnis:feature_id": "2462541", "healthcare": "hospital", "name": "Valley Medical Center", "opening_hours": "24/7", "phone": "+1 425 228 3450", "website": "https://www.valleymed.org/"}}, {"type": "way", "id": 485118348, "center": {"lat": 47.51272, "lon": -121.8855547}, "nodes": [4778865308, 4778865307, 4778865306, 4778865305, 4778865304, 4778865303, 3474057435, 4778865302, 4778865301, 4778865300, 4778865299, 4778865298, 4778865297, 4778865296, 4778865295, 4778865294, 4778865293, 4778865292, 4778865291, 4778865290, 4778865308], "tags": {"addr:city": "Snoqualmie", "addr:housenumber": "9801", "addr:postcode": "98065", "addr:state": "WA", "addr:street": "Frontier Avenue Southeast", "amenity": "hospital", "beds": "25", "emergency": "yes", "healthcare": "hospital", "name": "Snoqualmie Valley Hospital", "opening_hours": "24/7", "phone": "+1 425 831 2300", "website": "https://snoqualmiehospital.org/"}}, {"type": "way", "id": 485149429, "center": {"lat": 47.487416, "lon": -122.2957506}, "nodes": [356551755, 356551751, 4779165601, 4779165587, 4779165600, 4779165599, 4779165598, 356541742, 4779165597, 4779165596, 4779165595, 4779165594, 4779165593, 4779165592, 4779165591, 4779165590, 4779165589, 4779165588, 356551755], "tags": {"addr:city": "Tukwila", "addr:housenumber": "12844", "addr:postcode": "98168", "addr:street": "Military Road South", "amenity": "hospital", "emergency": "no", "gnis:feature_id": "1510105", "healthcare": "hospital", "healthcare:speciality": "psychiatry", "name": "Cascade Behavioral Health", "old_name": "Highline Medical Center", "phone": "+1 206 244 0180", "website": "https://www.cascadebh.com/"}}, {"type": "way", "id": 485155451, "center": {"lat": 47.4945774, "lon": -122.3506862}, "nodes": [412371339, 4779224812, 356551762, 6511207683, 356551764, 4413622721, 4413622722, 4413622723, 4413622724, 412371340, 412371339], "tags": {"addr:city": "Seattle", "addr:country": "US", "addr:housenumber": "12101", "addr:postcode": "98146", "addr:state": "WA", "addr:street": "Ambaum Boulevard Southwest", "amenity": "hospital", "emergency": "no", "gnis:feature_id": "2462525", "healthcare": "hospital", "name": "Schick Shadel Hospital", "phone": "+1 206 966 6273", "website": "https://www.schickshadel.com/"}}, {"type": "way", "id": 485203226, "center": {"lat": 47.6563371, "lon": -122.6749205}, "nodes": [4779760272, 4779760271, 4779760270, 4779760258, 4779760269, 4779760268, 4779760261, 4779760267, 4779760260, 4779760262, 4779760266, 4779760264, 4779760263, 1309408355, 4779760257, 4779760272], "tags": {"addr:city": "Silverdale", "addr:housenumber": "1800", "addr:postcode": "98383", "addr:street": "Northwest Myhre Road", "amenity": "hospital", "beds": "297", "emergency": "yes", "fixme": "facility needs to be updated with new imagery now available", "healthcare": "hospital", "name": "St. Michael Medical Center Silverdale", "old_name": "Harrison Medical Center", "opening_hours": "24/7", "operator": "CHI Franciscan Health", "phone": "+1 360 744 8800", "website": "https://www.chifranciscan.org/harrison-medical-center-silverdale.html"}}, {"type": "way", "id": 485217081, "center": {"lat": 47.0434107, "lon": -122.9514691}, "nodes": [4779947067, 4779947066, 4779947065, 4779947064, 4779947063, 1194264363, 4779947062, 4779947061, 4779947060, 4779947059, 4779947058, 4779947057, 4779947056, 4779947055, 4779947067], "tags": {"addr:city": "Olympia", "addr:housenumber": "3900", "addr:postcode": "98502", "addr:street": "Capital Mall Drive Southwest", "amenity": "hospital", "beds": "110", "emergency": "yes", "healthcare": "hospital", "name": "Capital Medical Center", "opening_hours": "24/7", "phone": "+1 360 754 5858", "website": "https://www.capitalmedical.com/"}}, {"type": "way", "id": 485226630, "center": {"lat": 47.0526226, "lon": -122.8478334}, "nodes": [4780045968, 51506776, 4780045966, 4780045965, 2713355731, 4780045963, 4780045962, 4780045961, 4780045960, 4780045959, 4780045958, 4780045957, 4780045956, 4780045955, 4780045954, 4780045953, 4780045952, 4780045951, 4780045950, 4780045949, 4780045948, 51534849, 4780045946, 4780045945, 4780045944, 4780045943, 4780045968], "tags": {"addr:city": "Olympia", "addr:housenumber": "413", "addr:postcode": "98506", "addr:street": "Lilly Road Northeast", "amenity": "hospital", "beds": "390", "emergency": "yes", "healthcare": "hospital", "name": "Providence St. Peter Hospital", "old_name": "St. Peter Hospital", "opening_hours": "24/7", "operator": "Providence Health & Services", "operator:wikidata": "Q7252430", "operator:wikipedia": "en:Providence Health & Services", "phone": "+1 360 491 9480", "website": "https://washington.providence.org/hospitals/st-peter/", "wikidata": "Q7252481", "wikipedia": "en:Providence St. Peter Hospital"}}, {"type": "way", "id": 485252295, "center": {"lat": 47.2089444, "lon": -121.9883787}, "nodes": [4780303093, 5197185340, 4780303092, 4780303091, 4780303090, 4780303089, 4780303088, 356550576, 4780303087, 4780303086, 4780303085, 4780303084, 4780303083, 4780303082, 4780303081, 4780303080, 5197185342, 5197185344, 4780303079, 4780303078, 4780303077, 4780303076, 5197185343, 5197185341, 4780303093], "tags": {"addr:city": "Enumclaw", "addr:housenumber": "1455", "addr:postcode": "98022", "addr:street": "Battersby Avenue", "amenity": "hospital", "beds": "38", "emergency": "yes", "gnis:feature_id": "2461626", "healthcare": "hospital", "name": "St. Elizabeth Hospital", "opening_hours": "24/7", "operator": "CHI Franciscan Health", "phone": "+1 360 802 8800", "website": "https://www.chifranciscan.org/st-elizabeth-hospital.html", "wikidata": "Q7587851"}}, {"type": "way", "id": 485328216, "center": {"lat": 46.9873738, "lon": -120.5380557}, "nodes": [4781042029, 6809872621, 4781042028, 4781042027, 761365040, 4781042029], "tags": {"addr:city": "Ellensburg", "addr:housenumber": "603", "addr:postcode": "98926", "addr:street": "South Chestnut Street", "amenity": "hospital", "emergency": "yes", "healthcare": "hospital", "name": "Kittitas Valley Community Hospital", "opening_hours": "24/7", "operator": "Kittitas Valley Healthcare", "phone": "+1 509 962 9841", "website": "https://www.kvhealthcare.org/"}}, {"type": "way", "id": 485335932, "center": {"lat": 46.5967003, "lon": -120.5214584}, "nodes": [4781106576, 4781106575, 4781106574, 6747163314, 876672192, 4781106573, 4781106572, 4781106576], "tags": {"addr:city": "Yakima", "addr:housenumber": "110", "addr:postcode": "98902", "addr:street": "South 9th Avenue", "amenity": "hospital", "beds": "214", "emergency": "yes", "healthcare": "hospital", "name": "Yakima Regional Medical & Cardiac Center", "old_name": "St. Elizabeth Medical Center", "opening_hours": "24/7", "phone": "+1 509 575 5000", "website": "http://www.yakimaregional.com/", "wikidata": "Q20047292", "wikipedia": "en:Yakima Regional Medical & Cardiac Center"}}, {"type": "way", "id": 485338668, "center": {"lat": 46.3707616, "lon": -120.3168594}, "nodes": [4781130275, 4781130274, 4781130273, 4781130272, 4781130271, 4781130270, 4781130269, 4781130275], "tags": {"addr:city": "Toppenish", "addr:housenumber": "502", "addr:postcode": "98948", "addr:street": "West 4th Avenue", "amenity": "hospital", "emergency": "yes", "healthcare": "hospital", "name": "Toppenish Community Hospital", "opening_hours": "24/7", "phone": "+1 509 865 3105", "website": "http://www.toppenishhospital.com/"}}, {"type": "way", "id": 485417806, "center": {"lat": 46.3228011, "lon": -120.0072897}, "nodes": [4781872167, 4781872166, 4781872165, 4781872164, 4781872163, 4781872162, 4781872161, 4781872160, 2700222397, 2700222429, 4781872159, 4781872167], "tags": {"addr:city": "Sunnyside", "addr:housenumber": "1016", "addr:postcode": "98944", "addr:street": "Tacoma Avenue", "amenity": "hospital", "emergency": "yes", "healthcare": "hospital", "name": "Astria Sunnyside Hospital", "opening_hours": "24/7", "phone": "+1 509 837 1500", "website": "https://www.astria.health/locations/astria-sunnyside-hospital/"}}, {"type": "way", "id": 485506174, "center": {"lat": 47.8448932, "lon": -120.0097479}, "nodes": [4782885844, 4782885843, 4782885842, 4782885841, 4782885840, 4782885839, 356547331, 4782885838, 4782885844], "tags": {"addr:city": "Chelan", "addr:housenumber": "503", "addr:postcode": "98816", "addr:street": "East Highland Avenue", "amenity": "hospital", "beds": "25", "emergency": "yes", "gnis:feature_id": "1530157", "healthcare": "hospital", "name": "Lake Chelan Community Hospital", "opening_hours": "24/7", "phone": "+1 509 682 3300", "website": "https://www.lakechelancommunityhospital.com/"}}, {"type": "way", "id": 492694613, "center": {"lat": 41.7742341, "lon": -124.1941678}, "nodes": [4846814230, 8047182714, 4846814231, 11147633235, 4846814232, 4846814233, 4846814234, 4846814235, 4846820369, 4846820364, 4846820363, 4846814236, 4846814230], "tags": {"addr:city": "Crescent City", "addr:housenumber": "800", "addr:postcode": "95531", "addr:state": "CA", "addr:street": "East Washington Boulevard", "amenity": "hospital", "beds": "49", "emergency": "yes", "healthcare": "hospital", "name": "Sutter Coast Hospital", "opening_hours": "24/7", "operator": "Sutter Health", "operator:wikidata": "Q7650154", "operator:wikipedia": "en:Sutter Health", "phone": "+1-707-464-8511", "website": "https://www.sutterhealth.org/"}}, {"type": "way", "id": 496245680, "center": {"lat": 45.5173246, "lon": -122.4064587}, "nodes": [4879554243, 471820086, 4879554242, 4879554241, 4879554240, 4879554239, 4879554236, 4879554235, 4879554234, 4879554233, 4879554232, 4879554231, 4879554230, 4879554229, 4879554228, 4879554227, 4879554226, 4879554225, 4879554224, 4879554243], "tags": {"addr:city": "Gresham", "addr:housenumber": "24800", "addr:postcode": "97030", "addr:street": "Southeast Stark Street", "amenity": "hospital", "emergency": "yes", "healthcare": "hospital", "name": "Legacy Mount Hood Medical Center", "opening_hours": "24/7", "operator": "Legacy Health", "operator:wikidata": "Q6517244", "operator:wikipedia": "en:Legacy Health", "phone": "+1 503 674 1122", "website": "https://www.legacyhealth.org/locations/hospitals/legacy-mount-hood-medical-center.aspx", "wikidata": "Q17508439", "wikipedia": "en:Legacy Mount Hood Medical Center"}}, {"type": "way", "id": 507134039, "center": {"lat": 44.0555823, "lon": -121.2633663}, "nodes": [4967156221, 4967154920, 4967154919, 4967154918, 4967156221], "tags": {"addr:city": "Bend", "addr:housenumber": "547", "addr:postcode": "97701", "addr:state": "OR", "addr:street": "Northeast Bellevue Drive", "addr:unit": "105", "amenity": "hospital", "building": "yes", "healthcare": "hospital", "name": "St. Charles Laboratory Services", "opening_hours": "Mo-Fr 06:30-11:30,12:30-17:00", "operator": "St. Charles Health System", "operator:wikidata": "Q7587516", "phone": "+1-541-706-7717", "website": "https://www.stcharleshealthcare.org/"}}, {"type": "way", "id": 508394064, "center": {"lat": 47.594475, "lon": -120.6607892}, "nodes": [4977052437, 4977052438, 4977052439, 4977052440, 875012823, 4977052441, 4977052442, 4977052443, 4977052437], "tags": {"addr:city": "Leavenworth", "addr:housenumber": "817", "addr:postcode": "98826", "addr:street": "Commercial Street", "amenity": "hospital", "beds": "12", "emergency": "yes", "healthcare": "hospital", "name": "Cascade Medical Center", "opening_hours": "24/7", "phone": "+1 509 548 5815", "website": "https://cascademedical.org/"}}, {"type": "way", "id": 515178597, "center": {"lat": 40.5851965, "lon": -122.3876243}, "nodes": [5031888959, 5031888982, 5031888960, 5031888961, 5031888962, 5040294640, 5040294639, 7236393142, 7236393143, 5031888967, 5031888968, 7236393144, 7236393145, 5031888969, 5031888970, 5031888971, 5031888972, 5031888973, 6700708437, 5031888974, 5031888977, 5031888978, 5031888979, 5031888980, 5031888981, 5031888959], "tags": {"addr:city": "Redding", "addr:housenumber": "1100", "addr:postcode": "96001", "addr:street": "Butte Street", "amenity": "hospital", "beds": "226", "emergency": "yes", "healthcare": "hospital", "name": "Shasta Regional Medical Center", "old_name": "Redding Medical Center", "opening_hours": "24/7", "operator": "Prime Healthcare Services", "operator:wikidata": "Q7243267", "phone": "+1 530 244 5400", "short_name": "SRMC", "website": "https://www.shastaregional.com/", "wikidata": "Q14683958", "wikipedia": "en:Shasta Regional Medical Center"}}, {"type": "way", "id": 519480193, "center": {"lat": 49.3103462, "lon": -124.3246157}, "nodes": [5065425692, 5065425691, 5065425690, 5065425689, 5065425688, 5065425687, 5065425651, 5065425686, 5065425685, 5065425684, 5065425683, 5065425682, 5065425681, 5065425680, 5065425652, 5065425679, 5065425692], "tags": {"addr:housenumber": "489", "addr:street": "Alberni Highway", "amenity": "hospital", "building": "hospital", "healthcare": "hospital", "name": "Oceanside Health Centre"}}, {"type": "way", "id": 532868884, "center": {"lat": 44.1398365, "lon": -123.0588169}, "nodes": [5170598644, 5170598647, 5170598645, 5170598646, 5170598648, 5170598651, 5170598650, 5170598649, 5170598644], "tags": {"addr:city": "Coburg", "addr:housenumber": "1", "addr:postcode": "97408", "addr:state": "OR", "addr:street": "Serenity Lane", "amenity": "hospital", "emergency": "no", "healthcare": "hospital", "healthcare:speciality": "addiction", "name": "Serenity Lane", "phone": "+1-541-687-1110", "website": "http://www.serenitylane.org/inpatient.html"}}, {"type": "way", "id": 544252786, "center": {"lat": 45.5058259, "lon": -122.7830946}, "nodes": [5261184197, 5261184166, 3712269626, 5261184165, 9978184613, 5261184164, 5261184197], "tags": {"amenity": "hospital", "emergency": "no", "healthcare": "hospital", "name": "Cedar Hills Hospital"}}, {"type": "way", "id": 545395411, "center": {"lat": 46.9812357, "lon": -123.8205361}, "nodes": [5271265309, 5271265310, 5271265311, 5271265312, 5271265313, 5271265314, 5271265315, 5271265316, 5271265317, 5271265318, 5271265319, 5271265320, 5271271521, 5271271522, 5271271523, 5271271524, 5271271531, 5271271533, 5271271532, 5271271530, 5271271534, 5271271529, 5271271528, 5271271527, 5271271537, 5271271547, 5271271548, 5271271536, 5271271541, 5271271544, 5271271543, 5271271545, 5271271542, 5271271546, 5271271540, 5271271539, 5271271538, 5271271535, 5271271526, 5271271525, 5271265309], "tags": {"addr:city": "Aberdeen", "addr:housenumber": "1006", "addr:postcode": "98520", "addr:state": "WA", "addr:street": "North H Street", "amenity": "hospital", "building": "hospital", "healthcare": "hospital", "name": "Grays Harbor Community Hospital East Campus"}}, {"type": "way", "id": 557301590, "center": {"lat": 40.5850761, "lon": -122.4140001}, "nodes": [7142128022, 5374938890, 7263466209, 7263466207, 7263466208, 5374938891, 5374938892, 7263466206, 5374938893, 5374938894, 7263466223, 5374938895, 7263466222, 7263466224, 5374938896, 5374938897, 5374938898, 5374938899, 5374938900, 7144836425, 5374938901, 7144836424, 5374938902, 5374938903, 5374938904, 5374938905, 5374938906, 5374938907, 9796028627, 5374938908, 5374938909, 5374938910, 5374938911, 5374938912, 5374938913, 5374938914, 7252560062, 5374938915, 7252560063, 5374938916, 5070966648, 5374938917, 5374938918, 7252560065, 5374938919, 5374938920, 5374940621, 7142128004, 7252574687, 7142128020, 7142128021, 7142128022], "tags": {"amenity": "hospital", "healthcare": "hospital"}}, {"type": "way", "id": 565659424, "center": {"lat": 48.4665748, "lon": -123.4323111}, "nodes": [5447273095, 5447273094, 5447273093, 5447273092, 5447273091, 5447273090, 9976111921, 9976111920, 9976111919, 9976111918, 9976111917, 9976042516, 5447273089, 9976042515, 9976042514, 9976042513, 5447273088, 9976042512, 9976042511, 5447273087, 5447273086, 5447273085, 5447273084, 5447273083, 5447273082, 5447273081, 5447273080, 5447273079, 5447273078, 5447273077, 5447273076, 5447273075, 5447273074, 5447273073, 5447273072, 5447273071, 5447273095], "tags": {"addr:housenumber": "1", "addr:postcode": "V8Z 6R5", "addr:street": "Hospital Way", "amenity": "hospital", "emergency": "yes", "healthcare": "hospital", "name": "Victoria General Hospital", "operator": "Island Health", "operator:type": "public", "phone": "+1-250-727-4212", "website": "https://www.islandhealth.ca/our-locations/hospitals-health-centre-locations/victoria-general-hospital-vgh", "wikidata": "Q7926728", "wikipedia": "en:Victoria General Hospital"}}, {"type": "way", "id": 577535331, "center": {"lat": 40.4370997, "lon": -120.6281393}, "nodes": [5536343604, 5536343603, 5536343602, 5536343601, 5536343600, 5536343599, 5536343598, 5536343597, 5536343596, 5536343604], "tags": {"addr:city": "Susanville", "addr:housenumber": "1800", "addr:postcode": "96130", "addr:street": "Spring Ridge Drive", "amenity": "hospital", "beds": "25", "emergency": "yes", "healthcare": "hospital", "name": "Banner Lassen Medical Center", "opening_hours": "24/7", "operator": "Banner Health", "phone": "+1 530 252 2000", "website": "https://www.bannerhealth.com/locations/susanville/banner-lassen-medical-center"}}, {"type": "way", "id": 577541023, "center": {"lat": 41.02366, "lon": -121.4238194}, "nodes": [5536394456, 358818730, 5536394455, 5536394454, 5536394456], "tags": {"addr:city": "Fall River Mills", "addr:housenumber": "43563", "addr:postcode": "96028", "addr:street": "Highway 299 East", "amenity": "hospital", "emergency": "yes", "gnis:feature_id": "1682501", "healthcare": "hospital", "name": "Mayers Memorial Hospital", "opening_hours": "24/7", "phone": "+1 530 336 5511", "website": "https://www.mayersmemorial.com/"}}, {"type": "way", "id": 577551761, "center": {"lat": 41.7196021, "lon": -122.6458847}, "nodes": [5536465833, 5536465832, 5536465831, 5536465830, 5536465829, 5536465828, 5536465827, 5536465826, 5536465825, 5536465824, 5536465833], "tags": {"addr:city": "Yreka", "addr:housenumber": "444", "addr:postcode": "96097", "addr:state": "CA", "addr:street": "Bruce Street", "amenity": "hospital", "emergency": "yes", "healthcare": "hospital", "name": "Fairchild Medical Center", "opening_hours": "24/7", "phone": "+1 530 842 4121", "website": "https://fairchildmed.org/"}}, {"type": "way", "id": 577593155, "center": {"lat": 40.5820697, "lon": -124.1363079}, "nodes": [5536797493, 358804098, 5536797492, 5536797491, 5536797490, 5536797489, 5536797493], "tags": {"addr:city": "Fortuna", "addr:housenumber": "3300", "addr:postcode": "95540", "addr:street": "Renner Drive", "amenity": "hospital", "beds": "25", "emergency": "yes", "gnis:feature_id": "1656251", "healthcare": "hospital", "name": "Redwood Memorial Hospital", "opening_hours": "24/7", "operator": "Saint Joseph Health", "phone": "+1 707 725 3361", "website": "https://www.stjoehumboldt.org/"}}, {"type": "way", "id": 577593908, "center": {"lat": 40.7384272, "lon": -122.9397999}, "nodes": [358819092, 5536807051, 5536807050, 5536807049, 5536807048, 5536807047, 5536807046, 358819092], "tags": {"addr:city": "Weaverville", "addr:housenumber": "60", "addr:postcode": "96093", "addr:street": "Easter Avenue", "amenity": "hospital", "beds": "25", "emergency": "yes", "gnis:feature_id": "1683068", "healthcare": "hospital", "name": "Trinity Hospital", "opening_hours": "24/7", "operator": "Mountain Communities Healthcare District", "phone": "+1 530 623 5541", "website": "http://www.mcmedical.org/trinity-hospital/"}}, {"type": "way", "id": 577730461, "center": {"lat": 40.1482632, "lon": -122.2195339}, "nodes": [5537752644, 7159941827, 7159941825, 5537752643, 5537752642, 5537752641, 5537752640, 5537752639, 7159941790, 5537752638, 5537752637, 7159941822, 7159941823, 5537752636, 7159941820, 7159941821, 5537752635, 5537752634, 7159941819, 5537752633, 5537752632, 5537752631, 5537752630, 5537752629, 5537752628, 5537752627, 7159941824, 7159941818, 7159941826, 5537752644], "tags": {"addr:city": "Red Bluff", "addr:housenumber": "2550", "addr:postcode": "96080", "addr:street": "Sister Mary Columba Drive", "amenity": "hospital", "emergency": "yes", "healthcare": "hospital", "name": "Saint Elizabeth Community Hospital", "opening_hours": "24/7", "operator": "Dignity Health", "phone": "+1 530 529 8000", "website": "https://www.dignityhealth.org/north-state/locations/stelizabethhospital", "wikidata": "Q43303026"}}, {"type": "way", "id": 579986274, "center": {"lat": 49.8509733, "lon": -124.5182329}, "nodes": [1637260472, 5553520661, 5553520660, 5553520659, 5553520658, 5553520657, 5553520656, 1637260472], "tags": {"addr:housenumber": "5000", "addr:street": "Joyce Avenue", "alt_name": "Powell River General Hospital", "amenity": "hospital", "emergency": "yes", "healthcare": "hospital", "name": "qathet General Hospital", "website": "https://powellriverconnect.com/directory/health-and-wellness/doctors/powell-river-general-hospital/"}}, {"type": "way", "id": 584436202, "center": {"lat": 45.0042613, "lon": -122.790431}, "nodes": [5586631748, 5586631747, 5586631746, 5586631745, 5586631744, 5586631743, 5189723837, 5586631742, 5586631741, 5586631740, 5586631739, 5586631731, 5586631737, 5586631736, 5586631735, 5586631734, 5586631733, 5586631732, 5586631748], "tags": {"addr:city": "Silverton", "addr:housenumber": "342", "addr:postcode": "97381", "addr:street": "Fairview Street", "amenity": "hospital", "beds": "49", "emergency": "yes", "healthcare": "hospital", "name": "Legacy Silverton Medical Center", "opening_hours": "24/7", "operator": "Legacy Health", "operator:wikidata": "Q6517244", "operator:wikipedia": "en:Legacy Health", "phone": "+1 503 873 1500", "website": "https://www.legacyhealth.org/locations/hospitals/legacy-silverton-medical-center.aspx", "wikidata": "Q7516846", "wikipedia": "en:Legacy Silverton Medical Center"}}, {"type": "way", "id": 584437765, "center": {"lat": 44.6321535, "lon": -123.1165049}, "nodes": [5586652023, 6980886184, 5586652022, 1706507009, 5586652021, 5586651120, 5586652026, 357286875, 5586652023], "tags": {"addr:city": "Albany", "addr:housenumber": "1046", "addr:postcode": "97321", "addr:street": "6th Avenue Southwest", "amenity": "hospital", "beds": "70", "emergency": "yes", "healthcare": "hospital", "name": "Samaritan Albany General Hospital", "opening_hours": "24/7", "operator": "Samaritan Health Services", "phone": "+1 541 812 4000", "website": "https://www.samhealth.org/find-a-location/s/samaritan-albany-general-hospital", "wikidata": "Q7408838", "wikipedia": "en:Samaritan Albany General Hospital"}}, {"type": "way", "id": 584460109, "center": {"lat": 43.8041177, "lon": -123.0396719}, "nodes": [5586812795, 5586812794, 5586812793, 1568029569, 5586812792, 5586812791, 5586812790, 5586812789, 5586812788, 5586812787, 5586812786, 5586812785, 5586812784, 5586812783, 5586812782, 5586812781, 5586812795], "tags": {"addr:city": "Cottage Grove", "addr:housenumber": "1515", "addr:postcode": "97424", "addr:street": "Village Drive", "amenity": "hospital", "beds": "14", "emergency": "yes", "healthcare": "hospital", "healthcare:speciality": "general;vaccination;radiology", "name": "Cottage Grove Community Medical Center", "opening_hours": "24/7", "operator": "PeaceHealth", "operator:wikidata": "Q16966652", "phone": "+1 541 767 5500", "website": "https://www.peacehealth.org/cottage-grove-medical-center", "wikidata": "Q5175513", "wikipedia": "en:Cottage Grove Community Hospital"}}, {"type": "way", "id": 584462990, "center": {"lat": 44.0808127, "lon": -123.0271212}, "nodes": [5586834044, 10597833898, 5586834043, 5586834042, 10597833899, 5586834041, 10597833900, 5586834040, 5586834039, 10597833901, 5586834038, 5586834037, 5586834036, 10597833902, 5586834035, 5586834034, 5586834033, 10597833903, 10597833904, 10597833905, 10597833906, 10597833907, 10597833908, 10597833909, 10597833910, 10597833911, 10597833912, 10597833913, 10597833914, 10597833915, 10597833916, 10597833917, 10597833918, 10597833919, 10597833920, 5586834032, 10597833921, 10597833922, 10597833923, 10597833924, 10597833925, 10597833926, 10597833927, 10597833928, 10597833929, 10597833930, 5586834031, 10597833931, 10597833932, 10597833933, 5586834030, 5586834029, 10597833934, 5586834028, 5586834027, 10597833935, 5586834026, 10597833936, 5586834025, 10597833937, 5586834024, 10597833938, 10597833939, 10597833940, 10597833941, 5586834023, 5586834022, 5586834021, 10597833942, 10597833943, 10597833944, 5586830420, 5586830419, 5586830418, 10597833886, 10597833887, 10597833888, 10597833889, 5586830417, 10597833890, 5586830416, 5586830415, 5586830414, 10597833891, 5586830413, 5586830412, 10597833892, 10597833893, 5586830411, 10597833894, 5586830410, 5586830409, 5586830408, 5586830407, 10597833895, 5586830406, 10597833896, 5586830405, 10597833897, 5586834044], "tags": {"addr:city": "Springfield", "addr:housenumber": "3333", "addr:postcode": "97477", "addr:street": "Riverbend Drive", "amenity": "hospital", "beds": "347", "emergency": "yes", "healthcare": "hospital", "name": "Sacred Heart Medical Center at Riverbend", "opening_hours": "24/7", "operator": "PeaceHealth", "operator:wikidata": "Q16966652", "phone": "+1-541-222-7300", "website": "https://www.peacehealth.org/sacred-heart-riverbend", "wikidata": "Q7397238", "wikipedia": "en:PeaceHealth Sacred Heart Medical Center at RiverBend"}}, {"type": "way", "id": 587045563, "center": {"lat": 41.5315375, "lon": -120.1714209}, "nodes": [5608091338, 5608091337, 5608091336, 5608091335, 5608091338], "tags": {"addr:city": "Cedarville", "addr:housenumber": "741", "addr:postcode": "96104", "addr:street": "North Main Street", "amenity": "hospital", "beds": "4", "emergency": "yes", "healthcare": "hospital", "name": "Surprise Valley Hospital", "opening_hours": "24/7", "operator": "Surprise Valley Health Care District", "phone": "+1 530 279 6111", "website": "https://svhospital.org/"}}, {"type": "way", "id": 594657226, "center": {"lat": 45.4496943, "lon": -122.6281091}, "nodes": [5669876350, 5669876349, 7158046285, 5669876348, 5669876347, 5669876346, 5669876345, 5669876344, 5669876343, 5669876341, 5669876340, 5669876339, 10767977741, 5669876338, 5669876337, 5669876336, 5669876350], "tags": {"addr:city": "Milwaukie", "addr:housenumber": "10150", "addr:postcode": "97222", "addr:street": "Southeast 32nd Avenue", "amenity": "hospital", "beds": "77", "emergency": "yes", "healthcare": "hospital", "name": "Providence Milwaukie Hospital", "opening_hours": "24/7", "operator": "Providence Health & Services", "operator:wikidata": "Q7252430", "operator:wikipedia": "en:Providence Health & Services", "phone": "+1-503-513-8300", "website": "https://oregon.providence.org/location-directory/p/providence-milwaukie-hospital/", "wikidata": "Q16898822"}}, {"type": "way", "id": 594663833, "center": {"lat": 43.3840821, "lon": -124.2324556}, "nodes": [5669927688, 5669927687, 5669927686, 5669927685, 5669927684, 5669927683, 5669927682, 5669927681, 5669927680, 5669927679, 5669927678, 5669927677, 5669927688], "tags": {"addr:city": "Coos Bay", "addr:housenumber": "1775", "addr:postcode": "97420", "addr:state": "OR", "addr:street": "Thompson Road", "amenity": "hospital", "beds": "130", "emergency": "yes", "healthcare": "hospital", "name": "Bay Area Hospital", "opening_hours": "24/7", "phone": "+1-541-269-8111", "website": "https://www.bayareahospital.org/", "wikidata": "Q50036467"}}, {"type": "way", "id": 594666620, "center": {"lat": 42.4112995, "lon": -124.4185293}, "nodes": [5669953198, 5669953197, 6593976293, 5669953196, 5669953195, 5669953194, 5669953193, 5669953192, 5669953198], "tags": {"addr:city": "Gold Beach", "addr:housenumber": "94220", "addr:postcode": "97444", "addr:state": "OR", "addr:street": "4th Street", "amenity": "hospital", "beds": "24", "emergency": "yes", "healthcare": "hospital", "name": "Curry General Hospital", "opening_hours": "24/7", "operator": "Curry Health Network", "phone": "+1-541-247-3000", "website": "https://www.curryhealthnetwork.com/"}}, {"type": "way", "id": 594684444, "center": {"lat": 43.1124102, "lon": -124.4024071}, "nodes": [5670089283, 5670089282, 5670089281, 5670089280, 5670089279, 5670089278, 5670089277, 5670089276, 5670089275, 5670089274, 5670089273, 5670089272, 5670089271, 5670089270, 5670089283], "tags": {"addr:city": "Bandon", "addr:housenumber": "900", "addr:postcode": "97411", "addr:state": "OR", "addr:street": "11th Street Southeast", "amenity": "hospital", "beds": "21", "emergency": "yes", "healthcare": "hospital", "name": "Southern Coos Hospital & Health Center", "opening_hours": "24/7", "phone": "+1-541-347-2426", "short_name": "SCHHC", "website": "https://southerncoos.org/"}}, {"type": "way", "id": 606899516, "center": {"lat": 47.6684163, "lon": -122.1957553}, "nodes": [5753014820, 5753014823, 5753014824, 5753014821, 5753014820], "tags": {"addr:city": "Kirkland", "addr:housenumber": "830", "addr:postcode": "98033", "addr:state": "WA", "addr:street": "6th Street South", "amenity": "hospital", "emergency": "no", "healthcare": "hospital", "healthcare:speciality": "dentistry", "name": "Eastside Therapeutic Resource", "operator": "Eastside Therapeutic Resource"}}, {"type": "way", "id": 618087985, "center": {"lat": 44.1653315, "lon": -123.1945742}, "nodes": [5842447401, 5842447400, 5842447399, 5842447398, 5842447397, 5842447396, 5842447395, 5842447394, 5842447401], "tags": {"amenity": "hospital", "name": "Junction City Oregon State Hospital", "note": "Mental health hospital & correctional facility"}}, {"type": "way", "id": 704641150, "center": {"lat": 47.5224459, "lon": -122.6562969}, "nodes": [6617393026, 6617393027, 6617393028, 6617393029, 6617393030, 6617393031, 6617393032, 6617393033, 6617393034, 6617393035, 6617393036, 6617393037, 6617393026], "tags": {"amenity": "hospital", "healthcare": "hospital", "name": "CHI Franciscan Health"}}, {"type": "way", "id": 739179535, "center": {"lat": 49.2586223, "lon": -122.7994283}, "nodes": [6920810331, 9165765896, 6920810332, 1022249753, 1022247808, 1022246140, 1022244477, 1022249839, 1022244293, 7005149285, 7005149287, 7005149286, 6920810334, 6920810335, 6920810336, 6920810337, 6920810338, 6920810339, 6920810331], "tags": {"addr:city": "Coquitlam", "addr:housenumber": "2745", "addr:postcode": "V3C4J2", "addr:province": "BC", "addr:street": "Lougheed Highway", "amenity": "hospital", "healthcare": "hospital", "name": "Redfish Healing Centre for Mental Health and Addiction", "operator": "PHSA", "operator:type": "government", "start_date": "2021-10-12", "wheelchair": "yes"}}, {"type": "way", "id": 763222932, "center": {"lat": 44.038275, "lon": -123.0693629}, "nodes": [7131892559, 7131892560, 7131892561, 7131892562, 7131892559], "tags": {"addr:city": "Eugene", "addr:housenumber": "1961", "addr:postcode": "97403", "addr:state": "OR", "addr:street": "Agate Street", "amenity": "hospital", "healthcare": "hospital", "healthcare:speciality": "plastics;botox", "name": "Elizabeth McCorkle, MD"}}, {"type": "way", "id": 800032613, "center": {"lat": 48.5963278, "lon": -123.409676}, "nodes": [7481975595, 7481975602, 7481975601, 7481975600, 7481975599, 7481975598, 7481975597, 7481975596, 7481975595], "tags": {"addr:city": "Saanichton", "addr:housenumber": "2166", "addr:postcode": "V8M 2B2", "addr:province": "BC", "addr:street": "Mount Newton Cross Road", "amenity": "hospital", "beds": "143", "emergency": "yes", "healthcare": "hospital", "name": "Saanich Peninsula Hospital", "operator": "Island Health"}}, {"type": "way", "id": 809868202, "center": {"lat": 45.1515134, "lon": -122.8567183}, "nodes": [7571811188, 7571811189, 7571811190, 7571811191, 7571811192, 7571811193, 7571811194, 7571811195, 7571811188], "tags": {"amenity": "hospital", "healthcare": "hospital", "name": "Woodburn Diagnostic Imaging"}}, {"type": "way", "id": 847789682, "center": {"lat": 43.2452766, "lon": -123.351856}, "nodes": [7911113032, 7911113030, 7911113033, 7911113031, 7911113034, 7911113032], "tags": {"amenity": "hospital", "healthcare": "hospital"}}, {"type": "way", "id": 875605816, "center": {"lat": 44.0882858, "lon": -123.0519784}, "nodes": [8123270432, 8149897984, 8149897985, 8149897986, 8149897987, 8149897988, 8149897989, 8149897990, 8149897991, 8149897992, 8149897993, 8149897994, 8149897995, 8149897996, 8149897997, 8149897998, 8149897999, 8149898000, 8149898001, 8123270455, 8123270454, 8123270453, 8123270452, 8123270431, 8123270432], "tags": {"amenity": "hospital", "healthcare": "hospital", "name": "VA Healthcare Center", "operator": "U.S. Department of Veteran Affairs", "operator:type": "government"}}, {"type": "way", "id": 875646490, "center": {"lat": 44.0844381, "lon": -123.0652038}, "nodes": [8150300408, 8150300409, 8150300401, 8150282344, 8150300400, 8150299936, 6554068746, 8150282365, 8150299937, 8150299938, 8150299939, 8150299940, 8150299941, 8150299942, 8150300408], "tags": {"amenity": "hospital", "emergency": "no", "healthcare": "hospital", "healthcare:speciality": "community", "name": "Green Valley Health Center"}}, {"type": "way", "id": 900249283, "center": {"lat": 48.9957474, "lon": -123.8272001}, "nodes": [8363344542, 8363344546, 8363344547, 8363344543, 8363344544, 8363344545, 8363344542], "tags": {"amenity": "hospital", "area": "yes", "healthcare": "hospital", "name": "Ladysmith Community Health Centre", "operator": "Island Health"}}, {"type": "way", "id": 902053499, "center": {"lat": 49.2159056, "lon": -122.6299881}, "nodes": [8378963328, 8378963329, 8378963330, 8378963331, 8378963332, 8378963333, 8382353181, 8382353184, 8382353185, 8382353195, 8382353196, 8382353197, 8382353198, 8382353194, 8382353188, 8382353189, 8382353190, 8382353191, 8382353193, 8382353192, 8382353187, 8382353186, 8382353183, 8382353182, 8378963334, 8378963335, 8378963328], "tags": {"addr:housenumber": "11666", "addr:street": "Laity Street", "amenity": "hospital", "emergency": "yes", "healthcare": "hospital", "name": "Ridge Meadows Hospital", "operator": "Fraser Health Authority", "operator:type": "public", "operator:wikidata": "Q5493608", "operator:wikipedia": "en:Fraser Health", "phone": "+1-604-463-4111", "website": "https://www.fraserhealth.ca/Service-Directory/Locations/Maple-Ridge---Pitt-Meadows/ridge-meadows-hospital", "wikidata": "Q121644099"}}, {"type": "way", "id": 902487947, "center": {"lat": 49.3769596, "lon": -121.4246984}, "nodes": [8382356311, 5680788547, 8382356312, 8382356313, 8382356314, 8382356315, 5680788526, 8382356316, 8382356317, 8382356318, 8382356319, 8382356320, 8382356321, 8382356322, 8382356323, 8382356324, 8382356325, 8382356326, 8382356311], "tags": {"addr:housenumber": "1275", "addr:street": "7th Avenue", "amenity": "hospital", "emergency": "yes", "healthcare": "hospital", "name": "Fraser Canyon Hospital", "operator": "Fraser Health Authority", "operator:type": "public", "operator:wikidata": "Q5493608", "phone": "+1-604-869-5656", "website": "https://www.fraserhealth.ca/Service-Directory/Locations/Hope/fraser-canyon-hospital", "wikidata": "Q17020017", "wikipedia": "en:Fraser Canyon Hospital"}}, {"type": "way", "id": 902491360, "center": {"lat": 49.0860132, "lon": -123.0619072}, "nodes": [8382218162, 8382218163, 8382218164, 8382218165, 8382218166, 8382218167, 8382218168, 8382218169, 8382218170, 8382218171, 8382218172, 8382218162], "tags": {"addr:housenumber": "5800", "addr:street": "Mountain View Boulevard", "amenity": "hospital", "beds": "64", "emergency": "yes", "healthcare": "hospital", "name": "Delta Hospital", "operator": "Fraser Health Authority", "operator:type": "public", "operator:wikidata": "Q5493608", "operator:wikipedia": "en:Fraser Health", "phone": "+1-604-946-1121", "website": "https://www.fraserhealth.ca/Service-Directory/Locations/Delta/delta-hospital", "wikidata": "Q20712289"}}, {"type": "way", "id": 903675794, "center": {"lat": 46.9854424, "lon": -120.5463923}, "nodes": [8392965157, 8392965158, 8392965159, 8392965160, 8392965161, 8392965162, 8392965163, 8392965164, 8392965157], "tags": {"addr:city": "Ellenburg", "addr:housenumber": "100", "addr:postcode": "98926", "addr:state": "WA", "addr:street": "East Jackson Avenue", "amenity": "hospital", "healthcare": "hospital", "healthcare:speciality": "paediatrics;gynaecology", "name": "KVH Medical Arts Center", "operator": "Kittitas Valley Hospital", "operator:type": "private"}}, {"type": "way", "id": 961433667, "center": {"lat": 48.1386498, "lon": -122.1794565}, "nodes": [8893508310, 8893508311, 8025778752, 8893508312, 8893508310], "tags": {"amenity": "hospital", "healthcare": "hospital"}}, {"type": "way", "id": 969966689, "center": {"lat": 45.3665982, "lon": -122.8496722}, "nodes": [8975966085, 8975966086, 8975966087, 8975966088, 8975966089, 8975966090, 8975966091, 8975966092, 8975966093, 8975966094, 8975966095, 8975966096, 8975966097, 8975966063, 8975966064, 8975966065, 8975966068, 8975966069, 8975966098, 8975966085], "tags": {"amenity": "hospital", "healthcare": "hospital"}}, {"type": "way", "id": 976144459, "center": {"lat": 45.3464642, "lon": -121.9639218}, "nodes": [9033473023, 9033472660, 9033472958, 9033472595, 9033472893, 9033472530, 9033473023], "tags": {"addr:city": "Welches", "addr:housenumber": "24461", "addr:postcode": "97067", "addr:state": "OR", "addr:street": "East Welches Road", "amenity": "hospital", "building": "yes", "building:levels": "1", "healthcare": "hospital", "name": "Adventist Health Medical Group - Hoodland", "operator": "Adventist Health", "operator:wikidata": "Q4686452", "phone": "(503) 622-3126", "website": "https://adventisthealth.org"}}, {"type": "way", "id": 986498392, "center": {"lat": 47.0042332, "lon": -122.8219215}, "nodes": [9118753384, 9118753385, 9118753386, 9118753387, 9118753388, 9118753389, 9118753390, 9118753391, 9118753392, 9118753393, 9118753394, 9118753395, 9118753396, 9118753397, 9118753398, 9118753399, 9118753400, 9118753401, 9118753402, 9118753403, 9118753404, 9118753405, 9118753406, 9118753407, 9118753408, 9118753409, 9118753410, 9118753411, 9118753412, 9118753413, 9118753414, 9118753415, 9118753416, 9118796617, 9118796618, 9118796619, 9118796620, 9118753384], "tags": {"addr:city": "Lacey", "addr:housenumber": "4800", "addr:postcode": "98503", "addr:state": "WA", "addr:street": "College Street Southeast", "amenity": "hospital", "healthcare": "hospital", "healthcare:speciality": "community", "name": "Providence Lacey Immediate Care"}}, {"type": "way", "id": 1066764914, "center": {"lat": 47.6071124, "lon": -122.310904}, "nodes": [9795415344, 9795415345, 9795415346, 9795415347, 9795415344], "tags": {"addr:city": "Seattle", "addr:housenumber": "500", "addr:postcode": "98122", "addr:street": "17th Avenue", "amenity": "hospital", "beds": "385", "contact:phone": "+1 (206) 320-2000", "contact:website": "http://www.swedish.org/locations/cherry-hill-campus", "emergency": "yes", "healthcare": "hospital", "name": "Swedish Medical Center Cherry Hill Campus", "opening_hours": "24/7", "operator": "Swedish"}}, {"type": "way", "id": 1126960983, "center": {"lat": 48.786188, "lon": -123.7225471}, "nodes": [10304806346, 10304806347, 10304806348, 10304806349, 10304806350, 10304806351, 10304806352, 10304806353, 10304806354, 10304806355, 10304806356, 10304806346], "tags": {"addr:housenumber": "3045", "addr:street": "Gibbins Road", "amenity": "hospital", "healthcare": "hospital", "name": "Cowichan District Hospital"}}, {"type": "way", "id": 1139108432, "center": {"lat": 46.4051458, "lon": -120.2752031}, "nodes": [10617361255, 10617361256, 10617361257, 10617361258, 10617361259, 10617361260, 10617361261, 10617361262, 10617361263, 10617361264, 10617361265, 10617361266, 10617361267, 10617361268, 10617361269, 10617361270, 10617361271, 10617361272, 10617361255], "tags": {"addr:city": "Zillah", "addr:housenumber": "823", "addr:postcode": "98953", "addr:state": "WA", "addr:street": "Zillah West Road", "amenity": "hospital", "healthcare": "hospital", "healthcare:speciality": "dialysis", "name": "DaVita Dialysis"}}, {"type": "way", "id": 1160911664, "center": {"lat": 49.1511447, "lon": -125.9089206}, "nodes": [10797462051, 10797462052, 10797462053, 10797462054, 10797462055, 10797462051], "tags": {"amenity": "hospital", "healthcare": "hospital"}}, {"type": "way", "id": 1190276710, "center": {"lat": 49.6984397, "lon": -123.1406004}, "nodes": [11051925243, 11051925244, 11051925245, 11051925246, 11051925247, 11051925248, 1076445104, 11051925249, 11051925250, 11051925251, 11051925252, 11051925243], "tags": {"addr:housenumber": "38140", "addr:street": "Behrner Drive", "amenity": "hospital", "emergency": "yes", "healthcare": "hospital", "name": "Squamish General Hospital", "operator": "Vancouver Coastal Health", "operator:type": "public", "phone": "+1-604-892-5211", "website": "https://www.vch.ca/en/location/squamish-general-hospital"}}, {"type": "relation", "id": 721783, "center": {"lat": 48.78178, "lon": -123.6701277}, "members": [{"type": "way", "ref": 56123317, "role": "outer"}, {"type": "way", "ref": 64619649, "role": "outer"}, {"type": "way", "ref": 64619668, "role": "outer"}, {"type": "way", "ref": 64619665, "role": "outer"}, {"type": "way", "ref": 57038076, "role": "outer"}], "tags": {"amenity": "hospital", "healthcare": "hospital", "healthcare:speciality": "psychiatry", "name:en": "Cowichan Lodge", "operator": "Island Health", "type": "multipolygon"}}, {"type": "relation", "id": 1280789, "center": {"lat": 49.1762543, "lon": -122.8428011}, "members": [{"type": "way", "ref": 85930043, "role": "outer"}, {"type": "way", "ref": 85930044, "role": "outer"}, {"type": "way", "ref": 85930258, "role": "outer"}], "tags": {"addr:city": "Surrey", "addr:housenumber": "13750", "addr:province": "BC", "addr:street": "96 Avenue", "alt_name": "SMH", "amenity": "hospital", "beds": "650", "emergency": "yes", "healthcare": "hospital", "healthcare:speciality": "emergency", "name": "Surrey Memorial Hospital", "opening_hours": "24/7", "operator": "Fraser Health Authority", "operator:type": "public", "operator:wikidata": "Q5493608", "operator:wikipedia": "en:Fraser Health", "phone": "+1-604-581-2211", "surrey:addrid": "19839", "surrey:date": "20020213", "type": "multipolygon", "website": "https://www.fraserhealth.ca/find-us/hospitals/surrey-memorial-hospital/", "wheelchair": "yes", "wikidata": "Q7646827", "wikipedia": "en:Surrey Memorial Hospital"}}, {"type": "relation", "id": 1731032, "center": {"lat": 49.1688865, "lon": -123.1463279}, "members": [{"type": "way", "ref": 128124495, "role": "outer"}, {"type": "way", "ref": 128125343, "role": "outer"}], "tags": {"addr:housenumber": "7000", "addr:street": "Westminster Highway", "amenity": "hospital", "emergency": "yes", "healthcare": "hospital", "name": "Richmond General Hospital", "opening_hours": "24/7", "operator": "Vancouver Coastal Health", "operator:type": "public", "phone": "+1-604-278-9711", "type": "multipolygon", "website": "https://www.vch.ca/en/location/richmond-hospital", "wheelchair": "yes", "wikidata": "Q7330892", "wikipedia": "en:Richmond Hospital"}}, {"type": "relation", "id": 2694349, "center": {"lat": 49.1848547, "lon": -123.969635}, "members": [{"type": "way", "ref": 151318024, "role": "outer"}, {"type": "way", "ref": 1193051794, "role": "outer"}, {"type": "way", "ref": 1193051796, "role": "outer"}, {"type": "way", "ref": 1193051793, "role": "outer"}, {"type": "way", "ref": 151317772, "role": "outer"}, {"type": "way", "ref": 200503995, "role": "outer"}], "tags": {"addr:city": "Nanaimo", "addr:housenumber": "1200", "addr:postcode": "V9S 2B7", "addr:province": "BC", "addr:street": "Dufferin Crescent", "amenity": "hospital", "beds": "345", "emergency": "yes", "healthcare": "hospital", "healthcare:speciality": "emergency", "name": "Nanaimo Regional General Hospital", "operator": "Vancouver Island Health Authority", "operator:type": "public", "phone": "+1-250-755-7691", "type": "multipolygon", "website": "https://www.islandhealth.ca/our-locations/hospitals-health-centre-locations/nanaimo-regional-general-hospital"}}, {"type": "relation", "id": 5319902, "center": {"lat": 47.5831844, "lon": -122.625118}, "members": [{"type": "way", "ref": 356382883, "role": "outer"}, {"type": "way", "ref": 5918733, "role": "outer"}, {"type": "way", "ref": 356382886, "role": "outer"}, {"type": "way", "ref": 5918176, "role": "outer"}], "tags": {"addr:city": "Bremerton", "addr:country": "US", "addr:housenumber": "2520", "addr:postcode": "98310", "addr:state": "WA", "addr:street": "Cherry Avenue", "amenity": "hospital", "beds": "297", "ele": "51", "emergency": "yes", "gnis:county_id": "035", "gnis:created": "09/10/1979", "gnis:feature_id": "1531461", "gnis:state_id": "53", "name": "St. Michael Medical Center Bremerton", "old_name": "Harrison Bremerton", "operator": "Franciscan Health System", "phone": "+1 360 7443911", "type": "multipolygon", "website": "https://www.chifranciscan.org/harrison-medical-center-bremerton.html"}}, {"type": "relation", "id": 5851879, "center": {"lat": 48.8624124, "lon": -123.5081966}, "members": [{"type": "way", "ref": 390848758, "role": "outer"}, {"type": "way", "ref": 390848756, "role": "outer"}], "tags": {"amenity": "hospital", "name": "Lady Minto Hospital", "type": "multipolygon"}}, {"type": "relation", "id": 6701279, "center": {"lat": 49.2484164, "lon": -124.7820881}, "members": [{"type": "way", "ref": 318779187, "role": "outer"}, {"type": "way", "ref": 216902616, "role": "inner"}, {"type": "way", "ref": 452349230, "role": "inner"}, {"type": "way", "ref": 415850974, "role": "inner"}, {"type": "way", "ref": 415850255, "role": "inner"}, {"type": "way", "ref": 415851145, "role": "inner"}, {"type": "way", "ref": 415850589, "role": "inner"}], "tags": {"amenity": "hospital", "type": "multipolygon"}}, {"type": "relation", "id": 7528363, "center": {"lat": 47.663096, "lon": -122.2829263}, "members": [{"type": "way", "ref": 520373679, "role": "outer"}, {"type": "way", "ref": 53589175, "role": "outer"}], "tags": {"addr:city": "Seattle", "addr:housenumber": "4800", "addr:postcode": "98105", "addr:street": "Sand Point Way Northeast", "amenity": "hospital", "beds": "407", "contact:website": "http://www.seattlechildrens.org/", "emergency": "yes", "gnis:feature_id": "2461625", "healthcare": "hospital", "healthcare:speciality": "paediatrics", "name": "Seattle Children's Hospital", "opening_hours": "24/7", "phone": "+1-206-987-2000", "type": "multipolygon", "website": "https://www.seattlechildrens.org/", "wikidata": "Q7442069"}}, {"type": "relation", "id": 8091300, "center": {"lat": 48.4382755, "lon": -123.4157551}, "members": [{"type": "way", "ref": 567650062, "role": "outer"}, {"type": "way", "ref": 567650064, "role": "outer"}], "tags": {"amenity": "hospital", "healthcare": "hospital", "name": "Base Hospital", "type": "multipolygon"}}, {"type": "relation", "id": 8284867, "center": {"lat": 40.5859234, "lon": -122.4167716}, "members": [{"type": "way", "ref": 586998521, "role": "outer"}, {"type": "way", "ref": 586998519, "role": "inner"}], "tags": {"addr:city": "Redding", "addr:housenumber": "2900", "addr:postcode": "90301", "addr:street": "Eureka Way", "amenity": "hospital", "beds": "10", "building": "hospital", "emergency": "no", "healthcare": "hospital", "healthcare:speciality": "surgery", "name": "Patients' Hospital of Redding", "phone": "+1 530 225 8700", "type": "multipolygon", "website": "https://www.patientshospital.com/"}}, {"type": "relation", "id": 9631895, "center": {"lat": 49.7121227, "lon": -124.9690971}, "members": [{"type": "way", "ref": 692909229, "role": "outer"}, {"type": "way", "ref": 692909228, "role": "outer"}], "tags": {"amenity": "hospital", "building": "yes", "name": "North Island Hospital - Comox Valley (Emergency)", "type": "multipolygon"}}, {"type": "relation", "id": 9631896, "center": {"lat": 49.7123217, "lon": -124.9699926}, "members": [{"type": "way", "ref": 692909228, "role": "outer"}, {"type": "way", "ref": 487839105, "role": "outer"}], "tags": {"addr:housenumber": "101", "addr:street": "Lerwick Road", "amenity": "hospital", "building": "yes", "name": "North Island Hospital - Comox Valley", "phone": "+1-250-331-5900", "type": "multipolygon"}}, {"type": "relation", "id": 13050886, "center": {"lat": 45.5301941, "lon": -122.6965911}, "members": [{"type": "way", "ref": 970050629, "role": "outer"}, {"type": "way", "ref": 970050630, "role": "outer"}, {"type": "way", "ref": 52082864, "role": "outer"}, {"type": "way", "ref": 1157512168, "role": "outer"}, {"type": "way", "ref": 1157512167, "role": "outer"}], "tags": {"addr:city": "Portland", "addr:housenumber": "1015", "addr:postcode": "97210", "addr:state": "OR", "addr:street": "Northwest 22nd Avenue", "amenity": "hospital", "contact:phone": "+1 503 413 7711", "contact:website": "https://www.legacyhealth.org/doctors-and-locations/hospitals/legacy-good-samaritan-medical-center", "emergency": "yes", "healthcare": "hospital", "name": "Legacy Good Samaritan Medical Center", "opening_hours": "24/7", "operator": "Legacy Health", "operator:wikidata": "Q6517244", "operator:wikipedia": "en:Legacy Health", "type": "multipolygon", "wikidata": "Q6517242"}}, {"type": "relation", "id": 13795393, "center": {"lat": 45.8544002, "lon": -122.827304}, "members": [{"type": "way", "ref": 1030670466, "role": "outer"}, {"type": "way", "ref": 1030670467, "role": "outer"}, {"type": "way", "ref": 845112071, "role": "outer"}, {"type": "way", "ref": 1030670464, "role": "outer"}, {"type": "way", "ref": 1030670463, "role": "outer"}], "tags": {"addr:city": "Saint Helens", "addr:housenumber": "475", "addr:postcode": "97051", "addr:state": "OR", "addr:street": "South Columbia River Highway", "amenity": "hospital", "emergency": "no", "healthcare": "hospital", "name": "Legacy Urgent Care-St. Helens", "operator": "Legacy Health System", "operator:type": "private_non_profit", "phone": "+1-503-397-7119", "type": "multipolygon", "website": "https://www.legacyhealth.org/locations/clinics/urgent-care/st-helens.aspx", "wheelchair": "yes"}}, {"type": "relation", "id": 15058778, "center": {"lat": 45.5200019, "lon": -122.9781936}, "members": [{"type": "way", "ref": 1019783682, "role": "outer"}, {"type": "way", "ref": 1125523932, "role": "outer"}], "tags": {"addr:city": "Hillsboro", "addr:housenumber": "335", "addr:postcode": "97123", "addr:state": "OR", "addr:street": "Southeast 8th Avenue", "amenity": "hospital", "emergency": "yes", "healthcare": "hospital", "name": "Hillsboro Medical Center", "official_name": "OHSU Health Hillsboro Medical Center", "old_name": "Tuality Community Hospital", "opening_hours": "24/7", "operator": "Oregon Health & Science University", "operator:short": "OHSU", "operator:wikidata": "Q282097", "operator:wikipedia": "en:Oregon Health & Science University", "phone": "+1-503-681-1860", "type": "multipolygon", "website": "http://www.tuality.org/", "wikidata": "Q7850605", "wikipedia": "en:Hillsboro Medical Center"}}]}