{"version": 0.6, "generator": "Overpass API 0.7.61.5 4133829e", "osm3s": {"timestamp_osm_base": "2023-10-31T21:00:55Z", "copyright": "The data included in this document is from www.openstreetmap.org. The data is made available under ODbL."}, "elements": [{"type": "node", "id": 1001161685, "lat": 40.4908127, "lon": 50.1538468, "tags": {"addr:housenumber": "6", "addr:postcode": "AZ1044", "addr:street": "Ramin Qas\u0131mov", "amenity": "hospital", "name": "26 sayl\u0131 birl\u0259\u015fmi\u015f \u015f\u0259h\u0259r x\u0259st\u0259xanas\u0131", "phone": "(+994 12) 454-29-91, (+994 12) 454-44-59, (+994 12) 454-42-33 \u0433\u043b.\u0432\u0440\u0430\u0447, (+994 12) 454-20-46"}}, {"type": "node", "id": 2911882124, "lat": 40.4464586, "lon": 50.3419297, "tags": {"amenity": "hospital", "designation": "t\u0259cili yard\u0131m", "emergency": "yes", "name": "T\u0259cili Yard\u0131m Stansiyas\u0131 18 \\ Pirallah\u0131", "source": "survey"}}, {"type": "node", "id": 2912535613, "lat": 40.3652172, "lon": 50.2830454, "tags": {"amenity": "hospital", "name": "Diaqnostika M\u0259rk\u0259zi \\ Zir\u0259"}}, {"type": "node", "id": 2912535706, "lat": 40.3654554, "lon": 50.2829893, "tags": {"amenity": "hospital", "name": "18 sayl\u0131 T\u0259cili Yard\u0131m \\ Zir\u0259"}}, {"type": "node", "id": 3073510780, "lat": 40.4501334, "lon": 50.0906159, "tags": {"addr:postcode": "AZ1045", "addr:street": "Fuad Aynulov", "amenity": "hospital", "name": "29 sayl\u0131 \u015e\u0259h\u0259r X\u0259st\u0259xanas\u0131 \\ Bin\u0259", "phone": "(+994 12) 456-29-18, (+994 12) 456-39-51, (+994 12) 456-37-69"}}, {"type": "node", "id": 3073513407, "lat": 40.4499556, "lon": 50.0906618, "tags": {"addr:street": "Fuad Aynulov", "amenity": "hospital", "healthcare": "hospital", "name": "10 sayl\u0131 T\u0259cili Yard\u0131m Stansiyas\u0131 \\ Bin\u0259"}}, {"type": "node", "id": 3335929030, "lat": 40.5785534, "lon": 50.0616012, "tags": {"amenity": "hospital", "name": "Bilgah Sanitorium"}}, {"type": "node", "id": 3378256329, "lat": 46.3056628, "lon": 53.4434458, "tags": {"amenity": "hospital", "healthcare": "hospital", "name": "\u041a\u043b\u0438\u043d\u0438\u043a\u0430 \u041f\u0422\u0428\u041e", "name:en": "TCOV Clinic", "name:ru": "\u041a\u043b\u0438\u043d\u0438\u043a\u0430 \u041f\u0422\u0428\u041e", "opening_hours": "24/7"}}, {"type": "node", "id": 3606652630, "lat": 40.4472325, "lon": 50.3414839, "tags": {"amenity": "hospital", "designation": "Tibbi hiss\u0259", "name": "10 sayl\u0131 Birl\u0259\u015fmi\u015f X\u0259st\u0259xana \\ Pirallah\u0131", "source": "survey"}}, {"type": "node", "id": 3910206557, "lat": 40.532114, "lon": 50.099673, "tags": {"amenity": "hospital", "name": "Respublika U\u015faq Sanatoriyasi \\ Buzovna"}}, {"type": "node", "id": 4112600392, "lat": 48.8381729, "lon": 58.1457513, "tags": {"amenity": "hospital", "healthcare": "hospital", "int_name": "Embi awrwxanas\u0131", "name": "\u0415\u043c\u0431\u0456 \u0430\u0443\u0440\u0443\u0445\u0430\u043d\u0430\u0441\u044b", "name:kk": "\u0415\u043c\u0431\u0456 \u0430\u0443\u0440\u0443\u0445\u0430\u043d\u0430\u0441\u044b", "name:ru": "\u0411\u043e\u043b\u044c\u043d\u0438\u0446\u0430 \u042d\u043c\u0431\u0430"}}, {"type": "node", "id": 4219937894, "lat": 48.5489714, "lon": 51.7331621, "tags": {"amenity": "hospital", "healthcare": "hospital", "int_name": "Awdand\u0131q ortal\u0131q awrwxanas\u0131", "name": "\u0410\u0443\u0434\u0430\u043d\u0434\u044b\u049b \u043e\u0440\u0442\u0430\u043b\u044b\u049b \u0430\u0443\u0440\u0443\u0445\u0430\u043d\u0430\u0441\u044b", "name:kk": "\u0410\u0443\u0434\u0430\u043d\u0434\u044b\u049b \u043e\u0440\u0442\u0430\u043b\u044b\u049b \u0430\u0443\u0440\u0443\u0445\u0430\u043d\u0430\u0441\u044b", "name:ru": "\u0418\u043d\u0434\u0435\u0440\u0441\u043a\u0430\u044f \u0446\u0435\u043d\u0442\u0440\u0430\u043b\u044c\u043d\u0430\u044f \u0440\u0430\u0439\u043e\u043d\u043d\u0430\u044f \u0431\u043e\u043b\u044c\u043d\u0438\u0446\u0430"}}, {"type": "node", "id": 4350619792, "lat": 43.6448631, "lon": 51.1586157, "tags": {"amenity": "hospital", "name": "\u0427\u0430\u041a\u0443\u0440"}}, {"type": "node", "id": 4359232290, "lat": 43.6565313, "lon": 51.1644855, "tags": {"amenity": "hospital", "name": "\u0414\u0435\u043d\u0441\u0430\u0443\u043b\u044b\u043a"}}, {"type": "node", "id": 4414591392, "lat": 49.0668037, "lon": 54.6519312, "tags": {"amenity": "hospital", "name": "\u0426\u0435\u043d\u0442\u0440\u0430\u043b\u044c\u043d\u0430\u044f \u0440\u0430\u0439\u043e\u043d\u043d\u0430\u044f \u0431\u043e\u043b\u044c\u043d\u0438\u0446\u0430"}}, {"type": "node", "id": 4460036191, "lat": 44.1203393, "lon": 52.173116, "tags": {"amenity": "hospital", "healthcare": "hospital"}}, {"type": "node", "id": 4467981195, "lat": 40.35931, "lon": 50.0780298, "tags": {"amenity": "hospital", "healthcare": "hospital", "name": "23 sayl\u0131 Poliklinika \\ H\u00f6vsan"}}, {"type": "node", "id": 4756110023, "lat": 43.6380118, "lon": 51.1792046, "tags": {"amenity": "hospital", "name": "\u0421\u041f\u0418\u0414 \u0446\u0435\u043d\u0442\u0440", "name:ru": "\u0421\u041f\u0418\u0414 \u0446\u0435\u043d\u0442\u0440"}}, {"type": "node", "id": 4962817525, "lat": 49.4827536, "lon": 57.4139235, "tags": {"amenity": "hospital", "name:ru": "\u0428\u0430\u043f\u0430\u0493\u0430\u0442"}}, {"type": "node", "id": 5019238421, "lat": 42.4746561, "lon": 59.6086996, "tags": {"addr:city": "N\u00f3kis", "addr:country": "UZ", "addr:region": "Qaraqalpaqstan Respublikas\u0131", "amenity": "hospital", "healthcare": "hospital", "name": "Terapia 2,3 b\u00f3limi", "name:en": "Department of Therapy II, III", "name:ru": "\u043e\u0442\u0434\u0435\u043b \u0422\u0435\u0440\u0430\u043f\u0438\u0438 II, III", "operator": "QRDSM"}}, {"type": "node", "id": 5019273921, "lat": 42.4746108, "lon": 59.6083507, "tags": {"addr:city": "N\u00f3kis", "addr:country": "UZ", "addr:region": "Qaraqalpaqstan Respublikas\u0131", "amenity": "hospital", "healthcare": "hospital", "name": "Fizioterapia b\u00f3limi", "name:en": "Department of Physiotherapy", "name:ru": "\u043e\u0442\u0434\u0435\u043b \u0424\u0438\u0437\u0438\u043e\u0442\u0435\u0440\u0430\u043f\u0438\u0438", "operator": "QRDSM"}}, {"type": "node", "id": 5020540104, "lat": 42.4748369, "lon": 59.6115615, "tags": {"addr:city": "N\u00f3kis", "addr:country": "UZ", "addr:region": "Qaraqalpaqstan Respublikas\u0131", "amenity": "hospital", "healthcare": "hospital", "name": "Kardiologiya b\u00f3limi", "name:ru": "\u041e\u0442\u0434\u0435\u043b\u0435\u043d\u0438\u0435 \u043a\u0430\u0440\u0434\u0438\u043e\u043b\u043e\u0433\u0438\u0438", "operator": "QRDSM"}}, {"type": "node", "id": 5117066523, "lat": 48.6855141, "lon": 55.8829318, "tags": {"amenity": "hospital", "name": "\u0411\u0430\u0439\u0433\u0430\u043d\u0438\u043d\u0441\u043a\u0430\u044f \u0440\u0430\u0439\u043e\u043d\u043d\u0430\u044f \u0431\u043e\u043b\u044c\u043d\u0438\u0446\u0430", "name:en": "Hospital", "name:ru": "\u0411\u0430\u0439\u0433\u0430\u043d\u0438\u043d\u0441\u043a\u0430\u044f \u0440\u0430\u0439\u043e\u043d\u043d\u0430\u044f \u0431\u043e\u043b\u044c\u043d\u0438\u0446\u0430"}}, {"type": "node", "id": 5137679941, "lat": 42.698763, "lon": 59.7287303, "tags": {"addr:country": "UZ", "addr:region": "Qaraqalpaqstan Respublikas\u0131", "amenity": "hospital", "name:en": "Clinic \u2116 2", "name:ru": "\u041f\u043e\u043b\u0438\u043a\u043b\u0438\u043d\u0438\u043a\u0430 \u21162"}}, {"type": "node", "id": 5137679942, "lat": 42.6994115, "lon": 59.7287715, "tags": {"addr:country": "UZ", "addr:region": "Qaraqalpaqstan Respublikas\u0131", "amenity": "hospital", "name:en": "Hospital", "name:ru": "\u0411\u043e\u043b\u044c\u043d\u0438\u0446\u0430"}}, {"type": "node", "id": 5146471321, "lat": 47.218223, "lon": 51.0118432, "tags": {"amenity": "hospital", "healthcare": "hospital", "name:kk": "\u0418\u0441\u0430\u0442\u0430\u0439 \u043e\u0440\u0442\u0430\u043b\u044b\u049b \u0430\u0443\u0434\u0430\u043d\u0434\u044b\u049b \u0430\u0443\u0440\u0443\u0445\u0430\u043d\u0430\u0441\u044b", "name:ru": "\u0418\u0441\u0430\u0442\u0430\u0439\u0441\u043a\u0430\u044f \u0446\u0435\u043d\u0442\u0440\u0430\u043b\u044c\u043d\u0430\u044f \u0440\u0430\u0439\u043e\u043d\u043d\u0430\u044f \u0431\u043e\u043b\u044c\u043d\u0438\u0446\u0430"}}, {"type": "node", "id": 5153523623, "lat": 40.4109952, "lon": 50.0103691, "tags": {"amenity": "hospital", "healthcare": "hospital", "name": "3 sayl\u0131 Do\u011fum Evi \\ Suraxan\u0131"}}, {"type": "node", "id": 5174904046, "lat": 40.3602362, "lon": 50.0777578, "tags": {"addr:city": "H\u00f6vsan", "addr:postcode": "AZ1089", "addr:street": "F\u00fczuli Bayramov", "amenity": "hospital", "healthcare": "hospital", "name": "Aptek"}}, {"type": "node", "id": 5178071357, "lat": 43.0474567, "lon": 58.8537362, "tags": {"addr:country": "UZ", "addr:region": "Qaraqalpaqstan Respublikas\u0131", "amenity": "hospital", "healthcare": "hospital", "name": "\u0421\u0430\u043d\u0430\u0442\u043e\u0440\u0438\u0439-\u043f\u0440\u043e\u0444\u0438\u043b\u0430\u043a\u0442\u043e\u0440\u0438\u0439 \"\u041a\u0443\u043d\u0433\u0440\u0430\u0434\"", "name:en": "Sanatorium \"Kungrad\"", "name:ru": "\u0421\u0430\u043d\u0430\u0442\u043e\u0440\u0438\u0439-\u043f\u0440\u043e\u0444\u0438\u043b\u0430\u043a\u0442\u043e\u0440\u0438\u0439 \"\u041a\u0443\u043d\u0433\u0440\u0430\u0434\""}}, {"type": "node", "id": 5180392123, "lat": 42.4033178, "lon": 59.44122, "tags": {"addr:country": "UZ", "addr:housenumber": "1", "addr:region": "Qaraqalpaqstan Respublikas\u0131", "addr:street": "Furhat ko'shesi", "amenity": "hospital", "name": "\u0411\u043e\u043b\u044c\u043d\u0438\u0446\u0430 \u0436\u0435\u043b\u0435\u0437\u043d\u043e\u0434\u043e\u0440\u043e\u0436\u043d\u0438\u043a\u043e\u0432 \u0441\u0442. \u0425\u043e\u0434\u0436\u0435\u0439\u043b\u0438", "name:ru": "\u0411\u043e\u043b\u044c\u043d\u0438\u0446\u0430 \u0436\u0435\u043b\u0435\u0437\u043d\u043e\u0434\u043e\u0440\u043e\u0436\u043d\u0438\u043a\u043e\u0432 \u0441\u0442. \u0425\u043e\u0434\u0436\u0435\u0439\u043b\u0438", "phone": "+99861 554-17-03", "phone_1": "+99861 554-57-91"}}, {"type": "node", "id": 5180392322, "lat": 42.4034027, "lon": 59.4407035, "tags": {"addr:country": "UZ", "addr:housenumber": "1", "addr:region": "Qaraqalpaqstan Respublikas\u0131", "addr:street": "Furhat ko'shesi", "amenity": "hospital", "name": "\u0414\u0435\u0442\u0441\u043a\u0430\u044f \u0431\u043e\u043b\u044c\u043d\u0438\u0446\u0430", "name:ru": "\u0414\u0435\u0442\u0441\u043a\u0430\u044f \u0431\u043e\u043b\u044c\u043d\u0438\u0446\u0430"}}, {"type": "node", "id": 5228808522, "lat": 40.4874905, "lon": 50.1589546, "tags": {"addr:city": "M\u0259rd\u0259kan", "addr:street": "Almas \u0130ld\u0131r\u0131m \\ Yesenin k\u00fc\u00e7.", "amenity": "hospital", "name": "Andromed Tibb M\u0259rk\u0259zi \\ M\u0259rd\u0259kan"}}, {"type": "node", "id": 5346653622, "lat": 40.5886977, "lon": 50.0574071, "tags": {"addr:street": "Baki-Bilgah sosesi", "amenity": "hospital", "email": "info@ultralab.az", "name": "Sa\u011flam Ail\u0259 UltraLab \\ Bilg\u0259h", "name:az": "Sa\u011flam Ail\u0259 UltraLab \\ Bilg\u0259h", "opening_hours": "Mo-Sa 08:30-17:00", "phone": "012910", "website": "http://ultralab.az"}}, {"type": "node", "id": 5418834413, "lat": 40.4834599, "lon": 50.1448191, "tags": {"addr:city": "M\u0259rd\u0259kan", "addr:street": "R\u0259fail C\u0259f\u0259rov k\u00fc\u00e7.", "amenity": "hospital", "name": "Kristall U\u015faq Pansionat\u0131 \\ M\u0259rd\u0259kan"}}, {"type": "node", "id": 5444164222, "lat": 40.5226195, "lon": 50.100156, "tags": {"addr:city": "Buzovna", "addr:street": "Az\u0259r \u0130mam\u0259liyev k\u00fc\u00e7.", "amenity": "hospital", "name": "14 sayl\u0131 X\u0259st\u0259xana \\ Buzovna"}}, {"type": "node", "id": 5703179128, "lat": 47.6506003, "lon": 53.3425331, "tags": {"amenity": "hospital", "healthcare": "hospital", "int_name": "Maqat awdand\u0131q ortal\u0131q awrwxanas\u0131", "name": "\u041c\u0430\u049b\u0430\u0442 \u0430\u0443\u0434\u0430\u043d\u0434\u044b\u049b \u043e\u0440\u0442\u0430\u043b\u044b\u049b \u0430\u0443\u0440\u0443\u0445\u0430\u043d\u0430\u0441\u044b", "name:kk": "\u041c\u0430\u049b\u0430\u0442 \u0430\u0443\u0434\u0430\u043d\u0434\u044b\u049b \u043e\u0440\u0442\u0430\u043b\u044b\u049b \u0430\u0443\u0440\u0443\u0445\u0430\u043d\u0430\u0441\u044b", "name:ru": "\u041c\u0430\u043a\u0430\u0442\u0441\u043a\u0430\u044f \u0446\u0435\u043d\u0442\u0440\u0430\u043b\u044c\u043d\u0430\u044f \u0440\u0430\u0439\u043e\u043d\u043d\u0430\u044f \u0431\u043e\u043b\u044c\u043d\u0438\u0446\u0430", "opening_hours": "24/7", "phone": "87123931605"}}, {"type": "node", "id": 5723636374, "lat": 47.8418727, "lon": 59.5999074, "tags": {"amenity": "hospital", "name": "\u0428\u0430\u043b\u043a\u0430\u0440\u0441\u043a\u0430\u044f \u0440\u0430\u0439\u043e\u043d\u043d\u0430\u044f \u0442\u0443\u0431\u0435\u0440\u043a\u0443\u043b\u0435\u0437\u043d\u0430\u044f \u0431\u043e\u043b\u044c\u043d\u0438\u0446\u0430"}}, {"type": "node", "id": 5723636375, "lat": 47.8407242, "lon": 59.5987809, "tags": {"amenity": "hospital", "name": "\u0428\u0430\u043b\u043a\u0430\u0440\u0441\u043a\u0430\u044f \u0446\u0435\u043d\u0442\u0440\u0430\u043b\u044c\u043d\u0430\u044f \u0440\u0430\u0439\u043e\u043d\u043d\u0430\u044f \u0431\u043e\u043b\u044c\u043d\u0438\u0446\u0430"}}, {"type": "node", "id": 5896303985, "lat": 40.478722, "lon": 50.157071, "tags": {"amenity": "hospital", "name": "M\u00fcharib\u0259 v\u0259 \u018fm\u0259k Veteranlar\u0131 X\u0259st\u0259xanas\u0131 \\ M\u0259rd\u0259kan"}}, {"type": "node", "id": 5917765653, "lat": 49.1453801, "lon": 56.4877671, "tags": {"amenity": "hospital", "name": "\u0428\u0443\u0431\u0430\u0440\u043a\u0443\u0434\u044b\u043a\u0441\u043a\u0430\u044f \u0440\u0430\u0439\u043e\u043d\u043d\u0430\u044f \u0431\u043e\u043b\u044c\u043d\u0438\u0446\u0430"}}, {"type": "node", "id": 5921122687, "lat": 40.5202034, "lon": 50.1214535, "tags": {"amenity": "hospital", "name": "X\u0259z\u0259r Sanatoriyas\u0131 \\ Buzovna", "opening_hours": "24/7", "tourism": "hostel"}}, {"type": "node", "id": 5923699195, "lat": 47.120658, "lon": 51.9466639, "tags": {"amenity": "hospital", "healthcare": "hospital", "name": "\u0413\u043e\u0440\u043e\u0434\u0441\u043a\u043e\u0439 \u0440\u043e\u0434\u0438\u043b\u044c\u043d\u044b\u0439 \u0434\u043e\u043c", "name:en": "Maternity hospital"}}, {"type": "node", "id": 5928778434, "lat": 47.1324032, "lon": 51.9472003, "tags": {"amenity": "hospital", "healthcare": "hospital", "name": "\u0416\u0435\u043b\u0435\u0437\u043d\u043e\u0434\u043e\u0440\u043e\u0436\u043d\u0430\u044f \u0431\u043e\u043b\u044c\u043d\u0438\u0446\u0430"}}, {"type": "node", "id": 5940108275, "lat": 47.6631854, "lon": 51.5792066, "tags": {"amenity": "hospital", "name": "\u041c\u0430\u0445\u0430\u043c\u0431\u0435\u0442\u0441\u043a\u0430\u044f \u0446\u0435\u043d\u0442\u0440\u0430\u043b\u044c\u043d\u0430\u044f \u0440\u0430\u0439\u043e\u043d\u043d\u0430\u044f \u0431\u043e\u043b\u044c\u043d\u0438\u0446\u0430"}}, {"type": "node", "id": 5940437540, "lat": 48.8786644, "lon": 53.7973425, "tags": {"amenity": "hospital", "name": "\u041a\u044b\u0437\u044b\u043b\u043a\u043e\u0433\u0438\u043d\u0441\u043a\u0430\u044f \u0446\u0435\u043d\u0442\u0440\u0430\u043b\u044c\u043d\u0430\u044f \u0440\u0430\u0439\u043e\u043d\u043d\u0430\u044f \u0431\u043e\u043b\u044c\u043d\u0438\u0446\u0430"}}, {"type": "node", "id": 5949311187, "lat": 47.6506237, "lon": 53.3402055, "tags": {"amenity": "hospital", "healthcare": "hospital", "int_name": "Juqpal\u0131 awrwlar awrwxanas\u0131", "name": "\u0416\u04b1\u049b\u043f\u0430\u043b\u044b \u0430\u0443\u0440\u0443\u043b\u0430\u0440 \u0430\u0443\u0440\u0443\u0445\u0430\u043d\u0430\u0441\u044b", "name:kk": "\u0416\u04b1\u049b\u043f\u0430\u043b\u044b \u0430\u0443\u0440\u0443\u043b\u0430\u0440 \u0430\u0443\u0440\u0443\u0445\u0430\u043d\u0430\u0441\u044b", "name:ru": "\u0418\u043d\u0444\u0435\u043a\u0446\u0438\u043e\u043d\u043d\u0430\u044f \u0431\u043e\u043b\u044c\u043d\u0438\u0446\u0430"}}, {"type": "node", "id": 5949427624, "lat": 47.538025, "lon": 52.9818517, "tags": {"amenity": "hospital", "name": "\u0421\u0435\u043b\u044c\u0441\u043a\u0430\u044f \u0431\u043e\u043b\u044c\u043d\u0438\u0446\u0430 \u043f. \u0414\u043e\u0441\u0441\u043e\u0440"}}, {"type": "node", "id": 5961640948, "lat": 47.1005541, "lon": 51.8911368, "tags": {"amenity": "hospital", "name": "\u041e\u0431\u043b\u0430\u0441\u0442\u043d\u043e\u0439 \u0440\u043e\u0434\u0438\u043b\u044c\u043d\u044b\u0439 \u0434\u043e\u043c"}}, {"type": "node", "id": 6253324185, "lat": 42.473942, "lon": 59.6183629, "tags": {"addr:city": "N\u00f3kis", "addr:country": "UZ", "addr:region": "Qaraqalpaqstan Respublikas\u0131", "amenity": "hospital", "name": "Diagnostika b\u00f3limi", "name:ru": "\u043e\u0442\u0434\u0435\u043b\u0435\u043d\u0438\u0435 \u0414\u0438\u0430\u0433\u043d\u043e\u0441\u0442\u0438\u043a\u0438", "operator": "QRDSM"}}, {"type": "node", "id": 6274606385, "lat": 42.4675668, "lon": 59.6202173, "tags": {"addr:city": "N\u00f3kis", "addr:country": "UZ", "addr:region": "Qaraqalpaqstan Respublikas\u0131", "addr:street": "Allayar Dosnazarov ko'shesi", "amenity": "hospital", "name": "CALL ORAYI", "name:en": "CALL CENTER", "operator": "QRDSM"}}, {"type": "node", "id": 6282842925, "lat": 42.5411724, "lon": 59.595014, "tags": {"addr:city": "N\u00f3kis", "addr:country": "UZ", "addr:region": "Qaraqalpaqstan Respublikas\u0131", "amenity": "hospital", "healthcare": "hospital", "name": "Qaraqalpaqstan Respublikas\u0131 IIM medecina b\u00f3limi gospiteli", "name:en": "Hospital of the Ministry of Internal Affairs of the Republic of Karakalpakstan", "name:ru": "\u0413\u043e\u0441\u043f\u0438\u0442\u0430\u043b\u044c \u041c\u0412\u0414 \u0420\u0435\u0441\u043f\u0443\u0431\u043b\u0438\u043a\u0438 \u041a\u0430\u0440\u0430\u043a\u0430\u043b\u043f\u0430\u043a\u0441\u0442\u0430\u043d", "operator": "QRIIM"}}, {"type": "node", "id": 6423839096, "lat": 42.5985657, "lon": 59.5378212, "tags": {"addr:country": "UZ", "addr:housenumber": "54", "addr:region": "Qaraqalpaqstan Respublikas\u0131", "addr:street": "Aqmang'it guzari", "amenity": "hospital", "healthcare": "hospital", "name": "K\u00f3ptarmaql\u0131 poliklinika", "name:en": "Multidisciplinary Clinic", "name:ru": "\u041c\u043d\u043e\u0433\u043e\u043f\u0440\u043e\u0444\u0438\u043b\u044c\u043d\u0430\u044f \u043f\u043e\u043b\u0438\u043a\u043b\u0438\u043d\u0438\u043a\u0430"}}, {"type": "node", "id": 6700850487, "lat": 40.4396775, "lon": 50.1716702, "tags": {"amenity": "hospital", "name": "Poliklinika 28 \\ Qala"}}, {"type": "node", "id": 6820998702, "lat": 42.8782653, "lon": 59.1911903, "tags": {"addr:country": "UZ", "addr:region": "Qaraqalpaqstan Respublikas\u0131", "amenity": "hospital", "healthcare": "hospital"}}, {"type": "node", "id": 6966798541, "lat": 42.4753365, "lon": 59.6090647, "tags": {"addr:city": "N\u00f3kis", "addr:country": "UZ", "addr:region": "Qaraqalpaqstan Respublikas\u0131", "amenity": "hospital", "healthcare": "hospital", "name": "N\u00f3kis qalal\u0131q tuw\u0131w \u00fayi", "name:en": "Nukus City Maternity Hospital", "name:ru": "\u041d\u0443\u043a\u0443\u0441\u0441\u043a\u0438\u0439 \u0433\u043e\u0440\u043e\u0434\u0441\u043a\u043e\u0439 \u0440\u043e\u0434\u0438\u043b\u044c\u043d\u044b\u0439 \u0434\u043e\u043c", "operator": "QRDSM"}}, {"type": "node", "id": 6972304009, "lat": 42.4501029, "lon": 59.569374, "tags": {"addr:city": "N\u00f3kis", "addr:country": "UZ", "addr:housenumber": "2", "addr:postcode": "230100", "addr:region": "Qaraqalpaqstan Respublikas\u0131", "addr:street": "Qiyat qala ko'shesi", "amenity": "hospital", "healthcare": "hospital", "name": "Qaraqalpaqstan Respublikas\u0131 haywanlar kesellikleri diagnostikas\u0131 h\u00e1m az\u0131q-awqat \u00f3nimleri q\u00e1wipsizligi m\u00e1mleketlik oray\u0131", "name:en": "State Center for Diagnosis of Animal Diseases and Food Safety of the Republic of Karakalpakstan", "name:ru": "\u0413\u043e\u0441\u0443\u0434\u0430\u0440\u0441\u0442\u0432\u0435\u043d\u043d\u044b\u0439 \u0446\u0435\u043d\u0442\u0440 \u0434\u0438\u0430\u0433\u043d\u043e\u0441\u0442\u0438\u043a\u0438 \u0431\u043e\u043b\u0435\u0437\u043d\u0435\u0439 \u0436\u0438\u0432\u043e\u0442\u043d\u044b\u0445 \u0438 \u0431\u0435\u0437\u043e\u043f\u0430\u0441\u043d\u043e\u0441\u0442\u0438 \u043f\u0440\u043e\u0434\u043e\u0432\u043e\u043b\u044c\u0441\u0442\u0432\u0438\u044f \u0420\u0435\u0441\u043f\u0443\u0431\u043b\u0438\u043a\u0438 \u041a\u0430\u0440\u0430\u043a\u0430\u043b\u043f\u0430\u043a\u0441\u0442\u0430\u043d", "operator": "QRDSM"}}, {"type": "node", "id": 7102310528, "lat": 43.056156, "lon": 59.863908, "tags": {"addr:country": "UZ", "addr:region": "Qaraqalpaqstan Respublikas\u0131", "amenity": "hospital", "healthcare": "hospital", "name": "Ken'es", "name:ru": "\u0421\u0412\u041f \u041a\u0435\u043d\u0435\u0441"}}, {"type": "node", "id": 7162794717, "lat": 42.637761, "lon": 58.9233572, "tags": {"addr:country": "UZ", "addr:region": "Qaraqalpaqstan Respublikas\u0131", "amenity": "hospital", "healthcare": "hospital", "name:ru": "\u0420\u0430\u0439\u043e\u043d\u043d\u044b\u0439 \u043f\u0440\u043e\u0442\u0438\u0432\u043e\u0442\u0443\u0431\u0435\u0440\u043a\u0443\u043b\u0435\u0437\u043d\u044b\u0439 \u0434\u0438\u0441\u043f\u0430\u043d\u0441\u0435\u0440"}}, {"type": "node", "id": 8118106784, "lat": 43.0451424, "lon": 58.8499906, "tags": {"addr:country": "UZ", "addr:region": "Qaraqalpaqstan Respublikas\u0131", "amenity": "hospital", "healthcare": "hospital", "name:ru": "\u041f\u043e\u043b\u0438\u043a\u043b\u0438\u043d\u0438\u043a\u0430 \u21161"}}, {"type": "node", "id": 8171334096, "lat": 42.4541219, "lon": 59.5863438, "tags": {"addr:city": "N\u00f3kis", "addr:country": "UZ", "addr:region": "Qaraqalpaqstan Respublikas\u0131", "addr:street": "Nayman k\u00f3shesi", "amenity": "hospital", "healthcare": "hospital", "name": "Ginekologiya h\u00e1m akusherstva N\u00f3kis filial\u0131", "name:en": "Nukus branch of obstetrics and gynecology", "name:ru": "\u041d\u0443\u043a\u0443\u0441\u0441\u043a\u0438\u0439 \u0444\u0438\u043b\u0438\u0430\u043b \u0430\u043a\u0443\u0448\u0435\u0440\u0441\u0442\u0432\u043e \u0438 \u0433\u0438\u043d\u0435\u043a\u043e\u043b\u043e\u0433\u0438\u0438", "operator": "QRDSM", "phone": "+998612240319"}}, {"type": "node", "id": 8190977588, "lat": 42.4718584, "lon": 59.6227248, "tags": {"addr:city": "N\u00f3kis", "addr:country": "UZ", "addr:region": "Qaraqalpaqstan Respublikas\u0131", "amenity": "hospital", "healthcare": "hospital", "name": "S. Sultanov atinda\u01f5\u0131 \u21161 respublikal\u0131q tuberkulyoz\u01f5a qars\u0131 guresiw dispanseri laboratoriya b\u00f3limi", "name:en": "Department of the laboratory of the anti-tuberculosis dispensary \u21161 named after S. Sultanova", "name:ru": "\u041e\u0442\u0434\u0435\u043b \u043b\u0430\u0431\u043e\u0440\u0430\u0442\u043e\u0440\u0438\u0438 \u043f\u0440\u043e\u0442\u0438\u0432\u043e\u0442\u0443\u0431\u0435\u0440\u043a\u0443\u043b\u0435\u0437\u043d\u043e\u0433\u043e \u0434\u0438\u0441\u043f\u0430\u043d\u0441\u0435\u0440\u0430 \u21161 \u0438\u043c. \u0421. \u0421\u0443\u043b\u0442\u0430\u043d\u043e\u0432\u0430", "operator": "QRDSM"}}, {"type": "node", "id": 8190977589, "lat": 42.4719237, "lon": 59.6232124, "tags": {"addr:city": "N\u00f3kis", "addr:country": "UZ", "addr:region": "Qaraqalpaqstan Respublikas\u0131", "amenity": "hospital", "healthcare": "hospital", "name:en": "Medical and labor expert commission of phthisiology No. 9 of the Republic of Karakalpakstan", "name:ru": "\u0412\u0440\u0430\u0447\u0435\u0431\u043d\u043e-\u0442\u0440\u0443\u0434\u043e\u0432\u044b\u0435 \u044d\u043a\u0441\u043f\u0435\u0440\u0442\u043d\u044b\u0435 \u043a\u043e\u043c\u0438\u0441\u0441\u0438\u044f \u0444\u0442\u0438\u0437\u0438\u0430\u0442\u0440\u0438\u0438 \u21169 \u0420\u0435\u0441\u043f\u0443\u0431\u043b\u0438\u043a\u0438 \u041a\u0430\u0440\u0430\u043a\u0430\u043b\u043f\u0430\u043a\u0441\u0442\u0430\u043d \u043f\u0440\u0438. \u041c\u0438\u043d. \u0437\u0434\u0440\u0430\u0432 \u0420\u0423\u0437.", "operator": "QRDSM"}}, {"type": "node", "id": 8190977590, "lat": 42.4716312, "lon": 59.6215909, "tags": {"addr:city": "N\u00f3kis", "addr:country": "UZ", "addr:region": "Qaraqalpaqstan Respublikas\u0131", "amenity": "hospital", "healthcare": "hospital", "name": "Xirurgiya b\u00f3limi", "name:en": "Tuberculosis Surgical Department", "name:ru": "\u0422\u0443\u0431\u0435\u0440\u043a\u0443\u043b\u0435\u0437\u043d\u043e\u0435 \u0445\u0438\u0440\u0443\u0440\u0433\u0438\u0447\u0435\u0441\u043a\u043e\u0435 \u043e\u0442\u0434\u0435\u043b\u0435\u043d\u0438\u0435", "operator": "QRDSM"}}, {"type": "node", "id": 8190977591, "lat": 42.4717034, "lon": 59.6221004, "tags": {"addr:city": "N\u00f3kis", "addr:country": "UZ", "addr:region": "Qaraqalpaqstan Respublikas\u0131", "amenity": "hospital", "healthcare": "hospital", "name": "Suyek tuberkulyoz\u0131 b\u00f3limi", "name:en": "Department of osteoarticular tuberculosis", "name:ru": "\u041e\u0442\u0434\u0435\u043b\u0435\u043d\u0438\u0435 \u043a\u043e\u0441\u0442\u043d\u043e-\u0441\u0443\u0441\u0442\u0430\u0432\u043d\u043e\u0433\u043e \u0442\u0443\u0431\u0435\u0440\u043a\u0443\u043b\u0435\u0437\u0430", "operator": "QRDSM"}}, {"type": "node", "id": 8190977592, "lat": 42.4724341, "lon": 59.6222246, "tags": {"addr:city": "N\u00f3kis", "addr:country": "UZ", "addr:region": "Qaraqalpaqstan Respublikas\u0131", "amenity": "hospital", "healthcare": "hospital", "name": "Terapiya b\u00f3limi", "name:en": "Department of therapy", "name:ru": "\u041e\u0442\u0434\u0435\u043b\u0435\u043d\u0438\u0435 \u0442\u0435\u0440\u0430\u043f\u0438\u0438", "operator": "QRDSM"}}, {"type": "node", "id": 8205841090, "lat": 42.4716433, "lon": 59.6230085, "tags": {"addr:city": "N\u00f3kis", "addr:country": "UZ", "addr:region": "Qaraqalpaqstan Respublikas\u0131", "amenity": "hospital", "healthcare": "hospital", "name": "DOTS regionall\u0131q oray\u0131", "name:en": "DOTS regional center", "name:ru": "\u0420\u0435\u0433\u0438\u043e\u043d\u0430\u043b\u044c\u043d\u044b\u0439 \u0446\u0435\u043d\u0442\u0440 \u0414\u041e\u0422\u0421", "operator": "QRDSM"}}, {"type": "node", "id": 8205943923, "lat": 42.4739498, "lon": 59.6203172, "tags": {"addr:city": "N\u00f3kis", "addr:country": "UZ", "addr:housenumber": "29", "addr:region": "Qaraqalpaqstan Respublikas\u0131", "addr:street": "M. Jumanazarov k\u00f3shesi", "amenity": "hospital", "healthcare": "hospital", "name:en": "Branch of the Republican specialized scientific and practical center of Oncology and radiology", "name:ru": "\u0420\u0435\u0441\u043f\u0443\u0431\u043b\u0438\u043a\u0430\u043d\u0441\u043a\u0438\u0439 \u0444\u0438\u043b\u0438\u0430\u043b \u0441\u043f\u0435\u0446\u0438\u0430\u043b\u0438\u0437\u0438\u0440\u043e\u0432\u0430\u043d\u043d\u044b\u0439 \u043d\u0430\u0443\u0447\u043d\u043e-\u043f\u0440\u0430\u043a\u0442\u0438\u0447\u0435\u0441\u043a\u0438\u0439 \u0446\u0435\u043d\u0442\u0440 \u043e\u043d\u043a\u043e\u043b\u043e\u0433\u0438\u0438 \u0438 \u0440\u0430\u0434\u0438\u043e\u043b\u043e\u0433\u0438\u0438", "operator": "QRDSM"}}, {"type": "node", "id": 8256886162, "lat": 42.9207335, "lon": 59.7787696, "tags": {"addr:country": "UZ", "addr:region": "Qaraqalpaqstan Respublikas\u0131", "amenity": "hospital", "healthcare": "hospital", "name": "Ko'ptarmaqli poliklinika", "name:en": "Multidisciplinary polyclinic", "name:ru": "\u041c\u043d\u043e\u0433\u043e\u043f\u0440\u043e\u0444\u0438\u043b\u044c\u043d\u0430\u044f \u043f\u043e\u043b\u0438\u043a\u043b\u0438\u043d\u0438\u043a\u0430"}}, {"type": "node", "id": 8595114086, "lat": 46.9716696, "lon": 51.7832685, "tags": {"addr:city": "\u0430\u0443\u043b \u0410\u0442\u044b\u0440\u0430\u0443", "addr:housenumber": "1\u0411", "addr:street": "\u041d\u044b\u0441\u0430\u043d\u0431\u0430\u0435\u0432\u0430", "amenity": "hospital", "healthcare": "hospital", "name": "\u0414\u0430\u043c\u0431\u0438\u043d\u0441\u043a\u0430\u044f \u0432\u0440\u0430\u0447\u0435\u0431\u043d\u0430\u044f \u0430\u043c\u0431\u0443\u043b\u0430\u0442\u043e\u0440\u0438\u044f", "phone": "+7 7122 247247", "vaccination": "covid19", "website": "https://dambava.kz"}}, {"type": "node", "id": 8595114091, "lat": 47.0249457, "lon": 51.81184, "tags": {"addr:city": "\u0415\u0440\u043a\u0438\u043d\u043a\u0430\u043b\u0430", "addr:housenumber": "28", "addr:street": "\u049a\u0438\u0434\u0430\u0441 \u041a\u04e9\u0448\u0435\u0440\u0431\u0430\u0435\u0432", "amenity": "hospital", "healthcare": "hospital", "name": "\u0415\u0440\u043a\u0438\u043d\u043a\u0430\u043b\u0438\u043d\u0441\u043a\u0430\u044f \u0432\u0440\u0430\u0447\u0435\u0431\u043d\u0430\u044f \u0430\u043c\u0431\u0443\u043b\u0430\u0442\u043e\u0440\u0438\u044f", "phone": "+7 7122 233028", "vaccination": "covid19", "website": "https://erkin-ambul.kz/"}}, {"type": "node", "id": 8595205126, "lat": 47.1177652, "lon": 51.942137, "tags": {"addr:housenumber": "35", "addr:street": "\u043c\u0438\u043a\u0440\u043e\u0440\u0430\u0439\u043e\u043d \u0410\u043b\u043c\u0430\u0433\u0443\u043b", "amenity": "hospital", "healthcare": "hospital", "name": "\u0410\u0442\u044b\u0440\u0430\u0443\u0441\u043a\u0430\u044f \u0433\u043e\u0440\u043e\u0434\u0441\u043a\u0430\u044f \u043f\u043e\u043b\u0438\u043a\u043b\u0438\u043d\u0438\u043a\u0430 \u21167", "phone": "+7 7122 205346", "vaccination": "covid19"}}, {"type": "node", "id": 8595205127, "lat": 47.1306081, "lon": 51.9496938, "tags": {"addr:city": "\u0410\u0442\u044b\u0440\u0430\u0443", "addr:housenumber": "39", "addr:street": "\u0443\u043b\u0438\u0446\u0430 \u041c\u0443\u0441\u044b \u0411\u0430\u0439\u043c\u0443\u0445\u0430\u043d\u043e\u0432\u0430", "amenity": "hospital", "healthcare": "hospital", "name": "\u0410\u0442\u044b\u0440\u0430\u0443\u0441\u043a\u0430\u044f \u0433\u043e\u0440\u043e\u0434\u0441\u043a\u0430\u044f \u043f\u043e\u043b\u0438\u043a\u043b\u0438\u043d\u0438\u043a\u0430 \u2116 3", "phone": "+7 7122 36-06-17", "vaccination": "covid19", "website": "https://www.gor-pol3.kz"}}, {"type": "node", "id": 9808373210, "lat": 43.1039074, "lon": 58.3794102, "tags": {"addr:country": "UZ", "addr:region": "Qaraqalpaqstan Respublikas\u0131", "amenity": "hospital", "healthcare": "hospital", "name": "Elabad poliklinika", "name:ru": "\u0421\u0412\u041f \u0415\u043b\u0430\u0431\u0430\u0434"}}, {"type": "node", "id": 9845163287, "lat": 40.535586, "lon": 50.0971144, "tags": {"amenity": "hospital", "name": "Gindes ad\u0131na U\u015faq S\u00fcm\u00fck V\u0259r\u0259m Sanatoriyas\u0131"}}, {"type": "node", "id": 9934344684, "lat": 40.3801367, "lon": 50.0734627, "tags": {"amenity": "hospital", "healthcare": "hospital", "name": "X\u0259st\u0259xana"}}, {"type": "node", "id": 9993415559, "lat": 40.367581, "lon": 50.2119291, "tags": {"amenity": "hospital", "name": "Poliklinika 17 \\ T\u00fcrkan"}}, {"type": "node", "id": 9993415591, "lat": 40.3663579, "lon": 50.2048883, "tags": {"amenity": "hospital", "name": "Poliklinika \\ T\u00fcrkan"}}, {"type": "node", "id": 10002852499, "lat": 40.3594399, "lon": 50.0782692, "tags": {"amenity": "hospital", "healthcare": "hospital", "name": "11 sayl\u0131 T\u0259cili Yard\u0131m \\ H\u00f6vsan"}}, {"type": "node", "id": 10043414608, "lat": 40.4211539, "lon": 50.0018075, "tags": {"amenity": "hospital", "healthcare": "hospital", "name": "3 sayl\u0131 Qad\u0131n M\u0259sl\u0259h\u0259txanas\u0131 \\ Suraxan\u0131"}}, {"type": "node", "id": 10054239426, "lat": 40.4143997, "lon": 50.0061097, "tags": {"amenity": "hospital", "healthcare": "hospital", "name": "Gigiyena v\u0259 Epidemiologiya \\ Suraxan\u0131"}}, {"type": "node", "id": 10131209296, "lat": 40.4758195, "lon": 50.0141054, "tags": {"addr:city": "\u015eu\u015fa Q\u0259s\u0259b\u0259si \\ Ramana", "amenity": "hospital", "name": "X\u0259st\u0259xana"}}, {"type": "node", "id": 10556343658, "lat": 43.7839228, "lon": 59.0311874, "tags": {"addr:country": "UZ", "addr:region": "Qaraqalpaqstan Respublikas\u0131", "amenity": "hospital", "healthcare": "hospital", "name:en": "Sanitary-epidemiological station", "name:ru": "\u0421\u0430\u043d\u0438\u0442\u0430\u0440\u043d\u043e-\u044d\u043f\u0438\u0434\u0435\u043c\u0438\u043e\u043b\u043e\u0433\u0438\u0447\u0435\u0441\u043a\u0430\u044f \u0441\u0442\u0430\u043d\u0446\u0438\u044f"}}, {"type": "node", "id": 10565608085, "lat": 40.5405678, "lon": 50.0075421, "tags": {"addr:city": "Ma\u015fta\u011fa", "amenity": "hospital", "name": "M\u0259xk\u0259m\u0259 Psixiatrik Ekspertizas\u0131 \\ Ma\u015fta\u011fa"}}, {"type": "node", "id": 10570195052, "lat": 47.0917173, "lon": 51.8724461, "tags": {"addr:city": "\u0410\u0442\u044b\u0440\u0430\u0443", "addr:housenumber": "98", "addr:postcode": "060000", "addr:street": "\u0443\u043b\u0438\u0446\u0430 \u0412\u043b\u0430\u0434\u0438\u043c\u0438\u0440\u0441\u043a\u043e\u0433\u043e", "amenity": "hospital", "healthcare": "hospital", "name": "\u0410\u0442\u044b\u0440\u0430\u0443\u0441\u043a\u0430\u044f \u043e\u0431\u043b\u0430\u0441\u0442\u043d\u0430\u044f \u0431\u043e\u043b\u044c\u043d\u0438\u0446\u0430", "phone": "+7 (7122) 28 10 01", "website": "https://ohospital.kz/ru/"}}, {"type": "node", "id": 10580035913, "lat": 40.565054, "lon": 50.0330633, "tags": {"amenity": "hospital", "name": "M\u00fcharib\u0259 v\u0259 \u018fm\u0259k \u018flill\u0259ri Pansionat\u0131 \\ Bilg\u0259h"}}, {"type": "node", "id": 10580035914, "lat": 40.5646158, "lon": 50.033597, "tags": {"amenity": "hospital", "name": "Qocalar Evi \\ Bilg\u0259h", "social_facility": "nursing_home"}}, {"type": "node", "id": 10580042057, "lat": 40.5640209, "lon": 50.0286403, "tags": {"amenity": "hospital", "name": "Modul Tipli X\u0259st\u0259xana \\ Bilg\u0259h"}}, {"type": "node", "id": 10604962449, "lat": 40.5776919, "lon": 50.0419038, "tags": {"addr:city": "Bilg\u0259h", "amenity": "hospital", "name": "G\u0259nc Geoloqlar D\u00fc\u015f\u0259rg\u0259si \\ Bilg\u0259h"}}, {"type": "node", "id": 10606948284, "lat": 40.5202416, "lon": 50.1066631, "tags": {"amenity": "hospital", "name": "7 sayl\u0131 V\u0259r\u0259m A\u011fciy\u0259r Dispanseri \\ Buzovna"}}, {"type": "node", "id": 10613525520, "lat": 42.4485366, "lon": 59.6447729, "tags": {"addr:city": "N\u00f3kis", "addr:country": "UZ", "addr:postcode": "230100", "addr:region": "Qaraqalpaqstan Respublikas\u0131", "amenity": "hospital", "healthcare": "hospital", "healthcare:speciality": "surgery", "name": "V. Vaxidov at\u0131nda\u01f5\u0131 q\u00e1niygelestirilgen xirurgiya oray\u0131 Qaraqalpaqstan b\u00f3limi", "name:en": "Karakalpak branch specialized center of surgery named after Ak. V. Vakhidova", "name:ru": "\u041a\u0430\u0440\u0430\u043a\u0430\u043b\u043f\u0430\u043a\u0441\u0438\u043a\u0439 \u0444\u0438\u043b\u0438\u0430\u043b \u0441\u043f\u0435\u0446\u0438\u0430\u043b\u0438\u0437\u0438\u0440\u043e\u0432\u0430\u043d\u043d\u044b\u0439 \u0446\u0435\u043d\u0442\u0440 \u0445\u0438\u0440\u0443\u0440\u0433\u0438\u0438 \u0438\u043c. \u0410\u043a. \u0412. \u0412\u0430\u0445\u0438\u0434\u043e\u0432\u0430", "operator": "QRDSM", "operator:type": "government", "phone": "+998612232941"}}, {"type": "node", "id": 10655847863, "lat": 40.5325017, "lon": 50.1031306, "tags": {"amenity": "hospital", "name": "9 sayl\u0131 Ruhi \u018fs\u0259bi \u018flil v\u0259 Qocalar Evi / Buzovna"}}, {"type": "node", "id": 10684179760, "lat": 40.4919594, "lon": 50.1476888, "tags": {"amenity": "hospital", "name": "2 sayl\u0131 V\u0259r\u0259m Sanatoriyas\u0131 \\ M\u0259rd\u0259kan"}}, {"type": "node", "id": 10684179762, "lat": 40.4936351, "lon": 50.1474032, "tags": {"amenity": "hospital", "name": "6 sayl\u0131 A\u011f Ciy\u0259r X\u0259st\u0259xanas\u0131 \\ M\u0259rd\u0259kan"}}, {"type": "node", "id": 10686546714, "lat": 40.4913944, "lon": 50.1442489, "tags": {"amenity": "hospital", "name": "Qaranqu\u015f Uroloji Sanatoriya \\ M\u0259rd\u0259kan"}}, {"type": "node", "id": 10686628000, "lat": 40.4911985, "lon": 50.153752, "tags": {"addr:city": "M\u0259rd\u0259kan", "amenity": "hospital", "name": "Tibbi Ekspertiza \\ M\u0259rd\u0259kan"}}, {"type": "node", "id": 10686641234, "lat": 40.4877807, "lon": 50.154393, "tags": {"amenity": "hospital", "name": "K\u0259bir\u0259 M\u0259rk\u0259zi Klinik X\u0259st\u0259xana \\ M\u0259rd\u0259kan Filial\u0131"}}, {"type": "node", "id": 10686641310, "lat": 40.4892005, "lon": 50.1502409, "tags": {"amenity": "hospital", "name": "10 sayl\u0131 T\u0259cili Yard\u0131m \\ M\u0259rd\u0259kan"}}, {"type": "node", "id": 10707684907, "lat": 40.4829928, "lon": 50.1540658, "tags": {"amenity": "hospital", "name": "Neft Emal\u0131 Zavodunun \u0130stirah\u0259t Zonas\u0131 \\ M\u0259rd\u0259kan"}}, {"type": "node", "id": 10707685638, "lat": 40.4802447, "lon": 50.1583788, "tags": {"amenity": "hospital", "name": "Reabilitasiya M\u0259rk\u0259zi \\ M\u0259rd\u0259kan"}}, {"type": "node", "id": 10722275173, "lat": 40.490659, "lon": 50.169923, "tags": {"addr:city": "\u015e\u00fcv\u0259lan", "addr:street": "Sabir k\u00fc\u00e7.", "amenity": "hospital", "name": "5 sayl\u0131 U\u015faq V\u0259r\u0259m Sanatoriyas\u0131 \\ \u015e\u00fcv\u0259lan"}}, {"type": "node", "id": 10726723437, "lat": 40.4899206, "lon": 50.1675412, "tags": {"amenity": "hospital", "name": "5 sayl\u0131 U\u015faq V\u0259r\u0259m Sanatoriya \\ M\u0259rd\u0259kan"}}, {"type": "node", "id": 10726723440, "lat": 40.4887782, "lon": 50.1667044, "tags": {"amenity": "hospital", "name": "G\u00fcn\u0259\u015fli Nevroloji Sanatoriya \\ M\u0259rd\u0259kan"}}, {"type": "node", "id": 10726723448, "lat": 40.4905591, "lon": 50.1650119, "tags": {"amenity": "hospital", "name": "Ab\u015feron M\u0259d\u0259 Ba\u011f\u0131rsan Sanatoriyas\u0131 \\ M\u0259rd\u0259kan"}}, {"type": "node", "id": 10728419659, "lat": 40.4883988, "lon": 50.1523975, "tags": {"addr:city": "M\u0259rd\u0259kan", "amenity": "hospital", "name": "3 sayl\u0131 U\u015faq V\u0259r\u0259m Sanatoriyas\u0131 \\ M\u0259rd\u0259kan"}}, {"type": "node", "id": 10728419676, "lat": 40.4888761, "lon": 50.1524833, "tags": {"amenity": "hospital", "name": "Gigiyena Epidemiologiya \\ M\u0259rd\u0259kan"}}, {"type": "node", "id": 10731572280, "lat": 40.4974228, "lon": 50.1349658, "tags": {"amenity": "hospital", "name": "\u018flil Veteranlar\u0131n Pansionat\u0131 \\ \u015ea\u011fan"}}, {"type": "node", "id": 10735847679, "lat": 40.4909537, "lon": 50.1500693, "tags": {"amenity": "hospital", "name": "H\u0259rbi \u0130stirah\u0259t Evi \\ M\u0259rd\u0259kan"}}, {"type": "node", "id": 10751407776, "lat": 40.5279197, "lon": 50.1043873, "tags": {"addr:city": "Buzovna", "addr:street": "Ruhulla Axundov k\u00fc\u00e7.", "amenity": "hospital", "name": "14 sayl\u0131 X\u0259st\u0259xanas\u0131 \\ Buzovna", "phone": "(+994 12) 453-21-77, (+994 12) 453-25-74, (+994 12) 453-28-85"}}, {"type": "node", "id": 10751433470, "lat": 40.5311315, "lon": 50.1036496, "tags": {"amenity": "hospital", "name": "Dal\u011fa Sahil Sanatoriyas\u0131 \\ Buzovna"}}, {"type": "node", "id": 10751630988, "lat": 40.3622461, "lon": 50.2331534, "tags": {"amenity": "hospital", "name": "1 sayl\u0131 A\u011f Ciy\u0259r Sanatoriyas\u0131 \\ T\u00fcrkan"}}, {"type": "node", "id": 10837877896, "lat": 40.419702, "lon": 50.0078358, "tags": {"amenity": "hospital", "healthcare": "hospital", "name": "Suraxan\u0131 Tibbi B\u0259rpa M\u0259rk\u0259zi"}}, {"type": "way", "id": 126488682, "center": {"lat": 47.1041193, "lon": 51.9217625}, "nodes": [1402088374, 7159314272, 1402088379, 10829819913, 10829819914, 1402088306, 10829819916, 10829819915, 10829819917, 10829819918, 6777886638, 6777886640, 6777886644, 6777886645, 6777886646, 6777886643, 6777886641, 6777886642, 6777886639, 6777886637, 1402088303, 1402088327, 10829819919, 1402088329, 1402088325, 1402088326, 1402088364, 7159314271, 10829819920, 1402088362, 1402088374], "tags": {"addr:housenumber": "14", "addr:street": "\u0443\u043b\u0438\u0446\u0430 \u041a\u0430\u0439\u044b\u0440\u0433\u0430\u043b\u0438 \u0421\u043c\u0430\u0433\u0443\u043b\u043e\u0432\u0430", "amenity": "hospital", "building": "yes", "building:levels": "3", "healthcare": "hospital", "name": "\u0410\u0442\u044b\u0440\u0430\u0443 \u043e\u0431\u043b\u044b\u0441\u0442\u044b\u049b \u043a\u0430\u0440\u0434\u0438\u043e\u043b\u043e\u0433\u0438\u044f\u043b\u044b\u049b \u043e\u0440\u0442\u0430\u043b\u044b\u0493\u044b", "name:en": "Atyrau regional cardiology center", "name:kk": "\u0410\u0442\u044b\u0440\u0430\u0443 \u043e\u0431\u043b\u044b\u0441\u0442\u044b\u049b \u043a\u0430\u0440\u0434\u0438\u043e\u043b\u043e\u0433\u0438\u044f\u043b\u044b\u049b \u043e\u0440\u0442\u0430\u043b\u044b\u0493\u044b", "name:ru": "\u0410\u0442\u044b\u0440\u0430\u0443\u0441\u043a\u0438\u0439 \u043e\u0431\u043b\u0430\u0441\u0442\u043d\u043e\u0439 \u043a\u0430\u0440\u0434\u0438\u043e\u043b\u043e\u0433\u0438\u0447\u0435\u0441\u043a\u0438\u0439 \u0446\u0435\u043d\u0442\u0440", "roof:colour": "#45322E", "roof:shape": "gabled"}}, {"type": "way", "id": 130536291, "center": {"lat": 47.1622741, "lon": 51.8311079}, "nodes": [1437394964, 1437394961, 1437394818, 1437394828, 1437394964], "tags": {"amenity": "hospital", "barrier": "fence", "healthcare": "hospital", "name": "\u0422\u0443\u0431\u0435\u0440\u043a\u0443\u043b\u0435\u0437\u043d\u0430\u044f \u0431\u043e\u043b\u044c\u043d\u0438\u0446\u0430"}}, {"type": "way", "id": 130536307, "center": {"lat": 47.1591328, "lon": 51.8347608}, "nodes": [1437394775, 1437394752, 1437394753, 1437394776, 1437394775], "tags": {"amenity": "hospital", "barrier": "fence", "healthcare": "hospital"}}, {"type": "way", "id": 130536316, "center": {"lat": 47.1607775, "lon": 51.8338408}, "nodes": [1437394823, 1437394820, 7164859165, 1437394781, 1437394823], "tags": {"addr:street": "\u0427\u0451\u0440\u043d\u0430\u044f \u0440\u0435\u0447\u043a\u0430", "amenity": "hospital", "barrier": "fence", "healthcare": "hospital", "name": "\u041e\u0431\u043b\u0430\u0441\u0442\u043d\u043e\u0439 \u043f\u0440\u043e\u0442\u0438\u0432\u043e\u0442\u0443\u0431\u0435\u0440\u043a\u0443\u043b\u0435\u0437\u043d\u044b\u0439 \u0434\u0438\u0441\u043f\u0430\u043d\u0441\u0435\u0440", "website": "https://atyrau-opd.kz/"}}, {"type": "way", "id": 130656038, "center": {"lat": 47.1327125, "lon": 51.9470307}, "nodes": [1438348492, 1438348459, 1438348398, 1438348441, 1438348492], "tags": {"amenity": "hospital", "barrier": "fence", "healthcare": "hospital", "name": "\u0416\u0435\u043b\u0435\u0437\u043d\u043e\u0434\u043e\u0440\u043e\u0436\u043d\u0430\u044f \u0431\u043e\u043b\u044c\u043d\u0438\u0446\u0430"}}, {"type": "way", "id": 271428051, "center": {"lat": 40.57962, "lon": 50.0629866}, "nodes": [2763813607, 3905956509, 3905956505, 3905956499, 3905956508, 3905956518, 3905956526, 3905956530, 3905956524, 9847051698, 9847051715, 3905956491, 2763813569, 9847051714, 2537641085, 2763813523, 2763813502, 2537641028, 3905956453, 2763813451, 3905956459, 2763813482, 3905956473, 2763813525, 3616659750, 10587566118, 2763813590, 2763813600, 2763813607], "tags": {"amenity": "hospital", "name": "Kardioloji Sanatoriya \\ Bilg\u0259h", "name:az": "Kardioloji Sanatoriya Bilg\u0259h", "name:en": "Cardiological Sanatorium Bilgah", "tourism": "camp_site"}}, {"type": "way", "id": 287057459, "center": {"lat": 49.2090015, "lon": 50.280866}, "nodes": [2907218502, 2907214400, 2907214381, 2907214382, 2907218502], "tags": {"amenity": "hospital", "barrier": "fence", "name": "\u0421\u0430\u043d\u0430\u0442\u043e\u0440\u0438\u0439", "name:kk": "\u0410\u0443\u0434\u0430\u043d\u0430\u0440\u0430\u043b\u044b\u049b \u0441\u0430\u0443\u044b\u049b\u0442\u044b\u0440\u0443 \u0430\u0443\u0440\u0443\u0445\u0430\u043d\u0430\u0441\u044b \u043e\u04a3\u0430\u043b\u0442\u0443 \u043e\u0440\u0442\u0430\u043b\u044b\u0493\u044b"}}, {"type": "way", "id": 287683332, "center": {"lat": 40.3653551, "lon": 50.2829425}, "nodes": [2912535722, 2912535707, 2912535708, 9986559399, 2912535723, 2912535722], "tags": {"amenity": "hospital"}}, {"type": "way", "id": 299983095, "center": {"lat": 47.1199884, "lon": 51.878102}, "nodes": [3040946736, 7123771723, 7123771722, 7123771721, 3046203771, 3040946740, 3040946739, 3040946738, 7123771724, 3040946737, 3046203770, 7123771720, 3040946736], "tags": {"amenity": "hospital", "barrier": "fence", "healthcare": "hospital", "name": "\u041e\u0431\u043b\u0430\u0441\u0442\u043d\u0430\u044f \u0431\u043e\u043b\u044c\u043d\u0438\u0446\u0430 \u21162"}}, {"type": "way", "id": 312125801, "center": {"lat": 40.5432452, "lon": 50.0075848}, "nodes": [3179604962, 3910191641, 3179604964, 3179604963, 3179604860, 3910191639, 3910191640, 3179604961, 10565416381, 3179605031, 3179605032, 10566103938, 10566103937, 3179605043, 3179605042, 10565614401, 3179605066, 10565614400, 10565614399, 10565614398, 10565614397, 3179605063, 3179605030, 3910191647, 3179605029, 3179605024, 3179605020, 3910191646, 3179604974, 3910191645, 3910191642, 3910191643, 3179604962], "tags": {"alt_name": "Ruhi x\u0259st\u0259xana", "amenity": "hospital", "name": "1 sayl\u0131 Psixiatriya X\u0259st\u0259xana \\ Ma\u015fta\u011fa"}}, {"type": "way", "id": 313129424, "center": {"lat": 40.5636769, "lon": 50.0291963}, "nodes": [3190407847, 3190407846, 10580042051, 3190407849, 10580042055, 10580042056, 10580042053, 10580042054, 10580042052, 3190407848, 3190407845, 3190407841, 3190407840, 3190407839, 3190407842, 3190407843, 3190407844, 3190407847], "tags": {"addr:housenumber": "21", "addr:street": "Hac\u0131a\u011fa", "amenity": "hospital", "name": "28 sayl\u0131 X\u0259st\u0259xana \\ Bilg\u0259h", "phone": "(+994 12) 455-68-91"}}, {"type": "way", "id": 313874243, "center": {"lat": 40.5315491, "lon": 50.103612}, "nodes": [3199152844, 3199152842, 3199138930, 3199152843, 3199152850, 9842710886, 3199152844], "tags": {"amenity": "hospital", "barrier": "fence"}}, {"type": "way", "id": 313878762, "center": {"lat": 40.5327097, "lon": 50.1034152}, "nodes": [3199199666, 3199199665, 3199199670, 3199199667, 3199199662, 3199199660, 3199199656, 3199199658, 3199199650, 3199199654, 3199199659, 3199199664, 3199199643, 3199199645, 3199199676, 3199199674, 3199199668, 3199199663, 3199199669, 3199199671, 3199199686, 3199199684, 3199199666], "tags": {"amenity": "hospital", "building": "yes", "building:levels": "4", "name": "9 sayl\u0131 Ruhi \u018fs\u0259bi \u018flil v\u0259 Qocalar Evi \\ Buzovna"}}, {"type": "way", "id": 316980103, "center": {"lat": 40.4878657, "lon": 50.1504683}, "nodes": [3231737234, 3231737239, 3231737243, 3231737240, 3231737244, 10728419658, 10728419657, 3231737235, 10728419656, 3231737238, 10728419655, 3231737236, 10728419667, 3231737228, 10728419665, 10728419664, 3231737223, 3231737219, 10728419666, 3231737222, 3231737221, 3231737226, 3231737224, 3231737227, 3231737225, 3231737229, 3231737234], "tags": {"amenity": "hospital", "barrier": "fence", "leisure": "resort"}}, {"type": "way", "id": 317308815, "center": {"lat": 48.4415788, "lon": 57.4325156}, "nodes": [3235464956, 3235464959, 3235464958, 3235464957, 3235464956], "tags": {"amenity": "hospital", "building": "yes"}}, {"type": "way", "id": 319705967, "center": {"lat": 47.823247, "lon": 59.616578}, "nodes": [3261646309, 3261646310, 3261646311, 3262741073, 3262745271, 3262745153, 3262745272, 3262745273, 3262745155, 3262745274, 3262741072, 3261646312, 3261646313, 3261646314, 3262745275, 3262745264, 3261646315, 3261646316, 3261646309], "tags": {"amenity": "hospital", "area": "yes", "emergency": "yes"}}, {"type": "way", "id": 329470826, "center": {"lat": 48.5491423, "lon": 51.7328326}, "nodes": [3363439707, 3363439697, 9015628734, 9015628733, 3363439722, 3363439719, 3363439707], "tags": {"amenity": "hospital", "barrier": "fence", "healthcare": "hospital"}}, {"type": "way", "id": 329475092, "center": {"lat": 49.2132486, "lon": 50.2834488}, "nodes": [3363486460, 3363486457, 4561365839, 4561365838, 3363486460], "tags": {"amenity": "hospital", "barrier": "fence", "name": "\u0416\u0430\u043d\u0433\u0430\u043b\u0438\u043d\u0441\u043a\u0430\u044f \u0426\u0420\u0411"}}, {"type": "way", "id": 330747055, "center": {"lat": 46.3043714, "lon": 53.4430303}, "nodes": [3377444680, 3377443490, 3377444605, 3377444681, 8664577839, 8664577842, 8664577841, 8664577840, 3377444680], "tags": {"amenity": "hospital", "building": "yes", "emergency": "yes", "name": "ERT Station"}}, {"type": "way", "id": 334668484, "center": {"lat": 47.0906251, "lon": 51.8772611}, "nodes": [3417285595, 9046521717, 3417257799, 3417290402, 3417290393, 3417280907, 6720352581, 3417290319, 3417287281, 3417290301, 3417285595], "tags": {"amenity": "hospital", "barrier": "fence", "healthcare": "hospital", "name": "\u0414\u0435\u0442\u0441\u043a\u0430\u044f \u0431\u043e\u043b\u044c\u043d\u0438\u0446\u0430"}}, {"type": "way", "id": 334668486, "center": {"lat": 47.0912901, "lon": 51.8719985}, "nodes": [3417290334, 3417290317, 3417290398, 3417290407, 3417290413, 3417290411, 3417290414, 3417290418, 3417290428, 3417290405, 9046470197, 9046470196, 3417290404, 3417290377, 9046470207, 3417290336, 3417290334], "tags": {"amenity": "hospital", "barrier": "fence", "healthcare": "hospital", "name": "\u0410\u0442\u044b\u0440\u0430\u0443\u0441\u043a\u0430\u044f \u043e\u0431\u043b\u0430\u0441\u0442\u043d\u0430\u044f \u0431\u043e\u043b\u044c\u043d\u0438\u0446\u0430"}}, {"type": "way", "id": 334733664, "center": {"lat": 47.0790704, "lon": 51.88117}, "nodes": [3418047639, 3418047457, 6813283766, 3418047461, 10932346482, 10932346481, 3418047642, 3418047640, 3418047641, 3418047639], "tags": {"amenity": "hospital", "barrier": "fence", "healthcare": "hospital"}}, {"type": "way", "id": 335575388, "center": {"lat": 43.6318989, "lon": 51.1875145}, "nodes": [3426732283, 3426733193, 3426732290, 3426732289, 3426732285, 3426732288, 3426732287, 3426732280, 3426732283], "tags": {"addr:housenumber": "9/7", "addr:street": "\u043c\u0438\u043a\u0440\u043e\u0440\u0430\u0439\u043e\u043d 1\u0430", "amenity": "hospital", "building": "yes", "name": "\u041e\u0431\u043b\u0430\u0441\u0442\u043d\u043e\u0439 \u043f\u0440\u043e\u0442\u0438\u0432\u043e\u0442\u0443\u0431\u0435\u0440\u043a\u0443\u043b\u0435\u0437\u043d\u044b\u0439 \u0434\u0438\u0441\u043f\u0430\u043d\u0441\u0435\u0440"}}, {"type": "way", "id": 364753854, "center": {"lat": 42.4584555, "lon": 59.6196504}, "nodes": [3688003126, 4682076159, 6684966705, 10017997985, 3688003130, 3688003131, 7847930983, 10017997993, 10017997990, 9540210560, 7847930984, 3688003136, 4682076150, 4682076151, 10017997997, 5201460216, 3688003129, 3688003128, 3688003127, 6917970480, 4682076156, 3688003126], "tags": {"addr:city": "N\u00f3kis", "addr:country": "UZ", "addr:housenumber": "83 \u0410", "addr:region": "Qaraqalpaqstan Respublikas\u0131", "addr:street": "Ay\u0131mxan Shamuratova k\u00f3shesi", "alt_name:ru": "\u0420\u0435\u0441 \u0434\u0435\u0442\u0441\u043a\u0438\u0439 \u0431\u043e\u043b\u044c\u043d\u0438\u0446\u0430", "amenity": "hospital", "healthcare": "hospital", "name": "Respublikal\u0131q k\u00f3p tarmaql\u0131 balalar medecina oray\u0131", "name:en": "Republican Children's Multidisciplinary Medical Center", "name:ru": "\u0420\u0435\u0441\u043f\u0443\u0431\u043b\u0438\u043a\u0430\u043d\u0441\u043a\u0438\u0439 \u0434\u0435\u0442\u0441\u043a\u0438\u0439 \u043c\u043d\u043e\u0433\u043e\u043f\u0440\u043e\u0444\u0438\u043b\u044c\u043d\u044b\u0439 \u043c\u0435\u0434\u0438\u0446\u0438\u043d\u0441\u043a\u0438\u0439 \u0446\u0435\u043d\u0442\u0440", "operator": "QRDSM", "phone": "+998612228694"}}, {"type": "way", "id": 365853569, "center": {"lat": 42.4895788, "lon": 59.5988852}, "nodes": [9329883660, 8443130820, 9329883659, 3698565487, 3698565485, 9329883639, 9329883640, 3698565486, 6697694798, 9329883667, 3698565489, 9329883666, 9329883665, 3698565497, 9762259051, 3698565496, 3698565495, 3698565494, 9329883657, 9329883655, 9329883653, 9329883656, 9329883658, 9329883660], "tags": {"addr:city": "N\u00f3kis", "addr:country": "UZ", "addr:housenumber": "33", "addr:region": "Qaraqalpaqstan Respublikas\u0131", "addr:street": "Q. Ay\u0131mbetov k\u00f3shesi", "amenity": "hospital", "healthcare": "hospital", "healthcare:speciality": "infectious_diseases", "name": "Respublikal\u0131q balalar juqpal\u0131 kesellikler emlewxanas\u0131", "name:en": "Republican Children's Infectious Diseases Hospital", "name:ru": "\u0420\u0435\u0441\u043f\u0443\u0431\u043b\u0438\u043a\u0430\u043d\u0441\u043a\u0430\u044f \u0434\u0435\u0442\u0441\u043a\u0430\u044f \u0438\u043d\u0444\u0435\u043a\u0446\u0438\u043e\u043d\u043d\u0430\u044f \u0431\u043e\u043b\u044c\u043d\u0438\u0446\u0430", "operator": "QRDSM", "operator:type": "government", "phone": "+998612243627"}}, {"type": "way", "id": 366090217, "center": {"lat": 45.323829, "lon": 55.1832761}, "nodes": [3700785142, 3700785143, 3700785144, 3700785145, 3700785146, 3700785147, 3700785148, 3700785149, 7276673838, 3700785150, 3700785151, 3700785152, 3700785153, 3700785142], "tags": {"amenity": "hospital", "healthcare": "hospital"}}, {"type": "way", "id": 366124398, "center": {"lat": 42.4544181, "lon": 59.5872247}, "nodes": [3701118975, 4149296289, 4746279311, 4746283658, 4746279298, 4746279301, 4746279302, 4746279305, 3701118974, 3701118962, 3701118958, 3701118959, 10146508118, 4746283267, 4746283262, 4746283273, 4746283268, 4746283279, 4746283274, 4505545024, 4746283656, 3701118975], "tags": {"addr:city": "N\u00f3kis", "addr:country": "UZ", "addr:region": "Qaraqalpaqstan Respublikas\u0131", "amenity": "hospital", "barrier": "fence", "emergency": "yes", "healthcare": "hospital", "name": "Respublikal\u0131q tuw\u0131w \u00fayi", "name:en": "Republican Maternity Hospital", "name:ru": "\u0420\u0435\u0441\u043f\u0443\u0431\u043b\u0438\u043a\u0430\u043d\u0441\u043a\u0438\u0439 \u0440\u043e\u0434\u0438\u043b\u044c\u043d\u044b\u0439 \u0434\u043e\u043c", "operator": "QRDSM", "operator:type": "government"}}, {"type": "way", "id": 366425401, "center": {"lat": 42.467799, "lon": 59.6204817}, "nodes": [4594504573, 4607912861, 4607912856, 4753207166, 4753207165, 4753207161, 4594504571, 10220020625, 10220020626, 10220020624, 3830362390, 6697694619, 3704089077, 4607930916, 4607930915, 3704089076, 10035546687, 10035546686, 3704089072, 3704089070, 3704089073, 4607930921, 3704089071, 4607930925, 4607930923, 4607930924, 10035546700, 10035546696, 6942547682, 4594504573], "tags": {"addr:city": "N\u00f3kis", "addr:country": "UZ", "addr:housenumber": "100 \u0410", "addr:postcode": "230100", "addr:region": "Qaraqalpaqstan Respublikas\u0131", "addr:street": "Allayar Dosnazarov ko'shesi", "alt_name": "Ekstrenniy", "alt_name:ru": "\u042d\u043a\u0441\u0442\u0440\u0435\u043d\u043d\u044b\u0439", "amenity": "hospital", "emergency": "yes", "healthcare": "hospital", "name": "Respublika q\u0131stawl\u0131 medicinal\u0131q j\u00e1rdem ilimiy oray\u0131 Qaraqalpaqstan filial\u0131", "name:en": "Republican Scientific Center for Emergency Medical Aid", "name:ru": "\u0420\u0435\u0441\u043f\u0443\u0431\u043b\u0438\u043a\u0430\u043d\u0441\u043a\u0438\u0439 \u043d\u0430\u0443\u0447\u043d\u044b\u0439 \u0446\u0435\u043d\u0442\u0440 \u044d\u043a\u0441\u0442\u0440\u0435\u043d\u043d\u043e\u0439 \u043c\u0435\u0434\u0438\u0446\u0438\u043d\u0441\u043a\u043e\u0439 \u043f\u043e\u043c\u043e\u0449\u0438", "opening_hours": "24/7", "operator": "QRDSM", "phone": "+998612229379"}}, {"type": "way", "id": 366826038, "center": {"lat": 42.4617245, "lon": 59.6402175}, "nodes": [3708019830, 9215797597, 5144431922, 9853145425, 4680399293, 4411424684, 4411425128, 4411424683, 6553661218, 6553661217, 9204147033, 3708019832, 10005695027, 10005684811, 3708019830], "tags": {"addr:city": "N\u00f3kis", "addr:country": "UZ", "addr:region": "Qaraqalpaqstan Respublikas\u0131", "amenity": "hospital", "healthcare": "hospital", "name": "Endokrinologiya dispanseri", "name:en": "Endocrinological dispensary", "name:ru": "\u042d\u043d\u0434\u043e\u043a\u0440\u0438\u043d\u043e\u043b\u043e\u0433\u0438\u0447\u0435\u0441\u043a\u0430\u044f \u0434\u0438\u0441\u043f\u0430\u043d\u0441\u0435\u0440", "official_name:ru": "\u041a\u0430\u0440\u0430\u043a\u0430\u043b\u043f\u0430\u043a\u0441\u043a\u0438\u0439 \u0444\u0438\u043b\u0438\u0430\u043b \u0420\u0435\u0441\u043f\u0443\u0431\u043b\u0438\u043a\u0430\u043d\u0441\u043a\u043e\u0433\u043e \u043d\u0430\u0443\u0447\u043d\u043e-\u043f\u0440\u0430\u043a\u0442\u0438\u0447\u0435\u0441\u043a\u043e\u0433\u043e \u043c\u0435\u0434\u0438\u0446\u0438\u043d\u0441\u043a\u043e\u0433\u043e \u0446\u0435\u043d\u0442\u0440\u0430 \u0441\u043f\u0435\u0446\u0438\u0430\u043b\u0438\u0437\u0438\u0440\u043e\u0432\u0430\u043d\u043d\u043e\u0439 \u044d\u043d\u0434\u043e\u043a\u0440\u0438\u043d\u043e\u043b\u043e\u0433\u0438\u0438 \u0438\u043c\u0435\u043d\u0438 \u0430\u043a\u0430\u0434\u0435\u043c\u0438\u043a\u0430 \u042e.\u0425. \u0422\u0443\u0440\u0430\u043a\u0443\u043b\u043e\u0432\u0430", "operator": "QRDSM", "operator:type": "government", "phone": "+998612261464", "website": "https://resendork.uz/"}}, {"type": "way", "id": 379735329, "center": {"lat": 42.4473786, "lon": 59.6448353}, "nodes": [7709807161, 7709807162, 3830642565, 10137680950, 10137680951, 10137680952, 10137680953, 10137680954, 10137680949, 4496838302, 4496838301, 7805589059, 3830642566, 7805589060, 8170840388, 7805589061, 7805589062, 3830642567, 6083251651, 3830642568, 7709807161], "tags": {"addr:city": "N\u00f3kis", "addr:country": "UZ", "addr:region": "Qaraqalpaqstan Respublikas\u0131", "addr:street": "25-shi kishi rayon", "alt_name:ru": "\u0421\u0430\u043d\u0447\u0430\u0441\u0442\u044c", "amenity": "hospital", "barrier": "fence", "healthcare": "hospital", "healthcare:speciality": "cardiology", "name": "Kardiologiya dispanceri", "name:en": "Cardiology clinic", "name:ru": "\u041a\u0430\u0440\u0434\u0438\u043e\u043b\u043e\u0433\u0438\u0447\u0435\u0441\u043a\u0438\u0439 \u0434\u0438\u0441\u043f\u0430\u043d\u0441\u0435\u0440", "opening_hours": "Mo-Sa 08:00-16:00", "operator": "QRDSM", "phone": "+99 (861) 223-63-79"}}, {"type": "way", "id": 381738947, "center": {"lat": 42.4748876, "lon": 59.6098143}, "nodes": [3849046005, 7368480310, 5030972952, 3849046006, 5027774946, 4682059101, 4682059106, 6697588315, 4682059107, 4682059110, 6697588314, 4682059111, 4682059116, 4682059115, 4682059114, 6697694644, 4682059122, 3849046007, 10796266930, 3849046008, 4682059132, 3849046009, 5030972951, 3849046010, 10220051523, 10137673310, 4682059158, 4682059163, 3849046005], "tags": {"addr:city": "N\u00f3kis", "addr:country": "UZ", "addr:housenumber": "108", "addr:postcode": "230100", "addr:region": "Qaraqalpaqstan Respublikas\u0131", "addr:street": "K\u00f3klemzar k\u00f3shesi", "alt_name:ru": "\u041f\u0440\u0430\u0432\u0438\u0442\u0435\u043b\u044c\u0441\u0442\u0432\u0435\u043d\u043d\u0430\u044f \u0431\u043e\u043b\u044c\u043d\u0438\u0446\u0430", "amenity": "hospital", "barrier": "wall", "emergency": "yes", "healthcare": "hospital", "name": "N\u00f3kis qalas\u0131 emlewxanas\u0131", "name:en": "Nukus city hospital named after R. Babanazarov", "name:ru": "\u041d\u0443\u043a\u0443\u0441\u0441\u043a\u0430\u044f \u0433\u043e\u0440\u043e\u0434\u0441\u043a\u0430\u044f \u0431\u043e\u043b\u044c\u043d\u0438\u0446\u0430 \u0438\u043c. \u0420. \u0411\u0430\u0431\u0430\u043d\u0430\u0437\u0430\u0440\u043e\u0432\u0430", "old_name:ru": "\u0411\u043e\u043b\u044c\u043d\u0438\u0446\u0430 \u0432\u0435\u0442\u0435\u0440\u0430\u043d\u043e\u0432 \u0432\u043e\u0439\u043d\u044b \u0438 \u0442\u0440\u0443\u0434\u0430", "opening_hours": "24/7", "operator": "QRDSM", "phone": "+998612240333"}}, {"type": "way", "id": 381738950, "center": {"lat": 42.4734098, "lon": 59.6191464}, "nodes": [3849046029, 9078459662, 9078459663, 9078459664, 9078459661, 7868525405, 4441562915, 8285824184, 8252153507, 10024632793, 10024632794, 8252153509, 8252153510, 8252153511, 8252153512, 8252153513, 8134294950, 8252153514, 8244368139, 4682002582, 6256091558, 8134294942, 8176429343, 8176429344, 5431625512, 4441562914, 8134294941, 8134294938, 8134294939, 3849046029], "tags": {"addr:city": "N\u00f3kis", "addr:country": "UZ", "addr:housenumber": "110", "addr:region": "Qaraqalpaqstan Respublikas\u0131", "addr:street": "A. Dosnazarov g\u00fazar\u0131", "alt_name": "Resbolnitsa", "alt_name:ru": "\u0420\u0435\u0441\u0431\u043e\u043b\u044c\u043d\u0438\u0446\u0430", "amenity": "hospital", "healthcare": "hospital", "name": "U. Xalmuratov at\u0131nda\u01f5\u0131 Respublika K\u00f3p Tarmaql\u0131 Medecina Oray\u0131", "name:en": "Republican multidisciplinary medical center named U.Halmuratova", "name:ru": "\u0420\u0435\u0441\u043f\u0443\u0431\u043b\u0438\u043a\u0430\u043d\u0441\u043a\u0438\u0439 \u043c\u043d\u043e\u0433\u043e\u043f\u0440\u043e\u0444\u0438\u043b\u044c\u043d\u044b\u0439 \u043c\u0435\u0434\u0438\u0446\u0438\u043d\u0441\u043a\u0438\u0439 \u0446\u0435\u043d\u0442\u0440 \u0438\u043c\u0435\u043d\u0438 \u0423. \u0425\u0430\u043b\u043c\u0443\u0440\u0430\u0442\u043e\u0432\u0430", "opening_hours": "24/7", "operator": "QRDSM", "phone": "+998612261116"}}, {"type": "way", "id": 381738951, "center": {"lat": 42.4735276, "lon": 59.6208415}, "nodes": [8176429340, 3849046035, 10024632800, 8176429345, 8176429371, 8176429372, 8176429389, 8176429370, 10024632801, 8176429367, 8176429366, 8176429365, 8176429364, 8176429363, 8176429388, 8176429362, 8176429361, 8176429360, 8176429359, 8176429358, 8176429382, 8176429381, 8176429380, 5431625510, 10024632802, 8176429404, 6657186763, 10024632799, 3849046036, 10219994895, 5431625514, 4682002582, 6256091558, 8134294942, 8176429342, 8176429341, 8176429340], "tags": {"addr:city": "N\u00f3kis", "addr:country": "UZ", "addr:housenumber": "29", "addr:region": "Qaraqalpaqstan Respublikas\u0131", "addr:street": "M. Jumanazarov k\u00f3shesi", "alt_name:ru": "\u041e\u043d\u043a\u043e\u043b\u043e\u0433\u0438\u0447\u0435\u0441\u043a\u0430\u044f \u0431\u043e\u043b\u044c\u043d\u0438\u0446\u0430", "amenity": "hospital", "healthcare": "hospital", "healthcare:speciality": "oncology;Surgical_oncology", "name": "Qaraqalpaqstan Respublikas\u0131 onkologiya dispanseri", "name:en": "Oncology Center", "name:ru": "\u041e\u043d\u043a\u043e\u043b\u043e\u0433\u0438\u0447\u0435\u0441\u043a\u0438\u0439 \u0434\u0438\u0441\u043f\u0430\u043d\u0441\u0435\u0440 \u0420\u0435\u0441\u043f\u0443\u0431\u043b\u0438\u043a\u0438 \u041a\u0430\u0440\u0430\u043a\u0430\u043b\u043f\u0430\u043a\u0441\u0442\u0430\u043d", "operator": "QRDSM", "phone": "+99(861) 226-60-59"}}, {"type": "way", "id": 381738952, "center": {"lat": 42.4719609, "lon": 59.6218298}, "nodes": [4682002582, 5431625514, 3849046040, 4682003432, 8198984070, 3849046041, 8198984069, 3849046042, 8244368136, 8244368134, 8244368142, 8244368135, 6090411500, 8242867508, 8242867509, 8117831506, 8242867510, 4156860792, 8244368137, 4682003441, 8244368138, 6256091557, 8244368139, 4682002582], "tags": {"addr:city": "N\u00f3kis", "addr:country": "UZ", "addr:housenumber": "10", "addr:region": "Qaraqalpaqstan Respublikas\u0131", "addr:street": "J. Aymurzaev k\u00f3shesi", "alt_name": "Tuberkulyoz dispanseri", "alt_name:ru": "\u0422\u0443\u0431\u0435\u0440\u043a\u0443\u043b\u0435\u0437\u043d\u044b\u0439 \u0431\u043e\u043b\u044c\u043d\u0438\u0446\u0430", "amenity": "hospital", "healthcare": "hospital", "name": "S. Sultanov at\u0131nda\u01f5\u0131 ftiziatriya h\u00e1m pulmanologiya oray\u0131", "name:en": "Republican Center for Phthisiology and Pulmonology named after S. Sultanova", "name:ru": "\u0420\u0435\u0441\u043f\u0443\u0431\u043b\u0438\u043a\u0430\u043d\u0441\u043a\u0438\u0439 \u0446\u0435\u043d\u0442\u0440 \u0444\u0442\u0438\u0437\u0438\u0430\u0442\u0440\u0438\u0438 \u0438 \u043f\u0443\u043b\u044c\u043c\u043e\u043d\u043e\u043b\u043e\u0433\u0438\u0438 \u0438\u043c. \u0421. \u0421\u0443\u043b\u0442\u0430\u043d\u043e\u0432\u0430", "old_name": "Qaraqalpaqstan Respublikasi Den Sawliqti Saqlaw Ministirligi \u2116 Respublikaliq Tuberkulyozge Qarsi Gu'resiw dispanseri", "old_name:en": "Republican TB Dispensary No. 1 named after S. Sultanov", "old_name:ru": "\u0420\u0435\u0441\u043f\u0443\u0431\u043b\u0438\u043a\u0430\u043d\u0441\u043a\u0438\u0439 \u043f\u0440\u043e\u0442\u0438\u0432\u043e\u0442\u0443\u0431\u0435\u0440\u043a\u0443\u043b\u0435\u0437\u043d\u044b\u0439 \u0434\u0438\u0441\u043f\u0430\u043d\u0441\u0435\u0440 \u21161 \u0438\u043c\u0435\u043d\u0438 \u0421. \u0421\u0443\u043b\u0442\u0430\u043d\u043e\u0432\u0430", "operator": "QRDSM", "phone": "+998612226020"}}, {"type": "way", "id": 381760983, "center": {"lat": 42.4545243, "lon": 59.5847594}, "nodes": [3849300261, 6697694792, 6697694790, 9358239149, 6697694780, 3849300262, 3849300263, 10548980900, 10548980901, 8198694940, 3849300264, 8198694938, 8198694939, 8198694937, 3849300261], "tags": {"addr:city": "N\u00f3kis", "addr:country": "UZ", "addr:housenumber": "1", "addr:region": "Qaraqalpaqstan Respublikas\u0131", "addr:street": "Nayman k\u00f3shesi", "alt_name:ru": "\u0413\u043b\u0430\u0437\u043d\u043e\u0439", "amenity": "hospital", "barrier": "wall", "healthcare": "hospital", "healthcare:speciality": "ophthalmology", "name": "Respublikal\u0131q oftalmologiya emlewxanas\u0131", "name:en": "Republican Ophthalmological Hospital", "name:ru": "\u0420\u0435\u0441\u043f\u0443\u0431\u043b\u0438\u043a\u0430\u043d\u0441\u043a\u0430\u044f \u043e\u0444\u0442\u0430\u043b\u044c\u043c\u043e\u043b\u043e\u0433\u0438\u0447\u0435\u0441\u043a\u0430\u044f \u0431\u043e\u043b\u044c\u043d\u0438\u0446\u0430", "operator": "QRDSM", "operator:type": "government", "phone": "+99 (861) 224-28-88"}}, {"type": "way", "id": 381760984, "center": {"lat": 42.453534, "lon": 59.584369}, "nodes": [3849300263, 6752958301, 3849300265, 3849300266, 3849300267, 6697694781, 9358239151, 3849300262, 3849300263], "tags": {"addr:city": "N\u00f3kis", "addr:country": "UZ", "addr:housenumber": "3", "addr:region": "Qaraqalpaqstan Respublikas\u0131", "addr:street": "Nayman k\u00f3shesi", "alt_name:ru": "\u041a\u043e\u0436\u0412\u0435\u043d", "amenity": "hospital", "healthcare": "hospital", "healthcare:speciality": "allergology", "name": "Respublika teri kesellikleri dispanseri", "name:en": "Republican dermatovenerologic dispensary", "name:ru": "\u0420\u0435\u0441\u043f\u0443\u0431\u043b\u0438\u043a\u0430\u043d\u0441\u043a\u0438\u0439 \u043a\u043e\u0436\u043d\u043e-\u0432\u0435\u043d\u0435\u0440\u043e\u043b\u043e\u0433\u0438\u0447\u0435\u0441\u043a\u0438\u0439 \u0434\u0438\u0441\u043f\u0430\u043d\u0441\u0435\u0440", "operator": "QRDSM", "operator:type": "government", "phone": "+998612242887"}}, {"type": "way", "id": 381766752, "center": {"lat": 42.4570021, "lon": 59.6114465}, "nodes": [3849352780, 5234292157, 4453316469, 5234292159, 7629985153, 5234292160, 9602495004, 9602495003, 9602494988, 9602495005, 3849352782, 10036665724, 3849352780], "tags": {"addr:city": "N\u00f3kis", "addr:country": "UZ", "addr:housenumber": "2", "addr:postcode": "230100", "addr:region": "Qaraqalpaqstan Respublikas\u0131", "addr:street": "Baylan\u0131ssh\u0131 k\u00f3shesi", "amenity": "hospital", "healthcare": "hospital", "name": "N\u00f3kis qalas\u0131 sanitar-epidemlogiya b\u00f3limi", "name:en": "Sanitary and Epidemiological Center of Nukus", "name:ru": "\u0421\u0430\u043d\u0438\u0442\u0430\u0440\u043d\u043e-\u044d\u043f\u0438\u0434\u0435\u043c\u0438\u043e\u043b\u043e\u0433\u0438\u0447\u0435\u0441\u043a\u0438\u0439 \u0446\u0435\u043d\u0442\u0440 \u0433\u043e\u0440\u043e\u0434\u0430 \u041d\u0443\u043a\u0443\u0441", "opening_hours": "Mo-Fr 09:00-17:00", "operator": "QRDSM", "phone": "+998612220483"}}, {"type": "way", "id": 387786968, "center": {"lat": 40.5877468, "lon": 50.0566192}, "nodes": [3910197846, 3910197819, 3910197820, 3910197842, 2763550699, 3910197845, 9846925784, 9847051921, 3910197846], "tags": {"addr:street": "D\u0259nizk\u0259nar\u0131 yol", "amenity": "hospital", "name": "Metropoliten Sanatoriyas\u0131 \\ Bilg\u0259h", "tourism": "camp_site"}}, {"type": "way", "id": 399611454, "center": {"lat": 43.2604965, "lon": 52.7812668}, "nodes": [4023312713, 4023312718, 4023312714, 4023312715, 4023312716, 4023312713], "tags": {"amenity": "hospital"}}, {"type": "way", "id": 399624813, "center": {"lat": 43.644216, "lon": 51.1589861}, "nodes": [4023416045, 4023416046, 4023416047, 4023416048, 5045257255, 4023416049, 4023416050, 4023416045], "tags": {"amenity": "hospital", "name": "\u041f\u043e\u043b\u0438\u043a\u043b\u0438\u043d\u0438\u043a\u0430"}}, {"type": "way", "id": 399627135, "center": {"lat": 43.6579847, "lon": 51.1628563}, "nodes": [4023436153, 11100793499, 4146461312, 11100793503, 4023436154, 4023436155, 4023436156, 4023436153], "tags": {"amenity": "hospital", "name": "\u0411\u043e\u043b\u044c\u043d\u0438\u0447\u043d\u044b\u0439 \u0433\u043e\u0440\u043e\u0434\u043e\u043a", "name:en": "Hospital Village", "name:ru": "\u0411\u043e\u043b\u044c\u043d\u0438\u0447\u043d\u044b\u0439 \u0433\u043e\u0440\u043e\u0434\u043e\u043a"}}, {"type": "way", "id": 406458267, "center": {"lat": 42.4514772, "lon": 59.584878}, "nodes": [4085245615, 4085245616, 10159464777, 10159426152, 4085245617, 10159426153, 4085245618, 4085245615], "tags": {"addr:city": "N\u00f3kis", "addr:country": "UZ", "addr:region": "Qaraqalpaqstan Respublikas\u0131", "addr:street": "Nayman k\u00f3shesi", "alt_name:ru": "\u0421\u0442\u0430\u043d\u0446\u0438\u044f \u043f\u0435\u0440\u0435\u043b\u0438\u0432\u0430\u043d\u0438\u044f \u043a\u0440\u043e\u0432\u0438", "amenity": "hospital", "healthcare": "hospital", "name": "Qan quy\u0131w stanciyas\u0131", "name:en": "Blood Transfusion Station of the Republic of Karakalpakstan", "name:ru": "\u0421\u0442\u0430\u043d\u0446\u0438\u044f \u041f\u0435\u0440\u0435\u043b\u0438\u0432\u0430\u043d\u0438\u044f \u041a\u0440\u043e\u0432\u0438 \u0420\u0435\u0441\u043f\u0443\u0431\u043b\u0438\u043a\u0438 \u041a\u0430\u0440\u0430\u043a\u0430\u043b\u043f\u0430\u043a\u0441\u0442\u0430\u043d", "operator": "QRDSM", "phone": "+998612242616"}}, {"type": "way", "id": 415433850, "center": {"lat": 43.6569734, "lon": 51.1642016}, "nodes": [4165120538, 4165120539, 4165120541, 4165120540, 4165120538], "tags": {"amenity": "hospital", "building": "yes", "building:levels": "2", "name": "\u0418\u043d\u0442\u0435\u0440\u0442\u0438\u0447", "name:en": "Interteach", "operator": "Interteach"}}, {"type": "way", "id": 415442537, "center": {"lat": 43.6324242, "lon": 51.1859726}, "nodes": [4158217936, 4146169390, 4146152691, 4146158290, 4165191586, 4146066794, 4165191587, 4165191589, 4165191588, 4165191581, 4165191577, 4165191570, 4165191569, 4165191564, 4165191561, 4165191554, 4165191528, 4165191529, 11204483706, 4165191520, 4158234694, 4158234316, 4158234106, 4158234999, 4158235092, 4158235002, 4158235003, 4158235094, 4158234317, 4158235006, 4158235007, 4158217930, 4158217933, 4158217936], "tags": {"amenity": "hospital", "name": "\u041c\u0435\u0434\u0433\u043e\u0440\u043e\u0434\u043e\u043a"}}, {"type": "way", "id": 423899991, "center": {"lat": 42.5428064, "lon": 59.6039085}, "nodes": [4234152216, 4234152217, 4234152207, 4234152208, 5411544717, 4234152209, 4234152210, 4234152211, 5411544858, 4234152213, 9042782750, 9042782749, 4234152214, 5411544716, 4234152215, 4234152216], "tags": {"addr:city": "N\u00f3kis", "addr:country": "UZ", "addr:place": "Xojanawil", "addr:region": "Qaraqalpaqstan Respublikas\u0131", "amenity": "hospital", "barrier": "wall", "healthcare": "hospital", "healthcare:speciality": "tuberculum", "name": "Qaraqalpaqstan Respublikas\u0131 Den Sawl\u0131qt\u0131 Saqlaw Ministirligi \u21162 Respublikal\u0131q tuberkulyozge qars\u0131 g\u00faresiw emlewxanas\u0131", "name:en": "Republican Tuberculosis Hospital \u21162", "name:ru": "\u0420\u0435\u0441\u043f\u0443\u0431\u043b\u0438\u043a\u0430\u043d\u0441\u043a\u0430\u044f \u0442\u0443\u0431\u0435\u0440\u043a\u0443\u043b\u0435\u0437\u043d\u0430\u044f \u0431\u043e\u043b\u044c\u043d\u0438\u0446\u0430 \u21162", "operator": "QRDSM", "operator:type": "government", "phone": "+99861719-40-32"}}, {"type": "way", "id": 424116521, "center": {"lat": 42.4891731, "lon": 59.599603}, "nodes": [3698565497, 9329883665, 9329883666, 3698565489, 9329883667, 6697694798, 3698565486, 9329883640, 9329883639, 3698565485, 9329883638, 9329883641, 9329883642, 10284234810, 10284234815, 3702331820, 3702331819, 3702331818, 3702331817, 9329883671, 9329883672, 9329883670, 6073060021, 3698565497], "tags": {"addr:city": "N\u00f3kis", "addr:country": "UZ", "addr:housenumber": "33/1", "addr:region": "Qaraqalpaqstan Respublikas\u0131", "addr:street": "Q. Ay\u0131mbetov k\u00f3shesi", "amenity": "hospital", "healthcare": "hospital", "name": "Sud medecina ekspertizas\u0131", "name:en": "Republican Bureau of court-medical examination named after \u00abP. Suyunova\u00bb", "name:ru": "\u0420\u0435\u0441\u043f\u0443\u0431\u043b\u0438\u043a\u0430\u043d\u0441\u043a\u0438\u0439 \u0431\u044e\u0440\u043e \u0441\u0443\u0434-\u043c\u0435\u0434 \u044d\u043a\u0441\u043f\u0435\u0440\u0442\u0438\u0437\u044b \u0438\u043c \u00ab\u041f. \u0421\u0443\u044e\u043d\u043e\u0432\u0430\u00bb", "operator": "QRDSM", "operator:type": "government"}}, {"type": "way", "id": 426286338, "center": {"lat": 41.832034, "lon": 59.947082}, "nodes": [4255930028, 4255930026, 4255930025, 4255930027, 4255930028], "tags": {"addr:city": "Dashoguz", "addr:street": "A\u015fgabat k\u00f6\u00e7esi", "alt_name:ru": "\u0417\u0443\u0431\u043d\u0430\u044f \u0431\u043e\u043b\u044c\u043d\u0438\u0446\u0430", "amenity": "hospital", "building": "hospital", "building:levels": "4", "health_specialty": "dentistry", "healthcare": "hospital", "healthcare:speciality": "dentistry", "name": "Stomatologi\u00fda Hassahanasy", "name:en": "Dental Hospital", "name:ru": "\u0421\u0442\u043e\u043ca\u0442\u043e\u043b\u043e\u0433\u0438\u0447\u0435\u0441\u043a\u0430\u044f \u0431\u043e\u043b\u044c\u043d\u0438\u0446\u0430", "name:tk": "Stomatologi\u00fda Hassahanasy", "opening_hours": "Mo-Su 09:00-13:00, 14:00-18:00"}}, {"type": "way", "id": 427063438, "center": {"lat": 42.4491098, "lon": 59.6252558}, "nodes": [8195955446, 8195955452, 8252278259, 8252278258, 4263071631, 4461197298, 4263071632, 8260993516, 8261019818, 8261019817, 4461197297, 8252278256, 8252278255, 8252278257, 8195955446], "tags": {"addr:city": "N\u00f3kis", "addr:country": "UZ", "addr:housenumber": "15 \u0410", "addr:postcode": "230100", "addr:region": "Qaraqalpaqstan Respublikas\u0131", "addr:street": "A. Dosnazarov g\u00fazar\u0131", "amenity": "hospital", "email": "rkaids2019@umail.uz", "healthcare": "hospital", "name": "Qaraqalpaqstan Respublikas\u0131 AIJSke qars\u0131 g\u00faresiw oray\u0131", "name:en": "Republican Center for AIDS Control", "name:ru": "\u0420\u0435\u0441\u043f\u0443\u0431\u043b\u0438\u043a\u0430\u043d\u0441\u043a\u0438\u0439 \u0446\u0435\u043d\u0442\u0440 \u043f\u043e \u0431\u043e\u0440\u044c\u0431\u0435 \u0441\u043e \u0421\u041f\u0418\u0414", "opening_hours": "Mo-Sa 09:00-17:00", "operator": "QRDSM", "operator:type": "government", "phone": "+998612238423", "website": "https://qroits.uz/"}}, {"type": "way", "id": 438081957, "center": {"lat": 44.1202942, "lon": 52.1728258}, "nodes": [4358233761, 4358233763, 4358233759, 4358233777, 4358233781, 4358233770, 4358233767, 4358233764, 4358233769, 4358233758, 4358233762, 4358233760, 4358233768, 4358233773, 4358233778, 4358233772, 4358233780, 4358233775, 4358233754, 4358233744, 4358233741, 4358233745, 4358233740, 4358233742, 4358233746, 4358233750, 4357829494, 4358233743, 4358233749, 4358233761], "tags": {"addr:housenumber": "10/2", "addr:postcode": "130400", "amenity": "hospital", "building": "yes"}}, {"type": "way", "id": 439496924, "center": {"lat": 48.6133807, "lon": 57.1107512}, "nodes": [4371185170, 4371185171, 4371185169, 4371185168, 4371185170], "tags": {"amenity": "hospital", "building": "yes", "name": "\u041a\u0435\u04a3\u049b\u0438\u044f\u049b \u0441\u0435\u043b\u043e\u043b\u044b\u049b \u0430\u0443\u0440\u0443x\u0430\u043d\u0430\u0441\u044b", "name:ru": "\u041a\u0435\u043d\u043a\u0438\u044f\u043a\u0441\u043a\u0438\u0439 \u0441\u0435\u043b\u044c\u0441\u043a\u0438\u0439 \u0431\u043e\u043b\u044c\u043d\u0438\u0446\u0430"}}, {"type": "way", "id": 439975637, "center": {"lat": 42.4484149, "lon": 59.6530081}, "nodes": [4376816176, 3830642569, 4466591415, 8241937285, 8175640497, 8175640493, 8175640489, 8175640482, 9952550772, 6575070406, 4496838296, 4496838295, 4496838294, 4376816179, 4376816180, 4376816186, 5155605357, 4376816181, 4376816176], "tags": {"addr:city": "N\u00f3kis", "addr:country": "UZ", "addr:housenumber": "114", "addr:region": "Qaraqalpaqstan Respublikas\u0131", "addr:street": "Usnatdin Bekmanov ko'shesi", "alt_name:ru": "\u041d\u0430\u0440\u043a\u043e\u043b\u043e\u0433\u0438\u0447\u0435\u0441\u043a\u0438\u0439", "amenity": "hospital", "healthcare": "hospital", "healthcare:speciality": "neurology", "name": "Respublikal\u0131q \u21162 psixonevrologiyal\u0131q dispanser", "name:en": "Republican mental hospital \u21162", "name:ru": "\u0420\u0435\u0441\u043f\u0443\u0431\u043b\u0438\u043a\u0430\u043d\u0441\u043a\u0438\u0439 \u043f\u0441\u0438\u0445\u043e\u043d\u0435\u0432\u0440\u043e\u043b\u043e\u0433\u0438\u0447\u0435\u0441\u043a\u0438\u0439 \u0434\u0438\u0441\u043f\u0430\u043d\u0441\u0435\u0440", "opening_hours": "Mo-Su 08:00-16:00", "operator": "QRDSM", "phone": "+99 (861) 223-32-84"}}, {"type": "way", "id": 439983982, "center": {"lat": 48.8382958, "lon": 58.1459365}, "nodes": [4376886135, 4376886136, 4376886137, 4376886138, 4376886135], "tags": {"amenity": "hospital", "healthcare": "hospital", "int_name": "Embi awdand\u0131q awrwxanas\u0131", "name": "\u0415\u043c\u0431\u0456 \u0430\u0443\u0434\u0430\u043d\u0434\u044b\u049b \u0430\u0443\u0440\u0443\u0445\u0430\u043d\u0430\u0441\u044b", "name:kk": "\u0415\u043c\u0431\u0456 \u0430\u0443\u0434\u0430\u043d\u0434\u044b\u049b \u0430\u0443\u0440\u0443\u0445\u0430\u043d\u0430\u0441\u044b", "name:ru": "\u042d\u043c\u0431\u0438\u043d\u0441\u043a\u0430\u044f \u0440\u0430\u0439\u043e\u043d\u043d\u0430\u044f \u0431\u043e\u043b\u044c\u043d\u0438\u0446\u0430"}}, {"type": "way", "id": 440329576, "center": {"lat": 42.9910104, "lon": 59.3559671}, "nodes": [4380570014, 5104635447, 5104635449, 5104635450, 5104635446, 5104635448, 4380570015, 4380570016, 4380570017, 6749463524, 6749463525, 6749463526, 6749463527, 4380570014], "tags": {"addr:country": "UZ", "addr:region": "Qaraqalpaqstan Respublikas\u0131", "addr:street": "Shipaker ko'shesi", "amenity": "hospital", "barrier": "wall", "healthcare": "hospital", "name:en": "Bozatau district medical association department \"Kazanketken\"", "name:ru": "\u0411\u043e\u0437\u0430\u0442\u0430\u0443\u0441\u043a\u0438\u0439 \u0440\u0430\u0439\u043e\u043d\u043d\u043e\u0435 \u043c\u0435\u0434\u0438\u0446\u0438\u043d\u0441\u043a\u043e\u0435 \u043e\u0431\u044a\u0435\u0434\u0438\u043d\u0435\u043d\u0438\u0435 \u043e\u0442\u0434\u0435\u043b\u0435\u043d\u0438\u0435 \u00ab\u041a\u0430\u0437\u0430\u043d\u043a\u0435\u0442\u043a\u0435\u043d\u00bb"}}, {"type": "way", "id": 440366547, "center": {"lat": 42.9202717, "lon": 59.7777072}, "nodes": [6432605629, 6432605627, 6432605631, 6432605630, 6432605634, 6432605635, 6432605633, 6432605632, 6789605538, 4693670938, 8261014047, 8261014048, 4380963948, 4656731809, 4380963949, 4693670916, 6432605629], "tags": {"addr:country": "UZ", "addr:housenumber": "43", "addr:region": "Qaraqalpaqstan Respublikas\u0131", "addr:street": "Dosl\u0131q g\u00fazar\u0131", "amenity": "hospital", "healthcare": "hospital", "name": "Sh\u0131mbay rayon\u0131 orayl\u0131q emlewxanas\u0131", "name:en": "Chimbay Central District Hospital", "name:ru": "\u0427\u0438\u043c\u0431\u0430\u0439\u0441\u043a\u0430\u044f \u0446\u0435\u043d\u0442\u0440\u0430\u043b\u044c\u043d\u0430\u044f \u0440\u0430\u0439\u043e\u043d\u043d\u0430\u044f \u0431\u043e\u043b\u044c\u043d\u0438\u0446\u0430", "phone": "+998614440082"}}, {"type": "way", "id": 441734484, "center": {"lat": 41.8319641, "lon": 59.9508449}, "nodes": [4394436998, 4394436999, 4394437000, 4394437001, 4394437002, 4394437003, 4394437004, 4394437005, 4394436998], "tags": {"addr:city": "Dashoguz", "addr:street": "A\u015fgabat k\u00f6\u00e7esi", "amenity": "hospital", "emergency": "yes", "healthcare": "hospital", "healthcare:speciality": "general", "name": "Da\u015foguz Wela\u00fdat K\u00f6pugurly Hassahanasy", "name:en": "Dashoguz Provincial General Hospital", "name:ru": "\u0414\u0430\u0448\u043e\u0433\u0443\u0437\u0441\u0430\u044f \u043e\u0431\u043b\u0430\u0441\u0442\u043d\u0430\u044f \u043c\u043d\u043e\u0433\u043e\u043f\u0440\u043e\u0444\u0438\u043b\u044c\u043d\u0430\u044f \u0431\u043e\u043b\u044c\u043d\u0438\u0446\u0430", "name:tk": "Da\u015foguz Wela\u00fdat K\u00f6pugurly Hassahanasy"}}, {"type": "way", "id": 443162141, "center": {"lat": 42.6402678, "lon": 59.3284273}, "nodes": [4407894947, 4407894948, 4924367063, 4407894951, 4407894947], "tags": {"addr:country": "UZ", "addr:region": "Qaraqalpaqstan Respublikas\u0131", "amenity": "hospital", "healthcare": "hospital", "name": "\u041a\u0430\u0440\u0430\u043a\u0430\u043b\u043f\u0430\u043a\u0441\u043a\u0438\u0439 \u043b\u0435\u043f\u0440\u043e\u0437\u043e\u0440\u0438\u0439", "name:en": "Karakalpak leper colony", "name:ru": "\u041a\u0430\u0440\u0430\u043a\u0430\u043b\u043f\u0430\u043a\u0441\u043a\u0438\u0439 \u043b\u0435\u043f\u0440\u043e\u0437\u043e\u0440\u0438\u0439"}}, {"type": "way", "id": 443760669, "center": {"lat": 42.6210461, "lon": 59.6874047}, "nodes": [4412990399, 4412990400, 4412990401, 4412990402, 4412990399], "tags": {"addr:country": "UZ", "addr:region": "Qaraqalpaqstan Respublikas\u0131", "amenity": "hospital", "healthcare": "hospital", "name": "\u0421\u0435\u043b\u044c\u0441\u043a\u0438\u0439 \u0432\u0440\u0430\u0447\u0435\u0431\u043d\u044b\u0439 \u043f\u0443\u043d\u043a\u0442 \"\u0416\u0443\u0437\u0438\u043c\u0431\u0430\u0433\"", "name:en": "Rural medical center \"Zhuzimbag\"", "name:ru": "\u0421\u0435\u043b\u044c\u0441\u043a\u0438\u0439 \u0432\u0440\u0430\u0447\u0435\u0431\u043d\u044b\u0439 \u043f\u0443\u043d\u043a\u0442 \"\u0416\u0443\u0437\u0438\u043c\u0431\u0430\u0433\""}}, {"type": "way", "id": 444603060, "center": {"lat": 42.412618, "lon": 59.4618597}, "nodes": [4420671559, 4420671560, 4977030758, 4977030759, 4977030760, 4977030761, 4977030762, 4977030763, 4977030770, 4977030769, 4977030768, 4977030767, 4977030765, 4977030766, 4977030764, 4977030771, 4977030772, 4863440382, 4977030773, 4977030774, 4977030775, 4977030776, 4420671561, 4977030781, 4977030780, 4977030782, 4977030779, 4977030778, 4977030777, 4977030793, 4977029592, 4420671562, 4977030734, 4977030735, 4420671559], "tags": {"addr:country": "UZ", "addr:housenumber": "24", "addr:region": "Qaraqalpaqstan Respublikas\u0131", "amenity": "hospital", "name": "\u0425\u043e\u0434\u0436\u0435\u0439\u043b\u0438\u043d\u0441\u043a\u0430\u044f \u0446\u0435\u043d\u0442\u0440\u0430\u043b\u044c\u043d\u0430\u044f \u0440\u0430\u0439\u043e\u043d\u043d\u0430\u044f \u0431\u043e\u043b\u044c\u043d\u0438\u0446\u0430", "name:ru": "\u0425\u043e\u0434\u0436\u0435\u0439\u043b\u0438\u043d\u0441\u043a\u0430\u044f \u0446\u0435\u043d\u0442\u0440\u0430\u043b\u044c\u043d\u0430\u044f \u0440\u0430\u0439\u043e\u043d\u043d\u0430\u044f \u0431\u043e\u043b\u044c\u043d\u0438\u0446\u0430", "phone": "+998615562795"}}, {"type": "way", "id": 445447278, "center": {"lat": 42.8386106, "lon": 59.004634}, "nodes": [4428734079, 4428734078, 4428734075, 4428734077, 6809873866, 6809873864, 4428734079], "tags": {"addr:country": "UZ", "addr:housenumber": "22", "addr:region": "Qaraqalpaqstan Respublikas\u0131", "addr:street": "G'arezsizlik ko\u2019shesi", "alt_name:uz": "\u049a\u043e\u043d\u043b\u0438\u043a\u045e\u043b \u0442\u0443\u043c\u0430\u043d \u0421\u0430\u043b\u0430\u043c\u0430\u0442\u043b\u0438\u043a \u043c\u0430\u0440\u043a\u0430\u0437\u0438", "amenity": "hospital", "name": "Qanliko'l rayoni orayliq bolnicasi", "name:en": "Kanlykul central district hospital", "name:ru": "\u041a\u0430\u043d\u043b\u044b\u043a\u0443\u043b\u044c\u0441\u043a\u0438\u0439 \u0446\u0435\u043d\u0442\u0440\u0430\u043b\u044c\u043d\u0430\u044f \u0440\u0430\u0439\u043e\u043d\u043d\u0430\u044f \u0431\u043e\u043b\u044c\u043d\u0438\u0446\u0430"}}, {"type": "way", "id": 448535713, "center": {"lat": 42.6991295, "lon": 59.7285977}, "nodes": [4455402430, 7378447867, 7378447871, 4455402431, 7378447868, 7378447872, 4455402432, 8283090006, 5137679944, 5137679943, 7378447869, 7378447870, 4455402433, 4455402430], "tags": {"addr:country": "UZ", "addr:region": "Qaraqalpaqstan Respublikas\u0131", "amenity": "hospital"}}, {"type": "way", "id": 452275796, "center": {"lat": 42.8349848, "lon": 59.0357839}, "nodes": [4490929862, 4490929863, 4490929864, 4490929865, 4490929862], "tags": {"addr:country": "UZ", "addr:region": "Qaraqalpaqstan Respublikas\u0131", "amenity": "hospital", "name": "Nawriz awilliq medecinaliq punkti", "name:en": "Village medical center Nauryz", "name:ru": "\u0421\u0435\u043b\u044c\u0441\u043a\u0438\u0439 \u0432\u0440\u0430\u0447\u0435\u0431\u043d\u044b\u0439 \u043f\u0443\u043d\u043a\u0442 \u0421\u0413\u0410 \u041d\u0430\u0443\u0440\u044b\u0437"}}, {"type": "way", "id": 456324935, "center": {"lat": 49.8902863, "lon": 57.3245427}, "nodes": [2672876978, 2672876945, 2672876941, 2672876927, 2672876917, 2672876901, 2672876900, 2672876886, 2672876888, 2672876890, 2672876891, 2672876929, 2672876953, 2672876956, 2672876981, 2672876978], "tags": {"addr:housenumber": "24", "addr:street": "\u0443\u043b\u0438\u0446\u0430 \u0415\u0441\u0435\u0442-\u0411\u0430\u0442\u044b\u0440\u0430", "amenity": "hospital", "name": "\u0410\u043b\u0433\u0438\u043d\u0441\u043a\u0430\u044f \u0446\u0435\u043d\u0442\u0440\u0430\u043b\u044c\u043d\u0430\u044f \u0440\u0430\u0439\u043e\u043d\u043d\u0430\u044f \u0431\u043e\u043b\u044c\u043d\u0438\u0446\u0430"}}, {"type": "way", "id": 456332212, "center": {"lat": 49.8938495, "lon": 57.3295528}, "nodes": [2679884823, 2679884828, 2679884759, 2679884758, 2679884760, 2679884823], "tags": {"amenity": "hospital", "name": "\u041f\u0440\u043e\u0444\u0438\u043b\u0430\u043a\u0442\u043e\u0440\u0438\u0439 \"\u0428\u0438\u043f\u0430\u0433\u0435\u0440\""}}, {"type": "way", "id": 456958513, "center": {"lat": 43.6941608, "lon": 51.2959133}, "nodes": [4531804832, 4531804831, 11175740153, 4531804830, 4531804829, 4531804828, 4531804827, 4531804832], "tags": {"amenity": "hospital", "barrier": "fence", "name": "\u041c\u0443\u043d\u0430\u0439\u043b\u0438\u043d\u0441\u043a\u0430\u044f \u0426\u0420\u0411", "name:ru": "\u041c\u0443\u043d\u0430\u0439\u043b\u0438\u043d\u0441\u043a\u0430\u044f \u0426\u0420\u0411"}}, {"type": "way", "id": 462275943, "center": {"lat": 49.4603542, "lon": 57.4090764}, "nodes": [4576846871, 4577356842, 4577356845, 4577356844, 5907508763, 5907508764, 11101063234, 4576846870, 4576846869, 4576846868, 11101150868, 4576846867, 4576846871], "tags": {"amenity": "hospital", "barrier": "fence", "name:ru": "\u041c\u0443\u0433\u0430\u043b\u0436\u0430\u0440\u0441\u043a\u0430\u044f \u0446\u0435\u043d\u0442\u0440\u0430\u043b\u044c\u043d\u0430\u044f \u0440\u0430\u0439\u043e\u043d\u043d\u0430\u044f \u0431\u043e\u043b\u044c\u043d\u0438\u0446\u0430"}}, {"type": "way", "id": 462332031, "center": {"lat": 49.4460586, "lon": 57.3937904}, "nodes": [4577362310, 4577362311, 4577362312, 4577362313, 4577362310], "tags": {"amenity": "hospital", "barrier": "fence", "name": "\u041f\u0440\u043e\u0442\u0438\u0432\u043e\u0442\u0443\u0431\u0435\u0440\u043a\u0443\u043b\u0435\u0437\u043d\u044b\u0439 \u0434\u0438\u0441\u043f\u0430\u043d\u0441\u0435\u0440"}}, {"type": "way", "id": 462332032, "center": {"lat": 49.4463107, "lon": 57.3937868}, "nodes": [4577362314, 4577362315, 4577362316, 4577362317, 4577362318, 4577362319, 4577362314], "tags": {"addr:place": "\u043c\u0438\u043a\u0440\u043e\u0440\u0430\u0439\u043e\u043d \u0421\u0430\u043c\u0430\u043b", "addr:quarter": "quarter", "amenity": "hospital", "building": "hospital", "building:levels": "1", "name": "\u041f\u0440\u043e\u0442\u0438\u0432\u043e\u0442\u0443\u0431\u0435\u0440\u043a\u0443\u043b\u0435\u0437\u043d\u044b\u0439 \u0434\u0438\u0441\u043f\u0430\u043d\u0441\u0435\u0440"}}, {"type": "way", "id": 466305275, "center": {"lat": 43.046798, "lon": 58.8572468}, "nodes": [4611334036, 5439172652, 4359990656, 4611334035, 4611334034, 4611334033, 4611334032, 4611334031, 4611334030, 4611334029, 4611334028, 4611334036], "tags": {"addr:country": "UZ", "addr:housenumber": "1", "addr:postcode": "230600", "addr:region": "Qaraqalpaqstan Respublikas\u0131", "addr:street": "Nawayi ko'shesi", "amenity": "hospital", "name": "\u0411\u043e\u043b\u044c\u043d\u0438\u0446\u0430 \u043d\u0430 \u0441\u0442. \u041a\u0443\u043d\u0433\u0440\u0430\u0434", "name:ru": "\u0411\u043e\u043b\u044c\u043d\u0438\u0446\u0430 \u0436\u0435\u043b\u0435\u0437\u043d\u043e\u0434\u043e\u0440\u043e\u0436\u043d\u0438\u043a\u043e\u0432 \u0441\u0442. \u041a\u0443\u043d\u0433\u0440\u0430\u0434"}}, {"type": "way", "id": 466305287, "center": {"lat": 43.0496902, "lon": 58.8454433}, "nodes": [4611334070, 4611334071, 6727480744, 4611334072, 4611334077, 4611334073, 4611334076, 4611334080, 4611334081, 4611334082, 4611334070], "tags": {"addr:city": "Qon'irat", "addr:country": "UZ", "addr:housenumber": "57", "addr:postcode": "230600", "addr:region": "Qaraqalpaqstan Respublikas\u0131", "addr:street": "Qaraqalpaqstan ko'shesi", "amenity": "hospital", "emergency": "yes", "name": "\u041a\u0443\u043d\u0433\u0440\u0430\u0434\u0441\u043a\u0430\u044f \u0446\u0435\u043d\u0442\u0440\u0430\u043b\u044c\u043d\u0430\u044f \u0440\u0430\u0439\u043e\u043d\u043d\u0430\u044f \u0431\u043e\u043b\u044c\u043d\u0438\u0446\u0430", "name:en": "Kungrad Central District Hospital", "name:ru": "\u041a\u0443\u043d\u0433\u0440\u0430\u0434\u0441\u043a\u0430\u044f \u0446\u0435\u043d\u0442\u0440\u0430\u043b\u044c\u043d\u0430\u044f \u0440\u0430\u0439\u043e\u043d\u043d\u0430\u044f \u0431\u043e\u043b\u044c\u043d\u0438\u0446\u0430", "phone": "+99 (861) 312-24-47"}}, {"type": "way", "id": 466305964, "center": {"lat": 43.0471498, "lon": 58.8400299}, "nodes": [4611338141, 4359942097, 4359942096, 4359942098, 4611338155, 4611338156, 4611338157, 4611338158, 4611338159, 4611338141], "tags": {"addr:country": "UZ", "addr:region": "Qaraqalpaqstan Respublikas\u0131", "amenity": "hospital", "name": "\u0414\u0435\u0442\u0441\u043a\u0430\u044f \u0440\u0430\u0439\u043e\u043d\u043d\u0430\u044f \u0431\u043e\u043b\u044c\u043d\u0438\u0446\u0430", "name:en": "Children's District Hospital", "name:ru": "\u0414\u0435\u0442\u0441\u043a\u0430\u044f \u0440\u0430\u0439\u043e\u043d\u043d\u0430\u044f \u0431\u043e\u043b\u044c\u043d\u0438\u0446\u0430"}}, {"type": "way", "id": 469334644, "center": {"lat": 49.693673, "lon": 53.5030586}, "nodes": [4636802799, 4636802800, 4636802801, 4636802802, 4636802803, 4636802805, 4636802804, 4636802799], "tags": {"amenity": "hospital", "name": "\u041a\u0430\u0440\u0430\u0442\u043e\u0431\u0438\u043d\u0441\u043a\u0430\u044f \u0440\u0430\u0439\u043e\u043d\u043d\u0430\u044f \u0431\u043e\u043b\u044c\u043d\u0438\u0446\u0430"}}, {"type": "way", "id": 477263474, "center": {"lat": 42.3409784, "lon": 59.5724515}, "nodes": [4706445105, 9669799578, 6768749071, 9673532510, 6768749072, 6768749073, 5135860185, 4706445107, 4706445108, 6483780015, 6483780018, 4706445109, 4706445105], "tags": {"addr:country": "UZ", "addr:housenumber": "3", "addr:region": "Qaraqalpaqstan Respublikas\u0131", "addr:street": "Babanov ko'shesi", "amenity": "hospital", "healthcare": "hospital", "healthcare:speciality": "psychiatry", "name": "Taq\u0131yatas RPND", "name:en": "Karakalpak Neuropsychiatric Dispensary \u21161", "name:ru": "\u041a\u0430\u0440\u0430\u043a\u0430\u043b\u043f\u0430\u043a\u0441\u043a\u0438\u0439 \u043f\u0441\u0438\u0445\u043e\u043d\u0435\u0432\u0440\u043e\u043b\u043e\u0433\u0438\u0447\u0435\u0441\u043a\u0438\u0439 \u0434\u0438\u0441\u043f\u0430\u043d\u0441\u0435\u0440 \u21161"}}, {"type": "way", "id": 482605376, "center": {"lat": 42.0776051, "lon": 59.9435186}, "nodes": [4754180249, 4754180250, 4754180268, 4754180267, 4754180251, 4754180252, 6311305987, 6311305986, 4754180249], "tags": {"addr:city": "Gubadag", "addr:street": "M Garlyyew k\u00f6\u00e7esi", "amenity": "hospital", "healthcare": "hospital", "healthcare:speciality": "general", "name": "Gubadag Hassahanasy", "name:en": "Gubadag Hospital", "name:tk": "Gubadag Hassahanasy"}}, {"type": "way", "id": 482707337, "center": {"lat": 41.8294792, "lon": 59.9504357}, "nodes": [4755084726, 4755084727, 4755084728, 4755084729, 4755084726], "tags": {"addr:city": "Dashoguz", "addr:street": "A\u015fgabat k\u00f6\u00e7esi", "amenity": "hospital", "healthcare": "hospital", "healthcare:speciality": "paediatrics", "layer": "-1", "name": "\u00c7agalar Hassahanasy", "name:en": "Children's Hospital", "name:ru": "\u0414\u0435\u0442\u0441\u043a\u0430\u044f \u0431\u043e\u043b\u044c\u043d\u0438\u0446\u0430", "name:tk": "\u00c7agalar Hassahanasy"}}, {"type": "way", "id": 483733897, "center": {"lat": 43.6977491, "lon": 51.3034923}, "nodes": [4764765184, 4764765183, 4764765182, 4764765181, 4764765180, 4764765179, 4764765178, 4764765184], "tags": {"amenity": "hospital", "barrier": "fence", "name": "\u041c\u0443\u043d\u0430\u0439\u043b\u0438\u043d\u0441\u043a\u0430\u044f \u0426\u0420\u0411", "name:ru": "\u041c\u0443\u043d\u0430\u0439\u043b\u0438\u043d\u0441\u043a\u0430\u044f \u0426\u0420\u0411"}}, {"type": "way", "id": 484867776, "center": {"lat": 42.3115934, "lon": 59.5939825}, "nodes": [4776138322, 4776138323, 4776138324, 4776138325, 4776138322], "tags": {"addr:country": "UZ", "addr:region": "Qaraqalpaqstan Respublikas\u0131", "amenity": "hospital", "healthcare": "hospital", "name": "Nayman aw\u0131ll\u0131q poliklinikas\u0131", "name:ru": "\u0421\u0435\u043b\u044c\u0441\u043a\u0438\u0439 \u0432\u0440\u0430\u0447\u0435\u0431\u043d\u044b\u0439 \u043f\u0443\u043d\u043a\u0442 \u00ab\u041d\u0430\u0439\u043c\u0430\u043d\u00bb"}}, {"type": "way", "id": 485045535, "center": {"lat": 43.4293365, "lon": 59.6714951}, "nodes": [4778030253, 4778030248, 4778030249, 4778030250, 4778030254, 4778030251, 4778030252, 4778030247, 10005956423, 4778030253], "tags": {"addr:country": "UZ", "addr:region": "Qaraqalpaqstan Respublikas\u0131", "amenity": "hospital", "healthcare": "hospital", "name:ru": "\u0412\u0440\u0430\u0447\u0435\u0431\u043d\u044b\u0439 \u043f\u0443\u043d\u043a\u0442 \u041a\u0430\u0437\u0430\u0445\u0434\u0430\u0440\u044c\u044f"}}, {"type": "way", "id": 485054848, "center": {"lat": 43.5640182, "lon": 59.1523871}, "nodes": [4778163837, 5293994000, 5293993999, 4778163838, 4778163843, 5293994002, 5293994001, 4778163844, 4778163846, 4778163837], "tags": {"addr:country": "UZ", "addr:region": "Qaraqalpaqstan Respublikas\u0131", "amenity": "hospital", "healthcare": "hospital", "name": "\"Shege\" aw\u0131l medecina punkt\u0131", "name:ru": "\u0421\u0435\u043b\u044c\u0441\u043a\u0438\u0439 \u0432\u0440\u0430\u0447\u0435\u0431\u043d\u044b\u0439 \u043f\u0443\u043d\u043a\u0442 \"\u0428\u0435\u0433\u0435\""}}, {"type": "way", "id": 488309700, "center": {"lat": 43.7716789, "lon": 59.0360778}, "nodes": [4779640505, 5077791854, 4779640506, 4779640507, 4785534751, 4779640508, 4779640505], "tags": {"addr:country": "UZ", "addr:postcode": "230800", "addr:region": "Qaraqalpaqstan Respublikas\u0131", "addr:street": "Kombinat ko'shesi", "amenity": "hospital", "healthcare": "hospital", "name:en": "District TB Dispensary", "name:ru": "\u0420\u0430\u0439\u043e\u043d\u043d\u044b\u0439 \u043f\u0440\u043e\u0442\u0438\u0432\u043e\u0442\u0443\u0431\u0435\u0440\u043a\u0443\u043b\u0435\u0437\u043d\u044b\u0439 \u0434\u0438\u0441\u043f\u0430\u043d\u0441\u0435\u0440", "phone": "+99 (861) 322-12-03"}}, {"type": "way", "id": 495170392, "center": {"lat": 42.4201878, "lon": 59.4798028}, "nodes": [4869511803, 4869511802, 4869511801, 4869511800, 4869511799, 4869511798, 4869511797, 4869511816, 4869511815, 4869511814, 4869511813, 4869511812, 4869511809, 6806169647, 4869511803], "tags": {"addr:country": "UZ", "addr:region": "Qaraqalpaqstan Respublikas\u0131", "amenity": "hospital", "name": "\u041c\u043d\u043e\u0433\u043e\u043f\u0440\u043e\u0444\u0438\u043b\u044c\u043d\u044b\u0439 \u0434\u0435\u0442\u0441\u043a\u0438\u0439 \u0441\u0430\u043d\u0430\u0442\u043e\u0440\u0438\u0439 \u0420\u0435\u0441\u043f\u0443\u0431\u043b\u0438\u043a\u0438 \u041a\u0430\u0440\u0430\u043a\u0430\u043b\u043f\u0430\u043a\u0441\u0442\u0430\u043d", "name:en": "Multidisciplinary children's sanatorium of the Republic of Karakalpakstan", "name:ru": "\u041c\u043d\u043e\u0433\u043e\u043f\u0440\u043e\u0444\u0438\u043b\u044c\u043d\u044b\u0439 \u0434\u0435\u0442\u0441\u043a\u0438\u0439 \u0441\u0430\u043d\u0430\u0442\u043e\u0440\u0438\u0439 \u0420\u0435\u0441\u043f\u0443\u0431\u043b\u0438\u043a\u0438 \u041a\u0430\u0440\u0430\u043a\u0430\u043b\u043f\u0430\u043a\u0441\u0442\u0430\u043d", "phone": "+99 (861) 556-13-76"}}, {"type": "way", "id": 496183731, "center": {"lat": 40.0160913, "lon": 52.9853977}, "nodes": [4879018451, 4879018452, 4879018453, 4879018454, 4879018451], "tags": {"addr:city": "Turkmenbashy", "addr:street": "Kemine k\u00f6\u00e7esi", "amenity": "hospital", "healthcare": "hospital", "layer": "-1", "name": "T\u00fcrkmenba\u015fy \u00c7agalar Hassahanasy", "name:en": "Turkmenbashy Children's Hospital", "name:ru": "\u0422\u0443\u0440\u043a\u043c\u0435\u043d\u0431\u0430\u0448\u0438\u043d\u0441\u043a\u0430\u044f \u0414\u0435\u0442\u0441\u043a\u0430\u044f \u0431\u043e\u043b\u044c\u043d\u0438\u0446\u0430", "name:tk": "T\u00fcrkmenba\u015fy \u00c7agalar Hassahanasy", "opening_hours": "24/7"}}, {"type": "way", "id": 502811152, "center": {"lat": 42.4235278, "lon": 59.4776523}, "nodes": [4931831616, 4931831615, 4931831614, 4931831613, 4931831612, 4931831616], "tags": {"addr:country": "UZ", "addr:region": "Qaraqalpaqstan Respublikas\u0131", "amenity": "hospital", "name": "\u21161 sanli ko'ptarmaqli poliklinika", "name:en": "Multidisciplinary Clinic \u21161", "name:ru": "\u041c\u043d\u043e\u0433\u043e\u043f\u0440\u043e\u0444\u0438\u043b\u044c\u043d\u0430\u044f \u043f\u043e\u043b\u0438\u043a\u043b\u0438\u043d\u0438\u043a\u0430 \u21161", "start_date": "2019"}}, {"type": "way", "id": 509007978, "center": {"lat": 43.9721068, "lon": 57.4939648}, "nodes": [4982975504, 4982975505, 4982975506, 4982975507, 4982975504], "tags": {"addr:country": "UZ", "addr:region": "Qaraqalpaqstan Respublikas\u0131", "amenity": "hospital", "name": "\u0413\u043e\u0440\u043e\u0434\u0441\u043a\u0430\u044f \u0431\u043e\u043b\u044c\u043d\u0438\u0446\u0430", "name:en": "City Hospital", "name:ru": "\u0413\u043e\u0440\u043e\u0434\u0441\u043a\u0430\u044f \u0431\u043e\u043b\u044c\u043d\u0438\u0446\u0430"}}, {"type": "way", "id": 523644631, "center": {"lat": 42.6259757, "lon": 58.9279557}, "nodes": [5097373004, 5097373005, 5097373006, 5095444596, 5095444595, 5095444594, 5095444593, 5097373011, 5095444597, 5095444598, 5095444592, 5097373007, 5097373008, 5097373009, 5097373010, 5097373004], "tags": {"addr:country": "UZ", "addr:region": "Qaraqalpaqstan Respublikas\u0131", "addr:street": "Abay ko'shesi", "amenity": "hospital", "barrier": "fence", "emergency": "yes", "name": "Shomanay orayliq emlewxanasi", "name:ru": "\u0428\u0443\u043c\u0430\u043d\u0430\u0439\u0441\u043a\u0430\u044f \u0446\u0435\u043d\u0442\u0440\u0430\u043b\u044c\u043d\u0430\u044f \u0440\u0430\u0439\u043e\u043d\u043d\u0430\u044f \u0431\u043e\u043b\u044c\u043d\u0438\u0446\u0430", "phone": "+99 (861) 345-22-61"}}, {"type": "way", "id": 524326532, "center": {"lat": 42.7718736, "lon": 59.6135072}, "nodes": [5102707247, 5187825734, 6961324722, 6961324732, 5102707249, 5102707250, 5102707251, 6961390495, 5187825759, 5187825758, 5187825743, 5187825742, 5187825747, 5187825739, 5102707247], "tags": {"addr:country": "UZ", "addr:region": "Qaraqalpaqstan Respublikas\u0131", "amenity": "hospital", "name": "Kegeyli rayoni orayliq emlewxanasi", "name:en": "Kegaili Central District Hospital", "name:ru": "\u041a\u0435\u0433\u0435\u0439\u043b\u0438\u0441\u043a\u0430\u044f \u0446\u0435\u043d\u0442\u0440\u0430\u043b\u044c\u043d\u0430\u044f \u0440\u0430\u0439\u043e\u043d\u043d\u0430\u044f \u0431\u043e\u043b\u044c\u043d\u0438\u0446\u0430"}}, {"type": "way", "id": 524897596, "center": {"lat": 41.8283904, "lon": 59.9800961}, "nodes": [5107273451, 5107273452, 5109111457, 5107273453, 5107273454, 5107273451], "tags": {"addr:city": "Dashoguz", "addr:street": "\u015eabat k\u00f6\u00e7esi", "amenity": "hospital", "healthcare": "hospital", "healthcare:speciality": "infectious_diseases", "name": "In\u00e7e Keseler Hassahanasy", "name:en": "Infectious Diseases Hospital", "name:ru": "\u0411\u043e\u043b\u044c\u043d\u0438\u0446\u0430 \u0438\u043d\u0444\u0435\u043a\u0446\u0438\u043e\u043d\u043d\u044b\u0445 \u0431\u043e\u043b\u0435\u0437\u043d\u0435\u0439", "name:tk": "In\u00e7e Keseler Hassahanasy"}}, {"type": "way", "id": 534306156, "center": {"lat": 42.4034149, "lon": 59.4409617}, "nodes": [5182113893, 5182113894, 5182113919, 5182113895, 5182113896, 5182113897, 5182113898, 5182113899, 5182115125, 5182113900, 5182115124, 5182113901, 5182113902, 5182113903, 5182113904, 5182113905, 5182113906, 5182113893], "tags": {"addr:country": "UZ", "addr:housenumber": "1", "addr:region": "Qaraqalpaqstan Respublikas\u0131", "addr:street": "Furhat ko'shesi", "amenity": "hospital", "healthcare": "hospital"}}, {"type": "way", "id": 586446682, "center": {"lat": 40.0097624, "lon": 53.1116814}, "nodes": [5603348122, 5603348123, 5603348124, 5603348125, 5603348126, 5603348127, 5603348128, 5603348129, 5603348122], "tags": {"addr:city": "T\u00fcrkmenba\u015fy \u015f\u00e4her\u00e7esi", "addr:housenumber": "2a", "addr:street": "Magtymguly k\u00f6\u00e7esi", "amenity": "hospital", "healthcare": "hospital", "layer": "-1", "name": "T\u00fcrkmenba\u015fy Etrap Hassahanasy", "name:en": "Turkmenbashy District Hospital", "name:ru": "\u0411\u043e\u043b\u044c\u043d\u0438\u0446\u0430 \u0442\u0443\u0440\u043a\u043c\u0435\u043d\u0431\u0430\u0448\u0438\u043d\u0441\u043a\u043e\u0433\u043e \u0440\u0430\u0439\u043e\u043d\u0430", "name:tk": "T\u00fcrkmenba\u015fy Etrap Hassahanasy", "phone": "(+993-243) 7-92-45;7-91-45;7-92-93;7-95-08"}}, {"type": "way", "id": 592847533, "center": {"lat": 41.7394886, "lon": 58.6959529}, "nodes": [5657157260, 5657157261, 5657157262, 5657157263, 5657157264, 5657157265, 5657157266, 5657157267, 5657157268, 5657157271, 5657157270, 5657157269, 5657157276, 5657157277, 5657157273, 5657157275, 5657157274, 5657157272, 5657157279, 5657157278, 5657157260], "tags": {"addr:city": "Ruhubelent", "amenity": "hospital", "building": "hospital", "building:levels": "2", "healthcare": "hospital", "healthcare:speciality": "general", "name": "Ruhubelent Etrap Hassahanasy", "name:en": "Ruhubelent General Hospital", "name:ru": "\u0411\u043e\u043b\u044c\u043d\u0438\u0446\u0430 \u0420\u0443\u0445\u0443\u0431\u0435\u043b\u0435\u043d\u0442\u0441\u043a\u043e\u0433\u043e \u0440\u0430\u0439\u043e\u043d\u0430", "name:tk": "Ruhubelent Etrap Hassahanasy", "phone": "(+993-342) 31-023"}}, {"type": "way", "id": 593138185, "center": {"lat": 42.3270438, "lon": 59.1697841}, "nodes": [5659254149, 6060793360, 5659254150, 6060793361, 6060793362, 6060793363, 6060793364, 5659254151, 5659254152, 5659254149], "tags": {"addr:city": "Koneurgench", "addr:street": "G Ataba\u00fdew k\u00f6\u00e7esi", "amenity": "hospital", "healthcare": "hospital", "healthcare:speciality": "general", "name": "K\u00f6neurgen\u00e7 Merkez Hassahana", "name:en": "Koneurgench Central Hospital", "name:ru": "\u0426\u0435\u043d\u0442\u0440\u0430\u043b\u044c\u043d\u0430\u044f \u0431\u043e\u043b\u044c\u043d\u0438\u0446\u0430 \u0433. \u041a\u0443\u043d\u0435\u0443\u0440\u0433\u0435\u043d\u0447", "name:tk": "K\u00f6neurgen\u00e7 Merkez Hassahana"}}, {"type": "way", "id": 616575470, "center": {"lat": 41.8304751, "lon": 59.946979}, "nodes": [5829201001, 5829201002, 5829201003, 5829201004, 5829201005, 5829201001], "tags": {"addr:city": "Dashoguz", "addr:street": "G\u00f6rogly k\u00f6\u00e7esi", "amenity": "hospital", "healthcare": "hospital", "healthcare:speciality": "obstetrics;gynaecology;paediatrics", "layer": "-1", "name": "Da\u015foguz Wela\u00fdat Ene M\u00e4hri Merkezi", "name:en": "Dashoguz Province Maternity Hospital", "name:ru": "\u0420\u043e\u0434\u0438\u043b\u044c\u043d\u044b\u0439 \u0434\u043e\u043c \u0434\u0430\u0448\u043e\u0433\u0443\u0437\u0441\u043a\u043e\u0433\u043e \u0432\u0435\u043b\u0430\u044f\u0442\u0430", "name:tk": "Da\u015foguz Wela\u00fdat Ene M\u00e4hri Merkezi"}}, {"type": "way", "id": 626457281, "center": {"lat": 43.2228841, "lon": 59.5837755}, "nodes": [5914166922, 5914166923, 5914166924, 5914166925, 5914166922], "tags": {"addr:country": "UZ", "addr:region": "Qaraqalpaqstan Respublikas\u0131", "amenity": "hospital", "healthcare": "hospital", "name": "\u0421\u0435\u043b\u044c\u0441\u043a\u0438\u0439 \u0432\u0440\u0430\u0447\u0435\u0431\u043d\u044b\u0439 \u043f\u0443\u043d\u043a\u0442 \u0428\u0430\u0445\u0430\u043c\u0430\u043d"}}, {"type": "way", "id": 633047687, "center": {"lat": 43.0953004, "lon": 58.7879816}, "nodes": [4513124782, 5976066859, 5976066860, 4513124781, 4513124782], "tags": {"addr:country": "UZ", "addr:region": "Qaraqalpaqstan Respublikas\u0131", "amenity": "hospital", "healthcare": "hospital", "name:ru": "\u0421\u0435\u043b\u044c\u0441\u043a\u0438\u0439 \u0432\u0440\u0430\u0447\u0435\u0431\u043d\u044b\u0439 \u043f\u0443\u043d\u043a\u0442"}}, {"type": "way", "id": 645296358, "center": {"lat": 41.6480154, "lon": 59.9243314}, "nodes": [6066322817, 6066322818, 6066322819, 6066322820, 6066322821, 6066322822, 6066322840, 6066322817], "tags": {"addr:city": "G\u00f6rogly", "addr:street": "P-165", "amenity": "hospital", "healthcare": "hospital", "healthcare:speciality": "general", "layer": "-1", "name": "G\u00f6rogly Etrap Hassahanasy", "name:en": "Gorogly District Hospital", "name:ru": "\u0413\u0451\u0440\u043e\u0433\u043b\u0438\u043d\u0441\u043a\u0430\u044f \u0440\u0430\u0439\u043e\u043d\u043d\u0430\u044f \u0431\u043e\u043b\u044c\u043d\u0438\u0446\u0430", "name:tk": "G\u00f6rogly Etrap Hassahanasy", "source": "https://www.mapillary.com/app/?pKey=XmAWbntysXCb_Mm92iKcuA&focus=photo"}}, {"type": "way", "id": 662320390, "center": {"lat": 43.7540203, "lon": 59.022354}, "nodes": [4788787668, 6175267195, 6175267193, 6200624220, 4802909142, 4788787677, 4788787680, 4788787681, 4788787674, 4788787672, 5097287979, 5097287980, 4391319886, 4802915097, 4788787669, 4788787668], "tags": {"addr:country": "UZ", "addr:housenumber": "13", "addr:region": "Qaraqalpaqstan Respublikas\u0131", "addr:street": "Sbornaya ko'shesi", "amenity": "hospital", "healthcare": "hospital", "name": "Moynaq rayon\u0131 orayl\u0131q emlewxanas\u0131", "name:en": "Central district multidisciplinary clinic", "name:ru": "\u0426\u0435\u043d\u0442\u0440\u0430\u043b\u044c\u043d\u0430\u044f \u0440\u0430\u0439\u043e\u043d\u043d\u0430\u044f \u043c\u043d\u043e\u0433\u043e\u043f\u0440\u043e\u0444\u0438\u043b\u044c\u043d\u0430\u044f \u043f\u043e\u043b\u0438\u043a\u043b\u0438\u043d\u0438\u043a\u0430", "opening_hours": "24/7", "phone": "+99 (861) 322-12-03"}}, {"type": "way", "id": 662320391, "center": {"lat": 43.7538967, "lon": 59.0207966}, "nodes": [6200624220, 5097287987, 5097287988, 5097287989, 5097287986, 4788787667, 4788787668, 6175267195, 6175267193, 6200624220], "tags": {"addr:country": "UZ", "addr:region": "Qaraqalpaqstan Respublikas\u0131", "amenity": "hospital", "healthcare": "hospital", "name": "Poliklinika", "name:en": "Polyclinic", "name:ru": "\u041f\u043e\u043b\u0438\u043a\u043b\u0438\u043d\u0438\u043a\u0430"}}, {"type": "way", "id": 668199258, "center": {"lat": 42.3335395, "lon": 59.5812775}, "nodes": [9672767051, 9672767052, 9672767053, 9672767054, 9672767058, 9672767061, 5074902527, 5074902526, 5074902525, 5074902552, 5074902529, 5074902530, 9672767051], "tags": {"addr:country": "UZ", "addr:region": "Qaraqalpaqstan Respublikas\u0131", "amenity": "hospital", "healthcare": "hospital", "name": "Balalar poliklinikas\u0131", "name:en": "Children's Hospital", "name:ru": "\u0414\u0435\u0442\u0441\u043a\u0430\u044f \u043f\u043e\u043b\u0438\u043a\u043b\u0438\u043d\u0438\u043a\u0430"}}, {"type": "way", "id": 674027315, "center": {"lat": 42.378275, "lon": 58.8061888}, "nodes": [6312169509, 6312169510, 6312169511, 6312169512, 6312169509], "tags": {"addr:street": "A\u015fgabat k\u00f6\u00e7esi", "amenity": "hospital", "healthcare": "hospital", "healthcare:speciality": "tuberculosis", "name": "In\u00e7ekeseller B\u00f6l\u00fcmi", "name:en": "Tuberculosis Ward", "name:tk": "In\u00e7ekeseller B\u00f6l\u00fcmi"}}, {"type": "way", "id": 682764064, "center": {"lat": 42.3271697, "lon": 59.160307}, "nodes": [6394688991, 6394688992, 6394689000, 6394688993, 6394688994, 6394688995, 6394688996, 6394688997, 6394688998, 6394688999, 6394688991], "tags": {"addr:city": "K\u00f6ne\u00fcrgen\u00e7", "addr:street": "G. Ataba\u00fdew k\u00f6\u00e7esi", "amenity": "hospital", "healthcare": "hospital"}}, {"type": "way", "id": 691235404, "center": {"lat": 42.4741144, "lon": 59.6199308}, "nodes": [6485924148, 6485924147, 6485924146, 6485924145, 9120551427, 6485924148], "tags": {"addr:city": "N\u00f3kis", "addr:country": "UZ", "addr:housenumber": "110 \u0410", "addr:region": "Qaraqalpaqstan Respublikas\u0131", "addr:street": "M. Jumanazarov k\u00f3shesi", "amenity": "hospital", "building": "hospital", "building:levels": "3", "healthcare": "hospital", "name": "QRDSSM Respublikal\u0131q patologiyal\u0131q anotomiya byuros\u0131", "name:en": "Republican Pathoanatomical Center", "name:ru": "\u0420\u0435\u0441\u043f\u0443\u0431\u043b\u0438\u043a\u0430\u043d\u0441\u043a\u0438\u0439 \u043f\u0430\u0442\u043e\u043b\u043e\u0433\u043e\u0430\u043d\u0430\u0442\u043e\u043c\u0438\u0447\u0435\u0441\u043a\u0438\u0439 \u0446\u0435\u043d\u0442\u0440 \u041c\u0417\u0420\u041a", "operator": "QRDSM"}}, {"type": "way", "id": 706329448, "center": {"lat": 40.0124303, "lon": 52.9930057}, "nodes": [6636958297, 6636958298, 6636958299, 6636958300, 6636958301, 6636958302, 6636958297], "tags": {"addr:city": "T\u00fcrkmenbashy", "addr:street": "Watan k\u00f6\u00e7esi", "amenity": "hospital", "healthcare": "hospital", "healthcare:speciality": "maternity", "name": "T\u00fcrkmenba\u015fy En\u00e4ni\u0148 we \u00c7agany\u0148 Saglygyny Gora\u00fdan Merkez", "name:en": "Turkmenbashy Maternity Hospital", "name:ru": "\u0420\u043e\u0434\u0438\u043b\u044c\u043d\u044b\u0439 \u0434\u043e\u043c \u0433. \u0422\u0443\u0440\u043a\u043c\u0435\u043d\u0431\u0430\u0448\u0438", "name:tk": "T\u00fcrkmenba\u015fy En\u00e4ni\u0148 we \u00c7agany\u0148 Saglygyny Gora\u00fdan Merkez"}}, {"type": "way", "id": 710001038, "center": {"lat": 40.0097423, "lon": 53.0055518}, "nodes": [6674203330, 6674203331, 6674203332, 6674203333, 6674203334, 6674203335, 6674203336, 6674203337, 6674203338, 6674203339, 6674203340, 6674203341, 6674203330], "tags": {"addr:city": "Turkmenbashy", "addr:street": "P-18", "amenity": "hospital", "healthcare": "hospital", "healthcare:speciality": "infectious_disease", "name": "Balkan Wela\u00fdat \u00ddokan\u00e7 Keseller Hassahanasy", "name:en": "Balkan Province Infectious Diseases Hospital", "name:ru": "\u0411\u043e\u043b\u044c\u043d\u0438\u0446\u0430 \u0438\u043d\u0444\u0435\u043a\u0446\u0438\u043e\u043d\u043d\u044b\u0445 \u0431\u043e\u043b\u0435\u0437\u043d\u0435\u0439 \u0411\u0430\u043b\u043a\u0430\u043d\u0441\u043a\u043e\u0433\u043e \u0432\u0435\u043b\u0430\u044f\u0442\u0430", "name:tk": "Balkan Wela\u00fdat \u00ddokan\u00e7 Keseller Hassahanasy"}}, {"type": "way", "id": 715196824, "center": {"lat": 47.1000451, "lon": 51.8912322}, "nodes": [1343162406, 1343162395, 1343162397, 1343162398, 6722074192, 6722074193, 6722074194, 6722074195, 6722074196, 6722074197, 6722074198, 6722074199, 6722074200, 6722074201, 6722074202, 6722074203, 7119166662, 7119166663, 7119166661, 7119166660, 6722074204, 1343162406], "tags": {"amenity": "hospital", "barrier": "fence", "healthcare": "hospital"}}, {"type": "way", "id": 717032055, "center": {"lat": 47.1284874, "lon": 51.952032}, "nodes": [6734438792, 6734438811, 6734438793, 6734438794, 6734438795, 6734438796, 6734438797, 6734438798, 6734438792], "tags": {"amenity": "hospital", "barrier": "fence", "healthcare": "hospital"}}, {"type": "way", "id": 718121862, "center": {"lat": 42.4590318, "lon": 59.5835916}, "nodes": [5412774011, 6752993072, 6568150624, 6568150630, 5412774013, 5412774012, 5412774011], "tags": {"addr:city": "N\u00f3kis", "addr:country": "UZ", "addr:housenumber": "117 \u0411", "addr:region": "Qaraqalpaqstan Respublikas\u0131", "addr:street": "Xojeli g\u00fazar\u0131", "amenity": "hospital", "email": "res.sanepidem@exat.uz", "fax": "+998612248820", "healthcare": "hospital", "name": "QR Sanitariya-Epidemologiyal\u0131q t\u0131n\u0131shl\u0131q h\u00e1m j\u00e1miyet salamatl\u0131\u01f5\u0131 basqarmas\u0131", "name:en": "Center of State Sanitary and Epidemiological Supervision of Karakarpakistan", "name:ru": "\u0413\u043e\u0441\u0443\u0434\u0430\u0440\u0441\u0442\u0432\u0435\u043d\u043d\u044b\u0439 \u0446\u0435\u043d\u0442\u0440 \u0441\u0430\u043d\u0438\u0442\u0430\u0440\u043d\u043e-\u044d\u043f\u0438\u0434\u0435\u043c\u0438\u043e\u043b\u043e\u0433\u0438\u0447\u0435\u0441\u043a\u043e\u0433\u043e \u043d\u0430\u0434\u0437\u043e\u0440\u0430 \u0420\u0435\u0441\u043f\u0443\u0431\u043b\u0438\u043a\u0438 \u041a\u0430\u0440\u0430\u043a\u0430\u043b\u043f\u0430\u043a\u0441\u0442\u0430\u043d", "operator": "QRDSM", "phone": "+998612248820", "website": "https://qqses.uz/"}}, {"type": "way", "id": 726992005, "center": {"lat": 47.0794036, "lon": 51.8806969}, "nodes": [6813283766, 3418047457, 6813283767, 6813283768, 6813283769, 6813283770, 6813283771, 6813283766], "tags": {"amenity": "hospital", "barrier": "fence", "healthcare": "hospital"}}, {"type": "way", "id": 761688480, "center": {"lat": 42.5801822, "lon": 59.5577639}, "nodes": [5198524040, 5198524041, 5198524038, 5198524039, 7116516194, 7116516193, 5198524040], "tags": {"addr:country": "UZ", "addr:region": "Qaraqalpaqstan Respublikas\u0131", "amenity": "hospital", "healthcare": "hospital", "name": "Juqpal\u0131 kesellikler bolimi", "name:ru": "\u0418\u043d\u0444\u0435\u043a\u0446\u0438\u043e\u043d\u043d\u043e\u0435 \u043e\u0442\u0434\u0435\u043b\u0435\u043d\u0438\u0435"}}, {"type": "way", "id": 761965822, "center": {"lat": 47.1012119, "lon": 51.8913877}, "nodes": [6722074204, 7119166660, 7119166661, 7119166663, 7119166662, 7119166664, 6722074204], "tags": {"amenity": "hospital", "barrier": "fence", "healthcare": "hospital"}}, {"type": "way", "id": 770055586, "center": {"lat": 46.9717406, "lon": 51.7835902}, "nodes": [7188819787, 7188819788, 7188819789, 7188819790, 7188819787], "tags": {"amenity": "hospital", "barrier": "fence", "healthcare": "hospital"}}, {"type": "way", "id": 770987673, "center": {"lat": 42.5801237, "lon": 59.5604498}, "nodes": [7196847988, 7196848008, 7196847989, 7196847990, 7196847991, 7196847992, 7196847993, 7196847994, 7196847995, 7196847996, 7196847997, 7196847998, 7196847999, 7196847988], "tags": {"addr:country": "UZ", "addr:region": "Qaraqalpaqstan Respublikas\u0131", "amenity": "hospital", "healthcare": "hospital", "name": "Qaraqalpaqstan Respublikas\u0131 may\u0131pl\u0131\u01f5\u0131 bol\u01f5an puqaralard\u0131 reabilitaciya q\u0131l\u0131w h\u00e1m protezlew oray\u0131", "name:en": "Rehabilitation and Prosthetics Center for the Disabled of the Republic of Karakalpakstan", "name:ru": "\u0426\u0435\u043d\u0442\u0440 \u0440\u0435\u0430\u0431\u0438\u043b\u0438\u0442\u0430\u0446\u0438\u0438 \u0438 \u043f\u0440\u043e\u0442\u0435\u0437\u0438\u0440\u043e\u0432\u0430\u043d\u0438\u044f \u0438\u043d\u0432\u0430\u043b\u0438\u0434\u043e\u0432 \u0420\u0435\u0441\u043f\u0443\u0431\u043b\u0438\u043a\u0438 \u041a\u0430\u0440\u0430\u043a\u0430\u043b\u043f\u0430\u043a\u0441\u0442\u0430\u043d"}}, {"type": "way", "id": 775734352, "center": {"lat": 47.2538221, "lon": 51.8919368}, "nodes": [7236983095, 7236983096, 7236983097, 7236983098, 7236983095], "tags": {"amenity": "hospital", "barrier": "fence", "healthcare": "hospital"}}, {"type": "way", "id": 788115506, "center": {"lat": 42.4740876, "lon": 59.6057933}, "nodes": [7368480309, 3849046018, 3849046019, 3849046020, 3849046006, 5030972952, 7368480310, 7368480309], "tags": {"addr:city": "N\u00f3kis", "addr:country": "UZ", "addr:housenumber": "110", "addr:region": "Qaraqalpaqstan Respublikas\u0131", "addr:street": "K. Nurmuxamedov k\u00f3shesi", "amenity": "hospital", "emergency": "no", "healthcare": "hospital", "name": "Begjanov at\u0131nda\u01f5\u0131 Respublikal\u0131q balalar tuberkulyoz\u01f5a qars\u0131 sanatoriyas\u0131", "name:en": "National Children's Tuberculosis Sanatorium", "name:ru": "\u0420\u0435\u0441\u043f\u0443\u0431\u043b\u0438\u043a\u0430\u043d\u0441\u043a\u0438\u0439 \u0434\u0435\u0442\u0441\u043a\u0438\u0439 \u043f\u0440\u043e\u0442\u0438\u0432\u043e\u0442\u0443\u0431\u0435\u0440\u043a\u0443\u043b\u0435\u0437\u043d\u044b\u0439 \u0441\u0430\u043d\u0430\u0442\u043e\u0440\u0438\u0439 \u0438\u043c. \u0411\u0435\u0433\u0436\u0430\u043d\u043e\u0432\u0430", "operator": "QRDSM", "phone": "+998612245204"}}, {"type": "way", "id": 788115508, "center": {"lat": 42.4746782, "lon": 59.6057019}, "nodes": [3849046017, 7368480309, 7368480310, 3849046005, 3849046015, 3849046016, 6802973459, 6802973439, 3849046017], "tags": {"addr:city": "N\u00f3kis", "addr:country": "UZ", "addr:region": "Qaraqalpaqstan Respublikas\u0131", "amenity": "hospital", "healthcare": "hospital", "name": "Respublikal\u0131q balalar tubdispanceri", "name:en": "Children's Republican Tuberculosis Dispensary", "name:ru": "\u0414\u0435\u0442\u0441\u043a\u0438\u0439 \u0440\u0435\u0441\u043f\u0443\u0431\u043b\u0438\u043a\u0430\u043d\u0441\u043a\u0438\u0439 \u0442\u0443\u0431\u0435\u0440\u043a\u0443\u043b\u0435\u0437\u043d\u044b\u0439 \u0434\u0438\u0441\u043f\u0430\u043d\u0441\u0435\u0440", "operator": "QRDSM"}}, {"type": "way", "id": 800201688, "center": {"lat": 43.341873, "lon": 52.8600343}, "nodes": [7483580449, 7483580450, 7483580451, 7483580452, 7483580453, 7483580454, 7483580455, 7483580456, 7483580457, 7483580458, 7483580459, 7483580460, 7483580461, 7483580462, 7483580463, 7483580464, 7483580465, 7483580466, 7483580467, 7483580468, 7483580449], "tags": {"addr:housenumber": "39", "addr:street": "1-\u0439 \u043c\u0438\u043a\u0440\u043e\u0440\u0430\u0439\u043e\u043d", "amenity": "hospital", "healthcare": "hospital", "name": "\u0420\u043e\u0434\u0434\u043e\u043c"}}, {"type": "way", "id": 805579008, "center": {"lat": 40.5205234, "lon": 50.105613}, "nodes": [7534041071, 10606948285, 7534041070, 10606948286, 7534041069, 10616490521, 10606948288, 10606948287, 7534041068, 7534041067, 7534041066, 7534041065, 7534041064, 7534041063, 7534041062, 7534041071], "tags": {"amenity": "hospital"}}, {"type": "way", "id": 815494820, "center": {"lat": 42.8355187, "lon": 59.4966438}, "nodes": [7616351252, 7616351253, 7616351254, 7616351255, 7616351256, 7616351257, 7616351258, 7616351259, 7616351260, 7616351252], "tags": {"addr:country": "UZ", "addr:region": "Qaraqalpaqstan Respublikas\u0131", "amenity": "hospital", "healthcare": "hospital"}}, {"type": "way", "id": 830399556, "center": {"lat": 42.478605, "lon": 59.6578528}, "nodes": [7752139265, 7752139266, 9215777597, 7752139267, 7752139268, 9215777601, 9215777602, 10118636493, 9215777598, 10118636487, 9215773491, 9215773500, 9215773490, 7752139265], "tags": {"addr:city": "N\u00f3kis", "addr:country": "UZ", "addr:region": "Qaraqalpaqstan Respublikas\u0131", "amenity": "hospital", "healthcare": "hospital", "healthcare:speciality": "biology", "name": "COVID-19 karantin zonas\u0131", "name:en": "The quarantine zone COVID-19", "name:ru": "\u0417\u043e\u043d\u0430 \u043a\u0430\u0440\u0430\u043d\u0442\u0438\u043d\u0430 COVID-19", "operator": "QRDSM"}}, {"type": "way", "id": 865614971, "center": {"lat": 42.5673196, "lon": 59.6430141}, "nodes": [5933354463, 5933354460, 6851133723, 5933354461, 5933354462, 5933354479, 5933354476, 5933354463], "tags": {"addr:country": "UZ", "addr:region": "Qaraqalpaqstan Respublikas\u0131", "amenity": "hospital", "healthcare": "hospital", "name": "Respublikal\u0131q leprazoriya", "name:ru": "\u0420\u0435\u0441\u043f\u0443\u0431\u043b\u0438\u043a\u0430\u043d\u0441\u043a\u0438\u0439 \u043b\u0435\u043f\u0440\u043e\u0437\u043e\u0440\u0438\u0438"}}, {"type": "way", "id": 871567428, "center": {"lat": 43.0551899, "lon": 58.8115386}, "nodes": [8118118196, 8118118197, 8118118198, 8118118199, 8118118196], "tags": {"addr:country": "UZ", "addr:region": "Qaraqalpaqstan Respublikas\u0131", "amenity": "hospital", "healthcare": "hospital", "name:en": "Republican Kungrad Interdistrict tuberculosis hospital No. 4", "name:ru": "\u0420\u0435\u0441\u043f\u0443\u0431\u043b\u0438\u043a\u0430\u043d\u0441\u043a\u0430\u044f \u041a\u0443\u043d\u0433\u0440\u0430\u0434\u0441\u043a\u0430\u044f \u043c\u0435\u0436\u0440\u0430\u0439\u043e\u043d\u043d\u0430\u044f \u0442\u0443\u0431\u0435\u0440\u043a\u0443\u043b\u0435\u0437\u043d\u0430\u044f \u0431\u043e\u043b\u044c\u043d\u0438\u0446\u0430 \u21164"}}, {"type": "way", "id": 872328440, "center": {"lat": 47.1608349, "lon": 51.8458643}, "nodes": [8124773819, 8124773820, 8124773821, 8124773822, 8124773819], "tags": {"amenity": "hospital", "barrier": "fence", "healthcare": "hospital", "healthcare:speciality": "infectious_diseases", "name": "\u0418\u043d\u0444\u0435\u043a\u0446\u0438\u043e\u043d\u043d\u043e\u0435 \u043e\u0442\u0434\u0435\u043b\u0435\u043d\u0438\u0435 \u0410\u0442\u044b\u0440\u0430\u0443\u0441\u043a\u043e\u0439 \u043e\u0431\u043b\u0430\u0441\u0442\u043d\u043e\u0439 \u0431\u043e\u043b\u044c\u043d\u0438\u0446\u044b \u2116 2", "note": "Built 4 modular buildings with 200 beds, for CoViD19\n\u0418\u043d\u0444\u0435\u043a\u0446\u0438\u043e\u043d\u043d\u043e\u0435 \u043e\u0442\u0434\u0435\u043b\u0435\u043d\u0438\u0435 \u041a\u0413\u041f \u043d\u0430 \u041f\u0425\u0412 \"\u0410\u0442\u044b\u0440\u0430\u0443\u0441\u043a\u0430\u044f \u043e\u0431\u043b\u0430\u0441\u0442\u043d\u0430\u044f \u0431\u043e\u043b\u044c\u043d\u0438\u0446\u0430 \u2116 2\"\nhttps://www.youtube.com/watch?v=DqubPZCC8YQ"}}, {"type": "way", "id": 926196532, "center": {"lat": 47.0250261, "lon": 51.8118587}, "nodes": [8595114087, 8595114088, 8595114089, 8595114090, 8595114087], "tags": {"amenity": "hospital", "barrier": "fence", "healthcare": "hospital"}}, {"type": "way", "id": 926196536, "center": {"lat": 47.1071449, "lon": 51.9308758}, "nodes": [8595114112, 8595114113, 8595114114, 8595114115, 8595114112], "tags": {"amenity": "hospital", "barrier": "fence", "healthcare": "hospital"}}, {"type": "way", "id": 962148147, "center": {"lat": 40.00741, "lon": 52.9866483}, "nodes": [8899978715, 8899978716, 8899978717, 8899978718, 8899978719, 8899978720, 8899978721, 8899978715], "tags": {"addr:city": "Turkmenbashy", "addr:street": "Adalat (Gogol) k\u00f6\u00e7esi", "amenity": "hospital", "healthcare": "hospital", "name": "Harby hassahanasy", "name:en": "Military Hospital", "name:ru": "\u0412\u043e\u0435\u043d\u043d\u044b\u0439 \u0433\u043e\u0441\u043f\u0438\u0442\u0430\u043b\u044c", "name:tk": "Harby hassahanasy"}}, {"type": "way", "id": 968622710, "center": {"lat": 47.5012406, "lon": 51.7154068}, "nodes": [8961417353, 8961417354, 8961417355, 8961417356, 8961417353], "tags": {"amenity": "hospital", "barrier": "fence", "healthcare": "hospital"}}, {"type": "way", "id": 969665821, "center": {"lat": 47.8820615, "lon": 51.6591574}, "nodes": [8973143941, 8973143942, 8973143943, 8973143944, 8973143945, 8973143946, 8973143947, 8973143948, 8973143941], "tags": {"amenity": "hospital", "barrier": "fence", "healthcare": "hospital"}}, {"type": "way", "id": 969665822, "center": {"lat": 47.8814935, "lon": 51.6586132}, "nodes": [8973143949, 8973143950, 8973143951, 8973143952, 8973143949], "tags": {"amenity": "hospital", "barrier": "fence", "healthcare": "hospital"}}, {"type": "way", "id": 972956094, "center": {"lat": 48.0471146, "lon": 54.4935045}, "nodes": [10250463339, 10250463338, 9005202195, 9005202196, 10250463339], "tags": {"amenity": "hospital", "barrier": "fence", "healthcare": "hospital"}}, {"type": "way", "id": 973242171, "center": {"lat": 48.5495486, "lon": 51.616023}, "nodes": [9007864730, 9007864728, 9007864731, 9007864732, 9007864730], "tags": {"amenity": "hospital", "barrier": "fence", "healthcare": "hospital"}}, {"type": "way", "id": 973849584, "center": {"lat": 48.8787231, "lon": 53.7972883}, "nodes": [9012351299, 9012351300, 9012351301, 9012351302, 9012351303, 9012351304, 9012351299], "tags": {"amenity": "hospital", "barrier": "fence", "healthcare": "hospital"}}, {"type": "way", "id": 974421773, "center": {"lat": 48.2656315, "lon": 51.6042316}, "nodes": [9017964370, 9017964371, 9017964372, 9017964373, 9017964370], "tags": {"amenity": "hospital", "barrier": "fence", "healthcare": "hospital"}}, {"type": "way", "id": 975426332, "center": {"lat": 47.4225548, "lon": 51.8743326}, "nodes": [9026581294, 9026581295, 9026581296, 9026581297, 9026581294], "tags": {"amenity": "hospital", "barrier": "fence", "healthcare": "hospital"}}, {"type": "way", "id": 975769023, "center": {"lat": 47.5083967, "lon": 52.9513901}, "nodes": [9029492517, 9029492518, 9029492519, 9029492520, 9029492517], "tags": {"amenity": "hospital", "barrier": "fence", "healthcare": "hospital"}}, {"type": "way", "id": 975769044, "center": {"lat": 47.5379764, "lon": 52.9825223}, "nodes": [9029492695, 9029492696, 9029492697, 9029492698, 9029492695], "tags": {"amenity": "hospital", "barrier": "fence", "healthcare": "hospital"}}, {"type": "way", "id": 977669487, "center": {"lat": 47.0898215, "lon": 51.8738065}, "nodes": [3417290377, 9046470198, 9046470213, 9046470199, 9046470200, 9046470203, 9046470201, 9046470202, 9046470204, 9046470205, 9046470206, 9046470208, 9046470207, 3417290377], "tags": {"amenity": "hospital", "healthcare": "hospital"}}, {"type": "way", "id": 977669488, "center": {"lat": 47.0898826, "lon": 51.8761193}, "nodes": [3417287281, 9046470209, 9046470210, 9046470211, 9046470212, 9046470199, 9046470213, 9046521719, 9046470214, 9046470215, 9046470216, 9046521718, 9046521717, 3417285595, 3417290301, 3417287281], "tags": {"amenity": "hospital", "healthcare": "hospital"}}, {"type": "way", "id": 978186654, "center": {"lat": 48.7819058, "lon": 52.8798815}, "nodes": [9051369796, 9051369797, 9051369798, 9051369799, 9051369796], "tags": {"amenity": "hospital", "barrier": "fence", "healthcare": "hospital"}}, {"type": "way", "id": 978268066, "center": {"lat": 48.955692, "lon": 53.7311504}, "nodes": [9052082564, 9052082565, 9052082566, 9052082567, 9052082564], "tags": {"amenity": "hospital", "barrier": "fence", "healthcare": "hospital"}}, {"type": "way", "id": 979905271, "center": {"lat": 46.8462411, "lon": 53.8167522}, "nodes": [9064904715, 9064904716, 9064904717, 9064904718, 9064904715], "tags": {"amenity": "hospital", "barrier": "fence", "healthcare": "hospital"}}, {"type": "way", "id": 980089342, "center": {"lat": 46.9302888, "lon": 53.8742899}, "nodes": [9066464381, 9066464382, 9066464383, 9066464384, 9066464381], "tags": {"amenity": "hospital", "barrier": "fence", "healthcare": "hospital"}}, {"type": "way", "id": 982100499, "center": {"lat": 46.9601303, "lon": 53.985624}, "nodes": [9082987666, 9082987667, 9082987668, 9082987673, 9082987674, 9082987669, 9082987670, 9082987671, 9082987672, 9082987666], "tags": {"amenity": "hospital", "barrier": "fence", "healthcare": "hospital"}}, {"type": "way", "id": 983709579, "center": {"lat": 47.0441784, "lon": 53.9209996}, "nodes": [9095330568, 9095330569, 9095330570, 9095330571, 9095330568], "tags": {"amenity": "hospital", "barrier": "fence", "healthcare": "hospital"}}, {"type": "way", "id": 987107193, "center": {"lat": 47.6506053, "lon": 53.3401846}, "nodes": [9124031797, 9124031798, 9124031799, 9124031800, 9124031801, 9124031797], "tags": {"amenity": "hospital", "barrier": "fence", "healthcare": "hospital"}}, {"type": "way", "id": 996122323, "center": {"lat": 47.5484512, "lon": 51.5146469}, "nodes": [9198110674, 9198110675, 9198110676, 9198110677, 9198110674], "tags": {"amenity": "hospital", "barrier": "fence", "healthcare": "hospital"}}, {"type": "way", "id": 997453066, "center": {"lat": 47.2182341, "lon": 51.0114698}, "nodes": [9210115560, 9210115561, 9210115562, 9210115563, 9210115560], "tags": {"amenity": "hospital", "barrier": "fence", "healthcare": "hospital"}}, {"type": "way", "id": 997453067, "center": {"lat": 47.2162042, "lon": 51.0079088}, "nodes": [9210115564, 9210115565, 9210115566, 9210115567, 9210115564], "tags": {"amenity": "hospital", "barrier": "fence", "healthcare": "hospital"}}, {"type": "way", "id": 997546964, "center": {"lat": 47.0488653, "lon": 50.8054067}, "nodes": [9210884330, 9210884331, 9210884332, 9210884333, 9210884334, 9210884335, 9210884330], "tags": {"amenity": "hospital", "barrier": "fence", "healthcare": "hospital"}}, {"type": "way", "id": 997784049, "center": {"lat": 47.0428854, "lon": 50.5320923}, "nodes": [9212885553, 9212885554, 9212885555, 9212885556, 9212885557, 9212885558, 9212885553], "tags": {"amenity": "hospital", "barrier": "fence", "healthcare": "hospital"}}, {"type": "way", "id": 997951319, "center": {"lat": 46.8001927, "lon": 50.067924}, "nodes": [9214428010, 9214428011, 9214428012, 9214428013, 9214428010], "tags": {"amenity": "hospital", "barrier": "fence", "healthcare": "hospital"}}, {"type": "way", "id": 1068769653, "center": {"lat": 46.9667671, "lon": 53.9931151}, "nodes": [9810750130, 9810750131, 9789151384, 9810750132, 9810750133, 9810750174, 9810750175, 9810750176, 9810750130], "tags": {"amenity": "hospital", "barrier": "fence", "healthcare": "hospital"}}, {"type": "way", "id": 1068769654, "center": {"lat": 46.9678347, "lon": 53.9914193}, "nodes": [9810750133, 9810750132, 9810750137, 9810750136, 9810750138, 9810750134, 9810750139, 9810750135, 9810750133], "tags": {"amenity": "hospital", "barrier": "fence", "healthcare": "hospital"}}, {"type": "way", "id": 1072833432, "center": {"lat": 40.5327806, "lon": 50.1032929}, "nodes": [9842710886, 3199199649, 9842710885, 9842710884, 9842710883, 9842710882, 9842710881, 9842710880, 3199152850, 9842710886], "tags": {"amenity": "hospital"}}, {"type": "way", "id": 1078075958, "center": {"lat": 46.9588721, "lon": 53.9215643}, "nodes": [9884098523, 9884098524, 9884098525, 9884098526, 9884098527, 9884098528, 9884098529, 9884098530, 9884098523], "tags": {"amenity": "hospital", "barrier": "fence", "healthcare": "hospital", "name": "\u041f\u0440\u043e\u0442\u0438\u0432\u043e\u0442\u0443\u0431\u0435\u0440\u043a\u0443\u043b\u0435\u0437\u043d\u0430\u044f \u0431\u043e\u043b\u044c\u043d\u0438\u0446\u0430"}}, {"type": "way", "id": 1080158151, "center": {"lat": 46.9626566, "lon": 54.0058044}, "nodes": [9900892678, 9900892679, 9900892689, 9900892680, 9900892681, 9900892682, 9900892683, 9900892684, 9900892685, 9901711089, 9901711087, 9901711088, 9900892686, 9900892688, 9900892678], "tags": {"amenity": "hospital", "barrier": "fence", "healthcare": "hospital"}}, {"type": "way", "id": 1084173309, "center": {"lat": 42.5980437, "lon": 59.5376044}, "nodes": [9935092706, 9935092707, 9935092708, 9935092709, 9935092710, 9935092711, 9935092712, 7020226732, 7020226734, 7020226735, 4174296309, 4174296306, 7020226731, 4174296304, 4174296303, 9935098035, 9935092703, 9935098034, 9935092704, 9935092705, 9935098033, 9935092706], "tags": {"addr:country": "UZ", "addr:region": "Qaraqalpaqstan Respublikas\u0131", "amenity": "hospital", "healthcare": "hospital", "name": "N\u00f3kis rayon\u0131 orayl\u0131q emlewxanas\u0131", "name:en": "Central district hospital of Nukus district", "name:ru": "\u0426\u0435\u043d\u0442\u0440\u0430\u043b\u044c\u043d\u0430\u044f \u0440\u0430\u0439\u043e\u043d\u043d\u0430\u044f \u0431\u043e\u043b\u044c\u043d\u0438\u0446\u0430 \u041d\u0443\u043a\u0443\u0441\u0441\u043a\u043e\u0433\u043e \u0440\u0430\u0439\u043e\u043d\u0430", "phone": "+998614255246"}}, {"type": "way", "id": 1085881079, "center": {"lat": 48.5641641, "lon": 53.4465828}, "nodes": [9949902971, 9949902972, 9949902973, 9949902974, 9949902971], "tags": {"amenity": "hospital", "barrier": "fence", "healthcare": "hospital"}}, {"type": "way", "id": 1088914501, "center": {"lat": 40.4469455, "lon": 50.3413517}, "nodes": [9975728516, 9975728515, 9975728514, 9975728513, 9975728512, 9975728511, 9975734801, 9975734804, 6267644726, 9975728516], "tags": {"amenity": "hospital"}}, {"type": "way", "id": 1089303646, "center": {"lat": 40.4652855, "lon": 50.3269516}, "nodes": [9978450179, 9978450178, 9978450177, 2911637023, 9978450176, 9978450179], "tags": {"amenity": "hospital", "name": "X\u0259st\u0259xana \\ Pirallah\u0131"}}, {"type": "way", "id": 1089507488, "center": {"lat": 40.4537795, "lon": 50.3368818}, "nodes": [9980190685, 9980190684, 9980190683, 9980190682, 9980190685], "tags": {"amenity": "hospital", "name": "35 sayl\u0131 Kardio Nevroloji Sanatoriya \\ Pirallah\u0131"}}, {"type": "way", "id": 1091081225, "center": {"lat": 40.3620846, "lon": 50.2333438}, "nodes": [9993500994, 9993500993, 9993500992, 9993500991, 9993500990, 10751630987, 9993500994], "tags": {"amenity": "hospital", "name": "1 sayl\u0131 A\u011f Ciy\u0259r Sanatoriyas\u0131 \\ T\u00fcrkan", "name:az": "1 sayl\u0131 A\u011f Ciy\u0259r Sanatoriyas\u0131 \\ T\u00fcrkan"}}, {"type": "way", "id": 1091714922, "center": {"lat": 40.3593904, "lon": 50.0782024}, "nodes": [9998561378, 9998561377, 9998561376, 9998561375, 9998561378], "tags": {"amenity": "hospital", "healthcare": "hospital"}}, {"type": "way", "id": 1091912339, "center": {"lat": 40.439676, "lon": 50.1718193}, "nodes": [10000240549, 10000240548, 10000240547, 10000240546, 10000240545, 10000240544, 10000240549], "tags": {"amenity": "hospital"}}, {"type": "way", "id": 1092192858, "center": {"lat": 40.362127, "lon": 50.0726875}, "nodes": [10002852592, 10002852591, 10002852590, 10002852589, 10002852588, 3400582746, 10002852592], "tags": {"amenity": "hospital", "healthcare": "hospital", "name": "16 sayl\u0131 U\u015faq Poliklinikas\u0131 \\ H\u00f6vsan"}}, {"type": "way", "id": 1092444442, "center": {"lat": 40.3756992, "lon": 50.0846583}, "nodes": [10004983784, 10004983783, 10004983782, 10004983781, 10004983780, 10004983779, 10004983778, 10004983784], "tags": {"amenity": "hospital", "healthcare": "hospital", "name": "Poliklinika 23 \\ H\u00f6vsan"}}, {"type": "way", "id": 1094995278, "center": {"lat": 40.4309668, "lon": 50.0367688}, "nodes": [10028122273, 10028122272, 10028122271, 10028122270, 10028274375, 10028274376, 10028274372, 10028122269, 10028122268, 10028122273], "tags": {"amenity": "hospital", "healthcare": "hospital", "name": "12 sayl\u0131 X\u0259st\u0259xana \\ Yeni Suraxan\u0131"}}, {"type": "way", "id": 1097351719, "center": {"lat": 40.4109065, "lon": 50.0105569}, "nodes": [10047945365, 7387851140, 10047945364, 10047945363, 10047945362, 3563696957, 10047945365], "tags": {"amenity": "hospital", "healthcare": "hospital"}}, {"type": "way", "id": 1099429424, "center": {"lat": 48.6171514, "lon": 51.756472}, "nodes": [10065206273, 10065261202, 10065261203, 10065261204, 10065206273], "tags": {"amenity": "hospital", "barrier": "fence", "healthcare": "hospital"}}, {"type": "way", "id": 1099948249, "center": {"lat": 48.3744579, "lon": 51.5611793}, "nodes": [9006846206, 9006846207, 10069597739, 10069597740, 10069597741, 10069597742, 10069597743, 10069597744, 10069597745, 9006846206], "tags": {"amenity": "hospital", "barrier": "fence", "healthcare": "hospital"}}, {"type": "way", "id": 1099952470, "center": {"lat": 48.2683346, "lon": 51.5251988}, "nodes": [10069639326, 10069639327, 10069639328, 10069639329, 10069639330, 10069639331, 10069639326], "tags": {"amenity": "hospital", "barrier": "fence", "healthcare": "hospital"}}, {"type": "way", "id": 1099960670, "center": {"lat": 47.7164257, "lon": 51.5540269}, "nodes": [10069718085, 10069718086, 10069718087, 10069718088, 10069718085], "tags": {"amenity": "hospital", "barrier": "fence", "healthcare": "hospital"}}, {"type": "way", "id": 1100984048, "center": {"lat": 47.7258315, "lon": 51.5826148}, "nodes": [10076168114, 10076168115, 10076168116, 10076242617, 10076242618, 10076242619, 10076242620, 10076242621, 10076242622, 10076242623, 10076168114], "tags": {"amenity": "hospital", "barrier": "fence", "healthcare": "hospital"}}, {"type": "way", "id": 1101356505, "center": {"lat": 47.6638636, "lon": 51.5790399}, "nodes": [10078735494, 10078735495, 10078735496, 10078735497, 10078735498, 10078735499, 10078735500, 10078735501, 10078735502, 10078735503, 10078735494], "tags": {"amenity": "hospital", "barrier": "fence", "healthcare": "hospital"}}, {"type": "way", "id": 1101367642, "center": {"lat": 47.6655017, "lon": 51.5793222}, "nodes": [10078981297, 10078981298, 10078981299, 10078981300, 10078981297], "tags": {"amenity": "hospital", "barrier": "fence", "healthcare": "hospital"}}, {"type": "way", "id": 1101616115, "center": {"lat": 47.6026227, "lon": 51.6141725}, "nodes": [10081074772, 10081074773, 10081074774, 10081074775, 10081074772], "tags": {"amenity": "hospital", "barrier": "fence", "healthcare": "hospital"}}, {"type": "way", "id": 1102261868, "center": {"lat": 47.4513276, "lon": 51.7900049}, "nodes": [10086123255, 10086123256, 10086123257, 10086123258, 10086123255], "tags": {"amenity": "hospital", "barrier": "fence", "healthcare": "hospital"}}, {"type": "way", "id": 1102878810, "center": {"lat": 47.342444, "lon": 51.8783456}, "nodes": [10092189659, 10092189660, 10092189661, 10092189662, 10092189659], "tags": {"amenity": "hospital", "barrier": "fence", "healthcare": "hospital"}}, {"type": "way", "id": 1103280930, "center": {"lat": 48.3938042, "lon": 51.6415601}, "nodes": [10096173489, 10096173490, 10096173491, 10096173492, 10096173489], "tags": {"amenity": "hospital", "barrier": "fence", "healthcare": "hospital", "name": "\u041f\u0440\u043e\u0442\u0438\u0432\u043e\u0447\u0443\u043c\u043d\u0430\u044f \u0441\u0442\u0430\u043d\u0446\u0438\u044f"}}, {"type": "way", "id": 1103292168, "center": {"lat": 48.3954341, "lon": 51.6463256}, "nodes": [10096254405, 10096254406, 10096254407, 10096254408, 10096254405], "tags": {"amenity": "hospital", "barrier": "fence", "healthcare": "hospital"}}, {"type": "way", "id": 1103738298, "center": {"lat": 48.1266083, "lon": 51.6026484}, "nodes": [10100146364, 10100146365, 10100146366, 10100146367, 10100146364], "tags": {"amenity": "hospital", "barrier": "fence", "healthcare": "hospital"}}, {"type": "way", "id": 1118646146, "center": {"lat": 45.4476808, "lon": 56.1046999}, "nodes": [10230954729, 10230954726, 10230954727, 10230954728, 10230954729], "tags": {"amenity": "hospital", "building": "hospital"}}, {"type": "way", "id": 1123515606, "center": {"lat": 49.890717, "lon": 57.3254225}, "nodes": [10274773146, 10274763586, 10274770804, 10274772781, 10274768537, 10274767293, 10274773774, 10274764217, 10274771509, 10274773458, 10274769205, 10274771195, 10274766193, 10274764778, 10274738178, 10274762279, 10274769831, 10274771821, 10274767606, 10274769521, 10274773146], "tags": {"addr:housenumber": "24", "addr:street": "\u0443\u043b\u0438\u0446\u0430 \u0415\u0441\u0435\u0442\u0430 \u0411\u0430\u0442\u044b\u0440\u0430", "amenity": "hospital", "building": "yes", "building:levels": "3", "name": "\u0426\u0420\u0411"}}, {"type": "way", "id": 1123780958, "center": {"lat": 49.8173746, "lon": 57.3460752}, "nodes": [10277061046, 10277060597, 10277061668, 10277061112, 10277061046], "tags": {"addr:city": "\u0422\u0430\u043c\u0434\u0430", "addr:housenumber": "1", "addr:street": "\u0443\u043b\u0438\u0446\u0430 \u0422. \u0410\u0445\u0442\u0430\u043d\u043e\u0432", "amenity": "hospital", "building": "yes"}}, {"type": "way", "id": 1125218005, "center": {"lat": 47.1422706, "lon": 51.9617396}, "nodes": [10289786318, 10289786319, 10289786320, 10289786321, 10289786318], "tags": {"amenity": "hospital", "barrier": "fence", "healthcare": "hospital"}}, {"type": "way", "id": 1132168857, "center": {"lat": 40.5302286, "lon": 50.0059944}, "nodes": [10556677356, 10556677355, 10556677354, 10556677353, 10556677356], "tags": {"amenity": "hospital", "name": "7 sayl\u0131 \u015e\u0259h\u0259r X\u0259st\u0259xanas\u0131 \\ Ma\u015fta\u011fa"}}, {"type": "way", "id": 1133214954, "center": {"lat": 40.5460273, "lon": 50.0061292}, "nodes": [10565614396, 10565614395, 10565614394, 10565614393, 10565614392, 10565614391, 10565614390, 10565614396], "tags": {"amenity": "hospital", "name": "Narkoloji M\u0259rk\u0259z \\ Ma\u015fta\u011fa"}}, {"type": "way", "id": 1133290161, "center": {"lat": 40.5382033, "lon": 50.0028334}, "nodes": [10566103931, 10566103930, 10566103929, 10566103928, 10566103927, 10566103931], "tags": {"amenity": "hospital", "name": "14 sayl\u0131 T\u0259cili Tibbi Yard\u0131m \\ Ma\u015fta\u011fa"}}, {"type": "way", "id": 1134950848, "center": {"lat": 40.5661409, "lon": 50.0329285}, "nodes": [10580035912, 10580035899, 10580035911, 10580035910, 10580035909, 10580035908, 10580035907, 10580035906, 10580035905, 10580035904, 10580035912], "tags": {"amenity": "hospital", "barrier": "fence", "name": "U\u015faq Reabilitasiya M\u0259rk\u0259zi \\ Bilg\u0259h"}}, {"type": "way", "id": 1136526677, "center": {"lat": 40.5266826, "lon": 50.0697754}, "nodes": [10594730534, 10594730533, 10594730532, 10594730531, 10594730534], "tags": {"amenity": "hospital", "name": "20 sayl\u0131 Tibb M\u0259nt\u0259q\u0259si \\ Albal\u0131l\u0131q"}}, {"type": "way", "id": 1139007393, "center": {"lat": 40.5161594, "lon": 50.1172491}, "nodes": [10616612529, 10616612528, 10616612527, 10616612526, 10616612529], "tags": {"amenity": "hospital", "barrier": "fence", "name": "18 sayl\u0131 T\u0259cili Yard\u0131m \\ Buzovna"}}, {"type": "way", "id": 1144504475, "center": {"lat": 40.5274142, "lon": 50.1044972}, "nodes": [10652904917, 10652904916, 10652904915, 10652904914, 10652904913, 10652904912, 10652904911, 10652904910, 10652904909, 10652904908, 10652904907, 10652904906, 10652904905, 10652830404, 10652830403, 10652830402, 10652904917], "tags": {"amenity": "hospital"}}, {"type": "way", "id": 1144897000, "center": {"lat": 40.53194, "lon": 50.0997139}, "nodes": [9842671257, 10655847804, 10655847803, 10655847802, 10655847801, 10655847800, 9842671257], "tags": {"amenity": "hospital"}}, {"type": "way", "id": 1147717430, "center": {"lat": 40.4975217, "lon": 50.1352632}, "nodes": [10679077851, 10679077850, 10679077849, 10679077848, 10679077847, 10679077846, 10679077845, 10679077844, 3201839697, 10679077851], "tags": {"amenity": "hospital"}}, {"type": "way", "id": 1148043950, "center": {"lat": 40.4906681, "lon": 50.1545854}, "nodes": [10681691753, 3209719021, 10681691752, 10681691792, 10681691789, 10681691790, 10681691751, 10681691804, 3209719016, 10681691760, 10681691757, 10681691758, 10681691759, 3209719022, 3209719023, 10681691750, 10681691749, 10681691748, 10681691747, 10681691746, 10681691745, 10681691744, 10681691743, 10681691742, 10681691741, 10681691753], "tags": {"amenity": "hospital"}}, {"type": "way", "id": 1148329848, "center": {"lat": 40.4930741, "lon": 50.1472315}, "nodes": [10684179771, 10684179770, 10684179769, 10684179768, 10684179767, 10686546744, 10684179761, 10686546743, 10684179766, 10684179765, 10684179764, 10684179763, 10684179771], "tags": {"amenity": "hospital"}}, {"type": "way", "id": 1148609435, "center": {"lat": 40.4919843, "lon": 50.1441456}, "nodes": [10686553643, 10686553642, 10686553641, 10686553640, 10686553639, 10686553638, 10686553637, 10686553636, 10686553635, 10686553634, 10686553633, 10686553632, 10686553631, 10686553630, 10686553629, 10686553628, 10686553627, 10686553626, 10686553643], "tags": {"amenity": "hospital"}}, {"type": "way", "id": 1148621971, "center": {"lat": 40.4878133, "lon": 50.154094}, "nodes": [10686641246, 10707572420, 10686641245, 10686641244, 10686641243, 10686641242, 10686641241, 10686641240, 10728419649, 10728419650, 10728419651, 10686641246], "tags": {"amenity": "hospital"}}, {"type": "way", "id": 1148904695, "center": {"lat": 40.4911924, "lon": 50.1701993}, "nodes": [10688846401, 10688846400, 10688846399, 10722275213, 10688846397, 10688846396, 10688846401], "tags": {"amenity": "hospital"}}, {"type": "way", "id": 1148920697, "center": {"lat": 40.4890085, "lon": 50.1670175}, "nodes": [10689010694, 10689010693, 10689010692, 10689010691, 10689010690, 10689010689, 10689010688, 10689010687, 10689010770, 10689010769, 10689010775, 10689010686, 10689010685, 10689010684, 10689010683, 10689010682, 10689010681, 10689010680, 10689010767, 10689010679, 10689010678, 10689010677, 10689010676, 10689010675, 10689010674, 10689010673, 10689010672, 10689010671, 10689010835, 10689010694], "tags": {"amenity": "hospital"}}, {"type": "way", "id": 1150792794, "center": {"lat": 40.4795702, "lon": 50.1572771}, "nodes": [10707685632, 10707685619, 10707685620, 10707685634, 10707685637, 10707685636, 10707685635, 10705191819, 10705191818, 10686776224, 10705191817, 10705191816, 10705191822, 10705191821, 10707685621, 10707685622, 10707685623, 10707685624, 10707685625, 10707685626, 10707685627, 10707685628, 10707685629, 10707685630, 10707685631, 10707685632], "tags": {"amenity": "hospital"}}, {"type": "way", "id": 1153051855, "center": {"lat": 40.4835925, "lon": 50.1788112}, "nodes": [10724405955, 10724405954, 10724405953, 10724405952, 10724405951, 10724405950, 10724405949, 10724405948, 10724405947, 10724405960, 10724405946, 10724405955], "tags": {"amenity": "hospital", "name": "4 sayl\u0131 Stomatik U\u015faq Sanatoriyas\u0131 \\ \u015e\u00fcv\u0259lan"}}, {"type": "way", "id": 1153340718, "center": {"lat": 40.4970072, "lon": 50.1946985}, "nodes": [10726579832, 10726579831, 10726579830, 10726579829, 10726579832], "tags": {"addr:street": "Ba\u011flar k\u00fc\u00e7.", "amenity": "hospital", "name": "31 sayl\u0131 \u015f\u0259h\u0259r X\u0259st\u0259xanas\u0131 \\ \u015e\u00fcv\u0259lan Qres", "phone": "(+994 12) 459-00-57, (+994 12) 459-13-73"}}, {"type": "way", "id": 1153586493, "center": {"lat": 40.4931236, "lon": 50.1556772}, "nodes": [10728328598, 10728328597, 10728328596, 10728328595, 10728328594, 10728328593, 10728328592, 10728328591, 3231612893, 10728328590, 10728328589, 10728328588, 10728328587, 10728328586, 10728328598], "tags": {"amenity": "hospital", "name": "Sosial M\u00fcdafi\u0259 Nazirliyinin Pansionat\u0131 \\ M\u0259rd\u0259kan"}}, {"type": "way", "id": 1159048665, "center": {"lat": 40.4494761, "lon": 50.0893428}, "nodes": [10778634225, 10778634224, 10778634223, 10778634222, 10778634225], "tags": {"amenity": "hospital", "name": "28 sayl\u0131 X\u0259st\u0259xana \\ Bin\u0259"}}, {"type": "way", "id": 1178139322, "center": {"lat": 47.0782497, "lon": 51.8804267}, "nodes": [10944391850, 10944391851, 10944391852, 10944391853, 10944391854, 10944391855, 10944391850], "tags": {"amenity": "hospital", "barrier": "fence", "healthcare": "hospital"}}, {"type": "way", "id": 1188792694, "center": {"lat": 44.5422348, "lon": 50.2518101}, "nodes": [11038599364, 11038599365, 11038599366, 11038599367, 11038599364], "tags": {"addr:housenumber": "25", "addr:street": "\u0443\u043b\u0438\u0446\u0430 \u0421\u0430\u0442\u0442\u0438\u0433\u0443\u043b \u0416\u0430\u043d\u0433\u0430\u0431\u044b\u043b\u043e\u0432", "amenity": "hospital", "healthcare": "hospital", "name": "\u0411\u0430\u0443\u0442\u0438\u043d\u0441\u043a\u0430\u044f \u0432\u0440\u0430\u0447\u0435\u0431\u043d\u0430\u044f \u0430\u043c\u0431\u0443\u043b\u0430\u0442\u043e\u0440\u0438\u044f"}}, {"type": "way", "id": 1188792754, "center": {"lat": 44.5421324, "lon": 50.2522821}, "nodes": [11038557973, 11038557974, 11038557975, 11038557976, 11038557977, 11038557978, 11038557973], "tags": {"addr:street": "\u0443\u043b\u0438\u0446\u0430 \u0421\u0430\u0442\u0442\u0438\u0433\u0443\u043b \u0416\u0430\u043d\u0433\u0430\u0431\u044b\u043b\u043e\u0432", "amenity": "hospital", "healthcare": "hospital", "name": "\u042b\u049b\u044b\u043b\u0430\u0441 \u043a\u043b\u0438\u043d\u0438\u043a\u0430"}}, {"type": "relation", "id": 7042207, "center": {"lat": 42.3282304, "lon": 59.5755137}, "members": [{"type": "way", "ref": 478978924, "role": "outer"}, {"type": "way", "ref": 478978923, "role": "outer"}], "tags": {"addr:country": "UZ", "addr:postcode": "231001", "addr:region": "Qaraqalpaqstan Respublikas\u0131", "addr:street": "Babanov ko'shesi", "amenity": "hospital", "healthcare": "hospital", "name": "Taq\u0131yatas rayon\u0131 emlewxanas\u0131", "name:en": "Hospital of Takhiatash district", "name:ru": "\u0411\u043e\u043b\u044c\u043d\u0438\u0446\u0430 \u0422\u0430\u0445\u0438\u0430\u0442\u0430\u0448\u0441\u043a\u043e\u0433\u043e \u0440\u0430\u0439\u043e\u043d\u0430", "phone": "+99 (861) 572-27- 37", "type": "multipolygon"}}]}