{"version": 0.6, "generator": "Overpass API 0.7.61.5 4133829e", "osm3s": {"timestamp_osm_base": "2023-10-31T21:00:55Z", "copyright": "The data included in this document is from www.openstreetmap.org. The data is made available under ODbL."}, "elements": [{"type": "node", "id": 1006770592, "lat": 49.6220975, "lon": 128.6459464, "tags": {"amenity": "hospital"}}, {"type": "node", "id": 1187270941, "lat": 41.768038, "lon": 123.434247, "tags": {"amenity": "hospital", "healthcare": "hospital", "name": "\u5317\u90e8\u6218\u533a\u603b\u533b\u9662"}}, {"type": "node", "id": 1893554749, "lat": 43.8061973, "lon": 125.2061149, "tags": {"amenity": "hospital", "name": "Municipal Hospital of Guangshan Rheumatism"}}, {"type": "node", "id": 2036339700, "lat": 41.7683555, "lon": 123.4651042, "tags": {"amenity": "hospital"}}, {"type": "node", "id": 2086835451, "lat": 41.8362202, "lon": 123.4204903, "tags": {"amenity": "hospital", "name": "MADEIN"}}, {"type": "node", "id": 2105329354, "lat": 42.909927, "lon": 129.5044173, "tags": {"amenity": "hospital", "designation": "AAA", "emergency": "yes", "healthcare": "hospital", "name": "\u5ef6\u8fb9\u533b\u9662", "name:zh": "\u5ef6\u8fb9\u533b\u9662", "name:zh-Hans": "\u5ef6\u8fb9\u533b\u9662", "name:zh-Hant": "\u5ef6\u908a\u91ab\u9662", "operator": "\u5ef6\u8fb9\u5927\u5b66", "source": "http://202.111.175.53/"}}, {"type": "node", "id": 2335448224, "lat": 46.622099, "lon": 124.8898393, "tags": {"amenity": "hospital", "emergency": "yes", "healthcare": "hospital", "name": "\u9f99\u5357\u533b\u9662"}}, {"type": "node", "id": 2406771340, "lat": 41.792344, "lon": 123.4040173, "tags": {"amenity": "hospital", "healthcare": "hospital", "name": "\u95e8\u8bca"}}, {"type": "node", "id": 2598715433, "lat": 42.7702614, "lon": 129.421144, "tags": {"amenity": "hospital", "name": "\u9f99\u4e95\u4eba\u6c11\u533b\u9662 \ub8e1\uc815\uc778\ubbfc\uc758\uc6d0"}}, {"type": "node", "id": 3010618484, "lat": 43.8745809, "lon": 125.298429, "tags": {"amenity": "hospital", "name": "\u95e8\u8bca"}}, {"type": "node", "id": 3015789240, "lat": 43.8748888, "lon": 125.2976162, "tags": {"amenity": "hospital", "name": "\u6025\u8bca"}}, {"type": "node", "id": 3147205219, "lat": 42.8872971, "lon": 129.488912, "tags": {"amenity": "hospital", "healthcare": "hospital", "name": "\u5ef6\u5409\u60e0\u7231\u533b\u9662", "name:ko": "\uc5f0\uae38\ud61c\uc560\ubcd1\uc6d0", "name:zh": "\u5ef6\u5409\u60e0\u7231\u533b\u9662", "name:zh-Hans": "\u5ef6\u5409\u60e0\u7231\u533b\u9662", "name:zh-Hant": "\u5ef6\u5409\u60e0\u611b\u91ab\u9662"}}, {"type": "node", "id": 3374258805, "lat": 43.9091408, "lon": 125.385849, "tags": {"amenity": "hospital", "name": "\u6821\u533b\u9662"}}, {"type": "node", "id": 3392317860, "lat": 44.7626104, "lon": 129.683339, "tags": {"amenity": "hospital", "name": "\u6797\u4e1a\u533b\u9662"}}, {"type": "node", "id": 3674620569, "lat": 41.7810037, "lon": 123.4242184, "tags": {"amenity": "hospital", "healthcare": "hospital"}}, {"type": "node", "id": 3963729662, "lat": 43.8939027, "lon": 127.3413266, "tags": {"amenity": "hospital", "name": "\u5409\u6797\u5e02\u7b2c\u4e5d\u4eba\u6c11\u533b\u9662"}}, {"type": "node", "id": 4005751625, "lat": 44.4170791, "lon": 126.9420645, "tags": {"amenity": "hospital", "name": "\u7231\u6c11\u533b\u9662"}}, {"type": "node", "id": 4011265547, "lat": 44.4096091, "lon": 126.938732, "tags": {"amenity": "hospital", "name": "\u5e02\u533b\u9662\u4f4f\u9662\u5904"}}, {"type": "node", "id": 4011265548, "lat": 44.4093406, "lon": 126.9387109, "tags": {"amenity": "hospital", "name": "\u5e02\u533b\u9662\u95e8\u8bca\u697c"}}, {"type": "node", "id": 4021032028, "lat": 44.4051416, "lon": 126.9474279, "tags": {"amenity": "hospital", "name": "\u4e2d\u533b\u9662"}}, {"type": "node", "id": 4285891103, "lat": 47.6254408, "lon": 123.604366, "tags": {"amenity": "hospital"}}, {"type": "node", "id": 4380266489, "lat": 49.7990201, "lon": 129.8761541, "tags": {"amenity": "hospital", "emergency": "yes", "name": "\u0413\u0411\u0423\u0417 \u0410\u041e \u00ab\u0411\u0443\u0440\u0435\u0439\u0441\u043a\u0430\u044f \u0440\u0430\u0439\u043e\u043d\u043d\u0430\u044f \u0431\u043e\u043b\u044c\u043d\u0438\u0446\u0430\u00bb", "phone": "+7 41634 21503", "website": "http://bureiskayacrb.ru"}}, {"type": "node", "id": 4412863240, "lat": 43.793983, "lon": 125.4045947, "tags": {"amenity": "hospital", "name": "\u6821\u533b\u9662"}}, {"type": "node", "id": 4464720590, "lat": 45.7620701, "lon": 126.6376034, "tags": {"amenity": "hospital", "healthcare": "hospital", "name:en": "physical examination"}}, {"type": "node", "id": 4514826690, "lat": 41.7801632, "lon": 123.437598, "tags": {"amenity": "hospital", "healthcare": "hospital", "name": "\u8fbd\u5b81\u5949\u5929\u4e2d\u533b\u9662", "name:zh": "\u8fbd\u5b81\u5949\u5929\u4e2d\u533b\u9662"}}, {"type": "node", "id": 4533253889, "lat": 41.7866688, "lon": 123.4189586, "tags": {"amenity": "hospital", "healthcare": "hospital", "name": "\u7b2c\u4e03\u4eba\u6c11\u533b\u9662/\u76ae\u80a4\u75c5\u533b\u9662", "name:zh": "\u7b2c\u4e03\u4eba\u6c11\u533b\u9662/\u76ae\u80a4\u75c5\u533b\u9662"}}, {"type": "node", "id": 4758974922, "lat": 41.8018069, "lon": 123.4822438, "tags": {"amenity": "hospital", "healthcare": "hospital", "name:en": "Global Doctors Krankenhaus"}}, {"type": "node", "id": 4804842726, "lat": 46.5838398, "lon": 125.139104, "tags": {"amenity": "hospital", "name": "\u6821\u533b\u9662"}}, {"type": "node", "id": 4877490021, "lat": 41.8027989, "lon": 123.4479397, "tags": {"amenity": "hospital", "healthcare": "hospital", "name": "Frauenkrankenhaus", "name:zh": "Frauenkrankenhaus"}}, {"type": "node", "id": 5350950527, "lat": 44.606814, "lon": 129.5981217, "tags": {"amenity": "hospital", "healthcare": "hospital", "name": "\u5229\u5065\u533b\u9662"}}, {"type": "node", "id": 5365115518, "lat": 42.0969536, "lon": 124.9132116, "tags": {"amenity": "hospital", "emergency": "yes", "healthcare": "hospital", "name": "\u6e05\u539f\u53bf\u533b\u9662"}}, {"type": "node", "id": 5371620086, "lat": 41.7841187, "lon": 123.4073777, "tags": {"amenity": "hospital", "healthcare": "hospital", "name": "202\u533b\u9662"}}, {"type": "node", "id": 5527703294, "lat": 44.5884194, "lon": 129.5523642, "tags": {"amenity": "hospital", "healthcare": "hospital", "name": "\u6821\u533b\u9662"}}, {"type": "node", "id": 5593461521, "lat": 45.7095832, "lon": 126.6535515, "tags": {"amenity": "hospital", "name:en": "The Fifth Hospital of Harbin"}}, {"type": "node", "id": 5636869321, "lat": 41.7716892, "lon": 123.4215018, "tags": {"addr:housenumber": "36", "addr:postcode": "110004", "addr:street": "\u4e09\u597d\u8857", "amenity": "hospital", "healthcare": "hospital", "name": "\u533b\u5927\u76db\u4eac\u533b\u9662", "name:en": "Shengjing Hospital of China Medical University", "name:zh": "\u4e2d\u56fd\u533b\u79d1\u5927\u5b66\u9644\u5c5e\u76db\u4eac\u533b\u9662", "opening_hours": "24/7"}}, {"type": "node", "id": 5643179135, "lat": 44.5989691, "lon": 129.5909679, "tags": {"amenity": "hospital", "healthcare": "hospital", "name": "\u6797\u4e1a\u533b\u9662"}}, {"type": "node", "id": 5668602142, "lat": 43.850277, "lon": 125.3912057, "tags": {"addr:city": "\u957f\u6625\u5e02", "addr:district": "\u7ecf\u6d4e\u6280\u672f\u5f00\u53d1\u533a", "addr:province": "\u5409\u6797\u7701", "addr:street": "\u4e1c\u5357\u6e56\u5927\u8def Nanhu East Rd", "amenity": "hospital", "healthcare": "hospital", "name": "\u957f\u6625\u9aa8\u4f24\u533b\u9662"}}, {"type": "node", "id": 5692919284, "lat": 44.6015051, "lon": 129.6457429, "tags": {"amenity": "hospital", "healthcare": "hospital", "name": "\u7b2c\u4e00\u533b\u9662\u5206\u9662"}}, {"type": "node", "id": 5693950999, "lat": 44.5860619, "lon": 129.6009122, "tags": {"amenity": "hospital", "healthcare": "hospital", "name": "\u91d1\u76fe\u533b\u9662"}}, {"type": "node", "id": 5947078685, "lat": 44.588098, "lon": 129.6095095, "tags": {"amenity": "hospital", "healthcare": "hospital", "name": "\u7acb\u94f6\u9aa8\u4f24\u533b\u9662"}}, {"type": "node", "id": 6017555437, "lat": 49.7454453, "lon": 129.6748349, "tags": {"addr:housenumber": "30", "addr:street": "\u041b\u0435\u043d\u0438\u043d\u0433\u0440\u0430\u0434\u0441\u043a\u0430\u044f \u0443\u043b\u0438\u0446\u0430", "amenity": "hospital", "healthcare": "hospital", "name": "\u0422\u0435\u0440\u0430\u043f\u0438\u044f"}}, {"type": "node", "id": 6017555438, "lat": 49.7457521, "lon": 129.6744648, "tags": {"addr:housenumber": "30", "addr:street": "\u041b\u0435\u043d\u0438\u043d\u0433\u0440\u0430\u0434\u0441\u043a\u0430\u044f \u0443\u043b\u0438\u0446\u0430", "amenity": "hospital", "healthcare": "hospital", "name": "\u0420\u043e\u0434\u0434\u043e\u043c"}}, {"type": "node", "id": 6017555439, "lat": 49.7459757, "lon": 129.6739176, "tags": {"addr:housenumber": "30", "addr:street": "\u041b\u0435\u043d\u0438\u043d\u0433\u0440\u0430\u0434\u0441\u043a\u0430\u044f \u0443\u043b\u0438\u0446\u0430", "amenity": "hospital", "healthcare": "hospital", "name": "\u0425\u0438\u0440\u0443\u0440\u0433\u0438\u044f"}}, {"type": "node", "id": 6024135885, "lat": 49.7459117, "lon": 129.674285, "tags": {"amenity": "hospital", "name": "\u0411\u043e\u043b\u044c\u043d\u0438\u0446\u0430"}}, {"type": "node", "id": 6028906020, "lat": 41.1025297, "lon": 122.992841, "tags": {"amenity": "hospital", "emergency": "yes", "name": "\u978d\u5c71\u5e02\u4e2d\u5fc3\u533b\u9662"}}, {"type": "node", "id": 6065603033, "lat": 49.8055589, "lon": 129.4004138, "tags": {"addr:city": "\u0420\u0430\u0439\u0447\u0438\u0445\u0438\u043d\u0441\u043a", "addr:housenumber": "66", "addr:street": "\u0443\u043b\u0438\u0446\u0430 \u041f\u043e\u0431\u0435\u0434\u044b", "amenity": "hospital", "healthcare": "hospital", "name": "\u0422\u0443\u0431\u0434\u0438\u0441\u043f\u0430\u043d\u0441\u0435\u0440", "operator": "\u0422\u0443\u0431\u0434\u0438\u0441\u043f\u0430\u043d\u0441\u0435\u0440"}}, {"type": "node", "id": 6065951779, "lat": 49.7925893, "lon": 129.4042873, "tags": {"addr:city": "\u0420\u0430\u0439\u0447\u0438\u0445\u0438\u043d\u0441\u043a", "addr:housenumber": "25", "addr:street": "\u0443\u043b\u0438\u0446\u0430 \u041f\u043e\u0431\u0435\u0434\u044b", "amenity": "hospital", "healthcare": "hospital", "name": "\u0410\u043c\u0443\u0440\u0444\u0430\u0440\u043c\u0430\u0446\u0438\u044f", "operator": "\u0410\u043c\u0443\u0440\u0444\u0430\u0440\u043c\u0430\u0446\u0438\u044f"}}, {"type": "node", "id": 6269568196, "lat": 42.1010121, "lon": 127.5051838, "tags": {"amenity": "hospital", "healthcare": "hospital", "name": "\u6ed1\u96ea\u670d\u52a1\u4e2d\u5fc3\u533b\u52a1\u5ba4"}}, {"type": "node", "id": 6269568214, "lat": 42.0983543, "lon": 127.4895012, "tags": {"amenity": "hospital", "healthcare": "doctor", "name": "Search and Rescue Station"}}, {"type": "node", "id": 7029684534, "lat": 41.8093643, "lon": 128.3163321, "tags": {"amenity": "hospital"}}, {"type": "node", "id": 7892285085, "lat": 43.8767634, "lon": 125.2966079, "tags": {"amenity": "hospital", "healthcare": "hospital", "name:en": "1st Jilin Hospital"}}, {"type": "node", "id": 7923602766, "lat": 44.5390256, "lon": 129.6088483, "tags": {"amenity": "hospital", "healthcare": "hospital", "name": "\u7261\u4e39\u6c5f\u5e02\u4e2d\u533b\u533b\u9662\u6c5f\u5357\u9662\u533a"}}, {"type": "node", "id": 7925029508, "lat": 49.5624337, "lon": 128.4704939, "tags": {"amenity": "hospital", "healthcare": "hospital", "name": "\u900a\u514b\u4e2d\u533b\u533b\u9662"}}, {"type": "node", "id": 8356641739, "lat": 41.7912511, "lon": 125.7776397, "tags": {"amenity": "hospital", "healthcare": "hospital", "name": "\u901a\u5316\u5e02\u65b0\u51a0\u75ab\u60c5\u9632\u63a7\u96c6\u4e2d\u9694\u79bb\u70b9(\u65b9\u8231\u533b\u9662)"}}, {"type": "node", "id": 8385907644, "lat": 45.7454011, "lon": 126.5982204, "tags": {"addr:city": "\u54c8\u5c14\u6ee8\u5e02", "addr:district": "\u9053\u91cc\u533a", "addr:province": "\u9ed1\u9f99\u6c5f\u7701", "addr:street": "\u901a\u8fbe\u8857", "amenity": "hospital", "emergency": "yes", "healthcare": "hospital", "name": "\u54c8\u5c14\u6ee8\u5987\u4ea7\u533b\u9662"}}, {"type": "node", "id": 8440321192, "lat": 43.8506034, "lon": 125.2791006, "tags": {"amenity": "hospital", "healthcare": "hospital", "healthcare:speciality": "clinic", "name": "\u957f\u6625\u5de5\u7a0b\u5b66\u9662\u6821\u533b\u9662", "name:en": "Changchun Institute of Technology School Clinic", "name:zh": "\u957f\u6625\u5de5\u7a0b\u5b66\u9662\u6821\u533b\u9662", "name:zh-Hans": "\u957f\u6625\u5de5\u7a0b\u5b66\u9662\u6821\u533b\u9662", "name:zh_pinyin": "Ch\u00e1ngch\u016bn G\u014dngch\u00e9ng Xu\u00e9yu\u00e0n Xi\u00e0oy\u012byu\u00e0n"}}, {"type": "node", "id": 8481603399, "lat": 41.0878292, "lon": 123.0057822, "tags": {"amenity": "hospital", "healthcare": "hospital", "name": "\u978d\u5c71\u5e02\u534e\u5eb7\u533b\u9662"}}, {"type": "node", "id": 9140345092, "lat": 41.739352, "lon": 123.4871218, "tags": {"addr:city": "\u6c88\u9633", "addr:district": "\u6d51\u5357", "addr:housenumber": "12", "addr:province": "\u8fbd\u5b81", "addr:street": "\u91d1\u5e06\u4e2d\u8def", "amenity": "hospital", "healthcare": "hospital", "healthcare:speciality": "psychiatry", "name": "\u6c88\u9633\u5e02\u7cbe\u795e\u536b\u751f\u4e2d\u5fc3"}}, {"type": "node", "id": 9268983118, "lat": 41.0074916, "lon": 122.9962565, "tags": {"amenity": "hospital", "healthcare": "hospital", "name": "\u978d\u5c71\u5e02\u5fc3\u7406\u536b\u751f\u4e13\u79d1\u533b\u9662"}}, {"type": "node", "id": 9590061852, "lat": 46.6380891, "lon": 124.8624933, "tags": {"amenity": "hospital", "healthcare": "hospital", "healthcare:speciality": "general", "name": "\u5927\u5e86\u5e02\u7b2c\u56db\u533b\u9662"}}, {"type": "node", "id": 9841669632, "lat": 44.5354596, "lon": 125.6776927, "tags": {"amenity": "hospital", "healthcare": "hospital", "name": "\u5fb7\u60e0\u5e02\u4eba\u6c11\u533b\u9662"}}, {"type": "node", "id": 9925948819, "lat": 47.3443695, "lon": 123.9444469, "tags": {"amenity": "hospital", "emergency": "yes", "healthcare": "hospital", "name": "\u7b2c\u4e00\u533b\u9662", "name:en": "Qiqihar No. 1 Hospital", "name:zh": "\u9f50\u9f50\u54c8\u5c14\u5e02\u7b2c\u4e00\u533b\u9662", "name:zh-Hans": "\u9f50\u9f50\u54c8\u5c14\u5e02\u7b2c\u4e00\u533b\u9662", "name:zh-Hant": "\u9f4a\u9f4a\u54c8\u723e\u5e02\u7b2c\u4e00\u91ab\u9662"}}, {"type": "node", "id": 9951926084, "lat": 45.7035076, "lon": 126.8335507, "tags": {"amenity": "hospital", "healthcare": "hospital", "name": "\u7cd6\u5382\u533b\u9662"}}, {"type": "node", "id": 10239989000, "lat": 42.9276301, "lon": 129.5025257, "tags": {"amenity": "hospital", "healthcare": "hospital", "name": "\u5ef6\u5409\u4f18\u629a\u533b\u9662"}}, {"type": "node", "id": 10244700185, "lat": 42.8860758, "lon": 129.4892499, "tags": {"amenity": "hospital", "healthcare": "hospital", "name": "\u5ef6\u5409\u5929\u6cc9\u533b\u9662", "name:zh": "\u5ef6\u5409\u5929\u6cc9\u533b\u9662", "name:zh-Hans": "\u5ef6\u5409\u5929\u6cc9\u533b\u9662", "name:zh-Hant": "\u5ef6\u5409\u5929\u6cc9\u91ab\u9662"}}, {"type": "node", "id": 10310236737, "lat": 40.6107509, "lon": 120.7919209, "tags": {"amenity": "hospital", "healthcare": "hospital", "name": "\u516b\u4e00\u75bc\u75db\u5eb7\u590d\u533b\u9662"}}, {"type": "node", "id": 10310236738, "lat": 40.6109052, "lon": 120.7906254, "tags": {"amenity": "hospital", "healthcare": "hospital", "name": "\u5174\u57ce\u7597\u517b\u9662"}}, {"type": "node", "id": 10542169095, "lat": 41.7730908, "lon": 123.4468161, "tags": {"amenity": "hospital", "healthcare": "hospital", "name": "\u907c\u5be7\u7701\u4eba\u6c11\u91ab\u9662"}}, {"type": "node", "id": 10542177056, "lat": 41.7912496, "lon": 123.4689413, "tags": {"amenity": "hospital", "healthcare": "hospital", "name": "\u5317\u90e8\u6230\u5340\u7a7a\u8ecd\u91ab\u9662"}}, {"type": "node", "id": 10542177057, "lat": 41.7910951, "lon": 123.4664251, "tags": {"amenity": "hospital", "healthcare": "hospital", "name": "\u907c\u5be7\u7701\u816b\u7624\u91ab\u9662"}}, {"type": "node", "id": 10558640809, "lat": 45.752875, "lon": 126.5955834, "tags": {"amenity": "hospital", "emergency": "yes", "healthcare": "hospital", "name": "\u54c8\u5c14\u6ee8\u533b\u79d1\u5927\u5b66\u9644\u5c5e\u7b2c\u4e00\u533b\u9662\uff08\u5927\u6865\u9662\u533a\uff09", "name:en": "First Affiliated Hospital of Harbin Medical University (Daqiao Branch)", "name:zh": "\u54c8\u5c14\u6ee8\u533b\u79d1\u5927\u5b66\u9644\u5c5e\u7b2c\u4e00\u533b\u9662\uff08\u5927\u6865\u9662\u533a\uff09", "name:zh-Hans": "\u54c8\u5c14\u6ee8\u533b\u79d1\u5927\u5b66\u9644\u5c5e\u7b2c\u4e00\u533b\u9662\uff08\u5927\u6865\u9662\u533a\uff09", "name:zh-Hant": "\u54c8\u723e\u6ff1\u91ab\u79d1\u5927\u5b78\u9644\u5c6c\u7b2c\u4e00\u91ab\u9662\uff08\u5927\u6a4b\u9662\u5340\uff09", "operator": "\u54c8\u5c14\u6ee8\u533b\u79d1\u5927\u5b66", "operator:type": "government", "wheelchair": "yes"}}, {"type": "node", "id": 10558640826, "lat": 45.7208433, "lon": 126.5496646, "tags": {"amenity": "hospital", "emergency": "yes", "healthcare": "hospital", "name": "\u7efc\u5408\u6027\u521b\u4f24\u6551\u6cbb\u4e2d\u5fc3", "name:zh": "\u7efc\u5408\u6027\u521b\u4f24\u6551\u6cbb\u4e2d\u5fc3", "name:zh-Hans": "\u7efc\u5408\u6027\u521b\u4f24\u6551\u6cbb\u4e2d\u5fc3", "name:zh-Hant": "\u7d9c\u5408\u6027\u5275\u50b7\u6551\u6cbb\u4e2d\u5fc3", "operator": "\u54c8\u5c14\u6ee8\u533b\u79d1\u5927\u5b66", "operator:type": "government", "wheelchair": "yes"}}, {"type": "node", "id": 10916569740, "lat": 44.1224913, "lon": 125.447153, "tags": {"amenity": "hospital", "healthcare": "hospital", "name": "\u6821\u533b\u9662"}}, {"type": "node", "id": 11096889738, "lat": 43.9667411, "lon": 125.4191806, "tags": {"amenity": "hospital", "healthcare": "hospital", "name": "\u5317\u6e56\u5f00\u53d1\u533a\u793e\u533a\u536b\u751f\u670d\u52a1\u4e2d\u5fc3"}}, {"type": "node", "id": 11096889739, "lat": 43.9665804, "lon": 125.4195613, "tags": {"amenity": "hospital", "healthcare": "hospital", "name": "\u592a\u5e73\u793e\u533a\u536b\u751f\u670d\u52a1\u4e2d\u5fc3"}}, {"type": "node", "id": 11237708612, "lat": 48.4483812, "lon": 129.5686581, "tags": {"amenity": "hospital", "healthcare": "hospital", "name": "\u6c64\u65fa\u53bf\u4eba\u6c11\u533b\u9662"}}, {"type": "way", "id": 194701231, "center": {"lat": 49.7457057, "lon": 129.6743738}, "nodes": [2052039511, 4072088751, 4072088750, 4072088757, 4072088759, 2052039521, 2052039483, 2052039477, 2052039513, 2052039510, 2052039508, 2052039504, 2052039511], "tags": {"addr:housenumber": "30", "addr:street": "\u041b\u0435\u043d\u0438\u043d\u0433\u0440\u0430\u0434\u0441\u043a\u0430\u044f \u0443\u043b\u0438\u0446\u0430", "amenity": "hospital", "building": "yes", "healthcare": "hospital"}}, {"type": "way", "id": 228319654, "center": {"lat": 40.0767749, "lon": 124.4384814}, "nodes": [2369922171, 2369922173, 2369922169, 2369922172, 2369922171], "tags": {"amenity": "hospital", "healthcare": "hospital", "int_name": "\ub3c4 \uc548\uc804\ubd80 \ubcd1\uc6d0 (Provincial Police Hospital)", "name": "\ub3c4 \uc548\uc804\ubd80 \ubcd1\uc6d0", "name:de": "\ub3c4 \uc548\uc804\ubd80 \ubcd1\uc6d0 (Provinz-Polizei-Krankenhaus)"}}, {"type": "way", "id": 245939429, "center": {"lat": 40.1277152, "lon": 124.0903205}, "nodes": [2530392558, 2530392595, 2530392629, 2530392428, 2530392558], "tags": {"amenity": "hospital"}}, {"type": "way", "id": 245939430, "center": {"lat": 40.130066, "lon": 124.0883822}, "nodes": [2530392503, 2530392430, 2530392391, 2530392606, 2530392503], "tags": {"amenity": "hospital"}}, {"type": "way", "id": 279991008, "center": {"lat": 41.1845529, "lon": 122.0415445}, "nodes": [2841693234, 2841693235, 2841693236, 2841693237, 2841693238, 2841693239, 2841693240, 2841693227, 2844410941, 2841693241, 2841693234], "tags": {"amenity": "hospital", "healthcare": "hospital", "name": "\u52dd\u5229\u8857\u9053\u885b\u751f\u670d\u52d9\u7ad9"}}, {"type": "way", "id": 279991011, "center": {"lat": 41.1886444, "lon": 122.0290232}, "nodes": [2841693246, 2841693247, 2841693251, 2841693248, 2841191583, 2841693246], "tags": {"amenity": "hospital", "name": "\u907c\u6cb3\u793e\u5340\u885b\u751f\u670d\u52d9\u7ad9"}}, {"type": "way", "id": 280300511, "center": {"lat": 41.1861142, "lon": 122.0468386}, "nodes": [2844410896, 2844410897, 2844410898, 2844410899, 2844410900, 2844410901, 2844410902, 2844410894, 2844410896], "tags": {"amenity": "hospital", "healthcare": "hospital", "name": "\u76e4\u9326\u5e02\u4e2d\u91ab\u9662"}}, {"type": "way", "id": 280440951, "center": {"lat": 42.0225919, "lon": 121.6593155}, "nodes": [2845551295, 2845551296, 2845551297, 2845551298, 2845551295], "tags": {"amenity": "hospital", "healthcare": "hospital", "name": "\u8fbd\u5b81\u5de5\u7a0b\u6280\u672f\u5927\u5b66\u533b\u9662"}}, {"type": "way", "id": 280461577, "center": {"lat": 41.1893232, "lon": 122.0577152}, "nodes": [2848804627, 2845747113, 2845747114, 2845747115, 2848804627], "tags": {"amenity": "hospital", "healthcare": "hospital", "name": "\u76e4\u9326\u9aa8\u79d1\u91ab\u9662"}}, {"type": "way", "id": 280842152, "center": {"lat": 41.1912612, "lon": 122.0406959}, "nodes": [2848804908, 2848804909, 2848804910, 2848804911, 2848804908], "tags": {"amenity": "hospital", "healthcare": "hospital", "name": "\u76e4\u5c71\u7e23\u91ab\u9662"}}, {"type": "way", "id": 297687718, "center": {"lat": 43.8847381, "lon": 125.3260626}, "nodes": [3015786324, 3015786325, 3015786326, 3015786327, 3015786328, 3015786329, 3015786330, 3015786331, 3015786332, 3015786324], "tags": {"amenity": "hospital", "emergency": "yes", "healthcare": "hospital", "name": "\u5409\u6797\u5927\u5b66\u767d\u6c42\u6069\u7b2c\u4e8c\u533b\u9662"}}, {"type": "way", "id": 297687719, "center": {"lat": 43.8739595, "lon": 125.2979847}, "nodes": [3015789233, 3015789234, 3015789235, 3015789236, 3015789237, 3707473093, 3015789238, 3707473092, 1446045902, 3015789233], "tags": {"amenity": "hospital", "healthcare": "hospital", "name": "\u5409\u6797\u5927\u5b66\u767d\u6c42\u6069\u7b2c\u4e00\u533b\u9662"}}, {"type": "way", "id": 297687749, "center": {"lat": 43.8662988, "lon": 125.2923934}, "nodes": [3015782211, 3015782212, 3015782213, 3015782214, 3015782215, 3015782211], "tags": {"amenity": "hospital", "emergency": "yes", "healthcare": "hospital", "healthcare:speciality": "general", "name": "\u5409\u6797\u7701\u4eba\u6c11\u533b\u9662", "name:en": "Jilin Provincial People's Hospital", "name:zh": "\u5409\u6797\u7701\u4eba\u6c11\u533b\u9662", "name:zh-Hans": "\u5409\u6797\u7701\u4eba\u6c11\u533b\u9662", "name:zh-Hant": "\u5409\u6797\u7701\u4eba\u6c11\u91ab\u9662", "name:zh_pinyin": "J\u00edl\u00edn Sh\u011bng R\u00e9nm\u00edn Y\u012byu\u00e0n"}}, {"type": "way", "id": 297687786, "center": {"lat": 43.8656745, "lon": 125.297095}, "nodes": [3015792066, 3015792067, 3015792068, 3015792069, 3015792066], "tags": {"amenity": "hospital", "healthcare": "hospital", "name": "\u957f\u6625\u4e2d\u533b\u836f\u5927\u5b66\u9644\u9662"}}, {"type": "way", "id": 297687894, "center": {"lat": 43.8898563, "lon": 125.3197147}, "nodes": [3015793850, 3015793851, 3015793852, 3015793853, 3015793854, 3015793855, 3015793856, 3015793857, 3015793850], "tags": {"amenity": "hospital", "emergency": "yes", "healthcare": "hospital", "name": "\u957f\u6625\u5e02\u4e2d\u5fc3\u533b\u9662", "name:en": "Changchun City Center Hospital"}}, {"type": "way", "id": 297688291, "center": {"lat": 43.8601097, "lon": 125.3048472}, "nodes": [3015797536, 3015797537, 3015797538, 3015797539, 3015797540, 3015797541, 3015797542, 3015797543, 3015797544, 3015797536], "tags": {"amenity": "hospital", "emergency": "yes", "name": "\u7a7a\u519b461\u533b\u9662", "name:en": "Air Force 461 Hospital"}}, {"type": "way", "id": 297688431, "center": {"lat": 43.8679476, "lon": 125.3003509}, "nodes": [3015801180, 3015801181, 3015801182, 3015801183, 3015801180], "tags": {"amenity": "hospital", "emergency": "yes", "healthcare": "hospital", "name": "\u5409\u6797\u5927\u5b66\u767d\u6c42\u6069\u7b2c\u4e09\u533b\u9662"}}, {"type": "way", "id": 297688432, "center": {"lat": 43.8679448, "lon": 125.299202}, "nodes": [3015801180, 3015801184, 3015801185, 3015801183, 3015801180], "tags": {"amenity": "hospital", "healthcare": "hospital", "name": "\u5409\u6797\u5927\u5b66\u767d\u6c42\u6069\u53e3\u8154\u533b\u9662"}}, {"type": "way", "id": 297777894, "center": {"lat": 43.9005858, "lon": 125.3248742}, "nodes": [3016770619, 3016770612, 3016770614, 3016770617, 3016770613, 3016770618, 3016770611, 3016770616, 3016770615, 3016770619], "tags": {"amenity": "hospital", "healthcare": "hospital", "name": "\u957f\u6625\u5e02\u7b2c\u4e00\u4eba\u6c11\u533b\u9662", "name:en": "First People's Hospital"}}, {"type": "way", "id": 297898520, "center": {"lat": 43.85912, "lon": 125.3725474}, "nodes": [3018028103, 3018028102, 3018028096, 3018028090, 3018028103], "tags": {"amenity": "hospital", "name": "\u5409\u6797\u5927\u5b66\u4e2d\u65e5\u8054\u8c0a\u533b\u9662"}}, {"type": "way", "id": 299401379, "center": {"lat": 43.8724468, "lon": 125.3270924}, "nodes": [3033899048, 3033899033, 3033899054, 3033899038, 3033899044, 3033899040, 3033899051, 3033899045, 3033899049, 3033899050, 3033899035, 3033899034, 3033899053, 3033899046, 3033899047, 3033899042, 3033899048], "tags": {"amenity": "hospital", "building": "yes"}}, {"type": "way", "id": 299401381, "center": {"lat": 43.8723809, "lon": 125.3270261}, "nodes": [3033899041, 3033899052, 3033899039, 3033899043, 3033899037, 3033899036, 3033899041], "tags": {"amenity": "hospital", "emergency": "yes", "healthcare": "hospital", "name": "\u957f\u6625\u5e02\u4e2d\u533b\u9662"}}, {"type": "way", "id": 299401458, "center": {"lat": 43.8634818, "lon": 125.2975034}, "nodes": [3033899662, 3033899666, 3033899663, 3033899665, 3033899662], "tags": {"amenity": "hospital", "healthcare": "hospital", "name": "\u4e2d\u7814\u9662"}}, {"type": "way", "id": 299675250, "center": {"lat": 43.894649, "lon": 125.3267632}, "nodes": [3037157374, 3037157362, 3037157370, 3037157354, 3037157364, 3037157374], "tags": {"amenity": "hospital", "healthcare": "hospital", "name": "\u957f\u6625\u5e02\u5987\u4ea7\u533b\u9662", "name:en": "Changchun Obstetrics and Gynaecology Hospital"}}, {"type": "way", "id": 299819998, "center": {"lat": 43.8679426, "lon": 125.3001379}, "nodes": [3039078894, 3039078882, 3039078907, 3039078919, 3039078901, 3039078879, 3039078890, 3039078888, 3039078909, 3039078880, 3039078918, 3039078908, 3039078881, 3039078889, 3039078894], "tags": {"amenity": "hospital", "building": "yes", "emergency": "yes", "healthcare": "hospital", "name": "\u95e8\u8bca"}}, {"type": "way", "id": 299820001, "center": {"lat": 43.8680494, "lon": 125.2991653}, "nodes": [3039078893, 3039078913, 3039078905, 3039078902, 3039078893], "tags": {"amenity": "hospital", "building": "yes"}}, {"type": "way", "id": 299830760, "center": {"lat": 43.8729494, "lon": 125.3117242}, "nodes": [3039119353, 3039114524, 3039114523, 3039114531, 3039119387, 3039114510, 3039119353], "tags": {"amenity": "hospital", "building": "yes", "name": "\u671d\u9633\u533a\u533b\u9662"}}, {"type": "way", "id": 301459737, "center": {"lat": 43.8413983, "lon": 125.268485}, "nodes": [3055191466, 3055191467, 3055191468, 3055191469, 3055191466], "tags": {"amenity": "hospital", "name": "\u5409\u6797\u7701\u7b2c\u4e8c\u4eba\u6c11\u533b\u9662", "name:zh": "\u5409\u6797\u7701\u80bf\u7624\u533b\u9662"}}, {"type": "way", "id": 301784078, "center": {"lat": 43.878005, "lon": 125.3286436}, "nodes": [3059171970, 3059171975, 3059171976, 3059171972, 3059171971, 3059171978, 3059171970], "tags": {"amenity": "hospital", "name": "\u5409\u5927\u4e8c\u9662\u6c11\u5eb7\u533b\u9662"}}, {"type": "way", "id": 301784079, "center": {"lat": 43.8704799, "lon": 125.3255772}, "nodes": [3059171977, 3076791301, 3076791292, 3076791293, 3059171977], "tags": {"amenity": "hospital", "healthcare": "hospital", "name": "\u7535\u529b\u533b\u9662"}}, {"type": "way", "id": 303312221, "center": {"lat": 43.8384749, "lon": 125.3006631}, "nodes": [1174077659, 3076644313, 5344439689, 3076644294, 3207334061, 3207333660, 3207333659, 1174077597, 1174077659], "tags": {"amenity": "hospital", "healthcare": "hospital"}}, {"type": "way", "id": 303319175, "center": {"lat": 43.8861308, "lon": 125.2966548}, "nodes": [3076754587, 3076754601, 3076754606, 3076754604, 3076754597, 3076754612, 3076754613, 3076754607, 3076754614, 3076754587], "tags": {"amenity": "hospital", "name": "\u516b\u4e00\u533b\u9662"}}, {"type": "way", "id": 303474959, "center": {"lat": 43.8341979, "lon": 125.2814048}, "nodes": [3078359427, 3078359429, 3078359423, 3078359421, 3078359427], "tags": {"amenity": "hospital", "name": "\u5409\u6797\u7701\u524d\u536b\u533b\u9662"}}, {"type": "way", "id": 304174735, "center": {"lat": 43.8769982, "lon": 125.3390457}, "nodes": [3086985707, 3086985696, 3086985700, 3086985704, 3086985697, 3086985705, 3086985698, 3086985707], "tags": {"amenity": "hospital", "building": "yes", "name": "\u53e3\u8154\u533b\u9662"}}, {"type": "way", "id": 304174736, "center": {"lat": 43.8783136, "lon": 125.337659}, "nodes": [3086985709, 3086985702, 3086985699, 3086985706, 3086985701, 3086985708, 3086985709], "tags": {"amenity": "hospital", "building": "yes", "name": "\u7231\u5c14\u773c\u79d1"}}, {"type": "way", "id": 304174843, "center": {"lat": 43.8752719, "lon": 125.3105673}, "nodes": [3087032704, 3087032708, 3087032706, 3087032709, 3087032705, 3087032707, 3087032710, 3087032704], "tags": {"amenity": "hospital", "building": "yes"}}, {"type": "way", "id": 304174985, "center": {"lat": 43.8645665, "lon": 125.2739269}, "nodes": [3087046323, 3087046328, 3087046327, 3087046324, 3087046325, 3087046326, 3087046323], "tags": {"amenity": "hospital", "building": "yes", "name": "\u5409\u5927\u4e09\u9662"}}, {"type": "way", "id": 304177120, "center": {"lat": 43.8920416, "lon": 125.3097039}, "nodes": [3087055773, 3087055762, 3087055769, 3087055777, 3087055776, 3087055774, 3087055761, 3087055783, 3087055766, 3087055781, 3087055772, 3087055773], "tags": {"amenity": "hospital", "healthcare": "hospital", "name": "\u957f\u6625\u5e02\u513f\u7ae5\u533b\u9662"}}, {"type": "way", "id": 304177187, "center": {"lat": 43.8946377, "lon": 125.302799}, "nodes": [3087069823, 3087069822, 3087069817, 3087069819, 3087069821, 3087069816, 3087069823], "tags": {"amenity": "hospital", "name": "\u633a\u8fdb\u533b\u9662"}}, {"type": "way", "id": 314816096, "center": {"lat": 43.8251137, "lon": 125.2752779}, "nodes": [3208592415, 3208592416, 3208592417, 3208592418, 3208592415], "tags": {"amenity": "hospital", "name": "\u5409\u5927\u524d\u536b\u533b\u9662"}}, {"type": "way", "id": 315097579, "center": {"lat": 43.8533971, "lon": 125.3198526}, "nodes": [3211878383, 3211878384, 3211878385, 3211878386, 3211878387, 3211878388, 3211878389, 3211878390, 3211878391, 3211878392, 3211878393, 3211878394, 3211878383], "tags": {"amenity": "hospital", "healthcare": "hospital", "name": "\u957f\u6625\u5e02\u6025\u6551\u4e2d\u5fc3"}}, {"type": "way", "id": 316888459, "center": {"lat": 45.7172518, "lon": 126.6351514}, "nodes": [3230730101, 3230730102, 3230730103, 3230730104, 3230730101], "tags": {"amenity": "hospital", "emergency": "no", "healthcare": "hospital", "name": "\u4e1c\u5317\u6797\u4e1a\u5927\u5b66\u6821\u533b\u9662", "operator": "\u4e1c\u5317\u6797\u4e1a\u5927\u5b66"}}, {"type": "way", "id": 324639311, "center": {"lat": 43.8849048, "lon": 125.3588179}, "nodes": [3313525761, 3313525762, 3313525763, 3313525764, 3313525765, 3313525761], "tags": {"amenity": "hospital", "healthcare": "hospital"}}, {"type": "way", "id": 324644632, "center": {"lat": 43.8848816, "lon": 125.3556383}, "nodes": [3313520858, 3313520859, 3313520860, 3313530061, 3313530062, 3313530063, 3313530064, 3313530065, 3313520858], "tags": {"amenity": "hospital", "healthcare": "hospital"}}, {"type": "way", "id": 325701325, "center": {"lat": 43.9245409, "lon": 125.3096407}, "nodes": [3270233473, 3323188748, 3323188749, 3323188750, 3270233478, 3270233477, 3270233476, 3270233475, 3270233474, 3270233473], "tags": {"amenity": "hospital", "healthcare": "hospital", "name": "\u5409\u6797\u7701\u4eba\u6c11\u533b\u9662\u673a\u8f66\u5382\u5206\u9662"}}, {"type": "way", "id": 325701326, "center": {"lat": 43.9339196, "lon": 125.3330452}, "nodes": [3323188751, 3323188752, 3323188753, 3323188754, 3323188751], "tags": {"amenity": "hospital", "name": "\u957f\u6625\u5e02\u7b2c\u516d\u4eba\u6c11\u533b\u9662"}}, {"type": "way", "id": 325704396, "center": {"lat": 43.8542453, "lon": 125.2364825}, "nodes": [3323214342, 3323214343, 3323214344, 3323214345, 3323214342], "tags": {"amenity": "hospital", "name": "\u5409\u6797\u5927\u5b66\u767d\u6c42\u6069\u7b2c\u56db\u533b\u9662"}}, {"type": "way", "id": 325710090, "center": {"lat": 43.8222688, "lon": 125.2533221}, "nodes": [3207893916, 3323267714, 3323267715, 3207893922, 3207893921, 3207893920, 3207893919, 3207893918, 3207893917, 3207893916], "tags": {"amenity": "hospital"}}, {"type": "way", "id": 337734230, "center": {"lat": 45.7404915, "lon": 126.6316566}, "nodes": [3447927386, 3447927387, 3447927388, 1170839712, 1170839492, 8686180107, 3447927386], "tags": {"amenity": "hospital", "healthcare": "hospital"}}, {"type": "way", "id": 338081704, "center": {"lat": 45.738539, "lon": 126.6448903}, "nodes": [3451468975, 3451468976, 3451468982, 3451466378, 3451466377, 3451468980, 3451468981, 3451468975], "tags": {"amenity": "hospital", "name": "\u9ed1\u9f99\u6c5f\u4e2d\u5fb7\u9aa8\u79d1\u533b\u9662"}}, {"type": "way", "id": 338285801, "center": {"lat": 45.7609358, "lon": 126.631581}, "nodes": [3453612178, 3453620472, 3453618445, 3453612144, 3453612157, 3453612179, 3453612180, 3453612181, 3453620478, 3453620479, 3453618448, 3453612143, 3453620476, 3453620475, 3453612182, 3453620471, 10558523751, 3453612183, 3453612178], "tags": {"amenity": "hospital", "emergency": "yes", "healthcare": "hospital", "name": "\u54c8\u5c14\u6ee8\u533b\u79d1\u5927\u5b66\u7b2c\u56db\u9644\u5c5e\u533b\u9662\uff08\u54c8\u533b\u5927\u56db\u9662\uff09", "name:en": "Fourth Affiliated Hospital of Harbin Medical University", "name:zh": "\u54c8\u5c14\u6ee8\u533b\u79d1\u5927\u5b66\u7b2c\u56db\u9644\u5c5e\u533b\u9662\uff08\u54c8\u533b\u5927\u56db\u9662\uff09", "name:zh-Hans": "\u54c8\u5c14\u6ee8\u533b\u79d1\u5927\u5b66\u7b2c\u56db\u9644\u5c5e\u533b\u9662\uff08\u54c8\u533b\u5927\u56db\u9662\uff09", "name:zh-Hant": "\u54c8\u723e\u6ff1\u91ab\u79d1\u5927\u5b78\u7b2c\u56db\u9644\u5c6c\u91ab\u9662\uff08\u54c8\u91ab\u5927\u56db\u9662\uff09", "operator": "\u54c8\u5c14\u6ee8\u533b\u79d1\u5927\u5b66", "operator:type": "government", "wheelchair": "yes"}}, {"type": "way", "id": 338431730, "center": {"lat": 45.7710283, "lon": 126.6226652}, "nodes": [3455092702, 3455092703, 3455092704, 3455092705, 3455092706, 3455092707, 3455092708, 3455092709, 3455092702], "tags": {"amenity": "hospital", "healthcare": "hospital", "name": "\u54c8\u5c14\u6ee8\u5e02\u7b2c\u4e00\u533b\u9662", "name:en": "Harbin Number 1 Hospital"}}, {"type": "way", "id": 338567303, "center": {"lat": 45.778425, "lon": 126.6189023}, "nodes": [3456766481, 3456769519, 3456769521, 3456769518, 3456766482, 3456766483, 3456766484, 3456769500, 3456769501, 3456766485, 3456766486, 3456766487, 3456769525, 3456766481], "tags": {"amenity": "hospital", "healthcare": "hospital", "name": "\u54c8\u5c14\u6ee8\u5e02\u513f\u7ae5\u533b\u9662", "name:en": "Harbin Child Hospital", "name:zh": "\u54c8\u5c14\u6ee8\u5e02\u513f\u7ae5\u533b\u9662"}}, {"type": "way", "id": 338591662, "center": {"lat": 45.7581619, "lon": 126.6766727}, "nodes": [3457019236, 3457019237, 3457019238, 3457019239, 3457019240, 3457019241, 3457019242, 3457019243, 3457019236], "tags": {"amenity": "hospital", "healthcare": "hospital", "name": "\u54c8\u5de5\u5927\u4e8c\u6821\u533a\u533b\u9662"}}, {"type": "way", "id": 340788564, "center": {"lat": 45.7735827, "lon": 126.6667965}, "nodes": [3480438017, 3480440149, 3480438018, 3480439235, 3480439238, 3480438019, 3480439344, 3480439355, 3480438020, 3480440129, 3480440126, 3480440125, 3480440122, 3480440148, 3480438017], "tags": {"amenity": "hospital", "healthcare": "hospital", "name": "\u9ed1\u9f99\u6c5f\u7701\u519b\u533a\u533b\u9662", "name:en": "Heilongjiang Military Hospital", "name:zh": "\u9ed1\u9f99\u6c5f\u7701\u519b\u533a\u533b\u9662"}}, {"type": "way", "id": 340832519, "center": {"lat": 45.7633005, "lon": 126.6446835}, "nodes": [3480834299, 3480834304, 3480834305, 3480834306, 3480834299], "tags": {"amenity": "hospital", "emergency": "yes", "healthcare": "hospital", "name": "\u54c8\u533b\u5927\u4e00\u9662\u6025\u8bca\u6025\u6551\u4e2d\u5fc3", "name:zh": "\u54c8\u533b\u5927\u4e00\u9662\u6025\u8bca\u6025\u6551\u4e2d\u5fc3", "name:zh-Hans": "\u54c8\u533b\u5927\u4e00\u9662\u6025\u8bca\u6025\u6551\u4e2d\u5fc3", "name:zh-Hant": "\u54c8\u91ab\u5927\u4e00\u9662\u6025\u8a3a\u6025\u6551\u4e2d\u5fc3", "not:operator:wikidata": "Q10921986", "operator": "\u54c8\u5c14\u6ee8\u533b\u79d1\u5927\u5b66", "operator:type": "government", "wheelchair": "yes"}}, {"type": "way", "id": 340849798, "center": {"lat": 45.7653019, "lon": 126.6428056}, "nodes": [3480942047, 3480942048, 3480942049, 3480942050, 3480947813, 3480942052, 3480942054, 3480942055, 3480942056, 3480942057, 3480942047], "tags": {"amenity": "hospital", "emergency": "yes", "healthcare": "hospital", "name": "\u54c8\u5c14\u6ee8\u533b\u79d1\u5927\u5b66\u9644\u5c5e\u7b2c\u4e00\u533b\u9662", "name:en": "First Affiliated Hospital of Harbin Medical University", "name:zh": "\u54c8\u5c14\u6ee8\u533b\u79d1\u5927\u5b66\u9644\u5c5e\u7b2c\u4e00\u533b\u9662", "name:zh-Hans": "\u54c8\u5c14\u6ee8\u533b\u79d1\u5927\u5b66\u9644\u5c5e\u7b2c\u4e00\u533b\u9662", "name:zh-Hant": "\u54c8\u723e\u6ff1\u91ab\u79d1\u5927\u5b78\u9644\u5c6c\u7b2c\u4e00\u91ab\u9662", "operator": "\u54c8\u5c14\u6ee8\u533b\u79d1\u5927\u5b66", "operator:type": "government", "operator:wikidata": "Q10921986", "wheelchair": "yes"}}, {"type": "way", "id": 340851534, "center": {"lat": 45.763038, "lon": 126.6410051}, "nodes": [3480952423, 8447511087, 3480952424, 8447511088, 3480952425, 3480952426, 3480952427, 8447511091, 8447511092, 8447511095, 8447511085, 3480952428, 8447511077, 3480952429, 8447511078, 3480952430, 3480952432, 3480952433, 8447511086, 3480952434, 8447511096, 3480952435, 3480952436, 8447511094, 8447511093, 3480952437, 3480952423], "tags": {"amenity": "hospital", "emergency": "yes", "healthcare": "hospital", "name": "\u54c8\u533b\u5927\u4e00\u9662\u8840\u6db2\u80bf\u7624\u4e2d\u5fc3", "name:zh": "\u54c8\u533b\u5927\u4e00\u9662\u8840\u6db2\u80bf\u7624\u4e2d\u5fc3", "name:zh-Hans": "\u54c8\u533b\u5927\u4e00\u9662\u8840\u6db2\u80bf\u7624\u4e2d\u5fc3", "name:zh-Hant": "\u54c8\u91ab\u5927\u4e00\u9662\u8840\u6db2\u816b\u7624\u4e2d\u5fc3", "operator": "\u54c8\u5c14\u6ee8\u533b\u79d1\u5927\u5b66", "operator:type": "government", "operator:wikidata": "Q10921986", "wheelchair": "yes"}}, {"type": "way", "id": 350485977, "center": {"lat": 45.7846245, "lon": 126.5928051}, "nodes": [3562702196, 3562644268, 3562644270, 3562476521, 3562566603, 3562565737, 3562476522, 3562563115, 3562476517, 3562566610, 3562566599, 3562702196], "tags": {"amenity": "hospital", "healthcare": "hospital", "name": "\u9ed1\u9f99\u6c5f\u7701\u5eb7\u590d\u533b\u9662", "name:en": "Heilongjiang Recovery Hospital", "name:zh": "\u9ed1\u9f99\u6c5f\u7701\u5eb7\u590d\u533b\u9662", "name:zh-Hans": "\u9ed1\u9f99\u6c5f\u7701\u5eb7\u590d\u533b\u9662", "name:zh-Hant": "\u9ed1\u9f8d\u6c5f\u7701\u5eb7\u5fa9\u91ab\u9662"}}, {"type": "way", "id": 362440319, "center": {"lat": 42.2793714, "lon": 123.861904}, "nodes": [3667500071, 3667500072, 5840530461, 5840530462, 5840530463, 5840530464, 5840530465, 5840530468, 5840530467, 3667500073, 3667500074, 3667500071], "tags": {"amenity": "hospital", "healthcare": "hospital", "name": "\u94c1\u5cad\u5e02\u533b\u9662"}}, {"type": "way", "id": 362469067, "center": {"lat": 42.2933745, "lon": 123.8500921}, "nodes": [3667717247, 3667717248, 3667717249, 3667717250, 3667717251, 3667717252, 3667717247], "tags": {"amenity": "hospital", "healthcare": "hospital", "name": "\u539f \u53bf\u533b\u9662"}}, {"type": "way", "id": 366637001, "center": {"lat": 43.9016814, "lon": 125.2628659}, "nodes": [1282362715, 1282362491, 1282362851, 1282362792, 1282362918, 1282362695, 1282362532, 1282362886, 1282362657, 1282362442, 1282362735, 3706276864, 3706276865, 3706276866, 1282362715], "tags": {"amenity": "hospital", "name": "\u4e8c\u3007\u516b\u533b\u9662"}}, {"type": "way", "id": 368437379, "center": {"lat": 41.8112148, "lon": 128.3182087}, "nodes": [3722726474, 3722726476, 3722726477, 3722726475, 3722726473, 3722726472, 3722726471, 3722726470, 3722726469, 3722726474], "tags": {"amenity": "hospital", "name": "\uc0bc\uc9c0\uc5f0\uc2dc\uc778\ubbfc\ubcd1\uc6d0", "name:en": "Samjiyon Peoples Hospital", "name:ja": "\u4e09\u6c60\u6df5\u5e02\u4eba\u6c11\u75c5\u9662", "name:ko": "\uc0bc\uc9c0\uc5f0\uc2dc\uc778\ubbfc\ubcd1\uc6d0", "name:ko-Hani": "\u4e09\u6c60\u6df5\u5e02\u4eba\u6c11\u75c5\u9662", "name:ru": "\u0421\u0430\u043c\u0434\u0436\u0438\u0451\u043d\u0441\u043a\u0430\u044f \u043d\u0430\u0440\u043e\u0434\u043d\u0430\u044f \u0431\u043e\u043b\u044c\u043d\u0438\u0446\u0430", "name:zh": "\u4e09\u6c60\u6e0a\u5e02\u4eba\u6c11\u533b\u9662"}}, {"type": "way", "id": 368465630, "center": {"lat": 41.8264004, "lon": 123.3819744}, "nodes": [9383516390, 3723128777, 3723177565, 3723173784, 9383520437, 9383516390], "tags": {"amenity": "hospital", "healthcare": "hospital", "name": "\u6c88\u9633\u533b\u5b66\u9662\u6c88\u6d32\u533b\u9662"}}, {"type": "way", "id": 379953225, "center": {"lat": 49.799326, "lon": 129.8762188}, "nodes": [3832971123, 3832971124, 3832971125, 3832971126, 3832971127, 3832971128, 3832971129, 3832971130, 3832971131, 3832971132, 3832971123], "tags": {"addr:housenumber": "15", "addr:street": "\u041a\u043e\u043c\u0441\u043e\u043c\u043e\u043b\u044c\u0441\u043a\u0430\u044f \u0443\u043b\u0438\u0446\u0430", "amenity": "hospital", "building": "yes", "healthcare": "hospital"}}, {"type": "way", "id": 385966162, "center": {"lat": 43.8222144, "lon": 125.2531854}, "nodes": [3893081089, 3893081090, 3893081079, 3893081082, 3893080849, 3893080847, 3893080846, 3893080845, 3893081089], "tags": {"amenity": "hospital", "building": "yes"}}, {"type": "way", "id": 390791319, "center": {"lat": 41.6009539, "lon": 129.587359}, "nodes": [3939262172, 3939262053, 3939262161, 3939262174, 3939262172], "tags": {"amenity": "hospital", "healthcare": "hospital"}}, {"type": "way", "id": 399037611, "center": {"lat": 40.3961349, "lon": 125.0450608}, "nodes": [4017746686, 4017746662, 4017746665, 4017746666, 4017746672, 4017746680, 4017747696, 4017747701, 4017747697, 4017747703, 4017747706, 4017747708, 4017747705, 4017746686], "tags": {"amenity": "hospital", "name": "\uc0ad\uc8fc\uad70\uc81c1\uc778\ubbfc\ubcd1\uc6d0"}}, {"type": "way", "id": 404340056, "center": {"lat": 49.8055071, "lon": 129.4004285}, "nodes": [4066205565, 4066205563, 4066205562, 4066205558, 4066205559, 4066205555, 4066205554, 4066205556, 4066205557, 4066205561, 4066205560, 4066205564, 4066205565], "tags": {"addr:city": "\u0420\u0430\u0439\u0447\u0438\u0445\u0438\u043d\u0441\u043a", "addr:housenumber": "66", "addr:street": "\u0443\u043b\u0438\u0446\u0430 \u041f\u043e\u0431\u0435\u0434\u044b", "amenity": "hospital", "healthcare": "hospital", "name": "\u0422\u0443\u0431\u0434\u0438\u0441\u043f\u0430\u043d\u0441\u0435\u0440", "operator": "\u0422\u0443\u0431\u0434\u0438\u0441\u043f\u0430\u043d\u0441\u0435\u0440"}}, {"type": "way", "id": 404533511, "center": {"lat": 49.8066297, "lon": 129.4042209}, "nodes": [4068138039, 4068138047, 4068138050, 4068138042, 4068138043, 4068138045, 4068138052, 4068138048, 4068138051, 4068137593, 4068137594, 4068138041, 4068138039], "tags": {"addr:city": "\u0420\u0430\u0439\u0447\u0438\u0445\u0438\u043d\u0441\u043a", "addr:housenumber": "7 \u043a2", "addr:street": "\u041a\u043e\u043c\u0441\u043e\u043c\u043e\u043b\u044c\u0441\u043a\u0430\u044f \u0443\u043b\u0438\u0446\u0430", "amenity": "hospital", "healthcare": "hospital", "name": "\u0426\u0413\u0411"}}, {"type": "way", "id": 404533516, "center": {"lat": 49.8076456, "lon": 129.4046106}, "nodes": [4068137640, 4068137641, 4068137642, 4068137644, 4068137645, 4068137647, 4068137643, 4068137646, 4068137634, 4068137638, 4068137651, 4068137657, 4068137653, 4068137656, 4068137628, 4068137626, 4068137623, 4068137620, 4068137627, 4068137625, 4068137632, 4068137630, 4068137629, 4068137619, 4068137621, 4068137618, 4068137614, 4068137612, 4068137640], "tags": {"addr:city": "\u0420\u0430\u0439\u0447\u0438\u0445\u0438\u043d\u0441\u043a", "addr:housenumber": "7", "addr:street": "\u041a\u043e\u043c\u0441\u043e\u043c\u043e\u043b\u044c\u0441\u043a\u0430\u044f \u0443\u043b\u0438\u0446\u0430", "amenity": "hospital", "healthcare": "hospital", "name": "\u0426\u0413\u0411"}}, {"type": "way", "id": 405537656, "center": {"lat": 49.7464135, "lon": 129.6786786}, "nodes": [4077230601, 4077230610, 4077230599, 4077230590, 4077230601], "tags": {"addr:housenumber": "4", "addr:street": "\u041f\u0440\u043e\u043c\u044b\u0448\u043b\u0435\u043d\u043d\u0430\u044f \u0443\u043b\u0438\u0446\u0430", "amenity": "hospital", "healthcare": "hospital", "name": "\u0421\u043a\u043e\u0440\u0430\u044f \u043f\u043e\u043c\u043e\u0449\u044c"}}, {"type": "way", "id": 441257137, "center": {"lat": 41.8312217, "lon": 123.455765}, "nodes": [4390200180, 4390200181, 4390200182, 4390200183, 4390200184, 4390200185, 4390200180], "tags": {"amenity": "hospital", "healthcare": "hospital", "name": "\u4e2d\u56fd\u533b\u79d1\u5927\u5b66\u9644\u5c5e\u7b2c\u56db\u533b\u9662"}}, {"type": "way", "id": 441257138, "center": {"lat": 41.8309739, "lon": 123.4284713}, "nodes": [4390200186, 4390200187, 4390200188, 4390201689, 4390200186], "tags": {"amenity": "hospital", "healthcare": "hospital", "name": "\u6c88\u9633\u5e02\u513f\u7ae5\u533b\u9662"}}, {"type": "way", "id": 441257139, "center": {"lat": 41.8310509, "lon": 123.4305128}, "nodes": [4390201690, 4390201691, 4390201692, 4390201693, 4390201690], "tags": {"amenity": "hospital", "healthcare": "hospital", "name": "\u8fbd\u5b81\u4e2d\u533b\u6162\u75c5\u533b\u9662"}}, {"type": "way", "id": 441263473, "center": {"lat": 41.771955, "lon": 123.4727688}, "nodes": [4390255659, 4390255652, 4390255653, 4390255654, 4390255659], "tags": {"amenity": "hospital", "name": "\u6d51\u5357\u533a\u4e2d\u5fc3\u533b\u9662"}}, {"type": "way", "id": 463870095, "center": {"lat": 41.1395687, "lon": 122.0463601}, "nodes": [2844407154, 2844274028, 2844274029, 4063760930, 2844407154], "tags": {"amenity": "hospital", "name": "\u76d8\u9526\u5e02\u4e2d\u5fc3\u533b\u9662"}}, {"type": "way", "id": 466331067, "center": {"lat": 40.7158729, "lon": 122.1744087}, "nodes": [2683720715, 2683720721, 2683720714, 2683720707, 2683720710, 2683720715], "tags": {"amenity": "hospital", "healthcare": "hospital", "name": "\u4e2d\u56fd\u533b\u79d1\u5927\u5b66\u9644\u5c5e\u76db\u4eac\u533b\u9662\uff08\u8fbd\u4e1c\u6e7e\u5206\u9662\uff09"}}, {"type": "way", "id": 467072724, "center": {"lat": 43.162418, "lon": 124.3905447}, "nodes": [4617522366, 4617522367, 4617522368, 4617522369, 4617522366], "tags": {"amenity": "hospital", "healthcare": "hospital", "name": "\u7b2c\u4e00\u533b\u9662"}}, {"type": "way", "id": 472904452, "center": {"lat": 43.8995601, "lon": 125.3192337}, "nodes": [4670827889, 4670827890, 4670827891, 4670827892, 4670827893, 4670827894, 4670827889], "tags": {"amenity": "hospital", "healthcare": "hospital", "name": "\u5bbd\u57ce\u533a\u533b\u9662", "name:en": "Wide City Hospital"}}, {"type": "way", "id": 474136722, "center": {"lat": 46.6224503, "lon": 125.1220959}, "nodes": [4681479622, 4681479623, 4681479624, 4681479625, 4681479626, 4681479622], "tags": {"amenity": "hospital", "healthcare": "hospital", "name": "\u5927\u5e86\u5e02\u4e2d\u533b\u533b\u9662"}}, {"type": "way", "id": 508722094, "center": {"lat": 40.6581575, "lon": 122.2254162}, "nodes": [4979756632, 4979756633, 4979756634, 9729803332, 9729803333, 4979756635, 4979756632], "tags": {"amenity": "hospital", "name": "\u4e2d\u5fc3\u533b\u9662"}}, {"type": "way", "id": 512487143, "center": {"lat": 43.920345, "lon": 125.3077622}, "nodes": [5010956862, 5010956863, 5010956864, 5010956865, 5010956866, 5010956867, 5010956868, 5010956869, 5010956862], "tags": {"amenity": "hospital", "healthcare": "hospital", "name": "\u957f\u6625\u5e02\u4e2d\u533b\u9662"}}, {"type": "way", "id": 527845673, "center": {"lat": 49.7983918, "lon": 129.8759193}, "nodes": [5130857189, 5130857196, 5130857197, 5130857198, 5130857187, 5130857194, 5130857193, 5130857188, 5130857195, 5130857190, 5130857192, 5130857191, 5130857189], "tags": {"amenity": "hospital", "building": "yes", "healthcare": "hospital", "name": "\u041c\u043e\u0440\u0433"}}, {"type": "way", "id": 543998987, "center": {"lat": 41.7706434, "lon": 123.4200995}, "nodes": [5258632665, 5258632666, 5258632667, 5258632668, 5258632665], "tags": {"amenity": "hospital", "healthcare": "hospital", "name:zh": "\u4e2d\u56fd\u533b\u79d1\u5927\u5b66\u9644\u5c5e\u76db\u4eac\u533b\u9662\uff08\u5357\u6e56\u9662\u533a\uff09"}}, {"type": "way", "id": 549834024, "center": {"lat": 44.6024679, "lon": 129.5700554}, "nodes": [5311340988, 5311340989, 5311340990, 5311340991, 5311340992, 5311340993, 5311340994, 5311340995, 5311340988], "tags": {"amenity": "hospital", "healthcare": "hospital", "name": "\u7ea2\u65d7\u533b\u9662"}}, {"type": "way", "id": 550008271, "center": {"lat": 44.5987893, "lon": 129.640563}, "nodes": [5312829701, 5312829702, 5312829703, 5312829704, 5312829705, 5312829706, 5312829701], "tags": {"amenity": "hospital", "healthcare": "hospital", "name": "\u7b2c\u4e8c\u4eba\u6c11\u533b\u9662"}}, {"type": "way", "id": 551174293, "center": {"lat": 43.8704736, "lon": 120.0768312}, "nodes": [5323055852, 5323055851, 5323055850, 5323055849, 5323055848, 5323055847, 5323055846, 5323055852], "tags": {"amenity": "hospital", "name": "\u963f\u9c81\u79d1\u5c14\u6c81\u65d7\u533b\u9662", "name:en": "Ar Horqin Banner Hospital", "name:zh": "\u963f\u9c81\u79d1\u5c14\u6c81\u65d7\u533b\u9662", "source": "DigitalGlobe Premium Imagery"}}, {"type": "way", "id": 551189209, "center": {"lat": 46.0736511, "lon": 122.0283249}, "nodes": [5323216233, 5323216232, 5323216231, 5323216230, 5323216229, 5323216228, 5323216227, 8964380035, 8964380036, 8964380037, 8964380038, 5323216233], "tags": {"amenity": "hospital", "name": "\u5174\u5b89\u76df\u4eba\u6c11\u533b\u9662"}}, {"type": "way", "id": 551721213, "center": {"lat": 43.6035216, "lon": 121.3058681}, "nodes": [5328018792, 5328018791, 5328018790, 5328018789, 5328018788, 5328018787, 5328018792], "tags": {"amenity": "hospital", "name": "\u5f00\u9c81\u53bf\u533b\u9662", "name:en": "Kailu County Hospital", "name:zh": "\u5f00\u9c81\u53bf\u533b\u9662"}}, {"type": "way", "id": 556880147, "center": {"lat": 42.8595814, "lon": 120.6606693}, "nodes": [5371441414, 5371441460, 5371441413, 5371441412, 5371441414], "tags": {"amenity": "hospital", "name": "\u5948\u66fc\u65d7\u4eba\u6c11\u533b\u9662", "name:en": "Naiman Banner People's Hospital", "name:zh": "\u5948\u66fc\u65d7\u4eba\u6c11\u533b\u9662", "source": "DigitalGlobe Premium Imagery"}}, {"type": "way", "id": 557836046, "center": {"lat": 42.7288987, "lon": 121.7661522}, "nodes": [5379678198, 5379678197, 5379678196, 5379678195, 5379678194, 5379678198], "tags": {"amenity": "hospital", "name": "\u5e93\u4f26\u65d7\u533b\u9662", "name:en": "Hure Banner Hospital", "name:zh": "\u5e93\u4f26\u65d7\u533b\u9662"}}, {"type": "way", "id": 558035108, "center": {"lat": 42.7256039, "lon": 121.7817667}, "nodes": [5381080820, 5381080803, 5381080832, 5381080831, 5381080830, 5381080829, 5381080828, 5381080827, 5381080826, 5381080825, 5381080824, 5381080823, 5381080822, 5381080821, 5381080820], "tags": {"amenity": "hospital"}}, {"type": "way", "id": 558623222, "center": {"lat": 42.9469101, "lon": 122.3689258}, "nodes": [5387944297, 5387944296, 5387944295, 5387944294, 5387944297], "tags": {"amenity": "hospital", "healthcare": "hospital", "name": "\u79d1\u5de6\u540e\u65d7\u4eba\u6c11\u533b\u9662", "name:en": "Horqin Left Back Banner People's Hospital", "name:zh": "\u79d1\u5de6\u540e\u65d7\u4eba\u6c11\u533b\u9662"}}, {"type": "way", "id": 559336518, "center": {"lat": 44.1230373, "lon": 123.3036049}, "nodes": [5062671666, 5062671665, 5395009470, 5395009469, 5395009468, 5395009467, 5395009466, 5062671666], "tags": {"amenity": "hospital", "name": "\u79d1\u5c14\u6c81\u5de6\u7ffc\u4e2d\u65d7\u4eba\u6c11\u533b\u9662", "name:en": "Horqin Left MIddle Banner People's Hospital", "name:zh": "\u79d1\u5c14\u6c81\u5de6\u7ffc\u4e2d\u65d7\u4eba\u6c11\u533b\u9662"}}, {"type": "way", "id": 559567894, "center": {"lat": 44.0165202, "lon": 122.7473292}, "nodes": [5397058209, 5397058208, 5397058207, 5397058206, 5397058205, 5397058204, 5397058209], "tags": {"amenity": "hospital"}}, {"type": "way", "id": 564895476, "center": {"lat": 41.6617899, "lon": 123.3408826}, "nodes": [2245827253, 5441751899, 5441751900, 5441751901, 5444552952, 5441751902, 5441751903, 5441751904, 5441751905, 5444824208, 5441751906, 5444824209, 5441751907, 5444824211, 5444824192, 5441751908, 2245827253], "tags": {"amenity": "hospital", "healthcare": "hospital", "healthcare:speciality": "general", "name": "\u82cf\u5bb6\u5c6f\u533a\u4e2d\u5fc3\u533b\u9662"}}, {"type": "way", "id": 565181845, "center": {"lat": 41.6630215, "lon": 123.3397667}, "nodes": [5441506724, 2245827253, 7496456495, 5441751899, 5444110191, 5441506724], "tags": {"amenity": "hospital", "healthcare": "hospital", "healthcare:speciality": "general", "name": "\u94c1\u8def\u533b\u9662"}}, {"type": "way", "id": 565210744, "center": {"lat": 41.6569603, "lon": 123.3401995}, "nodes": [5444289851, 5444289852, 2245827262, 5444289853, 5444289851], "tags": {"amenity": "hospital", "healthcare": "hospital", "name": "\u82cf\u5bb6\u5c6f\u533a\u5987\u5a74\u533b\u9662"}}, {"type": "way", "id": 565239167, "center": {"lat": 41.6607166, "lon": 123.3275828}, "nodes": [4048377052, 2451687506, 5444258217, 5444453930, 5444453931, 4048377052], "tags": {"amenity": "hospital", "healthcare": "hospital", "name": "\u8fbd\u5b81\u7701\u8840\u6813\u533b\u9662\uff08\u82cf\u5bb6\u5c6f\u533a\u4e2d\u533b\u9662\uff09"}}, {"type": "way", "id": 569793080, "center": {"lat": 41.7837196, "lon": 123.408889}, "nodes": [5479234848, 5479234849, 5479234850, 5479234851, 5479234852, 5479234853, 5479234854, 5479234848], "tags": {"amenity": "hospital", "healthcare": "hospital", "name": "\u5317\u90e8\u6218\u533a\u603b\u533b\u9662(\u548c\u5e73\u9662\u533a)"}}, {"type": "way", "id": 581910414, "center": {"lat": 44.575198, "lon": 129.5668117}, "nodes": [5566663048, 5566663049, 5566663050, 5566663051, 5566663052, 5566663048], "tags": {"amenity": "hospital", "healthcare": "hospital", "name": "\u7261\u4e39\u6c5f\u5fc3\u8840\u7ba1\u75c5\u533b\u9662"}}, {"type": "way", "id": 581910415, "center": {"lat": 44.576306, "lon": 129.5677348}, "nodes": [5566663053, 5566663054, 5566663055, 5566663056, 5566663053], "tags": {"amenity": "hospital", "healthcare": "hospital", "name": "\u7cd6\u5c3f\u75c5\u533b\u9662"}}, {"type": "way", "id": 584858021, "center": {"lat": 41.6764198, "lon": 125.7666095}, "nodes": [5589927092, 5589927091, 5589927090, 5589927089, 5589927092], "tags": {"amenity": "hospital", "name": "\u901a\u5316\u53bf\u4e2d\u533b\u9662"}}, {"type": "way", "id": 591105314, "center": {"lat": 44.5807312, "lon": 129.632448}, "nodes": [5642893030, 5642893031, 5643147334, 5643147333, 5642893032, 5642893033, 5642893030], "tags": {"amenity": "hospital", "healthcare": "hospital", "name": "\u7261\u4e39\u6c5f\u5e02\u4e2d\u533b\u533b\u9662"}}, {"type": "way", "id": 591133202, "center": {"lat": 44.5954849, "lon": 129.5904736}, "nodes": [5643178968, 5643178969, 5643178970, 5643178971, 5643179011, 5643178972, 5643178973, 5643178986, 5643178985, 5643178968], "tags": {"amenity": "hospital", "healthcare": "hospital", "name": "\u7b2c\u4e00\u4eba\u6c11\u533b\u9662"}}, {"type": "way", "id": 591133217, "center": {"lat": 44.5953811, "lon": 129.5781202}, "nodes": [5643179155, 5643179156, 5643179157, 5643179158, 5643179155], "tags": {"amenity": "hospital", "healthcare": "hospital", "name": "\u5eb7\u5b89\u533b\u9662"}}, {"type": "way", "id": 596238959, "center": {"lat": 44.6017755, "lon": 129.5816003}, "nodes": [5680635203, 5680635204, 5680635207, 5680635208, 5680635202, 5680635209, 5680635203], "tags": {"amenity": "hospital", "healthcare": "hospital", "name": "\u89e3\u653e\u519b\u7b2c209\u533b\u9662"}}, {"type": "way", "id": 598072821, "center": {"lat": 44.5996838, "lon": 129.6132076}, "nodes": [5692919138, 5692919139, 5692919140, 5692919141, 5692919142, 5692919143, 5692919144, 5692919145, 5692919138], "tags": {"amenity": "hospital", "healthcare": "hospital", "name": "\u80bf\u7624\u533b\u9662"}}, {"type": "way", "id": 602563217, "center": {"lat": 45.8202801, "lon": 126.5059028}, "nodes": [5722949925, 9650725133, 9650725132, 5722949926, 5722949927, 5722949928, 5722949925], "tags": {"alt_name": "\u54c8\u533b\u5927\u56db\u9662\u6c5f\u5317\u9662\u533a", "amenity": "hospital", "healthcare": "hospital", "name": "\u54c8\u533b\u5927\u56db\u9662\uff08\u677e\u5317\u9662\u533a\uff09"}}, {"type": "way", "id": 602582437, "center": {"lat": 45.7548742, "lon": 127.4739154}, "nodes": [5723062183, 5723062184, 5723062185, 5723062186, 5723062183], "tags": {"amenity": "hospital", "healthcare": "hospital", "name": "\u53bf\u533b\u9662"}}, {"type": "way", "id": 617885155, "center": {"lat": 42.2962295, "lon": 123.8377837}, "nodes": [5840557500, 5840557501, 3667500301, 5840557502, 5840557503, 5840557500], "tags": {"amenity": "hospital", "healthcare": "hospital", "name": "\u94c1\u5cad\u53bf\u533b\u9662"}}, {"type": "way", "id": 619898321, "center": {"lat": 41.7279365, "lon": 123.2516817}, "nodes": [5857408397, 5857408398, 5857408399, 5857408400, 5857408401, 5857408402, 5857408403, 5857408404, 5857408397], "tags": {"amenity": "hospital", "emergency": "yes", "name": "\u6c88\u9633\u79ef\u6c34\u6f6d\u533b\u9662"}}, {"type": "way", "id": 620518034, "center": {"lat": 41.7473413, "lon": 123.4551081}, "nodes": [5862525532, 5862525533, 5862525534, 5862525535, 5862525536, 5862525537, 5862525538, 5862525539, 5862525540, 5862525541, 5862525542, 5862525543, 5862525544, 5862525532], "tags": {"amenity": "hospital", "healthcare": "hospital", "name": "\u4e1c\u5317\u56fd\u9645\u533b\u9662"}}, {"type": "way", "id": 620623251, "center": {"lat": 41.77077, "lon": 123.3557814}, "nodes": [5863448897, 5863448898, 5863448899, 5863448900, 5863448897], "tags": {"amenity": "hospital", "healthcare": "hospital", "name": "\u4e2d\u56fd\u533b\u79d1\u5927\u5b66\u9644\u5c5e\u76db\u4eac\u533b\u9662\uff08\u6ed1\u7fd4\u9662\u533a\uff09"}}, {"type": "way", "id": 624067068, "center": {"lat": 41.2729462, "lon": 123.1873858}, "nodes": [5892774384, 5892775185, 5892775186, 5892775187, 5892774384], "tags": {"amenity": "hospital", "healthcare": "hospital", "name": "\u5e02\u4e2d\u533b\u9662"}}, {"type": "way", "id": 626406640, "center": {"lat": 41.272195, "lon": 123.1770295}, "nodes": [5913734960, 5913734961, 5913734962, 5913734963, 5913734960], "tags": {"amenity": "hospital", "healthcare": "hospital", "name": "\u8fbd\u9633\u5e02\u4e2d\u5fc3\u533b\u9662"}}, {"type": "way", "id": 636473064, "center": {"lat": 49.5817812, "lon": 128.4624549}, "nodes": [6001933476, 6001933477, 6001933478, 6001933479, 6001933476], "tags": {"amenity": "hospital", "healthcare": "hospital", "name": "\u900a\u514b\u53bf\u4eba\u6c11\u533b\u9662"}}, {"type": "way", "id": 641560648, "center": {"lat": 41.7959811, "lon": 123.3351421}, "nodes": [1774801034, 6041611946, 1776046960, 1774801032, 1774801034], "tags": {"amenity": "hospital", "healthcare": "hospital", "name": "\u516b\u9662"}}, {"type": "way", "id": 643068015, "center": {"lat": 46.0737252, "lon": 122.0786337}, "nodes": [6052520108, 6052520109, 6052520110, 6052520111, 6052520108], "tags": {"amenity": "hospital", "healthcare": "hospital", "name": "\u5174\u5b89\u76df\u533b\u9662"}}, {"type": "way", "id": 643103175, "center": {"lat": 41.8569, "lon": 123.4104379}, "nodes": [6052761583, 6052761584, 6052761585, 6052761586, 6052761583], "tags": {"amenity": "hospital", "healthcare": "hospital", "name": "\u7701\u4e2d\u533b\u4e8c\u9662"}}, {"type": "way", "id": 644200618, "center": {"lat": 43.7927254, "lon": 125.3134157}, "nodes": [6059392432, 6059392433, 6059392434, 6059392435, 6059392432], "tags": {"amenity": "hospital", "healthcare": "hospital"}}, {"type": "way", "id": 644277813, "center": {"lat": 43.79604, "lon": 125.3973326}, "nodes": [6059803222, 6059803223, 6059803224, 6059803225, 6059803222], "tags": {"amenity": "hospital", "healthcare": "hospital"}}, {"type": "way", "id": 644337604, "center": {"lat": 41.797002, "lon": 123.431704}, "nodes": [6060251857, 6060251858, 6060251859, 6060251860, 6060251861, 6060251862, 6060251863, 6060251864, 6060251865, 6060251866, 6060251867, 6060251868, 6060251869, 6060251857], "tags": {"amenity": "hospital", "healthcare": "hospital", "name": "\u6c88\u9633\u5e02\u7ea2\u5341\u5b57\u4f1a\u533b\u9662"}}, {"type": "way", "id": 645838150, "center": {"lat": 40.617849, "lon": 120.7673968}, "nodes": [6069846652, 6069846653, 6069846654, 6069846655, 6069846652], "tags": {"amenity": "hospital", "healthcare": "hospital", "name": "\u6821\u533b\u9662"}}, {"type": "way", "id": 645949369, "center": {"lat": 41.8006108, "lon": 123.4113458}, "nodes": [6070603018, 6070603019, 6070603020, 6070603021, 6070603022, 6070603023, 6070603018], "tags": {"amenity": "hospital", "healthcare": "hospital", "name": "\u6c88\u5dde\u533b\u9662"}}, {"type": "way", "id": 645949374, "center": {"lat": 41.7927802, "lon": 123.4054486}, "nodes": [9328849368, 6070603033, 6070603034, 9328849365, 9328849370, 9328849367, 6070603035, 6070603038, 9328849366, 9328849371, 9328849369, 9328849364, 9328849363, 9328849368], "tags": {"addr:city": "\u6c88\u9633\u5e02", "addr:district": "\u548c\u5e73\u533a", "addr:housenumber": "155\u53f7", "addr:postcode": "110001", "addr:province": "\u8fbd\u5b81\u7701", "addr:street": "\u5357\u4eac\u5317\u8857", "amenity": "hospital", "emergency": "yes", "healthcare": "hospital", "name": "\u4e2d\u56fd\u533b\u79d1\u5927\u5b66\u9644\u5c5e\u7b2c\u4e00\u533b\u9662", "name:en": "The First Hospital of China Medical University", "website": "http://www.cmu1h.com", "wikidata": "Q17014231", "wikipedia": "zh:\u4e2d\u56fd\u533b\u79d1\u5927\u5b66\u9644\u5c5e\u7b2c\u4e00\u533b\u9662"}}, {"type": "way", "id": 650160917, "center": {"lat": 41.731166, "lon": 123.2454204}, "nodes": [6100310510, 6100310511, 6100310512, 6100310513, 6100310514, 6100310515, 6100310510], "tags": {"amenity": "hospital", "healthcare": "hospital", "name": "\u6821\u533b\u9662"}}, {"type": "way", "id": 658333061, "center": {"lat": 41.7387653, "lon": 123.4861794}, "nodes": [6165045763, 6165045764, 6165045765, 6165045766, 6165045767, 6165045768, 6165045769, 6165045763], "tags": {"amenity": "hospital", "healthcare": "hospital", "name": "\u5317\u90e8\u6218\u533a\u533b\u9662"}}, {"type": "way", "id": 658333062, "center": {"lat": 41.7393723, "lon": 123.4871202}, "nodes": [6165045770, 6165045771, 6165045772, 6165045773, 6165045774, 6165045775, 6165045766, 6165045767, 6165045770], "tags": {"amenity": "hospital", "healthcare": "hospital", "name": "\u5e02\u7cbe\u795e\u536b\u751f\u533b\u9662"}}, {"type": "way", "id": 662808527, "center": {"lat": 49.7988784, "lon": 129.8764458}, "nodes": [6204892243, 6204892244, 6204892245, 6204892246, 6204892243], "tags": {"amenity": "hospital", "building": "yes", "healthcare": "hospital"}}, {"type": "way", "id": 675464011, "center": {"lat": 45.8160022, "lon": 126.5395552}, "nodes": [6325667507, 6325667508, 6325667509, 6325667510, 6325667511, 6325667512, 6325667513, 6325667529, 6325667514, 6325667515, 6325667358, 6325667357, 6325667516, 6325667507], "tags": {"amenity": "hospital", "healthcare": "hospital", "name": "\u9ed1\u9f99\u6c5f\u7701\u7b2c\u4e8c\u533b\u9662"}}, {"type": "way", "id": 675658521, "center": {"lat": 45.8786971, "lon": 126.5487457}, "nodes": [6327451747, 6327451748, 6327451749, 6327451750, 6327451751, 6327451752, 6327451753, 6327451754, 6327451919, 6327451747], "tags": {"amenity": "hospital", "healthcare": "hospital", "name": "\u987a\u8fc8\u533b\u9662", "name:zh": "\u987a\u8fc8\u533b\u9662", "name:zh-Hans": "\u987a\u8fc8\u533b\u9662", "name:zh-Hant": "\u9806\u9081\u91ab\u9662", "operator": "\u987a\u8fc8\u533b\u9662"}}, {"type": "way", "id": 676520296, "center": {"lat": 41.8606436, "lon": 123.4081673}, "nodes": [6335287094, 6335287095, 6335287096, 6335287097, 6335287098, 6335287099, 6335287100, 6335287101, 6335287104, 6335287103, 6335287102, 6335287094], "tags": {"amenity": "hospital", "healthcare": "hospital", "name": "\u6b66\u8b66\u603b\u961f\u533b\u9662"}}, {"type": "way", "id": 676520298, "center": {"lat": 41.8490149, "lon": 123.4053133}, "nodes": [6335287110, 6335287111, 6335287112, 6335287113, 6335287114, 6335287133, 6335287115, 6335287116, 6335287117, 6335287118, 6335287110], "tags": {"amenity": "hospital", "healthcare": "hospital", "name": "\u5317\u65b9\u533b\u9662"}}, {"type": "way", "id": 678851151, "center": {"lat": 42.9113945, "lon": 129.5041628}, "nodes": [6356279964, 6356279965, 6356279966, 6356279967, 6356279968, 6356279969, 6356279970, 6356279971, 6356279972, 6356279981, 6356279982, 6356279983, 6356279973, 6356279979, 6356279980, 6286464145, 6356281487, 6356279974, 6356279975, 6356279976, 6356279977, 6356279978, 6356279964], "tags": {"amenity": "hospital", "emergency": "yes", "healthcare": "hospital", "name": "\u5ef6\u8fb9\u5927\u5b66\u9644\u5c5e\u533b\u9662\uff08\u5ef6\u8fb9\u533b\u9662\uff09", "name:zh": "\u5ef6\u8fb9\u5927\u5b66\u9644\u5c5e\u533b\u9662\uff08\u5ef6\u8fb9\u533b\u9662\uff09", "name:zh-Hans": "\u5ef6\u8fb9\u5927\u5b66\u9644\u5c5e\u533b\u9662\uff08\u5ef6\u8fb9\u533b\u9662\uff09", "name:zh-Hant": "\u5ef6\u908a\u5927\u5b78\u9644\u5c6c\u91ab\u9662\uff08\u5ef6\u908a\u91ab\u9662\uff09", "operator": "\u5ef6\u8fb9\u5927\u5b66", "operator:type": "government", "wheelchair": "yes"}}, {"type": "way", "id": 679971060, "center": {"lat": 46.0844263, "lon": 127.3805931}, "nodes": [6366718049, 6366718039, 6366718040, 6366718048, 6366718049], "tags": {"amenity": "hospital", "healthcare": "hospital", "name": "\u4eba\u6c11\u533b\u9662", "source": "digitalGlobe Premium"}}, {"type": "way", "id": 680004688, "center": {"lat": 42.8896279, "lon": 129.4628336}, "nodes": [6367033950, 6367033951, 6367033946, 6367033947, 6367033948, 6367033952, 6367033953, 6367033954, 6367033955, 6367033956, 6367033957, 6367033958, 10866862824, 6367033950], "tags": {"amenity": "hospital", "emergency": "yes", "healthcare": "hospital", "name": "\u5ef6\u8fb9\u4eba\u6c11\u7b2c\u4e8c\u533b\u9662/\uc5f0\ubcc0\uc778\ubbfc\uc81c2\ubcd1\uc6d0", "name:zh": "\u5ef6\u8fb9\u4eba\u6c11\u7b2c\u4e8c\u533b\u9662", "name:zh-Hans": "\u5ef6\u8fb9\u4eba\u6c11\u7b2c\u4e8c\u533b\u9662", "name:zh-Hant": "\u5ef6\u908a\u4eba\u6c11\u7b2c\u4e8c\u91ab\u9662"}}, {"type": "way", "id": 683732266, "center": {"lat": 41.2996579, "lon": 123.7649277}, "nodes": [6404635692, 6404635693, 6404635694, 6404635695, 6404635696, 6404635697, 6404635699, 6404635698, 6404635692], "tags": {"addr:city": "\u672c\u6eaa\u5e02", "addr:district": "\u660e\u5c71\u533a", "addr:housenumber": "29\u53f7", "addr:postcode": "117000", "addr:province": "\u8fbd\u5b81\u7701", "addr:street": "\u80dc\u5229\u8def", "amenity": "hospital", "emergency": "yes", "healthcare": "hospital", "name": "\u672c\u6eaa\u5e02\u4e2d\u5fc3\u533b\u9662", "name:en": "Benxi Central Hospital", "phone": "+86 24 4289 0618", "website": "http://www.bxszxyy.com"}}, {"type": "way", "id": 683807387, "center": {"lat": 41.2938716, "lon": 123.7598759}, "nodes": [6405298475, 6405298476, 9092844759, 6405298477, 6405298478, 6405298475], "tags": {"addr:city": "\u672c\u6eaa\u5e02", "addr:district": "\u5e73\u5c71\u533a", "addr:housenumber": "29\u53f7", "addr:postcode": "117000", "addr:province": "\u8fbd\u5b81\u7701", "addr:street": "\u4eba\u6c11\u8def", "amenity": "hospital", "emergency": "yes", "healthcare": "hospital", "name": "\u672c\u94a2\u603b\u533b\u9662", "name:en": "General Hospital Of Benxi Iron And Steel Co.", "phone": "+86 24 4284 3868", "website": "http://www.bgzyy.com"}}, {"type": "way", "id": 683807388, "center": {"lat": 41.294073, "lon": 123.758465}, "nodes": [6405298479, 6405298480, 6405298481, 6498332316, 6405298483, 6405298484, 6405298479], "tags": {"addr:city": "\u672c\u6eaa\u5e02", "addr:district": "\u5e73\u5c71\u533a", "addr:housenumber": "9\u53f7", "addr:postcode": "117000", "addr:province": "\u8fbd\u5b81\u7701", "addr:street": "\u5e02\u5e9c\u5317\u8857", "amenity": "hospital", "emergency": "yes", "healthcare": "hospital", "name": "\u672c\u6eaa\u5e02\u4e2d\u533b\u9662", "name:en": "Benxi Hospital Of TCM", "phone": "+86 24 4221 5511", "website": "https://www.bxzyy.com/"}}, {"type": "way", "id": 685890119, "center": {"lat": 40.758836, "lon": 120.8554791}, "nodes": [6428533891, 6428533892, 6428533893, 6428533894, 6428533895, 6428533896, 6428533897, 6428533891], "tags": {"addr:city": "\u846b\u82a6\u5c9b\u5e02", "addr:district": "\u8fde\u5c71\u533a", "addr:housenumber": "15\u53f7", "addr:postcode": "125000", "addr:province": "\u8fbd\u5b81\u7701", "addr:street": "\u8fde\u5c71\u5927\u8857", "amenity": "hospital", "emergency": "yes", "healthcare": "hospital", "name": "\u846b\u82a6\u5c9b\u5e02\u4e2d\u5fc3\u533b\u9662", "phone": "+86 429 261 3660", "website": "http://www.hldszxyy.com"}}, {"type": "way", "id": 688553453, "center": {"lat": 40.6819621, "lon": 120.8292522}, "nodes": [6457137298, 6457137306, 6457137301, 6457137297, 6457137305, 6457137300, 6457137296, 6457137303, 6457137299, 6457137304, 6457137302, 6457137307, 6457137298], "tags": {"amenity": "hospital", "area": "yes", "healthcare": "hospital", "name": "\u4e2d\u56fd\u4eba\u6c11\u89e3\u653e\u519b\u4e5d\u4e8c\u56db\u4e5d\u4e09\u90e8\u961f\u533b\u9662"}}, {"type": "way", "id": 689269145, "center": {"lat": 48.2417614, "lon": 124.2831086}, "nodes": [6466100914, 6466100915, 6466100916, 6466100917, 6466100918, 6466100919, 6466100914], "tags": {"amenity": "hospital", "healthcare": "hospital", "name": "\u533b\u9662"}}, {"type": "way", "id": 689296026, "center": {"lat": 40.6151227, "lon": 120.7207079}, "nodes": [6466301295, 6466301297, 6466301289, 6466301302, 6466301290, 6466301298, 6466301295], "tags": {"amenity": "hospital", "healthcare": "hospital", "name": "\u5174\u57ce\u5e02\u4eba\u6c11\u533b\u9662"}}, {"type": "way", "id": 691866391, "center": {"lat": 42.5406641, "lon": 124.1385657}, "nodes": [6493664014, 6493664015, 6493664016, 6493664017, 6493664014], "tags": {"amenity": "hospital", "healthcare": "hospital", "name:zh": "\u6e05\u6cb3\u533a\u4eba\u6c11\u533b\u9662"}}, {"type": "way", "id": 691866394, "center": {"lat": 42.2417517, "lon": 123.7398096}, "nodes": [6018714476, 6493664034, 6970821659, 6018714477, 6018714476], "tags": {"amenity": "hospital", "healthcare": "hospital", "name:zh": "\u94c1\u5cad\u5e02\u4e2d\u5fc3\u533b\u9662"}}, {"type": "way", "id": 691866408, "center": {"lat": 42.2722545, "lon": 123.8344783}, "nodes": [6493665324, 6493665325, 6493665326, 6493665327, 6493665328, 6493665329, 6493665330, 6493665324], "tags": {"amenity": "hospital", "healthcare": "hospital", "name:zh": "\u94c1\u5cad\u5e02\u4e2d\u533b\u9662"}}, {"type": "way", "id": 692583872, "center": {"lat": 41.271414, "lon": 123.7648405}, "nodes": [6502022462, 6502022463, 6502022464, 6502022465, 6502022466, 6502022467, 6502022468, 6502022469, 6502022470, 6502022471, 6502022462], "tags": {"amenity": "hospital", "healthcare": "hospital", "name": "\u672c\u94a2\u5357\u5730\u533b\u9662"}}, {"type": "way", "id": 692977906, "center": {"lat": 41.3005862, "lon": 123.7807774}, "nodes": [6505893530, 6505893543, 6505893525, 6505893550, 6505893536, 6505893560, 6505893547, 6505893529, 6505893554, 6505893540, 6505893530], "tags": {"amenity": "hospital", "healthcare": "hospital", "name": "\u672c\u6eaa\u5e02\u7b2c\u516d\u4eba\u6c11\u533b\u9662"}}, {"type": "way", "id": 693996291, "center": {"lat": 40.710222, "lon": 120.8378466}, "nodes": [6515767314, 6515767319, 6515767311, 6515767323, 6515767314], "tags": {"addr:city": "\u846b\u82a6\u5c9b\u5e02", "addr:district": "\u9f99\u6e2f\u533a", "addr:housenumber": "28\u53f7", "addr:postcode": "125000", "addr:province": "\u8fbd\u5b81\u7701", "addr:street": "\u6d77\u6708\u8def", "amenity": "hospital", "emergency": "yes", "healthcare": "hospital", "name": "\u846b\u82a6\u5c9b\u5e02\u4e2d\u5fc3\u533b\u9662\u9f99\u6e7e\u9662\u533a", "website": "http://www.hldszxyy.com/index.php?_d=index&_f=index_lw"}}, {"type": "way", "id": 701317878, "center": {"lat": 41.9119664, "lon": 123.4158818}, "nodes": [6586532196, 6586532197, 6586532198, 9066086882, 9066086878, 6586532199, 6586532196], "tags": {"amenity": "hospital", "healthcare": "hospital", "name": "\u8fbd\u5317\u4e2d\u533b\u9662"}}, {"type": "way", "id": 705311751, "center": {"lat": 45.7236039, "lon": 126.6941552}, "nodes": [6625425525, 6625425526, 6625425527, 6625425528, 6625425525], "tags": {"amenity": "hospital", "healthcare": "hospital", "name": "\u9999\u574a\u533a\u4eba\u6c11\u533b\u9662"}}, {"type": "way", "id": 705311752, "center": {"lat": 45.7201, "lon": 126.6915693}, "nodes": [6625425529, 8808175154, 6625425530, 6625425531, 6636823448, 6636823449, 6625425534, 8808175153, 6625425529], "tags": {"amenity": "hospital", "healthcare": "hospital", "name": "\ud83c\udfe5 \u7701\u75be\u63a7\u4e2d\u5fc3"}}, {"type": "way", "id": 705398922, "center": {"lat": 45.7054557, "lon": 126.6766398}, "nodes": [6627263184, 6627284585, 6627284586, 6627284587, 6627284588, 6627263184], "tags": {"amenity": "hospital", "healthcare": "hospital", "name": "\u661f\u5149\u533b\u9662"}}, {"type": "way", "id": 705398923, "center": {"lat": 45.7072769, "lon": 126.6774581}, "nodes": [6627284589, 6627284590, 6627284591, 6627284592, 6627284593, 6627284594, 6627284595, 6627284596, 6627284597, 6627284598, 6627284589], "tags": {"amenity": "hospital", "healthcare": "hospital", "name": "\u6c7d\u8f6e\u673a\u533b\u9662"}}, {"type": "way", "id": 705418583, "center": {"lat": 45.7061181, "lon": 126.6585012}, "nodes": [6627451888, 6627451889, 6627451890, 6627451891, 6627451888], "tags": {"amenity": "hospital", "healthcare": "hospital", "name": "\u4e1c\u65b9\u533b\u9662"}}, {"type": "way", "id": 705444742, "center": {"lat": 45.7302073, "lon": 126.6938355}, "nodes": [6627693700, 6627693702, 6627693703, 10890280534, 6627693704, 6627693705, 6627693700], "tags": {"amenity": "hospital", "healthcare": "hospital", "name": "\u54c8\u5c14\u6ee8\u5e02\u4f20\u67d3\u75c5\u533b\u9662"}}, {"type": "way", "id": 705458605, "center": {"lat": 45.7275346, "lon": 126.665982}, "nodes": [6627827967, 6627827968, 6627827969, 6627827970, 6627827971, 6627827972, 6627827967], "tags": {"amenity": "hospital", "healthcare": "hospital", "name": "\u9ed1\u9f99\u6c5f\u7701\u533b\u9662\uff08\u9999\u574a\u9662\u533a\uff09"}}, {"type": "way", "id": 705616836, "center": {"lat": 45.7431261, "lon": 126.7055484}, "nodes": [5510025724, 6630054644, 5509982179, 5509982180, 5509982181, 5509972008, 5510025724], "tags": {"amenity": "hospital", "healthcare": "hospital", "name": "\u9ed1\u9f99\u6c5f\u7701\u793e\u4f1a\u5eb7\u590d\u533b\u9662"}}, {"type": "way", "id": 705616841, "center": {"lat": 45.7385121, "lon": 126.6935423}, "nodes": [6630054657, 6630054658, 6630054659, 6630054660, 6630054671, 6630054670, 6630054669, 6630054661, 6630054657], "tags": {"amenity": "hospital", "healthcare": "hospital", "name": "\u9ed1\u9f99\u6c5f\u7701\u4e2d\u533b\u836f\u5927\u5b66\u7b2c\u4e09\u9644\u5c5e\u533b\u9662"}}, {"type": "way", "id": 705716717, "center": {"lat": 45.7263858, "lon": 126.6454792}, "nodes": [8892326917, 8892326918, 8892326919, 8892326920, 8892326917], "tags": {"amenity": "hospital", "emergency": "yes", "healthcare": "hospital", "name": "\u9ed1\u9f99\u6c5f\u4e2d\u533b\u836f\u5927\u5b66\u9644\u5c5e\u7b2c\u4e00\u533b\u9662", "name:en": "First Affiliated Hospital of Heilongjiang University of Chinese Medicine", "name:zh": "\u9ed1\u9f99\u6c5f\u4e2d\u533b\u836f\u5927\u5b66\u9644\u5c5e\u7b2c\u4e00\u533b\u9662", "name:zh-Hans": "\u9ed1\u9f99\u6c5f\u4e2d\u533b\u836f\u5927\u5b66\u9644\u5c5e\u7b2c\u4e00\u533b\u9662", "name:zh-Hant": "\u9ed1\u9f8d\u6c5f\u4e2d\u91ab\u85e5\u5927\u5b78\u9644\u5c6c\u7b2c\u4e00\u91ab\u9662", "operator": "\u9ed1\u9f99\u6c5f\u4e2d\u533b\u836f\u5927\u5b66", "operator:type": "government", "wheelchair": "yes", "wikidata": "Q30260764"}}, {"type": "way", "id": 705753340, "center": {"lat": 45.7068608, "lon": 126.6509494}, "nodes": [6631436833, 6631436834, 6631436835, 6631436836, 6631436837, 6631436833], "tags": {"amenity": "hospital", "healthcare": "hospital", "name": "\u54c8\u5c14\u6ee8\u5e02\u7b2c\u4e94\u533b\u9662"}}, {"type": "way", "id": 705753341, "center": {"lat": 45.6955703, "lon": 126.6339738}, "nodes": [6631436838, 6631436839, 6631436840, 6631436841, 6631436842, 6631436843, 6631436844, 6631436845, 6631436846, 6631436838], "tags": {"amenity": "hospital", "emergency": "yes", "healthcare": "hospital", "name": "\u54c8\u5c14\u6ee8\u533b\u79d1\u5927\u5b66\u7b2c\u4e09\u4e34\u5e8a\u533b\u5b66\u9662\uff08\u80bf\u7624\u533b\u9662\uff09", "name:zh": "\u54c8\u5c14\u6ee8\u533b\u79d1\u5927\u5b66\u7b2c\u4e09\u4e34\u5e8a\u533b\u5b66\u9662\uff08\u80bf\u7624\u533b\u9662\uff09", "name:zh-Hans": "\u54c8\u5c14\u6ee8\u533b\u79d1\u5927\u5b66\u7b2c\u4e09\u4e34\u5e8a\u533b\u5b66\u9662\uff08\u80bf\u7624\u533b\u9662\uff09", "name:zh-Hant": "\u54c8\u723e\u6ff1\u91ab\u79d1\u5927\u5b78\u7b2c\u4e09\u81e8\u5e8a\u91ab\u5b78\u9662\uff08\u816b\u7624\u91ab\u9662\uff09", "operator": "\u54c8\u5c14\u6ee8\u533b\u79d1\u5927\u5b66", "operator:type": "government", "wheelchair": "yes"}}, {"type": "way", "id": 705753342, "center": {"lat": 45.6930229, "lon": 126.6154291}, "nodes": [6631436847, 6631436848, 6631436849, 6631436850, 6631436851, 6631436853, 6631436854, 6631436855, 6631436856, 6631436852, 6631436847], "tags": {"amenity": "hospital", "description": "Harbin Medical University Cancer Hospital (also known as The Second Affiliated Hospital of Harbin Medical University) was founded in 1972, which is the only 3A-grade hospital in Heilongjiang province.", "emergency": "yes", "healthcare": "hospital", "name": "\u54c8\u5c14\u6ee8\u533b\u79d1\u5927\u5b66\u9644\u5c5e\u7b2c\u4e8c\u533b\u9662", "name:en": "Harbin Medical University Cancer Hospital (The Second Affiliated Hospital of Harbin Medical University)", "name:zh": "\u54c8\u5c14\u6ee8\u533b\u79d1\u5927\u5b66\u9644\u5c5e\u7b2c\u4e8c\u533b\u9662", "name:zh-Hans": "\u54c8\u5c14\u6ee8\u533b\u79d1\u5927\u5b66\u9644\u5c5e\u7b2c\u4e8c\u533b\u9662", "name:zh-Hant": "\u54c8\u723e\u6ff1\u91ab\u79d1\u5927\u5b78\u9644\u5c6c\u7b2c\u4e8c\u91ab\u9662", "operator": "\u54c8\u5c14\u6ee8\u533b\u79d1\u5927\u5b66", "operator:type": "government", "wheelchair": "yes"}}, {"type": "way", "id": 715011880, "center": {"lat": 47.1987513, "lon": 123.6352598}, "nodes": [6720558231, 6720558232, 6720558233, 6720558234, 6720558235, 6720558236, 6720558237, 6720558238, 6720558231], "tags": {"amenity": "hospital", "healthcare": "hospital", "name": "\u5317\u94a2\u533b\u9662"}}, {"type": "way", "id": 715011881, "center": {"lat": 47.195846, "lon": 123.643353}, "nodes": [6720558239, 6720558240, 6720558241, 6720558242, 6720558243, 6720558244, 6720558245, 6720558239], "tags": {"amenity": "hospital", "healthcare": "hospital", "name": "\u9f50\u9f50\u54c8\u5c14\u533b\u5b66\u9662\u7b2c\u4e00\u9644\u5c5e\u533b\u9662"}}, {"type": "way", "id": 722871011, "center": {"lat": 41.8290512, "lon": 123.4245825}, "nodes": [6780591498, 6780591499, 9459352843, 9459352864, 4390201704, 9459352846, 9459352857, 9459352849, 9459352845, 9459352842, 6780591498], "tags": {"amenity": "hospital", "healthcare": "hospital", "name": "\u8fbd\u5b81\u4e2d\u533b\u836f\u5927\u5b66\u9644\u5c5e\u533b\u9662"}}, {"type": "way", "id": 723364639, "center": {"lat": 45.6686549, "lon": 126.5413719}, "nodes": [6784860451, 6784860452, 6784860453, 6784860454, 6784860455, 6784860456, 6784860451], "tags": {"amenity": "hospital", "healthcare": "hospital", "name": "\u738b\u5c97\u533b\u9662"}}, {"type": "way", "id": 727853462, "center": {"lat": 43.8420947, "lon": 126.5549319}, "nodes": [6820840206, 6820840207, 6820840208, 6820840209, 6820840210, 6820840211, 6820840212, 6820840206], "tags": {"addr:housenumber": "12", "addr:street": "\u89e3\u653e\u4e2d\u8def Jiefang Zhonglu", "amenity": "hospital", "emergency": "yes", "healthcare": "hospital", "name": "\u5317\u534e\u5927\u5b66\u9644\u5c5e\u533b\u9662"}}, {"type": "way", "id": 727977738, "center": {"lat": 43.8396609, "lon": 126.557919}, "nodes": [6821962906, 6821962907, 6821962908, 6821962909, 6821962910, 6821962911, 6821962912, 6821962913, 7176730973, 6821962914, 6871259873, 6871259871, 6871259872, 4348676108, 4348675685, 6821962915, 6821962916, 6821962917, 6821962918, 6821962906], "tags": {"addr:city": "\u5409\u6797\u5e02", "addr:district": "\u8239\u8425\u533a", "addr:housenumber": "4", "addr:postcode": "132011", "addr:province": "\u5409\u6797\u7701", "addr:street": "\u5357\u4eac\u8857", "amenity": "hospital", "healthcare": "hospital", "name": "\u5409\u6797\u5e02\u4e2d\u5fc3\u533b\u9662"}}, {"type": "way", "id": 733638522, "center": {"lat": 43.827268, "lon": 126.525457}, "nodes": [6871259851, 6871259852, 6871259859, 6871259864, 6871259860, 6871259861, 6871259862, 6871259863, 6871259851], "tags": {"amenity": "hospital", "healthcare": "hospital", "name": "\u5409\u6797\u5e02\u4e2d\u897f\u533b\u7ed3\u5408\u533b\u9662"}}, {"type": "way", "id": 739706061, "center": {"lat": 42.2753635, "lon": 125.7294289}, "nodes": [6926013120, 6926013121, 6926013122, 6926013123, 6926013124, 6926013125, 6926013126, 6926013127, 6926013120], "tags": {"amenity": "hospital", "healthcare": "hospital", "name": "\u67f3\u6cb3\u53bf\u533b\u9662"}}, {"type": "way", "id": 746093353, "center": {"lat": 41.7846633, "lon": 121.4152997}, "nodes": [6982315833, 6982315834, 6982315835, 6982315836, 6982315833], "tags": {"amenity": "hospital", "healthcare": "hospital", "name": "\u6e05\u6cb3\u95e8\u533a\u533b\u9662"}}, {"type": "way", "id": 760737803, "center": {"lat": 40.6520034, "lon": 120.7880755}, "nodes": [7106704023, 7106704024, 7106704025, 7106704026, 7106704023], "tags": {"amenity": "hospital", "healthcare": "hospital", "name": "\u5174\u57ce\u5e02\u4e2d\u533b\u533b\u9662"}}, {"type": "way", "id": 767485691, "center": {"lat": 47.341055, "lon": 123.1855513}, "nodes": [7165936998, 7165936999, 7165937000, 9665479467, 9665479432, 7165937001, 9665479431, 7165936998], "tags": {"amenity": "hospital", "healthcare": "hospital", "name": "\u9f99\u6c5f\u53bf\u7b2c\u4e00\u4eba\u6c11\u533b\u9662"}}, {"type": "way", "id": 768560034, "center": {"lat": 41.2990511, "lon": 123.7752135}, "nodes": [7175211373, 7175211353, 7175211366, 7175211381, 7175211362, 7175211368, 7175211374, 7175211360, 7175211365, 7175211351, 7175211371, 7175211358, 7175211378, 7175211373], "tags": {"addr:city": "\u672c\u6eaa\u5e02", "addr:district": "\u660e\u5c71\u533a", "addr:housenumber": "16\u53f7", "addr:postcode": "117000", "addr:province": "\u8fbd\u5b81\u7701", "addr:street": "\u6c34\u5854\u8def", "amenity": "hospital", "healthcare": "hospital", "name": "\u672c\u6eaa\u5e02\u91d1\u5c71\u533b\u9662", "name:en": "Benxi Jinshan Hospital", "phone": "+86 24 4217 5113", "website": "https://www.bxjsyy.com/"}}, {"type": "way", "id": 772699190, "center": {"lat": 42.0135196, "lon": 121.6548312}, "nodes": [7213987478, 7465992907, 7465992906, 7214015891, 7214015887, 7214015889, 7213987476, 7465992905, 7213987482, 7213987483, 7214015888, 7214015890, 7213987477, 7213987484, 7213987481, 7213987479, 7214015892, 7214015886, 7213987480, 7214015885, 7213987478], "tags": {"addr:city": "\u961c\u65b0\u5e02", "addr:district": "\u6d77\u5dde\u533a", "addr:housenumber": "74\u53f7", "addr:postcode": "123000", "addr:province": "\u8fbd\u5b81\u7701", "addr:street": "\u4e2d\u534e\u8def", "amenity": "hospital", "emergency": "yes", "healthcare": "hospital", "name": "\u961c\u65b0\u5e02\u4e2d\u5fc3\u533b\u9662", "website": "http://www.fxzxyy.com"}}, {"type": "way", "id": 772700144, "center": {"lat": 42.0062596, "lon": 121.6459177}, "nodes": [7214025639, 7214025640, 7214025641, 7214025642, 7214025635, 7214025638, 7214025637, 7214025636, 7214025639], "tags": {"addr:city": "\u961c\u65b0\u5e02", "addr:district": "\u6d77\u5dde\u533a", "addr:housenumber": "43\u53f7", "addr:postcode": "123000", "addr:province": "\u8fbd\u5b81\u7701", "addr:street": "\u4fdd\u5065\u8857", "amenity": "hospital", "emergency": "yes", "fax": "+86 418 283 1020", "healthcare": "hospital", "name": "\u961c\u65b0\u77ff\u603b\u533b\u9662", "name:en": "General Hospital Of Mining Industry Group Fuxin", "phone": "+86 418 288 3017", "website": "http://www.fx-hospital.com"}}, {"type": "way", "id": 772717083, "center": {"lat": 41.9955512, "lon": 121.6216898}, "nodes": [7214202956, 7214202948, 7214216496, 7214202980, 7214202972, 7214202964, 7214202956], "tags": {"addr:city": "\u961c\u65b0\u5e02", "addr:district": "\u6d77\u5dde\u533a", "addr:housenumber": "61\u53f7", "addr:postcode": "123000", "addr:province": "\u8fbd\u5b81\u7701", "addr:street": "\u8fce\u5bbe\u5927\u8857", "amenity": "hospital", "emergency": "yes", "healthcare": "hospital", "name": "\u961c\u65b0\u5e02\u7b2c\u4e8c\u4eba\u6c11\u533b\u9662(\u5987\u4ea7\u533b\u9662)", "phone": "+86 418 596 0000", "website": "http://www.fx2yy.com"}}, {"type": "way", "id": 772812203, "center": {"lat": 42.006872, "lon": 121.6496149}, "nodes": [7215415990, 7215402884, 7215415988, 7215415996, 7215415990], "tags": {"amenity": "hospital", "emergency": "yes", "healthcare": "hospital", "name": "\u961c\u65b0\u5e02\u4e2d\u533b\u9662"}}, {"type": "way", "id": 774639408, "center": {"lat": 43.8599413, "lon": 126.5650647}, "nodes": [7227382749, 7227382781, 7227382782, 7227382739, 7227382750, 7227382751, 7227382752, 7227382753, 7227382749], "tags": {"amenity": "hospital", "healthcare": "hospital", "name": "\u5409\u6797\u5e02\u4eba\u6c11\u533b\u9662"}}, {"type": "way", "id": 779543881, "center": {"lat": 41.8631445, "lon": 123.4163018}, "nodes": [7279346366, 7279346367, 7279346368, 7279346369, 7279346370, 7279346371, 7279346372, 7279346375, 7279346376, 7279346377, 7279346380, 7279346379, 7279346378, 7279346373, 7279346374, 7279346366], "tags": {"addr:city": "\u6c88\u9633\u5e02", "addr:district": "\u7687\u59d1\u533a", "addr:housenumber": "3\u53f7", "addr:postcode": "110000", "addr:province": "\u8fbd\u5b81\u7701", "addr:street": "\u4e50\u5c71\u8def", "amenity": "hospital", "emergency": "yes", "healthcare": "hospital", "name": "\u6c88\u9633\u4e8c\u56db\u4e8c\u533b\u9662"}}, {"type": "way", "id": 782333740, "center": {"lat": 45.870644, "lon": 126.5575024}, "nodes": [7305367375, 7305367376, 7305367377, 7305367378, 1934565682, 7305367375], "tags": {"amenity": "hospital", "emergency": "yes", "healthcare": "hospital", "name": "\u5927\u5b66\u57ce\u533b\u9662", "name:zh": "\u5927\u5b66\u57ce\u533b\u9662", "name:zh-Hans": "\u5927\u5b66\u57ce\u533b\u9662", "name:zh-Hant": "\u5927\u5b78\u57ce\u91ab\u9662", "wheelchair": "yes"}}, {"type": "way", "id": 796533776, "center": {"lat": 41.2556607, "lon": 123.1532657}, "nodes": [7449500930, 7449500931, 7449500932, 7449500933, 7449500930], "tags": {"amenity": "hospital", "healthcare": "hospital", "name": "\u4e2d\u94c1\u5341\u4e5d\u5c40\u804c\u5de5\u4e2d\u5fc3\u533b\u9662"}}, {"type": "way", "id": 796533791, "center": {"lat": 41.2547113, "lon": 123.1458348}, "nodes": [7449501029, 7449501030, 7449501031, 7449501032, 7449501033, 7449501034, 7449501029], "tags": {"amenity": "hospital", "healthcare": "hospital", "name": "\u4e2d\u56fd\u4eba\u6c11\u89e3\u653e\u519b\u9646\u519b\u7b2c\u4e03\u5341\u4e5d\u96c6\u56e2\u519b\u533b\u9662"}}, {"type": "way", "id": 796533792, "center": {"lat": 41.263565, "lon": 123.1645504}, "nodes": [7449501035, 7449501036, 7449501037, 7449501038, 7449501039, 7449501040, 7449501035], "tags": {"amenity": "hospital", "healthcare": "hospital", "name": "\u8fbd\u9633\u5e02\u7b2c\u4e8c\u4eba\u6c11\u533b\u9662"}}, {"type": "way", "id": 796533793, "center": {"lat": 41.2529994, "lon": 123.184207}, "nodes": [7449501041, 7449501042, 7449501043, 7449501044, 7449501045, 7449501041], "tags": {"amenity": "hospital", "healthcare": "hospital", "name": "\u8fbd\u9633\u5e02\u7b2c\u4e09\u4eba\u6c11\u533b\u9662"}}, {"type": "way", "id": 796533813, "center": {"lat": 41.2821584, "lon": 123.2184896}, "nodes": [7449501180, 7449501181, 7449501182, 7449501183, 7449501180], "tags": {"amenity": "hospital", "healthcare": "hospital", "name": "\u8fbd\u9633\u5e02\u4e2d\u5fc3\u533b\u9662\u65b0\u57ce\u533b\u9662"}}, {"type": "way", "id": 796585816, "center": {"lat": 41.2554082, "lon": 123.1790307}, "nodes": [7449946234, 7449946235, 7449946236, 7449946237, 7449946234], "tags": {"amenity": "hospital", "healthcare": "hospital", "name": "\u8fbd\u9633\u5e02\u7b2c\u516d\u4eba\u6c11\u533b\u9662"}}, {"type": "way", "id": 796585817, "center": {"lat": 41.266845, "lon": 123.1818432}, "nodes": [7449946238, 7449946239, 7449946240, 7449946241, 7449946238], "tags": {"amenity": "hospital", "healthcare": "hospital", "name": "\u8fbd\u9633\u5e02\u7b2c\u4e94\u4eba\u6c11\u533b\u9662"}}, {"type": "way", "id": 813558151, "center": {"lat": 41.1020207, "lon": 122.992914}, "nodes": [7663325423, 7663325424, 8250949242, 8250949243, 8250949244, 7599467813, 7663325427, 7599467814, 7599467815, 7599467816, 7599467817, 8309930204, 8309930203, 7663325303, 7599467818, 7663325302, 7663325301, 7599467819, 7663325300, 7599467820, 7684417118, 7684417117, 7599467821, 8250949235, 8250949238, 7597580178, 8250949239, 8250949236, 9348586308, 9348586311, 7663325423], "tags": {"amenity": "hospital", "healthcare": "hospital", "name": "\u978d\u5c71\u5e02\u4e2d\u5fc3\u533b\u9662"}}, {"type": "way", "id": 813739281, "center": {"lat": 41.1179577, "lon": 122.9547953}, "nodes": [7601097306, 7601097307, 7668160369, 7668160368, 7601097308, 7601097309, 7601097310, 7689962117, 7599643917, 7601097311, 7601097312, 7601097313, 7601097314, 7601097315, 7601097316, 7668160373, 7601097317, 7668160372, 7668160371, 7668160370, 7601097306], "tags": {"amenity": "hospital", "healthcare": "hospital", "name": "\u4e2d\u56fd\u533b\u5927\u4e00\u9662\u978d\u5c71\u533b\u9662"}}, {"type": "way", "id": 813744955, "center": {"lat": 41.1182655, "lon": 123.0057053}, "nodes": [7601175103, 7601175104, 7601175105, 7601175106, 9211889727, 7601175107, 8433449562, 7601175144, 8433449561, 7601175108, 7601175109, 7601175110, 7601175111, 7601175112, 7601175113, 7601175114, 7601175115, 7601175116, 7601175117, 7608256520, 7601175118, 7601175119, 7601175120, 7601175121, 7601175122, 7601175103], "tags": {"amenity": "hospital", "healthcare": "hospital", "name": "\u978d\u94a2\u96c6\u56e2\u603b\u533b\u9662"}}, {"type": "way", "id": 813748565, "center": {"lat": 41.0978327, "lon": 122.9536353}, "nodes": [7601195766, 8577264591, 7601195767, 7601195769, 7601195770, 7601195771, 7601195772, 7601195773, 7601195774, 7601195775, 7601195766], "tags": {"amenity": "hospital", "healthcare": "hospital", "name": "\u978d\u5c71\u5e02\u7b2c\u4e8c\u4eba\u6c11\u533b\u9662"}}, {"type": "way", "id": 813757216, "center": {"lat": 41.0849691, "lon": 123.0044437}, "nodes": [7601305396, 7601305397, 7601305398, 7601305399, 7601305400, 7601305401, 7601305402, 7601305396], "tags": {"amenity": "hospital", "healthcare": "hospital", "name": "\u978d\u5c71\u5e02\u4e2d\u533b\u9662"}}, {"type": "way", "id": 814027099, "center": {"lat": 41.1474428, "lon": 123.0216535}, "nodes": [7604065836, 7604065837, 7604065838, 7604065839, 7604065840, 7604065841, 7604065842, 7604065843, 7604065844, 7604065845, 7604065846, 7604065847, 7604065836], "tags": {"amenity": "hospital", "healthcare": "hospital", "name": "\u978d\u5c71\u5e02\u7b2c\u4e09\u4eba\u6c11\u533b\u9662"}}, {"type": "way", "id": 814038040, "center": {"lat": 41.3270118, "lon": 123.7637872}, "nodes": [7604180886, 7604180887, 7604180888, 7604180889, 7604180886], "tags": {"amenity": "hospital", "healthcare": "hospital", "name": "\u672c\u6eaa\u5e02\u7b2c\u4e00\u4eba\u6c11\u533b\u9662"}}, {"type": "way", "id": 814907129, "center": {"lat": 41.1060477, "lon": 123.066218}, "nodes": [7611958197, 7611958199, 7611958200, 7611958201, 7611958202, 7611958203, 7611958206, 7611958209, 7611958207, 7611958208, 9266936169, 7611958197], "tags": {"amenity": "hospital", "healthcare": "hospital", "name": "\u978d\u5c71\u5e02\u9ad8\u65b0\u533b\u9662"}}, {"type": "way", "id": 823633216, "center": {"lat": 41.1043467, "lon": 122.9695944}, "nodes": [7689733520, 7689733521, 7689733522, 7689733523, 7689733524, 7689733525, 7689733520], "tags": {"amenity": "hospital", "healthcare": "hospital", "name": "\u978d\u5c71\u5e02\u5987\u513f\u533b\u9662"}}, {"type": "way", "id": 830167955, "center": {"lat": 47.3373888, "lon": 123.9672194}, "nodes": [7747854156, 8423985769, 7747854157, 10272435602, 10272446222, 7747854158, 10239370516, 7747854159, 7747854160, 7747854161, 10239370519, 7747854162, 7748118117, 10272435592, 7747854156], "tags": {"addr:city": "\u9f99\u534e\u8857\u9053", "addr:district": "\u9f50\u9f50\u54c8\u5c14\u5e02", "addr:housenumber": "48\u53f7", "addr:postcode": "161000", "addr:province": "\u9ed1\u9f99\u6c5f\u7701", "addr:street": "\u5e73\u5b89\u5357\u8857", "amenity": "hospital", "emergency": "yes", "healthcare": "hospital", "healthcare:speciality": "general", "name": "\u9f50\u9f50\u54c8\u5c14\u5e02\u4e2d\u533b\u533b\u9662\uff08\u5e73\u5b89\u5357\u8857\uff09", "name:en": "Qiqihar Chinese Medical Hospital (Ping'an South Street)", "name:zh": "\u9f50\u9f50\u54c8\u5c14\u5e02\u4e2d\u533b\u533b\u9662\uff08\u5e73\u5b89\u5357\u8857\uff09", "name:zh-Hans": "\u9f50\u9f50\u54c8\u5c14\u5e02\u4e2d\u533b\u533b\u9662\uff08\u5e73\u5b89\u5357\u8857\uff09", "name:zh-Hant": "\u9f4a\u9f4a\u54c8\u723e\u5e02\u4e2d\u91ab\u91ab\u9662\uff08\u5e73\u5b89\u5357\u8857\uff09", "phone": "+86 452 212 3282"}}, {"type": "way", "id": 833067599, "center": {"lat": 47.3327826, "lon": 123.9689195}, "nodes": [9015777476, 9015777478, 9015777479, 9015777480, 9015777483, 7775312715, 7776695935, 8430626890, 8430626891, 9015777477, 7776695934, 9015777476], "tags": {"amenity": "hospital", "emergency": "yes", "healthcare": "hospital", "healthcare:speciality": "general", "name": "\u548c\u5e73\u533b\u9662", "name:en": "Heping Hospital", "name:zh": "\u548c\u5e73\u533b\u9662"}}, {"type": "way", "id": 833436054, "center": {"lat": 41.1919843, "lon": 123.1932178}, "nodes": [7780182954, 7780182955, 7780182956, 7780182957, 7780182958, 7780182959, 7780182960, 7780182961, 7780182962, 7780182963, 7780182964, 7780182965, 7780182954], "tags": {"amenity": "hospital", "emergency": "yes", "healthcare": "hospital", "name": "\u8fbd\u9633\u8fbd\u5316\u533b\u9662", "operator": "\u5b9d\u77f3\u82b1\u533b\u7597\u96c6\u56e2"}}, {"type": "way", "id": 833772355, "center": {"lat": 41.1828982, "lon": 123.20226}, "nodes": [7783253248, 7783253249, 7783253250, 7783253251, 7783253252, 7783253253, 7783253248], "tags": {"amenity": "hospital", "healthcare": "hospital"}}, {"type": "way", "id": 834191283, "center": {"lat": 45.5767353, "lon": 126.6488359}, "nodes": [7787169232, 7787169233, 7787169234, 7787169235, 7787169232], "tags": {"amenity": "hospital", "healthcare": "hospital", "name": "\u9ed1\u9f99\u6c5f\u4e2d\u533b\u836f\u5927\u5b66\u00b7\u9644\u5c5e\u7b2c\u4e8c\u533b\u9662"}}, {"type": "way", "id": 834215781, "center": {"lat": 45.9835437, "lon": 128.7452306}, "nodes": [7787376387, 7787376388, 7787376389, 7787376390, 7787376387], "tags": {"amenity": "hospital", "healthcare": "hospital", "name": "\u901a\u6cb3\u53bf\u4eba\u6c11\u533b\u9662"}}, {"type": "way", "id": 834219827, "center": {"lat": 45.9811221, "lon": 128.7591549}, "nodes": [7787395803, 7787395804, 7787395805, 7787395806, 7787395807, 7787395803], "tags": {"amenity": "hospital", "healthcare": "hospital", "name": "\u901a\u6cb3\u53bf\u4e2d\u533b\u9662"}}, {"type": "way", "id": 835440697, "center": {"lat": 47.7138351, "lon": 128.8647805}, "nodes": [7798022063, 7798022062, 7798022061, 7798022064, 7798022063], "tags": {"amenity": "hospital", "healthcare": "hospital", "name": "\u4e2d\u5fc3\u533b\u9662"}}, {"type": "way", "id": 835619669, "center": {"lat": 45.9735316, "lon": 128.8478303}, "nodes": [7799619448, 7799619450, 7799619451, 7799619452, 7799619448], "tags": {"amenity": "hospital", "healthcare": "hospital", "name": "\u533b\u9662"}}, {"type": "way", "id": 837035121, "center": {"lat": 45.6105946, "lon": 122.8154769}, "nodes": [7812064094, 7812064095, 7812064096, 7812064097, 7812064098, 7812064099, 7812064100, 7812064106, 7812064101, 7812064107, 7812064102, 7812064103, 7812064104, 7812064105, 7812064094], "tags": {"amenity": "hospital", "healthcare": "hospital", "name": "321\u533b\u9662"}}, {"type": "way", "id": 837035126, "center": {"lat": 45.6108328, "lon": 122.7879814}, "nodes": [7812064143, 7812064144, 7812064145, 7812064146, 7812064147, 7812064148, 7812064149, 7812064150, 7812064151, 7812064152, 7812064143], "tags": {"amenity": "hospital", "healthcare": "hospital", "name": "\u767d\u57ce\u4e2d\u5fc3\u533b\u9662"}}, {"type": "way", "id": 846815496, "center": {"lat": 46.4374845, "lon": 127.1279488}, "nodes": [7901103170, 8024067015, 8024067016, 7901103173, 7901103170], "tags": {"amenity": "hospital", "healthcare": "hospital", "name": "\u533b\u9662"}}, {"type": "way", "id": 860023470, "center": {"lat": 42.4134768, "lon": 128.1157318}, "nodes": [8015946043, 8015946052, 8015946045, 8015946044, 8015946043], "tags": {"amenity": "hospital"}}, {"type": "way", "id": 866001812, "center": {"lat": 40.7416546, "lon": 120.8388939}, "nodes": [8071811686, 8071811697, 8071838733, 8071811683, 8071838718, 8071811696, 8071838730, 8071811680, 8071811705, 8071811715, 8071811693, 8071838728, 8071811703, 8071811677, 8071811713, 8071811686], "tags": {"amenity": "hospital", "healthcare": "hospital", "name": "\u846b\u82a6\u5c9b\u5b9d\u77f3\u82b1\u533b\u9662"}}, {"type": "way", "id": 867288177, "center": {"lat": 43.8542362, "lon": 126.5252019}, "nodes": [8084483309, 8084483310, 8084483311, 8084483312, 8084483313, 8084483314, 8084483315, 8084483332, 8084483333, 8084483331, 8084483330, 8084483329, 8084483328, 8084483316, 8084483327, 8084483326, 8084483325, 8084483324, 8084483323, 8084483317, 8084483322, 8084483321, 8084483318, 8084483320, 8084483319, 8084483309], "tags": {"amenity": "hospital", "healthcare": "hospital", "name": "\u4e2d\u56fd\u4eba\u6c11\u89e3\u653e\u519b\u8054\u52e4\u4fdd\u969c\u90e8\u961f\u7b2c\u4e5d\u516d\u4e94\u533b\u9662", "operator": "\u4e2d\u592e\u519b\u59d4\u6c88\u9633\u8054\u52e4\u4fdd\u969c\u4e2d\u5fc3", "operator:type": "military"}}, {"type": "way", "id": 871064066, "center": {"lat": 45.6776074, "lon": 126.6978016}, "nodes": [8113960822, 8113960823, 9016106633, 8113960824, 8113960825, 8113960822], "tags": {"amenity": "hospital", "healthcare": "clinic"}}, {"type": "way", "id": 878287209, "center": {"lat": 40.618666, "lon": 120.7815461}, "nodes": [8171094401, 8171094404, 8171094402, 8171094406, 8171094403, 8171094399, 8171094397, 8171094405, 8171094392, 8171094394, 8171094401], "tags": {"amenity": "hospital", "healthcare": "hospital", "name": "\u5174\u57ce\u5e02\u5987\u5e7c\u4fdd\u5065\u9662"}}, {"type": "way", "id": 878287210, "center": {"lat": 40.710975, "lon": 120.836764}, "nodes": [8171094400, 8171094398, 8171094393, 8171094396, 8171094395, 8171094400], "tags": {"amenity": "hospital", "healthcare": "hospital", "name": "\u846b\u82a6\u5c9b\u5e02\u5987\u5e7c\u4fdd\u5065\u9662"}}, {"type": "way", "id": 878639277, "center": {"lat": 41.118632, "lon": 121.1197703}, "nodes": [8173829276, 8173829263, 8173829285, 8173829267, 8173829292, 8173829274, 8173829299, 8173829284, 8173829265, 8173829291, 8173829282, 8173829276], "tags": {"addr:city": "\u9526\u5dde\u5e02", "addr:district": "\u53e4\u5854\u533a", "addr:housenumber": "51\u53f7", "addr:postcode": "121000", "addr:province": "\u8fbd\u5b81\u7701", "addr:street": "\u4e0a\u6d77\u8def\u4e8c\u6bb5", "amenity": "hospital", "email": "zxb@jzzxyy.com", "emergency": "yes", "healthcare": "hospital", "name": "\u9526\u5dde\u5e02\u4e2d\u5fc3\u533b\u9662", "name:en": "Jinzhou Central Hospital", "phone": "+86 416 239 3030", "website": "http://www.jzszxyy.com"}}, {"type": "way", "id": 878639278, "center": {"lat": 41.1328668, "lon": 121.1244094}, "nodes": [8173829280, 8173829269, 8173829259, 8173829278, 8173829295, 8173829287, 8173829271, 8173829261, 8173829289, 8173829296, 8173829294, 8173829280], "tags": {"addr:city": "\u9526\u5dde\u5e02", "addr:district": "\u53e4\u5854\u533a", "addr:housenumber": "2\u53f7", "addr:postcode": "121000", "addr:province": "\u8fbd\u5b81\u7701", "addr:street": "\u4eba\u6c11\u8857\u4e94\u6bb5", "amenity": "hospital", "emergency": "yes", "healthcare": "hospital", "name": "\u9526\u5dde\u533b\u79d1\u5927\u5b66\u9644\u5c5e\u7b2c\u4e00\u533b\u9662", "name:en": "The First Affiliated Hospital Of Jinzhou Medical University", "website": "http://www.jzmu1h.com"}}, {"type": "way", "id": 883988544, "center": {"lat": 41.6572415, "lon": 123.4211507}, "nodes": [8221200722, 9291780379, 8221200723, 8221200724, 8221200725, 8221200726, 8221200722], "tags": {"amenity": "hospital", "healthcare": "hospital", "name": "\u4e2d\u56fd\u533b\u79d1\u5927\u5b66\u7b2c\u4e00\u533b\u9662\u6d51\u5357\u56fd\u9645\u533b\u9662"}}, {"type": "way", "id": 892165387, "center": {"lat": 41.1058619, "lon": 122.9213776}, "nodes": [8292414910, 8292414911, 8292414912, 8292414913, 8292414910], "tags": {"amenity": "hospital", "healthcare": "hospital", "name": "\u5b81\u8fdc\u533b\u9662"}}, {"type": "way", "id": 896456152, "center": {"lat": 43.2789755, "lon": 120.2849777}, "nodes": [8333343549, 8333343548, 8333343547, 8333343546, 8333343545, 8333343544, 8333343543, 8333343542, 8333343549], "tags": {"amenity": "hospital", "name": "\u65b0\u82cf\u83ab\u82cf\u6728\u4e2d\u5fc3\u536b\u751f\u9662", "name:en": "Xinsumosumu Center Health Station", "name:zh": "\u65b0\u82cf\u83ab\u82cf\u6728\u4e2d\u5fc3\u536b\u751f\u9662"}}, {"type": "way", "id": 896456272, "center": {"lat": 43.2594627, "lon": 120.0808581}, "nodes": [8333345600, 8333345599, 8333345598, 8333345597, 8333345596, 8333345595, 8333345594, 8333345600], "tags": {"amenity": "hospital", "name": "\u683c\u65e5\u50e7\u82cf\u6728\u536b\u751f\u9662", "name:en": "Gerisengsumu Health Station", "name:zh": "\u683c\u65e5\u50e7\u82cf\u6728\u536b\u751f\u9662"}}, {"type": "way", "id": 909506031, "center": {"lat": 44.8301651, "lon": 126.5516559}, "nodes": [8444630947, 8444630948, 8444630949, 8444630950, 8444630951, 8444630952, 8444630953, 9706566107, 8444630955, 8444630954, 8444630947], "tags": {"amenity": "hospital", "healthcare": "hospital", "name": "\u6986\u6811\u5e02\u4eba\u6c11\u533b\u9662"}}, {"type": "way", "id": 909506046, "center": {"lat": 44.8253263, "lon": 126.5331937}, "nodes": [8444631148, 8485443038, 8559527640, 8444631150, 8444631151, 8444631148], "tags": {"amenity": "hospital", "emergency": "yes", "healthcare": "hospital", "name": "\u6986\u6811\u5e02\u4e2d\u533b\u9662"}}, {"type": "way", "id": 913396495, "center": {"lat": 45.6910871, "lon": 126.666572}, "nodes": [8484872508, 8484872509, 8484872510, 8484872511, 8484872508], "tags": {"amenity": "hospital", "healthcare": "hospital", "name": "\u533b\u9662"}}, {"type": "way", "id": 914031137, "center": {"lat": 42.5648732, "lon": 121.7601368}, "nodes": [8490635381, 8490635379, 8490635377, 8490635376, 8490635378, 8490635380, 8490635381], "tags": {"amenity": "hospital", "name": "\u5148\u8fdb\u4e2d\u5fc3\u536b\u751f\u9662", "name:en": "Xianjin Central Health Station", "name:zh": "\u5148\u8fdb\u4e2d\u5fc3\u536b\u751f\u9662"}}, {"type": "way", "id": 915314536, "center": {"lat": 47.2817651, "lon": 123.9449202}, "nodes": [8502291789, 8502291790, 8502291791, 8502291792, 8502291793, 8502291789], "tags": {"amenity": "hospital", "healthcare": "hospital", "name": "\u9f50\u9f50\u54c8\u5c14\u5e02\u7b2c\u4e00\u533b\u9662"}}, {"type": "way", "id": 915347997, "center": {"lat": 47.2818128, "lon": 123.949858}, "nodes": [8502548627, 8502548628, 8502548629, 8502548630, 8502548631, 8502548632, 8502548627], "tags": {"addr:city": "\u9f50\u9f50\u54c8\u5c14", "addr:district": "\u9f99\u6c99\u533a", "addr:province": "\u9ed1\u9f99\u6c5f", "addr:street": "\u6052\u5c71\u8857", "amenity": "hospital", "healthcare": "hospital", "name": "\u9f50\u9f50\u54c8\u5c14\u5e02\u6025\u6551\u4e2d\u5fc3"}}, {"type": "way", "id": 915348001, "center": {"lat": 47.3084657, "lon": 123.9537731}, "nodes": [8502548676, 8502548677, 8502548678, 8502548679, 8502548680, 8502548681, 8502548682, 8502548683, 8502548684, 8502548685, 8502548686, 8502548687, 8502548688, 8502548689, 8502548690, 8502548691, 8502548692, 8502548693, 8502548676], "tags": {"amenity": "hospital", "healthcare": "hospital", "name": "\u9f50\u9f50\u54c8\u5c14\u5e02\u4e2d\u533b\u533b\u9662"}}, {"type": "way", "id": 915775959, "center": {"lat": 47.7740036, "lon": 124.4568513}, "nodes": [8506480277, 8506480278, 8506480279, 8506480280, 8506480281, 8506480282, 8506480283, 8506480277], "tags": {"amenity": "hospital", "healthcare": "hospital", "name": "\u5bcc\u88d5\u53bf\u4e2d\u533b\u9662"}}, {"type": "way", "id": 915775964, "center": {"lat": 47.7842053, "lon": 124.4582688}, "nodes": [8506480310, 8506480311, 8506480312, 8506480313, 8506480314, 8506480315, 8506480310], "tags": {"amenity": "hospital", "healthcare": "hospital", "name": "\u6c34\u5229\u533b\u9662"}}, {"type": "way", "id": 915775965, "center": {"lat": 47.7943162, "lon": 124.4683632}, "nodes": [8506480316, 8506483357, 8506483317, 8506483361, 8506483318, 8506483319, 8506483333, 8506483334, 8506483320, 8506483321, 8506483335, 8506483336, 8506480316], "tags": {"amenity": "hospital", "healthcare": "hospital", "name": "\u5bcc\u88d5\u53bf\u4eba\u6c11\u533b\u9662"}}, {"type": "way", "id": 915775970, "center": {"lat": 47.7951087, "lon": 124.4676849}, "nodes": [8506483354, 8506483355, 8506483356, 8506483317, 8506483357, 8506480316, 8506483358, 8506483359, 8506483360, 8506483354], "tags": {"amenity": "hospital", "healthcare": "hospital", "name": "\u5bcc\u88d5\u53bf\u5987\u5e7c\u4fdd\u5065\u7ad9"}}, {"type": "way", "id": 915775971, "center": {"lat": 47.7907508, "lon": 124.4489578}, "nodes": [8506483362, 8506483363, 8506483364, 8506483365, 8506483362], "tags": {"amenity": "hospital", "healthcare": "hospital", "name": "\u5bcc\u88d5\u53bf\u4e2d\u533b\u9662"}}, {"type": "way", "id": 917814926, "center": {"lat": 44.8371918, "lon": 126.5245603}, "nodes": [8525034918, 8525034925, 8525034920, 8525034927, 4690643374, 8531341061, 4690643373, 8525034616, 8540218553, 8525034917, 8525034918], "tags": {"amenity": "hospital", "healthcare": "hospital", "name": "\u6986\u6811\u5e02\u5eb7\u590d\u533b\u9662"}}, {"type": "way", "id": 917876275, "center": {"lat": 44.8251822, "lon": 126.5309692}, "nodes": [8525034972, 8525034974, 8525034976, 8525034977, 8525034978, 8525034972], "tags": {"amenity": "hospital", "healthcare": "hospital", "name": "\u6986\u6811\u4e1c\u65b9\u533b\u9662"}}, {"type": "way", "id": 917876363, "center": {"lat": 44.8296408, "lon": 126.5218492}, "nodes": [8525035516, 8525035517, 8525035518, 8525035519, 8525035520, 8525035521, 8525035522, 8525035523, 8525035524, 8540218718, 8525035525, 8525035516], "tags": {"amenity": "hospital", "healthcare": "hospital", "name": "\u5409\u6797\u7701\u4eba\u6c11\u533b\u9662\uff08\u6986\u6811\u9662\u533a\uff09", "note": "\u539f\u5b89\u6d4e\u533b\u9662"}}, {"type": "way", "id": 920588430, "center": {"lat": 44.8416, "lon": 126.5318603}, "nodes": [8547267293, 8547267294, 8547267295, 8547267296, 8736121007, 8736121006, 8547267299, 8547267298, 8547267297, 8547267293], "tags": {"amenity": "hospital", "healthcare": "hospital", "name": "\u6986\u6811\u5e02\u5987\u5e7c\u4fdd\u5065\u533b\u9662"}}, {"type": "way", "id": 920644201, "center": {"lat": 44.8324697, "lon": 126.5473583}, "nodes": [8548039021, 8737764705, 8548039022, 9053550917, 9053550918, 8548039023, 9053550919, 9053550920, 8548039024, 8548039025, 8548039026, 8548039027, 8548039028, 8548039021], "tags": {"amenity": "hospital", "healthcare": "hospital"}}, {"type": "way", "id": 921574192, "center": {"lat": 44.8371083, "lon": 126.5234357}, "nodes": [8555965685, 8555965686, 8555965687, 8555965688, 8555965685], "tags": {"amenity": "hospital", "healthcare": "hospital", "name": "\u6986\u6811\u5e02\u751f\u6b96\u4fdd\u5065\u533b\u9662"}}, {"type": "way", "id": 924598690, "center": {"lat": 41.8090061, "lon": 123.5003209}, "nodes": [8581206509, 6070566632, 6070566634, 8581206508, 8581206509], "tags": {"amenity": "hospital", "healthcare": "hospital", "name": "\u6c88\u9633\u5e02\u822a\u5929\u533b\u9662"}}, {"type": "way", "id": 927085566, "center": {"lat": 46.8680282, "lon": 127.5027631}, "nodes": [8601919533, 8601919534, 8601919535, 8601919536, 8616685205, 8601919537, 8601919538, 8601919533], "tags": {"amenity": "hospital", "healthcare": "hospital", "name": "\u5e86\u5b89\u53bf\u4eba\u6c11\u533b\u9662"}}, {"type": "way", "id": 927163888, "center": {"lat": 46.8634009, "lon": 127.4789789}, "nodes": [8602597337, 8602597338, 8602597339, 8602597340, 8602597337], "tags": {"amenity": "hospital", "healthcare": "hospital", "name": "\u5e86\u5b89\u53bf\u5987\u5e7c\u4fdd\u5065\u9662"}}, {"type": "way", "id": 935256157, "center": {"lat": 45.7573065, "lon": 126.6695339}, "nodes": [8666869697, 8666869698, 8666869699, 8666869700, 8666869701, 8666869702, 8666869703, 8666869697], "tags": {"amenity": "hospital", "healthcare": "hospital", "name": "\u8fd0\u52a8\u5eb7\u590d\u4e2d\u5fc3"}}, {"type": "way", "id": 947229144, "center": {"lat": 41.945, "lon": 123.3980868}, "nodes": [8465187124, 8768144183, 6116994859, 6116994525, 8465187124], "tags": {"amenity": "hospital", "healthcare": "hospital", "name": "\u4e2d\u56fd\u533b\u79d1\u5927\u5b66\u9644\u5c5e\u76db\u4eac\u533b\u9662\uff08\u6c88\u5317\u9662\u533a\uff09"}}, {"type": "way", "id": 952361358, "center": {"lat": 41.8798401, "lon": 123.408416}, "nodes": [8814833923, 8814833924, 8814833925, 8814833926, 8814833927, 8814833928, 8814833923], "tags": {"addr:city": "\u6c88\u9633\u5e02", "addr:district": "\u4e8e\u6d2a\u533a", "addr:province": "\u8fbd\u5b81\u7701", "addr:street": "\u9ec4\u6cb3\u5317\u5927\u8857", "amenity": "hospital", "healthcare": "hospital", "name": "\u4f55\u6c0f\u773c\u79d1\u533b\u9662"}}, {"type": "way", "id": 957366700, "center": {"lat": 45.6803189, "lon": 126.5538793}, "nodes": [8858670847, 8858670848, 8858670849, 8858670850, 8858670851, 8858670852, 10186737911, 10186737912, 8858670853, 8858670847], "tags": {"amenity": "hospital", "healthcare": "hospital", "name": "\u5317\u5927\u8352\u96c6\u56e2\u603b\u533b\u9662"}}, {"type": "way", "id": 964835893, "center": {"lat": 46.622485, "lon": 124.8889061}, "nodes": [8925450332, 8925450333, 8925450334, 8925450335, 8925450336, 8925450337, 8925450338, 8925450339, 8925450340, 8925450341, 8925450342, 8925450343, 8925450344, 8925450345, 8925450346, 8925450332], "tags": {"amenity": "hospital", "healthcare": "hospital", "name": "\u9f99\u5357\u533b\u9662"}}, {"type": "way", "id": 964883552, "center": {"lat": 45.683719, "lon": 126.5367667}, "nodes": [8925949838, 8925949839, 11127352699, 8925949840, 8925949841, 11127352700, 8925949838], "tags": {"amenity": "hospital", "healthcare": "hospital", "name": "\u54c8\u5c14\u6ee8\u5e02\u4e2d\u533b\u533b\u9662"}}, {"type": "way", "id": 964888192, "center": {"lat": 45.6914614, "lon": 126.9321983}, "nodes": [8925990219, 8925990220, 10989086665, 8925990221, 11177559765, 11177559760, 11177559745, 8925990222, 11177559746, 11177559755, 8925990219], "tags": {"amenity": "hospital", "healthcare": "hospital", "name": "\u54c8\u5c14\u6ee8\u5e02\u7b2c\u516d\u533b\u9662\uff08\u65b0\u5740\uff09"}}, {"type": "way", "id": 976826864, "center": {"lat": 41.7557568, "lon": 123.4170492}, "nodes": [9039350345, 9039350346, 9039350347, 9039350348, 9039350345], "tags": {"amenity": "hospital", "healthcare": "hospital"}}, {"type": "way", "id": 993443156, "center": {"lat": 41.4852546, "lon": 123.684704}, "nodes": [9178124285, 9178124286, 9178124287, 9178124288, 9178124289, 9178124285], "tags": {"amenity": "hospital", "healthcare": "hospital", "name": "\u8fbd\u5b81\u4e2d\u533b\u836f\u5927\u5b66\u9644\u5c5e\u533b\u9662"}}, {"type": "way", "id": 1000108739, "center": {"lat": 41.0075801, "lon": 122.994185}, "nodes": [9231822364, 9231822365, 9231822366, 9231822367, 9231822368, 9231822369, 9231822370, 9231822371, 9231822372, 9231822373, 9231822374, 9231822375, 9231822376, 9231822377, 9231822378, 9231822379, 9231822380, 9231822381, 9231822382, 9231822383, 9231822384, 9231822385, 9231822386, 9231822387, 9231822388, 9231822389, 9231822390, 9231822391, 9231822392, 9231822393, 9231822394, 9231822395, 9231822396, 9231822397, 9231822398, 9231822399, 9231822400, 9231822401, 9231822402, 9231822403, 9231822404, 9231822405, 9231822406, 9231822407, 9231822408, 9231822364], "tags": {"amenity": "hospital", "healthcare": "hospital", "name": "\u978d\u5c71\u5e02\u516c\u5171\u536b\u751f\u4e2d\u5fc3"}}, {"type": "way", "id": 1005573031, "center": {"lat": 47.8569323, "lon": 123.7562453}, "nodes": [9277796138, 9277796139, 9277796140, 9277796141, 9277796138], "tags": {"amenity": "hospital", "healthcare": "hospital", "name": "\u53cc\u6cb3\u533b\u9662"}}, {"type": "way", "id": 1006874700, "center": {"lat": 41.0275813, "lon": 122.9259189}, "nodes": [9289299253, 9289299277, 9289299254, 9289299255, 9289299256, 9289299257, 9289299253], "tags": {"amenity": "hospital", "healthcare": "hospital", "name": "\u978d\u94a2\u603b\u533b\u9662\u5343\u5c71\u533b\u9662"}}, {"type": "way", "id": 1006874707, "center": {"lat": 41.0276111, "lon": 122.9271102}, "nodes": [9289299277, 9289299286, 9289299287, 9289299288, 9289299289, 9289299290, 9289299254, 9289299277], "tags": {"amenity": "hospital", "healthcare": "hospital", "name": "\u978d\u5c71\u5e02\u5343\u5c71\u533a\u5987\u5e7c\u4fdd\u5065\u548c\u8ba1\u5212\u751f\u80b2\u670d\u52a1\u4e2d\u5fc3"}}, {"type": "way", "id": 1012681418, "center": {"lat": 41.6729999, "lon": 125.7391837}, "nodes": [9342809475, 9342809461, 9342809462, 9342809463, 9342809479, 9342809478, 9342809477, 9342809476, 9342809475], "tags": {"amenity": "hospital", "name": "\u901a\u5316\u53bf\u4eba\u6c11\u533b\u9662", "name:en": "Tonghua County People's Hospital", "name:zh": "\u901a\u5316\u53bf\u4eba\u6c11\u533b\u9662"}}, {"type": "way", "id": 1012681658, "center": {"lat": 41.6763702, "lon": 125.7665846}, "nodes": [9342811265, 9342811264, 9342811263, 9342811262, 9342811261, 9342811260, 9342807806, 9342807820, 9342811265], "tags": {"amenity": "hospital", "name": "\u901a\u5316\u53bf\u4e2d\u533b\u9662", "name:en": "Tonghua County Hospital of TCM", "name:zh": "\u901a\u5316\u53bf\u4e2d\u533b\u9662"}}, {"type": "way", "id": 1013307293, "center": {"lat": 41.1317992, "lon": 123.0186695}, "nodes": [9348639121, 9348639122, 9348639123, 9348639124, 9348639125, 9348639126, 9348639127, 9348639128, 9348639129, 9348639130, 9348639131, 9348639132, 9348639133, 9348639134, 9348639135, 9348639136, 9348639137, 9348639121], "tags": {"amenity": "hospital", "healthcare": "hospital", "loc_name": "\u53cc\u5c71\u533b\u9662", "name": "\u978d\u5c71\u5e02\u4e2d\u5fc3\u533b\u9662\u7acb\u5c71\u9662\u533a"}}, {"type": "way", "id": 1013923100, "center": {"lat": 46.4204866, "lon": 123.7273036}, "nodes": [9354429460, 9354429458, 9354429457, 9354429459, 9354429460], "tags": {"amenity": "hospital", "name": "\u6cf0\u6765\u519c\u573a\u533b\u9662", "name:en": "Tailai Nongchang Hospital", "name:zh": "\u6cf0\u6765\u519c\u573a\u533b\u9662"}}, {"type": "way", "id": 1014988788, "center": {"lat": 45.8480501, "lon": 124.2208397}, "nodes": [9363179703, 9363179702, 9363179701, 9363179700, 9363179703], "tags": {"amenity": "hospital", "name": "\u53e4\u9f99\u9547\u4e2d\u5fc3\u536b\u751f\u9662"}}, {"type": "way", "id": 1017518061, "center": {"lat": 41.5624804, "lon": 120.4369147}, "nodes": [9385261066, 9385261076, 9385261075, 9385261074, 9385261073, 9385261072, 9385261071, 9385261070, 9385261069, 9385261068, 9385261067, 9385261066], "tags": {"amenity": "hospital", "healthcare": "hospital", "name": "\u4e5d\u516d\u516b\u533b\u9662"}}, {"type": "way", "id": 1018437341, "center": {"lat": 42.9020871, "lon": 129.4728424}, "nodes": [9393562393, 10235062860, 10235062861, 10235062863, 10235062862, 9393562392, 10235062866, 10235062867, 10235062865, 10235062864, 9393562391, 10235062868, 9393562390, 9393562389, 10235062869, 9393562393], "tags": {"amenity": "hospital", "healthcare": "hospital", "name": "\u5ef6\u8fb9\u4e2d\u533b\u533b\u9662", "name:zh": "\u5ef6\u8fb9\u4e2d\u533b\u533b\u9662", "name:zh-Hans": "\u5ef6\u8fb9\u4e2d\u533b\u533b\u9662", "name:zh-Hant": "\u5ef6\u908a\u4e2d\u91ab\u91ab\u9662"}}, {"type": "way", "id": 1018692510, "center": {"lat": 42.5234, "lon": 125.7143679}, "nodes": [9395827806, 9395827807, 9395827808, 9395827809, 9395827810, 9395827811, 9395827812, 9395827813, 9395827814, 9395827815, 9395827816, 9395897117, 9395897118, 9395897119, 9395897120, 9395897121, 9395897122, 9395897123, 9395897124, 9395897125, 9395827806], "tags": {"amenity": "hospital", "healthcare": "hospital", "name": "\u6885\u6cb3\u53e3\u5e02\u4e2d\u5fc3\u533b\u9662"}}, {"type": "way", "id": 1018765962, "center": {"lat": 42.6733838, "lon": 126.0449364}, "nodes": [9396597942, 9396597943, 9396597944, 9396597945, 9396597946, 9396597947, 9396597948, 9396597949, 9396597950, 9396597951, 9396597952, 9396597953, 9396597954, 9396597955, 9396597956, 9396597957, 9396597958, 9396597960, 9396597942], "tags": {"amenity": "hospital", "healthcare": "hospital", "name": "\u8f89\u5357\u53bf\u4eba\u6c11\u533b\u9662"}}, {"type": "way", "id": 1022448001, "center": {"lat": 44.6777656, "lon": 129.6653931}, "nodes": [9429853096, 9429853097, 9429853098, 9429853099, 9429853100, 9429853101, 8200441187, 8200441188, 8200441189, 9429853096], "tags": {"amenity": "hospital", "healthcare": "hospital", "name": "\u7261\u4e39\u6c5f\u5e02\u7b2c\u4e94\u533b\u9662"}}, {"type": "way", "id": 1022776217, "center": {"lat": 41.3980048, "lon": 128.1831164}, "nodes": [9432754116, 9432757917, 9432757918, 9432757919, 9432754116], "tags": {"amenity": "hospital", "healthcare": "hospital", "name": "\ub7c9\uac15\ub3c4\uc778\ubbfc\ubcd1\uc6d0", "name:ko": "\ub7c9\uac15\ub3c4\uc778\ubbfc\ubcd1\uc6d0"}}, {"type": "way", "id": 1023917415, "center": {"lat": 40.0988221, "lon": 124.3894377}, "nodes": [9441968842, 9441968843, 9441968844, 9441968845, 9441968846, 9441968847, 9441968842], "tags": {"amenity": "hospital", "healthcare": "hospital", "name": "\ud3c9\uc548\ubd81\ub3c4\uc778\ubbfc\ubcd1\uc6d0", "name:ko": "\ud3c9\uc548\ubd81\ub3c4\uc778\ubbfc\ubcd1\uc6d0"}}, {"type": "way", "id": 1041700605, "center": {"lat": 46.6379723, "lon": 124.8621885}, "nodes": [9590061443, 9590061444, 9590061445, 9590061446, 9590061447, 9590061448, 9590087445, 9590061449, 9590061450, 9590061443], "tags": {"amenity": "hospital", "healthcare": "hospital", "name": "\u5927\u5e86\u5e02\u7b2c\u56db\u533b\u9662"}}, {"type": "way", "id": 1041894727, "center": {"lat": 45.7645565, "lon": 126.6478705}, "nodes": [9591655042, 9591655043, 9591655044, 9591655045, 9591655046, 9591655047, 9591655048, 9591655049, 9591655050, 9591655051, 9591655042], "tags": {"amenity": "hospital", "healthcare": "hospital", "name": "\u54c8\u5c14\u6ee8\u5e02\u5317\u65b9\u4eba\u6c11\u533b\u9662"}}, {"type": "way", "id": 1042847717, "center": {"lat": 45.8065995, "lon": 126.7171372}, "nodes": [9599042090, 9599042091, 9599042092, 11234025725, 9599042093, 9599042094, 9599042090], "tags": {"amenity": "hospital", "healthcare": "hospital", "name": "\u54c8\u5c14\u6ee8\u7b2c\u56db\u533b\u9662\u2022\u65b0\u5740"}}, {"type": "way", "id": 1046826906, "center": {"lat": 40.9247105, "lon": 122.7998623}, "nodes": [9626371257, 9626371256, 9626371255, 9626371254, 9626371253, 9626371252, 9626371257], "tags": {"amenity": "hospital", "name": "\u5357\u53f0\u533b\u9662"}}, {"type": "way", "id": 1047378461, "center": {"lat": 41.8187986, "lon": 123.3247334}, "nodes": [9631003633, 9631003634, 9631003635, 9631003636, 9631003633], "tags": {"amenity": "hospital", "healthcare": "hospital", "name": "\u4e1c\u836f\u533b\u9662"}}, {"type": "way", "id": 1047442797, "center": {"lat": 47.9052223, "lon": 125.307346}, "nodes": [9631579119, 9631579118, 9631579117, 9631566616, 9631579119], "tags": {"amenity": "hospital", "name": "\u4f9d\u5b89\u53bf\u4eba\u6c11\u533b\u9662", "website": "http://www.yaxrmyy.org.cn/"}}, {"type": "way", "id": 1049195960, "center": {"lat": 41.0596402, "lon": 123.0413368}, "nodes": [9642096286, 9642096287, 9642096288, 9642096289, 9642096290, 9642096291, 9642096292, 9642096293, 9642096294, 9642096295, 9642096286], "tags": {"amenity": "hospital", "healthcare": "hospital", "name": "\u978d\u5c71\u5e02\u4e1c\u978d\u5c71\u533b\u9662\u5927\u5b64\u5c71\u5206\u9662"}}, {"type": "way", "id": 1050158765, "center": {"lat": 45.819654, "lon": 126.5035567}, "nodes": [9650714572, 9650714573, 9650714574, 9650714575, 9650714576, 9650714572], "tags": {"addr:city": "\u54c8\u5c14\u6ee8", "addr:housenumber": "766", "addr:province": "\u9ed1\u9f99\u6c5f\u7701", "addr:street": "\u7fd4\u5b89\u5317\u5927\u8857", "amenity": "hospital", "healthcare": "hospital", "healthcare:speciality": "general", "name": "\u661f\u6e90\u5eb7\u517b\u4e2d\u5fc3"}}, {"type": "way", "id": 1054224814, "center": {"lat": 44.1410882, "lon": 125.8416688}, "nodes": [9688137624, 9688137623, 9688137622, 9688137621, 9688137624], "tags": {"amenity": "hospital", "name": "\u4e5d\u53f0\u533a\u4eba\u6c11\u533b\u9662"}}, {"type": "way", "id": 1066640320, "center": {"lat": 45.6986628, "lon": 126.621126}, "nodes": [9794374937, 9794374938, 9794374939, 9794374940, 9794374937], "tags": {"amenity": "hospital", "healthcare": "hospital", "name": "\u533b\u5927\u4e8c\u9662\u00b7\u79d1\u7814\u6240", "name:zh": "\u533b\u5927\u4e8c\u9662\u00b7\u79d1\u7814\u6240", "name:zh-Hans": "\u533b\u5927\u4e8c\u9662\u00b7\u79d1\u7814\u6240", "name:zh-Hant": "\u91ab\u5927\u4e8c\u9662\u00b7\u79d1\u7814\u6240", "operator": "\u54c8\u5c14\u6ee8\u533b\u79d1\u5927\u5b66", "operator:type": "government"}}, {"type": "way", "id": 1071444741, "center": {"lat": 41.9268852, "lon": 126.4232866}, "nodes": [9832382207, 9832382208, 9832382209, 9832382210, 9832382211, 9832382212, 9832382216, 9832382215, 9832382217, 9832382213, 9832382218, 9832382214, 9832382207], "tags": {"amenity": "hospital", "healthcare": "hospital", "name": "\u767d\u5c71\u5e02\u4eba\u6c11\u533b\u9662"}}, {"type": "way", "id": 1073013289, "center": {"lat": 41.9475095, "lon": 126.4188605}, "nodes": [9843900111, 9843900112, 9843900113, 9843900114, 9843900111], "tags": {"alt_name": "name=\u767d\u5c71\u5e02\u4e2d\u533b\u9662", "amenity": "hospital", "healthcare": "hospital", "name": "\u767d\u5c71\u5e02\u4e2d\u533b\u9662", "official_name": "\u957f\u6625\u4e2d\u533b\u836f\u5927\u5b66\u9644\u5c5e\u767d\u5c71\u533b\u9662"}}, {"type": "way", "id": 1073242490, "center": {"lat": 41.9322825, "lon": 126.4258176}, "nodes": [9845683677, 9845683678, 9845683679, 9845683680, 9845683681, 9845683677], "tags": {"amenity": "hospital", "healthcare": "hospital", "name": "\u6d51\u6c5f\u533a\u7b2c\u4e8c\u4eba\u6c11\u533b\u9662"}}, {"type": "way", "id": 1073386455, "center": {"lat": 41.937365, "lon": 126.4132908}, "nodes": [9846708199, 9846708200, 9846708201, 9846708202, 9853617510, 9846708203, 9846708204, 9846708205, 9846708206, 9846708207, 9846708208, 9846708199], "tags": {"amenity": "hospital", "healthcare": "hospital", "name": "\u767d\u5c71\u5e02\u4e2d\u5fc3\u533b\u9662"}}, {"type": "way", "id": 1076472648, "center": {"lat": 41.9942185, "lon": 122.8168783}, "nodes": [9871530923, 9871530924, 9871530925, 9871530926, 9871530927, 9871530928, 9871530923], "tags": {"amenity": "hospital", "healthcare": "hospital", "name": "\u65b0\u6c11\u5e02\u4eba\u6c11\u533b\u9662"}}, {"type": "way", "id": 1077038725, "center": {"lat": 41.9399379, "lon": 126.4186817}, "nodes": [9832382144, 9832382145, 9875906735, 9832382147, 9832382148, 9875906736, 9875906737, 9832382143, 9832382144], "tags": {"amenity": "hospital", "healthcare": "hospital", "name": "\u767d\u5c71\u5e02\u5987\u5e7c\u4fdd\u5065\u9662"}}, {"type": "way", "id": 1077849302, "center": {"lat": 41.9260258, "lon": 126.402616}, "nodes": [9882298537, 9882298530, 9882298533, 9882298538, 9882298539, 9882298532, 9882298531, 9882298536, 9882298535, 9882298534, 9882298537], "tags": {"amenity": "hospital", "healthcare": "hospital", "name": "\u6d51\u6c5f\u533a\u533b\u9662"}}, {"type": "way", "id": 1078082463, "center": {"lat": 41.9399692, "lon": 123.1298028}, "nodes": [9884135797, 9884135798, 9884135799, 9884135800, 9884135797], "tags": {"amenity": "hospital", "healthcare": "hospital", "name": "\u8001\u8fb9\u536b\u751f\u9662"}}, {"type": "way", "id": 1078153481, "center": {"lat": 45.8229659, "lon": 126.6017515}, "nodes": [9884709521, 9884709522, 9884709534, 9884709523, 9884709535, 9884709524, 9884709525, 9884709526, 9884709527, 9884709528, 9884709529, 9884709530, 9884709531, 9884709532, 9884709533, 9884709521], "tags": {"amenity": "hospital", "healthcare": "hospital", "name": "\u677e\u6d66\u4eba\u6c11\u533b\u9662"}}, {"type": "way", "id": 1080151301, "center": {"lat": 45.8298343, "lon": 128.8320233}, "nodes": [9900802998, 9900802999, 9900803000, 9900803001, 9900803002, 9900803003, 9900803004, 9900803005, 9900803006, 9900803007, 9900803008, 9900802998], "tags": {"amenity": "hospital", "healthcare": "hospital", "name": "\u65b9\u6b63\u53bf\u4eba\u6c11\u533b\u9662"}}, {"type": "way", "id": 1080314930, "center": {"lat": 45.7521968, "lon": 126.6317486}, "nodes": [3451555436, 3451555437, 3451555438, 3451555439, 3451555440, 3451555441, 3451555442, 3451555421, 9902194666, 3451555455, 3451555454, 9902194667, 9902194668, 9902194669, 9902194670, 3451555436], "tags": {"amenity": "hospital", "healthcare": "hospital", "name": "\u9ed1\u9f99\u6c5f\u7701\u4e2d\u533b\u533b\u9662(\u5357\u5c97\u5206\u9662)"}}, {"type": "way", "id": 1080314939, "center": {"lat": 45.7638343, "lon": 126.6458291}, "nodes": [9902194744, 9902194745, 9902194746, 9902194747, 9902194748, 9902194749, 9902194750, 9902194763, 9902194751, 9902194744], "tags": {"amenity": "hospital", "healthcare": "hospital", "name": "\u9ed1\u9f99\u6c5f\u7701\u603b\u5de5\u4f1a\u533b\u9662", "name:zh": "\u9ed1\u9f99\u6c5f\u7701\u603b\u5de5\u4f1a\u533b\u9662", "name:zh-Hans": "\u9ed1\u9f99\u6c5f\u7701\u603b\u5de5\u4f1a\u533b\u9662", "name:zh-Hant": "\u9ed1\u9f8d\u6c5f\u7701\u7e3d\u5de5\u6703\u91ab\u9662"}}, {"type": "way", "id": 1081200637, "center": {"lat": 45.7662945, "lon": 126.6523227}, "nodes": [9909955444, 9909955445, 9909955446, 9909955447, 9909955448, 9909955449, 9909955450, 9909955451, 9909955444], "tags": {"amenity": "hospital", "healthcare": "hospital", "name": "\u9ed1\u9f99\u6c5f\u7701\u7b2c\u4e8c\u533b\u9662"}}, {"type": "way", "id": 1082443700, "center": {"lat": 45.7230404, "lon": 126.6287368}, "nodes": [9920262666, 9920262667, 9920262668, 9920262669, 9920262670, 9920262671, 9920262672, 9920262673, 9920262666], "tags": {"amenity": "hospital", "healthcare": "hospital", "name": "\u9ed1\u9f99\u6c5f\u7701\u7ea2\u5341\u5b57(\u68ee\u5de5\u603b)\u533b\u9662"}}, {"type": "way", "id": 1085092298, "center": {"lat": 45.8304062, "lon": 126.6257121}, "nodes": [9942617853, 9942617854, 9942617855, 9942617856, 9942617853], "tags": {"amenity": "hospital", "emergency": "yes", "healthcare": "hospital", "name": "\u54c8\u5c14\u6ee8\u533b\u79d1\u5927\u5b66\u9644\u5c5e\u7b2c\u516d\u533b\u9662\uff08\u4f0d\u8054\u5fb7\u533b\u9662\uff09", "name:en": "Sixth Affiliated Hospital of Harbin Medical University", "name:zh": "\u54c8\u5c14\u6ee8\u533b\u79d1\u5927\u5b66\u9644\u5c5e\u7b2c\u516d\u533b\u9662\uff08\u4f0d\u8054\u5fb7\u533b\u9662\uff09", "name:zh-Hans": "\u54c8\u5c14\u6ee8\u533b\u79d1\u5927\u5b66\u9644\u5c5e\u7b2c\u516d\u533b\u9662\uff08\u4f0d\u8054\u5fb7\u533b\u9662\uff09", "name:zh-Hant": "\u54c8\u723e\u6ff1\u91ab\u79d1\u5927\u5b78\u9644\u5c6c\u7b2c\u516d\u91ab\u9662\uff08\u4f0d\u806f\u5fb7\u91ab\u9662\uff09", "not:operator:wikidata": "Q10921986", "operator": "\u54c8\u5c14\u6ee8\u533b\u79d1\u5927\u5b66", "operator:type": "government", "wheelchair": "yes"}}, {"type": "way", "id": 1088968569, "center": {"lat": 45.8451774, "lon": 126.6043789}, "nodes": [9976220249, 9976220250, 9976220251, 9976220252, 9976220253, 9976220254, 9976220255, 9976220256, 9976220257, 9976220258, 9976220259, 9976220260, 9976220261, 9976220262, 9976220263, 9976220264, 9976220249], "tags": {"amenity": "hospital", "healthcare": "hospital", "name": "\u666e\u5b81\u533b\u9662"}}, {"type": "way", "id": 1089046088, "center": {"lat": 41.8173868, "lon": 123.4135597}, "nodes": [9976821948, 9976821947, 9976821946, 9976821945, 9976821944, 9976821943, 9976821942, 9976821941, 9976821948], "tags": {"amenity": "hospital", "healthcare": "hospital", "name": "\u6c88\u9633\u5e02\u7b2c\u56db\u4eba\u6c11\u533b\u9662"}}, {"type": "way", "id": 1089831817, "center": {"lat": 46.0050452, "lon": 129.2598459}, "nodes": [9983155676, 9983155677, 9983155715, 9983155678, 9983155679, 9983155676], "tags": {"amenity": "hospital", "healthcare": "hospital"}}, {"type": "way", "id": 1110031405, "center": {"lat": 45.7749046, "lon": 126.6952462}, "nodes": [10154887165, 10154887166, 10154887167, 10154887168, 10154887165], "tags": {"amenity": "hospital", "healthcare": "hospital", "name": "\u7231\u5a74\u533b\u9662"}}, {"type": "way", "id": 1110304785, "center": {"lat": 45.7837346, "lon": 126.7006763}, "nodes": [10157254318, 10157254319, 10157254320, 10157254321, 10157254318], "tags": {"amenity": "hospital", "healthcare": "hospital", "name": "\u4ec1\u82af\u533b\u9662"}}, {"type": "way", "id": 1110472293, "center": {"lat": 45.7697627, "lon": 126.6939561}, "nodes": [10158951265, 10158951266, 10158951267, 10158951268, 10158951265], "tags": {"amenity": "hospital", "healthcare": "hospital", "name": "\u54c8\u5c14\u6ee8\u5e02\u7b2c\u4e00\u4e13\u79d1\u533b\u9662"}}, {"type": "way", "id": 1110545947, "center": {"lat": 45.7692554, "lon": 126.6892179}, "nodes": [10159596955, 10159596956, 10159596992, 10159596991, 10159596957, 10159596958, 10159596955], "tags": {"amenity": "hospital", "healthcare": "hospital", "name": "\u54c8\u5c14\u6ee8\u5e02\u7b2c\u4e8c\u533b\u9662"}}, {"type": "way", "id": 1111530349, "center": {"lat": 45.7670715, "lon": 126.6881949}, "nodes": [10169138038, 10169138039, 10169138040, 10169138041, 10169138038], "tags": {"amenity": "hospital", "healthcare": "hospital", "name": "\u8a89\u534e\u533b\u9662"}}, {"type": "way", "id": 1111530350, "center": {"lat": 45.7670352, "lon": 126.690364}, "nodes": [10169138042, 10169138043, 10169138044, 10169138047, 10169138046, 10169138045, 10169138042], "tags": {"amenity": "hospital", "healthcare": "hospital", "name": "\u54c8\u5c14\u6ee8\u5e02\u80f8\u79d1\u533b\u9662"}}, {"type": "way", "id": 1113772749, "center": {"lat": 45.6881476, "lon": 126.524383}, "nodes": [10189564552, 10189564553, 10189564554, 10189564555, 10189564552], "tags": {"amenity": "hospital", "healthcare": "hospital", "name": "\u9ed1\u9f99\u6c5f\u7701\u5e73\u6d4e\u533b\u9662"}}, {"type": "way", "id": 1113772750, "center": {"lat": 45.686825, "lon": 126.522215}, "nodes": [10189564556, 10189564557, 10189564558, 10189564559, 10189564556], "tags": {"amenity": "hospital", "healthcare": "hospital", "name": "\u9ad8\u65b0\u533b\u9662"}}, {"type": "way", "id": 1117109104, "center": {"lat": 47.3310976, "lon": 123.9520538}, "nodes": [10216823065, 10216823066, 10216823074, 10216823076, 10216823077, 10216823075, 10216823073, 10216823072, 10216823071, 10216823070, 10216823069, 10216823067, 10216823078, 10216823079, 10216823080, 10216823081, 10216823082, 10216823083, 10216823084, 10216823085, 10216823086, 10216823068, 10258394147, 10216823065], "tags": {"amenity": "hospital", "healthcare": "hospital", "name": "\u9f50\u9f50\u54c8\u5c14\u5efa\u534e\u533b\u9662\u603b\u9662", "name:en": "Qiqihar Jianhua Hospital", "name:zh": "\u9f50\u9f50\u54c8\u5c14\u5efa\u534e\u533b\u9662\u603b\u9662"}}, {"type": "way", "id": 1118731060, "center": {"lat": 41.7694773, "lon": 123.3952754}, "nodes": [10231666158, 10231666159, 10231666160, 9154335798, 10231666161, 10231666162, 10231666163, 10231666164, 10231666158], "tags": {"amenity": "hospital", "healthcare": "hospital", "name": "\u6c88\u9633\u5e02\u7b2c\u516d\u4eba\u6c11\u533b\u9662", "old_name:ja": "\u5949\u5929\u5e02\u7acb\u50b3\u67d3\u75c5\u9662"}}, {"type": "way", "id": 1119163390, "center": {"lat": 42.8944413, "lon": 129.4886499}, "nodes": [10235556642, 10235556650, 10235556643, 10235556644, 10235556645, 10235556646, 10235556647, 10235556642], "tags": {"amenity": "hospital", "healthcare": "hospital", "name": "\u5ef6\u8fb9\u5987\u5e7c\u4fdd\u5065\u9662", "name:zh": "\u5ef6\u8fb9\u5987\u5e7c\u4fdd\u5065\u9662", "name:zh-Hans": "\u5ef6\u8fb9\u5987\u5e7c\u4fdd\u5065\u9662", "name:zh-Hant": "\u5ef6\u908a\u5a66\u5e7c\u4fdd\u5065\u9662"}}, {"type": "way", "id": 1119372867, "center": {"lat": 45.7357617, "lon": 126.6640129}, "nodes": [10237904069, 10237904068, 10237904067, 10237904066, 10237904065, 10237904064, 10237904069], "tags": {"amenity": "hospital", "name": "\u5e7f\u79ef\u5fb7\u4e2d\u533b\u9662"}}, {"type": "way", "id": 1121944968, "center": {"lat": 40.9540384, "lon": 126.6009192}, "nodes": [10261558964, 10261558965, 10261558966, 10261558967, 10261558968, 10261558969, 10261558970, 10261558971, 10261558972, 10261558973, 10261558964], "tags": {"amenity": "hospital", "healthcare": "hospital", "name": "\uc790\uac15\ub3c4\uc778\ubbfc\ubcd1\uc6d0", "name:en": "Jagang Provincial Hospital", "name:ko": "\uc790\uac15\ub3c4\uc778\ubbfc\ubcd1\uc6d0"}}, {"type": "way", "id": 1121955211, "center": {"lat": 41.5081368, "lon": 127.2706396}, "nodes": [10261654199, 10261654200, 10261654201, 10261654202, 10261654199], "tags": {"amenity": "hospital", "healthcare": "hospital", "name": "\uae40\ud615\uc9c1\uc740\ub355\uc6d0", "name:en": "Kim Hyong-jik Undok Health Complex", "name:ko": "\uae40\ud615\uc9c1\uc740\ub355\uc6d0"}}, {"type": "way", "id": 1126238095, "center": {"lat": 45.7646554, "lon": 126.6756914}, "nodes": [10298605590, 10298605591, 10298605592, 10298605593, 10298605590], "tags": {"amenity": "hospital", "healthcare": "hospital", "name": "\u9ed1\u9f99\u6c5f\u4e5d\u5dde\u5987\u79d1\u533b\u9662"}}, {"type": "way", "id": 1131068475, "center": {"lat": 41.7664955, "lon": 123.4342541}, "nodes": [10542169091, 10542169092, 10542169093, 10542169094, 10542169091], "tags": {"amenity": "hospital", "healthcare": "hospital", "name": "\u5317\u90e8\u6218\u533a\u603b\u533b\u9662"}}, {"type": "way", "id": 1132359244, "center": {"lat": 45.7212416, "lon": 126.5499841}, "nodes": [10558640813, 10558640814, 10558640815, 10558640816, 10558640817, 10558640818, 10558640819, 10558640820, 10558640821, 10558640822, 10558640823, 10558640824, 10558640825, 10558640813], "tags": {"amenity": "hospital", "emergency": "yes", "healthcare": "hospital", "name": "\u54c8\u5c14\u6ee8\u533b\u79d1\u5927\u5b66\u9644\u5c5e\u7b2c\u4e00\u533b\u9662\uff08\u7fa4\u529b\u9662\u533a\uff09", "name:zh": "\u54c8\u5c14\u6ee8\u533b\u79d1\u5927\u5b66\u9644\u5c5e\u7b2c\u4e00\u533b\u9662\uff08\u7fa4\u529b\u9662\u533a\uff09", "name:zh-Hans": "\u54c8\u5c14\u6ee8\u533b\u79d1\u5927\u5b66\u9644\u5c5e\u7b2c\u4e00\u533b\u9662\uff08\u7fa4\u529b\u9662\u533a\uff09", "name:zh-Hant": "\u54c8\u723e\u6ff1\u91ab\u79d1\u5927\u5b78\u9644\u5c6c\u7b2c\u4e00\u91ab\u9662\uff08\u7fa4\u529b\u9662\u5340\uff09", "operator": "\u54c8\u5c14\u6ee8\u533b\u79d1\u5927\u5b66", "operator:type": "government", "wheelchair": "yes"}}, {"type": "way", "id": 1132362174, "center": {"lat": 45.7732799, "lon": 126.6448358}, "nodes": [10558670750, 10558670751, 10558670752, 10558670753, 10558670750], "tags": {"amenity": "hospital", "emergency": "yes", "healthcare": "hospital", "name": "\u54c8\u533b\u5927\u4e00\u9662\u9644\u5c5e\u4f0d\u8fde\u5fb7\u7eaa\u5ff5\u533b\u9662", "name:zh": "\u54c8\u533b\u5927\u4e00\u9662\u9644\u5c5e\u4f0d\u8fde\u5fb7\u7eaa\u5ff5\u533b\u9662", "name:zh-Hans": "\u54c8\u533b\u5927\u4e00\u9662\u9644\u5c5e\u4f0d\u8fde\u5fb7\u7eaa\u5ff5\u533b\u9662", "name:zh-Hant": "\u54c8\u91ab\u5927\u4e00\u9662\u9644\u5c6c\u4f0d\u9023\u5fb7\u7d00\u5ff5\u91ab\u9662", "operator": "\u54c8\u5c14\u6ee8\u533b\u79d1\u5927\u5b66", "operator:type": "government", "wheelchair": "yes"}}, {"type": "way", "id": 1135454131, "center": {"lat": 45.7081596, "lon": 126.6042602}, "nodes": [10584331230, 10584331231, 10584331232, 10584331233, 10584331234, 10584331235, 10584331236, 10584331237, 10584331239, 10584331238, 10584331230], "tags": {"amenity": "hospital", "healthcare": "hospital", "name": "\u89e3\u653e\u519b\u4e5d\u516d\u4e8c\u533b\u9662", "name:zh": "\u89e3\u653e\u519b\u4e5d\u516d\u4e8c\u533b\u9662", "name:zh-Hans": "\u89e3\u653e\u519b\u4e5d\u516d\u4e8c\u533b\u9662", "name:zh-Hant": "\u89e3\u653e\u8ecd\u4e5d\u516d\u4e8c\u91ab\u9662"}}, {"type": "way", "id": 1135830030, "center": {"lat": 48.4662986, "lon": 124.4544587}, "nodes": [10588011410, 10588011411, 10588011412, 10588011413, 10588011414, 10588011415, 10588011410], "tags": {"amenity": "hospital", "healthcare": "hospital", "name": "\u83ab\u65d7\u4eba\u6c11\u533b\u9662"}}, {"type": "way", "id": 1149558101, "center": {"lat": 40.0659828, "lon": 122.9776094}, "nodes": [10694175908, 10694175909, 10694175910, 10694175911, 10694175912, 10694175913, 10694175914, 10694175915, 10694175916, 10694175917, 10694175908], "tags": {"amenity": "hospital", "healthcare": "hospital", "name": "\u4e09\u67b6\u5c71\u536b\u751f\u9662"}}, {"type": "way", "id": 1153459390, "center": {"lat": 42.4244293, "lon": 128.1189138}, "nodes": [10727642262, 10727642263, 10727642264, 10727642265, 10727642262], "tags": {"amenity": "hospital", "healthcare": "hospital", "name": "\u957f\u767d\u5c71\u4fdd\u62a4\u5f00\u53d1\u533a\u4e2d\u5fc3\u533b\u9662"}}, {"type": "way", "id": 1153499236, "center": {"lat": 42.2069548, "lon": 127.4362143}, "nodes": [10727943401, 10727943402, 10727943403, 10727943404, 10727943405, 10727943406, 10727943407, 10727943408, 10727943409, 10727943410, 10727943411, 10727943412, 10727943413, 10727943414, 10727943415, 10727943416, 10727943417, 10727943418, 10727943401], "tags": {"amenity": "hospital", "healthcare": "hospital", "name": "\u629a\u677e\u65b0\u57ce\u533b\u9662"}}, {"type": "way", "id": 1166154534, "center": {"lat": 45.7363447, "lon": 126.6820668}, "nodes": [10846438766, 10846438767, 10846438768, 10846438769, 10846438766], "tags": {"amenity": "hospital", "healthcare": "hospital", "name": "\u5d69\u5c71\u533b\u9662"}}, {"type": "way", "id": 1166154551, "center": {"lat": 45.7357684, "lon": 126.698527}, "nodes": [10846438852, 10846438853, 10846438854, 10846438855, 10846438852], "tags": {"amenity": "hospital", "healthcare": "hospital", "name": "\u5efa\u6210\u533b\u9662"}}, {"type": "way", "id": 1166154561, "center": {"lat": 45.7292585, "lon": 126.6690712}, "nodes": [10846438937, 10846438938, 10846438939, 10846438940, 10846438941, 10846438942, 10846438937], "tags": {"amenity": "hospital", "healthcare": "hospital", "name": "\u9ed1\u9f99\u6c5f\u7701\u4e2d\u533b\u533b\u9662\uff08\u4e09\u8f85\u8857\uff09"}}, {"type": "way", "id": 1166154571, "center": {"lat": 45.7360948, "lon": 126.6615998}, "nodes": [10846438997, 10846438998, 10846438999, 10846439002, 10846439001, 10846439000, 10846438997], "tags": {"amenity": "hospital", "healthcare": "hospital"}}, {"type": "way", "id": 1167082540, "center": {"lat": 45.7399336, "lon": 126.6872834}, "nodes": [10852470553, 10852470554, 10852470555, 10852470556, 10852470557, 10852470558, 10852470553], "tags": {"amenity": "hospital", "healthcare": "hospital", "name": "\u6d4e\u5eb7\u533b\u9662"}}, {"type": "way", "id": 1172103646, "center": {"lat": 45.7430672, "lon": 126.6863312}, "nodes": [10890280597, 10890280598, 10890280599, 10890280600, 10890280597], "tags": {"amenity": "hospital", "healthcare": "hospital"}}, {"type": "way", "id": 1172399824, "center": {"lat": 45.7430188, "lon": 126.6526395}, "nodes": [10893155548, 10893155549, 10893155550, 10893155551, 10893155552, 10893155553, 10893155548], "tags": {"amenity": "hospital", "healthcare": "hospital", "name": "\u7a7a\u519b\u533b\u9662"}}, {"type": "way", "id": 1172399840, "center": {"lat": 45.740987, "lon": 126.6664863}, "nodes": [10893155658, 10893155659, 10893155660, 10893155661, 10893155658], "tags": {"amenity": "hospital", "healthcare": "hospital", "name": "\u548c\u7f8e\u5987\u4ea7\u533b\u9662"}}, {"type": "way", "id": 1172399862, "center": {"lat": 45.7428258, "lon": 126.6601644}, "nodes": [10893155774, 10893155775, 10893155776, 10893155777, 10893155778, 10893155774], "tags": {"amenity": "hospital", "healthcare": "hospital", "name": "\u9ed1\u9f99\u6c5f\u739b\u4e3d\u4e9a\u5987\u4ea7\u533b\u9662"}}, {"type": "way", "id": 1172643288, "center": {"lat": 45.7524574, "lon": 126.6460623}, "nodes": [10895356112, 10895356113, 10895356114, 10895356115, 10895356112], "tags": {"amenity": "hospital", "healthcare": "hospital", "name": "\u795e\u519c\u4e2d\u533b\u9662"}}, {"type": "way", "id": 1172689451, "center": {"lat": 45.7620696, "lon": 126.635209}, "nodes": [10895820684, 10895820685, 10895820686, 10895820687, 10895820684], "tags": {"amenity": "hospital", "healthcare": "hospital", "name": "\u4e2d\u533b\u5927\u4e8c\u9662"}}, {"type": "way", "id": 1172689452, "center": {"lat": 45.7604701, "lon": 126.6369456}, "nodes": [10895820688, 10895820689, 10895820690, 10895820691, 10895820688], "tags": {"amenity": "hospital", "healthcare": "hospital", "name": "\u9ed1\u9f99\u6c5f\u7126\u89c6\u773c\u79d1\u533b\u9662"}}, {"type": "way", "id": 1172689515, "center": {"lat": 45.7592785, "lon": 126.6305827}, "nodes": [10895831808, 10895831809, 10895831810, 10895831811, 10895831812, 10895831813, 10895831808], "tags": {"amenity": "hospital", "healthcare": "hospital", "name": "\u54c8\u533b\u5927\u56db\u9662"}}, {"type": "way", "id": 1172705668, "center": {"lat": 45.7656041, "lon": 126.6264978}, "nodes": [10895915882, 10895915883, 10895915884, 10895915885, 10895915882], "tags": {"amenity": "hospital", "healthcare": "hospital", "name": "\u590f\u6c0f\u9aa8\u4f24\u79d1\u533b\u9662"}}, {"type": "way", "id": 1172705686, "center": {"lat": 45.7617892, "lon": 126.6220583}, "nodes": [10895975093, 10895975094, 10895975095, 10895975096, 10895975093], "tags": {"amenity": "hospital", "healthcare": "hospital", "name": "\u9ed1\u9f99\u6c5f\u4e09\u7cbe\u80be\u810f\u75c5\u4e13\u79d1\u533b\u9662"}}, {"type": "way", "id": 1172705692, "center": {"lat": 45.7633177, "lon": 126.619547}, "nodes": [10895975122, 10895975123, 10895975124, 10895975125, 10895975126, 10895975122], "tags": {"amenity": "hospital", "healthcare": "hospital", "name": "\u5317\u65b9\u8840\u7ba1\u75c5\u533b\u9662"}}, {"type": "way", "id": 1172705693, "center": {"lat": 45.763022, "lon": 126.6186095}, "nodes": [10895975127, 10895975128, 10895975129, 10895975130, 10895975131, 10895975132, 10895975127], "tags": {"amenity": "hospital", "healthcare": "hospital", "name": "\u516c\u5b89\u533b\u9662"}}, {"type": "way", "id": 1172850867, "center": {"lat": 45.8201918, "lon": 126.5427423}, "nodes": [10897536975, 10897536976, 10897536977, 10897536978, 10897536979, 10897536975], "tags": {"amenity": "hospital", "healthcare": "hospital", "name": "\u54c8\u5c14\u6ee8\u957f\u5cf0\u8840\u7ba1\u7624\u533b\u9662"}}, {"type": "way", "id": 1176293808, "center": {"lat": 45.8969349, "lon": 126.6036795}, "nodes": [10929257583, 10929257584, 10929257585, 10929257586, 10929257587, 10929257588, 10929257589, 10929257583], "tags": {"amenity": "hospital", "healthcare": "hospital", "name": "\u5229\u6c11\u4e2d\u5fc3\u533b\u9662"}}, {"type": "way", "id": 1180451000, "center": {"lat": 41.6051412, "lon": 121.7905741}, "nodes": [10963037610, 10963566098, 10963566099, 10963566100, 10963566101, 10963037610], "tags": {"amenity": "hospital", "healthcare": "hospital", "name": "\u5317\u9547\u5e02\u4eba\u6c11\u533b\u9662"}}, {"type": "way", "id": 1180467814, "center": {"lat": 41.5917266, "lon": 121.7861726}, "nodes": [10963725888, 10963725889, 10963725890, 10963725891, 10963725888], "tags": {"amenity": "hospital", "healthcare": "hospital", "name": "\u5317\u9547\u4e2d\u533b\u9662"}}, {"type": "way", "id": 1180478113, "center": {"lat": 41.5440845, "lon": 121.2362612}, "nodes": [10963767152, 10963767153, 10963767154, 10963767155, 10963767152], "tags": {"amenity": "hospital", "healthcare": "hospital", "name": "\u4e49\u53bf\u4e2d\u533b\u9662"}}, {"type": "way", "id": 1180693755, "center": {"lat": 41.9913646, "lon": 127.2233497}, "nodes": [10965706251, 10965706252, 10965706253, 10965706254, 10965706255, 10965706256, 10965706257, 10965706258, 10965706259, 10965706260, 10965706261, 10965706251], "tags": {"amenity": "hospital", "healthcare": "hospital", "name": "\u4e34\u6c5f\u5e02\u6866\u6811\u533b\u9662"}}, {"type": "way", "id": 1180698681, "center": {"lat": 41.8021198, "lon": 126.90204}, "nodes": [10965755709, 10965755710, 10965755711, 10965755712, 10965755709], "tags": {"addr:city": "\u767d\u5c71\u5e02", "addr:district": "\u4e34\u6c5f\u5e02", "addr:housenumber": "391", "addr:province": "\u5409\u6797\u7701", "addr:street": "\u4e34\u6c5f\u5927\u8857", "amenity": "hospital", "emergency": "yes", "healthcare": "hospital", "name": "\u4e34\u6c5f\u5e02\u4eba\u6c11\u533b\u9662"}}, {"type": "way", "id": 1182514189, "center": {"lat": 45.5317392, "lon": 126.9834174}, "nodes": [10981055456, 10981055457, 10981055458, 10981055459, 10981055460, 10981055456], "tags": {"amenity": "hospital", "healthcare": "hospital", "name": "\u54c8\u5c14\u6ee8\u5e02\u963f\u57ce\u533a\u4eba\u6c11\u533b\u9662"}}, {"type": "way", "id": 1188925742, "center": {"lat": 46.9940965, "lon": 128.0472743}, "nodes": [11039766554, 11039766555, 11039766556, 11039766557, 11039766558, 11039766559, 11039766554], "tags": {"amenity": "hospital", "healthcare": "hospital"}}, {"type": "way", "id": 1197253102, "center": {"lat": 44.0874091, "lon": 125.4321227}, "nodes": [11108946095, 11108946096, 11108946097, 11108946098, 11108946094, 11108946095], "tags": {"amenity": "hospital", "healthcare": "hospital", "name": "\u957f\u6625\u5b89\u5b81\u7cbe\u795e\u5eb7\u590d\u533b\u9662"}}, {"type": "way", "id": 1197344317, "center": {"lat": 43.977622, "lon": 125.407647}, "nodes": [11109537115, 11109537116, 11109537117, 11109537118, 11109537115], "tags": {"amenity": "hospital", "healthcare": "hospital", "name": "\u5409\u6797\u7701\u804c\u4e1a\u75c5\u9632\u6cbb\u9662"}}, {"type": "way", "id": 1197875264, "center": {"lat": 43.9664043, "lon": 125.398037}, "nodes": [11109537370, 11113309773, 11113309774, 11113309775, 11109537369, 11109537370], "tags": {"amenity": "hospital", "beds": "300", "healthcare": "hospital", "name": "\u5409\u6797\u5927\u5b66\u4e2d\u65e5\u8054\u8c0a\u533b\u9662(\u5317\u6e56\u9662\u533a)"}}, {"type": "way", "id": 1208136957, "center": {"lat": 45.9064206, "lon": 126.8947098}, "nodes": [11194681480, 11194681481, 11194681482, 11194681483, 11194681484, 11194681485, 11194681486, 11198105495, 11198105494, 11194681487, 11194681488, 11194681489, 11194681490, 11194681491, 11194681492, 11194681493, 11194681480], "tags": {"amenity": "hospital", "healthcare": "hospital", "name": "\u767d\u9c7c\u6ce1\u533b\u9662"}}, {"type": "way", "id": 1208436979, "center": {"lat": 42.7697775, "lon": 129.4035405}, "nodes": [11197259035, 11197259036, 11197259046, 11197259037, 11197259038, 11197259035], "tags": {"amenity": "hospital", "healthcare": "hospital", "name": "\u9f99\u4e95\u5e02\u5730\u533a\u533b\u9662"}}, {"type": "way", "id": 1212957169, "center": {"lat": 48.5822834, "lon": 129.4338547}, "nodes": [11237686829, 11237686830, 11237686831, 11237686832, 11237686829], "tags": {"amenity": "hospital", "healthcare": "hospital", "name": "\u4e4c\u4f0a\u5cad\u4eba\u6c11\u533b\u9662"}}, {"type": "way", "id": 1216795046, "center": {"lat": 42.8889375, "lon": 129.4250655}, "nodes": [11274583419, 11274583425, 11274583423, 11274583424, 11274583419], "tags": {"addr:city": "\u5ef6\u8fb9\u671d\u9c9c\u65cf\u81ea\u6cbb\u5dde", "addr:district": "\u5ef6\u5409\u5e02", "addr:housenumber": "530", "addr:province": "\u5409\u6797\u7701", "addr:street": "\u4ec1\u576a\u8857", "amenity": "hospital", "healthcare": "hospital", "name": "\u5c0f\u8425\u9547\u4e2d\u5fc3\u536b\u751f\u9662"}}, {"type": "way", "id": 1218973210, "center": {"lat": 42.9456365, "lon": 129.4930111}, "nodes": [11295281969, 11295281970, 11295281971, 11295281972, 11295281973, 11295281974, 11295281975, 11295281976, 11295281969], "tags": {"amenity": "hospital", "healthcare": "hospital", "name": "\u5ef6\u8fb9\u5b81\u517b\u533b\u9662"}}]}