{"version": 0.6, "generator": "Overpass API 0.7.61.5 4133829e", "osm3s": {"timestamp_osm_base": "2023-10-31T21:00:55Z", "copyright": "The data included in this document is from www.openstreetmap.org. The data is made available under ODbL."}, "elements": [{"type": "node", "id": 319578302, "lat": 53.890938, "lon": -119.1189092, "tags": {"amenity": "hospital", "created_by": "Potlatch 0.10f"}}, {"type": "node", "id": 1188860843, "lat": 50.0227963, "lon": -114.9549933, "tags": {"amenity": "hospital", "name": "First Aid"}}, {"type": "node", "id": 1440341324, "lat": 51.650208, "lon": -111.9277221, "tags": {"amenity": "hospital", "designation": "Hospital", "emergency": "yes", "healthcare": "hospital", "name": "Hanna Hospital"}}, {"type": "node", "id": 2152138471, "lat": 55.94295, "lon": -113.8017711, "tags": {"amenity": "hospital", "emergency": "yes", "name": "Wabasca Hospital"}}, {"type": "node", "id": 2193478609, "lat": 53.5198507, "lon": -113.524234, "tags": {"amenity": "hospital", "healthcare": "hospital", "name": "Stollery Children's Hospital", "wikidata": "Q17096630", "wikipedia:en": "Stollery Children's Hospital"}}, {"type": "node", "id": 2352880459, "lat": 53.5910616, "lon": -116.4067521, "tags": {"amenity": "hospital", "name": "Edson Healthcare Centre"}}, {"type": "node", "id": 4568983778, "lat": 50.9890658, "lon": -114.0974687, "tags": {"amenity": "hospital", "emergency": "emergency_ward_entrance", "name": "Rockyview General Hospital EMERGENCY ENTRANCE"}}, {"type": "node", "id": 4803976655, "lat": 51.0648538, "lon": -114.1334595, "tags": {"addr:housenumber": "1403", "addr:street": "29 Street NW", "amenity": "hospital", "description": "24/7 emergency health care, including life-threatening issues; access from 29 Street NW (approx 450 metres south of 16 Ave/Highway 1) or via Hospital Drive from west entrance to hospital grounds", "emergency": "yes", "healthcare": "hospital", "name": "Foothills Medical Centre EMERGENCY ENTRANCE", "operator": "Alberta Health Services", "operator:short": "AHS", "operator:wikidata": "Q4711650", "operator:wikipedia": "en:Alberta Health Services", "wheelchair": "yes"}}, {"type": "node", "id": 4858168655, "lat": 50.238755, "lon": -117.794981, "tags": {"addr:housenumber": "97", "addr:street": "1st Avenue NE", "amenity": "hospital", "emergency": "yes", "healthcare": "hospital", "name": "Arrow Lakes Hospital", "operator": "Interior Health", "operator:type": "public", "operator:wikidata": "Q6046681", "phone": "+1-250-265-3622", "website": "https://www.interiorhealth.ca/locations/arrow-lakes-hospital", "wikidata": "Q4796126", "wikipedia": "en:Arrow Lakes Hospital"}}, {"type": "node", "id": 5813085443, "lat": 54.404711, "lon": -116.8014235, "tags": {"amenity": "hospital", "healthcare": "hospital", "name": "Fox Creek Healthcare Centre"}}, {"type": "node", "id": 6340626412, "lat": 51.1299186, "lon": -114.2009878, "tags": {"addr:city": "Calgary", "addr:housenumber": "401, 400", "addr:postcode": "T3G 5H6", "addr:street": "Crowfoot Crescent NW", "amenity": "hospital", "healthcare": "hospital", "name": "Mayfair Diagnostics Crowfoot"}}, {"type": "node", "id": 10650528066, "lat": 51.0689758, "lon": -114.1171756, "tags": {"addr:city": "Calgary", "addr:housenumber": "1824", "addr:postcode": "T2M 3Y7", "addr:province": "Alberta", "addr:street": "Crowchild Trail NW", "addr:unit": "suite 101", "amenity": "hospital", "healthcare": "hospital", "name": "Harvest Medicine Calgary & Alberta"}}, {"type": "node", "id": 10671945067, "lat": 51.0907599, "lon": -113.9987911, "tags": {"amenity": "hospital", "healthcare": "hospital"}}, {"type": "node", "id": 11054854441, "lat": 53.6004949, "lon": -112.34266, "tags": {"amenity": "hospital", "healthcare": "hospital"}}, {"type": "way", "id": 4814073, "center": {"lat": 51.0747205, "lon": -114.1479501}, "nodes": [30918525, 9581795198, 9581795199, 9581795200, 5180263526, 5180263527, 30918526, 30918519, 9581795201, 9581795202, 30918520, 4168030954, 4168030953, 30918521, 4144809908, 9581820544, 9581820545, 4144809907, 9581795204, 9581820546, 30918522, 9581820547, 9581820548, 9581795206, 9581820549, 9581795205, 9581820552, 9581795207, 4144809906, 9581820563, 9581820553, 9581820554, 9581820556, 9581820557, 4749090482, 9581795208, 9581795209, 4144809905, 9581795211, 4144809904, 9581795210, 4168036628, 1842291418, 30918525], "tags": {"addr:housenumber": "28", "addr:postcode": "T3B 6A8", "addr:street": "Oki Drive NW", "amenity": "hospital", "emergency": "yes", "healthcare": "hospital", "name": "Alberta Children's Hospital", "website": "https://www.albertahealthservices.ca/Facilities/ACH/", "wheelchair": "yes", "wikidata": "Q2831698"}}, {"type": "way", "id": 4860451, "center": {"lat": 51.065172, "lon": -114.1351466}, "nodes": [31363988, 31363989, 2147326973, 31363990, 31363991, 31363992, 4803809731, 1832353664, 31363993, 31363994, 31363995, 31363996, 31363997, 31363998, 31363999, 9554735350, 7905970284, 7905970283, 31364002, 31364004, 31364005, 1869029826, 31364006, 1869029913, 31364007, 31364008, 31364009, 31363988], "tags": {"addr:housenumber": "1403", "addr:street": "29 Steet NW", "amenity": "hospital", "description": "\"As one of Canada\u2019s largest hospitals, Foothills Medical Centre (FMC) provides advanced healthcare services to more than two million people from Calgary, southern Alberta, southeastern British Columbia and southern Saskatchewan.\"", "emergency": "yes", "healthcare": "hospital", "name": "Foothills Medical Centre", "note": "main bldg complex reworked using \"footprint\" map 2017-04; don't expect good visual alignment with aerial images (height/angle issues)", "phone": "+1-403-944-1110", "website": "https://www.albertahealthservices.ca/fmc/fmc.aspx", "wheelchair": "yes", "wikidata": "Q8564404", "wikipedia": "en:Foothills Medical Centre"}}, {"type": "way", "id": 4860979, "center": {"lat": 51.0791076, "lon": -113.9845747}, "nodes": [31368236, 9552574165, 1261566463, 31368237, 4886574733, 1261566459, 1261566465, 1261566472, 1261566499, 31368239, 1261566453, 31368236], "tags": {"addr:city": "Calgary", "addr:housenumber": "3500", "addr:street": "26 Avenue NE", "amenity": "hospital", "emergency": "yes", "healthcare": "hospital", "name": "Peter Lougheed Centre of the Calgary General Hospital", "phone": "+1-403-943-4555", "website": "https://www.albertahealthservices.ca/facilities.asp?pid=facility&rid=2", "wheelchair": "yes", "wikipedia": "en:Peter Lougheed Centre"}}, {"type": "way", "id": 57403905, "center": {"lat": 53.5374022, "lon": -113.9762828}, "nodes": [5782998113, 714260994, 714260957, 5782997688, 5782997689, 714260995, 5782997690, 5782997691, 714260981, 714260935, 714260944, 7037736498, 714260929, 5782997692, 7037736499, 714260940, 714260989, 714260939, 5782997693, 714260951, 714260979, 5332943996, 5782997694, 5782997695, 5782997696, 5332943995, 7096589100, 7096589122, 5332943994, 5782997682, 5332943993, 5332943992, 5332943991, 7096589123, 5332943989, 5332943988, 5332943987, 7096589105, 5332943986, 5332943985, 714260947, 714260967, 714260954, 714260987, 5332943984, 5332943980, 5332943981, 5332943983, 5332943978, 714260976, 714260942, 5332943977, 714260946, 5332943976, 5332943975, 714260974, 714260977, 5332943974, 714260986, 714260992, 5782997686, 5782997687, 5782997685, 5782997684, 5782997683, 5782998113], "tags": {"addr:housename": "Stony Plain Hospital", "addr:street": "44 Avenue", "amenity": "hospital", "building": "hospital", "healthcare": "hospital", "name": "Westview Health Centre"}}, {"type": "way", "id": 96904019, "center": {"lat": 54.1190739, "lon": -114.400392}, "nodes": [1122835770, 5490204228, 5490204229, 5490204227, 1122862747, 5490204236, 5490204237, 5490204234, 5490204235, 5490204233, 5490204231, 5490204232, 5490204230, 1122888516, 1122789124, 1122854411, 5490204239, 5490204240, 5490204238, 5490203908, 5490204241, 5490204242, 5490203909, 5490203910, 1122882035, 5490203911, 5490203912, 5490203913, 5490203914, 5490203915, 5490203916, 5490203917, 5490203918, 5490203919, 5490203920, 1122908663, 1122805358, 5490204221, 5490204222, 5490204225, 5490204224, 5490204223, 5490204226, 1122835770], "tags": {"addr:city": "Barrhead", "addr:postcode": "T7N 1M1", "addr:street": "4815 51 Ave", "amenity": "hospital", "building": "yes", "name": "Barrhead Healthcare Centre", "phone": "+1-780-674-2221", "source": "NRCan-CanVec-7.0", "toilets:wheelchair": "yes", "wheelchair": "yes"}}, {"type": "way", "id": 98249415, "center": {"lat": 53.2551282, "lon": -113.5457984}, "nodes": [1136612449, 1136650122, 1483848233, 1483848266, 1483848199, 1483848270, 1483848167, 1483848264, 1483848195, 1483848218, 5341911341, 5341911342, 1483848180, 1483848216, 1483848162, 1483848231, 1483848160, 1483848179, 1136620048, 1136647645, 1483848168, 1483848193, 1483848228, 1483848234, 1483848255, 1483848232, 1483848236, 1483848247, 1483848252, 1483848182, 1483848214, 1483848207, 1483848209, 1483848169, 1136612449], "tags": {"addr:city": "Leduc", "addr:housenumber": "4210", "addr:postcode": "T9E 5Z3", "addr:street": "48 Street", "amenity": "hospital", "building": "hospital", "building:levels": "3", "healthcare": "hospital", "name": "Leduc Community Hospital", "operator": "Alberta Health Services", "phone": "+1-780-986-7711", "source": "NRCan-CanVec-7.0", "website": "https://www.albertahealthservices.ca/info/facility.aspx?id=7825", "wikidata": "Q14874844", "wikipedia": "en:Leduc Community Hospital"}}, {"type": "way", "id": 115326487, "center": {"lat": 55.2843309, "lon": -114.7607841}, "nodes": [1303467587, 2170771963, 2170771976, 2170771978, 2170771982, 2170771986, 2170771984, 1303467349, 2170771968, 2170771973, 2170771970, 2170771977, 2170771979, 2170771985, 2170771987, 2170771991, 2170771989, 1303467811, 2170771988, 2170771983, 2170771981, 2170771975, 2170771974, 2170771972, 2170771967, 2170771965, 2170771966, 2170771964, 2170771960, 2170771959, 2170771961, 2170771953, 2170771957, 2170771948, 1303467291, 1303467751, 2170771941, 2170771939, 2170771935, 2170771937, 1303467816, 2170771944, 2170771933, 2170771936, 2170771934, 2170771938, 2170771940, 2170771943, 2170771945, 2170771947, 2170771946, 2170771949, 2170771956, 2170771958, 2170771950, 2170771952, 2170771951, 2170771954, 2170771955, 1303467587], "tags": {"amenity": "hospital", "building": "yes", "emergency": "yes", "healthcare": "hospital", "healthcare:speciality": "paediatrics;general", "name": "Slave Lake Hospital", "operator": "Eunice2", "source": "NRCan-CanVec-7.0"}}, {"type": "way", "id": 117911095, "center": {"lat": 52.6439685, "lon": -114.2358852}, "nodes": [1327092182, 1327125539, 1327162784, 1327149900, 1327092182], "tags": {"amenity": "hospital", "building": "yes", "source": "NRCan-CanVec-7.0"}}, {"type": "way", "id": 118487958, "center": {"lat": 51.4692228, "lon": -112.726484}, "nodes": [1332582065, 10955680071, 1332597160, 1332597058, 360401435, 1332596794, 1332596914, 360575318, 360415715, 360789961, 360424491, 360791013, 360891862, 1332597037, 1332596697, 1332596875, 1332597092, 1332596911, 1332596759, 1332597170, 360546249, 1332597163, 1332596677, 1332596700, 1332597133, 1332596908, 1332596703, 1332596849, 1332596827, 1332596769, 1332597114, 1332597124, 1332582065], "tags": {"addr:city": "Drumheller", "addr:housenumber": "351", "addr:postcode": "T0J 0Y1", "addr:street": "9 Street Northwest", "amenity": "hospital", "healthcare": "hospital", "name": "Drumheller Health Centre", "website": "https://www.albertahealthservices.ca/facilities.asp?pid=facility&rid=1000305"}}, {"type": "way", "id": 119017524, "center": {"lat": 50.9025594, "lon": -114.0591201}, "nodes": [1337993154, 1337993134, 1337993147, 1337993124, 1337993130, 1337993132, 1337999675, 1337993156, 1337993144, 1337993154], "tags": {"amenity": "hospital", "healthcare": "hospital", "name": "South Calgary Health Centre"}}, {"type": "way", "id": 143310816, "center": {"lat": 53.5682411, "lon": -113.2758681}, "nodes": [1568296096, 1568294831, 1568294516, 11077676929, 11077676928, 11077676927, 11077676926, 11077676925, 1568293806, 11077676924, 11077676923, 1568294865, 11155891050, 11155891051, 11155891054, 11155891053, 1568296190, 252453448, 6447196304, 6447196303, 763687999, 6447196302, 11155891059, 1568295651, 11077743881, 11077743882, 11077771491, 11077771481, 11077771442, 11077771433, 11077743883, 11077743884, 1568296096], "tags": {"addr:city": "Sherwood Park", "addr:housenumber": "9000", "addr:postcode": "T8H 0K9", "addr:province": "AB", "addr:street": "Emerald Drive", "amenity": "hospital", "emergency": "yes", "healthcare": "hospital", "name": "Strathcona Community Hospital", "operator": "Alberta Health Services", "operator:short": "AHS", "operator:type": "government", "operator:wikidata": "Q4711650", "source": "Bing", "website": "https://www.albertahealthservices.ca/strath/strathcona.aspx", "wikidata": "Q7622072", "wikipedia": "en:Strathcona Community Hospital"}}, {"type": "way", "id": 143802866, "center": {"lat": 50.4439262, "lon": -119.1938814}, "nodes": [1573642724, 6833127559, 6833127556, 6833127557, 6833127558, 1573642722, 1573642799, 1573642802, 1573642785, 6833127565, 6833127564, 1573642783, 6833127563, 6833127562, 6833127561, 6833127560, 1573642724], "tags": {"amenity": "hospital", "building": "yes", "source": "NRCan-CanVec-8.0"}}, {"type": "way", "id": 144825870, "center": {"lat": 50.7042326, "lon": -119.2744311}, "nodes": [1583244615, 1583244677, 1583244748, 1583244773, 2460746441, 1583244811, 1583244956, 2460746448, 2460746452, 2460746450, 2460746451, 2460746449, 2460746447, 1583244836, 2460746445, 2460746442, 2460746437, 2460746433, 1583244615], "tags": {"addr:housenumber": "601", "addr:street": "10 Street Northeast", "amenity": "hospital", "building": "yes", "healthcare": "hospital", "name": "Shuswap Lake General Hospital", "source": "Bing"}}, {"type": "way", "id": 167486872, "center": {"lat": 51.7080912, "lon": -113.2511872}, "nodes": [1788782129, 1788781828, 1788782221, 1788782062, 1788781822, 1788782076, 1788782131, 1788782058, 1788782129], "tags": {"amenity": "hospital", "name": "Three Hills Hospital", "source": "Bing"}}, {"type": "way", "id": 193490175, "center": {"lat": 53.494057, "lon": -112.033096}, "nodes": [2040072154, 2040072236, 7086616768, 7086616767, 5735450302, 2040072321, 2040072290, 2040072050, 2040071953, 2040071951, 2040072056, 2040072305, 2040072152, 2040072144, 2040072020, 2040072066, 2040072154], "tags": {"amenity": "hospital", "healthcare": "hospital", "name": "St. Joseph's General Hospital", "source": "ourairports.com"}}, {"type": "way", "id": 221195220, "center": {"lat": 53.5186585, "lon": -113.5267463}, "nodes": [2302499619, 2302499620, 2302499621, 2302499622, 3115313424, 3115313423, 3115313420, 2302499623, 3115313421, 3115313422, 2302499624, 2302499625, 2302499626, 3115313426, 3115313427, 8605254674, 3115313425, 3115313729, 3115313428, 2302499627, 3115313731, 3115313730, 2302499628, 2302499629, 2302499630, 7738211785, 2302499619], "tags": {"amenity": "hospital", "building": "university", "healthcare": "hospital", "name": "Kaye Edmonton Clinic", "operator": "Alberta Health Services", "operator:short": "AHS", "operator:wikidata": "Q4711650", "operator:wikipedia": "en:Alberta Health Services", "wheelchair": "yes"}}, {"type": "way", "id": 222375116, "center": {"lat": 51.2970132, "lon": -116.9670973}, "nodes": [3017422444, 4721785372, 4721785373, 4721785374, 4721785375, 7785147333, 3017422451, 3017422452, 7785147358, 2313469807, 2313469765, 7785019847, 7785019848, 3017422456, 7785147348, 1431464920, 3017422444], "tags": {"amenity": "hospital", "name": "Golden Hospital"}}, {"type": "way", "id": 222828095, "center": {"lat": 50.506861, "lon": -116.0333148}, "nodes": [2317717572, 2317717484, 2317717483, 2317717569, 2317717572], "tags": {"amenity": "hospital", "healthcare": "hospital", "source": "Bing"}}, {"type": "way", "id": 228006567, "center": {"lat": 52.6691713, "lon": -111.3077033}, "nodes": [2366298373, 2366298374, 2366298375, 2366298376, 2366298377, 2366298378, 2366298379, 2366298380, 2366298381, 2366298382, 2366298383, 2366298384, 2366298385, 2366298386, 2366298387, 2366298373], "tags": {"addr:city": "Hardisty", "addr:housenumber": "4531", "addr:street": "47 Street", "amenity": "hospital", "building": "yes", "name": "Hardisty Health Centre"}}, {"type": "way", "id": 261113651, "center": {"lat": 51.6619237, "lon": -114.1238319}, "nodes": [2667346861, 2667346862, 2667346864, 2667346866, 2667346868, 2667346871, 2667346873, 2667346875, 2667346877, 2667346879, 2667346881, 2667346883, 2667346885, 2667346892, 2667346894, 2667346905, 2667346922, 2667346896, 2667346898, 2667346925, 2667346903, 2667346901, 2667346861], "tags": {"amenity": "hospital", "building": "hospital", "emergency": "yes", "healthcare": "hospital", "name": "Didsbury District Health Services"}}, {"type": "way", "id": 264000989, "center": {"lat": 53.6919953, "lon": -113.2108885}, "nodes": [2696790995, 2696790996, 2696790997, 2696790998, 2696790999, 2696791000, 2696791001, 2696791002, 2696791003, 2696791004, 2696791005, 2696791006, 2696791007, 2696791009, 2696791010, 2696791011, 2696791012, 2696791013, 2696791014, 2696791015, 2696791016, 2696791017, 2696791018, 2696791019, 2696791020, 2696791021, 2696791022, 2696791023, 2696791024, 2696791025, 2696791027, 2696791028, 2696791029, 2696791030, 2696791031, 2696791032, 2696791033, 2696790995], "tags": {"addr:city": "Fort Saskatchewan", "addr:housenumber": "9401", "addr:street": "86 Avenue", "amenity": "hospital", "building": "yes", "emergency": "yes", "name": "Fort Saskatchewan Community Hospital", "website": "https://www.albertahealthservices.ca/facilities.asp?pid=facility&rid=8274", "wikipedia": "en:Fort Saskatchewan Community Hospital"}}, {"type": "way", "id": 264001200, "center": {"lat": 53.6921422, "lon": -113.211103}, "nodes": [2696791924, 11301502402, 11301502403, 2696791925, 3011506220, 11301502425, 2696791926, 2696791927, 2696791928, 2696791929, 2696791930, 2696791931, 11301502388, 2696791924], "tags": {"amenity": "hospital", "healthcare": "hospital", "name": "Fort Saskatchewan Community Hospital"}}, {"type": "way", "id": 286099009, "center": {"lat": 56.2301789, "lon": -117.3537285}, "nodes": [335992392, 5591372621, 2530050413, 336054495, 4664689716, 4664689713, 2897387349, 2784192923, 2784192836, 2784192768, 2784192670, 2784192610, 2784192677, 2784192885, 2784193102, 2784193179, 2784193188, 2784193146, 2784193094, 2897387350, 2897387351, 2897387352, 2897387353, 335992392], "tags": {"addr:city": "Peace River", "addr:housenumber": "10101", "addr:postcode": "T8S 1T6", "addr:street": "68 Street", "amenity": "hospital", "emergency": "yes", "healthcare": "hospital", "name": "Peace River Community Health Centre", "phone": "+1-780-624-7500", "website": "https://www.albertahealthservices.ca/facilities.asp?pid=facility&rid=1000203", "wheelchair": "yes"}}, {"type": "way", "id": 287613041, "center": {"lat": 53.0152792, "lon": -112.833519}, "nodes": [3646577180, 3646577145, 3646572370, 3646577612, 3646577453, 3646577606, 3646577122, 3646572359, 3646577596, 3646577191, 3646577180], "tags": {"amenity": "hospital", "emergency": "no", "healthcare": "hospital", "name": "Rosehaven Long Term Care Centre"}}, {"type": "way", "id": 290188359, "center": {"lat": 58.513077, "lon": -117.1619031}, "nodes": [2937461028, 2937461029, 2937461030, 2937461031, 2937461033, 2937461034, 2937461035, 2937461036, 2937461028], "tags": {"addr:city": "High Level", "addr:postcode": "T0H 1Z0", "addr:street": "100 Avenue", "amenity": "hospital", "emergency": "yes", "healthcare": "hospital", "name": "Northwest Health Centre"}}, {"type": "way", "id": 292012745, "center": {"lat": 51.8014356, "lon": -114.1182297}, "nodes": [2955232416, 2955232417, 2955232418, 2955232419, 2955232416], "tags": {"addr:city": "Olds", "addr:housenumber": "3901", "addr:postcode": "T4H 1T4", "addr:street": "57 Avenue", "amenity": "hospital", "emergency": "yes", "healthcare": "hospital", "name": "Olds Hospital and Care Centre"}}, {"type": "way", "id": 295394895, "center": {"lat": 52.2604237, "lon": -113.8177702}, "nodes": [4646521141, 4646521142, 2991031648, 4646521143, 4646521144, 4646521145, 4646521146, 4646521147, 4646521148, 4646521149, 4646521150, 4646521151, 4646521153, 4646521154, 4646521152, 4646521123, 4646521124, 4646521125, 4646521126, 4646521127, 4646521128, 4646521129, 4646521130, 4646521131, 4646521132, 4646521133, 4646521134, 4759019331, 4646521135, 4646521136, 4759019329, 4646521137, 4646521138, 4646521139, 4646521140, 4646521141], "tags": {"addr:city": "Red Deer", "addr:housenumber": "3942", "addr:postcode": "T4N 4E7", "addr:street": "50A Avenue", "amenity": "hospital", "emergency": "yes", "healthcare": "hospital", "name": "Red Deer Regional Hospital Centre", "website": "https://www.albertahealthservices.ca/facilities.asp?pid=facility&rid=1000342"}}, {"type": "way", "id": 297381469, "center": {"lat": 53.6553162, "lon": -113.6263697}, "nodes": [3012542183, 9739682030, 2448195000, 2448194985, 2448194989, 2448195043, 2448195107, 2448195041, 3012542177, 9739682031, 3012542178, 3012542179, 3012542180, 3012542181, 9739682033, 9739682027, 9739682026, 3012542182, 3012542183], "tags": {"amenity": "hospital", "healthcare": "hospital", "name": "Sturgeon Community Hospital"}}, {"type": "way", "id": 299393001, "center": {"lat": 53.3985455, "lon": -117.5850832}, "nodes": [3033810479, 3033810484, 3033810485, 3033810486, 3033810487, 3033810488, 3033810489, 3033810490, 3033810491, 3033810492, 3033810493, 3033810494, 3033810495, 3033810496, 3033810497, 3033810498, 3033810499, 3033810500, 3033810501, 3033810479], "tags": {"addr:city": "Hinton", "addr:housenumber": "1280", "addr:street": "Switzer Drive", "amenity": "hospital", "building": "hospital", "name": "Hinton Healthcare Centre"}}, {"type": "way", "id": 306602843, "center": {"lat": 56.7166747, "lon": -111.3616079}, "nodes": [3115712362, 4182267934, 3115712358, 2763403604, 2763403565, 6299222306, 2763403622, 2763403554, 2763403445, 2763403364, 2763403286, 2763403338, 2763403315, 3115712359, 3115712360, 4179325000, 4179325004, 4169821154, 3115712361, 4179330303, 3115712362], "tags": {"amenity": "hospital", "emergency": "yes", "healthcare": "hospital", "name": "Northern Lights Regional Health Centre"}}, {"type": "way", "id": 308916893, "center": {"lat": 53.9486295, "lon": -115.1317217}, "nodes": [353849595, 3142039272, 353608879, 353821010, 353602976, 353820677, 353593748, 353614060, 353604824, 353587161, 3142039268, 353832164, 353826087, 3142041430, 353817388, 353849595], "tags": {"amenity": "hospital", "name": "Mayerthopre Healthcare Centre"}}, {"type": "way", "id": 312524741, "center": {"lat": 52.3237007, "lon": -112.723754}, "nodes": [446199000, 3183865770, 3183865771, 3183871086, 3183865772, 3183865773, 3183865774, 3183871084, 3183865775, 3183865776, 3183865777, 3183865778, 3183871082, 3183865779, 3183865780, 3183865781, 3183865782, 3183865783, 3183865784, 3183865785, 3183865786, 3183865787, 3183865788, 3183865789, 3183865790, 3183865791, 3183865792, 3183865793, 3183865794, 3183865795, 3183865796, 3183865797, 3183865798, 3183865799, 3183865800, 3183865801, 3183865802, 3183865803, 3183865804, 3183865805, 3183865806, 3183865807, 3183865808, 3183865809, 3183865810, 3183865811, 3183871088, 3183865812, 3183865813, 3183865814, 3183865815, 3183865816, 3183865817, 3183865818, 3183871087, 3183865819, 3183865820, 3183865821, 3183865822, 3183865823, 3183865824, 3183865825, 3183865826, 3183865827, 3183865828, 3183865829, 3183865830, 446199000], "tags": {"addr:housenumber": "5912", "addr:street": "47 Avenue", "amenity": "hospital", "building": "hospital", "emergency": "yes", "healthcare": "hospital", "name": "Stettler Regional Healthcare Center"}}, {"type": "way", "id": 313583682, "center": {"lat": 53.9885742, "lon": -111.2904315}, "nodes": [3195832864, 3195832863, 3195832643, 3195832644, 3195832864], "tags": {"amenity": "hospital", "healthcare": "hospital", "name": "St. Paul Health Care Centre"}}, {"type": "way", "id": 314659291, "center": {"lat": 52.651106, "lon": -113.5733283}, "nodes": [357594113, 357594566, 357569788, 357707426, 357567282, 357551930, 357541867, 357678513, 357677290, 357748148, 357540687, 357732116, 357554405, 3207060483, 357698398, 3207060485, 357559007, 357722108, 357745677, 357663133, 357593345, 357641933, 357550948, 357747027, 357576913, 357750138, 357740932, 357545960, 357594113], "tags": {"amenity": "hospital", "name": "Centennial Centre for Mental Health & Brain Injury", "operator": "Alberta Health Services", "toilets:wheelchair": "yes", "website": "https://mentalhealthexcellence.ca/", "wheelchair": "yes"}}, {"type": "way", "id": 314659584, "center": {"lat": 52.6844478, "lon": -113.5893507}, "nodes": [3207064983, 3207064984, 3207064985, 3207064986, 357678083, 357695055, 357660879, 357585223, 357544990, 357634960, 357557713, 3207064983], "tags": {"amenity": "hospital", "emergency": "yes", "name": "Ponoka Hospital & Care Centre"}}, {"type": "way", "id": 318748736, "center": {"lat": 52.9864751, "lon": -113.3680259}, "nodes": [3251203916, 3251203917, 2674298346, 2674298345, 2674298344, 2674298437, 2674298434, 2674298343, 3251203918, 3251203919, 357573536, 8113214280, 357615796, 8113214085, 8113214087, 357621673, 357629126, 3251203916], "tags": {"amenity": "hospital", "emergency": "yes", "name": "Wetaskiwin Hospital & Care Centre"}}, {"type": "way", "id": 322755181, "center": {"lat": 55.327188, "lon": -119.5503322}, "nodes": [3295294514, 3295294509, 3295294520, 3295294518, 3295294513, 3295294525, 3295294517, 3295294522, 3295294512, 3295294516, 3295294526, 3295294511, 3295294523, 3295294524, 3295294527, 3295294519, 3295294510, 3295294528, 3295294515, 3295294529, 3295294530, 3295294521, 3295294514], "tags": {"amenity": "hospital", "building": "hospital", "name": "Intensive Care Home"}}, {"type": "way", "id": 339691950, "center": {"lat": 50.8822636, "lon": -113.9525711}, "nodes": [4368762420, 4368762424, 4368762430, 9276421309, 4368762440, 4368762441, 4368762442, 4368762443, 9307077232, 9307077231, 9307077230, 9307077229, 9307077228, 9307077227, 9307077226, 4368762444, 9307077225, 9307077224, 9307077223, 9307077222, 9307077234, 9307077221, 9307077220, 9307077219, 9307077218, 9307077217, 9307014516, 4368762446, 9307014515, 4368762448, 4368762450, 4368762449, 4368762447, 4368762445, 4368762434, 4368762432, 4368762429, 4368762428, 4368762427, 4368762426, 9276421314, 4368762418, 9233977312, 4139844840, 9276421313, 4368762415, 9276421312, 4368762413, 9307077233, 4368762412, 4368762414, 4368762416, 4368762420], "tags": {"addr:city": "Calgary", "addr:housenumber": "4448", "addr:postcode": "T3M 1M4", "addr:province": "AB", "addr:street": "Front Street SE", "amenity": "hospital", "emergency": "yes", "healthcare": "hospital", "name": "South Health Campus", "website": "https://www.albertahealthservices.ca/shc/shc.aspx", "wikidata": "Q14956882", "wikipedia": "en:South Health Campus"}}, {"type": "way", "id": 345124761, "center": {"lat": 50.5760366, "lon": -113.8794364}, "nodes": [3518177424, 6462583886, 6462583897, 6462583896, 6462583895, 6462583894, 6462583893, 6462583892, 6462583887, 6462617108, 6462617125, 3518177427, 3518177428, 3518177429, 6462617121, 6462617120, 3518177431, 3518177432, 3518177424], "tags": {"addr:city": "High River", "addr:housenumber": "560", "addr:postcode": "T1V 1B3", "addr:street": "9 Avenue SW", "amenity": "hospital", "emergency": "yes", "healthcare": "hospital", "name": "High River General Hospital", "phone": "+1-403-652-2200"}}, {"type": "way", "id": 353992447, "center": {"lat": 52.6402758, "lon": -114.2461426}, "nodes": [3597789608, 3597789609, 3597789610, 3597789611, 3597789612, 1327165388, 4597673986, 3597783777, 2105108953, 3597810692, 3597789613, 3597789616, 3597789608], "tags": {"addr:city": "Rimbey", "addr:housenumber": "5228", "addr:postcode": "T0C 2J0", "addr:street": "50 Avenue", "amenity": "hospital", "emergency": "yes", "healthcare": "hospital", "name": "Rimbey Hospital and Care Centre", "operator": "Alberta Health Services", "operator:short": "AHS", "operator:wikidata": "Q4711650"}}, {"type": "way", "id": 359864162, "center": {"lat": 50.5690654, "lon": -111.8893157}, "nodes": [364454198, 5289066106, 364390491, 5289074073, 3644956895, 3644956888, 3644956889, 3644956890, 3644956891, 364439523, 364434766, 364483459, 364436041, 364454198], "tags": {"amenity": "hospital", "healthcare": "hospital"}}, {"type": "way", "id": 362080622, "center": {"lat": 51.0930742, "lon": -115.3504884}, "nodes": [3664592825, 3664592813, 3664592811, 3664592798, 3664592796, 3664592794, 3664592793, 3664592792, 3664592789, 3664592783, 3664592785, 3664592784, 3664592782, 3664592780, 3664592772, 3664592767, 3664592758, 3664592759, 3664592769, 3664592774, 3664592786, 3664592788, 3664592790, 3664592787, 3664592791, 320600963, 3664592781, 3664592778, 3664592776, 3664592773, 3664592770, 3664592771, 3664592775, 3664592777, 3664592779, 3664592795, 3664592797, 3664592799, 3664592800, 3664592804, 3664592809, 3664592807, 3664592808, 3664592810, 3664592812, 3664592815, 3664592814, 3664592805, 3664592806, 3664592803, 3664592801, 3664592802, 3664592816, 3664592820, 3664592822, 3664592824, 3664592823, 3664592825], "tags": {"addr:housenumber": "1100", "addr:street": "Hospital Place", "amenity": "hospital", "building": "yes", "healthcare": "hospital", "name": "Canmore General Hospital", "opening_hours": "24/7", "website": "https://www.albertahealthservices.ca/findhealth/facility.aspx?id=1000951"}}, {"type": "way", "id": 392497788, "center": {"lat": 55.2137575, "lon": -119.4251617}, "nodes": [3957153078, 3957153089, 3957153079, 3957153085, 3957153081, 3957153083, 3957153082, 3957153077, 3957153088, 3957153076, 3957153084, 3957153087, 3957153080, 3957153086, 3957153078], "tags": {"amenity": "hospital", "building": "hospital", "healthcare": "hospital", "name": "Beaverlodge Hospital"}}, {"type": "way", "id": 394210654, "center": {"lat": 53.39832, "lon": -117.5854443}, "nodes": [3972192612, 3972192613, 3972192614, 11072237723, 3972192615, 11072237731, 11072224789, 3972192616, 5976007666, 3972192617, 3972192618, 3972192619, 3972192612], "tags": {"addr:city": "Hinton", "addr:housenumber": "1280", "addr:postcode": "T7V 1V2", "addr:province": "AB", "addr:street": "Switzer Drive", "amenity": "hospital", "emergency": "yes", "name": "Hinton Healthcare Centre", "operator": "Alberta Health Services", "operator:type": "public", "phone": "+1 780 865 3333"}}, {"type": "way", "id": 399716636, "center": {"lat": 54.468218, "lon": -110.1965097}, "nodes": [4024143709, 4024143649, 10675341075, 4024143648, 4024143708, 4024143709], "tags": {"amenity": "hospital", "emergency": "yes", "healthcare": "hospital", "name": "Cold Lake Healthcare Centre"}}, {"type": "way", "id": 407408952, "center": {"lat": 50.0186244, "lon": -113.5826165}, "nodes": [4094554593, 4094554594, 4094554595, 4094554596, 4094554597, 4094554598, 4094554599, 4094554600, 4094554601, 4094554602, 4094554603, 4094554604, 4094638349, 4094554605, 4094554606, 4094554607, 4094554608, 4094554609, 4094554610, 4094554611, 4094554612, 4094621829, 4094554593], "tags": {"amenity": "hospital", "building": "hospital", "healthcare": "hospital", "name": "Claresholm General Hospital"}}, {"type": "way", "id": 407414651, "center": {"lat": 50.0173044, "lon": -113.5806841}, "nodes": [4319254096, 4319254166, 4319254171, 4319254156, 4319254155, 4319254148, 4319254137, 4319254124, 4319254119, 4319254117, 4319254113, 4319254109, 4319254100, 4319254099, 4319254097, 4319254095, 4319254094, 4319254096], "tags": {"amenity": "hospital", "healthcare": "hospital"}}, {"type": "way", "id": 415817797, "center": {"lat": 50.9908489, "lon": -114.0973582}, "nodes": [4167703463, 4167703464, 4167703465, 4167703466, 5159112005, 4167703467, 4167703468, 4167703469, 5159112006, 4167703470, 5159112007, 5159112008, 4167703471, 5159112013, 5159112012, 4167703472, 4167703473, 4167703474, 5159112014, 4167703475, 4167703476, 4167703477, 4167703478, 5159112015, 4167703479, 4167703480, 4167703481, 4167703482, 4167703484, 4167703485, 4167703486, 4167703487, 4167703488, 4167704089, 4167704090, 4167704091, 4167704092, 4167704093, 4167703463], "tags": {"amenity": "hospital", "name": "Rockyview General Hospital", "wikidata": "Q7356054", "wikipedia:en": "Rockyview General Hospital"}}, {"type": "way", "id": 417292964, "center": {"lat": 57.1816527, "lon": -111.6369914}, "nodes": [4178584382, 4178584381, 4178584378, 4178584377, 4178584374, 4178584375, 4178584370, 4178584371, 4178584372, 4178584373, 4178584380, 4178584379, 4178584382], "tags": {"amenity": "hospital", "building": "hospital", "healthcare": "hospital", "name": "Fort McKay Health Centre", "source": "Bing"}}, {"type": "way", "id": 427630969, "center": {"lat": 53.4617351, "lon": -113.4296542}, "nodes": [4268321290, 4268321291, 4268321313, 283177232, 4268321292, 4268321309, 4268321308, 4268321312, 4268321311, 4268321310, 4268321307, 4268321317, 4268321315, 4268321316, 4268321314, 4268321318, 4268321298, 4268321299, 4268321293, 4268321294, 4247631190, 4268321295, 4268321296, 4268321290], "tags": {"addr:city": "Edmonton", "addr:housenumber": "1100", "addr:postcode": "T6L 5X8", "addr:province": "AB", "addr:street": "Youville Drive West NW", "amenity": "hospital", "emergency": "yes", "healthcare": "hospital", "name": "Grey Nuns Community Hospital", "operator": "Alberta Health Services", "operator:short": "AHS", "operator:type": "government", "operator:wikidata": "Q4711650", "website": "https://www.covenanthealth.ca/hospitals-care-centres/grey-nuns-community-hospital/", "wikidata": "Q5608215", "wikipedia": "en:Grey Nuns Community Hospital"}}, {"type": "way", "id": 436631948, "center": {"lat": 53.2116555, "lon": -114.9694161}, "nodes": [353841478, 353816773, 4345083543, 4345083544, 4345083545, 4345083546, 4345083552, 4345083547, 4345083548, 4345083549, 4345109110, 4345109111, 4345109112, 4345109113, 4345109114, 4345109115, 4345109116, 4345109117, 353860199, 4345119039, 353841478], "tags": {"amenity": "hospital", "emergency": "yes", "name": "Drayton Valley Hospital and Care Centre"}}, {"type": "way", "id": 437655028, "center": {"lat": 52.3239089, "lon": -112.7245019}, "nodes": [7832984794, 4354492720, 7745056446, 3183812021, 3183866015, 357687315, 7775134179, 7818293480, 3183866018, 3183812026, 3183812029, 3183855110, 357696604, 3182249512, 3182245874, 3182249511, 7835527927, 2108342336, 2108342339, 2108342246, 2108342281, 2108342331, 2108342261, 2108342257, 2108342323, 2700631330, 7775134144, 2108342273, 7832984797, 7832984794], "tags": {"amenity": "hospital", "healthcare": "hospital"}}, {"type": "way", "id": 437657944, "center": {"lat": 52.4611245, "lon": -113.7410128}, "nodes": [4523910504, 4523910503, 1556774153, 4523910493, 4523910494, 1556774232, 5763039940, 4523910504], "tags": {"addr:city": "Lacombe", "addr:housenumber": "5430", "addr:postcode": "T4L 1G8", "addr:province": "AB", "addr:street": "47 Avenue", "amenity": "hospital", "emergency": "yes", "healthcare": "hospital", "name": "Lacombe Hospital and Care Centre", "operator": "Alberta Health Services", "operator:short": "AHS", "operator:type": "government", "operator:wikidata": "Q4711650", "operator:wikipedia": "en:Alberta Health Services"}}, {"type": "way", "id": 438183871, "center": {"lat": 54.131196, "lon": -115.6746299}, "nodes": [3140947922, 4359186757, 4359186758, 4359186762, 4359186763, 4359186765, 4359186766, 4359186767, 4359186764, 4359186769, 4359186768, 3140947922], "tags": {"amenity": "hospital", "emergency": "yes", "name": "Whitecourt Healthcare Centre"}}, {"type": "way", "id": 440112554, "center": {"lat": 55.1758677, "lon": -118.78621}, "nodes": [4378161144, 4378161145, 4378161142, 4772483439, 4772483438, 4772483437, 4772483436, 4772483435, 4772483434, 4772483433, 4772483451, 4772483450, 4772483449, 4772483448, 4772483447, 4772483446, 4772483445, 4772483444, 4772483443, 4378161144], "tags": {"amenity": "hospital", "emergency": "yes", "healthcare": "hospital", "name": "Queen Elizabeth II Hospital"}}, {"type": "way", "id": 442496857, "center": {"lat": 55.066345, "lon": -117.2739674}, "nodes": [6615228513, 6615228528, 6615228529, 345085515, 345050707, 4401768717, 6615228523, 6615228522, 6615228520, 6615228518, 6615228516, 6615228517, 6615228513], "tags": {"amenity": "hospital", "healthcare": "hospital", "name": "Valleyview Health Centre"}}, {"type": "way", "id": 443448329, "center": {"lat": 54.7645736, "lon": -111.9645776}, "nodes": [4410325170, 4410325171, 4410325172, 4410325173, 363048981, 363040365, 363052862, 4410325174, 4410325175, 4410325176, 4410325177, 4412237207, 4410325170], "tags": {"addr:city": "Hamlet of Lac la Biche", "addr:housenumber": "9110", "addr:postcode": "T0A 2C0", "addr:province": "AB", "addr:street": "93 Street", "amenity": "hospital", "healthcare": "hospital", "name": "William J. Cadzow - Lac La Biche Healthcare Centre"}}, {"type": "way", "id": 451427194, "center": {"lat": 54.718029, "lon": -113.2556627}, "nodes": [4482597381, 4482597382, 4482597383, 4482597384, 4482597385, 4482597595, 345447099, 4482597589, 345257607, 345255762, 345255112, 4482597386, 4482597387, 7169872626, 4482597381], "tags": {"addr:city": "Athabasca", "addr:postcode": "T9S 1M9", "addr:street": "3100 48 Ave", "alt_name": "Athabasca Healthcare Centre", "amenity": "hospital", "emergency": "yes", "healthcare": "hospital", "name": "Athabasca Hospital", "phone": "+1-780-675-6000", "toilets:wheelchair": "yes", "wheelchair": "yes"}}, {"type": "way", "id": 457146687, "center": {"lat": 53.6363295, "lon": -113.3738405}, "nodes": [4533367834, 4533367835, 4533367836, 4533367837, 4533367841, 4533367842, 4533367845, 4533367846, 4533367847, 4533367843, 4533367844, 4533367838, 4380775064, 5785306067, 9995382302, 9995382301, 1940948558, 4533367840, 3146852927, 9995382299, 4533367839, 4533367834], "tags": {"addr:city": "Edmonton", "addr:housenumber": "17480", "addr:postcode": "T5J 2J7", "addr:province": "AB", "addr:street": "Fort Road NW", "amenity": "hospital", "beds": "410", "emergency": "no", "healthcare": "hospital", "name": "Alberta Hospital Edmonton", "operator": "Alberta Health Services", "operator:short": "AHS", "operator:wikidata": "Q4711650", "phone": "+1-780-342-5555", "social_facility:for": "mental_health", "website": "https://www.albertahealthservices.ca/info/facility.aspx?id=6337", "wikidata": "Q4711754", "wikipedia": "en:Alberta Hospital Edmonton"}}, {"type": "way", "id": 458700227, "center": {"lat": 53.5571045, "lon": -113.4975777}, "nodes": [4546596662, 4546596663, 4546596670, 6501293860, 4546596666, 4546596668, 4546596667, 4546596665, 5949059438, 5949059432, 5949059433, 5949059434, 5949059436, 5949059435, 5949059423, 5949059422, 4546596664, 4546596662], "tags": {"addr:city": "Edmonton", "addr:housenumber": "10240", "addr:postcode": "T5H 3V9", "addr:street": "Kingsway NW", "amenity": "hospital", "emergency": "yes", "healthcare": "hospital", "name": "Royal Alexandra Hospital", "operator": "Alberta Health Services", "operator:short": "AHS", "operator:type": "public", "operator:wikidata": "Q4711650", "toilets:wheelchair": "yes", "website": "https://www.albertahealthservices.ca/findhealth/facility.aspx?id=6598", "wheelchair": "yes", "wheelchair:description": "Wheelchair accessible toilets are extremely limited (2) and are often filthy. None of the patient care rooms or wards have any accessible toilets.", "wikidata": "Q7373655", "wikipedia": "en:Royal Alexandra Hospital, Edmonton"}}, {"type": "way", "id": 479809452, "center": {"lat": 53.7628284, "lon": -112.7877316}, "nodes": [356777879, 9753219781, 9753219778, 356777374, 9753219765, 356780106, 356781120, 9753219849, 356780433, 9753219847, 356784199, 9753219848, 9753219880, 356797525, 9753219846, 9753219845, 356797116, 9753219844, 9753219843, 356779454, 9753219842, 9753219841, 9753219840, 356782554, 9753219839, 9753219838, 9753219837, 9753260263, 4728529789, 356776696, 9753219836, 9753219835, 356805713, 9753219834, 9753219833, 356784212, 356777879], "tags": {"amenity": "hospital", "healthcare": "hospital", "name": "Lamont Health Care Centre"}}, {"type": "way", "id": 511908434, "center": {"lat": 52.3578817, "lon": -110.2646661}, "nodes": [5006449058, 5006449059, 5006449060, 5006449061, 5006449062, 5006449063, 5006449064, 5006449065, 5006449066, 5006449067, 5006449068, 5006449069, 5006449070, 5006449071, 5006449072, 5006449073, 5006449074, 5006449075, 5006449076, 5006449077, 5006449078, 5006449079, 5006449080, 5006449081, 5006449082, 5006449083, 5006449084, 5006449085, 5006449086, 5006449087, 5006449088, 5006449089, 5006449090, 5006449091, 5006449092, 5006449093, 5006449094, 5006449095, 5006449096, 5006449097, 5006449098, 5006449099, 5006449100, 5006449101, 5006449102, 5006449103, 5006449104, 5006449105, 5006449106, 5006449107, 5006449108, 5006449109, 5006449110, 5006449111, 5006449112, 5006449113, 5006449058], "tags": {"amenity": "hospital", "building": "hospital", "healthcare": "hospital", "name": "Provost Hospital"}}, {"type": "way", "id": 515764943, "center": {"lat": 53.559983, "lon": -113.4974481}, "nodes": [5036229902, 5272565102, 5272565101, 5272565100, 5949078356, 5949078358, 5949078355, 5949078354, 5949078353, 5949078350, 5949078349, 5949078348, 5949078347, 5036229905, 5036229902], "tags": {"addr:city": "Edmonton", "addr:housenumber": "10230", "addr:postcode": "T5G 0B7", "addr:province": "AB", "addr:street": "111 Avenue NW", "amenity": "hospital", "emergency": "no", "healthcare": "hospital", "healthcare:speciality": "physiatry", "name": "Glenrose Rehabilitation Hospital", "operator": "Alberta Health Services", "operator:short": "AHS", "operator:type": "government", "operator:wikidata": "Q4711650", "operator:wikipedia": "en:Alberta Health Services", "phone": "+1-780-735-7999", "website": "https://www.albertahealthservices.ca/grh/grh.aspx", "wikidata": "Q5569291", "wikipedia": "en:Glenrose Rehabilitation Hospital", "wikipedia:en": "Glenrose Rehabilitation Hospital"}}, {"type": "way", "id": 527876484, "center": {"lat": 53.4598656, "lon": -113.5060555}, "nodes": [251852000, 251851999, 5361684695, 5131085538, 5131085548, 251852001, 251852000], "tags": {"amenity": "hospital", "healthcare": "hospital", "name": "Covenant Health St. Joseph\u2019s Auxiliary Hospital", "operator": "Covenant Health", "operator:wikidata": "Q5178995"}}, {"type": "way", "id": 528259023, "center": {"lat": 53.4472026, "lon": -113.5031151}, "nodes": [5134150604, 1977983173, 1977983032, 1977982885, 1977982960, 5270417307, 1910995152, 5134150598, 5134150605, 6838707090, 5134150604], "tags": {"amenity": "hospital", "healthcare": "hospital"}}, {"type": "way", "id": 533286464, "center": {"lat": 53.5217454, "lon": -113.6115798}, "nodes": [5353167649, 5173962140, 5173962141, 5173962142, 5173962143, 5173962144, 5173962145, 5353167645, 5353167646, 5353167647, 5353167648, 6101512164, 5353167649], "tags": {"addr:city": "Edmonton", "addr:housenumber": "16940", "addr:postcode": "T5R 4H5", "addr:province": "AB", "addr:street": "87 Avenue", "amenity": "hospital", "emergency": "yes", "healthcare": "hospital", "name": "Misericordia Community Hospital", "operator": "Alberta Health Services", "operator:short": "AHS", "operator:type": "government", "operator:wikidata": "Q4711650", "wikidata": "Q6875334", "wikipedia": "en:Misericordia Community Hospital"}}, {"type": "way", "id": 533680165, "center": {"lat": 58.4649242, "lon": -114.5334395}, "nodes": [5177213231, 5177213225, 5177213233, 5177213227, 5177213238, 5177213229, 5177213240, 5177213230, 5177213237, 5177213228, 5177213239, 5177213236, 5177213226, 5177213232, 5177213234, 5177213235, 5177213224, 5177213231], "tags": {"addr:city": "Fox Lake", "addr:postcode": "T0H 1R0", "addr:street": "Main Road", "amenity": "hospital", "building": "hospital", "healthcare": "hospital", "name": "Fox Lake Nursing Station", "operator": "Government of Alberta"}}, {"type": "way", "id": 538930263, "center": {"lat": 53.897919, "lon": -110.9068134}, "nodes": [5215703197, 5215703196, 5215703195, 5215703194, 5215703193, 5215703192, 5215703191, 5215703190, 5215703189, 5215703188, 5215703187, 5215703186, 5215703185, 5215703184, 5215703183, 5215703182, 5215703181, 5215703180, 5215703179, 5215703178, 5215703177, 5215703176, 5215703175, 5215703174, 5215703173, 5215703172, 5215703197], "tags": {"amenity": "hospital", "building": "hospital", "name": "Elk Point Healthcare Centre"}}, {"type": "way", "id": 539715268, "center": {"lat": 55.7103919, "lon": -116.914283}, "nodes": [5222085160, 5222085159, 5222085158, 5222085157, 5222085156, 5222085160], "tags": {"addr:housenumber": "350", "addr:street": "3 Street W", "amenity": "hospital", "healthcare": "hospital", "name": "Sacred Heart Community Health Centre"}}, {"type": "way", "id": 539994223, "center": {"lat": 55.776903, "lon": -118.8386067}, "nodes": [5224663596, 5224663611, 5224663610, 5224663595, 5224663609, 5224663608, 5224663594, 5224663606, 5224663605, 5224663597, 5224663603, 5224663604, 5224663600, 5224663601, 5224663602, 5224663599, 5224663598, 5224663607, 5224663596], "tags": {"amenity": "hospital", "building": "hospital", "name": "Central Peace Health Complex"}}, {"type": "way", "id": 540509696, "center": {"lat": 53.9885982, "lon": -111.2903998}, "nodes": [5229013215, 5229013217, 5229013216, 5229013200, 5229013201, 5229013199, 5229014721, 5229013218, 5229014726, 5229013214, 5229014724, 5229013202, 5229014722, 5229014723, 5229013203, 5229014725, 5229014727, 5229014728, 5229013204, 5229013207, 5229013206, 5229013205, 5229013208, 5229014732, 5229014730, 5229014731, 5229013209, 5229014729, 5229013210, 5229013212, 5229013219, 5229013220, 5229013213, 5229013211, 5229013215], "tags": {"amenity": "hospital", "building": "hospital", "healthcare": "hospital", "name": "St. Paul Health Care Centre"}}, {"type": "way", "id": 540685667, "center": {"lat": 52.009716, "lon": -110.7819043}, "nodes": [5230306947, 5230306946, 5230306945, 5230306944, 5230306947], "tags": {"amenity": "hospital", "healthcare": "hospital"}}, {"type": "way", "id": 541046130, "center": {"lat": 53.3553424, "lon": -110.8722482}, "nodes": [5232739609, 5232739611, 5232739934, 5232739923, 5232739927, 5232739614, 5232739931, 5232739932, 5232739616, 5232739925, 5232739928, 5232739929, 5232739926, 7096902827, 7096902824, 7096902825, 7096902826, 5232739945, 5232739944, 7096902828, 7096902829, 5232739924, 5232739942, 7096902831, 7096902830, 5232739941, 5232739617, 5232739930, 5232739921, 7096903252, 7096903251, 7096903250, 7096903249, 5232739943, 5232739618, 7096902844, 5232739933, 5232739612, 5232739610, 5232739613, 5232739937, 7096902834, 7096902833, 7096902832, 7096902835, 5232739939, 7096902837, 7096902836, 5232739938, 7096902838, 7096902839, 5232739936, 7096902842, 7096902840, 7096902841, 7096902843, 5232739935, 5232739609], "tags": {"amenity": "hospital", "building": "hospital", "emergency": "yes", "name": "Vermilion Hospital"}}, {"type": "way", "id": 542589531, "center": {"lat": 50.0177877, "lon": -113.579561}, "nodes": [5245713442, 5245713445, 5245713444, 5245713443, 5245713491, 5245713496, 5245713495, 5245713492, 5245713497, 5245713498, 5245713494, 5245713499, 5245713500, 5245713493, 5245713487, 5245713507, 5245713546, 5245713509, 5245713548, 5245713549, 5245713511, 5245713542, 5245713513, 5245713518, 5245713541, 5245713521, 5245713523, 5245713533, 5245713514, 5245713531, 5245713532, 5245713515, 5245713535, 5245713526, 5245713536, 5245713537, 5245713527, 5245713524, 5245713538, 5245713539, 5245713525, 5245713534, 5245713517, 5245713530, 5245713516, 5245713529, 5245713528, 5245713522, 5245713520, 5245713540, 5245713519, 5245713544, 5245713543, 5245713512, 5245713547, 5245713510, 5245713508, 5245713545, 5245713488, 5245713489, 5245713506, 5245713505, 5245713485, 5245713504, 5245713503, 5245713486, 5245713502, 5245713501, 5245713490, 5245713442], "tags": {"amenity": "hospital", "building": "hospital", "healthcare": "hospital", "name": "Claresholm Centre for Mental Health & Addictions"}}, {"type": "way", "id": 545497245, "center": {"lat": 53.5070746, "lon": -113.4781295}, "nodes": [5272148076, 5272148077, 5272148078, 5272148079, 5272148076], "tags": {"amenity": "hospital", "healthcare": "hospital"}}, {"type": "way", "id": 547492771, "center": {"lat": 50.0357009, "lon": -110.7040287}, "nodes": [5290201768, 5350777622, 5350777623, 5350777942, 5350777943, 2671033690, 2671033691, 5350777621, 5290201772, 5350777644, 5290201770, 5350777643, 5350777642, 5290201775, 5350777639, 5350777638, 5290201769, 5350777636, 5290201767, 5350777637, 5290201762, 5350777635, 5290201766, 5350777634, 5290201765, 5350777633, 5350777632, 5290201764, 5350777631, 5350777630, 5290201763, 5350777520, 5290201768], "tags": {"amenity": "hospital", "emergency": "yes", "healthcare": "hospital", "name": "Medicine Hat Regional Hospital", "source": "Alberta Health Services (http://www.albertahealthservices.ca/facilities.asp?pid=facility&rid=1000474)", "website": "https://www.albertahealthservices.ca/facilities.asp?pid=facility&rid=1000474"}}, {"type": "way", "id": 547556986, "center": {"lat": 56.1902893, "lon": -117.6265893}, "nodes": [5290866712, 5290866713, 5290866714, 5290866715, 5290866716, 5290866717, 5290866718, 5290866719, 5290866720, 5290866721, 5290866712], "tags": {"amenity": "hospital", "emergency": "yes", "healthcare": "hospital", "name": "Grimshaw/Berwyn Community Health Centre", "operator": "Alberta Health Services"}}, {"type": "way", "id": 552174043, "center": {"lat": 53.5024463, "lon": -113.7588131}, "nodes": [5331541154, 5331541146, 5331541147, 5331541148, 5331541154], "tags": {"amenity": "hospital", "healthcare": "hospital", "name": "Enoch Health Centre"}}, {"type": "way", "id": 557205350, "center": {"lat": 53.458589, "lon": -113.4224241}, "nodes": [891136771, 5374180902, 5374180901, 5374180900, 5374180905, 5374180906, 5374180907, 5374180897, 5374180908, 891136771], "tags": {"amenity": "hospital", "healthcare": "hospital", "name": "Allen Gray Continuing Care Centre"}}, {"type": "way", "id": 557669405, "center": {"lat": 53.480384, "lon": -113.5067025}, "nodes": [5140066166, 5378084330, 5378084327, 5378084333, 5378084334, 5653843217, 5140066145, 5140066166], "tags": {"amenity": "hospital", "healthcare": "hospital", "name": "Good Samaritan Southgate Care Centre"}}, {"type": "way", "id": 558393794, "center": {"lat": 53.5243611, "lon": -113.6118063}, "nodes": [5384867623, 5384867631, 881638409, 5384867630, 5384867623], "tags": {"amenity": "hospital", "healthcare": "hospital", "name": "Jasper Place Continuing Care Centre"}}, {"type": "way", "id": 571155469, "center": {"lat": 53.5407984, "lon": -113.5986752}, "nodes": [5490011813, 5490011814, 5490011815, 5490011816, 5490011817, 5490011818, 5490011813], "tags": {"addr:city": "Edmonton", "addr:street": "Stony Plain Road NW", "amenity": "hospital", "healthcare": "hospital", "name": "Glenwood Health Centre"}}, {"type": "way", "id": 593214721, "center": {"lat": 53.4987213, "lon": -113.5425339}, "nodes": [279958669, 5659813251, 5659813252, 279958672, 279958669], "tags": {"amenity": "hospital", "healthcare": "hospital"}}, {"type": "way", "id": 626066901, "center": {"lat": 53.5417974, "lon": -113.4305253}, "nodes": [5910750948, 5280269460, 8076059813, 8076059814, 8076059815, 5280269459, 8076059816, 5280269458, 5910750949, 5910750948], "tags": {"amenity": "hospital", "healthcare": "hospital"}}, {"type": "way", "id": 627825171, "center": {"lat": 53.5955449, "lon": -113.5395598}, "nodes": [5926995249, 5926995250, 5926995251, 5926995252, 5926995253, 5926995254, 5926995255, 5926995244, 5926995249], "tags": {"amenity": "hospital", "healthcare": "hospital", "name": "Shepherd's Wellness Centre"}}, {"type": "way", "id": 631154183, "center": {"lat": 53.6040502, "lon": -113.417212}, "nodes": [5960316786, 5960316787, 5960316788, 5960316789, 5960316790, 5960316791, 5960316786], "tags": {"amenity": "hospital", "healthcare": "hospital", "name": "Northeast Community Health Centre", "wikidata": "Q7057862", "wikipedia:en": "Northeast Community Health Centre"}}, {"type": "way", "id": 631442835, "center": {"lat": 53.6054903, "lon": -113.4161804}, "nodes": [5929300814, 5963274913, 5963274914, 5963274915, 5929300813, 5929300814], "tags": {"amenity": "hospital", "healthcare": "hospital", "name": "Miller Crossing Long Term Care"}}, {"type": "way", "id": 634299730, "center": {"lat": 53.4996458, "lon": -113.5069677}, "nodes": [5986265523, 5683629849, 5683629850, 5986265522, 5986265523], "tags": {"amenity": "hospital", "healthcare": "hospital"}}, {"type": "way", "id": 669630655, "center": {"lat": 50.9527216, "lon": -114.1626739}, "nodes": [6270824936, 6270824937, 6270824938, 6270824939, 6270824940, 6270824936], "tags": {"addr:city": "Tsuut\u02bcina Nation", "addr:housenumber": "72", "addr:province": "AB", "addr:street": "Bullhead Road", "amenity": "hospital", "fax": "+1-403-251-1627", "healthcare": "hospital", "name": "Tsuu T'ina Health Centre", "operator": "Tsuut'ina Nation", "operator:type": "government", "phone": "+1-403-251-7575"}}, {"type": "way", "id": 677166591, "center": {"lat": 53.8047643, "lon": -113.9182841}, "nodes": [6340690574, 9719721073, 9719721057, 9719721072, 6340690575, 6340690576, 6340690577, 6340690574], "tags": {"amenity": "hospital", "healthcare": "hospital", "name": "Alexander Health Centre"}}, {"type": "way", "id": 680652519, "center": {"lat": 53.5368544, "lon": -113.909029}, "nodes": [6373432813, 6373432812, 6373432808, 6373432809, 6373432811, 10882587993, 6373432810, 6373432813], "tags": {"addr:city": "Spruce Grove", "addr:housenumber": "205", "addr:postcode": "T7X 3A8", "addr:province": "AB", "addr:street": "Diamond Avenue", "amenity": "hospital", "healthcare": "hospital", "name": "Spruce Grove Health Centre", "operator": "Alberta Health Services", "operator:short": "AHS", "operator:type": "public", "operator:wikidata": "Q4711650", "operator:wikipedia": "en:Alberta Health Services"}}, {"type": "way", "id": 684676062, "center": {"lat": 50.8435686, "lon": -113.0455932}, "nodes": [6415218487, 6415218488, 6415218489, 6415218490, 6415218487], "tags": {"amenity": "hospital", "healthcare": "hospital", "name": "Siksika Health Services"}}, {"type": "way", "id": 696495495, "center": {"lat": 50.2566885, "lon": -119.2711548}, "nodes": [6540679200, 6540679201, 6540679202, 6540679203, 6540679204, 6540679205, 6540679206, 6540679207, 6540679208, 6540679209, 5258063060, 6540679210, 6540679211, 6540679212, 6540679213, 5258063065, 1564497451, 1564497672, 6540679215, 6540679216, 6540679217, 6540679218, 6540679219, 6540679220, 6540679221, 6540679222, 6540679200], "tags": {"amenity": "hospital", "emergency": "yes", "healthcare": "hospital", "name": "Vernon Jubilee Hospital", "operator": "Interior Health"}}, {"type": "way", "id": 697173053, "center": {"lat": 53.5205182, "lon": -113.5231902}, "nodes": [6547956605, 6547956606, 6547956607, 2191916480, 2191916580, 2191916579, 2191916578, 2191916577, 2191916576, 1989823908, 2191916575, 8605141943, 654276764, 6547956608, 6547956609, 6547956610, 6547956611, 6547956612, 6547956613, 6547956614, 6547956615, 4317819767, 4317819747, 7700128136, 6547956616, 6547956617, 6547956618, 6547956619, 6547956620, 8691338474, 8691338490, 6547956605], "tags": {"amenity": "hospital", "healthcare": "hospital", "name": "University of Alberta Hospital", "wikidata": "Q7895046", "wikipedia": "en:University of Alberta Hospital"}}, {"type": "way", "id": 702279447, "center": {"lat": 53.6489963, "lon": -113.3769491}, "nodes": [6594906107, 6594906108, 6594906109, 6594906111, 6594906110, 6594906107], "tags": {"amenity": "hospital", "healthcare": "hospital", "name": "Henwood Treatment Centre"}}, {"type": "way", "id": 763450913, "center": {"lat": 55.9429641, "lon": -113.8018574}, "nodes": [7133861011, 7133861012, 7133861013, 7133861014, 7133861011], "tags": {"addr:city": "Wabasca-Desmarais", "addr:housenumber": "881", "addr:postcode": "T0G 2K0", "addr:province": "Alberta", "addr:street": "Mistassiniy Road", "amenity": "hospital", "healthcare": "hospital", "name": "Wabasca-Desmarais Health Care Centre", "operator": "Alberta Health Services", "operator:type": "public"}}, {"type": "way", "id": 765551471, "center": {"lat": 53.3512143, "lon": -113.7301071}, "nodes": [7149943499, 1924767704, 1924767706, 1924767695, 1924767700, 7149943502, 7149943501, 7149943500, 7149943499], "tags": {"addr:city": "Devon", "addr:housenumber": "101", "addr:postcode": "T9G 0A6", "addr:province": "AB", "addr:street": "Erie Street South", "amenity": "hospital", "emergency": "yes", "healthcare": "hospital", "healthcare:speciality": "general", "name": "Devon General Hospital", "operator": "Alberta Health Services", "operator:short": "AHS", "operator:type": "government", "operator:wikidata": "Q4711650", "wikidata": "Q5267720", "wikipedia": "en:Devon General Hospital"}}, {"type": "way", "id": 767313197, "center": {"lat": 55.3278199, "lon": -119.5501995}, "nodes": [3957388883, 7164293461, 7164293462, 7164293464, 3957388885, 3957388872, 3957388883], "tags": {"amenity": "hospital", "healthcare": "hospital"}}, {"type": "way", "id": 795395427, "center": {"lat": 53.9703434, "lon": -111.694235}, "nodes": [7439372179, 7439372180, 7439372181, 7439372182, 7439372179], "tags": {"amenity": "hospital", "healthcare": "hospital", "name": "Saddle Lake Health Services"}}, {"type": "way", "id": 956331707, "center": {"lat": 50.7900154, "lon": -112.4616996}, "nodes": [8850710914, 8850710922, 8850710927, 8850710928, 8850710929, 8850710930, 8850710923, 8850710924, 8850710933, 8850710931, 8850710925, 8850710911, 8850710912, 8850710913, 8850710926, 8850710914], "tags": {"amenity": "hospital", "healthcare": "hospital"}}, {"type": "way", "id": 970690727, "center": {"lat": 55.4314108, "lon": -116.4554986}, "nodes": [8983802131, 8983802173, 8983802126, 8983802148, 8983802168, 8983802121, 8983802143, 8983802131], "tags": {"addr:city": "High Prairie", "addr:housenumber": "5101", "addr:postcode": "T0G 1E0", "addr:province": "AB", "addr:street": "38 Street", "amenity": "hospital", "healthcare": "hospital", "name": "High Prairie Health Complex", "operator": "Alberta Health Services", "operator:short": "AHS", "operator:type": "public", "operator:wikidata": "Q4711650", "operator:wikipedia": "en:Alberta Health Services"}}, {"type": "way", "id": 992634649, "center": {"lat": 53.9499814, "lon": -113.1263142}, "nodes": [9171108306, 9171108307, 9171108308, 9171108309, 9171108306], "tags": {"amenity": "hospital", "healthcare": "hospital"}}, {"type": "way", "id": 1040332972, "center": {"lat": 51.0412033, "lon": -114.0728688}, "nodes": [9579045003, 9579045002, 9579045001, 9579045000, 9579045003], "tags": {"addr:housenumber": "1213", "addr:postcode": "T2R 0X7", "addr:street": "4 Street SW", "amenity": "hospital", "description": "This facility provides 24/7 care for people with injuries or illnesses that are not life threatening. Other healthcare services have limited hours.", "emergency": "no", "healthcare": "hospital", "internet_access": "wlan", "internet_access:ssid": "healthspot", "name": "Sheldon M. Chumir Health Centre", "operator": "Alberta Health Services", "operator:short": "AHS", "operator:type": "public", "operator:wikidata": "Q4711650", "operator:wikipedia": "en:Alberta Health Services", "phone": "+1 403 955 6200", "website": "https://www.albertahealthservices.ca/findhealth/facility.aspx?id=1018406", "wheelchair": "yes", "wikidata": "Q7493529", "wikipedia": "en:Sheldon M. Chumir Centre"}}, {"type": "way", "id": 1050394978, "center": {"lat": 50.6777735, "lon": -114.2347214}, "nodes": [9652760395, 9652760394, 9652760393, 9652760392, 9652760391, 9652760395], "tags": {"amenity": "hospital", "emergency": "yes", "healthcare": "hospital", "name": "Oilfields General Hospital"}}, {"type": "way", "id": 1051904832, "center": {"lat": 52.0195018, "lon": -113.9516813}, "nodes": [9666650280, 9666650279, 9666650278, 9666650277, 9666650280], "tags": {"amenity": "hospital", "healthcare": "hospital", "name": "Innisfail Health Centre"}}, {"type": "way", "id": 1055123616, "center": {"lat": 52.2716329, "lon": -113.7852697}, "nodes": [9695476926, 9695472713, 9695472712, 9695472711, 9695472710, 2259729693, 2259729699, 2259729683, 2259729718, 2259729714, 1389941223, 1389941233, 1389941196, 1389941219, 1389941179, 1389941172, 1389941224, 1389941215, 1389941212, 1389941207, 1389941205, 1389941182, 1389941193, 1389941194, 1389941234, 1389941188, 1389941186, 1389941180, 1389941176, 1389941204, 1389941200, 1389941225, 1389941208, 1389941174, 1389941190, 1389941203, 9695472716, 9695476917, 9695476918, 9695476919, 9695476920, 9695476950, 9695476951, 9695476952, 9695476921, 9695476922, 9695476923, 9695476924, 9695476925, 9695476926], "tags": {"amenity": "hospital", "healthcare": "hospital", "name": "Michener Centre South"}}, {"type": "way", "id": 1058380339, "center": {"lat": 54.1476354, "lon": -113.8540441}, "nodes": [9725346885, 9725346886, 9725346887, 9725346888, 9725346889, 9725346890, 9725346891, 9725346892, 9725346893, 9725346894, 9725346895, 9725346896, 9725271310, 9725346885], "tags": {"amenity": "hospital", "healthcare": "hospital"}}, {"type": "way", "id": 1062449065, "center": {"lat": 54.1210416, "lon": -112.4650495}, "nodes": [9760555933, 9760555934, 9760555935, 9760555936, 9760555937, 9760555938, 9760555939, 9760555933], "tags": {"amenity": "hospital", "healthcare": "hospital"}}, {"type": "way", "id": 1063783326, "center": {"lat": 54.7269918, "lon": -115.4028933}, "nodes": [9771039133, 9771039134, 9771039135, 9771039136, 9771039137, 9771039138, 9771039139, 9771039140, 9771039141, 9771039133], "tags": {"addr:city": "Swan Hills", "addr:housenumber": "29", "addr:postcode": "T0G 2C0", "addr:province": "AB", "addr:street": "Freeman Drive", "amenity": "hospital", "healthcare": "hospital", "name": "Swan Hills Healthcare Centre"}}, {"type": "way", "id": 1064638315, "center": {"lat": 52.3784045, "lon": -114.920466}, "nodes": [9777632342, 9777632341, 9777632340, 9777632339, 4247872587, 11110904228, 9777632342], "tags": {"addr:city": "Rocky Mountain House", "addr:housenumber": "5016", "addr:postcode": "T4T 1T2", "addr:province": "Alberta", "addr:street": "52 Avenue", "amenity": "hospital", "healthcare": "hospital", "name": "Rocky Mountain House Health Centre"}}, {"type": "way", "id": 1112114810, "center": {"lat": 53.5398766, "lon": -113.5130306}, "nodes": [10174340728, 10174340725, 10174340724, 10174340729, 10174340727, 10174340726, 10174340728], "tags": {"amenity": "hospital", "healthcare": "hospital"}}, {"type": "way", "id": 1113441769, "center": {"lat": 52.699792, "lon": -115.3400565}, "nodes": [10186735884, 10186735885, 10186735886, 10186735887, 10186735888, 10186735889, 10186735890, 10186735891, 10186735892, 10186735893, 10186735894, 10186735895, 10186735884], "tags": {"amenity": "hospital", "healthcare": "hospital", "name": "Sunchild Health Center"}}, {"type": "way", "id": 1113478196, "center": {"lat": 52.7091949, "lon": -115.2730321}, "nodes": [10187001649, 10187001650, 10187001651, 10187001652, 10187001653, 10187001654, 10187001655, 10187001656, 10187001657, 10187001658, 10187001659, 10187001660, 10187001661, 10187001662, 10187001663, 10187001664, 10187001665, 10187001666, 10187001667, 10187001668, 10187001669, 10187001670, 10187001671, 10187001672, 10187001673, 10187001674, 10187001675, 10187001676, 10187001677, 10187001678, 10187001679, 10187001680, 10187001649], "tags": {"amenity": "hospital", "building": "yes", "healthcare": "hospital", "name": "O' Chiese Health Center"}}, {"type": "way", "id": 1116010135, "center": {"lat": 51.1791637, "lon": -115.5761555}, "nodes": [10207412216, 10207419017, 10308261526, 10207419018, 10308261527, 10207419019, 10308261528, 10308261529, 10308261530, 10308261531, 10207419020, 10207419021, 10207419022, 10207419023, 8887269858, 8887269859, 8887269860, 8887269861, 8887269862, 8887269863, 8887269864, 8887269853, 10308261525, 10308261551, 10207412216], "tags": {"amenity": "hospital", "healthcare": "hospital", "name": "Mineral Springs Hospital", "phone": "+1-403-762-2222"}}, {"type": "way", "id": 1116902588, "center": {"lat": 52.8411835, "lon": -110.8664469}, "nodes": [10214796591, 4786033373, 616329485, 10214796589, 10214796590, 10214796591], "tags": {"amenity": "hospital", "healthcare": "hospital"}}, {"type": "way", "id": 1119874678, "center": {"lat": 54.2637254, "lon": -110.7395602}, "nodes": [9279276233, 9279276234, 9278833318, 4182420727, 10242556636, 4182420568, 9280833231, 7715022547, 9275409000, 7715022546, 7715022541, 7715022540, 9296104437, 9287546180, 9296104425, 9296104486, 9296104487, 9280557474, 9279276232, 4182420699, 9279276233], "tags": {"amenity": "hospital", "healthcare": "hospital", "name": "Bonnyville Health Centre"}}, {"type": "way", "id": 1133907037, "center": {"lat": 55.2135887, "lon": -119.4256558}, "nodes": [10571099935, 10571351290, 10571351291, 10571099939, 10571099938, 10571099937, 10571099936, 10571099935], "tags": {"amenity": "hospital", "healthcare": "hospital"}}, {"type": "way", "id": 1134380931, "center": {"lat": 52.788356, "lon": -111.8591281}, "nodes": [10575469829, 10575469830, 10575469831, 10575469832, 10575469833, 10575469829], "tags": {"addr:city": "Killam", "addr:housenumber": "5203", "addr:postcode": "T0B 2L0", "addr:province": "AB", "addr:street": "48 Avenue", "amenity": "hospital", "emergency": "yes", "healthcare": "hospital", "name": "Killam Health Care Centre", "operator": "Covenant Health", "operator:wikidata": "Q5178995"}}, {"type": "way", "id": 1134731727, "center": {"lat": 52.0962719, "lon": -111.4587963}, "nodes": [10578485933, 10578485934, 10578485935, 10578485936, 10578485937, 10578485933], "tags": {"amenity": "hospital", "healthcare": "hospital"}}, {"type": "way", "id": 1172830916, "center": {"lat": 54.1188384, "lon": -114.4004681}, "nodes": [10897189616, 10897189637, 10897189617, 10897189618, 10897189619, 10897189620, 10897189621, 10897189622, 10897189616], "tags": {"amenity": "hospital", "healthcare": "hospital"}}, {"type": "way", "id": 1172837796, "center": {"lat": 53.3724364, "lon": -112.6511931}, "nodes": [10897242570, 10897242571, 10897242572, 10897242573, 10897242574, 10897242575, 10897242576, 10598327150, 10598327149, 10598327148, 10598327147, 10598327146, 10598327145, 10598327144, 10598327143, 10598327142, 10598327141, 10598327140, 10598327139, 10598327138, 10598327137, 10598327136, 10598327135, 10598327134, 10598327133, 10598327132, 10897242570], "tags": {"amenity": "hospital", "healthcare": "hospital"}}, {"type": "way", "id": 1173091731, "center": {"lat": 53.5373345, "lon": -113.9767652}, "nodes": [10899660396, 10899660397, 10899660398, 10899660399, 7010402166, 7010402165, 7010402164, 7010402163, 5876983531, 5876983532, 5876983533, 5876983534, 5876983535, 5876983536, 10612934920, 10612934923, 10612934933, 10899660396], "tags": {"amenity": "hospital", "healthcare": "hospital"}}, {"type": "way", "id": 1184111614, "center": {"lat": 52.2239281, "lon": -111.9076348}, "nodes": [10996424833, 10996424834, 10996424835, 10996424836, 10996424837, 10996424838, 10996424839, 10996424833], "tags": {"amenity": "hospital", "healthcare": "hospital"}}, {"type": "way", "id": 1200583936, "center": {"lat": 58.4994131, "lon": -115.1462732}, "nodes": [11131951622, 11131951623, 11131951624, 11131951625, 11131951626, 11131951627, 11131951628, 11131951629, 11131951630, 11131951622], "tags": {"amenity": "hospital", "healthcare": "hospital", "name": "John D'Or Health Centre"}}]}