{"version": 0.6, "generator": "Overpass API 0.7.61.5 4133829e", "osm3s": {"timestamp_osm_base": "2023-10-31T21:04:00Z", "copyright": "The data included in this document is from www.openstreetmap.org. The data is made available under ODbL."}, "elements": [{"type": "node", "id": 1110037926, "lat": 56.6777954, "lon": 124.8420486, "tags": {"addr:city": "\u0421\u0435\u0440\u0435\u0431\u0440\u044f\u043d\u044b\u0439 \u0411\u043e\u0440", "addr:housenumber": "304", "addr:place": "\u0421\u0435\u0440\u0435\u0431\u0440\u044f\u043d\u044b\u0439 \u0411\u043e\u0440", "addr:postcode": "678995", "amenity": "hospital", "name": "\u041f\u043e\u043b\u0438\u043a\u043b\u0438\u043d\u0438\u043a\u0430"}}, {"type": "node", "id": 1336756098, "lat": 55.1571197, "lon": 124.7272685, "tags": {"amenity": "hospital", "emergency": "yes", "name": "\u0442\u0435\u0440\u0430\u043f\u0438\u044f"}}, {"type": "node", "id": 1336756174, "lat": 55.1581594, "lon": 124.7290988, "tags": {"amenity": "hospital", "emergency": "yes", "name": "\u0445\u0438\u0440\u0443\u0440\u0433\u0438\u044f"}}, {"type": "node", "id": 1374351712, "lat": 50.2985628, "lon": 127.5267871, "tags": {"amenity": "hospital", "name": "\u041f\u043e\u043b\u0438\u043a\u043b\u0438\u043d\u0438\u043a\u0430 \u0414\u0435\u0442\u0441\u043a\u0430\u044f \u21161"}}, {"type": "node", "id": 1422552017, "lat": 50.0989619, "lon": 129.4412889, "tags": {"amenity": "hospital"}}, {"type": "node", "id": 1439261177, "lat": 50.2696879, "lon": 127.4979754, "tags": {"amenity": "hospital", "name": "\u0411\u043e\u043b\u044c\u043d\u0438\u0446\u0430 \u0413\u043e\u0440\u043e\u0434\u0441\u043a\u0430\u044f"}}, {"type": "node", "id": 1439261198, "lat": 50.2703051, "lon": 127.5011082, "tags": {"amenity": "hospital", "name": "\u0420\u043e\u0434\u0438\u043b\u044c\u043d\u044b\u0439 \u0434\u043e\u043c"}}, {"type": "node", "id": 1439261248, "lat": 50.2691461, "lon": 127.4970527, "tags": {"amenity": "hospital", "name": "\u0422\u0440\u0430\u0432\u043c\u043f\u0443\u043d\u043a\u0442"}}, {"type": "node", "id": 1456796164, "lat": 50.261116, "lon": 127.5358215, "tags": {"amenity": "hospital", "name": "\u041c\u0435\u0434\u0446\u0435\u043d\u0442\u0440 \"\u0415\u0432\u0433\u0435\u043d\u0438\u044f\""}}, {"type": "node", "id": 1459930841, "lat": 50.2740432, "lon": 127.5225325, "tags": {"amenity": "hospital", "name": "\u041f\u043e\u043b\u0438\u043a\u043b\u0438\u043d\u0438\u043a\u0430 \u21161"}}, {"type": "node", "id": 1459930847, "lat": 50.2693224, "lon": 127.508692, "tags": {"amenity": "hospital", "healthcare:speciality": "gynaecology;urology", "name": "\u041a\u043e\u0436\u043d\u043e-\u0432\u0435\u043d\u0435\u0440\u043e\u043b\u043e\u0433\u0438\u0447\u0435\u0441\u043a\u0438\u0439 \u0434\u0438\u0441\u043f\u0430\u043d\u0441\u0435\u0440"}}, {"type": "node", "id": 1625101667, "lat": 56.6640584, "lon": 124.719407, "tags": {"amenity": "hospital", "name": "\u041f\u043e\u043b\u0438\u043a\u043b\u0438\u043d\u0438\u043a\u0430 \u043f\u0440\u043e\u0444\u043e\u0441\u043c\u043e\u0442\u0440\u043e\u0432"}}, {"type": "node", "id": 1756942073, "lat": 51.0962149, "lon": 128.3840262, "tags": {"amenity": "hospital", "healthcare": "hospital", "name": "\u0426\u0420\u0411"}}, {"type": "node", "id": 1768297280, "lat": 50.2578469, "lon": 127.5156021, "tags": {"amenity": "hospital", "name": "\u0413\u043e\u0440\u043e\u0434\u0441\u043a\u0430\u044f \u0431\u043e\u043b\u044c\u043d\u0438\u0446\u0430"}}, {"type": "node", "id": 1894434417, "lat": 53.4558634, "lon": 125.7877869, "tags": {"amenity": "hospital"}}, {"type": "node", "id": 1929971753, "lat": 58.5928487, "lon": 125.3837742, "tags": {"amenity": "hospital", "name": "\u0421\u043f\u0438\u0434"}}, {"type": "node", "id": 2072639852, "lat": 52.6367399, "lon": 126.7489829, "tags": {"amenity": "hospital", "emergency": "yes", "name": "\u0421\u0438\u0432\u0430\u043a\u0441\u043a\u0430\u044f \u0443\u0447\u0430\u0441\u0442\u043a\u043e\u0432\u0430\u044f \u0431\u043e\u043b\u044c\u043d\u0438\u0446\u0430"}}, {"type": "node", "id": 2245746420, "lat": 50.2581879, "lon": 127.5552606, "tags": {"amenity": "hospital", "name": "\u0416\u0435\u043d\u0441\u043a\u0430\u044f \u043a\u043e\u043d\u0441\u0443\u043b\u044c\u0442\u0430\u0446\u0438\u044f"}}, {"type": "node", "id": 2245746433, "lat": 50.2571348, "lon": 127.549325, "tags": {"amenity": "hospital", "name": "\u041f\u043e\u043b\u0438\u043a\u043b\u0438\u043d\u0438\u043a\u0430 \u21163"}}, {"type": "node", "id": 2245746438, "lat": 50.2577518, "lon": 127.5506447, "tags": {"amenity": "hospital", "name": "\u0421\u0442\u0430\u043d\u0446\u0438\u044f \u043f\u0435\u0440\u0435\u043b\u0438\u0432\u0430\u043d\u0438\u044f \u043a\u0440\u043e\u0432\u0438"}}, {"type": "node", "id": 2245746451, "lat": 50.2580951, "lon": 127.5560939, "tags": {"amenity": "hospital", "name": "\u0414\u0435\u0442\u0441\u043a\u0430\u044f \u043f\u043e\u043b\u0438\u043a\u043b\u0438\u043d\u0438\u043a\u0430 \u21162"}}, {"type": "node", "id": 2245747687, "lat": 50.2551935, "lon": 127.5569522, "tags": {"amenity": "hospital", "name": "\u0414\u0435\u0442\u0441\u043a\u0430\u044f \u043f\u043e\u043b\u0438\u043a\u043b\u0438\u043d\u0438\u043a\u0430 \u21163"}}, {"type": "node", "id": 2378752099, "lat": 51.7614187, "lon": 128.1253375, "tags": {"amenity": "hospital"}}, {"type": "node", "id": 2520670106, "lat": 58.5823766, "lon": 126.6884991, "tags": {"amenity": "hospital"}}, {"type": "node", "id": 2550500378, "lat": 51.3493127, "lon": 128.1413878, "tags": {"addr:city": "\u0421\u0432\u043e\u0431\u043e\u0434\u043d\u044b\u0439", "addr:postcode": "676455", "addr:street": "\u0443\u043b\u0438\u0446\u0430 \u0421\u0435\u0440\u043e\u0432\u0430", "amenity": "hospital", "emergency": "no", "name": "\u0422\u0440\u0430\u0432\u043c\u0430\u0442\u043e\u043b\u043e\u0433\u0438\u044f"}}, {"type": "node", "id": 2670963573, "lat": 56.654639, "lon": 124.7146881, "tags": {"amenity": "hospital", "name": "\u041a\u043e\u0436\u0412\u0435\u043d\u0414\u0438\u0441\u043f\u0430\u043d\u0441\u0435\u0440"}}, {"type": "node", "id": 2683724850, "lat": 50.3318405, "lon": 127.5173452, "tags": {"amenity": "hospital"}}, {"type": "node", "id": 2776460339, "lat": 58.9750673, "lon": 126.2629025, "tags": {"amenity": "hospital", "name": "\u0421\u0442\u043e\u043c\u0430\u0442\u043e\u043b\u043e\u0433\u0438\u044f"}}, {"type": "node", "id": 2902054353, "lat": 50.2961827, "lon": 127.5446847, "tags": {"amenity": "hospital", "name": "\u041f\u043e\u043b\u0438\u043a\u043b\u0438\u043d\u0438\u043a\u0430 \u0414\u0435\u0442\u0441\u043a\u0430\u044f \u21162"}}, {"type": "node", "id": 2902054372, "lat": 50.2962615, "lon": 127.5438639, "tags": {"amenity": "hospital", "name": "\u041f\u043e\u043b\u0438\u043a\u043b\u0438\u043d\u0438\u043a\u0430 \u21162"}}, {"type": "node", "id": 2910293799, "lat": 50.2788146, "lon": 127.5159094, "tags": {"amenity": "hospital"}}, {"type": "node", "id": 4115786313, "lat": 52.9610402, "lon": 122.5613325, "tags": {"addr:city": "\u5927\u5174\u5b89\u5cad\u5730\u533a", "addr:district": "\u6f20\u6cb3\u5e02", "addr:housenumber": "4-2", "addr:postcode": "165399", "addr:province": "\u9ed1\u9f99\u6c5f\u7701", "addr:street": "\u4e1c\u57ce\u8def", "amenity": "hospital", "healthcare": "hospital", "name": "\u6f20\u6cb3\u5e02\u4eba\u6c11\u533b\u9662"}}, {"type": "node", "id": 4529325107, "lat": 50.7345543, "lon": 128.2128696, "tags": {"addr:city": "\u041b\u043e\u0445\u0432\u0438\u0446\u044b", "addr:housenumber": "53", "addr:postcode": "676804", "addr:street": "\u0426\u0435\u043d\u0442\u0440\u0430\u043b\u044c\u043d\u0430\u044f \u0443\u043b\u0438\u0446\u0430", "amenity": "hospital", "name": "\u0424\u0410\u041f \u041b\u043e\u0445\u0432\u0438\u0446\u044b", "name:ru": "\u0424\u0410\u041f \u041b\u043e\u0445\u0432\u0438\u0446\u044b"}}, {"type": "node", "id": 5217785996, "lat": 56.6685136, "lon": 124.7239128, "tags": {"amenity": "hospital", "name": "\u041d\u0435\u0440\u044e\u043d\u0433\u0440\u0438\u043d\u0441\u043a\u0438\u0439 \u043f\u0440\u043e\u0442\u0438\u0432\u043e\u0442\u0443\u0431\u0435\u0440\u043a\u0443\u043b\u0435\u0437\u043d\u044b\u0439 \u0434\u0438\u0441\u043f\u0430\u043d\u0441\u0435\u0440"}}, {"type": "node", "id": 5423916629, "lat": 58.6049607, "lon": 125.3982929, "tags": {"amenity": "hospital", "name": "\u0416\u0414(\u042f) \u041f\u043e\u043b\u0438\u043a\u043b\u0438\u043d\u0438\u043a\u0430"}}, {"type": "node", "id": 5908932785, "lat": 50.7301826, "lon": 128.7117609, "tags": {"addr:postcode": "676811", "addr:street": "\u0443\u043b\u0438\u0446\u0430 \u0414\u041e\u0421", "amenity": "hospital", "name": "\u0410\u043c\u0431\u0443\u043b\u0430\u0442\u043e\u0440\u0438\u044f", "opening_hours": "Mo-Fr 08:00-12:00, 13:00-17:00"}}, {"type": "node", "id": 6185364616, "lat": 56.2243124, "lon": 124.855546, "tags": {"amenity": "hospital", "healthcare": "hospital"}}, {"type": "node", "id": 9803132218, "lat": 50.3293501, "lon": 127.7478639, "tags": {"addr:city": "\u0423\u0441\u0442\u044c-\u0418\u0432\u0430\u043d\u043e\u0432\u043a\u0430", "addr:housenumber": "75", "addr:postcode": "675505", "addr:street": "\u0443\u043b\u0438\u0446\u0430 \u041b\u0435\u043d\u0438\u043d\u0430", "amenity": "hospital", "emergency": "no", "healthcare": "hospital", "healthcare:speciality": "general", "name": "\u0412\u0440\u0430\u0447\u0435\u0431\u043d\u0430\u044f \u0430\u043c\u0431\u0443\u043b\u0430\u0442\u043e\u0440\u0438\u044f \u0423\u0441\u0442\u044c-\u0418\u0432\u0430\u043d\u043e\u0432\u043a\u0430", "name:en": "Ust-Ivanovka Outpatient Clinic", "opening_hours": "Mo-Fr 08:00-13:00"}}, {"type": "node", "id": 10254992616, "lat": 56.6631114, "lon": 124.7017935, "tags": {"addr:housenumber": "4", "addr:street": "\u0443\u043b\u0438\u0446\u0430 \u041e\u0439\u0443\u043d\u0441\u043a\u043e\u0433\u043e", "amenity": "hospital", "healthcare": "hospital", "name": "\u0416\u0435\u043d\u0441\u043a\u0430\u044f \u043a\u043e\u043d\u0441\u0443\u043b\u044c\u0442\u0430\u0446\u0438\u044f"}}, {"type": "node", "id": 10296542529, "lat": 52.3316652, "lon": 124.6994572, "tags": {"amenity": "hospital", "healthcare": "hospital", "name": "\u5854\u6cb3\u4e2d\u533b\u533b\u9662"}}, {"type": "node", "id": 11237310437, "lat": 56.6686076, "lon": 124.7241512, "tags": {"amenity": "hospital", "healthcare": "hospital", "name": "\u0422\u0443\u0431\u0434\u0438\u0441\u043f\u0430\u043d\u0441\u0435\u0440"}}, {"type": "way", "id": 93864427, "center": {"lat": 58.5750699, "lon": 125.4354601}, "nodes": [1091058529, 1091058533, 1091058537, 1091058539, 1091058541, 1091058544, 1091058529], "tags": {"addr:housenumber": "23", "addr:street": "\u0443\u043b\u0438\u0446\u0430 \u041b\u0435\u043d\u0438\u043d\u0430", "amenity": "hospital", "building": "yes", "building:levels": "1", "name": "\u0414\u043e\u043c \u043f\u0440\u0435\u0441\u0442\u0430\u0440\u0435\u043b\u044b\u0445"}}, {"type": "way", "id": 93864430, "center": {"lat": 58.5776458, "lon": 125.4359406}, "nodes": [1091058730, 1091058733, 1091058737, 1091058741, 1091058743, 1091058746, 1091058748, 1091058751, 1091058730], "tags": {"amenity": "hospital", "building": "yes", "building:levels": "1", "name": "\u041f\u043e\u043b\u0438\u043a\u043b\u0438\u043d\u0438\u043a\u0430"}}, {"type": "way", "id": 109067449, "center": {"lat": 51.3514416, "lon": 128.1440224}, "nodes": [1249706276, 1249706326, 1249706291, 1249706260, 1249706276], "tags": {"amenity": "hospital", "building": "yes"}}, {"type": "way", "id": 111673414, "center": {"lat": 50.3057939, "lon": 127.506015}, "nodes": [1271795917, 1271795919, 1271795906, 1271795915, 7962569316, 1271795917], "tags": {"amenity": "hospital", "healthcare": "hospital"}}, {"type": "way", "id": 111783849, "center": {"lat": 58.8215355, "lon": 125.5336762}, "nodes": [1272751047, 1272751046, 1272751043, 1272751045, 2007179920, 2007179922, 2007179926, 2007179924, 1272751047], "tags": {"addr:housenumber": "5", "addr:street": "\u0421\u0442\u0440\u043e\u0438\u0442\u0435\u043b\u044c\u043d\u0430\u044f \u0443\u043b\u0438\u0446\u0430", "amenity": "hospital", "building": "yes", "building:levels": "2", "emergency": "yes", "name": "\u041d-\u041a\u0443\u0440\u0430\u043d\u0430\u0445\u0441\u043a\u0430\u044f \u0411\u043e\u043b\u044c\u043d\u0438\u0446\u0430"}}, {"type": "way", "id": 112452081, "center": {"lat": 55.157133, "lon": 124.7273957}, "nodes": [1278070576, 1278070571, 1278070578, 1278070573, 1278070576], "tags": {"addr:housenumber": "74", "addr:street": "\u0443\u043b\u0438\u0446\u0430 2-\u044f \u041f\u044f\u0442\u0438\u043b\u0435\u0442\u043a\u0430", "amenity": "hospital", "building": "yes", "name": "\u0411\u043e\u043b\u044c\u043d\u0438\u0446\u0430 \u0442\u0435\u0440\u0430\u043f\u0438\u044f"}}, {"type": "way", "id": 113529261, "center": {"lat": 58.8227099, "lon": 125.5335486}, "nodes": [1287065438, 1287065431, 1287065432, 1287065437, 1287065438], "tags": {"addr:housenumber": "5", "addr:street": "\u0421\u0442\u0440\u043e\u0438\u0442\u0435\u043b\u044c\u043d\u0430\u044f \u0443\u043b\u0438\u0446\u0430", "amenity": "hospital", "building": "yes", "building:levels": "1", "emergency": "no", "name": "\u0410\u0434\u043c\u0438\u043d\u0438\u0441\u0442\u0440\u0430\u0446\u0438\u044f"}}, {"type": "way", "id": 114495354, "center": {"lat": 50.261905, "lon": 127.4947123}, "nodes": [1296888449, 1296888454, 1296888470, 1296888432, 1296888425, 1296888355, 1296888372, 1296888381, 1296888449], "tags": {"amenity": "hospital", "building": "yes"}}, {"type": "way", "id": 114495355, "center": {"lat": 50.2611199, "lon": 127.4962594}, "nodes": [1296888383, 1296888452, 1296888396, 1296888403, 1296888383], "tags": {"amenity": "hospital", "building": "yes"}}, {"type": "way", "id": 114495356, "center": {"lat": 50.261102, "lon": 127.4940783}, "nodes": [1296888414, 1296888395, 1296888475, 1296888445, 1296888414], "tags": {"amenity": "hospital", "building": "yes"}}, {"type": "way", "id": 114495357, "center": {"lat": 50.2618444, "lon": 127.4964413}, "nodes": [1296888382, 1296888351, 1296888488, 1296888397, 1296888382], "tags": {"amenity": "hospital", "healthcare": "hospital"}}, {"type": "way", "id": 114495362, "center": {"lat": 50.2609775, "lon": 127.4939528}, "nodes": [1296888415, 1296888451, 1296888475, 1296888395, 1296888380, 1296888447, 1296888415], "tags": {"addr:housenumber": "172", "addr:street": "\u0443\u043b\u0438\u0446\u0430 \u041b\u0435\u043d\u0438\u043d\u0430", "amenity": "hospital", "building": "yes"}}, {"type": "way", "id": 114502205, "center": {"lat": 50.2694411, "lon": 127.497498}, "nodes": [1296944597, 1296944580, 1296944598, 1296944609, 1296944597], "tags": {"amenity": "hospital", "building": "yes"}}, {"type": "way", "id": 114502206, "center": {"lat": 50.2691691, "lon": 127.4977718}, "nodes": [1296944567, 1296944574, 1296944598, 1296944596, 1296944601, 1296944607, 1296944572, 1296944567], "tags": {"addr:city": "\u0411\u043b\u0430\u0433\u043e\u0432\u0435\u0449\u0435\u043d\u0441\u043a", "addr:country": "RU", "addr:housenumber": "32", "addr:region": "\u0410\u043c\u0443\u0440\u0441\u043a\u0430\u044f \u043e\u0431\u043b\u0430\u0441\u0442\u044c", "addr:street": "\u0411\u043e\u043b\u044c\u043d\u0438\u0447\u043d\u044b\u0439 \u043f\u0435\u0440\u0435\u0443\u043b\u043e\u043a", "amenity": "hospital", "building": "yes", "name": "\u041f\u0440\u0438\u0435\u043c\u043d\u044b\u0439 \u043f\u043e\u043a\u043e\u0439"}}, {"type": "way", "id": 114502207, "center": {"lat": 50.2696552, "lon": 127.4975532}, "nodes": [1296944603, 1296944589, 1296944602, 1296944590, 1296944603], "tags": {"amenity": "hospital", "building": "yes"}}, {"type": "way", "id": 114502208, "center": {"lat": 50.2700822, "lon": 127.4977378}, "nodes": [1296944570, 1296944608, 1296944593, 1296944578, 1296944570], "tags": {"amenity": "hospital", "building": "yes"}}, {"type": "way", "id": 114502210, "center": {"lat": 50.269149, "lon": 127.4968703}, "nodes": [1296944583, 1296944582, 1296944567, 1296944574, 1296944569, 1296944584, 1296944571, 1296944583], "tags": {"addr:city": "\u0411\u043b\u0430\u0433\u043e\u0432\u0435\u0449\u0435\u043d\u0441\u043a", "addr:country": "RU", "addr:housenumber": "32", "addr:region": "\u0410\u043c\u0443\u0440\u0441\u043a\u0430\u044f \u043e\u0431\u043b\u0430\u0441\u0442\u044c", "addr:street": "\u0411\u043e\u043b\u044c\u043d\u0438\u0447\u043d\u044b\u0439 \u043f\u0435\u0440\u0435\u0443\u043b\u043e\u043a", "amenity": "hospital", "building": "yes", "name": "\u0422\u0440\u0430\u0432\u043c\u043e\u0442\u043e\u043b\u043e\u0433\u0438\u044f"}}, {"type": "way", "id": 114502211, "center": {"lat": 50.2708541, "lon": 127.4974917}, "nodes": [1296944579, 1296944599, 1296944588, 1296944591, 1296944568, 1296944581, 1296944579], "tags": {"amenity": "hospital", "building": "yes"}}, {"type": "way", "id": 114502212, "center": {"lat": 50.2696303, "lon": 127.4980957}, "nodes": [1296944594, 1296944576, 1296944575, 1296944605, 1296944594], "tags": {"amenity": "hospital", "building": "yes"}}, {"type": "way", "id": 114502213, "center": {"lat": 50.2699175, "lon": 127.4979514}, "nodes": [1296944587, 6430793556, 1296944592, 1296944595, 6430793557, 1296944586, 1296944576, 1296944575, 1296944573, 1296944596, 1296944598, 1296944580, 1296944602, 1296944589, 1296944608, 1296944593, 1296944587], "tags": {"addr:housenumber": "32", "addr:street": "\u0411\u043e\u043b\u044c\u043d\u0438\u0447\u043d\u0430\u044f \u0443\u043b\u0438\u0446\u0430", "amenity": "hospital", "building": "yes", "emergency": "yes", "name": "1-\u044f \u0413\u043e\u0440\u0431\u043e\u043b\u044c\u043d\u0438\u0446\u0430"}}, {"type": "way", "id": 114502214, "center": {"lat": 50.2693977, "lon": 127.4964356}, "nodes": [1296944600, 1296944583, 1296944571, 1296944606, 1296944600], "tags": {"amenity": "hospital"}}, {"type": "way", "id": 118916211, "center": {"lat": 55.1582465, "lon": 124.7291137}, "nodes": [1336756231, 1336756356, 1336756093, 1336755769, 1336756005, 1855171291, 1855171289, 1336756230, 1336756422, 1336756107, 1336756231], "tags": {"addr:housenumber": "1", "addr:street": "\u0417\u0435\u043b\u0451\u043d\u0430\u044f \u0443\u043b\u0438\u0446\u0430", "amenity": "hospital", "building": "yes", "name": "\u0425\u0438\u0440\u0443\u0440\u0433\u0438\u0447\u0435\u0441\u043a\u043e\u0435 \u043e\u0442\u0434\u0435\u043b\u0435\u043d\u0438\u0435", "operator": "\u0426\u0420\u0411"}}, {"type": "way", "id": 119015441, "center": {"lat": 51.1815933, "lon": 128.1473856}, "nodes": [1337967880, 1337967388, 1337967509, 1337967575, 1337967476, 1337967880], "tags": {"amenity": "hospital", "building": "yes", "name": "\u041c\u0435\u0434\u043f\u0443\u043d\u043a\u0442"}}, {"type": "way", "id": 119722952, "center": {"lat": 50.913232, "lon": 128.4536097}, "nodes": [1344173257, 1344173244, 1344173228, 1344173231, 1344173233, 1344173159, 1344173165, 1344173267, 1344173257], "tags": {"addr:city": "\u0411\u0435\u043b\u043e\u0433\u043e\u0440\u0441\u043a", "addr:housenumber": "26", "addr:street": "\u0422\u0440\u0430\u043d\u0441\u043f\u043e\u0440\u0442\u043d\u0430\u044f \u0443\u043b\u0438\u0446\u0430", "amenity": "hospital", "building": "yes", "name": "\u0411\u043e\u043b\u044c\u043d\u0438\u0446\u0430 (\u0437\u0430\u043a\u0440\u044b\u0442\u043e)", "note": "\u0437\u0434\u0430\u043d\u0438\u0435 \u0436\u0435\u043b\u0435\u0437\u043d\u043e\u0434\u043e\u0440\u043e\u0436\u043d\u043e\u0439 \u0431\u043e\u043b\u044c\u043d\u0438\u0446\u044b \u0434\u0430\u0432\u043d\u043e \u043d\u0435 \u0440\u0430\u0431\u043e\u0442\u0430\u0435\u0442"}}, {"type": "way", "id": 119879918, "center": {"lat": 50.9199651, "lon": 128.4985187}, "nodes": [1345471034, 1345470896, 1345471019, 1345470873, 1345470963, 4255718912, 1345470863, 1345470972, 1345471052, 4255718914, 4255718913, 4255718915, 1345470907, 1345470971, 1345471050, 1345470916, 1345470847, 1345470860, 1345470854, 1345470876, 1345471034], "tags": {"amenity": "hospital", "healthcare": "hospital", "name": "\u0432\u043e\u0435\u043d\u043d\u044b\u0439 \u0433\u043e\u0441\u043f\u0438\u0442\u0430\u043b\u044c"}}, {"type": "way", "id": 119879922, "center": {"lat": 50.9216384, "lon": 128.4781469}, "nodes": [1345470892, 1345470904, 1345470988, 1345471047, 1345471048, 1345471004, 1345470987, 5809561026, 5809561027, 1345470846, 1345470998, 1345470949, 1345470881, 1345470892], "tags": {"amenity": "hospital", "emergency": "yes", "healthcare": "hospital", "name": "\u0411\u0435\u043b\u043e\u0433\u043e\u0440\u0441\u043a\u0430\u044f \u0446\u0435\u043d\u0442\u0440\u0430\u043b\u044c\u043d\u0430\u044f \u0440\u0430\u0439\u043e\u043d\u043d\u0430\u044f \u0431\u043e\u043b\u044c\u043d\u0438\u0446\u0430"}}, {"type": "way", "id": 121506982, "center": {"lat": 51.3761336, "lon": 128.1327196}, "nodes": [1360051441, 1360051437, 1360051436, 1360051422, 1360051432, 1360051427, 1360051429, 1360051423, 1360051441], "tags": {"addr:housenumber": "17", "addr:street": "\u0443\u043b\u0438\u0446\u0430 \u041a.\u041c\u0430\u0440\u043a\u0441\u0430", "amenity": "hospital", "building": "yes", "emergency": "yes", "name": "\u041f\u043e\u043b\u0438\u043a\u043b\u0438\u043d\u0438\u043a\u0430 \u0433\u043e\u0440\u043e\u0434\u0441\u043a\u0430\u044f"}}, {"type": "way", "id": 125265501, "center": {"lat": 54.2210797, "lon": 124.4282466}, "nodes": [1391833374, 1391833371, 4899709759, 4899709757, 4899709756, 4899709758, 1391833384, 1391833383, 4899709766, 4899709762, 4899709761, 4899709765, 4899709764, 4899709760, 4899709763, 4899709767, 1391833374], "tags": {"addr:housenumber": "10", "addr:street": "\u0428\u043a\u043e\u043b\u044c\u043d\u0430\u044f \u0443\u043b\u0438\u0446\u0430", "amenity": "hospital", "building": "yes", "healthcare": "hospital", "name": "\u0421\u043e\u043b\u043e\u0432\u044c\u0435\u0432\u0441\u043a\u0430\u044f \u0443\u0447\u0430\u0441\u0442\u043a\u043e\u0432\u0430\u044f \u0431\u043e\u043b\u044c\u043d\u0438\u0446\u0430"}}, {"type": "way", "id": 128852223, "center": {"lat": 56.8526928, "lon": 124.9052822}, "nodes": [1422781749, 1422781759, 1422781766, 1422781772, 1422781741, 1422781728, 1422781749], "tags": {"addr:housenumber": "35", "amenity": "hospital", "building": "yes", "name": "\u041f\u043e\u043b\u0438\u043a\u043b\u0438\u043d\u0438\u043a\u0430"}}, {"type": "way", "id": 130127947, "center": {"lat": 51.3660494, "lon": 128.1515759}, "nodes": [1434230341, 1612030868, 1612030873, 1434230376, 1612030796, 1612030807, 1612030849, 1434230364, 1612030916, 1434230353, 1434230337, 1434230307, 7934535391, 1612030789, 1612030904, 1434230321, 1612030905, 1434230341], "tags": {"amenity": "hospital"}}, {"type": "way", "id": 140209962, "center": {"lat": 50.2702303, "lon": 127.5003307}, "nodes": [1536107440, 1536107452, 1536107446, 1536107435, 1536107437, 1536107428, 1536107422, 1536107421, 1536107425, 1536107433, 1536107431, 1536107439, 1536107440], "tags": {"addr:city": "\u0411\u043b\u0430\u0433\u043e\u0432\u0435\u0449\u0435\u043d\u0441\u043a", "addr:country": "RU", "addr:region": "\u0410\u043c\u0443\u0440\u0441\u043a\u0430\u044f \u043e\u0431\u043b\u0430\u0441\u0442\u044c", "addr:street": "\u0443\u043b\u0438\u0446\u0430 \u0413\u043e\u0440\u044c\u043a\u043e\u0433\u043e", "amenity": "hospital", "building": "yes", "name": "\u0420\u043e\u0434\u0438\u043b\u044c\u043d\u044b\u0439 \u0434\u043e\u043c"}}, {"type": "way", "id": 142577130, "center": {"lat": 58.6073293, "lon": 125.3823808}, "nodes": [1560304862, 1560304881, 1560304884, 1560304888, 1560304862], "tags": {"addr:housenumber": "3", "addr:street": "\u041e\u043a\u0442\u044f\u0431\u0440\u044c\u0441\u043a\u0430\u044f \u0443\u043b\u0438\u0446\u0430", "amenity": "hospital", "building": "apartments", "building:levels": "2", "emergency": "no", "name": "\u0414\u0435\u0442\u0441\u043a\u0430\u044f \u041f\u043e\u043b\u0438\u043a\u043b\u0438\u043d\u0438\u043a\u0430"}}, {"type": "way", "id": 148098246, "center": {"lat": 51.3679916, "lon": 128.1430082}, "nodes": [1612020079, 1612020062, 1612020073, 1612020078, 1612020063, 1612020075, 1612020074, 1612020077, 1612020079], "tags": {"addr:housenumber": "11", "addr:street": "\u0443\u043b\u0438\u0446\u0430 \u041c\u0443\u0445\u0438\u043d\u0430", "amenity": "hospital", "building": "yes"}}, {"type": "way", "id": 149302952, "center": {"lat": 56.6552811, "lon": 124.7085847}, "nodes": [1623014590, 1623014589, 1623014597, 5578298282, 5578298281, 7491893558, 1623014572, 1623014577, 1623014579, 1623014590], "tags": {"addr:city": "\u041d\u0435\u0440\u044e\u043d\u0433\u0440\u0438", "addr:country": "RU", "addr:housenumber": "14/2", "addr:postcode": "678960", "addr:street": "\u0443\u043b\u0438\u0446\u0430 \u041b\u0435\u043d\u0438\u043d\u0430", "amenity": "hospital", "building": "yes", "contact:phone": "+7 41147 61832", "height": "15", "name": "\u0421\u043e\u043c\u0430\u0442\u0438\u0447\u0435\u0441\u043a\u0438\u0439 \u043a\u043e\u0440\u043f\u0443\u0441 \u0426\u0420\u0411"}}, {"type": "way", "id": 149512929, "center": {"lat": 56.6634573, "lon": 124.7019781}, "nodes": [1624765539, 1624765538, 1624765496, 1624765497, 5580426324, 1624765456, 1624765455, 1624765412, 1624765414, 1624765416, 1624765417, 1624765407, 1624765408, 1624765434, 1624765433, 1624765430, 1624765429, 1624765457, 1624765458, 1624765499, 1624765498, 1624765539], "tags": {"addr:housenumber": "4", "addr:street": "\u0443\u043b\u0438\u0446\u0430 \u041e\u0439\u0443\u043d\u0441\u043a\u043e\u0433\u043e", "amenity": "hospital", "building": "hospital", "building:levels": "4", "healthcare": "hospital", "height": "15", "name": "\u041f\u043e\u043b\u0438\u043a\u043b\u0438\u043d\u0438\u043a\u0430 \u0434\u043b\u044f \u0432\u0437\u0440\u043e\u0441\u043b\u044b\u0445", "opening_hours": "Mo-Fr 7:30-20:00; Sa-Su 09:00-15:00"}}, {"type": "way", "id": 163521418, "center": {"lat": 50.3070963, "lon": 127.5028776}, "nodes": [1751917143, 1751917124, 1751917136, 1751917176, 1751917156, 1751917169, 1751917116, 1751917121, 1751917146, 1751917219, 1751917214, 1751917213, 1751917143], "tags": {"addr:housenumber": "26", "addr:street": "\u0443\u043b\u0438\u0446\u0430 \u0412\u043e\u0440\u043e\u043d\u043a\u043e\u0432\u0430", "amenity": "hospital", "building": "hospital", "emergency": "yes", "healthcare": "hospital", "name": "\u041f\u0435\u0440\u0438\u043d\u0430\u0442\u0430\u043b\u044c\u043d\u044b\u0439 \u0446\u0435\u043d\u0442\u0440"}}, {"type": "way", "id": 164032870, "center": {"lat": 51.0963206, "lon": 128.3840621}, "nodes": [1756942144, 1756942154, 1756942138, 1756942121, 1756942144], "tags": {"addr:housenumber": "10", "addr:street": "\u0443\u043b\u0438\u0446\u0430 \u041b\u0435\u043d\u0438\u043d\u0430", "amenity": "hospital", "emergency": "yes", "healthcare": "hospital", "name": "\u0413\u0411\u0423\u0417 \u0410\u041e \"\u0421\u0435\u0440\u044b\u0448\u0435\u0432\u0441\u043a\u0430\u044f \u0431\u043e\u043b\u044c\u043d\u0438\u0446\u0430", "phone": "+7 914 5941005"}}, {"type": "way", "id": 170074299, "center": {"lat": 51.525481, "lon": 128.4413837}, "nodes": [1812246245, 1812246235, 1812246248, 1812246255, 1812246245], "tags": {"amenity": "hospital"}}, {"type": "way", "id": 179102144, "center": {"lat": 53.4431498, "lon": 125.8201526}, "nodes": [1894434435, 1894434408, 1894434369, 1894434330, 1894434097, 1894433939, 1894434292, 1894434257, 1894434294, 1894433950, 1894434244, 1894434081, 1894434328, 1894434044, 1894434065, 1894434454, 1894434384, 1894434331, 1894434212, 1894434435], "tags": {"amenity": "hospital", "name": "\u0426\u0420\u0411"}}, {"type": "way", "id": 179224817, "center": {"lat": 53.4541933, "lon": 125.8013692}, "nodes": [1895767972, 1895767868, 1895767954, 1895767924, 1895767972], "tags": {"amenity": "hospital", "building": "yes", "emergency": "yes", "name": "\u0421\u0442\u0430\u043d\u0446\u0438\u044f \u0441\u043a\u043e\u0440\u043e\u0439 \u043f\u043e\u043c\u043e\u0449\u0438"}}, {"type": "way", "id": 181694197, "center": {"lat": 58.9733856, "lon": 126.2444297}, "nodes": [1921310426, 1921310432, 1921310442, 1921310435, 1921310445, 1921310448, 1921310438, 1921310430, 1921310426], "tags": {"addr:street": "\u041c\u0430\u0433\u0438\u0441\u0442\u0440\u0430\u043b\u044c\u043d\u0430\u044f \u0443\u043b\u0438\u0446\u0430", "amenity": "hospital", "building": "yes", "building:levels": "3", "emergency": "yes", "name": "\u0422\u043e\u043c\u043c\u043e\u0442\u0441\u043a\u0430\u044f \u0433\u043e\u0440\u0431\u043e\u043b\u044c\u043d\u0438\u0446\u0430"}}, {"type": "way", "id": 182490545, "center": {"lat": 58.6072607, "lon": 125.3674021}, "nodes": [1928527161, 1928527160, 1928527162, 1928527159, 1928527161], "tags": {"amenity": "hospital", "building": "yes", "building:levels": "1", "name": "\u0418\u043d\u0444\u0435\u043a\u0446\u0438\u043e\u043d\u043e\u0435 \u043e\u0442\u0434\u0435\u043b\u0435\u043d\u0438\u0435"}}, {"type": "way", "id": 186401047, "center": {"lat": 58.5963657, "lon": 125.3762956}, "nodes": [1970841271, 1970841235, 1970841219, 1970841221, 1970841266, 1970841226, 1970841223, 1970841233, 1970841224, 1970841268, 1970841229, 1970841263, 1970841271], "tags": {"addr:street": "\u0443\u043b\u0438\u0446\u0430 \u0411\u0438\u043b\u0438\u0431\u0438\u043d\u0430", "amenity": "hospital", "building": "yes", "building:levels": "1", "name": "\u0422\u0443\u0431. \u0434\u0438\u0441\u043f\u0430\u043d\u0441\u0435\u0440"}}, {"type": "way", "id": 196626192, "center": {"lat": 58.6080936, "lon": 125.3657664}, "nodes": [2069345000, 2069344996, 2069344995, 2069345001, 2069345000], "tags": {"amenity": "hospital", "building": "yes", "building:levels": "1", "name": "\u041e\u0442\u0434\u0435\u043b\u0435\u043d\u0438\u0435 \u0433\u0438\u043d\u0435\u043a\u043e\u043b\u043e\u0433\u0438\u0438,\u043f\u0441\u0438\u0445\u043e\u043d\u0435\u0432\u0440\u043e\u043b\u043e\u0433\u0438\u0447\u0435\u0441\u043a\u0438\u0439 \u0434\u0438\u0441\u043f\u0430\u043d\u0441\u0435\u0440 \u0410\u0426\u0420\u0411"}}, {"type": "way", "id": 196626193, "center": {"lat": 58.6070161, "lon": 125.3663618}, "nodes": [2069344981, 2069344987, 2069344988, 2069344984, 2069344981], "tags": {"addr:city": "\u0410\u043b\u0434\u0430\u043d", "addr:street": "\u0443\u043b\u0438\u0446\u0430 \u041a\u043e\u043c\u0430\u0440\u043e\u0432\u0430", "amenity": "hospital", "building": "yes", "building:levels": "3", "name": "\u0420\u043e\u0434\u0438\u043b\u044c\u043d\u043e\u0435 \u043e\u0442\u0434\u0435\u043b\u0435\u043d\u0438\u0435 \u0410\u043b\u0434\u0430\u043d\u0441\u043a\u043e\u0439 \u0440\u0430\u0439\u043e\u043d\u043e\u0439 \u0431\u043e\u043b\u044c\u043d\u0438\u0446\u044b"}}, {"type": "way", "id": 196969681, "center": {"lat": 52.6366496, "lon": 126.7488946}, "nodes": [2072646681, 2072646680, 2072646679, 2072646682, 2072646681], "tags": {"addr:city": "\u0421\u0438\u0432\u0430\u043a\u0438", "addr:housenumber": "9", "addr:postcode": "676145", "addr:street": "\u0420\u0430\u0431\u043e\u0447\u0430\u044f \u0443\u043b\u0438\u0446\u0430", "amenity": "hospital", "building": "yes", "emergency": "yes", "name": "\u0411\u043e\u043b\u044c\u043d\u0438\u0446\u0430"}}, {"type": "way", "id": 201410670, "center": {"lat": 50.2550012, "lon": 127.5728514}, "nodes": [2113844829, 2113844820, 2113844818, 2113844827, 2113844829], "tags": {"addr:housenumber": "25", "addr:street": "\u041f\u0435\u0440\u0432\u043e\u043c\u0430\u0439\u0441\u043a\u0430\u044f \u0443\u043b\u0438\u0446\u0430", "amenity": "hospital", "building": "yes", "name": "\u0411\u043e\u043b\u044c\u043d\u0438\u0446\u0430 \u0412\u043e\u0434\u043d\u0438\u043a\u043e\u0432"}}, {"type": "way", "id": 207914107, "center": {"lat": 56.5922962, "lon": 121.6495986}, "nodes": [2181589719, 2181589650, 2181589642, 2181589638, 2181589702, 2181589668, 2181589659, 5208277966, 5208277969, 5208277968, 5208277967, 2181589678, 2181589663, 2181589661, 2181589715, 2181589696, 2181589692, 2181589688, 2181589647, 2181589662, 2181589708, 2181589653, 2181589717, 2181589682, 5510229998, 2181589670, 5510229994, 2181589639, 2181589645, 2181589694, 2181589719], "tags": {"addr:city": "\u042e\u043a\u0442\u0430\u043b\u0438", "addr:housenumber": "1", "addr:postcode": "676268", "addr:street": "\u0421\u043e\u0441\u043d\u043e\u0432\u0430\u044f \u0443\u043b\u0438\u0446\u0430", "amenity": "hospital", "building": "hospital", "healthcare": "hospital", "name": "\u0423\u0437\u043b\u043e\u0432\u0430\u044f \u0431\u043e\u043b\u044c\u043d\u0438\u0446\u0430", "phone": "+7 41656 76091", "website": "http://www.nuz-yuktali.ru/"}}, {"type": "way", "id": 209182098, "center": {"lat": 51.3671443, "lon": 128.1534122}, "nodes": [2194129494, 2194129497, 2194129499, 2194129498, 2194129496, 2194129500, 2194129494], "tags": {"addr:housenumber": "8", "addr:street": "\u0443\u043b\u0438\u0446\u0430 \u0421\u0443\u0445\u043e\u0439 \u041e\u0432\u0440\u0430\u0433", "amenity": "hospital", "building": "yes", "healthcare": "hospital", "name": "\u0411\u043e\u043b\u044c\u043d\u0438\u0446\u0430 \u041e\u0442\u0434\u0435\u043b\u0435\u043d\u0447\u0435\u0441\u043a\u0430\u044f"}}, {"type": "way", "id": 216623931, "center": {"lat": 56.8550043, "lon": 124.9049208}, "nodes": [2260163270, 2260163229, 2260163245, 2260163257, 2260163270], "tags": {"amenity": "hospital", "emergency": "yes", "name": "\u0421\u043a\u043e\u0440\u0430\u044f \u043f\u043e\u043c\u043e\u0449\u044c"}}, {"type": "way", "id": 219442245, "center": {"lat": 53.9535806, "lon": 121.9617285}, "nodes": [2286007920, 2286007917, 2286007922, 2286007918, 2286007916, 2286007919, 2286007921, 2286007920], "tags": {"amenity": "hospital", "emergency": "yes", "name": "\u0423\u0437\u043b\u043e\u0432\u0430\u044f \u0431\u043e\u043b\u044c\u043d\u0438\u0446\u0430", "phone": "+7 961 9500207"}}, {"type": "way", "id": 227233233, "center": {"lat": 55.157595, "lon": 124.7512673}, "nodes": [2359475892, 2359475891, 2359475897, 2359475901, 2359475904, 2359475906, 2359475915, 2359475917, 2359475920, 2359475919, 2359475918, 2359475916, 2359475914, 2359475913, 2359475912, 2359475907, 2359475905, 2359475898, 2359475892], "tags": {"amenity": "hospital"}}, {"type": "way", "id": 254086367, "center": {"lat": 58.6068782, "lon": 125.3648776}, "nodes": [2599118553, 2599118554, 2599118551, 7058965707, 7058965706, 7058965705, 7058965708, 2599118552, 2599118550, 2599118548, 2599118549, 2599118547, 2599118553], "tags": {"addr:city": "\u0410\u043b\u0434\u0430\u043d", "addr:postcode": "678900", "addr:street": "\u0443\u043b\u0438\u0446\u0430 \u041a\u043e\u043c\u0430\u0440\u043e\u0432\u0430", "amenity": "hospital", "building": "yes", "building:levels": "3", "emergency": "yes", "name": "\u0410\u043b\u0434\u0430\u043d\u0441\u043a\u0430\u044f \u0426\u0420\u0411.\u0420\u0435\u0430\u043d\u0438\u043c\u0430\u0446\u0438\u044f.\u0425\u0438\u0440\u0443\u0440\u0433\u0438\u044f.\u0422\u0435\u0440\u0430\u043f. \u043e\u0442\u0434\u0435\u043b\u0435\u043d\u0438\u0435."}}, {"type": "way", "id": 257181266, "center": {"lat": 58.4973584, "lon": 125.4998525}, "nodes": [2627770685, 2627770686, 2627770687, 2627770688, 2627770689, 2627770690, 2627770685], "tags": {"addr:housenumber": "1\u0410", "addr:street": "\u0443\u043b\u0438\u0446\u0430 \u041a\u0430\u0440\u043b\u0430 \u041c\u0430\u0440\u043a\u0441\u0430", "amenity": "hospital", "building": "yes", "building:levels": "2", "name": "\u0414\u0438\u0441\u043f\u0430\u043d\u0441\u0435\u0440 \u043f\u0441\u0438\u0445\u043e\u043d\u0435\u0432\u0440\u043e\u043b\u043e\u0433\u0438\u0447\u0435\u0441\u043a\u0438\u0439"}}, {"type": "way", "id": 261629592, "center": {"lat": 59.2544733, "lon": 125.2908557}, "nodes": [2672364715, 2672364717, 2672364718, 2672364713, 2672364716, 2672364714, 2672364715], "tags": {"addr:street": "\u041b\u0435\u0441\u043d\u0430\u044f \u0443\u043b\u0438\u0446\u0430", "amenity": "hospital", "building": "yes", "building:levels": "1", "name": "\u0411\u043e\u043b\u044c\u043d\u0438\u0446\u0430"}}, {"type": "way", "id": 269904041, "center": {"lat": 51.6679226, "lon": 128.9182378}, "nodes": [6512587879, 6512587880, 2750312632, 2750312633, 6512587881, 6512587873, 6512587872, 6512587871, 6512587877, 6512587878, 6512587876, 6512587875, 6512587874, 6512587879], "tags": {"addr:housenumber": "21", "addr:street": "\u0428\u043a\u043e\u043b\u044c\u043d\u0430\u044f \u0443\u043b\u0438\u0446\u0430", "amenity": "hospital", "building": "yes", "name": "\u0411\u043e\u043b\u044c\u043d\u0438\u0446\u0430"}}, {"type": "way", "id": 286523730, "center": {"lat": 50.2962353, "lon": 127.5441955}, "nodes": [2902054369, 2902054361, 2902054347, 2902054362, 2902054369], "tags": {"amenity": "hospital", "building": "yes", "healthcare": "hospital", "name": "\u0414\u0435\u0442\u0441\u043a\u0430\u044f \u043f\u043e\u043b\u0438\u043a\u043b\u0438\u043d\u0438\u043a\u0430 \u21163"}}, {"type": "way", "id": 289679142, "center": {"lat": 57.0218082, "lon": 120.7327639}, "nodes": [2932291820, 2932291821, 2932291822, 2932291823, 2932291820], "tags": {"amenity": "hospital", "building": "yes", "healthcare": "hospital"}}, {"type": "way", "id": 315205039, "center": {"lat": 54.0501668, "lon": 122.8925649}, "nodes": [3213099290, 3213099289, 3213099334, 3213099292, 3213099291, 3213099290], "tags": {"amenity": "hospital", "name": "\u0423\u0447\u0430\u0441\u0442\u043a\u043e\u0432\u0430\u044f \u0431\u043e\u043b\u044c\u043d\u0438\u0446\u0430 \u043f.\u0433.\u0442. \u0423\u0440\u0443\u0448\u0430", "operator": "\u0413\u0411\u0423\u0417 \u0410\u041e \u201c\u0421\u043a\u043e\u0432\u043e\u0440\u043e\u0434\u0438\u043d\u0441\u043a\u0430\u044f \u0426\u0420\u0411\u201d", "phone": "+7-41654 -22-6-02"}}, {"type": "way", "id": 318746072, "center": {"lat": 53.9749488, "lon": 123.9270945}, "nodes": [3251178189, 3251178190, 5070919107, 3251178192, 3251178189], "tags": {"addr:housenumber": "10", "addr:street": "\u0443\u043b\u0438\u0446\u0430 \u041f\u043e\u0431\u0435\u0434\u044b", "amenity": "hospital", "emergency": "yes", "name": "\u0413\u0411\u0423\u0417 \u0410\u041e \"\u0421\u043a\u043e\u0432\u043e\u0440\u043e\u0434\u0438\u043d\u0441\u043a\u0430\u044f \u0426\u0420\u0411\"", "phone": "+7 924 1480303", "website": "http://skovzdrav.ru/"}}, {"type": "way", "id": 330999579, "center": {"lat": 58.6039778, "lon": 125.3917637}, "nodes": [3380500777, 3380500778, 3380500775, 1105775772, 1105775771, 3380500776, 3380500777], "tags": {"amenity": "hospital", "building": "yes", "building:levels": "2", "name": "\u041b\u0435\u0447\u0435\u0431\u043d\u043e-\u0414\u0438\u0430\u0433\u043d\u043e\u0441\u0442\u0438\u0447\u0435\u0441\u043a\u0438\u0439 \u0426\u0435\u043d\u0442\u0440 \u0416\u0414(\u042f)"}}, {"type": "way", "id": 369801439, "center": {"lat": 58.6072146, "lon": 125.3656659}, "nodes": [3735586625, 3735586626, 3735586627, 3735586628, 3735586629, 3735586630, 3735586631, 3735586632, 3735586633, 3735586634, 3735586635, 3735586636, 3735586637, 3735586638, 4077588853, 3735586639, 3735586640, 3735586641, 3735586642, 3735586643, 3735586644, 3735586645, 3735586625], "tags": {"amenity": "hospital", "name": "\u0426\u0435\u043d\u0442\u0440\u0430\u043b\u044c\u043d\u0430\u044f \u0440\u0430\u0439\u043e\u043d\u043d\u0430\u044f \u0431\u043e\u043b\u044c\u043d\u0438\u0446\u0430"}}, {"type": "way", "id": 426266797, "center": {"lat": 50.9217889, "lon": 128.497011}, "nodes": [4255718906, 4255718907, 4255718908, 4255718909, 4255718910, 4255718911, 4255718906], "tags": {"amenity": "hospital", "healthcare": "hospital", "name": "\u0432\u043e\u0435\u043d\u043d\u044b\u0439 \u0433\u043e\u0441\u043f\u0438\u0442\u0430\u043b\u044c"}}, {"type": "way", "id": 435251862, "center": {"lat": 51.7604216, "lon": 128.126817}, "nodes": [4331912498, 4331912499, 4331912500, 4331912501, 4331912502, 4331912503, 4331912498], "tags": {"amenity": "hospital", "healthcare": "hospital"}}, {"type": "way", "id": 520366586, "center": {"lat": 53.4811947, "lon": 123.9032117}, "nodes": [5071942087, 5071942088, 5071942089, 5071942090, 5071942087], "tags": {"addr:housenumber": "27", "addr:street": "\u041b\u0435\u0441\u043d\u0430\u044f \u0443\u043b\u0438\u0446\u0430", "amenity": "hospital", "building": "yes", "description": "8-41654 -22-6-02 \u0421\u043a\u043e\u0432\u043e\u0440\u043e\u0434\u0438\u043d\u043e \u0426\u0420\u0411", "name": "\u0414\u0436\u0430\u043b\u0438\u043d\u0434\u0438\u043d\u0441\u043a\u0430\u044f \u0443\u0447\u0430\u0441\u0442\u043a\u043e\u0432\u0430\u044f \u0431\u043e\u043b\u044c\u043d\u0438\u0446\u0430", "phone": "+7-41654 -22-6-02", "website": "http://skovzdrav.ru/"}}, {"type": "way", "id": 520779703, "center": {"lat": 53.6829577, "lon": 124.8175619}, "nodes": [5075221921, 5075221922, 5075221923, 5075221924, 5075221921], "tags": {"amenity": "hospital", "name": "\u0422\u0430\u043b\u0434\u0430\u043d\u0441\u043a\u0430\u044f \u0443\u0447\u0430\u0441\u0442\u043a\u043e\u0432\u0430\u044f \u0431\u043e\u043b\u044c\u043d\u0438\u0446\u0430"}}, {"type": "way", "id": 520905084, "center": {"lat": 53.1161719, "lon": 126.3122894}, "nodes": [5076196788, 6125865539, 6125865512, 6125865540, 5076196789, 5076196790, 5076196791, 5076196792, 5076196793, 5076196794, 5076196795, 6125865511, 5076196796, 5076196788], "tags": {"amenity": "hospital", "name": "\u0422\u044b\u0433\u0434\u0438\u043d\u0441\u043a\u0430\u044f \u0443\u0447\u0430\u0441\u0442\u043a\u043e\u0432\u0430\u044f \u0431\u043e\u043b\u044c\u043d\u0438\u0446\u0430"}}, {"type": "way", "id": 521364667, "center": {"lat": 53.7428, "lon": 127.2610026}, "nodes": [5079902984, 5079902985, 5079902986, 5079902987, 5079902988, 5079902989, 5079902990, 5079902991, 5079902993, 5079902992, 5079902984], "tags": {"addr:housenumber": "5", "addr:street": "\u0443\u043b\u0438\u0446\u0430 \u0413\u043e\u0433\u043e\u043b\u044f", "amenity": "hospital", "emergency": "yes", "name": "\u0413\u0411\u0423\u0417 \u0410\u041e \"\u0417\u0435\u0439\u0441\u043a\u0430\u044f \u0431\u043e\u043b\u044c\u043d\u0438\u0446\u0430\"", "phone": "+7 41658 21730"}}, {"type": "way", "id": 521918522, "center": {"lat": 50.7393603, "lon": 128.7363544}, "nodes": [5084598987, 5084598988, 5084598989, 5084598990, 5084598987], "tags": {"amenity": "hospital"}}, {"type": "way", "id": 525725336, "center": {"lat": 54.6292543, "lon": 128.5505724}, "nodes": [5113866958, 5113866959, 5113866960, 5113866961, 5113866962, 5113866963, 5113866964, 5113866965, 5113866966, 5113866958], "tags": {"amenity": "hospital", "healthcare": "hospital", "name": "\u0412\u0435\u0440\u0445\u043d\u0435\u0437\u0435\u0439\u0441\u043a\u0430\u044f \u043b\u0438\u043d\u0435\u0439\u043d\u0430\u044f \u0436.\u0434 \u0431\u043e\u043b\u044c\u043d\u0438\u0446\u0430"}}, {"type": "way", "id": 552269703, "center": {"lat": 58.9696335, "lon": 126.2457531}, "nodes": [5332425194, 5332425212, 5332425195, 5332425196, 5332425197, 5332425198, 5332425199, 5332425200, 5332425201, 5332425202, 5332425203, 5332425204, 5332425205, 5332425206, 5332425207, 5332425208, 5332425209, 5332425210, 5332425211, 5332425194], "tags": {"amenity": "hospital", "healthcare": "hospital", "name": "\u0422\u041f\u041d\u0414\u0418"}}, {"type": "way", "id": 609233868, "center": {"lat": 52.0028414, "lon": 127.6952278}, "nodes": [5770656941, 5770656942, 5770656943, 5770656944, 5770656941], "tags": {"addr:city": "\u0428\u0438\u043c\u0430\u043d\u043e\u0432\u0441\u043a", "addr:street": "\u0411\u043e\u043b\u044c\u043d\u0438\u0447\u043d\u0430\u044f \u0443\u043b\u0438\u0446\u0430", "amenity": "hospital", "emergency": "yes", "healthcare": "hospital"}}, {"type": "way", "id": 609241101, "center": {"lat": 52.0035563, "lon": 127.693376}, "nodes": [5770733341, 5770656938, 5770733342, 5770733343, 5770733341], "tags": {"addr:housenumber": "39", "addr:street": "\u0443\u043b\u0438\u0446\u0430 \u0413\u0430\u0439\u0434\u0430\u0440\u0430", "amenity": "hospital", "building": "hospital", "healthcare": "hospital", "name": "\u041f\u043e\u043b\u0438\u043a\u043b\u0438\u043d\u043d\u0438\u043a\u0430"}}, {"type": "way", "id": 852583483, "center": {"lat": 50.2702106, "lon": 127.5002194}, "nodes": [7953169462, 7953169463, 7953169464, 7953169465, 7953169462], "tags": {"amenity": "hospital", "area": "yes", "healthcare": "hospital"}}, {"type": "way", "id": 852583485, "center": {"lat": 50.2729504, "lon": 127.5001135}, "nodes": [7953169470, 7953169471, 7953169476, 7953169472, 7953178007, 7953169473, 7953169470], "tags": {"amenity": "hospital", "area": "yes", "healthcare": "hospital"}}, {"type": "way", "id": 852583494, "center": {"lat": 50.2703126, "lon": 127.4956305}, "nodes": [7953178023, 7953178024, 7953178025, 7953178028, 7953178031, 7953178026, 7953178023], "tags": {"amenity": "hospital", "area": "yes", "healthcare": "hospital"}}, {"type": "way", "id": 853700016, "center": {"lat": 50.3066557, "lon": 127.5028638}, "nodes": [1271795917, 7962569312, 7962569313, 7962569314, 7962569315, 7962569316, 1271795917], "tags": {"amenity": "hospital", "healthcare": "hospital"}}, {"type": "way", "id": 929839989, "center": {"lat": 50.649437, "lon": 122.4947092}, "nodes": [8622897301, 8622897302, 8622897303, 8622897304, 8622897305, 8622897306, 8622897301], "tags": {"amenity": "hospital", "healthcare": "hospital", "name": "\u804c\u5de5\u533b\u9662"}}, {"type": "way", "id": 1035741764, "center": {"lat": 52.9611793, "lon": 122.560512}, "nodes": [9542784302, 9542784303, 9542784304, 9544816102, 9542784305, 9542784302], "tags": {"amenity": "hospital", "healthcare": "hospital"}}, {"type": "way", "id": 1125974504, "center": {"lat": 51.7173289, "lon": 126.6479471}, "nodes": [10296288046, 10296288047, 10296288048, 10296288049, 10296288050, 10296288046], "tags": {"amenity": "hospital", "healthcare": "hospital", "name": "\u547c\u739b\u53bf\u4eba\u6c11\u533b\u9662"}}, {"type": "way", "id": 1126004452, "center": {"lat": 52.33809, "lon": 124.7101523}, "nodes": [10296542509, 10296542510, 10296542511, 10296542512, 10296542513, 10296542514, 10296542515, 10296542516, 10296542509], "tags": {"amenity": "hospital", "healthcare": "hospital", "name": "\u5854\u6cb3\u53bf\u4eba\u6c11\u533b\u9662"}}, {"type": "way", "id": 1178071476, "center": {"lat": 50.793384, "lon": 124.2970936}, "nodes": [10943926696, 10943926697, 10943926698, 10943926699, 10943926700, 10943926701, 10943926702, 10943926703, 10943926696], "tags": {"amenity": "hospital", "healthcare": "hospital", "name": "\u677e\u5cad\u533b\u9662"}}, {"type": "way", "id": 1178075394, "center": {"lat": 51.6750895, "lon": 124.3952841}, "nodes": [10943919297, 10943919301, 10943919302, 10943919298, 10943919299, 10943919300, 10943919297], "tags": {"amenity": "hospital", "healthcare": "hospital", "name": "\u65b0\u6797\u533a\u4eba\u6c11\u533b\u9662"}}, {"type": "relation", "id": 6903642, "center": {"lat": 56.8362285, "lon": 124.9169563}, "members": [{"type": "way", "ref": 93578270, "role": "outer"}, {"type": "way", "ref": 467998513, "role": "inner"}], "tags": {"addr:city": "\u0427\u0443\u043b\u044c\u043c\u0430\u043d", "addr:housenumber": "53", "addr:street": "\u0422\u0440\u0430\u043d\u0441\u043f\u043e\u0440\u0442\u043d\u0430\u044f \u0443\u043b\u0438\u0446\u0430", "amenity": "hospital", "building": "yes", "emergency": "yes", "name": "\u0411\u043e\u043b\u044c\u043d\u0438\u0447\u043d\u044b\u0439 \u043a\u043e\u043c\u043f\u043b\u0435\u043a\u0441", "type": "multipolygon"}}]}