{"version": 0.6, "generator": "Overpass API 0.7.61.5 4133829e", "osm3s": {"timestamp_osm_base": "2023-10-31T21:00:55Z", "copyright": "The data included in this document is from www.openstreetmap.org. The data is made available under ODbL."}, "elements": [{"type": "node", "id": 1286891893, "lat": 56.8128844, "lon": -132.955361, "tags": {"addr:city": "Petersburg", "addr:housenumber": "103", "addr:postcode": "99833", "addr:state": "AK", "addr:street": "Fram Street", "amenity": "hospital", "beds": "12", "emergency": "yes", "healthcare": "hospital", "name": "Petersburg Medical Center", "opening_hours": "24/7", "phone": "+1 907 772 4291", "website": "https://www.pmcak.org/"}}, {"type": "node", "id": 2972398342, "lat": 54.0204029, "lon": -132.1573868, "tags": {"addr:city": "Massett", "addr:housenumber": "2520", "addr:street": "Harrison Avenue", "amenity": "hospital", "emergency": "yes", "healthcare": "hospital", "name": "Northern Haida Gwaii Hospital and Health Centre"}}, {"type": "node", "id": 5276466315, "lat": 53.2550923, "lon": -132.070211, "tags": {"amenity": "hospital", "healthcare": "hospital", "healthcare:speciality": "community;general;clinic", "name": "Haida Gwaii Hospital and Health Centre", "operator": "Northern Health"}}, {"type": "node", "id": 9883633684, "lat": 56.4631625, "lon": -132.3726365, "tags": {"amenity": "hospital", "healthcare": "hospital", "name": "Wrangell Medical Center", "operator": "Southeast Alaska Regional Health Consortium SEARHC", "operator:type": "private"}}, {"type": "way", "id": 297957175, "center": {"lat": 57.0516902, "lon": -135.355117}, "nodes": [3018573699, 3018574834, 3018574833, 3018573732, 3018573731, 3018573730, 3018573729, 3018573728, 3018573727, 3018573726, 3018573725, 4595209720, 4595209719, 3018573724, 3018573723, 4595209718, 4595209717, 3018573720, 3018573719, 4595209716, 4595209715, 4595209714, 4595209713, 3018573718, 3018573717, 3018573716, 3018573715, 3018573714, 3018573713, 3018573712, 3018573711, 3018573710, 3018573709, 3018573708, 3018573707, 3018573706, 3018573705, 3018573702, 3018573701, 3018573700, 3018573699], "tags": {"addr:city": "Sitka", "addr:housenumber": "222", "addr:postcode": "99835", "addr:state": "AK", "addr:street": "Tongass Drive", "amenity": "hospital", "beds": "25", "building": "hospital", "ele": "18.00", "emergency": "yes", "height": "9.20", "name": "Mt. Edgecumbe Hospital", "name:tli": "S\u2019\u00e1xt\u2019 H\u00edt", "operator": "SouthEast Alaska Regional Health Consortium", "phone": "+1 907 966 2411", "website": "https://searhc.org/service/mt-edgecumbe-hospital-saxt-hit/"}}, {"type": "way", "id": 409580620, "center": {"lat": 58.3291017, "lon": -134.4649065}, "nodes": [4114706837, 4114706838, 4114706839, 548826910, 4114706840, 4114706841, 4114706842, 4114706843, 4114706844, 4114706845, 4114706846, 4114706847, 4114706837], "tags": {"addr:city": "Juneau", "addr:housenumber": "3260", "addr:postcode": "99801", "addr:state": "AK", "addr:street": "Hospital Drive", "amenity": "hospital", "beds": "78", "emergency": "yes", "healthcare": "hospital", "name": "Bartlett Regional Hospital", "phone": "+1 907 796 8900", "website": "https://www.bartletthospital.org/", "wikidata": "Q20712149", "wikipedia": "en:Bartlett Regional Hospital"}}, {"type": "way", "id": 511832677, "center": {"lat": 55.3535059, "lon": -131.6869084}, "nodes": [1609561684, 7472986969, 7472986968, 7472986967, 5005866944, 7472986966, 7472986965, 7472986964, 7472986963, 7472986962, 7472986961, 5005866942, 5005866946, 5005866941, 7472986960, 7472986959, 7472986958, 7472986957, 7472986956, 7472986955, 5005866940, 7472986954, 7472986971, 7472986972, 5005866945, 5005866947, 5005866943, 7472986970, 1609561684], "tags": {"addr:city": "Ketchikan", "addr:housenumber": "3100", "addr:postcode": "99901", "addr:state": "AK", "addr:street": "Tongass Avenue", "amenity": "hospital", "building": "yes", "healthcare": "hospital", "name": "Peace Health Ketchikan Medical Ceneter", "operator": "PeaceHealth", "operator:wikidata": "Q16966652", "operator:wikipedia": "en:PeaceHealth", "source": "Employee"}}, {"type": "way", "id": 586409793, "center": {"lat": 56.4716044, "lon": -132.375543}, "nodes": [5602940137, 5602940136, 5602940135, 5602940134, 5602940137], "tags": {"addr:city": "Wrangell", "addr:housenumber": "310", "addr:postcode": "99929", "addr:state": "AK", "addr:street": "Bennett Street", "amenity": "hospital", "beds": "8", "emergency": "yes", "healthcare": "hospital", "name": "Wrangell Medical Center", "opening_hours": "24/7", "phone": "+1 907 874 7000", "website": "http://www.wrangellmedicalcenter.org/"}}, {"type": "way", "id": 891349578, "center": {"lat": 57.051699, "lon": -135.355576}, "nodes": [3023685261, 3023685256, 3023685260, 3018573724, 4735165057, 65865250, 65870813, 65870810, 65870808, 65870806, 3817930684, 1532162695, 4735164711, 1532162697, 8284913769, 1532162776, 8284913770, 1532162637, 1532162613, 1532162601, 1309134882, 65870799, 3023685239, 3023685252, 3023685261], "tags": {"amenity": "hospital", "healthcare": "hospital"}}, {"type": "way", "id": 992672370, "center": {"lat": 54.3047714, "lon": -130.329985}, "nodes": [9171464392, 9171464393, 9171464394, 9171464395, 9171464396, 9171464397, 9171464398, 9171464399, 9171464400, 9171464401, 9171464392], "tags": {"addr:housenumber": "1305", "addr:postcode": "V8J 2A6", "addr:street": "Summit Avenue", "amenity": "hospital", "healthcare": "hospital", "name": "Prince Rupert Regional Hospital"}}]}