{"version": 0.6, "generator": "Overpass API 0.7.61.5 4133829e", "osm3s": {"timestamp_osm_base": "2023-10-31T21:00:55Z", "copyright": "The data included in this document is from www.openstreetmap.org. The data is made available under ODbL."}, "elements": [{"type": "node", "id": 2086726183, "lat": 50.2529439, "lon": -96.0607079, "tags": {"amenity": "hospital", "building": "yes", "healthcare": "hospital", "name": "Lac du Bonnet Personal Care Home", "source": "NRCan-CanVec-10.0"}}, {"type": "node", "id": 2390914683, "lat": 58.7720584, "lon": -94.1714057, "tags": {"addr:housenumber": "162", "addr:street": "La Verendrye Avenue", "amenity": "hospital", "emergency": "yes", "healthcare": "hospital", "name": "Churchill Health Centre", "phone": "+1-204-675-8881", "website": "http://www.churchillrha.com/", "wheelchair": "yes"}}, {"type": "node", "id": 4295600906, "lat": 51.0579227, "lon": -99.518686, "tags": {"amenity": "hospital", "emergency": "yes"}}, {"type": "way", "id": 75496308, "center": {"lat": 50.1512611, "lon": -95.8835341}, "nodes": [891256202, 891258627, 891262889, 891264859, 891262585, 891264551, 891257405, 891260144, 891264015, 891265976, 891259419, 891262007, 891256202], "tags": {"amenity": "hospital", "attribution": "2001 Her Majesty the Queen in Right of Manitoba, as represented by the Minister of Conservation. All rights reserved.", "building": "yes", "emergency": "yes", "name": "Pinawa Hospital", "source": "Manitoba Lands Initiative"}}, {"type": "way", "id": 76800298, "center": {"lat": 50.2415979, "lon": -99.8399312}, "nodes": [960494598, 904720816, 904687845, 904741634, 904706203, 904684799, 904736220, 904703985, 904669339, 904708728, 904674122, 904725654, 904694311, 904671893, 904723046, 904691389, 904746222, 904714467, 904679819, 904731454, 904699985, 904677585, 904728950, 904697710, 904662822, 904702210, 904667610, 904719049, 904685431, 904665397, 904716832, 904682130, 904733759, 904689094, 904743038, 904706721, 904672409, 904737527, 904704504, 904669858, 960494598], "tags": {"amenity": "hospital", "attribution": "2001 Her Majesty the Queen in Right of Manitoba, as represented by the Minister of Conservation. All rights reserved.", "building": "yes", "healthcare": "hospital", "name": "Minnedosa General", "source": "Manitoba Lands Initiative"}}, {"type": "way", "id": 78480284, "center": {"lat": 50.2252285, "lon": -98.9431632}, "nodes": [921009178, 921024040, 921034306, 921031405, 921033898, 921014794, 921042795, 921030481, 921009178], "tags": {"amenity": "hospital", "building": "yes", "source": "CanVec 6.0 - NRCan"}}, {"type": "way", "id": 80214209, "center": {"lat": 50.8646435, "lon": -98.1051945}, "nodes": [936071085, 936074249, 936067499, 936074255, 936071085], "tags": {"amenity": "hospital", "building": "yes", "source": "CanVec 6.0 - NRCan"}}, {"type": "way", "id": 133597180, "center": {"lat": 56.3466648, "lon": -94.7082344}, "nodes": [1470475923, 2701966310, 2701966311, 1470476122, 1470476216, 1470476175, 2700389741, 2700389744, 1470475923], "tags": {"amenity": "hospital", "building": "yes", "source": "NRCan-CanVec-8.0"}}, {"type": "way", "id": 140441440, "center": {"lat": 51.640007, "lon": -99.9329478}, "nodes": [1538664712, 1538664810, 1538664960, 1538665039, 1538665227, 1538665216, 1538665369, 1538665339, 1538665010, 1538665014, 1538664712], "tags": {"amenity": "hospital", "building": "yes", "source": "NRCan-CanVec-8.0"}}, {"type": "way", "id": 142056213, "center": {"lat": 50.1316185, "lon": -97.3354319}, "nodes": [1141419326, 1141419161, 1554794982, 1554794931, 1554795147, 1554795129, 1554795095, 1554794937, 1554795152, 1554795134, 1554795049, 1141419417, 1141419348, 1141419380, 1141419127, 1141418954, 1141419379, 1141419326], "tags": {"amenity": "hospital", "name": "Stonewall and District Health Centre"}}, {"type": "way", "id": 183333366, "center": {"lat": 50.6278891, "lon": -96.994107}, "nodes": [2510724894, 2510725035, 2510724925, 2510724981, 2510724760, 1820695176, 2510724894], "tags": {"amenity": "hospital", "name": "Gimli Community Health Centre", "old_name": "Johnson Memorial Hospital", "phone": "+1-204-642-5116", "source": "Interlake RHA", "website": "http://www.irha.mb.ca/default.aspx?cid=1894&lang=1"}}, {"type": "way", "id": 188852883, "center": {"lat": 50.563405, "lon": -96.2151339}, "nodes": [1994862181, 1994862235, 1994862270, 1994862219, 1994862307, 1994862299, 1994862356, 1994862360, 1994862398, 1994862452, 1994862459, 1994862387, 1994862359, 1994862389, 1994862346, 1994862385, 1994862354, 1994862313, 1994862283, 1994862286, 1994862231, 1994862230, 1994862186, 1994862181], "tags": {"amenity": "hospital", "building": "yes", "healthcare": "hospital", "name": "Pine Falls Health Complex", "operator": "Interlake-Eastern Regional Health Authority", "source": "NRCan-CanVec-10.0", "website": "https://www.ierha.ca/pine-falls-health-complex-emergency-department-to-re-open"}}, {"type": "way", "id": 201859651, "center": {"lat": 50.0578786, "lon": -96.5201178}, "nodes": [3358329698, 3358329732, 3358329788, 3358329780, 3358329701, 3358329737, 3358329754, 3358329586, 3358329752, 3358329768, 3358329711, 3358329738, 3358329775, 3358329733, 3358329784, 3358329719, 3358329787, 3358329716, 3358329710, 3358329770, 2118773705, 3358329771, 2118773601, 2118773600, 3358329762, 3358329727, 3358329725, 3358329736, 3358329767, 3358329748, 3358329785, 3358329698], "tags": {"amenity": "hospital", "building": "yes", "source": "NRCan-CanVec-10.0"}}, {"type": "way", "id": 224499689, "center": {"lat": 50.9060808, "lon": -97.2263781}, "nodes": [1387989917, 2333194706, 2333194788, 2333194690, 2333194578, 2333194574, 2333194775, 2333194807, 2333194830, 2333194631, 1387989917], "tags": {"amenity": "hospital", "healthcare": "hospital", "name": "Arborg Regional District Health Center;Arborg hospital"}}, {"type": "way", "id": 280505693, "center": {"lat": 54.8359077, "lon": -94.0531053}, "nodes": [2846126675, 2846126676, 2846126677, 2846126678, 2846126679, 2846126680, 2846126675], "tags": {"addr:postcode": "R0B 0N0", "amenity": "hospital", "building": "yes", "healthcare": "hospital", "name": "Johnny McKay Memorial Centre"}}, {"type": "way", "id": 415678539, "center": {"lat": 52.0165052, "lon": -95.457954}, "nodes": [4166708919, 4166708920, 4166708921, 4166708922, 4166708923, 4166708924, 4166708925, 4166708926, 4166708927, 4166708928, 4166708929, 4166708930, 4166708919], "tags": {"amenity": "hospital", "building": "hospital", "emergency": "yes", "healthcare": "hospital", "name": "Little Grand Rapids Nursing Station", "phone": "+1-204-397-2115"}}, {"type": "way", "id": 534086758, "center": {"lat": 51.1802598, "lon": -98.3528261}, "nodes": [5180400311, 5180400317, 5180400313, 5180400315, 5180400316, 5180400314, 5180400318, 5180400319, 5180400312, 5180400921, 5180400926, 5180400929, 5180400923, 5180400924, 5180400925, 5180400922, 5180400928, 5180400927, 5180400320, 5180400311], "tags": {"amenity": "hospital", "building": "hospital"}}, {"type": "way", "id": 563148076, "center": {"lat": 53.9849885, "lon": -97.8313194}, "nodes": [5427754650, 5427754654, 5427754646, 5427754647, 5427754648, 5427754653, 5427754660, 5427754661, 5427754662, 5427754663, 5427754652, 5427754656, 5427754655, 5427754649, 5427754651, 5427754659, 5427754645, 5427754644, 10004644399, 10004644398, 5427754642, 5427754643, 5427754658, 5427754657, 5427754650], "tags": {"amenity": "hospital", "building": "yes", "name": "Norway House Health Centre"}}, {"type": "way", "id": 568308756, "center": {"lat": 50.3873609, "lon": -97.2549049}, "nodes": [5467680513, 5467680507, 5467680506, 5467680512, 5467680509, 5467680508, 5467680511, 5467680505, 5467680504, 5467680510, 5467680502, 5467680503, 5467680500, 5467680501, 5467680513], "tags": {"amenity": "hospital", "building": "hospital", "name": "Teulon Hospital"}}, {"type": "way", "id": 658260364, "center": {"lat": 53.8728957, "lon": -94.65291}, "nodes": [6164409162, 6148079842, 6148079843, 6148079844, 6148079845, 6148079846, 6148079847, 6148079848, 6148079849, 6177049556, 6148079826, 6164409162], "tags": {"amenity": "hospital", "healthcare": "hospital", "name": "Garden Hill Health Center"}}, {"type": "way", "id": 661802419, "center": {"lat": 50.6117168, "lon": -96.3073126}, "nodes": [6195860977, 6195860978, 6195860979, 6195860980, 6195860977], "tags": {"amenity": "hospital", "building": "yes", "healthcare": "hospital", "name": "Sagkeeng Health Centre"}}, {"type": "way", "id": 672783384, "center": {"lat": 51.0132535, "lon": -93.8218272}, "nodes": [6300285157, 6300285154, 6300285165, 6300285168, 6300285169, 6300285160, 6300285149, 6300285150, 6300285153, 6300285158, 6300285163, 6300285156, 6300296598, 6300285155, 6300285152, 6300285170, 6300285166, 6300285167, 6300285162, 6300285161, 6300285159, 6300285151, 6300285157], "tags": {"addr:city": "Red Lake", "addr:housenumber": "51", "addr:postcode": "P0V 2M0", "addr:street": "Highway 105", "amenity": "hospital", "emergency": "yes", "healthcare": "hospital", "name": "Red Lake Margaret Cochenour Memorial Hospital", "operator": "Red Lake Margaret Cochenour Memorial Hospital"}}, {"type": "way", "id": 697050781, "center": {"lat": 50.611385, "lon": -96.309178}, "nodes": [6546359677, 6546373487, 6546359684, 6546359678, 6546359679, 6546373485, 6546359680, 6546359681, 6546359677], "tags": {"amenity": "hospital", "healthcare": "hospital", "name": "Mino Pimatiziwin Family Treatment Centre"}}, {"type": "way", "id": 734993383, "center": {"lat": 50.2343937, "lon": -99.4610608}, "nodes": [6883640037, 6883640038, 6883640039, 6883640040, 6883640041, 6883640042, 6883664092, 6883640037], "tags": {"addr:city": "Neepawa", "addr:housenumber": "500", "addr:postcode": "R0J 1H0", "addr:province": "Manitoba", "addr:street": "h", "amenity": "hospital", "healthcare": "hospital", "name": "Neepawa Health Centre (Memorial Hospital)"}}, {"type": "way", "id": 785369048, "center": {"lat": 50.1056506, "lon": -91.9278927}, "nodes": [7340667828, 5022757353, 5022757354, 5022757355, 5022757356, 7340667827, 4928795080, 4928795079, 4928795078, 4928795077, 4928795076, 4928795075, 4928795074, 4928795073, 4928795072, 4928795071, 4928795070, 4928795069, 4928795068, 5022757330, 5022757331, 5022757332, 5022757333, 5022757343, 5022757335, 5022757336, 5022757337, 5022757338, 7340667826, 5022757348, 7340667828], "tags": {"addr:city": "Sioux Lookout", "addr:housenumber": "1", "addr:postcode": "P8T 1B4", "addr:street": "Meno Ya Win Way", "amenity": "hospital", "emergency": "yes", "healthcare": "hospital", "name": "Sioux Lookout Meno Ya Win Health Centre", "operator": "Sioux Lookout Meno Ya Win Health Centre"}}, {"type": "way", "id": 1046832008, "center": {"lat": 51.2160199, "lon": -97.5748934}, "nodes": [9626411492, 9626411493, 9626411494, 9626411495, 9626411492], "tags": {"amenity": "hospital", "healthcare": "hospital", "name": "Percy E. Moore Hospital"}}]}