{"version": 0.6, "generator": "Overpass API 0.7.61.5 4133829e", "osm3s": {"timestamp_osm_base": "2023-10-31T21:00:55Z", "copyright": "The data included in this document is from www.openstreetmap.org. The data is made available under ODbL."}, "elements": [{"type": "node", "id": 631341165, "lat": 54.7850389, "lon": -127.163183, "tags": {"amenity": "hospital", "name": "Bulkley Valley District Hospital", "toilets:wheelchair": "yes", "wheelchair": "yes"}}, {"type": "node", "id": 2923666090, "lat": 55.6963359, "lon": -121.6442067, "tags": {"amenity": "hospital", "name": "Chetwynd Hospital"}}, {"type": "node", "id": 2950496204, "lat": 59.288701, "lon": -129.8493918, "tags": {"amenity": "hospital", "building": "yes", "source": "NRCan-CanVec-10.0"}}, {"type": "node", "id": 3154528802, "lat": 51.6386088, "lon": -121.292176, "tags": {"amenity": "hospital", "healthcare": "hospital", "name": "100 Mile District general hospital"}}, {"type": "node", "id": 3155946154, "lat": 50.3211236, "lon": -122.8043451, "tags": {"addr:city": "Pemberton", "addr:housenumber": "1403", "addr:postcode": "V0N 2L0", "addr:province": "BC", "addr:street": "Portage Road", "amenity": "hospital", "designation": "hospital \u00e9 Health Centre", "emergency": "no", "healthcare": "hospital", "name": "Pemberton Health Centre", "operator": "BC Medical Services", "phone": "+1-604-894-6939", "source": "user", "website": "https://www.vch.ca/locations-and-services/find-health-services/?program_id=2909", "wheelchair": "yes"}}, {"type": "node", "id": 3166081075, "lat": 52.3735771, "lon": -126.7570804, "tags": {"addr:city": "Bella Coola", "addr:postcode": "V0T 1C0", "addr:street": "Elcho Street", "amenity": "hospital", "emergency": "yes", "healthcare": "hospital", "name": "Bella Coola General Hospital"}}, {"type": "node", "id": 3861754925, "lat": 50.5938332, "lon": -126.942812, "tags": {"addr:housenumber": "49", "addr:street": "School Road", "amenity": "hospital", "emergency": "yes", "healthcare": "hospital", "name": "Cormorant Island Health Centre", "operator": "Island Health", "operator:type": "public", "phone": "+1-250-974-5585", "website": "https://www.islandhealth.ca/our-locations/hospitals-health-centre-locations/cormorant-island-health-centre"}}, {"type": "node", "id": 4858750222, "lat": 53.3010371, "lon": -120.161701, "tags": {"amenity": "hospital", "healthcare": "hospital", "name": "McBride and District Hospital"}}, {"type": "node", "id": 10707826890, "lat": 52.161245, "lon": -128.1434898, "tags": {"addr:housenumber": "88", "addr:street": "Waglisla Street", "amenity": "hospital", "healthcare": "hospital", "name": "R.W. Large Memorial Hospital"}}, {"type": "node", "id": 11221334631, "lat": 55.9400803, "lon": -129.9900566, "tags": {"amenity": "hospital", "source": "NRCan-CanVec-10.0"}}, {"type": "way", "id": 93844827, "center": {"lat": 54.0504474, "lon": -128.6471304}, "nodes": [1090633543, 2271301849, 2271301848, 2271301850, 2271301853, 1090633790, 1090633617, 1090633745, 1090633765, 1090633761, 1090633705, 1090633673, 1090633756, 1090633726, 1090633584, 1090633797, 1090633569, 1090633709, 1090633622, 2271277341, 2271277335, 2271277334, 2271277325, 2271277326, 2271277324, 1090633579, 1090633840, 2271277293, 2271277310, 2271277297, 2271277289, 1090633565, 1090633682, 1090633543], "tags": {"addr:housenumber": "920", "addr:street": "South   Lahakas Boulevard", "amenity": "hospital", "building": "yes", "emergency": "yes", "healthcare": "hospital", "name": "Kitimat General Hospital and Health Centre", "website": "https://www.northernhealth.ca/find-a-facility/hospitals/kitimat-general-hospital-and-health-centre"}}, {"type": "way", "id": 98036979, "center": {"lat": 55.696317, "lon": -121.6444047}, "nodes": [1134167584, 1134410652, 1134184798, 1134169755, 1134168383, 1134416191, 1134183394, 1134189372, 1134187731, 1134162515, 1134169322, 1134180985, 1134161758, 1134178604, 1134167584], "tags": {"amenity": "hospital", "building": "yes", "source": "NRCan-CanVec-7.0"}}, {"type": "way", "id": 114340864, "center": {"lat": 50.1219301, "lon": -120.7731019}, "nodes": [1295433477, 1295428810, 1295433704, 1295418976, 1295423813, 9866058967, 9866058991, 1295434014, 9866059007, 9866058995, 9866058981, 9866058974, 1295417889, 1295425656, 9866059016, 9866058982, 9866058979, 9866058986, 1295428331, 1295428003, 9866059002, 9866058990, 1295429969, 1295426526, 9866058992, 9866058968, 9866058988, 9866058993, 1295433477], "tags": {"addr:city": "Merritt", "addr:housenumber": "3451", "addr:postcode": "V1K 1C6", "addr:province": "BC", "addr:street": "Voght Street", "addr:unit": "Nicola Valley Hospital", "amenity": "hospital", "building": "yes", "emergency": "yes", "fax": "+1-250-378-3287", "healthcare": "hospital", "name": "Nicola Valley Hospital & Heath Centre", "opening_hours": "24/7", "operator": "Interior Health", "phone": "+1-250-378-2242", "website": "https://www.interiorhealth.ca/locations/nicola-valley-hospital-and-health-centre"}}, {"type": "way", "id": 115681918, "center": {"lat": 50.734752, "lon": -121.2801312}, "nodes": [1306266428, 1306265135, 1306262473, 1306264924, 1306262941, 6828430759, 1306262632, 1306261255, 1306261212, 1306266428], "tags": {"amenity": "hospital", "building": "yes", "healthcare": "hospital", "name": "Ashcroft Community Health Centre", "source": "NRCan-CanVec-7.0"}}, {"type": "way", "id": 125811044, "center": {"lat": 50.7031754, "lon": -120.395573}, "nodes": [1396378310, 1396377926, 1396377925, 1396377750, 1396377749, 1396377735, 1396377734, 1396377630, 1396377571, 1396377573, 1396377587, 1396377594, 1396377574, 1396377577, 1396377631, 1396377632, 1396377584, 1396377583, 1396377468, 1396377351, 1396377361, 1396377393, 1396377394, 1396377628, 1396377627, 1396377671, 1396377675, 1396377654, 1396377657, 1396377756, 1396377808, 1396377807, 1396377824, 1396377821, 1396377805, 1396377804, 1396377834, 1396377835, 1396377950, 1396378041, 1396378040, 1396378024, 1396378023, 1396377964, 1396377960, 1396378039, 1396378131, 1396378454, 1396378310], "tags": {"amenity": "hospital", "building": "service", "healthcare": "hospital", "height": "8.84500000", "name": "Overlander Hospital", "source": "City of Kamloops"}}, {"type": "way", "id": 161779581, "center": {"lat": 58.8089444, "lon": -122.7050154}, "nodes": [1737406192, 1737406210, 1737406203, 1737406204, 1737406207, 1737406213, 1737406191, 1737406190, 1737406178, 1737406179, 1737406175, 1737406171, 1737406143, 1737406128, 1737406169, 1737406166, 1737406176, 1737406177, 1737406181, 1737406180, 1737406192], "tags": {"addr:city": "Fort Nelson", "addr:housenumber": "5315", "addr:street": "liard Street", "amenity": "hospital", "building": "yes", "emergency": "yes", "healthcare": "hospital", "name": "Fort Nelson General Hospital", "website": "https://www.northernhealth.ca/OurServices/ContactUs/CommunityContactsFacilities/NorthEast/FortNelson.aspx", "wikipedia": "en:List of hospitals in British Columbia"}}, {"type": "way", "id": 184193563, "center": {"lat": 55.7496995, "lon": -120.2355971}, "nodes": [1946512021, 1946511987, 1946512025, 1946511991, 1946512006, 1946511972, 1946512027, 1946511990, 1946511894, 1946511887, 1946511798, 1946511774, 1946511730, 1946511765, 1946511723, 1946511707, 1946511698, 1946511692, 1946511694, 1946511660, 1946511661, 1946511671, 1946511673, 1946511647, 1946511658, 1946511636, 1946511638, 1946511675, 1946511678, 1946511718, 1946511715, 1946511712, 1946511709, 1946511782, 1946511778, 1946511824, 1946511811, 1946511848, 1946511850, 1946511883, 1946511885, 1946511896, 1946511895, 1946511926, 1946511982, 1946512021], "tags": {"addr:housenumber": "11100", "addr:postcode": "V1G 3W8", "addr:street": "13 Street", "amenity": "hospital", "building": "hospital", "emergency": "yes", "healthcare": "hospital", "name": "Dawson Creek & District Hospital", "phone": "+1-250-782-8501"}}, {"type": "way", "id": 222534272, "center": {"lat": 50.6694997, "lon": -120.3343465}, "nodes": [2314890785, 2314890786, 2478246308, 2314890787, 2649309109, 2478246305, 2314890788, 2478246316, 2478246318, 2314890789, 1479999039, 2314890790, 2314890791, 2314890792, 2543868670, 2314890793, 2314890794, 2314890795, 2314890796, 2314890797, 2314890798, 2314890799, 2314890800, 2314890801, 2314890802, 2314890803, 2314890804, 2314890805, 2314890806, 2314890785], "tags": {"addr:city": "Kamloops", "addr:housenumber": "311", "addr:postcode": "V2C 2T1", "addr:province": "BC", "addr:street": "Columbia Street", "amenity": "hospital", "beds": "224", "emergency": "yes", "healthcare": "hospital", "healthcare:speciality": "emergency;trauma;trauma_surgery;trauma-surgery;trauma_center;trauma-center", "name": "Royal Inland Hospital"}}, {"type": "way", "id": 258499176, "center": {"lat": 56.2556089, "lon": -120.8144735}, "nodes": [2638430157, 2638430158, 2638430159, 2638430160, 2638430161, 2956087049, 2956087037, 2956086574, 2956086750, 2956086817, 2956086954, 2638430162, 2956086813, 2956086757, 2956086916, 2956086887, 2956087008, 2638430163, 2638430157], "tags": {"amenity": "hospital", "healthcare": "hospital", "name": "Fort St. John Hospital"}}, {"type": "way", "id": 258499177, "center": {"lat": 56.256062, "lon": -120.8167079}, "nodes": [2638430164, 10616947721, 2638430165, 2638430166, 2638430167, 10616947720, 10616947723, 2638430168, 10616947722, 2638430169, 2638430170, 10616947724, 2638430171, 10616884073, 10616884074, 10616884075, 10616884076, 2638430172, 2638430173, 2638430174, 2638430175, 2638430176, 2638430177, 2638430178, 10616884068, 2638430179, 10616884069, 10616884070, 10616884071, 10616884072, 2638430180, 2638430181, 2638430182, 2638430183, 2956086587, 2956086895, 2638430184, 2638430185, 2956086837, 2956086806, 2638430164], "tags": {"addr:housenumber": "8407", "addr:street": "112 Avenue", "amenity": "hospital", "building": "yes", "healthcare": "hospital", "name": "Fort St. John Hospital", "website": "https://www.northernhealth.ca/OurServices/Facilities.aspx?FacilityID=24", "wikipedia": "en:Fort St. John, British Columbia"}}, {"type": "way", "id": 354698177, "center": {"lat": 52.9811026, "lon": -122.4995991}, "nodes": [2149358556, 10138985655, 10138985714, 10138985779, 2210758256, 2210758249, 2210758262, 2210758216, 2210758219, 2210758217, 2210758218, 2210758220, 2210758260, 2210758221, 3603810699, 3603794102, 2149358556], "tags": {"addr:city": "Quesnel", "addr:housenumber": "543", "addr:postcode": "V2J 2K7", "addr:province": "BC", "addr:street": "Front Street", "amenity": "hospital", "beds": "38", "emergency": "yes", "fax": "+1 250-992-5652", "healthcare": "hospital", "name": "G.R. Baker Memorial Hospital", "phone": "+1 250-985-5600", "website": "https://www.northernhealth.ca/find-a-facility/hospitals/gr-baker-memorial-hospital"}}, {"type": "way", "id": 406228670, "center": {"lat": 51.6453573, "lon": -120.017682}, "nodes": [4083297374, 4083297397, 4083297351, 4083297326, 4083297374], "tags": {"amenity": "hospital", "healthcare": "hospital", "name": "Dr. Helmcken Memorial Hospital"}}, {"type": "way", "id": 406228673, "center": {"lat": 51.645091, "lon": -120.0177969}, "nodes": [4083297356, 4083297360, 4083297368, 4083297373, 4083297363, 4083297369, 4083297358, 4083297362, 4083297353, 4083297361, 4083297352, 4083297350, 4083297349, 4083297348, 4083297344, 4083297336, 4083297339, 4083297334, 4083297329, 4083297330, 4083297338, 4083297333, 4083297341, 4083297347, 4083297356], "tags": {"addr:housenumber": "640", "addr:street": "Park Drive", "amenity": "hospital", "building": "hospital", "healthcare": "hospital", "name": "Dr. Helmcken Memorial Hospital"}}, {"type": "way", "id": 445255625, "center": {"lat": 53.913002, "lon": -122.764458}, "nodes": [4427121363, 4427121364, 4427121365, 4427121366, 4427121367, 4427121368, 4427121369, 4427121370, 4427121371, 4427121372, 4427121373, 4427121374, 4427121375, 4427121376, 4427121377, 4427121363], "tags": {"amenity": "hospital", "healthcare": "hospital", "name": "University Hospital of Northern British Columbia"}}, {"type": "way", "id": 480751591, "center": {"lat": 54.0289373, "lon": -124.0106683}, "nodes": [5166428575, 4737205442, 4737205434, 9236917505, 5166420561, 4737205444, 4737205445, 5166420560, 538678642, 5166428581, 5166428578, 5166428577, 5166428575], "tags": {"amenity": "hospital", "healthcare": "hospital", "name": "St. John Hospital"}}, {"type": "way", "id": 493019041, "center": {"lat": 50.7200012, "lon": -127.5028879}, "nodes": [5472304124, 4849656843, 11223048782, 11223048783, 4849656844, 11223048781, 11223048780, 4849656845, 4849656846, 4849656847, 4849656848, 4849656849, 4849656850, 4849656851, 4849656852, 11223048789, 11223048790, 4849656853, 4849656854, 11223048788, 4849656855, 4849656856, 11223048787, 11223048786, 4849656857, 11223048785, 11223048784, 5472304124], "tags": {"addr:city": "Port Hardy", "addr:housenumber": "9120", "addr:street": "Granville Street", "amenity": "hospital", "building": "hospital", "healthcare": "hospital", "name": "Port Hardy Hospital", "opening_hours": "24/7"}}, {"type": "way", "id": 532543472, "center": {"lat": 58.4418445, "lon": -129.9921007}, "nodes": [5167472022, 5167472021, 5167470518, 5167472025, 5167472027, 5167472026, 5167470519, 5167470520, 5167470517, 5167472023, 5167472024, 5167472022], "tags": {"amenity": "hospital", "building": "hospital", "healthcare": "hospital", "name": "Stikine Regional Health Centre"}}, {"type": "way", "id": 533012796, "center": {"lat": 54.2360047, "lon": -125.761271}, "nodes": [5171761849, 5171761854, 5171761856, 5171761855, 5171761850, 5171761851, 5171761852, 5171761853, 5171761849], "tags": {"addr:city": "Burns Lake", "addr:housenumber": "741", "addr:street": "Centre Street", "amenity": "hospital", "building": "public", "healthcare": "hospital", "name": "Lakes District Hospital and Health Centre"}}, {"type": "way", "id": 534618461, "center": {"lat": 54.4404912, "lon": -124.2419993}, "nodes": [5184310398, 5184310399, 5184310400, 5184310401, 5184310402, 5184310403, 5184310404, 5184310405, 5184310406, 5184310407, 5184310398], "tags": {"amenity": "hospital", "healthcare": "hospital", "name": "Stuart Lake General Hospital"}}, {"type": "way", "id": 545720213, "center": {"lat": 50.6893018, "lon": -121.9392997}, "nodes": [5274089094, 5274089112, 5274089113, 5274089095, 5274089096, 5274089109, 5274089097, 5274089104, 5274089105, 5274089098, 5274089099, 5274089106, 5274089107, 5274089100, 5274089110, 5274089111, 5274089101, 5274089108, 5274089103, 5274089117, 5274089116, 5274089102, 5274089115, 5274089114, 5274089094], "tags": {"addr:city": "Lillooet", "addr:housenumber": "951", "addr:street": "Murray Street", "amenity": "hospital", "building": "hospital", "emergency": "yes", "healthcare": "hospital", "name": "Lillooet Hospital & Health Centre"}}, {"type": "way", "id": 571899891, "center": {"lat": 50.0088899, "lon": -125.2425934}, "nodes": [5495445861, 5495445862, 5495445863, 5495445864, 5495445865, 5495445866, 5495445867, 5495445868, 5495445869, 5495445870, 5495445871, 5495445872, 5495445873, 5495445874, 5495445875, 5495445876, 5495445877, 5495445878, 5495445879, 5495445880, 5495445881, 5495445882, 5495445883, 5495445884, 5495445885, 5495445886, 5495445887, 5495445888, 7248920865, 7248920866, 7248920867, 7248920868, 5495445861], "tags": {"addr:housenumber": "375", "addr:street": "2nd Avenue", "amenity": "hospital", "building": "yes", "healthcare": "hospital", "layer": "1", "name": "North Island Hospital - Campbell River & District", "phone": "+1-250-286-7100", "website": "https://www.islandhealth.ca/our-locations/hospitals-health-centre-locations/north-island-hospital-campbell-river-district"}}, {"type": "way", "id": 571903758, "center": {"lat": 50.0093313, "lon": -125.244327}, "nodes": [5495467010, 5495467009, 5495467008, 5495467007, 5495467006, 5495467005, 5495467004, 5495467003, 5495467002, 5495467010], "tags": {"amenity": "hospital", "emergency": "yes", "healthcare": "hospital"}}, {"type": "way", "id": 595793357, "center": {"lat": 50.581215, "lon": -127.066929}, "nodes": [5677320300, 5677517474, 5677517473, 5677517472, 5677517471, 5677320298, 5677320299, 5677320300], "tags": {"addr:housenumber": "2750", "addr:street": "Kingcome Place", "amenity": "hospital", "name": "Port McNeill Hospital"}}, {"type": "way", "id": 606031382, "center": {"lat": 54.7848854, "lon": -127.16306}, "nodes": [5746743546, 5746743545, 5746743544, 5746743543, 5746743542, 5746743541, 5746743546], "tags": {"amenity": "hospital", "name": "Bulkley Valley District Hospital"}}, {"type": "way", "id": 778708617, "center": {"lat": 54.5328016, "lon": -128.5938514}, "nodes": [7270683629, 7270683630, 7270683631, 7270683632, 7270683633, 7270683629], "tags": {"amenity": "hospital", "emergency": "no", "healthcare": "hospital", "name": "Terraceview Lodge"}}, {"type": "way", "id": 778708658, "center": {"lat": 54.5104448, "lon": -128.5961559}, "nodes": [7270683796, 7270683797, 7270683798, 7270683799, 7270683800, 7270683801, 7270683796], "tags": {"addr:city": "Terrace", "addr:housenumber": "4720", "addr:postcode": "V8G 2X3", "addr:province": "BC", "addr:street": "Haugland Avenue", "amenity": "hospital", "beds": "39", "emergency": "yes", "healthcare": "hospital", "name": "Mills Memorial Hospital"}}, {"type": "way", "id": 961058486, "center": {"lat": 52.1374009, "lon": -122.1442847}, "nodes": [8890419624, 8890419625, 8890419626, 8890419627, 8890419628, 8890419629, 8890419630, 8890419631, 8890419632, 8890419633, 8890419634, 8890419624], "tags": {"amenity": "hospital", "healthcare": "hospital", "name": "Cariboo Memorial Hospital"}}, {"type": "way", "id": 991903216, "center": {"lat": 54.2355925, "lon": -125.761223}, "nodes": [9164522944, 9164522945, 9164522946, 9164522947, 9164522944], "tags": {"amenity": "hospital", "healthcare": "hospital", "name": "Lakes District Hospital and Health Centre"}}, {"type": "way", "id": 992113143, "center": {"lat": 55.2596586, "lon": -127.651183}, "nodes": [9166404704, 9166404705, 9166404706, 9166404707, 9166404704], "tags": {"amenity": "hospital", "healthcare": "hospital", "name": "Wrinch Memorial Hospital"}}, {"type": "way", "id": 1097128940, "center": {"lat": 50.7033499, "lon": -120.3952205}, "nodes": [302310191, 302314559, 4341695923, 302314561, 302314560, 4341695902, 302300452, 302300450, 10079118172, 5931312308, 4362307764, 302292075, 302291978, 302310053, 302310054, 302310057, 302310058, 302310191], "tags": {"amenity": "hospital", "healthcare": "hospital", "name": "Overlander Extended Care Hospital"}}]}