{"version": 0.6, "generator": "Overpass API 0.7.61.5 4133829e", "osm3s": {"timestamp_osm_base": "2023-10-31T21:04:00Z", "copyright": "The data included in this document is from www.openstreetmap.org. The data is made available under ODbL."}, "elements": [{"type": "node", "id": 430860187, "lat": 66.075137, "lon": -23.1279149, "tags": {"addr:city": "\u00cdsafj\u00f6r\u00f0ur", "addr:postcode": "400", "addr:street": "Torfnes", "amenity": "hospital", "emergency": "yes", "healthcare": "hospital", "name": "Sj\u00fakrah\u00fasi\u00f0 og heilsug\u00e6slan \u00e1 \u00cdsafir\u00f0i", "operator": "Heilbrig\u00f0isstofnun Vestfjar\u00f0a", "operator:type": "public"}}, {"type": "node", "id": 2125794210, "lat": 64.1505965, "lon": -21.7854512, "tags": {"amenity": "hospital", "name": "Heilsug\u00e6slan Sp\u00f6nginni"}}, {"type": "node", "id": 3624022958, "lat": 64.0011002, "lon": -22.5548935, "tags": {"addr:city": "Keflav\u00edk", "addr:housenumber": "6", "addr:postcode": "230", "addr:street": "Sk\u00f3lavegur", "amenity": "hospital", "emergency": "yes", "healthcare": "hospital", "name": "Heilsug\u00e6sla Su\u00f0urnesja", "operator": "HSS"}}, {"type": "way", "id": 29027438, "center": {"lat": 64.3196911, "lon": -22.0818347}, "nodes": [2537816153, 2537816126, 2537816127, 5282591660, 2537816136, 2537816137, 2537816138, 2537816139, 2537841176, 5282591657, 2536908926, 5282591656, 5282591655, 2537841178, 2537816140, 2537816151, 2537816142, 2537816164, 2537818183, 2537816165, 2537816162, 2537816153], "tags": {"amenity": "hospital", "healthcare": "hospital", "name": "Sj\u00fakrah\u00fasi\u00f0 og Heilsug\u00e6slan \u00e1 Akranesi", "website": "https://www.sha.is/"}}, {"type": "way", "id": 64047767, "center": {"lat": 64.1380995, "lon": -21.9275226}, "nodes": [1064270514, 1064270509, 1064270574, 1064270422, 1064328640, 790168965, 790041587, 8185104036, 8185104030, 8185104032, 790042649, 790041589, 8185104034, 790041590, 790041591, 7857092453, 790041932, 1064328633, 7857092452, 7857092451, 7857092450, 7857092449, 7857092448, 7857092447, 7857092445, 7857092446, 7857092444, 7857092441, 7857092443, 7857092442, 790041935, 790042662, 790042663, 1064328641, 1064328634, 790041938, 1064328631, 1064270389, 1064270514], "tags": {"amenity": "hospital", "emergency": "yes", "healthcare": "hospital", "name": "Landsp\u00edtali", "official_name": "Landsp\u00edtali H\u00e1sk\u00f3lasj\u00fakrah\u00fas", "website": "https://www.landspitali.is/", "wikidata": "Q6485215", "wikimedia_commons": "Category:Landsp\u00edtali", "wikipedia": "is:Landsp\u00edtali"}}, {"type": "way", "id": 170151759, "center": {"lat": 63.7515723, "lon": -20.2174931}, "nodes": [1813040697, 1813039901, 1813040134, 1813039949, 1813040697], "tags": {"addr:city": "Hvolsv\u00f6llur", "addr:housenumber": "4", "addr:postcode": "860", "addr:street": "\u00d6ldubakki", "amenity": "hospital", "building": "yes", "emergency": "yes", "healthcare": "hospital", "name": "Heilsug\u00e6sla Rang\u00e1r\u00feings", "ref:HNITNUM": "10065166", "source:addr": "Sta\u00f0fangaskr\u00e1"}}, {"type": "way", "id": 224518095, "center": {"lat": 63.8431175, "lon": -20.396445}, "nodes": [2333380932, 2333380972, 2333380916, 2333380949, 2333380974, 2333380934, 2333381016, 2333380909, 2333381008, 2333381073, 2333381036, 2333380956, 2333380947, 2333380967, 2333380929, 2333380940, 2333380922, 2333380942, 2333380907, 2333380987, 2333380945, 2333380955, 2333380976, 2333380998, 2333380932], "tags": {"amenity": "hospital", "building": "public", "source": "Bing"}}, {"type": "way", "id": 288373948, "center": {"lat": 64.1484181, "lon": -21.9490927}, "nodes": [2919349730, 2919349734, 1185401914, 1185401897, 7632790191, 7632790190, 7632790189, 1185401911, 2919349732, 2919349735, 8424938950, 2919349733, 4536978742, 4536978741, 4536978747, 4536978746, 2919349730], "tags": {"addr:city": "Reykjav\u00edk", "amenity": "hospital", "emergency": "no", "healthcare": "hospital", "name": "Landakotssp\u00edtali", "wikidata": "Q4253825", "wikimedia_commons": "Category:Landakotssp\u00edtali"}}, {"type": "way", "id": 290982361, "center": {"lat": 64.1450397, "lon": -21.8484112}, "nodes": [2944570094, 2944570093, 2944570100, 2944567296, 2944567303, 2944567294, 2944567295, 2944570434, 2944570102, 2944570103, 2944570121, 2944570122, 2944567302, 2944570094], "tags": {"addr:city": "Reykjav\u00edk", "addr:postcode": "104", "alt_name": "Landsp\u00edtali Kleppi", "amenity": "hospital", "healthcare": "hospital", "loc_name": "Kleppur", "name": "Kleppssp\u00edtali", "operator": "Landsp\u00edtali", "wikidata": "Q16430464", "wikimedia_commons": "Category:LSH-Kleppsspitali", "wikipedia": "is:Kleppssp\u00edtali"}}, {"type": "way", "id": 291794590, "center": {"lat": 64.1256135, "lon": -21.8814024}, "nodes": [2952980842, 2952979068, 2952979075, 2952979071, 2952979082, 2952980845, 2952980864, 2952979099, 2952979096, 2952979061, 2952979044, 2952979042, 2952979037, 2952979125, 2952979112, 2952979119, 2952979116, 2952979063, 2952980842], "tags": {"addr:city": "Reykjav\u00edk", "addr:postcode": "108", "amenity": "hospital", "healthcare": "hospital", "name": "Landsp\u00edtali Grens\u00e1s", "wheelchair": "yes"}}, {"type": "way", "id": 372399924, "center": {"lat": 64.1486017, "lon": -21.8764202}, "nodes": [3759574149, 3759574155, 3759574144, 3759587644, 3759582484, 3759582472, 3759574151, 3759574120, 3759582480, 3759574140, 3759574132, 3759574149], "tags": {"addr:housenumber": "12", "addr:postcode": "105", "addr:street": "Dalbraut", "alt_name": "BUGL", "amenity": "hospital", "healthcare": "hospital", "name": "Barna- og unglingage\u00f0deild Landsp\u00edtalans", "website": "https://www.landspitali.is/?pageid=14092"}}, {"type": "way", "id": 399663646, "center": {"lat": 64.1220679, "lon": -21.8886982}, "nodes": [1240026552, 4023709420, 4023709421, 4023709423, 4023709418, 1240026560, 7088278269, 1240026576, 1240026602, 1240026561, 1240026577, 6083397982, 6083397947, 6083397946, 7088278270, 6083397945, 6083397978, 1240026596, 7088278268, 1240026552], "tags": {"amenity": "hospital", "emergency": "yes", "healthcare": "hospital", "name": "Landsp\u00edtali Fossvogur", "old_name": "Borgarsp\u00edtali", "url": "http://landspitali.is", "wheelchair": "yes"}}, {"type": "way", "id": 446340645, "center": {"lat": 65.0773873, "lon": -22.7217547}, "nodes": [4436324905, 4436324743, 4436324717, 4436324780, 6355445800, 6355445801, 4436324895, 4436322671, 6355445799, 6355445798, 4436322675, 4436278787, 4436278799, 4436322647, 4436324905], "tags": {"addr:postcode": "340", "addr:street": "Austurgata", "amenity": "hospital", "healthcare": "hospital", "name": "Heilbrig\u00f0isstofnun Vesturlands", "phone": "+354 432 1200"}}, {"type": "way", "id": 596083049, "center": {"lat": 64.1262557, "lon": -21.792991}, "nodes": [5679480324, 5679480323, 5679480322, 5679480325, 5700628720, 5700628719, 5679480315, 5679480316, 5679480317, 5679480318, 5679480319, 5713326864, 5679480320, 5679479929, 5679479928, 5679480123, 1770113604, 1770113601, 5679480321, 5679480090, 5679480324], "tags": {"amenity": "hospital", "healthcare": "hospital"}}, {"type": "way", "id": 750714752, "center": {"lat": 64.0821307, "lon": -21.8880152}, "nodes": [7019215009, 7019215008, 7019215007, 7019215006, 7019215005, 7019215004, 7019215009], "tags": {"amenity": "hospital", "emergency": "no", "name": "\u00d6ldrunardeild V\u00edfilsst\u00f6\u00f0um"}}, {"type": "way", "id": 785717155, "center": {"lat": 65.6564735, "lon": -20.2802916}, "nodes": [7344551125, 7344551126, 7344551127, 7344551128, 7344551129, 7344551130, 7344551131, 7344551132, 7344551133, 7344551202, 7344551134, 7344551135, 7344551136, 7344551137, 7344551138, 7344551139, 7344551140, 7344551141, 2076742017, 7344551160, 2076742020, 7344551142, 7344551159, 7344551143, 7344551144, 2076741998, 2076741957, 7344551145, 7344551125], "tags": {"amenity": "hospital", "healthcare": "hospital", "name": "HSN Bl\u00f6ndu\u00f3s"}}, {"type": "relation", "id": 10305420, "center": {"lat": 63.9391909, "lon": -20.9870132}, "members": [{"type": "way", "ref": 746232617, "role": "outer"}, {"type": "way", "ref": 746232623, "role": "outer"}, {"type": "way", "ref": 689334354, "role": "outer"}, {"type": "way", "ref": 1011128644, "role": "outer"}, {"type": "way", "ref": 746232611, "role": "outer"}, {"type": "way", "ref": 746232613, "role": "outer"}, {"type": "way", "ref": 746232616, "role": "outer"}], "tags": {"addr:city": "Selfoss", "addr:postcode": "800", "amenity": "hospital", "emergency": "yes", "healthcare": "hospital", "name": "Heilbrig\u00f0isstofnun Su\u00f0urlands", "type": "multipolygon"}}]}