{"version": 0.6, "generator": "Overpass API 0.7.61.5 4133829e", "osm3s": {"timestamp_osm_base": "2023-10-31T21:04:00Z", "copyright": "The data included in this document is from www.openstreetmap.org. The data is made available under ODbL."}, "elements": [{"type": "node", "id": 10861364929, "lat": 64.502203, "lon": -165.4059477, "tags": {"addr:city": "Nome", "addr:housenumber": "306", "addr:postcode": "99762", "addr:street": "West 5th Avenue", "amenity": "hospital", "healthcare": "hospital", "name": "Nome - Norton Sound Regional Hospital", "phone": "+1 907 443 3311", "website": "https://www.nortonsoundhealth.org"}}, {"type": "way", "id": 293442910, "center": {"lat": 66.1601794, "lon": -169.8119213}, "nodes": [2970448124, 9839806723, 9839806724, 9839806727, 9839806726, 9839806725, 9839806728, 9839806730, 9839806729, 2970448126, 2970448125, 2970448122, 2970448124], "tags": {"addr:housenumber": "25", "addr:street": "\u0443\u043b\u0438\u0446\u0430 \u041b\u0435\u043d\u0438\u043d\u0430", "amenity": "hospital", "building": "yes", "healthcare": "hospital", "name": "\u0423\u0447\u0430\u0441\u0442\u043a\u043e\u0432\u0430\u044f \u0431\u043e\u043b\u044c\u043d\u0438\u0446\u0430", "name:en": "Community Hospital", "name:ru": "\u0423\u0447\u0430\u0441\u0442\u043a\u043e\u0432\u0430\u044f \u0431\u043e\u043b\u044c\u043d\u0438\u0446\u0430"}}, {"type": "way", "id": 416146577, "center": {"lat": 60.7885372, "lon": -161.7850646}, "nodes": [4169772498, 4169772499, 4169772500, 4169772501, 4169772502, 4169772503, 7477336341, 7477336349, 4169772504, 4169772505, 4169772506, 4169772507, 4169772508, 4169772509, 4169772510, 4169772511, 4169772512, 4169772513, 4169772514, 4169772515, 4169772516, 4169772517, 4169772498], "tags": {"addr:city": "Bethel", "addr:housenumber": "900", "addr:postcode": "99559", "addr:state": "AK", "addr:street": "Chief Eddie Hoffman Highway", "amenity": "hospital", "beds": "50", "building": "yes", "emergency": "yes", "healthcare": "hospital", "name": "Yukon-Kuskokwim Delta Regional Hospital", "opening_hours": "24/7", "operator": "Yukon-Kuskokwim Health Corporation", "phone": "+1 907 543 6000", "website": "https://www.ykhc.org/"}}, {"type": "way", "id": 449529338, "center": {"lat": 64.4990076, "lon": -165.3780719}, "nodes": [4464781269, 4464781271, 4464781273, 4464781274, 4464781276, 4464781275, 4464781272, 4464781270, 4464781269], "tags": {"addr:city": "Nome", "addr:housenumber": "1000", "addr:postcode": "99762", "addr:street": "Greg Kruschek Avenue", "amenity": "hospital", "emergency": "yes", "healthcare": "hospital", "name": "Norton Sound Regional Hospital", "phone": "+1 907 443 3311", "website": "https://www.nortonsoundhealth.org/Locations/Norton-Sound-Regional-Hospital"}}, {"type": "way", "id": 983908478, "center": {"lat": 66.8959604, "lon": -162.5870769}, "nodes": [9097828655, 9097828656, 9097828657, 9097828658, 9097828659, 9097828660, 9097828661, 9097828662, 9097828655], "tags": {"addr:city": "Kotzeblue", "addr:housenumber": "436", "addr:postcode": "99752", "addr:street": "5th Avenue", "amenity": "hospital", "beds": "17", "emergency": "yes", "healthcare": "hospital", "name": "Maniilaq Medical Center", "phone": "+1 907 442 3321", "website": "http://www.maniilaq.org/health-services/"}}]}