{"version": 0.6, "generator": "Overpass API 0.7.61.5 4133829e", "osm3s": {"timestamp_osm_base": "2023-10-31T21:04:59Z", "copyright": "The data included in this document is from www.openstreetmap.org. The data is made available under ODbL."}, "elements": [{"type": "node", "id": 1732914240, "lat": 69.4070477, "lon": 86.1820801, "tags": {"amenity": "hospital", "name": "\u0412\u0437\u0440\u043e\u0441\u043b\u0430\u044f \u0440\u0430\u0439\u043e\u043d\u043d\u0430\u044f \u043f\u043e\u043b\u0438\u043a\u043b\u0438\u043d\u0438\u043a\u0430", "opening_hours": "Mo-Fr 07:30-20:00; Sa 09:00-15:00"}}, {"type": "node", "id": 1732914338, "lat": 69.406764, "lon": 86.1809901, "tags": {"amenity": "hospital", "name": "\u0414\u0435\u0442\u0441\u043a\u0430\u044f \u0440\u0430\u0439\u043e\u043d\u043d\u0430\u044f \u043f\u043e\u043b\u0438\u043a\u043b\u0438\u043d\u0438\u043a\u0430"}}, {"type": "node", "id": 1790119043, "lat": 69.406217, "lon": 86.1809535, "tags": {"amenity": "hospital", "name": "\u0414\u0435\u0442\u0441\u043a\u043e\u0435 \u0441\u0442\u043e\u043c\u0430\u0442\u043e\u043b\u043e\u0433\u0438\u0447\u0435\u0441\u043a\u043e\u0435 \u0438 \u0438\u043d\u0444\u0435\u043a\u0446\u0438\u043e\u043d\u043d\u043e\u0435 \u043e\u0442\u0434\u043b\u0435\u043d\u0438\u0435"}}, {"type": "node", "id": 1790121449, "lat": 69.4057393, "lon": 86.1828045, "tags": {"amenity": "hospital", "name": "\u041f\u0440\u0438\u0451\u043c\u043d\u044b\u0439 \u043f\u043e\u043a\u043e\u0439 \u0422\u0430\u0439\u043c\u044b\u0440\u0441\u043a\u043e\u0433\u043e \u0440\u043e\u0434\u0438\u043b\u044c\u043d\u043e\u0433\u043e \u0434\u043e\u043c\u0430"}}, {"type": "node", "id": 1790122630, "lat": 69.4056008, "lon": 86.1833141, "tags": {"amenity": "hospital", "name": "\u0422\u0430\u0439\u043c\u044b\u0440\u0441\u043a\u0438\u0439 \u0440\u043e\u0434\u0438\u043b\u044c\u043d\u044b\u0439 \u0434\u043e\u043c"}}, {"type": "node", "id": 4362315089, "lat": 65.8024488, "lon": 87.9893162, "tags": {"amenity": "hospital", "healthcare": "hospital", "name": "\u0434\u0435\u0442\u0441\u043a\u043e\u0435 \u043e\u0442\u0434\u0435\u043b\u0435\u043d\u0438\u0435"}}, {"type": "node", "id": 4362319094, "lat": 65.8023714, "lon": 87.9891293, "tags": {"amenity": "hospital", "healthcare": "hospital", "name": "\u0442\u0435\u0440\u0430\u043f\u0435\u0432\u0442\u0438\u0447\u0435\u0441\u043a\u043e\u0435 \u043e\u0442\u0434\u0435\u043b\u0435\u043d\u0438\u0435"}}, {"type": "node", "id": 4460694810, "lat": 69.3588741, "lon": 88.1831513, "tags": {"amenity": "hospital", "healthcare": "hospital", "highway": "emergency_access_point"}}, {"type": "node", "id": 5589776532, "lat": 69.4070464, "lon": 86.1945755, "tags": {"amenity": "hospital", "healthcare": "hospital", "healthcare:speciality": "general", "opening_hours": "24/7", "wheelchair": "no"}}, {"type": "node", "id": 5589776534, "lat": 69.4072279, "lon": 86.1934321, "tags": {"amenity": "hospital", "emergency": "yes", "entrance": "main", "healthcare": "hospital", "name": "\u041f\u0440\u0438\u0451\u043c\u043d\u043e\u0435 \u043e\u0442\u0434\u0435\u043b\u0435\u043d\u0438\u0435", "opening_hours": "24/7", "wheelchair": "no"}}, {"type": "node", "id": 9424586604, "lat": 69.3525551, "lon": 87.7620204, "tags": {"addr:city": "\u041a\u0430\u0439\u0435\u0440\u043a\u0430\u043d", "addr:housenumber": "15", "addr:postcode": "663340", "addr:street": "\u041d\u0430\u0434\u0435\u0436\u0434\u0438\u043d\u0441\u043a\u0430\u044f \u0443\u043b\u0438\u0446\u0430", "amenity": "hospital", "healthcare": "hospital", "name": "\u0412\u0437\u0440\u043e\u0441\u043b\u0430\u044f \u043f\u043e\u043b\u0438\u043a\u043b\u0438\u043d\u0438\u043a\u0430"}}, {"type": "node", "id": 9424602569, "lat": 69.3528995, "lon": 87.7604065, "tags": {"addr:city": "\u041a\u0430\u0439\u0435\u0440\u043a\u0430\u043d", "addr:housenumber": "11", "addr:postcode": "663340", "addr:street": "\u041d\u0430\u0434\u0435\u0436\u0434\u0438\u043d\u0441\u043a\u0430\u044f \u0443\u043b\u0438\u0446\u0430", "amenity": "hospital", "healthcare": "hospital", "name": "\u0414\u0435\u0442\u0441\u043a\u0430\u044f \u043f\u043e\u043b\u0438\u043a\u043b\u0438\u043d\u0438\u043a\u0430"}}, {"type": "way", "id": 74672293, "center": {"lat": 63.9954118, "lon": 82.0431453}, "nodes": [882195401, 882192146, 882192023, 882195896, 882192478, 882194934, 882195447, 882193585, 882194218, 882194630, 882195544, 882193162, 882195401], "tags": {"addr:city": "\u0422\u043e\u043b\u044c\u043a\u0430", "addr:housenumber": "7", "addr:street": "\u0443\u043b\u0438\u0446\u0430 \u0413\u0443\u0431\u043a\u0438\u043d\u0430", "amenity": "hospital", "building": "yes", "name": "\u0422\u043e\u043b\u044c\u043a\u0438\u043d\u0441\u043a\u0430\u044f \u0443\u0447\u0430\u0441\u0442\u043a\u043e\u0432\u0430\u044f \u0431\u043e\u043b\u044c\u043d\u0438\u0446\u0430"}}, {"type": "way", "id": 93342265, "center": {"lat": 69.3580878, "lon": 88.4119223}, "nodes": [1082319743, 1082319721, 1082319690, 1082319723, 1082319748, 1082319715, 9048591853, 9048591860, 1082319750, 1082319717, 1082319722, 1082319708, 1082319740, 9048591841, 1082319712, 1082319743], "tags": {"addr:housenumber": "51", "addr:street": "\u041e\u0437\u0451\u0440\u043d\u0430\u044f \u0443\u043b\u0438\u0446\u0430", "amenity": "hospital", "building": "yes", "building:levels": "15", "healthcare": "hospital", "name": "\u041d\u043e\u0440\u0438\u043b\u044c\u0441\u043a\u0430\u044f \u0433\u043e\u0440\u043e\u0434\u0441\u043a\u0430\u044f \u0431\u043e\u043b\u044c\u043d\u0438\u0446\u0430 \u21161", "url": "http://norilsk-city.ru/administration/subdivision/rights/1368/1386/index.shtml"}}, {"type": "way", "id": 93360350, "center": {"lat": 69.3569689, "lon": 88.4126394}, "nodes": [1082573361, 9048591867, 9048591866, 9048591865, 9048591864, 9048591863, 9048591862, 9048591861, 1082573382, 1082573376, 9048591850, 9048591851, 1082573370, 1082573361], "tags": {"addr:city": "\u041d\u043e\u0440\u0438\u043b\u044c\u0441\u043a", "addr:country": "RU", "amenity": "hospital", "building": "yes", "healthcare": "hospital"}}, {"type": "way", "id": 93610160, "center": {"lat": 69.4906567, "lon": 88.3915964}, "nodes": [1086023598, 1086023612, 1086023602, 1086023606, 1086023607, 1086023604, 1086023598], "tags": {"amenity": "hospital"}}, {"type": "way", "id": 93610600, "center": {"lat": 69.3575762, "lon": 88.4106202}, "nodes": [1086038900, 9409665646, 9016981785, 9016981786, 9016981787, 1086038887, 1086038904, 1086038896, 1086038892, 1086038905, 9016981779, 9016981778, 9016981784, 1086038898, 1093670742, 9016981783, 9016981782, 9016981781, 1086038900], "tags": {"amenity": "hospital", "healthcare": "hospital"}}, {"type": "way", "id": 93679242, "center": {"lat": 69.3509742, "lon": 88.1807205}, "nodes": [1087531434, 1087531069, 1644095714, 1644095715, 1644095713, 1644095712, 1087531940, 1644095709, 1644095707, 1644095703, 1644095705, 1087531740, 1087531434], "tags": {"addr:city": "\u041d\u043e\u0440\u0438\u043b\u044c\u0441\u043a", "addr:country": "RU", "addr:housenumber": "7\u0410", "addr:street": "\u0421\u043e\u043b\u043d\u0435\u0447\u043d\u044b\u0439 \u043f\u0440\u043e\u0435\u0437\u0434", "amenity": "hospital", "building": "hospital", "healthcare": "hospital", "name": "\u041c\u0435\u0434\u0441\u0430\u043d\u0447\u0430\u0441\u0442\u044c \u21162"}}, {"type": "way", "id": 93733107, "center": {"lat": 69.3494091, "lon": 88.2094325}, "nodes": [1088482166, 1088481830, 3733065564, 3733065566, 3733065557, 3733065556, 1088480503, 1088483928, 1088482166], "tags": {"addr:city": "\u041d\u043e\u0440\u0438\u043b\u044c\u0441\u043a", "addr:country": "RU", "addr:housenumber": "21", "addr:street": "\u0443\u043b\u0438\u0446\u0430 \u041a\u0438\u0440\u043e\u0432\u0430", "amenity": "hospital", "building": "office", "building:levels": "5", "healthcare": "hospital"}}, {"type": "way", "id": 93733121, "center": {"lat": 69.3526085, "lon": 88.2149925}, "nodes": [1088481885, 1088481628, 1088480206, 3732681310, 1088483736, 1088481885], "tags": {"addr:city": "\u041d\u043e\u0440\u0438\u043b\u044c\u0441\u043a", "addr:country": "RU", "addr:housenumber": "32", "addr:street": "\u0422\u0430\u043b\u043d\u0430\u0445\u0441\u043a\u0430\u044f \u0443\u043b\u0438\u0446\u0430", "amenity": "hospital", "building": "hospital", "building:levels": "4", "name": "\u041a\u043e\u0436\u043d\u043e-\u0432\u0435\u043d\u0435\u0440\u043e\u043b\u043e\u0433\u0438\u0447\u0435\u0441\u043a\u0438\u0439 \u0434\u0438\u0441\u043f\u0430\u043d\u0441\u0435\u0440"}}, {"type": "way", "id": 93733124, "center": {"lat": 69.348995, "lon": 88.2109986}, "nodes": [1088483837, 1088480346, 1088481689, 1088483559, 1088480018, 1088481386, 1088483325, 1088480981, 1088484017, 1088480640, 1088481132, 1088482382, 1088483837], "tags": {"addr:city": "\u041d\u043e\u0440\u0438\u043b\u044c\u0441\u043a", "addr:country": "RU", "addr:housenumber": "19", "addr:street": "\u0443\u043b\u0438\u0446\u0430 \u041a\u0438\u0440\u043e\u0432\u0430", "amenity": "hospital", "building": "hospital", "building:levels": "4", "healthcare": "hospital"}}, {"type": "way", "id": 93733273, "center": {"lat": 69.3493928, "lon": 88.2078141}, "nodes": [1088480280, 1088483795, 3733065560, 1088483259, 3733065543, 3733065542, 1088479961, 3733065530, 3733065534, 3733065536, 3733065549, 1088481734, 1088480021, 3733065551, 1088479786, 1088482263, 1088484020, 1088483475, 1088483737, 1088483995, 1088479749, 1088481889, 1088479899, 1088480280], "tags": {"addr:city": "\u041d\u043e\u0440\u0438\u043b\u044c\u0441\u043a", "addr:country": "RU", "addr:housenumber": "18", "addr:street": "\u0443\u043b\u0438\u0446\u0430 \u0411\u043e\u0433\u0434\u0430\u043d\u0430 \u0425\u043c\u0435\u043b\u044c\u043d\u0438\u0446\u043a\u043e\u0433\u043e", "amenity": "hospital", "building": "hospital", "building:levels": "4", "healthcare": "hospital", "name": "\u0420\u043e\u0434\u0438\u043b\u044c\u043d\u043e\u0435 \u043e\u0442\u0434\u0435\u043b\u0435\u043d\u0438\u0435"}}, {"type": "way", "id": 93733292, "center": {"lat": 69.3485286, "lon": 88.208957}, "nodes": [3733065534, 1088482218, 3733065528, 1088483982, 1088480569, 1088481878, 1088483723, 1088480187, 1088482340, 1088484050, 1088480690, 1088482050, 3733065530, 3733065534], "tags": {"addr:city": "\u041d\u043e\u0440\u0438\u043b\u044c\u0441\u043a", "addr:country": "RU", "addr:housenumber": "16", "addr:street": "\u0443\u043b\u0438\u0446\u0430 \u0411\u043e\u0433\u0434\u0430\u043d\u0430 \u0425\u043c\u0435\u043b\u044c\u043d\u0438\u0446\u043a\u043e\u0433\u043e", "amenity": "hospital", "building": "hospital", "building:levels": "4", "healthcare": "hospital"}}, {"type": "way", "id": 93733432, "center": {"lat": 69.3485313, "lon": 88.2104274}, "nodes": [1088484084, 3733063111, 3733063110, 3733063114, 3733063115, 3733063118, 3733063122, 1088480745, 1088482090, 1088483865, 1088484084], "tags": {"addr:city": "\u041d\u043e\u0440\u0438\u043b\u044c\u0441\u043a", "addr:country": "RU", "addr:housenumber": "9", "addr:street": "\u0443\u043b\u0438\u0446\u0430 \u041f\u0430\u0432\u043b\u043e\u0432\u0430", "amenity": "hospital", "building": "yes", "building:levels": "4", "healthcare": "hospital"}}, {"type": "way", "id": 93733447, "center": {"lat": 69.3423124, "lon": 88.2243179}, "nodes": [1088479976, 1088483642, 1088481777, 1088480457, 1088479976], "tags": {"addr:city": "\u041d\u043e\u0440\u0438\u043b\u044c\u0441\u043a", "addr:country": "RU", "addr:housenumber": "7\u0410", "addr:street": "\u0422\u0430\u043b\u043d\u0430\u0445\u0441\u043a\u0430\u044f \u0443\u043b\u0438\u0446\u0430", "amenity": "hospital", "building": "hospital", "building:levels": "3", "name": "\u041f\u043e\u043b\u044f\u0440\u043d\u0430\u044f \u043c\u0435\u0434\u0438\u0446\u0438\u043d\u0430"}}, {"type": "way", "id": 93733460, "center": {"lat": 69.3500704, "lon": 88.209026}, "nodes": [1088481325, 1088480929, 1088481069, 1088480692, 1088480350, 1088483838, 1088480987, 1088483279, 1088480286, 1088483798, 1088483519, 1088483639, 1088482343, 1088481325], "tags": {"addr:city": "\u041d\u043e\u0440\u0438\u043b\u044c\u0441\u043a", "addr:country": "RU", "addr:housenumber": "23", "addr:street": "\u0443\u043b\u0438\u0446\u0430 \u041a\u0438\u0440\u043e\u0432\u0430", "amenity": "hospital", "building": "hospital", "building:levels": "4", "healthcare": "hospital", "name": "\u0418\u043d\u0444\u0435\u043a\u0446\u0438\u043e\u043d\u043d\u043e\u0435 \u043e\u0442\u0434\u0435\u043b\u0435\u043d\u0438\u0435"}}, {"type": "way", "id": 93745425, "center": {"lat": 69.3610366, "lon": 88.1909828}, "nodes": [1088683100, 3730811057, 1088679385, 3730777324, 1088683702, 3730777307, 1088685937, 3730777318, 1088683100], "tags": {"addr:city": "\u041d\u043e\u0440\u0438\u043b\u044c\u0441\u043a", "addr:country": "RU", "addr:housenumber": "13", "addr:street": "\u0443\u043b\u0438\u0446\u0430 \u041e\u0440\u0434\u0436\u043e\u043d\u0438\u043a\u0438\u0434\u0437\u0435", "amenity": "hospital", "building": "hospital", "building:levels": "5", "healthcare": "hospital", "name": "\u041f\u0441\u0438\u0445\u043e-\u041d\u0435\u0432\u0440\u043e\u043b\u043e\u0433\u0438\u0447\u0435\u0441\u043a\u0438\u0439 \u0414\u0438\u0441\u043f\u0430\u043d\u0441\u0435\u0440"}}, {"type": "way", "id": 93745507, "center": {"lat": 69.3639, "lon": 88.1788473}, "nodes": [1088681910, 3646303524, 3646303525, 1088684385, 3646303518, 3646303519, 1088677967, 3646303520, 3646303515, 3646303516, 3646303521, 1088681447, 1088681910], "tags": {"addr:city": "\u041d\u043e\u0440\u0438\u043b\u044c\u0441\u043a", "addr:country": "RU", "addr:housenumber": "24\u0410", "addr:street": "\u0443\u043b\u0438\u0446\u0430 \u0411\u0435\u0433\u0438\u0447\u0435\u0432\u0430", "amenity": "hospital", "building": "hospital", "building:levels": "5", "healthcare": "hospital", "name": "\u0414\u0435\u0442\u0441\u043a\u0430\u044f \u043f\u043e\u043b\u0438\u043a\u043b\u0438\u043d\u0438\u043a\u0430"}}, {"type": "way", "id": 93787239, "center": {"lat": 69.3613562, "lon": 88.2091311}, "nodes": [1089231643, 1089231389, 1089231497, 1089231608, 1089231643], "tags": {"addr:city": "\u041d\u043e\u0440\u0438\u043b\u044c\u0441\u043a", "addr:country": "RU", "amenity": "hospital", "building": "yes", "healthcare": "hospital", "name": "\u0422\u0443\u0431\u0435\u0440\u043a\u0443\u043b\u0435\u0437\u043d\u044b\u0439 \u0434\u0438\u0441\u043f\u0430\u043d\u0441\u0435\u0440"}}, {"type": "way", "id": 167635311, "center": {"lat": 69.4056327, "lon": 86.1829039}, "nodes": [1790130995, 1790131603, 1790130336, 1790130578, 1790130286, 1790121449, 1790129983, 1790130065, 1790122630, 1790129738, 1790129431, 6578037452, 1790128463, 1790128055, 1790127725, 6578037453, 6578037454, 1790130995], "tags": {"addr:city": "\u0414\u0443\u0434\u0438\u043d\u043a\u0430", "addr:country": "RU", "addr:housenumber": "14\u0411", "addr:region": "\u041a\u0440\u0430\u0441\u043d\u043e\u044f\u0440\u0441\u043a\u0438\u0439 \u043a\u0440\u0430\u0439", "addr:street": "\u0443\u043b\u0438\u0446\u0430 \u041e\u0441\u0442\u0440\u043e\u0432\u0441\u043a\u043e\u0433\u043e", "amenity": "hospital", "building": "hospital", "building:levels": "4", "health_facility:type": "hospital", "health_specialty:gynaecology": "main", "healthcare": "hospital", "medical_system:western": "yes", "provided_for:female": "yes", "source": "servey"}}, {"type": "way", "id": 195426685, "center": {"lat": 67.4642685, "lon": 86.5441577}, "nodes": [2058719555, 2058719602, 2058719582, 2058719572, 2058719583, 2058719558, 2058719535, 2058719506, 2058719555], "tags": {"amenity": "hospital", "building": "yes", "building:levels": "3", "name": "\u0426\u0413\u0411", "roof:shape": "hipped"}}, {"type": "way", "id": 208224468, "center": {"lat": 69.4049247, "lon": 86.1850583}, "nodes": [2185496512, 2185496571, 2185496580, 2185496586, 2185496601, 2185496588, 2185496573, 2185496528, 2185496530, 2185496516, 2185496512], "tags": {"addr:city": "\u0414\u0443\u0434\u0438\u043d\u043a\u0430", "addr:country": "RU", "addr:housenumber": "3", "addr:region": "\u041a\u0440\u0430\u0441\u043d\u043e\u044f\u0440\u0441\u043a\u0438\u0439 \u043a\u0440\u0430\u0439", "addr:street": "\u0443\u043b\u0438\u0446\u0430 \u0412\u0441\u0435\u0441\u0432\u044f\u0442\u0441\u043a\u043e\u0433\u043e", "amenity": "hospital", "building": "hospital", "building:levels": "2", "name": "\u041b\u0435\u0447\u0435\u0431\u043d\u044b\u0439 \u043a\u043e\u0440\u043f\u0443\u0441 \u21162", "opening_hours": "24/7", "operator": "\u0422\u0430\u0439\u043c\u044b\u0440\u0441\u043a\u0430\u044f \u043c\u0435\u0436\u0440\u0430\u0439\u043e\u043d\u043d\u0430\u044f \u0431\u043e\u043b\u044c\u043d\u0438\u0446\u0430", "source": "survey"}}, {"type": "way", "id": 369526121, "center": {"lat": 69.3500076, "lon": 88.2074386}, "nodes": [1088480247, 1088479824, 3733065601, 3733065596, 3733065592, 3733065594, 1088481761, 3733065593, 3733065589, 1088484020, 1088482263, 3733065597, 3733065598, 1088481439, 1088480064, 1088480247], "tags": {"addr:city": "\u041d\u043e\u0440\u0438\u043b\u044c\u0441\u043a", "addr:country": "RU", "addr:housenumber": "20", "addr:street": "\u0443\u043b\u0438\u0446\u0430 \u0411\u043e\u0433\u0434\u0430\u043d\u0430 \u0425\u043c\u0435\u043b\u044c\u043d\u0438\u0446\u043a\u043e\u0433\u043e", "amenity": "hospital", "building": "hospital", "building:levels": "6", "healthcare": "hospital"}}, {"type": "way", "id": 453772558, "center": {"lat": 61.1002275, "lon": 80.2589425}, "nodes": [4504616096, 4504616095, 4504616094, 4504616093, 4504615953, 4504616092, 4504616091, 4504616090, 4504616089, 4504615988, 4504615987, 4504615954, 4504616096], "tags": {"amenity": "hospital", "barrier": "fence", "name": "\u041b\u0430\u0440\u044c\u044f\u043a\u0441\u043a\u0430\u044f \u0443\u0447\u0430\u0441\u0442\u043a\u043e\u0432\u0430\u044f \u0431\u043e\u043b\u044c\u043d\u0438\u0446\u0430", "operator": "\u041d\u0438\u0436\u043d\u0435\u0432\u0430\u0440\u0442\u043e\u0432\u0441\u043a\u0430\u044f \u0440\u0430\u0439\u043e\u043d\u043d\u0430\u044f \u0431\u043e\u043b\u044c\u043d\u0438\u0446\u0430"}}, {"type": "way", "id": 584576050, "center": {"lat": 69.4070526, "lon": 86.1951323}, "nodes": [2185497225, 5589776535, 5587792699, 5587792698, 5587792697, 5587792696, 5587792695, 5587792707, 6578041297, 6578041292, 5587792706, 6578041298, 5587792705, 5587792704, 5587792703, 5587792702, 5587792701, 6578041291, 5587792700, 2185497163, 2185497189, 2185497225], "tags": {"amenity": "hospital", "barrier": "fence", "fence_type": "bars", "name": "\u0422\u0430\u0439\u043c\u044b\u0440\u0441\u043a\u0430\u044f \u043c\u0435\u0436\u0440\u0430\u0439\u043e\u043d\u043d\u0430\u044f \u0431\u043e\u043b\u044c\u043d\u0438\u0446\u0430"}}, {"type": "way", "id": 870808376, "center": {"lat": 63.9953034, "lon": 82.0429158}, "nodes": [8111837211, 8111837210, 8111837209, 8111837208, 8111837207, 8111837211], "tags": {"amenity": "hospital", "name": "\u0422\u043e\u043b\u044c\u043a\u0438\u043d\u0441\u043a\u0430\u044f \u0443\u0447\u0430\u0441\u0442\u043a\u043e\u0432\u0430\u044f \u0431\u043e\u043b\u044c\u043d\u0438\u0446\u0430"}}, {"type": "way", "id": 872331261, "center": {"lat": 65.8028507, "lon": 87.9892985}, "nodes": [8124800170, 8124800171, 8124800172, 8124800173, 8124800174, 8124800175, 8124800170], "tags": {"amenity": "hospital", "healthcare": "hospital"}}, {"type": "way", "id": 904969811, "center": {"lat": 68.2196611, "lon": 89.9816931}, "nodes": [8404300618, 8404300493, 8404300492, 8404300615, 8404300490, 8404300491, 8404300616, 8404300488, 8404300489, 8404300617, 8404300618], "tags": {"addr:housenumber": "4", "addr:street": "\u0425\u0430\u043d\u0442\u0430\u0439\u0441\u043a\u0430\u044f \u0443\u043b\u0438\u0446\u0430", "amenity": "hospital", "building": "yes", "name": "\u0423\u0447\u0430\u0441\u0442\u043a\u043e\u0432\u0430\u044f \u0431\u043e\u043b\u044c\u043d\u0438\u0446\u0430 \u041c\u0423\u0417 \u00ab\u0422\u0426\u0420\u0411\u00bb"}}, {"type": "way", "id": 974319309, "center": {"lat": 69.3595859, "lon": 88.4127648}, "nodes": [9016981788, 9016981789, 9016981790, 9016981791, 9016981792, 9016981793, 9016981794, 9016981795, 9016981796, 9016981797, 9016981798, 9016981799, 9016981800, 9016981801, 9016981802, 9016981803, 9016981804, 9016981805, 9016981806, 9016981807, 9016981808, 9048591857, 9048591856, 9016981809, 9016981810, 9016981811, 9016981788], "tags": {"addr:city": "\u041d\u043e\u0440\u0438\u043b\u044c\u0441\u043a", "addr:country": "RU", "addr:housenumber": "55", "addr:street": "\u041e\u0437\u0451\u0440\u043d\u0430\u044f \u0443\u043b\u0438\u0446\u0430", "amenity": "hospital", "building": "yes", "healthcare": "hospital", "name": "\u0426\u0435\u043d\u0442\u0440 \u043e\u0445\u0440\u0430\u043d\u044b \u043c\u0430\u0442\u0435\u0440\u0438\u043d\u0441\u0442\u0432\u0430 \u0438 \u0434\u0435\u0442\u0441\u0442\u0432\u0430"}}, {"type": "way", "id": 977903721, "center": {"lat": 69.3578148, "lon": 88.412522}, "nodes": [1082319740, 1082319708, 9048591868, 9048591839, 9048591840, 1083423014, 9048591841, 1082319740], "tags": {"addr:city": "\u041d\u043e\u0440\u0438\u043b\u044c\u0441\u043a", "addr:country": "RU", "amenity": "hospital", "building": "yes", "healthcare": "hospital", "tunnel": "building_passage"}}, {"type": "way", "id": 977903722, "center": {"lat": 69.3577104, "lon": 88.4131707}, "nodes": [9048591839, 9048591842, 9048591843, 9048591848, 9048591844, 9048591845, 9048591852, 9048591849, 9048591840, 9048591839], "tags": {"addr:city": "\u041d\u043e\u0440\u0438\u043b\u044c\u0441\u043a", "addr:country": "RU", "amenity": "hospital", "building": "yes", "healthcare": "hospital"}}, {"type": "way", "id": 977903723, "center": {"lat": 69.3578053, "lon": 88.4133913}, "nodes": [9048591843, 9048591846, 9048591847, 9048591848, 9048591843], "tags": {"addr:city": "\u041d\u043e\u0440\u0438\u043b\u044c\u0441\u043a", "addr:country": "RU", "amenity": "hospital", "building": "yes", "healthcare": "hospital", "tunnel": "building_passage"}}, {"type": "way", "id": 977903724, "center": {"lat": 69.3575795, "lon": 88.413043}, "nodes": [9048591849, 9048591850, 9048591851, 9048591852, 9048591849], "tags": {"addr:city": "\u041d\u043e\u0440\u0438\u043b\u044c\u0441\u043a", "addr:country": "RU", "amenity": "hospital", "building": "yes", "healthcare": "hospital", "tunnel": "building_passage"}}, {"type": "way", "id": 977903725, "center": {"lat": 69.359029, "lon": 88.4129554}, "nodes": [9048591853, 9048591854, 9048591855, 9048591856, 9048591857, 9048591858, 9048591859, 9048591860, 9048591853], "tags": {"addr:city": "\u041d\u043e\u0440\u0438\u043b\u044c\u0441\u043a", "addr:country": "RU", "amenity": "hospital", "building": "yes", "healthcare": "hospital", "tunnel": "building_passage"}}, {"type": "relation", "id": 6678043, "center": {"lat": 69.3391793, "lon": 88.2172607}, "members": [{"type": "way", "ref": 93677986, "role": "outer"}, {"type": "way", "ref": 450107713, "role": "outer"}], "tags": {"addr:city": "\u041d\u043e\u0440\u0438\u043b\u044c\u0441\u043a", "addr:country": "RU", "addr:housenumber": "12", "addr:street": "\u0443\u043b\u0438\u0446\u0430 50 \u043b\u0435\u0442 \u041e\u043a\u0442\u044f\u0431\u0440\u044f", "amenity": "hospital", "building": "yes", "building:levels": "6", "name": "\u0414\u0435\u0442\u0441\u043a\u0430\u044f \u0433\u043e\u0440\u043e\u0434\u0441\u043a\u0430\u044f \u0431\u043e\u043b\u044c\u043d\u0438\u0446\u0430", "type": "multipolygon"}}, {"type": "relation", "id": 6949899, "center": {"lat": 61.535001, "lon": 82.4113983}, "members": [{"type": "way", "ref": 472346195, "role": "outer"}, {"type": "way", "ref": 472346197, "role": "outer"}, {"type": "way", "ref": 472346196, "role": "outer"}, {"type": "way", "ref": 472346198, "role": "outer"}, {"type": "way", "ref": 472346194, "role": "outer"}, {"type": "way", "ref": 472346199, "role": "outer"}, {"type": "way", "ref": 472346193, "role": "outer"}, {"type": "way", "ref": 472162659, "role": "outer"}], "tags": {"amenity": "hospital", "name": "\u041a\u043e\u0440\u043b\u0438\u043a\u043e\u0432\u0441\u043a\u0430\u044f \u0443\u0447\u0430\u0441\u0442\u043a\u043e\u0432\u0430\u044f \u0431\u043e\u043b\u044c\u043d\u0438\u0446\u0430", "operator": "\u0411\u044e\u0434\u0436\u0435\u0442\u043d\u043e\u0435 \u0443\u0447\u0440\u0435\u0436\u0434\u0435\u043d\u0438\u0435 \u0425\u0430\u043d\u0442\u044b-\u041c\u0430\u043d\u0441\u0438\u0439\u0441\u043a\u043e\u0433\u043e \u0430\u0432\u0442\u043e\u043d\u043e\u043c\u043d\u043e\u0433\u043e \u043e\u043a\u0440\u0443\u0433\u0430- \u042e\u0433\u0440\u044b \"\u041d\u0438\u0436\u043d\u0435\u0432\u0430\u0440\u0442\u043e\u0432\u0441\u043a\u0430\u044f \u0440\u0430\u0439\u043e\u043d\u043d\u0430\u044f \u0431\u043e\u043b\u044c\u043d\u0438\u0446\u0430\"", "type": "multipolygon"}}, {"type": "relation", "id": 7751843, "center": {"lat": 69.3526918, "lon": 87.7614509}, "members": [{"type": "way", "ref": 93606674, "role": "outer"}, {"type": "way", "ref": 542199714, "role": "outer"}, {"type": "way", "ref": 542199713, "role": "outer"}, {"type": "way", "ref": 542199712, "role": "outer"}], "tags": {"addr:city": "\u041a\u0430\u0439\u0435\u0440\u043a\u0430\u043d", "addr:country": "RU", "addr:street": "\u041d\u0430\u0434\u0435\u0436\u0434\u0438\u043d\u0441\u043a\u0430\u044f \u0443\u043b\u0438\u0446\u0430", "amenity": "hospital", "building": "yes", "building:levels": "4", "healthcare": "hospital", "name": "\u041c\u0435\u0434\u0438\u0446\u0438\u043d\u0441\u043a\u0430\u044f \u0441\u0430\u043d\u0447\u0430\u0441\u0442\u044c \u21163", "type": "multipolygon"}}]}