{"version": 0.6, "generator": "Overpass API 0.7.61.5 4133829e", "osm3s": {"timestamp_osm_base": "2023-10-31T21:04:00Z", "copyright": "The data included in this document is from www.openstreetmap.org. The data is made available under ODbL."}, "elements": [{"type": "node", "id": 289059252, "lat": 65.2637324, "lon": -14.4024756, "tags": {"amenity": "hospital", "healthcare": "hospital"}}, {"type": "node", "id": 513875438, "lat": 66.0490574, "lon": -17.34058, "tags": {"amenity": "hospital", "healthcare": "hospital", "name": "Heilbrig\u00f0isstofun \u00deingeyinga"}}, {"type": "node", "id": 819330269, "lat": 64.6544148, "lon": -14.2804349, "tags": {"amenity": "hospital", "name": "Heilsug\u00e6slust\u00f6\u00f0in Dj\u00fapavogi"}}, {"type": "node", "id": 851174039, "lat": 65.9750863, "lon": -18.530503, "tags": {"amenity": "hospital", "emergency": "no", "name": "Rau\u00f0i kross \u00cdslands"}}, {"type": "node", "id": 856691778, "lat": 63.4207456, "lon": -19.007103, "tags": {"amenity": "hospital", "healthcare": "hospital", "name": "Heilbrig\u00f0isstofnun Su\u00f0urlands"}}, {"type": "node", "id": 1364885342, "lat": 65.7391329, "lon": -19.6388502, "tags": {"amenity": "hospital", "designation": "Hospital", "emergency": "yes", "name": "Heilbrig\u00f0isstofunin Sau\u00f0\u00e1rkr\u00f3ki", "source": "personal info and their web page www.hskrokur.is/", "wheelchair": "yes"}}, {"type": "node", "id": 3075924550, "lat": 66.1556467, "lon": -18.9092952, "tags": {"amenity": "hospital", "emergency": "yes", "name": "Heilbrig\u00f0isstofnunin Fjallabygg\u00f0"}}, {"type": "node", "id": 4726948878, "lat": 66.4526936, "lon": -15.9504126, "tags": {"amenity": "hospital", "name": "Heilsug\u00e6sla Raufarhafnar"}}, {"type": "way", "id": 193117905, "center": {"lat": 64.2589445, "lon": -15.2152156}, "nodes": [2036357330, 2036357333, 2036357365, 2036357377, 2036357399, 2036357391, 2036357432, 2036357440, 2036357461, 2036357441, 2036357414, 2036357421, 2036357385, 2036357380, 2036357352, 2036357360, 2036357330], "tags": {"amenity": "hospital", "building": "yes", "healthcare": "hospital", "name": "Heilsug\u00e6sla vi\u00f0 V\u00edkurbraut", "source": "Local knowledge & Survey"}}, {"type": "way", "id": 197567549, "center": {"lat": 65.2579221, "lon": -14.0057453}, "nodes": [2077877950, 2077877925, 2077877934, 2077877911, 2077877946, 2077877941, 2077877936, 2077877947, 2077877950], "tags": {"addr:housenumber": "8B", "addr:postcode": "710", "addr:street": "Su\u00f0urgata", "amenity": "hospital", "building": "public", "building:levels": "4", "ref:HNITNUM": "10107431", "source:addr": "Sta\u00f0fangaskr\u00e1"}}, {"type": "way", "id": 220731308, "center": {"lat": 65.0335165, "lon": -14.2225594}, "nodes": [2298237200, 2298237202, 2298237204, 2298237206, 2298237200], "tags": {"addr:housenumber": "8", "addr:postcode": "730", "addr:street": "B\u00fa\u00f0areyri", "amenity": "hospital", "building": "yes", "healthcare": "hospital", "name": "Heilsug\u00e6slan", "ref:HNITNUM": "10004563", "source:addr": "Sta\u00f0fangaskr\u00e1"}}, {"type": "way", "id": 310428718, "center": {"lat": 65.1484302, "lon": -13.676025}, "nodes": [3158484124, 3158484099, 10998345108, 3158483863, 3158483878, 3158484085, 10998267994, 3158483255, 3158483253, 3158484093, 3158484091, 3158484092, 3158484094, 3158484081, 3158484124], "tags": {"addr:city": "Neskaupsta\u00f0ur", "addr:housenumber": "20", "addr:postcode": "740", "addr:street": "M\u00fdrargata", "amenity": "hospital", "building": "hospital", "name": "Fj\u00f3r\u00f0ungssj\u00fakrah\u00fasi\u00f0 \u00ed Neskaupsta\u00f0"}}, {"type": "way", "id": 420562271, "center": {"lat": 65.6733131, "lon": -18.093636}, "nodes": [4205122911, 4205122910, 4205122912, 4205122892, 4205122889, 4205122187, 4205122893, 4205122895, 4205293240, 4205293709, 4205293227, 4205293085, 4205293899, 4205293741, 4205293750, 4205292999, 4205293040, 4205293703, 4205293753, 4205293015, 6641994987, 4205089995, 4205089998, 4205090085, 4205122916, 4205090191, 4205089583, 4205089585, 4205089586, 4205089587, 4205090220, 4205122145, 4205122919, 6641993161, 4205122923, 4205122926, 4205122121, 4205122119, 4205122113, 4205122911], "tags": {"alt_name": "FSA", "amenity": "hospital", "emergency": "yes", "healthcare": "hospital", "name": "Sj\u00fakrah\u00fasi\u00f0 \u00e1 Akureyri"}}, {"type": "way", "id": 791524004, "center": {"lat": 65.7393704, "lon": -19.6397554}, "nodes": [7399572569, 7399572570, 7399581629, 7399572571, 7399572572, 7399581588, 7399572573, 7399572574, 7399572575, 7399572576, 7399572577, 7399572578, 7399572579, 7399572580, 7399572581, 7399572582, 7399572583, 7399572584, 7399581585, 7399581586, 7399572569], "tags": {"amenity": "hospital", "healthcare": "hospital"}}, {"type": "way", "id": 863452470, "center": {"lat": 65.972112, "lon": -18.5344782}, "nodes": [8043499344, 8043499345, 8043499346, 8043499347, 8043499344], "tags": {"amenity": "hospital", "emergency": "no", "healthcare": "hospital"}}]}