{"version": 0.6, "generator": "Overpass API 0.7.61.5 4133829e", "osm3s": {"timestamp_osm_base": "2023-10-31T21:04:59Z", "copyright": "The data included in this document is from www.openstreetmap.org. The data is made available under ODbL."}, "elements": [{"type": "way", "id": 190025212, "center": {"lat": 78.2200179, "lon": 15.6449128}, "nodes": [2006237535, 5286250242, 5286250241, 5286250240, 5286250243, 5286250247, 5286250246, 2006237543, 5286250244, 5286250245, 2006237545, 5286250251, 5286250249, 5286250248, 5286250250, 2006237537, 2006237535], "tags": {"amenity": "hospital", "building": "yes", "building:colour": "yellow", "building:levels": "2", "emergency": "yes", "healthcare": "hospital", "name": "Longyearbyen sykehus", "name:en": "Longyearbyen Hospital", "name:lt": "Longjyrbieno ligonin\u0117", "name:ru": "\u0411\u043e\u043b\u044c\u043d\u0438\u0446\u0430", "name:se": "Longyearbyen buohcceviessu", "roof:shape": "gabled", "start_date": "1991", "website": "https://unn.no/longyear", "wheelchair": "yes", "wikidata": "Q21778088"}}, {"type": "way", "id": 360063601, "center": {"lat": 78.0615448, "lon": 14.2172669}, "nodes": [3646653100, 3646653094, 3646653095, 3646653093, 3646652092, 3646652087, 3646652086, 3646653099, 3646653100], "tags": {"amenity": "hospital", "building": "hospital", "building:levels": "4", "healthcare": "hospital", "image": "https://commons.wikimedia.org/wiki/File:22_Barentsburg,Hospital.JPG", "name": "Hospital - \u0411\u043e\u043b\u044c\u043d\u0438\u0446\u0430", "name:en": "Hospital", "name:nb": "Sykehus", "name:ru": "\u0411\u043e\u043b\u044c\u043d\u0438\u0446\u0430"}}]}